<?xml version="1.0" encoding="UTF-8"?>
<gpx xmlns="http://www.topografix.com/GPX/1/1" version="1.1" creator="ShapeRoute route-engine">
  <metadata>
    <name>snail 10 km · 2026-10-05</name>
    <author>
      <name>ShapeRoute route-engine</name>
    </author>
    <copyright author="OpenStreetMap contributors">
      <license>https://opendatacommons.org/licenses/odbl/1-0/</license>
    </copyright>
    <link href="https://www.openstreetmap.org/copyright">
      <text>© OpenStreetMap contributors</text>
    </link>
    <time>2026-10-05T11:12:45Z</time>
  </metadata>
  <trk>
    <name>snail 10 km · 2026-10-05</name>
    <trkseg>
      <trkpt lat="46.0123552" lon="11.2985082" />
      <trkpt lat="46.0122424" lon="11.2983394" />
      <trkpt lat="46.0122499" lon="11.2982214" />
      <trkpt lat="46.0122052" lon="11.2981248" />
      <trkpt lat="46.0120860" lon="11.2982428" />
      <trkpt lat="46.0118824" lon="11.2985225" />
      <trkpt lat="46.0118028" lon="11.2983483" />
      <trkpt lat="46.0116728" lon="11.2981556" />
      <trkpt lat="46.0115587" lon="11.2979934" />
      <trkpt lat="46.0115764" lon="11.2979707" />
      <trkpt lat="46.0116123" lon="11.2977853" />
      <trkpt lat="46.0116484" lon="11.2977478" />
      <trkpt lat="46.0117244" lon="11.2976832" />
      <trkpt lat="46.0116886" lon="11.2976218" />
      <trkpt lat="46.0115521" lon="11.2973954" />
      <trkpt lat="46.0115313" lon="11.2973384" />
      <trkpt lat="46.0115322" lon="11.2972718" />
      <trkpt lat="46.0115821" lon="11.2971936" />
      <trkpt lat="46.0117613" lon="11.2969557" />
      <trkpt lat="46.0118075" lon="11.2968904" />
      <trkpt lat="46.0118474" lon="11.2968385" />
      <trkpt lat="46.0119490" lon="11.2968157" />
      <trkpt lat="46.0120889" lon="11.2967972" />
      <trkpt lat="46.0121944" lon="11.2967657" />
      <trkpt lat="46.0122600" lon="11.2968612" />
      <trkpt lat="46.0123675" lon="11.2969005" />
      <trkpt lat="46.0124188" lon="11.2970045" />
      <trkpt lat="46.0124205" lon="11.2970021" />
      <trkpt lat="46.0124454" lon="11.2969828" />
      <trkpt lat="46.0124966" lon="11.2970878" />
      <trkpt lat="46.0125635" lon="11.2970267" />
      <trkpt lat="46.0127363" lon="11.2973759" />
      <trkpt lat="46.0129449" lon="11.2977945" />
      <trkpt lat="46.0129712" lon="11.2978899" />
      <trkpt lat="46.0130468" lon="11.2977714" />
      <trkpt lat="46.0131199" lon="11.2976603" />
      <trkpt lat="46.0131919" lon="11.2975460" />
      <trkpt lat="46.0132414" lon="11.2974829" />
      <trkpt lat="46.0133097" lon="11.2974064" />
      <trkpt lat="46.0136602" lon="11.2971080" />
      <trkpt lat="46.0136995" lon="11.2970791" />
      <trkpt lat="46.0138620" lon="11.2969480" />
      <trkpt lat="46.0139217" lon="11.2968977" />
      <trkpt lat="46.0140508" lon="11.2967979" />
      <trkpt lat="46.0141646" lon="11.2967071" />
      <trkpt lat="46.0141572" lon="11.2966653" />
      <trkpt lat="46.0141552" lon="11.2966227" />
      <trkpt lat="46.0141592" lon="11.2965634" />
      <trkpt lat="46.0144424" lon="11.2961166" />
      <trkpt lat="46.0146129" lon="11.2958593" />
      <trkpt lat="46.0148171" lon="11.2956264" />
      <trkpt lat="46.0149883" lon="11.2953797" />
      <trkpt lat="46.0151223" lon="11.2951830" />
      <trkpt lat="46.0152866" lon="11.2949696" />
      <trkpt lat="46.0154004" lon="11.2945721" />
      <trkpt lat="46.0154028" lon="11.2944370" />
      <trkpt lat="46.0154342" lon="11.2944115" />
      <trkpt lat="46.0154632" lon="11.2942013" />
      <trkpt lat="46.0154776" lon="11.2940381" />
      <trkpt lat="46.0154496" lon="11.2939212" />
      <trkpt lat="46.0153043" lon="11.2938070" />
      <trkpt lat="46.0151223" lon="11.2936662" />
      <trkpt lat="46.0150636" lon="11.2936208" />
      <trkpt lat="46.0150491" lon="11.2936096" />
      <trkpt lat="46.0147891" lon="11.2934507" />
      <trkpt lat="46.0146399" lon="11.2933881" />
      <trkpt lat="46.0145436" lon="11.2933744" />
      <trkpt lat="46.0140896" lon="11.2933702" />
      <trkpt lat="46.0139921" lon="11.2933736" />
      <trkpt lat="46.0132165" lon="11.2935172" />
      <trkpt lat="46.0131754" lon="11.2935322" />
      <trkpt lat="46.0129133" lon="11.2936275" />
      <trkpt lat="46.0125329" lon="11.2939461" />
      <trkpt lat="46.0121425" lon="11.2943986" />
      <trkpt lat="46.0117996" lon="11.2948382" />
      <trkpt lat="46.0118463" lon="11.2949585" />
      <trkpt lat="46.0119240" lon="11.2949537" />
      <trkpt lat="46.0119840" lon="11.2950076" />
      <trkpt lat="46.0120267" lon="11.2951912" />
      <trkpt lat="46.0120381" lon="11.2952586" />
      <trkpt lat="46.0121823" lon="11.2955836" />
      <trkpt lat="46.0122583" lon="11.2957312" />
      <trkpt lat="46.0123881" lon="11.2955892" />
      <trkpt lat="46.0124043" lon="11.2956008" />
      <trkpt lat="46.0127700" lon="11.2951050" />
      <trkpt lat="46.0124043" lon="11.2956008" />
      <trkpt lat="46.0123881" lon="11.2955892" />
      <trkpt lat="46.0122583" lon="11.2957312" />
      <trkpt lat="46.0121823" lon="11.2955836" />
      <trkpt lat="46.0120381" lon="11.2952586" />
      <trkpt lat="46.0120267" lon="11.2951912" />
      <trkpt lat="46.0119840" lon="11.2950076" />
      <trkpt lat="46.0119240" lon="11.2949537" />
      <trkpt lat="46.0118463" lon="11.2949585" />
      <trkpt lat="46.0117996" lon="11.2948382" />
      <trkpt lat="46.0121425" lon="11.2943986" />
      <trkpt lat="46.0125329" lon="11.2939461" />
      <trkpt lat="46.0129133" lon="11.2936275" />
      <trkpt lat="46.0131754" lon="11.2935322" />
      <trkpt lat="46.0132165" lon="11.2935172" />
      <trkpt lat="46.0139921" lon="11.2933736" />
      <trkpt lat="46.0140896" lon="11.2933702" />
      <trkpt lat="46.0145436" lon="11.2933744" />
      <trkpt lat="46.0146399" lon="11.2933881" />
      <trkpt lat="46.0147891" lon="11.2934507" />
      <trkpt lat="46.0150491" lon="11.2936096" />
      <trkpt lat="46.0150636" lon="11.2936208" />
      <trkpt lat="46.0151223" lon="11.2936662" />
      <trkpt lat="46.0153043" lon="11.2938070" />
      <trkpt lat="46.0154496" lon="11.2939212" />
      <trkpt lat="46.0154776" lon="11.2940381" />
      <trkpt lat="46.0154632" lon="11.2942013" />
      <trkpt lat="46.0154342" lon="11.2944115" />
      <trkpt lat="46.0154028" lon="11.2944370" />
      <trkpt lat="46.0154004" lon="11.2945721" />
      <trkpt lat="46.0152866" lon="11.2949696" />
      <trkpt lat="46.0151223" lon="11.2951830" />
      <trkpt lat="46.0149883" lon="11.2953797" />
      <trkpt lat="46.0148171" lon="11.2956264" />
      <trkpt lat="46.0146129" lon="11.2958593" />
      <trkpt lat="46.0144424" lon="11.2961166" />
      <trkpt lat="46.0141592" lon="11.2965634" />
      <trkpt lat="46.0141552" lon="11.2966227" />
      <trkpt lat="46.0141572" lon="11.2966653" />
      <trkpt lat="46.0141646" lon="11.2967071" />
      <trkpt lat="46.0140508" lon="11.2967979" />
      <trkpt lat="46.0139217" lon="11.2968977" />
      <trkpt lat="46.0138620" lon="11.2969480" />
      <trkpt lat="46.0136995" lon="11.2970791" />
      <trkpt lat="46.0136602" lon="11.2971080" />
      <trkpt lat="46.0136389" lon="11.2970461" />
      <trkpt lat="46.0135550" lon="11.2968258" />
      <trkpt lat="46.0134421" lon="11.2969529" />
      <trkpt lat="46.0133345" lon="11.2969620" />
      <trkpt lat="46.0132836" lon="11.2969663" />
      <trkpt lat="46.0132347" lon="11.2969667" />
      <trkpt lat="46.0131387" lon="11.2969670" />
      <trkpt lat="46.0130011" lon="11.2969499" />
      <trkpt lat="46.0129564" lon="11.2969392" />
      <trkpt lat="46.0128995" lon="11.2969060" />
      <trkpt lat="46.0128483" lon="11.2968761" />
      <trkpt lat="46.0126601" lon="11.2966238" />
      <trkpt lat="46.0125238" lon="11.2967885" />
      <trkpt lat="46.0130001" lon="11.2977238" />
      <trkpt lat="46.0129449" lon="11.2977945" />
      <trkpt lat="46.0127363" lon="11.2973759" />
      <trkpt lat="46.0125635" lon="11.2970267" />
      <trkpt lat="46.0124966" lon="11.2970878" />
      <trkpt lat="46.0124454" lon="11.2969828" />
      <trkpt lat="46.0124205" lon="11.2970021" />
      <trkpt lat="46.0124188" lon="11.2970045" />
      <trkpt lat="46.0124894" lon="11.2971477" />
      <trkpt lat="46.0124890" lon="11.2972019" />
      <trkpt lat="46.0124616" lon="11.2972508" />
      <trkpt lat="46.0121759" lon="11.2976221" />
      <trkpt lat="46.0120196" lon="11.2974579" />
      <trkpt lat="46.0119304" lon="11.2974983" />
      <trkpt lat="46.0117244" lon="11.2976832" />
      <trkpt lat="46.0116484" lon="11.2977478" />
      <trkpt lat="46.0116123" lon="11.2977853" />
      <trkpt lat="46.0112181" lon="11.2971112" />
      <trkpt lat="46.0111443" lon="11.2971898" />
      <trkpt lat="46.0109630" lon="11.2974406" />
      <trkpt lat="46.0107801" lon="11.2977017" />
      <trkpt lat="46.0106159" lon="11.2979879" />
      <trkpt lat="46.0105560" lon="11.2981004" />
      <trkpt lat="46.0104499" lon="11.2983154" />
      <trkpt lat="46.0103691" lon="11.2984793" />
      <trkpt lat="46.0102995" lon="11.2985799" />
      <trkpt lat="46.0103092" lon="11.2985996" />
      <trkpt lat="46.0103182" lon="11.2986405" />
      <trkpt lat="46.0103179" lon="11.2986834" />
      <trkpt lat="46.0103084" lon="11.2987240" />
      <trkpt lat="46.0102907" lon="11.2987584" />
      <trkpt lat="46.0102664" lon="11.2987832" />
      <trkpt lat="46.0102381" lon="11.2987961" />
      <trkpt lat="46.0102311" lon="11.2987960" />
      <trkpt lat="46.0101155" lon="11.2990539" />
      <trkpt lat="46.0101500" lon="11.2991720" />
      <trkpt lat="46.0102028" lon="11.2992541" />
      <trkpt lat="46.0102603" lon="11.2993252" />
      <trkpt lat="46.0102671" lon="11.2993336" />
      <trkpt lat="46.0104322" lon="11.2993405" />
      <trkpt lat="46.0105637" lon="11.2993974" />
      <trkpt lat="46.0106519" lon="11.2994633" />
      <trkpt lat="46.0108075" lon="11.2995628" />
      <trkpt lat="46.0109092" lon="11.2996421" />
      <trkpt lat="46.0109808" lon="11.2997521" />
      <trkpt lat="46.0110438" lon="11.2998653" />
      <trkpt lat="46.0111085" lon="11.2999988" />
      <trkpt lat="46.0111478" lon="11.3000732" />
      <trkpt lat="46.0111699" lon="11.3001210" />
      <trkpt lat="46.0112603" lon="11.3002166" />
      <trkpt lat="46.0112962" lon="11.3002246" />
      <trkpt lat="46.0113555" lon="11.3004664" />
      <trkpt lat="46.0113758" lon="11.3005772" />
      <trkpt lat="46.0113854" lon="11.3006619" />
      <trkpt lat="46.0114434" lon="11.3007649" />
      <trkpt lat="46.0115191" lon="11.3009521" />
      <trkpt lat="46.0115785" lon="11.3010636" />
      <trkpt lat="46.0115915" lon="11.3009636" />
      <trkpt lat="46.0116630" lon="11.3009231" />
      <trkpt lat="46.0118055" lon="11.3008842" />
      <trkpt lat="46.0118496" lon="11.3009037" />
      <trkpt lat="46.0119443" lon="11.3009640" />
      <trkpt lat="46.0120169" lon="11.3010306" />
      <trkpt lat="46.0120772" lon="11.3011040" />
      <trkpt lat="46.0121159" lon="11.3011788" />
      <trkpt lat="46.0122465" lon="11.3013586" />
      <trkpt lat="46.0122740" lon="11.3014141" />
      <trkpt lat="46.0124475" lon="11.3015655" />
      <trkpt lat="46.0126992" lon="11.3017516" />
      <trkpt lat="46.0130588" lon="11.3019822" />
      <trkpt lat="46.0135551" lon="11.3022875" />
      <trkpt lat="46.0137742" lon="11.3024673" />
      <trkpt lat="46.0138376" lon="11.3023130" />
      <trkpt lat="46.0138939" lon="11.3021951" />
      <trkpt lat="46.0139681" lon="11.3020406" />
      <trkpt lat="46.0140314" lon="11.3019974" />
      <trkpt lat="46.0140706" lon="11.3019085" />
      <trkpt lat="46.0141122" lon="11.3018024" />
      <trkpt lat="46.0141198" lon="11.3017526" />
      <trkpt lat="46.0141122" lon="11.3018024" />
      <trkpt lat="46.0140706" lon="11.3019085" />
      <trkpt lat="46.0140314" lon="11.3019974" />
      <trkpt lat="46.0139681" lon="11.3020406" />
      <trkpt lat="46.0138939" lon="11.3021951" />
      <trkpt lat="46.0138376" lon="11.3023130" />
      <trkpt lat="46.0137742" lon="11.3024673" />
      <trkpt lat="46.0135551" lon="11.3022875" />
      <trkpt lat="46.0130588" lon="11.3019822" />
      <trkpt lat="46.0126992" lon="11.3017516" />
      <trkpt lat="46.0124475" lon="11.3015655" />
      <trkpt lat="46.0122740" lon="11.3014141" />
      <trkpt lat="46.0122465" lon="11.3013586" />
      <trkpt lat="46.0121159" lon="11.3011788" />
      <trkpt lat="46.0122465" lon="11.3013586" />
      <trkpt lat="46.0122740" lon="11.3014141" />
      <trkpt lat="46.0124475" lon="11.3015655" />
      <trkpt lat="46.0126992" lon="11.3017516" />
      <trkpt lat="46.0130588" lon="11.3019822" />
      <trkpt lat="46.0129158" lon="11.3025677" />
      <trkpt lat="46.0128501" lon="11.3028052" />
      <trkpt lat="46.0128080" lon="11.3031323" />
      <trkpt lat="46.0127785" lon="11.3033938" />
      <trkpt lat="46.0128267" lon="11.3034075" />
      <trkpt lat="46.0129663" lon="11.3033746" />
      <trkpt lat="46.0128267" lon="11.3034075" />
      <trkpt lat="46.0127785" lon="11.3033938" />
      <trkpt lat="46.0126938" lon="11.3033373" />
      <trkpt lat="46.0125542" lon="11.3032472" />
      <trkpt lat="46.0124206" lon="11.3031691" />
      <trkpt lat="46.0123544" lon="11.3031279" />
      <trkpt lat="46.0121903" lon="11.3031071" />
      <trkpt lat="46.0121321" lon="11.3030905" />
      <trkpt lat="46.0121247" lon="11.3029547" />
      <trkpt lat="46.0120773" lon="11.3023760" />
      <trkpt lat="46.0120540" lon="11.3021616" />
      <trkpt lat="46.0119217" lon="11.3021360" />
      <trkpt lat="46.0118576" lon="11.3021269" />
      <trkpt lat="46.0117907" lon="11.3020555" />
      <trkpt lat="46.0117608" lon="11.3019922" />
      <trkpt lat="46.0117582" lon="11.3019265" />
      <trkpt lat="46.0117545" lon="11.3018306" />
      <trkpt lat="46.0115591" lon="11.3016887" />
      <trkpt lat="46.0115298" lon="11.3016640" />
      <trkpt lat="46.0115558" lon="11.3014758" />
      <trkpt lat="46.0115621" lon="11.3014064" />
      <trkpt lat="46.0115644" lon="11.3012354" />
      <trkpt lat="46.0115646" lon="11.3012218" />
      <trkpt lat="46.0115553" lon="11.3012171" />
      <trkpt lat="46.0115344" lon="11.3012095" />
      <trkpt lat="46.0115210" lon="11.3012072" />
      <trkpt lat="46.0114687" lon="11.3012092" />
      <trkpt lat="46.0113099" lon="11.3012318" />
      <trkpt lat="46.0111720" lon="11.3012657" />
      <trkpt lat="46.0111190" lon="11.3012644" />
      <trkpt lat="46.0110801" lon="11.3012839" />
      <trkpt lat="46.0108546" lon="11.3015794" />
      <trkpt lat="46.0107801" lon="11.3016796" />
      <trkpt lat="46.0107475" lon="11.3017254" />
      <trkpt lat="46.0104112" lon="11.3014153" />
      <trkpt lat="46.0101640" lon="11.3010780" />
      <trkpt lat="46.0100785" lon="11.3009629" />
      <trkpt lat="46.0100554" lon="11.3009318" />
      <trkpt lat="46.0099866" lon="11.3008330" />
      <trkpt lat="46.0099449" lon="11.3007687" />
      <trkpt lat="46.0099204" lon="11.3007309" />
      <trkpt lat="46.0099081" lon="11.3007120" />
      <trkpt lat="46.0097259" lon="11.3004099" />
      <trkpt lat="46.0096170" lon="11.3003095" />
      <trkpt lat="46.0095258" lon="11.3002254" />
      <trkpt lat="46.0100209" lon="11.2991942" />
      <trkpt lat="46.0100425" lon="11.2991474" />
      <trkpt lat="46.0100999" lon="11.2990123" />
      <trkpt lat="46.0101893" lon="11.2987865" />
      <trkpt lat="46.0101801" lon="11.2987820" />
      <trkpt lat="46.0101562" lon="11.2987565" />
      <trkpt lat="46.0101389" lon="11.2987216" />
      <trkpt lat="46.0101300" lon="11.2986808" />
      <trkpt lat="46.0101303" lon="11.2986379" />
      <trkpt lat="46.0101398" lon="11.2985973" />
      <trkpt lat="46.0101575" lon="11.2985629" />
      <trkpt lat="46.0101817" lon="11.2985380" />
      <trkpt lat="46.0102101" lon="11.2985252" />
      <trkpt lat="46.0102411" lon="11.2984343" />
      <trkpt lat="46.0102422" lon="11.2983790" />
      <trkpt lat="46.0108845" lon="11.2973714" />
      <trkpt lat="46.0110949" lon="11.2970250" />
      <trkpt lat="46.0111781" lon="11.2968399" />
      <trkpt lat="46.0112072" lon="11.2965500" />
      <trkpt lat="46.0113169" lon="11.2960001" />
      <trkpt lat="46.0114367" lon="11.2956134" />
      <trkpt lat="46.0115150" lon="11.2954806" />
      <trkpt lat="46.0115596" lon="11.2953829" />
      <trkpt lat="46.0116754" lon="11.2952125" />
      <trkpt lat="46.0117011" lon="11.2951731" />
      <trkpt lat="46.0117049" lon="11.2951673" />
      <trkpt lat="46.0117646" lon="11.2950807" />
      <trkpt lat="46.0118000" lon="11.2950276" />
      <trkpt lat="46.0117646" lon="11.2949525" />
      <trkpt lat="46.0116660" lon="11.2947435" />
      <trkpt lat="46.0115468" lon="11.2945461" />
      <trkpt lat="46.0115051" lon="11.2944431" />
      <trkpt lat="46.0114753" lon="11.2942715" />
      <trkpt lat="46.0115349" lon="11.2938251" />
      <trkpt lat="46.0115528" lon="11.2936792" />
      <trkpt lat="46.0115647" lon="11.2930441" />
      <trkpt lat="46.0115994" lon="11.2925910" />
      <trkpt lat="46.0116482" lon="11.2919540" />
      <trkpt lat="46.0117435" lon="11.2911472" />
      <trkpt lat="46.0118615" lon="11.2905121" />
      <trkpt lat="46.0119071" lon="11.2901018" />
      <trkpt lat="46.0119333" lon="11.2898959" />
      <trkpt lat="46.0119559" lon="11.2897268" />
      <trkpt lat="46.0119891" lon="11.2895508" />
      <trkpt lat="46.0120090" lon="11.2894359" />
      <trkpt lat="46.0120118" lon="11.2893791" />
      <trkpt lat="46.0120193" lon="11.2893392" />
      <trkpt lat="46.0120153" lon="11.2892938" />
      <trkpt lat="46.0120120" lon="11.2892244" />
      <trkpt lat="46.0120429" lon="11.2892117" />
      <trkpt lat="46.0121666" lon="11.2891716" />
      <trkpt lat="46.0122996" lon="11.2890980" />
      <trkpt lat="46.0122430" lon="11.2889569" />
      <trkpt lat="46.0123462" lon="11.2888647" />
      <trkpt lat="46.0121547" lon="11.2881806" />
      <trkpt lat="46.0120770" lon="11.2882163" />
      <trkpt lat="46.0120476" lon="11.2882633" />
      <trkpt lat="46.0121145" lon="11.2886082" />
      <trkpt lat="46.0122430" lon="11.2889569" />
      <trkpt lat="46.0122996" lon="11.2890980" />
      <trkpt lat="46.0121666" lon="11.2891716" />
      <trkpt lat="46.0120429" lon="11.2892117" />
      <trkpt lat="46.0120120" lon="11.2892244" />
      <trkpt lat="46.0120153" lon="11.2892938" />
      <trkpt lat="46.0120193" lon="11.2893392" />
      <trkpt lat="46.0120118" lon="11.2893791" />
      <trkpt lat="46.0120090" lon="11.2894359" />
      <trkpt lat="46.0119891" lon="11.2895508" />
      <trkpt lat="46.0119559" lon="11.2897268" />
      <trkpt lat="46.0119333" lon="11.2898959" />
      <trkpt lat="46.0119071" lon="11.2901018" />
      <trkpt lat="46.0118615" lon="11.2905121" />
      <trkpt lat="46.0117435" lon="11.2911472" />
      <trkpt lat="46.0116482" lon="11.2919540" />
      <trkpt lat="46.0115994" lon="11.2925910" />
      <trkpt lat="46.0116570" lon="11.2927546" />
      <trkpt lat="46.0116362" lon="11.2930784" />
      <trkpt lat="46.0116362" lon="11.2936106" />
      <trkpt lat="46.0116005" lon="11.2939711" />
      <trkpt lat="46.0115766" lon="11.2942114" />
      <trkpt lat="46.0115886" lon="11.2943573" />
      <trkpt lat="46.0116482" lon="11.2944860" />
      <trkpt lat="46.0117996" lon="11.2948382" />
      <trkpt lat="46.0121425" lon="11.2943986" />
      <trkpt lat="46.0125329" lon="11.2939461" />
      <trkpt lat="46.0129133" lon="11.2936275" />
      <trkpt lat="46.0131754" lon="11.2935322" />
      <trkpt lat="46.0132165" lon="11.2935172" />
      <trkpt lat="46.0139921" lon="11.2933736" />
      <trkpt lat="46.0140896" lon="11.2933702" />
      <trkpt lat="46.0141552" lon="11.2932415" />
      <trkpt lat="46.0143101" lon="11.2930012" />
      <trkpt lat="46.0144265" lon="11.2927022" />
      <trkpt lat="46.0145784" lon="11.2923231" />
      <trkpt lat="46.0147036" lon="11.2921944" />
      <trkpt lat="46.0150076" lon="11.2919050" />
      <trkpt lat="46.0150509" lon="11.2920681" />
      <trkpt lat="46.0151925" lon="11.2923573" />
      <trkpt lat="46.0152555" lon="11.2924861" />
      <trkpt lat="46.0153284" lon="11.2926093" />
      <trkpt lat="46.0154225" lon="11.2927684" />
      <trkpt lat="46.0154946" lon="11.2928902" />
      <trkpt lat="46.0156203" lon="11.2931027" />
      <trkpt lat="46.0158371" lon="11.2934691" />
      <trkpt lat="46.0157817" lon="11.2935851" />
      <trkpt lat="46.0156633" lon="11.2937085" />
      <trkpt lat="46.0154496" lon="11.2939212" />
      <trkpt lat="46.0154776" lon="11.2940381" />
      <trkpt lat="46.0154632" lon="11.2942013" />
      <trkpt lat="46.0154342" lon="11.2944115" />
      <trkpt lat="46.0155379" lon="11.2943323" />
      <trkpt lat="46.0156549" lon="11.2942128" />
      <trkpt lat="46.0157556" lon="11.2940659" />
      <trkpt lat="46.0158657" lon="11.2938677" />
      <trkpt lat="46.0160048" lon="11.2935632" />
      <trkpt lat="46.0161232" lon="11.2932305" />
      <trkpt lat="46.0161773" lon="11.2929628" />
      <trkpt lat="46.0162218" lon="11.2929072" />
      <trkpt lat="46.0162577" lon="11.2928722" />
      <trkpt lat="46.0165943" lon="11.2926445" />
      <trkpt lat="46.0166521" lon="11.2930221" />
      <trkpt lat="46.0167173" lon="11.2934673" />
      <trkpt lat="46.0167450" lon="11.2936566" />
      <trkpt lat="46.0167454" lon="11.2940527" />
      <trkpt lat="46.0166774" lon="11.2943284" />
      <trkpt lat="46.0166634" lon="11.2943853" />
      <trkpt lat="46.0169304" lon="11.2945945" />
      <trkpt lat="46.0168312" lon="11.2947578" />
      <trkpt lat="46.0167238" lon="11.2949244" />
      <trkpt lat="46.0165988" lon="11.2951123" />
      <trkpt lat="46.0163360" lon="11.2953323" />
      <trkpt lat="46.0161067" lon="11.2955120" />
      <trkpt lat="46.0157332" lon="11.2958155" />
      <trkpt lat="46.0152410" lon="11.2962611" />
      <trkpt lat="46.0147829" lon="11.2966885" />
      <trkpt lat="46.0149241" lon="11.2966919" />
      <trkpt lat="46.0151964" lon="11.2967112" />
      <trkpt lat="46.0155617" lon="11.2967634" />
      <trkpt lat="46.0155343" lon="11.2969473" />
      <trkpt lat="46.0153144" lon="11.2975461" />
      <trkpt lat="46.0151784" lon="11.2978177" />
      <trkpt lat="46.0150983" lon="11.2979778" />
      <trkpt lat="46.0147775" lon="11.2986185" />
      <trkpt lat="46.0144647" lon="11.2992432" />
      <trkpt lat="46.0143419" lon="11.2994850" />
      <trkpt lat="46.0143116" lon="11.2995475" />
      <trkpt lat="46.0139448" lon="11.3002023" />
      <trkpt lat="46.0137990" lon="11.3002881" />
      <trkpt lat="46.0137103" lon="11.3003368" />
      <trkpt lat="46.0136300" lon="11.3003277" />
      <trkpt lat="46.0135307" lon="11.3002820" />
      <trkpt lat="46.0133640" lon="11.3000599" />
      <trkpt lat="46.0131631" lon="11.2997923" />
      <trkpt lat="46.0130152" lon="11.2995155" />
      <trkpt lat="46.0129920" lon="11.2994181" />
      <trkpt lat="46.0131011" lon="11.2992585" />
      <trkpt lat="46.0129549" lon="11.2989829" />
      <trkpt lat="46.0128564" lon="11.2988935" />
      <trkpt lat="46.0127193" lon="11.2987950" />
      <trkpt lat="46.0127099" lon="11.2988315" />
      <trkpt lat="46.0123552" lon="11.2985082" />
    </trkseg>
  </trk>
</gpx>
