<?xml version="1.0" encoding="UTF-8"?>
<gpx xmlns="http://www.topografix.com/GPX/1/1" version="1.1" creator="ShapeRoute route-engine">
  <metadata>
    <name>tree 15 km · 2026-09-24</name>
    <author>
      <name>ShapeRoute route-engine</name>
    </author>
    <copyright author="OpenStreetMap contributors">
      <license>https://opendatacommons.org/licenses/odbl/1-0/</license>
    </copyright>
    <link href="https://www.openstreetmap.org/copyright">
      <text>© OpenStreetMap contributors</text>
    </link>
    <time>2026-09-24T06:29:03Z</time>
  </metadata>
  <trk>
    <name>tree 15 km · 2026-09-24</name>
    <trkseg>
      <trkpt lat="46.0123552" lon="11.2985082" />
      <trkpt lat="46.0125364" lon="11.2982718" />
      <trkpt lat="46.0127682" lon="11.2980215" />
      <trkpt lat="46.0128013" lon="11.2980024" />
      <trkpt lat="46.0128770" lon="11.2979586" />
      <trkpt lat="46.0129712" lon="11.2978899" />
      <trkpt lat="46.0129449" lon="11.2977945" />
      <trkpt lat="46.0127363" lon="11.2973759" />
      <trkpt lat="46.0125635" lon="11.2970267" />
      <trkpt lat="46.0127363" lon="11.2973759" />
      <trkpt lat="46.0129449" lon="11.2977945" />
      <trkpt lat="46.0129712" lon="11.2978899" />
      <trkpt lat="46.0130468" lon="11.2977714" />
      <trkpt lat="46.0131199" lon="11.2976603" />
      <trkpt lat="46.0131919" lon="11.2975460" />
      <trkpt lat="46.0132320" lon="11.2976177" />
      <trkpt lat="46.0133454" lon="11.2977970" />
      <trkpt lat="46.0134865" lon="11.2979792" />
      <trkpt lat="46.0136470" lon="11.2981837" />
      <trkpt lat="46.0139231" lon="11.2985434" />
      <trkpt lat="46.0141584" lon="11.2988474" />
      <trkpt lat="46.0141849" lon="11.2988817" />
      <trkpt lat="46.0144647" lon="11.2992432" />
      <trkpt lat="46.0145138" lon="11.2993285" />
      <trkpt lat="46.0145811" lon="11.2994220" />
      <trkpt lat="46.0146771" lon="11.2995241" />
      <trkpt lat="46.0147999" lon="11.2995516" />
      <trkpt lat="46.0149522" lon="11.2994952" />
      <trkpt lat="46.0151116" lon="11.2994017" />
      <trkpt lat="46.0152529" lon="11.2994057" />
      <trkpt lat="46.0153721" lon="11.2994057" />
      <trkpt lat="46.0155092" lon="11.2994658" />
      <trkpt lat="46.0156523" lon="11.2995860" />
      <trkpt lat="46.0157648" lon="11.2997010" />
      <trkpt lat="46.0160338" lon="11.2998263" />
      <trkpt lat="46.0162066" lon="11.2999207" />
      <trkpt lat="46.0163497" lon="11.3000924" />
      <trkpt lat="46.0165426" lon="11.3003874" />
      <trkpt lat="46.0166596" lon="11.3005644" />
      <trkpt lat="46.0167475" lon="11.3007453" />
      <trkpt lat="46.0167848" lon="11.3008219" />
      <trkpt lat="46.0168507" lon="11.3010289" />
      <trkpt lat="46.0168864" lon="11.3012349" />
      <trkpt lat="46.0168268" lon="11.3013808" />
      <trkpt lat="46.0168036" lon="11.3014512" />
      <trkpt lat="46.0167136" lon="11.3017241" />
      <trkpt lat="46.0166736" lon="11.3019590" />
      <trkpt lat="46.0166319" lon="11.3021868" />
      <trkpt lat="46.0166719" lon="11.3023249" />
      <trkpt lat="46.0167927" lon="11.3026196" />
      <trkpt lat="46.0170292" lon="11.3030996" />
      <trkpt lat="46.0173451" lon="11.3029709" />
      <trkpt lat="46.0177042" lon="11.3028584" />
      <trkpt lat="46.0178265" lon="11.3028645" />
      <trkpt lat="46.0179509" lon="11.3029231" />
      <trkpt lat="46.0178265" lon="11.3028645" />
      <trkpt lat="46.0177042" lon="11.3028584" />
      <trkpt lat="46.0173451" lon="11.3029709" />
      <trkpt lat="46.0170292" lon="11.3030996" />
      <trkpt lat="46.0167927" lon="11.3026196" />
      <trkpt lat="46.0169441" lon="11.3021369" />
      <trkpt lat="46.0170359" lon="11.3017269" />
      <trkpt lat="46.0170520" lon="11.3015792" />
      <trkpt lat="46.0170461" lon="11.3009812" />
      <trkpt lat="46.0170482" lon="11.3008359" />
      <trkpt lat="46.0170854" lon="11.3008268" />
      <trkpt lat="46.0171492" lon="11.3007972" />
      <trkpt lat="46.0171796" lon="11.3007078" />
      <trkpt lat="46.0172081" lon="11.3006243" />
      <trkpt lat="46.0172156" lon="11.3004086" />
      <trkpt lat="46.0172078" lon="11.3002483" />
      <trkpt lat="46.0171845" lon="11.3000081" />
      <trkpt lat="46.0172063" lon="11.2997754" />
      <trkpt lat="46.0172435" lon="11.2996112" />
      <trkpt lat="46.0173253" lon="11.2994310" />
      <trkpt lat="46.0174826" lon="11.2992199" />
      <trkpt lat="46.0176795" lon="11.2990835" />
      <trkpt lat="46.0177684" lon="11.2989472" />
      <trkpt lat="46.0176795" lon="11.2990835" />
      <trkpt lat="46.0174826" lon="11.2992199" />
      <trkpt lat="46.0173253" lon="11.2994310" />
      <trkpt lat="46.0172435" lon="11.2996112" />
      <trkpt lat="46.0172063" lon="11.2997754" />
      <trkpt lat="46.0171845" lon="11.3000081" />
      <trkpt lat="46.0172078" lon="11.3002483" />
      <trkpt lat="46.0172156" lon="11.3004086" />
      <trkpt lat="46.0172081" lon="11.3006243" />
      <trkpt lat="46.0171796" lon="11.3007078" />
      <trkpt lat="46.0171492" lon="11.3007972" />
      <trkpt lat="46.0170854" lon="11.3008268" />
      <trkpt lat="46.0170482" lon="11.3008359" />
      <trkpt lat="46.0170461" lon="11.3009812" />
      <trkpt lat="46.0169422" lon="11.3011398" />
      <trkpt lat="46.0168864" lon="11.3012349" />
      <trkpt lat="46.0168268" lon="11.3013808" />
      <trkpt lat="46.0168036" lon="11.3014512" />
      <trkpt lat="46.0167136" lon="11.3017241" />
      <trkpt lat="46.0166736" lon="11.3019590" />
      <trkpt lat="46.0166319" lon="11.3021868" />
      <trkpt lat="46.0166719" lon="11.3023249" />
      <trkpt lat="46.0167927" lon="11.3026196" />
      <trkpt lat="46.0170292" lon="11.3030996" />
      <trkpt lat="46.0169338" lon="11.3032080" />
      <trkpt lat="46.0168363" lon="11.3033181" />
      <trkpt lat="46.0167352" lon="11.3033805" />
      <trkpt lat="46.0167054" lon="11.3034663" />
      <trkpt lat="46.0167292" lon="11.3036036" />
      <trkpt lat="46.0168768" lon="11.3041644" />
      <trkpt lat="46.0169713" lon="11.3047150" />
      <trkpt lat="46.0169994" lon="11.3049075" />
      <trkpt lat="46.0170498" lon="11.3051086" />
      <trkpt lat="46.0171816" lon="11.3054649" />
      <trkpt lat="46.0174605" lon="11.3059445" />
      <trkpt lat="46.0175943" lon="11.3060763" />
      <trkpt lat="46.0177038" lon="11.3061079" />
      <trkpt lat="46.0178213" lon="11.3060850" />
      <trkpt lat="46.0179815" lon="11.3060313" />
      <trkpt lat="46.0183559" lon="11.3060340" />
      <trkpt lat="46.0184881" lon="11.3060099" />
      <trkpt lat="46.0185738" lon="11.3059992" />
      <trkpt lat="46.0186502" lon="11.3059348" />
      <trkpt lat="46.0186967" lon="11.3058463" />
      <trkpt lat="46.0188252" lon="11.3055512" />
      <trkpt lat="46.0191177" lon="11.3053125" />
      <trkpt lat="46.0193784" lon="11.3052428" />
      <trkpt lat="46.0196448" lon="11.3052240" />
      <trkpt lat="46.0198366" lon="11.3052160" />
      <trkpt lat="46.0201097" lon="11.3051109" />
      <trkpt lat="46.0203188" lon="11.3049647" />
      <trkpt lat="46.0204739" lon="11.3049117" />
      <trkpt lat="46.0206524" lon="11.3048270" />
      <trkpt lat="46.0209150" lon="11.3048270" />
      <trkpt lat="46.0211124" lon="11.3048297" />
      <trkpt lat="46.0212540" lon="11.3047868" />
      <trkpt lat="46.0213415" lon="11.3047224" />
      <trkpt lat="46.0214104" lon="11.3046312" />
      <trkpt lat="46.0214421" lon="11.3045213" />
      <trkpt lat="46.0214477" lon="11.3043818" />
      <trkpt lat="46.0214384" lon="11.3041565" />
      <trkpt lat="46.0214645" lon="11.3038453" />
      <trkpt lat="46.0214198" lon="11.3035154" />
      <trkpt lat="46.0214160" lon="11.3029093" />
      <trkpt lat="46.0213918" lon="11.3024184" />
      <trkpt lat="46.0213583" lon="11.3020831" />
      <trkpt lat="46.0213061" lon="11.3019276" />
      <trkpt lat="46.0212354" lon="11.3017666" />
      <trkpt lat="46.0211538" lon="11.3016688" />
      <trkpt lat="46.0211088" lon="11.3014813" />
      <trkpt lat="46.0210543" lon="11.3013930" />
      <trkpt lat="46.0209755" lon="11.3013780" />
      <trkpt lat="46.0209196" lon="11.3013163" />
      <trkpt lat="46.0209042" lon="11.3012260" />
      <trkpt lat="46.0208976" lon="11.3011399" />
      <trkpt lat="46.0209176" lon="11.3010762" />
      <trkpt lat="46.0209503" lon="11.3010138" />
      <trkpt lat="46.0211171" lon="11.3007253" />
      <trkpt lat="46.0212589" lon="11.3006941" />
      <trkpt lat="46.0212981" lon="11.3006100" />
      <trkpt lat="46.0214215" lon="11.3001833" />
      <trkpt lat="46.0214784" lon="11.3002928" />
      <trkpt lat="46.0214775" lon="11.3004081" />
      <trkpt lat="46.0215213" lon="11.3004430" />
      <trkpt lat="46.0214874" lon="11.3005959" />
      <trkpt lat="46.0214613" lon="11.3008212" />
      <trkpt lat="46.0214464" lon="11.3010680" />
      <trkpt lat="46.0214800" lon="11.3012397" />
      <trkpt lat="46.0215628" lon="11.3013657" />
      <trkpt lat="46.0216447" lon="11.3014301" />
      <trkpt lat="46.0216894" lon="11.3015320" />
      <trkpt lat="46.0217640" lon="11.3016474" />
      <trkpt lat="46.0218347" lon="11.3017922" />
      <trkpt lat="46.0221067" lon="11.3021677" />
      <trkpt lat="46.0222519" lon="11.3022697" />
      <trkpt lat="46.0224307" lon="11.3025808" />
      <trkpt lat="46.0225964" lon="11.3030528" />
      <trkpt lat="46.0227752" lon="11.3034230" />
      <trkpt lat="46.0230900" lon="11.3038254" />
      <trkpt lat="46.0233992" lon="11.3041981" />
      <trkpt lat="46.0236003" lon="11.3043644" />
      <trkpt lat="46.0236674" lon="11.3044710" />
      <trkpt lat="46.0237083" lon="11.3045361" />
      <trkpt lat="46.0237385" lon="11.3047332" />
      <trkpt lat="46.0236957" lon="11.3049853" />
      <trkpt lat="46.0236957" lon="11.3051730" />
      <trkpt lat="46.0237609" lon="11.3052964" />
      <trkpt lat="46.0240197" lon="11.3054064" />
      <trkpt lat="46.0242633" lon="11.3056197" />
      <trkpt lat="46.0245967" lon="11.3062554" />
      <trkpt lat="46.0242301" lon="11.3060640" />
      <trkpt lat="46.0241601" lon="11.3059807" />
      <trkpt lat="46.0240315" lon="11.3058594" />
      <trkpt lat="46.0238361" lon="11.3057991" />
      <trkpt lat="46.0236016" lon="11.3057304" />
      <trkpt lat="46.0234279" lon="11.3057769" />
      <trkpt lat="46.0233148" lon="11.3057517" />
      <trkpt lat="46.0232299" lon="11.3057730" />
      <trkpt lat="46.0231343" lon="11.3057459" />
      <trkpt lat="46.0227075" lon="11.3057963" />
      <trkpt lat="46.0226348" lon="11.3058506" />
      <trkpt lat="46.0225055" lon="11.3058079" />
      <trkpt lat="46.0224072" lon="11.3057149" />
      <trkpt lat="46.0223345" lon="11.3057556" />
      <trkpt lat="46.0219319" lon="11.3057420" />
      <trkpt lat="46.0218094" lon="11.3057401" />
      <trkpt lat="46.0217138" lon="11.3056140" />
      <trkpt lat="46.0216519" lon="11.3056276" />
      <trkpt lat="46.0215455" lon="11.3056528" />
      <trkpt lat="46.0214149" lon="11.3056276" />
      <trkpt lat="46.0212802" lon="11.3055171" />
      <trkpt lat="46.0211819" lon="11.3053968" />
      <trkpt lat="46.0211518" lon="11.3053285" />
      <trkpt lat="46.0210247" lon="11.3053840" />
      <trkpt lat="46.0209529" lon="11.3054032" />
      <trkpt lat="46.0208803" lon="11.3054417" />
      <trkpt lat="46.0208461" lon="11.3054708" />
      <trkpt lat="46.0208238" lon="11.3055445" />
      <trkpt lat="46.0208332" lon="11.3056805" />
      <trkpt lat="46.0209539" lon="11.3057653" />
      <trkpt lat="46.0210739" lon="11.3058154" />
      <trkpt lat="46.0213464" lon="11.3060161" />
      <trkpt lat="46.0215438" lon="11.3061877" />
      <trkpt lat="46.0217465" lon="11.3063612" />
      <trkpt lat="46.0220987" lon="11.3066305" />
      <trkpt lat="46.0222956" lon="11.3069165" />
      <trkpt lat="46.0224273" lon="11.3072775" />
      <trkpt lat="46.0225559" lon="11.3076516" />
      <trkpt lat="46.0225920" lon="11.3078804" />
      <trkpt lat="46.0225911" lon="11.3081384" />
      <trkpt lat="46.0225781" lon="11.3083747" />
      <trkpt lat="46.0225944" lon="11.3086939" />
      <trkpt lat="46.0226388" lon="11.3088677" />
      <trkpt lat="46.0227695" lon="11.3091599" />
      <trkpt lat="46.0229340" lon="11.3094575" />
      <trkpt lat="46.0229839" lon="11.3095497" />
      <trkpt lat="46.0229965" lon="11.3097289" />
      <trkpt lat="46.0229437" lon="11.3099076" />
      <trkpt lat="46.0228678" lon="11.3100412" />
      <trkpt lat="46.0227645" lon="11.3101754" />
      <trkpt lat="46.0226471" lon="11.3102652" />
      <trkpt lat="46.0224298" lon="11.3103655" />
      <trkpt lat="46.0221690" lon="11.3104234" />
      <trkpt lat="46.0218321" lon="11.3104724" />
      <trkpt lat="46.0218761" lon="11.3105710" />
      <trkpt lat="46.0220193" lon="11.3106946" />
      <trkpt lat="46.0220386" lon="11.3107829" />
      <trkpt lat="46.0220167" lon="11.3108734" />
      <trkpt lat="46.0219748" lon="11.3109384" />
      <trkpt lat="46.0218248" lon="11.3110900" />
      <trkpt lat="46.0216698" lon="11.3112317" />
      <trkpt lat="46.0214812" lon="11.3113368" />
      <trkpt lat="46.0213006" lon="11.3114065" />
      <trkpt lat="46.0210854" lon="11.3114762" />
      <trkpt lat="46.0209867" lon="11.3115540" />
      <trkpt lat="46.0208554" lon="11.3117605" />
      <trkpt lat="46.0207753" lon="11.3119389" />
      <trkpt lat="46.0205695" lon="11.3121454" />
      <trkpt lat="46.0204326" lon="11.3122554" />
      <trkpt lat="46.0203209" lon="11.3123935" />
      <trkpt lat="46.0202277" lon="11.3126336" />
      <trkpt lat="46.0200904" lon="11.3131522" />
      <trkpt lat="46.0200434" lon="11.3134021" />
      <trkpt lat="46.0200378" lon="11.3135335" />
      <trkpt lat="46.0200406" lon="11.3137159" />
      <trkpt lat="46.0200402" lon="11.3138763" />
      <trkpt lat="46.0200406" lon="11.3137159" />
      <trkpt lat="46.0200378" lon="11.3135335" />
      <trkpt lat="46.0200434" lon="11.3134021" />
      <trkpt lat="46.0200904" lon="11.3131522" />
      <trkpt lat="46.0202277" lon="11.3126336" />
      <trkpt lat="46.0203209" lon="11.3123935" />
      <trkpt lat="46.0204326" lon="11.3122554" />
      <trkpt lat="46.0205695" lon="11.3121454" />
      <trkpt lat="46.0207753" lon="11.3119389" />
      <trkpt lat="46.0208554" lon="11.3117605" />
      <trkpt lat="46.0209867" lon="11.3115540" />
      <trkpt lat="46.0210854" lon="11.3114762" />
      <trkpt lat="46.0213006" lon="11.3114065" />
      <trkpt lat="46.0214812" lon="11.3113368" />
      <trkpt lat="46.0216698" lon="11.3112317" />
      <trkpt lat="46.0218248" lon="11.3110900" />
      <trkpt lat="46.0219748" lon="11.3109384" />
      <trkpt lat="46.0220167" lon="11.3108734" />
      <trkpt lat="46.0220386" lon="11.3107829" />
      <trkpt lat="46.0220193" lon="11.3106946" />
      <trkpt lat="46.0218761" lon="11.3105710" />
      <trkpt lat="46.0218321" lon="11.3104724" />
      <trkpt lat="46.0217736" lon="11.3104805" />
      <trkpt lat="46.0217494" lon="11.3104114" />
      <trkpt lat="46.0217308" lon="11.3103122" />
      <trkpt lat="46.0203273" lon="11.3093942" />
      <trkpt lat="46.0201010" lon="11.3097061" />
      <trkpt lat="46.0197692" lon="11.3097273" />
      <trkpt lat="46.0193342" lon="11.3097769" />
      <trkpt lat="46.0190294" lon="11.3098795" />
      <trkpt lat="46.0184470" lon="11.3101733" />
      <trkpt lat="46.0181054" lon="11.3103184" />
      <trkpt lat="46.0177686" lon="11.3104068" />
      <trkpt lat="46.0172968" lon="11.3104422" />
      <trkpt lat="46.0170510" lon="11.3103325" />
      <trkpt lat="46.0169035" lon="11.3101910" />
      <trkpt lat="46.0168531" lon="11.3101777" />
      <trkpt lat="46.0164436" lon="11.3101138" />
      <trkpt lat="46.0161098" lon="11.3099253" />
      <trkpt lat="46.0158237" lon="11.3097536" />
      <trkpt lat="46.0155435" lon="11.3096935" />
      <trkpt lat="46.0151755" lon="11.3095997" />
      <trkpt lat="46.0150426" lon="11.3094836" />
      <trkpt lat="46.0149739" lon="11.3093695" />
      <trkpt lat="46.0149467" lon="11.3092691" />
      <trkpt lat="46.0149346" lon="11.3091044" />
      <trkpt lat="46.0149375" lon="11.3089053" />
      <trkpt lat="46.0149682" lon="11.3086612" />
      <trkpt lat="46.0149475" lon="11.3085481" />
      <trkpt lat="46.0148886" lon="11.3084980" />
      <trkpt lat="46.0147663" lon="11.3085009" />
      <trkpt lat="46.0145486" lon="11.3085446" />
      <trkpt lat="46.0143280" lon="11.3085730" />
      <trkpt lat="46.0141429" lon="11.3085671" />
      <trkpt lat="46.0137875" lon="11.3085719" />
      <trkpt lat="46.0137052" lon="11.3085868" />
      <trkpt lat="46.0136430" lon="11.3086202" />
      <trkpt lat="46.0136139" lon="11.3086583" />
      <trkpt lat="46.0135936" lon="11.3086788" />
      <trkpt lat="46.0135640" lon="11.3086957" />
      <trkpt lat="46.0135413" lon="11.3086948" />
      <trkpt lat="46.0135225" lon="11.3086854" />
      <trkpt lat="46.0134812" lon="11.3086513" />
      <trkpt lat="46.0134568" lon="11.3086278" />
      <trkpt lat="46.0134044" lon="11.3085949" />
      <trkpt lat="46.0133450" lon="11.3085849" />
      <trkpt lat="46.0132950" lon="11.3086265" />
      <trkpt lat="46.0132379" lon="11.3086679" />
      <trkpt lat="46.0131735" lon="11.3087524" />
      <trkpt lat="46.0131139" lon="11.3088596" />
      <trkpt lat="46.0130617" lon="11.3091225" />
      <trkpt lat="46.0130319" lon="11.3092083" />
      <trkpt lat="46.0129761" lon="11.3092566" />
      <trkpt lat="46.0128792" lon="11.3092834" />
      <trkpt lat="46.0124877" lon="11.3093217" />
      <trkpt lat="46.0125112" lon="11.3095719" />
      <trkpt lat="46.0125396" lon="11.3096631" />
      <trkpt lat="46.0126642" lon="11.3100298" />
      <trkpt lat="46.0130312" lon="11.3120209" />
      <trkpt lat="46.0131658" lon="11.3128957" />
      <trkpt lat="46.0133271" lon="11.3136518" />
      <trkpt lat="46.0135245" lon="11.3143214" />
      <trkpt lat="46.0135590" lon="11.3144756" />
      <trkpt lat="46.0137896" lon="11.3155063" />
      <trkpt lat="46.0138404" lon="11.3156680" />
      <trkpt lat="46.0139534" lon="11.3158835" />
      <trkpt lat="46.0141538" lon="11.3161173" />
      <trkpt lat="46.0144307" lon="11.3163372" />
      <trkpt lat="46.0145098" lon="11.3164072" />
      <trkpt lat="46.0146092" lon="11.3165448" />
      <trkpt lat="46.0146948" lon="11.3166976" />
      <trkpt lat="46.0146805" lon="11.3168091" />
      <trkpt lat="46.0147372" lon="11.3170096" />
      <trkpt lat="46.0148061" lon="11.3172537" />
      <trkpt lat="46.0148349" lon="11.3176091" />
      <trkpt lat="46.0148521" lon="11.3177686" />
      <trkpt lat="46.0148506" lon="11.3180519" />
      <trkpt lat="46.0148332" lon="11.3182306" />
      <trkpt lat="46.0148106" lon="11.3183394" />
      <trkpt lat="46.0146133" lon="11.3182669" />
      <trkpt lat="46.0143082" lon="11.3182566" />
      <trkpt lat="46.0142613" lon="11.3182485" />
      <trkpt lat="46.0142106" lon="11.3182397" />
      <trkpt lat="46.0139994" lon="11.3181689" />
      <trkpt lat="46.0137604" lon="11.3180580" />
      <trkpt lat="46.0136760" lon="11.3180065" />
      <trkpt lat="46.0135069" lon="11.3179021" />
      <trkpt lat="46.0133506" lon="11.3177775" />
      <trkpt lat="46.0128015" lon="11.3172379" />
      <trkpt lat="46.0125689" lon="11.3169975" />
      <trkpt lat="46.0124641" lon="11.3168552" />
      <trkpt lat="46.0123666" lon="11.3166861" />
      <trkpt lat="46.0121710" lon="11.3162792" />
      <trkpt lat="46.0119582" lon="11.3158548" />
      <trkpt lat="46.0118101" lon="11.3156116" />
      <trkpt lat="46.0116654" lon="11.3153739" />
      <trkpt lat="46.0116456" lon="11.3153414" />
      <trkpt lat="46.0115082" lon="11.3151239" />
      <trkpt lat="46.0114109" lon="11.3149698" />
      <trkpt lat="46.0112157" lon="11.3146153" />
      <trkpt lat="46.0110437" lon="11.3142938" />
      <trkpt lat="46.0108088" lon="11.3138984" />
      <trkpt lat="46.0107976" lon="11.3139582" />
      <trkpt lat="46.0108886" lon="11.3144610" />
      <trkpt lat="46.0106283" lon="11.3147260" />
      <trkpt lat="46.0105039" lon="11.3148440" />
      <trkpt lat="46.0103945" lon="11.3149441" />
      <trkpt lat="46.0102007" lon="11.3150626" />
      <trkpt lat="46.0100985" lon="11.3151266" />
      <trkpt lat="46.0098642" lon="11.3151936" />
      <trkpt lat="46.0096661" lon="11.3152790" />
      <trkpt lat="46.0094636" lon="11.3154283" />
      <trkpt lat="46.0094486" lon="11.3154405" />
      <trkpt lat="46.0094293" lon="11.3154563" />
      <trkpt lat="46.0092769" lon="11.3155808" />
      <trkpt lat="46.0092500" lon="11.3156064" />
      <trkpt lat="46.0091157" lon="11.3157345" />
      <trkpt lat="46.0090540" lon="11.3158110" />
      <trkpt lat="46.0089765" lon="11.3159070" />
      <trkpt lat="46.0088594" lon="11.3159643" />
      <trkpt lat="46.0088822" lon="11.3161394" />
      <trkpt lat="46.0089613" lon="11.3167293" />
      <trkpt lat="46.0090625" lon="11.3175473" />
      <trkpt lat="46.0091046" lon="11.3178640" />
      <trkpt lat="46.0092209" lon="11.3186851" />
      <trkpt lat="46.0093069" lon="11.3191934" />
      <trkpt lat="46.0080687" lon="11.3194383" />
      <trkpt lat="46.0080781" lon="11.3194579" />
      <trkpt lat="46.0081174" lon="11.3195353" />
      <trkpt lat="46.0080109" lon="11.3195738" />
      <trkpt lat="46.0078777" lon="11.3197039" />
      <trkpt lat="46.0078246" lon="11.3198045" />
      <trkpt lat="46.0077967" lon="11.3203517" />
      <trkpt lat="46.0078349" lon="11.3205582" />
      <trkpt lat="46.0078358" lon="11.3206923" />
      <trkpt lat="46.0077883" lon="11.3207634" />
      <trkpt lat="46.0075582" lon="11.3209350" />
      <trkpt lat="46.0074698" lon="11.3210396" />
      <trkpt lat="46.0074623" lon="11.3211349" />
      <trkpt lat="46.0075070" lon="11.3212743" />
      <trkpt lat="46.0074623" lon="11.3211349" />
      <trkpt lat="46.0074698" lon="11.3210396" />
      <trkpt lat="46.0075582" lon="11.3209350" />
      <trkpt lat="46.0077883" lon="11.3207634" />
      <trkpt lat="46.0078358" lon="11.3206923" />
      <trkpt lat="46.0078349" lon="11.3205582" />
      <trkpt lat="46.0077967" lon="11.3203517" />
      <trkpt lat="46.0078246" lon="11.3198045" />
      <trkpt lat="46.0078777" lon="11.3197039" />
      <trkpt lat="46.0080109" lon="11.3195738" />
      <trkpt lat="46.0081174" lon="11.3195353" />
      <trkpt lat="46.0080781" lon="11.3194579" />
      <trkpt lat="46.0080687" lon="11.3194383" />
      <trkpt lat="46.0079378" lon="11.3191646" />
      <trkpt lat="46.0079043" lon="11.3191195" />
      <trkpt lat="46.0078576" lon="11.3190566" />
      <trkpt lat="46.0078471" lon="11.3190383" />
      <trkpt lat="46.0078035" lon="11.3189629" />
      <trkpt lat="46.0078333" lon="11.3182906" />
      <trkpt lat="46.0078157" lon="11.3163702" />
      <trkpt lat="46.0078223" lon="11.3160792" />
      <trkpt lat="46.0078423" lon="11.3158250" />
      <trkpt lat="46.0079104" lon="11.3154873" />
      <trkpt lat="46.0077865" lon="11.3151823" />
      <trkpt lat="46.0075841" lon="11.3147094" />
      <trkpt lat="46.0074869" lon="11.3145440" />
      <trkpt lat="46.0073510" lon="11.3143670" />
      <trkpt lat="46.0072132" lon="11.3142093" />
      <trkpt lat="46.0071157" lon="11.3140977" />
      <trkpt lat="46.0069796" lon="11.3139292" />
      <trkpt lat="46.0068800" lon="11.3137078" />
      <trkpt lat="46.0066783" lon="11.3133403" />
      <trkpt lat="46.0065170" lon="11.3129414" />
      <trkpt lat="46.0063929" lon="11.3125168" />
      <trkpt lat="46.0062950" lon="11.3122830" />
      <trkpt lat="46.0061855" lon="11.3120538" />
      <trkpt lat="46.0061075" lon="11.3121017" />
      <trkpt lat="46.0058494" lon="11.3121548" />
      <trkpt lat="46.0057229" lon="11.3121785" />
      <trkpt lat="46.0055791" lon="11.3121928" />
      <trkpt lat="46.0052593" lon="11.3121900" />
      <trkpt lat="46.0051050" lon="11.3122164" />
      <trkpt lat="46.0050318" lon="11.3122477" />
      <trkpt lat="46.0047918" lon="11.3123922" />
      <trkpt lat="46.0046631" lon="11.3124960" />
      <trkpt lat="46.0045655" lon="11.3126182" />
      <trkpt lat="46.0044733" lon="11.3127509" />
      <trkpt lat="46.0044076" lon="11.3129112" />
      <trkpt lat="46.0043911" lon="11.3130321" />
      <trkpt lat="46.0044057" lon="11.3132226" />
      <trkpt lat="46.0044048" lon="11.3133789" />
      <trkpt lat="46.0043857" lon="11.3134749" />
      <trkpt lat="46.0043492" lon="11.3135406" />
      <trkpt lat="46.0042619" lon="11.3135953" />
      <trkpt lat="46.0040966" lon="11.3125681" />
      <trkpt lat="46.0039837" lon="11.3116396" />
      <trkpt lat="46.0039085" lon="11.3107334" />
      <trkpt lat="46.0038608" lon="11.3098715" />
      <trkpt lat="46.0038448" lon="11.3092298" />
      <trkpt lat="46.0037179" lon="11.3093491" />
      <trkpt lat="46.0035694" lon="11.3094837" />
      <trkpt lat="46.0033659" lon="11.3095630" />
      <trkpt lat="46.0031247" lon="11.3095780" />
      <trkpt lat="46.0029398" lon="11.3095750" />
      <trkpt lat="46.0027195" lon="11.3095939" />
      <trkpt lat="46.0025096" lon="11.3095835" />
      <trkpt lat="46.0028066" lon="11.3070843" />
      <trkpt lat="46.0030124" lon="11.3053495" />
      <trkpt lat="46.0031049" lon="11.3053543" />
      <trkpt lat="46.0034271" lon="11.3053307" />
      <trkpt lat="46.0039364" lon="11.3052022" />
      <trkpt lat="46.0041497" lon="11.3051920" />
      <trkpt lat="46.0043701" lon="11.3051598" />
      <trkpt lat="46.0045822" lon="11.3051714" />
      <trkpt lat="46.0047701" lon="11.3051574" />
      <trkpt lat="46.0049239" lon="11.3051248" />
      <trkpt lat="46.0050907" lon="11.3050992" />
      <trkpt lat="46.0053368" lon="11.3050013" />
      <trkpt lat="46.0055181" lon="11.3049080" />
      <trkpt lat="46.0055894" lon="11.3047845" />
      <trkpt lat="46.0056299" lon="11.3045910" />
      <trkpt lat="46.0058177" lon="11.3031713" />
      <trkpt lat="46.0059128" lon="11.3025278" />
      <trkpt lat="46.0061547" lon="11.3010629" />
      <trkpt lat="46.0061564" lon="11.3009611" />
      <trkpt lat="46.0062218" lon="11.3010002" />
      <trkpt lat="46.0062803" lon="11.3010351" />
      <trkpt lat="46.0067227" lon="11.3013157" />
      <trkpt lat="46.0069475" lon="11.3014781" />
      <trkpt lat="46.0070335" lon="11.3015234" />
      <trkpt lat="46.0070357" lon="11.3015240" />
      <trkpt lat="46.0070442" lon="11.3015127" />
      <trkpt lat="46.0070533" lon="11.3015047" />
      <trkpt lat="46.0070634" lon="11.3014994" />
      <trkpt lat="46.0070739" lon="11.3014971" />
      <trkpt lat="46.0070846" lon="11.3014978" />
      <trkpt lat="46.0070950" lon="11.3015015" />
      <trkpt lat="46.0071047" lon="11.3015080" />
      <trkpt lat="46.0071148" lon="11.3015190" />
      <trkpt lat="46.0071213" lon="11.3015131" />
      <trkpt lat="46.0071272" lon="11.3015076" />
      <trkpt lat="46.0072818" lon="11.3013815" />
      <trkpt lat="46.0078069" lon="11.3010941" />
      <trkpt lat="46.0080384" lon="11.3009880" />
      <trkpt lat="46.0080981" lon="11.3009575" />
      <trkpt lat="46.0081156" lon="11.3009486" />
      <trkpt lat="46.0081833" lon="11.3007954" />
      <trkpt lat="46.0083690" lon="11.3003535" />
      <trkpt lat="46.0085907" lon="11.2997702" />
      <trkpt lat="46.0086613" lon="11.2996130" />
      <trkpt lat="46.0083716" lon="11.2994631" />
      <trkpt lat="46.0087983" lon="11.2984184" />
      <trkpt lat="46.0086230" lon="11.2982644" />
      <trkpt lat="46.0089354" lon="11.2976279" />
      <trkpt lat="46.0089850" lon="11.2975267" />
      <trkpt lat="46.0088589" lon="11.2970393" />
      <trkpt lat="46.0087115" lon="11.2964700" />
      <trkpt lat="46.0086007" lon="11.2960421" />
      <trkpt lat="46.0085345" lon="11.2957863" />
      <trkpt lat="46.0085087" lon="11.2956866" />
      <trkpt lat="46.0084033" lon="11.2952909" />
      <trkpt lat="46.0083832" lon="11.2952157" />
      <trkpt lat="46.0082944" lon="11.2949620" />
      <trkpt lat="46.0082324" lon="11.2947849" />
      <trkpt lat="46.0079673" lon="11.2940833" />
      <trkpt lat="46.0078100" lon="11.2937086" />
      <trkpt lat="46.0075917" lon="11.2932997" />
      <trkpt lat="46.0075779" lon="11.2932774" />
      <trkpt lat="46.0075285" lon="11.2931979" />
      <trkpt lat="46.0074960" lon="11.2932546" />
      <trkpt lat="46.0074320" lon="11.2931812" />
      <trkpt lat="46.0073492" lon="11.2931457" />
      <trkpt lat="46.0072582" lon="11.2929831" />
      <trkpt lat="46.0072143" lon="11.2929119" />
      <trkpt lat="46.0071569" lon="11.2928501" />
      <trkpt lat="46.0072143" lon="11.2929119" />
      <trkpt lat="46.0072582" lon="11.2929831" />
      <trkpt lat="46.0073492" lon="11.2931457" />
      <trkpt lat="46.0073728" lon="11.2930947" />
      <trkpt lat="46.0074144" lon="11.2931202" />
      <trkpt lat="46.0074595" lon="11.2931252" />
      <trkpt lat="46.0075033" lon="11.2931094" />
      <trkpt lat="46.0075365" lon="11.2930804" />
      <trkpt lat="46.0075628" lon="11.2930394" />
      <trkpt lat="46.0075804" lon="11.2929896" />
      <trkpt lat="46.0076801" lon="11.2930443" />
      <trkpt lat="46.0078961" lon="11.2931425" />
      <trkpt lat="46.0081086" lon="11.2932391" />
      <trkpt lat="46.0082721" lon="11.2933149" />
      <trkpt lat="46.0084383" lon="11.2934159" />
      <trkpt lat="46.0086200" lon="11.2935258" />
      <trkpt lat="46.0086759" lon="11.2935596" />
      <trkpt lat="46.0088694" lon="11.2936467" />
      <trkpt lat="46.0089680" lon="11.2936565" />
      <trkpt lat="46.0089737" lon="11.2937248" />
      <trkpt lat="46.0090031" lon="11.2937964" />
      <trkpt lat="46.0091364" lon="11.2939444" />
      <trkpt lat="46.0091637" lon="11.2939748" />
      <trkpt lat="46.0093406" lon="11.2941340" />
      <trkpt lat="46.0095860" lon="11.2944225" />
      <trkpt lat="46.0096077" lon="11.2944514" />
      <trkpt lat="46.0098606" lon="11.2948293" />
      <trkpt lat="46.0099173" lon="11.2949136" />
      <trkpt lat="46.0099498" lon="11.2949615" />
      <trkpt lat="46.0101526" lon="11.2952325" />
      <trkpt lat="46.0102519" lon="11.2953652" />
      <trkpt lat="46.0102901" lon="11.2954163" />
      <trkpt lat="46.0103318" lon="11.2954721" />
      <trkpt lat="46.0105090" lon="11.2957082" />
      <trkpt lat="46.0105204" lon="11.2957234" />
      <trkpt lat="46.0106659" lon="11.2959174" />
      <trkpt lat="46.0107266" lon="11.2959983" />
      <trkpt lat="46.0107605" lon="11.2960435" />
      <trkpt lat="46.0109276" lon="11.2962659" />
      <trkpt lat="46.0110369" lon="11.2964115" />
      <trkpt lat="46.0111280" lon="11.2964899" />
      <trkpt lat="46.0112072" lon="11.2965500" />
      <trkpt lat="46.0111781" lon="11.2968399" />
      <trkpt lat="46.0112568" lon="11.2970649" />
      <trkpt lat="46.0112181" lon="11.2971112" />
      <trkpt lat="46.0116123" lon="11.2977853" />
      <trkpt lat="46.0115764" lon="11.2979707" />
      <trkpt lat="46.0115587" lon="11.2979934" />
      <trkpt lat="46.0116728" lon="11.2981556" />
      <trkpt lat="46.0118028" lon="11.2983483" />
      <trkpt lat="46.0118824" lon="11.2985225" />
      <trkpt lat="46.0120860" lon="11.2982428" />
      <trkpt lat="46.0122052" lon="11.2981248" />
      <trkpt lat="46.0122499" lon="11.2982214" />
      <trkpt lat="46.0122424" lon="11.2983394" />
      <trkpt lat="46.0123552" lon="11.2985082" />
    </trkseg>
  </trk>
</gpx>
