<?xml version="1.0" encoding="UTF-8"?>
<gpx xmlns="http://www.topografix.com/GPX/1/1" version="1.1" creator="ShapeRoute route-engine">
  <metadata>
    <name>star 15 km · 2026-10-01</name>
    <author>
      <name>ShapeRoute route-engine</name>
    </author>
    <copyright author="OpenStreetMap contributors">
      <license>https://opendatacommons.org/licenses/odbl/1-0/</license>
    </copyright>
    <link href="https://www.openstreetmap.org/copyright">
      <text>© OpenStreetMap contributors</text>
    </link>
    <time>2026-10-01T19:00:00Z</time>
  </metadata>
  <trk>
    <name>star 15 km · 2026-10-01</name>
    <trkseg>
      <trkpt lat="46.0668711" lon="11.1210492" />
      <trkpt lat="46.0669975" lon="11.1210365" />
      <trkpt lat="46.0670408" lon="11.1210278" />
      <trkpt lat="46.0670542" lon="11.1211241" />
      <trkpt lat="46.0673001" lon="11.1213049" />
      <trkpt lat="46.0675238" lon="11.1212683" />
      <trkpt lat="46.0676530" lon="11.1212477" />
      <trkpt lat="46.0675238" lon="11.1212683" />
      <trkpt lat="46.0673001" lon="11.1213049" />
      <trkpt lat="46.0670542" lon="11.1211241" />
      <trkpt lat="46.0670408" lon="11.1210278" />
      <trkpt lat="46.0669975" lon="11.1210365" />
      <trkpt lat="46.0668711" lon="11.1210492" />
      <trkpt lat="46.0668249" lon="11.1206182" />
      <trkpt lat="46.0667816" lon="11.1201952" />
      <trkpt lat="46.0667099" lon="11.1201551" />
      <trkpt lat="46.0666578" lon="11.1196518" />
      <trkpt lat="46.0666065" lon="11.1191557" />
      <trkpt lat="46.0665858" lon="11.1191592" />
      <trkpt lat="46.0665730" lon="11.1190499" />
      <trkpt lat="46.0665603" lon="11.1189419" />
      <trkpt lat="46.0666159" lon="11.1189281" />
      <trkpt lat="46.0664861" lon="11.1175884" />
      <trkpt lat="46.0664740" lon="11.1175211" />
      <trkpt lat="46.0664548" lon="11.1175120" />
      <trkpt lat="46.0656829" lon="11.1176769" />
      <trkpt lat="46.0656754" lon="11.1176028" />
      <trkpt lat="46.0652397" lon="11.1176989" />
      <trkpt lat="46.0651934" lon="11.1177089" />
      <trkpt lat="46.0651532" lon="11.1172758" />
      <trkpt lat="46.0651046" lon="11.1172245" />
      <trkpt lat="46.0650448" lon="11.1167071" />
      <trkpt lat="46.0649622" lon="11.1166372" />
      <trkpt lat="46.0647410" lon="11.1164795" />
      <trkpt lat="46.0645793" lon="11.1164075" />
      <trkpt lat="46.0645429" lon="11.1163936" />
      <trkpt lat="46.0645256" lon="11.1165274" />
      <trkpt lat="46.0645052" lon="11.1167422" />
      <trkpt lat="46.0644674" lon="11.1167469" />
      <trkpt lat="46.0641805" lon="11.1167941" />
      <trkpt lat="46.0635353" lon="11.1168949" />
      <trkpt lat="46.0634299" lon="11.1169932" />
      <trkpt lat="46.0633950" lon="11.1170509" />
      <trkpt lat="46.0633696" lon="11.1167056" />
      <trkpt lat="46.0633201" lon="11.1160412" />
      <trkpt lat="46.0632900" lon="11.1157231" />
      <trkpt lat="46.0632879" lon="11.1156921" />
      <trkpt lat="46.0632431" lon="11.1150335" />
      <trkpt lat="46.0631956" lon="11.1143358" />
      <trkpt lat="46.0628528" lon="11.1143739" />
      <trkpt lat="46.0628367" lon="11.1141601" />
      <trkpt lat="46.0628087" lon="11.1137879" />
      <trkpt lat="46.0627499" lon="11.1138055" />
      <trkpt lat="46.0627296" lon="11.1138256" />
      <trkpt lat="46.0626817" lon="11.1136839" />
      <trkpt lat="46.0626176" lon="11.1136671" />
      <trkpt lat="46.0623474" lon="11.1136024" />
      <trkpt lat="46.0623318" lon="11.1135988" />
      <trkpt lat="46.0623245" lon="11.1135043" />
      <trkpt lat="46.0623098" lon="11.1132833" />
      <trkpt lat="46.0623104" lon="11.1132523" />
      <trkpt lat="46.0623205" lon="11.1131998" />
      <trkpt lat="46.0622883" lon="11.1131807" />
      <trkpt lat="46.0622689" lon="11.1131729" />
      <trkpt lat="46.0622565" lon="11.1131685" />
      <trkpt lat="46.0622459" lon="11.1131747" />
      <trkpt lat="46.0622260" lon="11.1131862" />
      <trkpt lat="46.0621915" lon="11.1130579" />
      <trkpt lat="46.0621825" lon="11.1130466" />
      <trkpt lat="46.0621705" lon="11.1130261" />
      <trkpt lat="46.0621612" lon="11.1130028" />
      <trkpt lat="46.0621553" lon="11.1129782" />
      <trkpt lat="46.0621524" lon="11.1129524" />
      <trkpt lat="46.0621528" lon="11.1129263" />
      <trkpt lat="46.0621565" lon="11.1129008" />
      <trkpt lat="46.0621632" lon="11.1128766" />
      <trkpt lat="46.0621728" lon="11.1128546" />
      <trkpt lat="46.0621850" lon="11.1128353" />
      <trkpt lat="46.0621994" lon="11.1128195" />
      <trkpt lat="46.0622164" lon="11.1128071" />
      <trkpt lat="46.0622348" lon="11.1127996" />
      <trkpt lat="46.0622538" lon="11.1127971" />
      <trkpt lat="46.0622727" lon="11.1127999" />
      <trkpt lat="46.0622910" lon="11.1128077" />
      <trkpt lat="46.0623080" lon="11.1128204" />
      <trkpt lat="46.0623969" lon="11.1128608" />
      <trkpt lat="46.0624830" lon="11.1129005" />
      <trkpt lat="46.0625526" lon="11.1129237" />
      <trkpt lat="46.0628109" lon="11.1129723" />
      <trkpt lat="46.0631222" lon="11.1130525" />
      <trkpt lat="46.0633193" lon="11.1131060" />
      <trkpt lat="46.0634797" lon="11.1131527" />
      <trkpt lat="46.0637002" lon="11.1132247" />
      <trkpt lat="46.0639514" lon="11.1133045" />
      <trkpt lat="46.0641639" lon="11.1133819" />
      <trkpt lat="46.0643351" lon="11.1134453" />
      <trkpt lat="46.0645179" lon="11.1135136" />
      <trkpt lat="46.0647077" lon="11.1135928" />
      <trkpt lat="46.0648267" lon="11.1136510" />
      <trkpt lat="46.0651100" lon="11.1137803" />
      <trkpt lat="46.0651512" lon="11.1138029" />
      <trkpt lat="46.0651759" lon="11.1137079" />
      <trkpt lat="46.0654098" lon="11.1138232" />
      <trkpt lat="46.0656310" lon="11.1139302" />
      <trkpt lat="46.0660115" lon="11.1141343" />
      <trkpt lat="46.0661066" lon="11.1141926" />
      <trkpt lat="46.0668627" lon="11.1145914" />
      <trkpt lat="46.0669299" lon="11.1146267" />
      <trkpt lat="46.0677139" lon="11.1150479" />
      <trkpt lat="46.0677536" lon="11.1150646" />
      <trkpt lat="46.0677809" lon="11.1150701" />
      <trkpt lat="46.0678139" lon="11.1150654" />
      <trkpt lat="46.0678418" lon="11.1150495" />
      <trkpt lat="46.0679084" lon="11.1150043" />
      <trkpt lat="46.0679737" lon="11.1149448" />
      <trkpt lat="46.0680238" lon="11.1149118" />
      <trkpt lat="46.0680942" lon="11.1149057" />
      <trkpt lat="46.0682075" lon="11.1149285" />
      <trkpt lat="46.0682349" lon="11.1148330" />
      <trkpt lat="46.0684652" lon="11.1149557" />
      <trkpt lat="46.0693015" lon="11.1154028" />
      <trkpt lat="46.0695281" lon="11.1155240" />
      <trkpt lat="46.0698128" lon="11.1156739" />
      <trkpt lat="46.0698998" lon="11.1157127" />
      <trkpt lat="46.0699151" lon="11.1156990" />
      <trkpt lat="46.0702467" lon="11.1144529" />
      <trkpt lat="46.0702508" lon="11.1144356" />
      <trkpt lat="46.0702350" lon="11.1143612" />
      <trkpt lat="46.0702262" lon="11.1143187" />
      <trkpt lat="46.0702122" lon="11.1142749" />
      <trkpt lat="46.0701963" lon="11.1142414" />
      <trkpt lat="46.0701713" lon="11.1142018" />
      <trkpt lat="46.0701826" lon="11.1141474" />
      <trkpt lat="46.0701933" lon="11.1141300" />
      <trkpt lat="46.0702038" lon="11.1140736" />
      <trkpt lat="46.0702044" lon="11.1140479" />
      <trkpt lat="46.0702044" lon="11.1139869" />
      <trkpt lat="46.0702602" lon="11.1139812" />
      <trkpt lat="46.0703864" lon="11.1139142" />
      <trkpt lat="46.0704346" lon="11.1138697" />
      <trkpt lat="46.0704819" lon="11.1138341" />
      <trkpt lat="46.0705185" lon="11.1137821" />
      <trkpt lat="46.0705564" lon="11.1137069" />
      <trkpt lat="46.0707114" lon="11.1133647" />
      <trkpt lat="46.0707246" lon="11.1133446" />
      <trkpt lat="46.0707789" lon="11.1132401" />
      <trkpt lat="46.0708070" lon="11.1131605" />
      <trkpt lat="46.0708180" lon="11.1130716" />
      <trkpt lat="46.0708255" lon="11.1129959" />
      <trkpt lat="46.0708128" lon="11.1129679" />
      <trkpt lat="46.0708090" lon="11.1129404" />
      <trkpt lat="46.0708027" lon="11.1129052" />
      <trkpt lat="46.0707340" lon="11.1126350" />
      <trkpt lat="46.0707258" lon="11.1126025" />
      <trkpt lat="46.0706417" lon="11.1123099" />
      <trkpt lat="46.0705718" lon="11.1120551" />
      <trkpt lat="46.0705292" lon="11.1118991" />
      <trkpt lat="46.0706025" lon="11.1118700" />
      <trkpt lat="46.0706390" lon="11.1118595" />
      <trkpt lat="46.0706371" lon="11.1118408" />
      <trkpt lat="46.0706259" lon="11.1117047" />
      <trkpt lat="46.0706692" lon="11.1116933" />
      <trkpt lat="46.0707551" lon="11.1116742" />
      <trkpt lat="46.0707652" lon="11.1116704" />
      <trkpt lat="46.0707753" lon="11.1116652" />
      <trkpt lat="46.0707853" lon="11.1116534" />
      <trkpt lat="46.0708125" lon="11.1116088" />
      <trkpt lat="46.0708662" lon="11.1115122" />
      <trkpt lat="46.0709182" lon="11.1114140" />
      <trkpt lat="46.0709785" lon="11.1112871" />
      <trkpt lat="46.0710434" lon="11.1111486" />
      <trkpt lat="46.0710774" lon="11.1110492" />
      <trkpt lat="46.0711156" lon="11.1108963" />
      <trkpt lat="46.0711395" lon="11.1107560" />
      <trkpt lat="46.0712623" lon="11.1105396" />
      <trkpt lat="46.0713295" lon="11.1104178" />
      <trkpt lat="46.0713405" lon="11.1104227" />
      <trkpt lat="46.0713627" lon="11.1103530" />
      <trkpt lat="46.0713873" lon="11.1102859" />
      <trkpt lat="46.0714167" lon="11.1102030" />
      <trkpt lat="46.0714397" lon="11.1101094" />
      <trkpt lat="46.0714686" lon="11.1100618" />
      <trkpt lat="46.0714921" lon="11.1100592" />
      <trkpt lat="46.0715275" lon="11.1099978" />
      <trkpt lat="46.0715100" lon="11.1099822" />
      <trkpt lat="46.0714822" lon="11.1100221" />
      <trkpt lat="46.0714714" lon="11.1100101" />
      <trkpt lat="46.0714750" lon="11.1099654" />
      <trkpt lat="46.0714834" lon="11.1098639" />
      <trkpt lat="46.0714314" lon="11.1098654" />
      <trkpt lat="46.0713749" lon="11.1098781" />
      <trkpt lat="46.0713232" lon="11.1099632" />
      <trkpt lat="46.0713155" lon="11.1100308" />
      <trkpt lat="46.0712804" lon="11.1100276" />
      <trkpt lat="46.0712530" lon="11.1100360" />
      <trkpt lat="46.0712386" lon="11.1100758" />
      <trkpt lat="46.0712181" lon="11.1100599" />
      <trkpt lat="46.0712075" lon="11.1100506" />
      <trkpt lat="46.0709745" lon="11.1098705" />
      <trkpt lat="46.0709782" lon="11.1098558" />
      <trkpt lat="46.0709804" lon="11.1098152" />
      <trkpt lat="46.0709793" lon="11.1097840" />
      <trkpt lat="46.0709758" lon="11.1097204" />
      <trkpt lat="46.0710472" lon="11.1095792" />
      <trkpt lat="46.0710922" lon="11.1094943" />
      <trkpt lat="46.0713762" lon="11.1089573" />
      <trkpt lat="46.0714037" lon="11.1089823" />
      <trkpt lat="46.0714095" lon="11.1089883" />
      <trkpt lat="46.0714165" lon="11.1089957" />
      <trkpt lat="46.0714200" lon="11.1089993" />
      <trkpt lat="46.0714442" lon="11.1090129" />
      <trkpt lat="46.0714730" lon="11.1090157" />
      <trkpt lat="46.0714936" lon="11.1090119" />
      <trkpt lat="46.0715235" lon="11.1089966" />
      <trkpt lat="46.0715781" lon="11.1089572" />
      <trkpt lat="46.0719234" lon="11.1087240" />
      <trkpt lat="46.0719534" lon="11.1087121" />
      <trkpt lat="46.0720357" lon="11.1086793" />
      <trkpt lat="46.0721295" lon="11.1086345" />
      <trkpt lat="46.0721832" lon="11.1085918" />
      <trkpt lat="46.0722070" lon="11.1085728" />
      <trkpt lat="46.0722305" lon="11.1085482" />
      <trkpt lat="46.0722827" lon="11.1084936" />
      <trkpt lat="46.0723827" lon="11.1083766" />
      <trkpt lat="46.0724764" lon="11.1082474" />
      <trkpt lat="46.0724974" lon="11.1082185" />
      <trkpt lat="46.0725437" lon="11.1081547" />
      <trkpt lat="46.0726665" lon="11.1079740" />
      <trkpt lat="46.0726972" lon="11.1079194" />
      <trkpt lat="46.0727342" lon="11.1078492" />
      <trkpt lat="46.0728674" lon="11.1075960" />
      <trkpt lat="46.0728850" lon="11.1075829" />
      <trkpt lat="46.0729323" lon="11.1075476" />
      <trkpt lat="46.0730084" lon="11.1075045" />
      <trkpt lat="46.0732338" lon="11.1073935" />
      <trkpt lat="46.0734077" lon="11.1073276" />
      <trkpt lat="46.0735984" lon="11.1072671" />
      <trkpt lat="46.0738991" lon="11.1071802" />
      <trkpt lat="46.0743143" lon="11.1070669" />
      <trkpt lat="46.0743717" lon="11.1070660" />
      <trkpt lat="46.0744235" lon="11.1070799" />
      <trkpt lat="46.0744561" lon="11.1070973" />
      <trkpt lat="46.0744799" lon="11.1071213" />
      <trkpt lat="46.0745109" lon="11.1071559" />
      <trkpt lat="46.0746216" lon="11.1073637" />
      <trkpt lat="46.0746520" lon="11.1074333" />
      <trkpt lat="46.0747035" lon="11.1074149" />
      <trkpt lat="46.0747350" lon="11.1075129" />
      <trkpt lat="46.0747583" lon="11.1075879" />
      <trkpt lat="46.0747826" lon="11.1076670" />
      <trkpt lat="46.0748058" lon="11.1077167" />
      <trkpt lat="46.0748226" lon="11.1077543" />
      <trkpt lat="46.0748479" lon="11.1078192" />
      <trkpt lat="46.0748694" lon="11.1078579" />
      <trkpt lat="46.0748891" lon="11.1078796" />
      <trkpt lat="46.0749067" lon="11.1078969" />
      <trkpt lat="46.0749270" lon="11.1079124" />
      <trkpt lat="46.0749457" lon="11.1079211" />
      <trkpt lat="46.0749666" lon="11.1079263" />
      <trkpt lat="46.0749871" lon="11.1079302" />
      <trkpt lat="46.0750098" lon="11.1079301" />
      <trkpt lat="46.0750317" lon="11.1079174" />
      <trkpt lat="46.0750558" lon="11.1079055" />
      <trkpt lat="46.0750747" lon="11.1078803" />
      <trkpt lat="46.0750942" lon="11.1078562" />
      <trkpt lat="46.0751119" lon="11.1078280" />
      <trkpt lat="46.0751398" lon="11.1077864" />
      <trkpt lat="46.0751760" lon="11.1077230" />
      <trkpt lat="46.0752003" lon="11.1076805" />
      <trkpt lat="46.0752358" lon="11.1077233" />
      <trkpt lat="46.0753637" lon="11.1074805" />
      <trkpt lat="46.0754757" lon="11.1072992" />
      <trkpt lat="46.0755705" lon="11.1071218" />
      <trkpt lat="46.0755921" lon="11.1070670" />
      <trkpt lat="46.0756100" lon="11.1070029" />
      <trkpt lat="46.0756163" lon="11.1069420" />
      <trkpt lat="46.0756179" lon="11.1068772" />
      <trkpt lat="46.0756150" lon="11.1067014" />
      <trkpt lat="46.0755754" lon="11.1060665" />
      <trkpt lat="46.0755737" lon="11.1059754" />
      <trkpt lat="46.0755825" lon="11.1058923" />
      <trkpt lat="46.0755951" lon="11.1058352" />
      <trkpt lat="46.0756096" lon="11.1057795" />
      <trkpt lat="46.0756353" lon="11.1057107" />
      <trkpt lat="46.0756693" lon="11.1056513" />
      <trkpt lat="46.0757681" lon="11.1055552" />
      <trkpt lat="46.0758826" lon="11.1054640" />
      <trkpt lat="46.0759822" lon="11.1053733" />
      <trkpt lat="46.0760582" lon="11.1052926" />
      <trkpt lat="46.0760374" lon="11.1052666" />
      <trkpt lat="46.0760209" lon="11.1052519" />
      <trkpt lat="46.0759974" lon="11.1052433" />
      <trkpt lat="46.0759730" lon="11.1052467" />
      <trkpt lat="46.0759417" lon="11.1052701" />
      <trkpt lat="46.0757012" lon="11.1054896" />
      <trkpt lat="46.0755294" lon="11.1056829" />
      <trkpt lat="46.0754665" lon="11.1056033" />
      <trkpt lat="46.0752798" lon="11.1050309" />
      <trkpt lat="46.0752486" lon="11.1049253" />
      <trkpt lat="46.0751930" lon="11.1048453" />
      <trkpt lat="46.0751893" lon="11.1047890" />
      <trkpt lat="46.0752004" lon="11.1047327" />
      <trkpt lat="46.0752339" lon="11.1046656" />
      <trkpt lat="46.0752916" lon="11.1045959" />
      <trkpt lat="46.0754107" lon="11.1044591" />
      <trkpt lat="46.0754702" lon="11.1043974" />
      <trkpt lat="46.0755409" lon="11.1043303" />
      <trkpt lat="46.0756005" lon="11.1042713" />
      <trkpt lat="46.0756507" lon="11.1042016" />
      <trkpt lat="46.0757158" lon="11.1041399" />
      <trkpt lat="46.0757438" lon="11.1041185" />
      <trkpt lat="46.0757717" lon="11.1040863" />
      <trkpt lat="46.0758293" lon="11.1040165" />
      <trkpt lat="46.0759389" lon="11.1039107" />
      <trkpt lat="46.0760728" lon="11.1037682" />
      <trkpt lat="46.0761624" lon="11.1036678" />
      <trkpt lat="46.0764676" lon="11.1034090" />
      <trkpt lat="46.0765113" lon="11.1033741" />
      <trkpt lat="46.0765504" lon="11.1033245" />
      <trkpt lat="46.0765783" lon="11.1032762" />
      <trkpt lat="46.0766022" lon="11.1032228" />
      <trkpt lat="46.0766601" lon="11.1031234" />
      <trkpt lat="46.0766647" lon="11.1031179" />
      <trkpt lat="46.0767103" lon="11.1030631" />
      <trkpt lat="46.0767783" lon="11.1029852" />
      <trkpt lat="46.0768658" lon="11.1028591" />
      <trkpt lat="46.0769362" lon="11.1027870" />
      <trkpt lat="46.0770581" lon="11.1026944" />
      <trkpt lat="46.0771725" lon="11.1026287" />
      <trkpt lat="46.0772200" lon="11.1026193" />
      <trkpt lat="46.0773837" lon="11.1026756" />
      <trkpt lat="46.0774963" lon="11.1027106" />
      <trkpt lat="46.0775505" lon="11.1027287" />
      <trkpt lat="46.0777227" lon="11.1027701" />
      <trkpt lat="46.0777339" lon="11.1027727" />
      <trkpt lat="46.0779719" lon="11.1028279" />
      <trkpt lat="46.0780166" lon="11.1028413" />
      <trkpt lat="46.0780659" lon="11.1028614" />
      <trkpt lat="46.0781009" lon="11.1028875" />
      <trkpt lat="46.0781254" lon="11.1029299" />
      <trkpt lat="46.0781437" lon="11.1029828" />
      <trkpt lat="46.0781391" lon="11.1030297" />
      <trkpt lat="46.0781270" lon="11.1030632" />
      <trkpt lat="46.0781112" lon="11.1030833" />
      <trkpt lat="46.0780833" lon="11.1030968" />
      <trkpt lat="46.0780405" lon="11.1030941" />
      <trkpt lat="46.0780088" lon="11.1030860" />
      <trkpt lat="46.0779465" lon="11.1030619" />
      <trkpt lat="46.0779028" lon="11.1030512" />
      <trkpt lat="46.0778158" lon="11.1030655" />
      <trkpt lat="46.0777583" lon="11.1030895" />
      <trkpt lat="46.0776803" lon="11.1031303" />
      <trkpt lat="46.0771511" lon="11.1034807" />
      <trkpt lat="46.0766638" lon="11.1038194" />
      <trkpt lat="46.0764740" lon="11.1039453" />
      <trkpt lat="46.0759270" lon="11.1043101" />
      <trkpt lat="46.0757932" lon="11.1043940" />
      <trkpt lat="46.0757330" lon="11.1044419" />
      <trkpt lat="46.0757161" lon="11.1045001" />
      <trkpt lat="46.0757222" lon="11.1045761" />
      <trkpt lat="46.0757643" lon="11.1047321" />
      <trkpt lat="46.0757455" lon="11.1047211" />
      <trkpt lat="46.0756860" lon="11.1046911" />
      <trkpt lat="46.0755972" lon="11.1046888" />
      <trkpt lat="46.0755431" lon="11.1046868" />
      <trkpt lat="46.0754999" lon="11.1046849" />
      <trkpt lat="46.0754688" lon="11.1047063" />
      <trkpt lat="46.0754201" lon="11.1047492" />
      <trkpt lat="46.0753700" lon="11.1047979" />
      <trkpt lat="46.0753379" lon="11.1048316" />
      <trkpt lat="46.0752486" lon="11.1049253" />
      <trkpt lat="46.0752798" lon="11.1050309" />
      <trkpt lat="46.0754665" lon="11.1056033" />
      <trkpt lat="46.0755294" lon="11.1056829" />
      <trkpt lat="46.0757012" lon="11.1054896" />
      <trkpt lat="46.0759417" lon="11.1052701" />
      <trkpt lat="46.0759730" lon="11.1052467" />
      <trkpt lat="46.0759974" lon="11.1052433" />
      <trkpt lat="46.0760209" lon="11.1052519" />
      <trkpt lat="46.0760374" lon="11.1052666" />
      <trkpt lat="46.0760582" lon="11.1052926" />
      <trkpt lat="46.0761969" lon="11.1050832" />
      <trkpt lat="46.0762239" lon="11.1051163" />
      <trkpt lat="46.0761846" lon="11.1051837" />
      <trkpt lat="46.0761346" lon="11.1052549" />
      <trkpt lat="46.0760811" lon="11.1053251" />
      <trkpt lat="46.0760248" lon="11.1053864" />
      <trkpt lat="46.0759111" lon="11.1054869" />
      <trkpt lat="46.0758168" lon="11.1055615" />
      <trkpt lat="46.0757498" lon="11.1056256" />
      <trkpt lat="46.0756984" lon="11.1056879" />
      <trkpt lat="46.0756710" lon="11.1057314" />
      <trkpt lat="46.0756346" lon="11.1058194" />
      <trkpt lat="46.0756154" lon="11.1058895" />
      <trkpt lat="46.0756041" lon="11.1059634" />
      <trkpt lat="46.0756016" lon="11.1060672" />
      <trkpt lat="46.0756428" lon="11.1066940" />
      <trkpt lat="46.0756497" lon="11.1067832" />
      <trkpt lat="46.0756530" lon="11.1068497" />
      <trkpt lat="46.0756533" lon="11.1069164" />
      <trkpt lat="46.0756536" lon="11.1069579" />
      <trkpt lat="46.0756549" lon="11.1069987" />
      <trkpt lat="46.0756522" lon="11.1070446" />
      <trkpt lat="46.0755952" lon="11.1072167" />
      <trkpt lat="46.0755151" lon="11.1073143" />
      <trkpt lat="46.0754418" lon="11.1074264" />
      <trkpt lat="46.0754098" lon="11.1074843" />
      <trkpt lat="46.0753567" lon="11.1075771" />
      <trkpt lat="46.0752667" lon="11.1077605" />
      <trkpt lat="46.0752422" lon="11.1078244" />
      <trkpt lat="46.0754014" lon="11.1078394" />
      <trkpt lat="46.0754010" lon="11.1078515" />
      <trkpt lat="46.0754034" lon="11.1078631" />
      <trkpt lat="46.0754083" lon="11.1078729" />
      <trkpt lat="46.0754151" lon="11.1078801" />
      <trkpt lat="46.0754233" lon="11.1078837" />
      <trkpt lat="46.0754044" lon="11.1081966" />
      <trkpt lat="46.0754002" lon="11.1082665" />
      <trkpt lat="46.0755915" lon="11.1082840" />
      <trkpt lat="46.0755919" lon="11.1083175" />
      <trkpt lat="46.0755923" lon="11.1084073" />
      <trkpt lat="46.0755924" lon="11.1084454" />
      <trkpt lat="46.0755488" lon="11.1084435" />
      <trkpt lat="46.0755472" lon="11.1086090" />
      <trkpt lat="46.0755435" lon="11.1088402" />
      <trkpt lat="46.0755409" lon="11.1090352" />
      <trkpt lat="46.0755460" lon="11.1092295" />
      <trkpt lat="46.0755512" lon="11.1094277" />
      <trkpt lat="46.0755565" lon="11.1096322" />
      <trkpt lat="46.0755613" lon="11.1098166" />
      <trkpt lat="46.0755645" lon="11.1099396" />
      <trkpt lat="46.0755809" lon="11.1100225" />
      <trkpt lat="46.0756894" lon="11.1102086" />
      <trkpt lat="46.0758160" lon="11.1103974" />
      <trkpt lat="46.0759379" lon="11.1105811" />
      <trkpt lat="46.0760864" lon="11.1105794" />
      <trkpt lat="46.0760815" lon="11.1103711" />
      <trkpt lat="46.0760779" lon="11.1102366" />
      <trkpt lat="46.0760629" lon="11.1101924" />
      <trkpt lat="46.0760513" lon="11.1101583" />
      <trkpt lat="46.0760483" lon="11.1099914" />
      <trkpt lat="46.0755809" lon="11.1100225" />
      <trkpt lat="46.0755301" lon="11.1099736" />
      <trkpt lat="46.0753384" lon="11.1101631" />
      <trkpt lat="46.0752772" lon="11.1100536" />
      <trkpt lat="46.0752456" lon="11.1099897" />
      <trkpt lat="46.0751811" lon="11.1097800" />
      <trkpt lat="46.0751466" lon="11.1096704" />
      <trkpt lat="46.0750678" lon="11.1097455" />
      <trkpt lat="46.0750351" lon="11.1097998" />
      <trkpt lat="46.0750098" lon="11.1098648" />
      <trkpt lat="46.0749977" lon="11.1099065" />
      <trkpt lat="46.0749874" lon="11.1099670" />
      <trkpt lat="46.0749725" lon="11.1101647" />
      <trkpt lat="46.0749675" lon="11.1102344" />
      <trkpt lat="46.0749568" lon="11.1102786" />
      <trkpt lat="46.0749208" lon="11.1103402" />
      <trkpt lat="46.0749184" lon="11.1106646" />
      <trkpt lat="46.0749211" lon="11.1107384" />
      <trkpt lat="46.0749286" lon="11.1109429" />
      <trkpt lat="46.0749321" lon="11.1109999" />
      <trkpt lat="46.0749410" lon="11.1111442" />
      <trkpt lat="46.0749587" lon="11.1113894" />
      <trkpt lat="46.0749443" lon="11.1114020" />
      <trkpt lat="46.0749307" lon="11.1114222" />
      <trkpt lat="46.0749205" lon="11.1114510" />
      <trkpt lat="46.0749170" lon="11.1114829" />
      <trkpt lat="46.0749193" lon="11.1115082" />
      <trkpt lat="46.0749250" lon="11.1115297" />
      <trkpt lat="46.0748708" lon="11.1116491" />
      <trkpt lat="46.0749295" lon="11.1117293" />
      <trkpt lat="46.0749172" lon="11.1117461" />
      <trkpt lat="46.0748911" lon="11.1117864" />
      <trkpt lat="46.0748632" lon="11.1118588" />
      <trkpt lat="46.0748332" lon="11.1119514" />
      <trkpt lat="46.0748096" lon="11.1120926" />
      <trkpt lat="46.0747928" lon="11.1122425" />
      <trkpt lat="46.0747885" lon="11.1122830" />
      <trkpt lat="46.0747480" lon="11.1126639" />
      <trkpt lat="46.0746725" lon="11.1131282" />
      <trkpt lat="46.0746998" lon="11.1131588" />
      <trkpt lat="46.0747319" lon="11.1131600" />
      <trkpt lat="46.0748088" lon="11.1131452" />
      <trkpt lat="46.0749209" lon="11.1131183" />
      <trkpt lat="46.0750689" lon="11.1130862" />
      <trkpt lat="46.0752477" lon="11.1130565" />
      <trkpt lat="46.0753572" lon="11.1130455" />
      <trkpt lat="46.0755113" lon="11.1130377" />
      <trkpt lat="46.0762296" lon="11.1131030" />
      <trkpt lat="46.0762809" lon="11.1131056" />
      <trkpt lat="46.0763032" lon="11.1131127" />
      <trkpt lat="46.0763256" lon="11.1131251" />
      <trkpt lat="46.0763516" lon="11.1131554" />
      <trkpt lat="46.0763766" lon="11.1132015" />
      <trkpt lat="46.0763990" lon="11.1132474" />
      <trkpt lat="46.0764130" lon="11.1132642" />
      <trkpt lat="46.0764396" lon="11.1132784" />
      <trkpt lat="46.0764889" lon="11.1132882" />
      <trkpt lat="46.0765256" lon="11.1132925" />
      <trkpt lat="46.0765562" lon="11.1133326" />
      <trkpt lat="46.0765883" lon="11.1133726" />
      <trkpt lat="46.0766174" lon="11.1134123" />
      <trkpt lat="46.0767577" lon="11.1136323" />
      <trkpt lat="46.0767892" lon="11.1136848" />
      <trkpt lat="46.0768942" lon="11.1139022" />
      <trkpt lat="46.0769316" lon="11.1139349" />
      <trkpt lat="46.0770012" lon="11.1139959" />
      <trkpt lat="46.0770084" lon="11.1140162" />
      <trkpt lat="46.0770395" lon="11.1141039" />
      <trkpt lat="46.0770708" lon="11.1141896" />
      <trkpt lat="46.0770905" lon="11.1142551" />
      <trkpt lat="46.0771558" lon="11.1144764" />
      <trkpt lat="46.0772025" lon="11.1146393" />
      <trkpt lat="46.0772409" lon="11.1146190" />
      <trkpt lat="46.0772669" lon="11.1147147" />
      <trkpt lat="46.0775432" lon="11.1156220" />
      <trkpt lat="46.0775678" lon="11.1156968" />
      <trkpt lat="46.0775785" lon="11.1157040" />
      <trkpt lat="46.0776299" lon="11.1157382" />
      <trkpt lat="46.0776913" lon="11.1157565" />
      <trkpt lat="46.0777591" lon="11.1157269" />
      <trkpt lat="46.0778322" lon="11.1156835" />
      <trkpt lat="46.0778496" lon="11.1157269" />
      <trkpt lat="46.0778685" lon="11.1157737" />
      <trkpt lat="46.0778802" lon="11.1158059" />
      <trkpt lat="46.0778874" lon="11.1158414" />
      <trkpt lat="46.0778870" lon="11.1158833" />
      <trkpt lat="46.0778820" lon="11.1159237" />
      <trkpt lat="46.0778653" lon="11.1160045" />
      <trkpt lat="46.0778557" lon="11.1160512" />
      <trkpt lat="46.0778537" lon="11.1160816" />
      <trkpt lat="46.0778624" lon="11.1161021" />
      <trkpt lat="46.0782053" lon="11.1162907" />
      <trkpt lat="46.0788709" lon="11.1166530" />
      <trkpt lat="46.0789591" lon="11.1167023" />
      <trkpt lat="46.0791557" lon="11.1168073" />
      <trkpt lat="46.0791580" lon="11.1168085" />
      <trkpt lat="46.0791762" lon="11.1168183" />
      <trkpt lat="46.0791585" lon="11.1168869" />
      <trkpt lat="46.0792202" lon="11.1169207" />
      <trkpt lat="46.0795721" lon="11.1171139" />
      <trkpt lat="46.0796779" lon="11.1171868" />
      <trkpt lat="46.0797190" lon="11.1172413" />
      <trkpt lat="46.0797488" lon="11.1171929" />
      <trkpt lat="46.0797911" lon="11.1171698" />
      <trkpt lat="46.0798335" lon="11.1171763" />
      <trkpt lat="46.0798571" lon="11.1171939" />
      <trkpt lat="46.0798756" lon="11.1172189" />
      <trkpt lat="46.0799538" lon="11.1172213" />
      <trkpt lat="46.0800766" lon="11.1172201" />
      <trkpt lat="46.0810449" lon="11.1164216" />
      <trkpt lat="46.0812145" lon="11.1162846" />
      <trkpt lat="46.0812280" lon="11.1163314" />
      <trkpt lat="46.0812489" lon="11.1163947" />
      <trkpt lat="46.0813356" lon="11.1166106" />
      <trkpt lat="46.0813581" lon="11.1166546" />
      <trkpt lat="46.0813792" lon="11.1166957" />
      <trkpt lat="46.0814131" lon="11.1166852" />
      <trkpt lat="46.0817327" lon="11.1165860" />
      <trkpt lat="46.0819216" lon="11.1165927" />
      <trkpt lat="46.0818807" lon="11.1167656" />
      <trkpt lat="46.0821060" lon="11.1167066" />
      <trkpt lat="46.0823822" lon="11.1166342" />
      <trkpt lat="46.0825644" lon="11.1165864" />
      <trkpt lat="46.0827765" lon="11.1162630" />
      <trkpt lat="46.0828616" lon="11.1160784" />
      <trkpt lat="46.0829390" lon="11.1158257" />
      <trkpt lat="46.0829519" lon="11.1157392" />
      <trkpt lat="46.0829669" lon="11.1156391" />
      <trkpt lat="46.0829829" lon="11.1155320" />
      <trkpt lat="46.0830702" lon="11.1151229" />
      <trkpt lat="46.0830961" lon="11.1150017" />
      <trkpt lat="46.0831802" lon="11.1147561" />
      <trkpt lat="46.0831981" lon="11.1146922" />
      <trkpt lat="46.0832618" lon="11.1146586" />
      <trkpt lat="46.0833377" lon="11.1146228" />
      <trkpt lat="46.0834400" lon="11.1146128" />
      <trkpt lat="46.0835406" lon="11.1146373" />
      <trkpt lat="46.0837546" lon="11.1147215" />
      <trkpt lat="46.0837811" lon="11.1147317" />
      <trkpt lat="46.0838066" lon="11.1147398" />
      <trkpt lat="46.0838264" lon="11.1147454" />
      <trkpt lat="46.0838692" lon="11.1147594" />
      <trkpt lat="46.0839262" lon="11.1147777" />
      <trkpt lat="46.0840331" lon="11.1148494" />
      <trkpt lat="46.0840576" lon="11.1148743" />
      <trkpt lat="46.0841393" lon="11.1149666" />
      <trkpt lat="46.0841830" lon="11.1150383" />
      <trkpt lat="46.0842266" lon="11.1151344" />
      <trkpt lat="46.0844886" lon="11.1158987" />
      <trkpt lat="46.0847878" lon="11.1167436" />
      <trkpt lat="46.0850112" lon="11.1173660" />
      <trkpt lat="46.0851439" lon="11.1177360" />
      <trkpt lat="46.0852910" lon="11.1182061" />
      <trkpt lat="46.0853213" lon="11.1183426" />
      <trkpt lat="46.0853299" lon="11.1184360" />
      <trkpt lat="46.0853209" lon="11.1185107" />
      <trkpt lat="46.0853098" lon="11.1185565" />
      <trkpt lat="46.0852925" lon="11.1185915" />
      <trkpt lat="46.0852699" lon="11.1186213" />
      <trkpt lat="46.0852382" lon="11.1186407" />
      <trkpt lat="46.0852187" lon="11.1186508" />
      <trkpt lat="46.0851837" lon="11.1185436" />
      <trkpt lat="46.0851763" lon="11.1184922" />
      <trkpt lat="46.0851804" lon="11.1184612" />
      <trkpt lat="46.0851896" lon="11.1184322" />
      <trkpt lat="46.0851998" lon="11.1184122" />
      <trkpt lat="46.0852790" lon="11.1183568" />
      <trkpt lat="46.0855101" lon="11.1182167" />
      <trkpt lat="46.0855246" lon="11.1182129" />
      <trkpt lat="46.0855369" lon="11.1182140" />
      <trkpt lat="46.0855491" lon="11.1182255" />
      <trkpt lat="46.0856162" lon="11.1183115" />
      <trkpt lat="46.0856862" lon="11.1183823" />
      <trkpt lat="46.0857188" lon="11.1184062" />
      <trkpt lat="46.0857536" lon="11.1184221" />
      <trkpt lat="46.0858282" lon="11.1184490" />
      <trkpt lat="46.0859074" lon="11.1184677" />
      <trkpt lat="46.0859543" lon="11.1184775" />
      <trkpt lat="46.0860063" lon="11.1184769" />
      <trkpt lat="46.0859543" lon="11.1184775" />
      <trkpt lat="46.0859074" lon="11.1184677" />
      <trkpt lat="46.0858282" lon="11.1184490" />
      <trkpt lat="46.0857536" lon="11.1184221" />
      <trkpt lat="46.0857188" lon="11.1184062" />
      <trkpt lat="46.0856862" lon="11.1183823" />
      <trkpt lat="46.0856162" lon="11.1183115" />
      <trkpt lat="46.0855491" lon="11.1182255" />
      <trkpt lat="46.0855369" lon="11.1182140" />
      <trkpt lat="46.0855246" lon="11.1182129" />
      <trkpt lat="46.0855101" lon="11.1182167" />
      <trkpt lat="46.0852790" lon="11.1183568" />
      <trkpt lat="46.0851998" lon="11.1184122" />
      <trkpt lat="46.0851896" lon="11.1184322" />
      <trkpt lat="46.0851804" lon="11.1184612" />
      <trkpt lat="46.0851763" lon="11.1184922" />
      <trkpt lat="46.0851837" lon="11.1185436" />
      <trkpt lat="46.0852187" lon="11.1186508" />
      <trkpt lat="46.0852260" lon="11.1186997" />
      <trkpt lat="46.0852259" lon="11.1187352" />
      <trkpt lat="46.0852151" lon="11.1187980" />
      <trkpt lat="46.0852043" lon="11.1188418" />
      <trkpt lat="46.0851839" lon="11.1188792" />
      <trkpt lat="46.0851612" lon="11.1188957" />
      <trkpt lat="46.0851763" lon="11.1190136" />
      <trkpt lat="46.0850578" lon="11.1190980" />
      <trkpt lat="46.0850190" lon="11.1191204" />
      <trkpt lat="46.0849471" lon="11.1191621" />
      <trkpt lat="46.0845079" lon="11.1194160" />
      <trkpt lat="46.0843448" lon="11.1195103" />
      <trkpt lat="46.0843255" lon="11.1195215" />
      <trkpt lat="46.0840937" lon="11.1196514" />
      <trkpt lat="46.0840136" lon="11.1197027" />
      <trkpt lat="46.0839319" lon="11.1197511" />
      <trkpt lat="46.0835668" lon="11.1200709" />
      <trkpt lat="46.0834557" lon="11.1201380" />
      <trkpt lat="46.0834256" lon="11.1201549" />
      <trkpt lat="46.0831518" lon="11.1203086" />
      <trkpt lat="46.0831085" lon="11.1203329" />
      <trkpt lat="46.0830713" lon="11.1203573" />
      <trkpt lat="46.0829065" lon="11.1204462" />
      <trkpt lat="46.0828405" lon="11.1204833" />
      <trkpt lat="46.0824960" lon="11.1206766" />
      <trkpt lat="46.0824273" lon="11.1207152" />
      <trkpt lat="46.0816185" lon="11.1211597" />
      <trkpt lat="46.0815709" lon="11.1211873" />
      <trkpt lat="46.0810583" lon="11.1214881" />
      <trkpt lat="46.0808456" lon="11.1216095" />
      <trkpt lat="46.0804443" lon="11.1218384" />
      <trkpt lat="46.0802633" lon="11.1219417" />
      <trkpt lat="46.0801591" lon="11.1220006" />
      <trkpt lat="46.0801163" lon="11.1220248" />
      <trkpt lat="46.0798379" lon="11.1221818" />
      <trkpt lat="46.0797075" lon="11.1222543" />
      <trkpt lat="46.0794007" lon="11.1224122" />
      <trkpt lat="46.0791954" lon="11.1225299" />
      <trkpt lat="46.0792101" lon="11.1225906" />
      <trkpt lat="46.0792163" lon="11.1226162" />
      <trkpt lat="46.0792321" lon="11.1226816" />
      <trkpt lat="46.0792143" lon="11.1227106" />
      <trkpt lat="46.0791626" lon="11.1226169" />
      <trkpt lat="46.0787825" lon="11.1228350" />
      <trkpt lat="46.0785482" lon="11.1229690" />
      <trkpt lat="46.0781191" lon="11.1232074" />
      <trkpt lat="46.0780910" lon="11.1232238" />
      <trkpt lat="46.0776801" lon="11.1234630" />
      <trkpt lat="46.0777831" lon="11.1238227" />
      <trkpt lat="46.0777618" lon="11.1238413" />
      <trkpt lat="46.0777471" lon="11.1238564" />
      <trkpt lat="46.0777288" lon="11.1238780" />
      <trkpt lat="46.0776558" lon="11.1239618" />
      <trkpt lat="46.0775557" lon="11.1240701" />
      <trkpt lat="46.0773550" lon="11.1242867" />
      <trkpt lat="46.0772625" lon="11.1243815" />
      <trkpt lat="46.0771321" lon="11.1245118" />
      <trkpt lat="46.0770710" lon="11.1245728" />
      <trkpt lat="46.0770397" lon="11.1245951" />
      <trkpt lat="46.0770039" lon="11.1246217" />
      <trkpt lat="46.0768398" lon="11.1247273" />
      <trkpt lat="46.0766480" lon="11.1248356" />
      <trkpt lat="46.0766354" lon="11.1248421" />
      <trkpt lat="46.0765820" lon="11.1248704" />
      <trkpt lat="46.0763716" lon="11.1249296" />
      <trkpt lat="46.0763231" lon="11.1249364" />
      <trkpt lat="46.0762695" lon="11.1249440" />
      <trkpt lat="46.0763331" lon="11.1249703" />
      <trkpt lat="46.0763316" lon="11.1250022" />
      <trkpt lat="46.0760802" lon="11.1249801" />
      <trkpt lat="46.0761430" lon="11.1254565" />
      <trkpt lat="46.0761506" lon="11.1254558" />
      <trkpt lat="46.0761908" lon="11.1254480" />
      <trkpt lat="46.0761959" lon="11.1254895" />
      <trkpt lat="46.0762000" lon="11.1255151" />
      <trkpt lat="46.0762091" lon="11.1255375" />
      <trkpt lat="46.0762273" lon="11.1255589" />
      <trkpt lat="46.0762777" lon="11.1255635" />
      <trkpt lat="46.0767166" lon="11.1255844" />
      <trkpt lat="46.0771578" lon="11.1256376" />
      <trkpt lat="46.0772674" lon="11.1255938" />
      <trkpt lat="46.0773674" lon="11.1255533" />
      <trkpt lat="46.0774586" lon="11.1255100" />
      <trkpt lat="46.0774977" lon="11.1254852" />
      <trkpt lat="46.0775310" lon="11.1254493" />
      <trkpt lat="46.0775702" lon="11.1253820" />
      <trkpt lat="46.0776099" lon="11.1253139" />
      <trkpt lat="46.0776339" lon="11.1252250" />
      <trkpt lat="46.0776434" lon="11.1251307" />
      <trkpt lat="46.0776328" lon="11.1249629" />
      <trkpt lat="46.0776302" lon="11.1248991" />
      <trkpt lat="46.0776293" lon="11.1248428" />
      <trkpt lat="46.0776311" lon="11.1247858" />
      <trkpt lat="46.0776424" lon="11.1247387" />
      <trkpt lat="46.0776688" lon="11.1246959" />
      <trkpt lat="46.0777014" lon="11.1246590" />
      <trkpt lat="46.0778056" lon="11.1245859" />
      <trkpt lat="46.0778591" lon="11.1245544" />
      <trkpt lat="46.0779026" lon="11.1245243" />
      <trkpt lat="46.0780100" lon="11.1244413" />
      <trkpt lat="46.0780572" lon="11.1244069" />
      <trkpt lat="46.0782055" lon="11.1243033" />
      <trkpt lat="46.0783060" lon="11.1242538" />
      <trkpt lat="46.0783680" lon="11.1242363" />
      <trkpt lat="46.0784188" lon="11.1242257" />
      <trkpt lat="46.0784934" lon="11.1242206" />
      <trkpt lat="46.0785524" lon="11.1242276" />
      <trkpt lat="46.0786016" lon="11.1242578" />
      <trkpt lat="46.0786461" lon="11.1243158" />
      <trkpt lat="46.0786727" lon="11.1243952" />
      <trkpt lat="46.0786860" lon="11.1244818" />
      <trkpt lat="46.0786679" lon="11.1245942" />
      <trkpt lat="46.0786295" lon="11.1247290" />
      <trkpt lat="46.0785672" lon="11.1248890" />
      <trkpt lat="46.0785499" lon="11.1249317" />
      <trkpt lat="46.0784480" lon="11.1250675" />
      <trkpt lat="46.0782439" lon="11.1252306" />
      <trkpt lat="46.0780801" lon="11.1254054" />
      <trkpt lat="46.0778389" lon="11.1257179" />
      <trkpt lat="46.0776466" lon="11.1259896" />
      <trkpt lat="46.0775885" lon="11.1260716" />
      <trkpt lat="46.0775313" lon="11.1262105" />
      <trkpt lat="46.0775071" lon="11.1262879" />
      <trkpt lat="46.0774895" lon="11.1263747" />
      <trkpt lat="46.0774476" lon="11.1266083" />
      <trkpt lat="46.0774140" lon="11.1267203" />
      <trkpt lat="46.0773621" lon="11.1268230" />
      <trkpt lat="46.0772324" lon="11.1270697" />
      <trkpt lat="46.0769676" lon="11.1273889" />
      <trkpt lat="46.0768882" lon="11.1274744" />
      <trkpt lat="46.0768848" lon="11.1274787" />
      <trkpt lat="46.0768259" lon="11.1275549" />
      <trkpt lat="46.0766061" lon="11.1277146" />
      <trkpt lat="46.0762954" lon="11.1279100" />
      <trkpt lat="46.0761818" lon="11.1279798" />
      <trkpt lat="46.0761026" lon="11.1280285" />
      <trkpt lat="46.0760286" lon="11.1281419" />
      <trkpt lat="46.0759290" lon="11.1282301" />
      <trkpt lat="46.0759087" lon="11.1284264" />
      <trkpt lat="46.0759068" lon="11.1285458" />
      <trkpt lat="46.0758860" lon="11.1286618" />
      <trkpt lat="46.0759712" lon="11.1287291" />
      <trkpt lat="46.0761791" lon="11.1288718" />
      <trkpt lat="46.0763971" lon="11.1290343" />
      <trkpt lat="46.0766107" lon="11.1292268" />
      <trkpt lat="46.0768258" lon="11.1294256" />
      <trkpt lat="46.0770601" lon="11.1295496" />
      <trkpt lat="46.0771625" lon="11.1296480" />
      <trkpt lat="46.0772248" lon="11.1298661" />
      <trkpt lat="46.0772678" lon="11.1302466" />
      <trkpt lat="46.0772708" lon="11.1303001" />
      <trkpt lat="46.0772788" lon="11.1304450" />
      <trkpt lat="46.0773083" lon="11.1304503" />
      <trkpt lat="46.0773671" lon="11.1304666" />
      <trkpt lat="46.0774699" lon="11.1305183" />
      <trkpt lat="46.0775462" lon="11.1305548" />
      <trkpt lat="46.0776351" lon="11.1305890" />
      <trkpt lat="46.0776813" lon="11.1306004" />
      <trkpt lat="46.0779757" lon="11.1306368" />
      <trkpt lat="46.0780404" lon="11.1306618" />
      <trkpt lat="46.0781185" lon="11.1307095" />
      <trkpt lat="46.0782004" lon="11.1307831" />
      <trkpt lat="46.0782903" lon="11.1308929" />
      <trkpt lat="46.0783495" lon="11.1309923" />
      <trkpt lat="46.0783826" lon="11.1310924" />
      <trkpt lat="46.0783974" lon="11.1311663" />
      <trkpt lat="46.0783974" lon="11.1312138" />
      <trkpt lat="46.0783917" lon="11.1312810" />
      <trkpt lat="46.0783660" lon="11.1313499" />
      <trkpt lat="46.0783263" lon="11.1314152" />
      <trkpt lat="46.0781656" lon="11.1316469" />
      <trkpt lat="46.0778386" lon="11.1320741" />
      <trkpt lat="46.0775294" lon="11.1324748" />
      <trkpt lat="46.0771637" lon="11.1328149" />
      <trkpt lat="46.0770186" lon="11.1329397" />
      <trkpt lat="46.0770180" lon="11.1330358" />
      <trkpt lat="46.0769276" lon="11.1331966" />
      <trkpt lat="46.0768501" lon="11.1334039" />
      <trkpt lat="46.0767662" lon="11.1335477" />
      <trkpt lat="46.0767134" lon="11.1336349" />
      <trkpt lat="46.0767733" lon="11.1337175" />
      <trkpt lat="46.0768521" lon="11.1337678" />
      <trkpt lat="46.0769419" lon="11.1337805" />
      <trkpt lat="46.0770276" lon="11.1338414" />
      <trkpt lat="46.0770945" lon="11.1339463" />
      <trkpt lat="46.0771392" lon="11.1340305" />
      <trkpt lat="46.0771655" lon="11.1340800" />
      <trkpt lat="46.0772236" lon="11.1341968" />
      <trkpt lat="46.0772480" lon="11.1342441" />
      <trkpt lat="46.0772691" lon="11.1343008" />
      <trkpt lat="46.0772839" lon="11.1343482" />
      <trkpt lat="46.0772903" lon="11.1344311" />
      <trkpt lat="46.0772697" lon="11.1345648" />
      <trkpt lat="46.0772509" lon="11.1346502" />
      <trkpt lat="46.0771923" lon="11.1347467" />
      <trkpt lat="46.0771621" lon="11.1348921" />
      <trkpt lat="46.0770938" lon="11.1348890" />
      <trkpt lat="46.0770547" lon="11.1348813" />
      <trkpt lat="46.0769463" lon="11.1348383" />
      <trkpt lat="46.0767236" lon="11.1349726" />
      <trkpt lat="46.0766801" lon="11.1349919" />
      <trkpt lat="46.0765689" lon="11.1350411" />
      <trkpt lat="46.0766295" lon="11.1350505" />
      <trkpt lat="46.0768945" lon="11.1350918" />
      <trkpt lat="46.0770970" lon="11.1351193" />
      <trkpt lat="46.0775818" lon="11.1351995" />
      <trkpt lat="46.0776370" lon="11.1352503" />
      <trkpt lat="46.0778023" lon="11.1353775" />
      <trkpt lat="46.0780062" lon="11.1355196" />
      <trkpt lat="46.0781323" lon="11.1356685" />
      <trkpt lat="46.0782104" lon="11.1358902" />
      <trkpt lat="46.0781985" lon="11.1362501" />
      <trkpt lat="46.0781986" lon="11.1363628" />
      <trkpt lat="46.0782207" lon="11.1364565" />
      <trkpt lat="46.0778265" lon="11.1365640" />
      <trkpt lat="46.0775046" lon="11.1366445" />
      <trkpt lat="46.0772613" lon="11.1366944" />
      <trkpt lat="46.0772066" lon="11.1367230" />
      <trkpt lat="46.0771610" lon="11.1367810" />
      <trkpt lat="46.0771425" lon="11.1368932" />
      <trkpt lat="46.0770781" lon="11.1368546" />
      <trkpt lat="46.0770079" lon="11.1367548" />
      <trkpt lat="46.0769363" lon="11.1366702" />
      <trkpt lat="46.0768793" lon="11.1365849" />
      <trkpt lat="46.0768243" lon="11.1365883" />
      <trkpt lat="46.0766958" lon="11.1366914" />
      <trkpt lat="46.0765763" lon="11.1367225" />
      <trkpt lat="46.0763920" lon="11.1367656" />
      <trkpt lat="46.0763049" lon="11.1367524" />
      <trkpt lat="46.0760750" lon="11.1365801" />
      <trkpt lat="46.0759048" lon="11.1364461" />
      <trkpt lat="46.0757653" lon="11.1363504" />
      <trkpt lat="46.0756441" lon="11.1363228" />
      <trkpt lat="46.0756051" lon="11.1362893" />
      <trkpt lat="46.0753304" lon="11.1363449" />
      <trkpt lat="46.0752612" lon="11.1364079" />
      <trkpt lat="46.0752087" lon="11.1364914" />
      <trkpt lat="46.0751588" lon="11.1365343" />
      <trkpt lat="46.0751791" lon="11.1364057" />
      <trkpt lat="46.0753457" lon="11.1361392" />
      <trkpt lat="46.0757217" lon="11.1352906" />
      <trkpt lat="46.0756583" lon="11.1351939" />
      <trkpt lat="46.0751455" lon="11.1344115" />
      <trkpt lat="46.0750730" lon="11.1344619" />
      <trkpt lat="46.0749410" lon="11.1344321" />
      <trkpt lat="46.0747360" lon="11.1343586" />
      <trkpt lat="46.0746050" lon="11.1343386" />
      <trkpt lat="46.0743106" lon="11.1343774" />
      <trkpt lat="46.0740802" lon="11.1344165" />
      <trkpt lat="46.0740348" lon="11.1344504" />
      <trkpt lat="46.0738249" lon="11.1345257" />
      <trkpt lat="46.0737202" lon="11.1345342" />
      <trkpt lat="46.0736965" lon="11.1344537" />
      <trkpt lat="46.0736425" lon="11.1342824" />
      <trkpt lat="46.0736234" lon="11.1342253" />
      <trkpt lat="46.0735886" lon="11.1342095" />
      <trkpt lat="46.0735600" lon="11.1342044" />
      <trkpt lat="46.0734812" lon="11.1341873" />
      <trkpt lat="46.0734399" lon="11.1341453" />
      <trkpt lat="46.0734265" lon="11.1340567" />
      <trkpt lat="46.0734454" lon="11.1339440" />
      <trkpt lat="46.0734770" lon="11.1338546" />
      <trkpt lat="46.0734764" lon="11.1337422" />
      <trkpt lat="46.0734982" lon="11.1335950" />
      <trkpt lat="46.0735131" lon="11.1335207" />
      <trkpt lat="46.0735236" lon="11.1334541" />
      <trkpt lat="46.0734590" lon="11.1333377" />
      <trkpt lat="46.0733897" lon="11.1332421" />
      <trkpt lat="46.0732693" lon="11.1331222" />
      <trkpt lat="46.0730510" lon="11.1329627" />
      <trkpt lat="46.0725054" lon="11.1326608" />
      <trkpt lat="46.0722926" lon="11.1326168" />
      <trkpt lat="46.0721274" lon="11.1325173" />
      <trkpt lat="46.0720491" lon="11.1324688" />
      <trkpt lat="46.0720101" lon="11.1324277" />
      <trkpt lat="46.0719807" lon="11.1323818" />
      <trkpt lat="46.0719448" lon="11.1322604" />
      <trkpt lat="46.0719147" lon="11.1321316" />
      <trkpt lat="46.0719145" lon="11.1320862" />
      <trkpt lat="46.0719258" lon="11.1320398" />
      <trkpt lat="46.0719643" lon="11.1319913" />
      <trkpt lat="46.0720421" lon="11.1319164" />
      <trkpt lat="46.0720797" lon="11.1318641" />
      <trkpt lat="46.0721008" lon="11.1318201" />
      <trkpt lat="46.0721144" lon="11.1317686" />
      <trkpt lat="46.0721139" lon="11.1317196" />
      <trkpt lat="46.0720836" lon="11.1316390" />
      <trkpt lat="46.0720435" lon="11.1315664" />
      <trkpt lat="46.0719930" lon="11.1315096" />
      <trkpt lat="46.0718788" lon="11.1314021" />
      <trkpt lat="46.0717819" lon="11.1313280" />
      <trkpt lat="46.0716374" lon="11.1312149" />
      <trkpt lat="46.0715978" lon="11.1311574" />
      <trkpt lat="46.0715708" lon="11.1311038" />
      <trkpt lat="46.0715578" lon="11.1310635" />
      <trkpt lat="46.0715544" lon="11.1310345" />
      <trkpt lat="46.0715149" lon="11.1309888" />
      <trkpt lat="46.0715519" lon="11.1307148" />
      <trkpt lat="46.0715655" lon="11.1306134" />
      <trkpt lat="46.0713448" lon="11.1303846" />
      <trkpt lat="46.0713248" lon="11.1303620" />
      <trkpt lat="46.0707053" lon="11.1296377" />
      <trkpt lat="46.0706641" lon="11.1295856" />
      <trkpt lat="46.0706390" lon="11.1295035" />
      <trkpt lat="46.0706309" lon="11.1294774" />
      <trkpt lat="46.0706184" lon="11.1294365" />
      <trkpt lat="46.0704962" lon="11.1290391" />
      <trkpt lat="46.0703584" lon="11.1285810" />
      <trkpt lat="46.0702715" lon="11.1286032" />
      <trkpt lat="46.0701982" lon="11.1285050" />
      <trkpt lat="46.0701544" lon="11.1284147" />
      <trkpt lat="46.0701104" lon="11.1284726" />
      <trkpt lat="46.0698570" lon="11.1286746" />
      <trkpt lat="46.0698171" lon="11.1287601" />
      <trkpt lat="46.0697673" lon="11.1288385" />
      <trkpt lat="46.0696669" lon="11.1289332" />
      <trkpt lat="46.0694804" lon="11.1290691" />
      <trkpt lat="46.0688348" lon="11.1293939" />
      <trkpt lat="46.0687211" lon="11.1294348" />
      <trkpt lat="46.0686560" lon="11.1294429" />
      <trkpt lat="46.0685184" lon="11.1294392" />
      <trkpt lat="46.0684387" lon="11.1294344" />
      <trkpt lat="46.0684046" lon="11.1294416" />
      <trkpt lat="46.0683501" lon="11.1293914" />
      <trkpt lat="46.0683302" lon="11.1294010" />
      <trkpt lat="46.0683123" lon="11.1294097" />
      <trkpt lat="46.0682925" lon="11.1293320" />
      <trkpt lat="46.0682679" lon="11.1293437" />
      <trkpt lat="46.0682805" lon="11.1293978" />
      <trkpt lat="46.0682864" lon="11.1294242" />
      <trkpt lat="46.0683023" lon="11.1294154" />
      <trkpt lat="46.0682952" lon="11.1293883" />
      <trkpt lat="46.0682492" lon="11.1291994" />
      <trkpt lat="46.0682011" lon="11.1290129" />
      <trkpt lat="46.0681793" lon="11.1290225" />
      <trkpt lat="46.0682030" lon="11.1291172" />
      <trkpt lat="46.0682264" lon="11.1292093" />
      <trkpt lat="46.0682327" lon="11.1292333" />
      <trkpt lat="46.0680149" lon="11.1293389" />
      <trkpt lat="46.0679083" lon="11.1294018" />
      <trkpt lat="46.0677778" lon="11.1295168" />
      <trkpt lat="46.0676633" lon="11.1296383" />
      <trkpt lat="46.0676406" lon="11.1296624" />
      <trkpt lat="46.0674516" lon="11.1299333" />
      <trkpt lat="46.0671833" lon="11.1302975" />
      <trkpt lat="46.0670726" lon="11.1304665" />
      <trkpt lat="46.0670063" lon="11.1305799" />
      <trkpt lat="46.0669014" lon="11.1308307" />
      <trkpt lat="46.0668870" lon="11.1308644" />
      <trkpt lat="46.0666369" lon="11.1314965" />
      <trkpt lat="46.0666075" lon="11.1315738" />
      <trkpt lat="46.0665623" lon="11.1316769" />
      <trkpt lat="46.0665124" lon="11.1318051" />
      <trkpt lat="46.0663615" lon="11.1321930" />
      <trkpt lat="46.0663428" lon="11.1324085" />
      <trkpt lat="46.0663610" lon="11.1327108" />
      <trkpt lat="46.0663643" lon="11.1327481" />
      <trkpt lat="46.0663806" lon="11.1329312" />
      <trkpt lat="46.0663697" lon="11.1330520" />
      <trkpt lat="46.0663238" lon="11.1332178" />
      <trkpt lat="46.0662619" lon="11.1333280" />
      <trkpt lat="46.0662051" lon="11.1334131" />
      <trkpt lat="46.0661184" lon="11.1334666" />
      <trkpt lat="46.0659961" lon="11.1335364" />
      <trkpt lat="46.0659064" lon="11.1335917" />
      <trkpt lat="46.0658182" lon="11.1337106" />
      <trkpt lat="46.0657813" lon="11.1338316" />
      <trkpt lat="46.0657571" lon="11.1340079" />
      <trkpt lat="46.0657486" lon="11.1341604" />
      <trkpt lat="46.0656665" lon="11.1342993" />
      <trkpt lat="46.0654969" lon="11.1344635" />
      <trkpt lat="46.0653728" lon="11.1345987" />
      <trkpt lat="46.0653116" lon="11.1347093" />
      <trkpt lat="46.0653027" lon="11.1347458" />
      <trkpt lat="46.0652661" lon="11.1347473" />
      <trkpt lat="46.0652515" lon="11.1347479" />
      <trkpt lat="46.0652528" lon="11.1348082" />
      <trkpt lat="46.0652582" lon="11.1349182" />
      <trkpt lat="46.0652307" lon="11.1351489" />
      <trkpt lat="46.0652257" lon="11.1353185" />
      <trkpt lat="46.0652294" lon="11.1353876" />
      <trkpt lat="46.0651993" lon="11.1354464" />
      <trkpt lat="46.0651792" lon="11.1354971" />
      <trkpt lat="46.0651491" lon="11.1354441" />
      <trkpt lat="46.0651249" lon="11.1354976" />
      <trkpt lat="46.0649644" lon="11.1357256" />
      <trkpt lat="46.0643409" lon="11.1348178" />
      <trkpt lat="46.0642996" lon="11.1348762" />
      <trkpt lat="46.0634214" lon="11.1336094" />
      <trkpt lat="46.0634498" lon="11.1335695" />
      <trkpt lat="46.0634327" lon="11.1335414" />
      <trkpt lat="46.0627461" lon="11.1325372" />
      <trkpt lat="46.0627204" lon="11.1324487" />
      <trkpt lat="46.0627057" lon="11.1323921" />
      <trkpt lat="46.0627296" lon="11.1323774" />
      <trkpt lat="46.0627281" lon="11.1323660" />
      <trkpt lat="46.0627299" lon="11.1323481" />
      <trkpt lat="46.0627329" lon="11.1323233" />
      <trkpt lat="46.0627408" lon="11.1322971" />
      <trkpt lat="46.0628146" lon="11.1322203" />
      <trkpt lat="46.0631450" lon="11.1318657" />
      <trkpt lat="46.0633729" lon="11.1316874" />
      <trkpt lat="46.0634075" lon="11.1316603" />
      <trkpt lat="46.0635404" lon="11.1315532" />
      <trkpt lat="46.0636456" lon="11.1314684" />
      <trkpt lat="46.0638135" lon="11.1313802" />
      <trkpt lat="46.0638314" lon="11.1313781" />
      <trkpt lat="46.0638498" lon="11.1313759" />
      <trkpt lat="46.0638505" lon="11.1312711" />
      <trkpt lat="46.0640542" lon="11.1311967" />
      <trkpt lat="46.0642660" lon="11.1311712" />
      <trkpt lat="46.0642751" lon="11.1310378" />
      <trkpt lat="46.0643248" lon="11.1310385" />
      <trkpt lat="46.0643277" lon="11.1310006" />
      <trkpt lat="46.0643312" lon="11.1309593" />
      <trkpt lat="46.0643782" lon="11.1304176" />
      <trkpt lat="46.0643810" lon="11.1304035" />
      <trkpt lat="46.0643886" lon="11.1303664" />
      <trkpt lat="46.0643975" lon="11.1303232" />
      <trkpt lat="46.0645117" lon="11.1298516" />
      <trkpt lat="46.0645738" lon="11.1295950" />
      <trkpt lat="46.0646163" lon="11.1294270" />
      <trkpt lat="46.0646867" lon="11.1291487" />
      <trkpt lat="46.0649203" lon="11.1282300" />
      <trkpt lat="46.0649274" lon="11.1282017" />
      <trkpt lat="46.0649902" lon="11.1282361" />
      <trkpt lat="46.0650092" lon="11.1281598" />
      <trkpt lat="46.0650283" lon="11.1280830" />
      <trkpt lat="46.0650026" lon="11.1280707" />
      <trkpt lat="46.0649934" lon="11.1280440" />
      <trkpt lat="46.0649957" lon="11.1280111" />
      <trkpt lat="46.0655916" lon="11.1257217" />
      <trkpt lat="46.0655998" lon="11.1256905" />
      <trkpt lat="46.0659342" lon="11.1258733" />
      <trkpt lat="46.0659575" lon="11.1257955" />
      <trkpt lat="46.0659888" lon="11.1256911" />
      <trkpt lat="46.0657986" lon="11.1255218" />
      <trkpt lat="46.0657065" lon="11.1254149" />
      <trkpt lat="46.0656223" lon="11.1249238" />
      <trkpt lat="46.0656615" lon="11.1248850" />
      <trkpt lat="46.0656894" lon="11.1248307" />
      <trkpt lat="46.0657009" lon="11.1247688" />
      <trkpt lat="46.0656958" lon="11.1246657" />
      <trkpt lat="46.0656609" lon="11.1239761" />
      <trkpt lat="46.0656326" lon="11.1239012" />
      <trkpt lat="46.0656080" lon="11.1235626" />
      <trkpt lat="46.0655279" lon="11.1230558" />
      <trkpt lat="46.0657344" lon="11.1229534" />
      <trkpt lat="46.0660796" lon="11.1227720" />
      <trkpt lat="46.0662400" lon="11.1226907" />
      <trkpt lat="46.0662774" lon="11.1225941" />
      <trkpt lat="46.0663306" lon="11.1225479" />
      <trkpt lat="46.0663604" lon="11.1225220" />
      <trkpt lat="46.0665144" lon="11.1224055" />
      <trkpt lat="46.0665753" lon="11.1223823" />
      <trkpt lat="46.0667414" lon="11.1223091" />
      <trkpt lat="46.0667357" lon="11.1222747" />
      <trkpt lat="46.0667350" lon="11.1222603" />
      <trkpt lat="46.0667287" lon="11.1221612" />
      <trkpt lat="46.0667249" lon="11.1220591" />
      <trkpt lat="46.0667229" lon="11.1219913" />
      <trkpt lat="46.0667210" lon="11.1219626" />
      <trkpt lat="46.0667304" lon="11.1218751" />
      <trkpt lat="46.0667274" lon="11.1218448" />
      <trkpt lat="46.0666789" lon="11.1217092" />
      <trkpt lat="46.0666701" lon="11.1215352" />
      <trkpt lat="46.0667024" lon="11.1213629" />
      <trkpt lat="46.0667526" lon="11.1210542" />
      <trkpt lat="46.0667705" lon="11.1210629" />
      <trkpt lat="46.0668711" lon="11.1210492" />
      <trkpt lat="46.0669975" lon="11.1210365" />
      <trkpt lat="46.0670408" lon="11.1210278" />
      <trkpt lat="46.0670542" lon="11.1211241" />
      <trkpt lat="46.0673001" lon="11.1213049" />
      <trkpt lat="46.0675238" lon="11.1212683" />
      <trkpt lat="46.0676530" lon="11.1212477" />
      <trkpt lat="46.0675238" lon="11.1212683" />
      <trkpt lat="46.0673001" lon="11.1213049" />
      <trkpt lat="46.0670542" lon="11.1211241" />
      <trkpt lat="46.0670408" lon="11.1210278" />
      <trkpt lat="46.0669975" lon="11.1210365" />
      <trkpt lat="46.0668711" lon="11.1210492" />
    </trkseg>
  </trk>
</gpx>
