<?xml version="1.0" encoding="UTF-8"?>
<gpx xmlns="http://www.topografix.com/GPX/1/1" version="1.1" creator="ShapeRoute route-engine">
  <metadata>
    <name>pumpkin 15 km · 2026-10-04</name>
    <author>
      <name>ShapeRoute route-engine</name>
    </author>
    <copyright author="OpenStreetMap contributors">
      <license>https://opendatacommons.org/licenses/odbl/1-0/</license>
    </copyright>
    <link href="https://www.openstreetmap.org/copyright">
      <text>© OpenStreetMap contributors</text>
    </link>
    <time>2026-10-04T16:56:41Z</time>
  </metadata>
  <wpt lat="46.0137251" lon="11.2966531">
    <name>Pause</name>
  </wpt>
  <wpt lat="46.0102671" lon="11.2993336">
    <name>Resume</name>
  </wpt>
  <wpt lat="46.0102671" lon="11.2993336">
    <name>Pause</name>
  </wpt>
  <wpt lat="46.0085087" lon="11.2956866">
    <name>Resume</name>
  </wpt>
  <wpt lat="46.0085087" lon="11.2956866">
    <name>Pause</name>
  </wpt>
  <wpt lat="46.0069287" lon="11.2951462">
    <name>Resume</name>
  </wpt>
  <trk>
    <name>pumpkin 15 km · 2026-10-04</name>
    <trkseg>
      <trkpt lat="46.0137251" lon="11.2966531" />
      <trkpt lat="46.0135550" lon="11.2968258" />
      <trkpt lat="46.0134421" lon="11.2969529" />
      <trkpt lat="46.0133345" lon="11.2969620" />
      <trkpt lat="46.0132836" lon="11.2969663" />
      <trkpt lat="46.0132347" lon="11.2969667" />
      <trkpt lat="46.0131387" lon="11.2969670" />
      <trkpt lat="46.0130011" lon="11.2969499" />
      <trkpt lat="46.0129564" lon="11.2969392" />
      <trkpt lat="46.0128995" lon="11.2969060" />
      <trkpt lat="46.0128483" lon="11.2968761" />
      <trkpt lat="46.0126601" lon="11.2966238" />
      <trkpt lat="46.0125238" lon="11.2967885" />
      <trkpt lat="46.0130001" lon="11.2977238" />
      <trkpt lat="46.0129449" lon="11.2977945" />
      <trkpt lat="46.0127363" lon="11.2973759" />
      <trkpt lat="46.0122379" lon="11.2980121" />
      <trkpt lat="46.0127363" lon="11.2973759" />
      <trkpt lat="46.0125635" lon="11.2970267" />
      <trkpt lat="46.0124966" lon="11.2970878" />
      <trkpt lat="46.0124454" lon="11.2969828" />
      <trkpt lat="46.0124205" lon="11.2970021" />
      <trkpt lat="46.0124188" lon="11.2970045" />
      <trkpt lat="46.0124894" lon="11.2971477" />
      <trkpt lat="46.0124890" lon="11.2972019" />
      <trkpt lat="46.0124616" lon="11.2972508" />
      <trkpt lat="46.0121759" lon="11.2976221" />
      <trkpt lat="46.0120196" lon="11.2974579" />
      <trkpt lat="46.0119304" lon="11.2974983" />
      <trkpt lat="46.0117244" lon="11.2976832" />
      <trkpt lat="46.0116484" lon="11.2977478" />
      <trkpt lat="46.0116123" lon="11.2977853" />
      <trkpt lat="46.0115764" lon="11.2979707" />
      <trkpt lat="46.0115587" lon="11.2979934" />
      <trkpt lat="46.0116728" lon="11.2981556" />
      <trkpt lat="46.0113012" lon="11.2986379" />
      <trkpt lat="46.0114073" lon="11.2988065" />
      <trkpt lat="46.0115130" lon="11.2989377" />
      <trkpt lat="46.0117397" lon="11.2992656" />
      <trkpt lat="46.0118373" lon="11.2994164" />
      <trkpt lat="46.0118498" lon="11.2994411" />
      <trkpt lat="46.0116723" lon="11.2996863" />
      <trkpt lat="46.0112962" lon="11.3002246" />
      <trkpt lat="46.0113555" lon="11.3004664" />
      <trkpt lat="46.0113758" lon="11.3005772" />
      <trkpt lat="46.0113854" lon="11.3006619" />
      <trkpt lat="46.0114434" lon="11.3007649" />
      <trkpt lat="46.0115191" lon="11.3009521" />
      <trkpt lat="46.0115785" lon="11.3010636" />
      <trkpt lat="46.0115915" lon="11.3009636" />
      <trkpt lat="46.0116630" lon="11.3009231" />
      <trkpt lat="46.0118055" lon="11.3008842" />
      <trkpt lat="46.0118496" lon="11.3009037" />
      <trkpt lat="46.0119443" lon="11.3009640" />
      <trkpt lat="46.0120169" lon="11.3010306" />
      <trkpt lat="46.0120772" lon="11.3011040" />
      <trkpt lat="46.0121159" lon="11.3011788" />
      <trkpt lat="46.0120588" lon="11.3019657" />
      <trkpt lat="46.0120540" lon="11.3021616" />
      <trkpt lat="46.0119217" lon="11.3021360" />
      <trkpt lat="46.0118576" lon="11.3021269" />
      <trkpt lat="46.0118428" lon="11.3022500" />
      <trkpt lat="46.0117395" lon="11.3027278" />
      <trkpt lat="46.0117195" lon="11.3027829" />
      <trkpt lat="46.0115724" lon="11.3026949" />
      <trkpt lat="46.0113093" lon="11.3025375" />
      <trkpt lat="46.0111961" lon="11.3024347" />
      <trkpt lat="46.0111195" lon="11.3024808" />
      <trkpt lat="46.0109980" lon="11.3026461" />
      <trkpt lat="46.0107514" lon="11.3031831" />
      <trkpt lat="46.0106617" lon="11.3033547" />
      <trkpt lat="46.0105931" lon="11.3034706" />
      <trkpt lat="46.0101583" lon="11.3042096" />
      <trkpt lat="46.0101375" lon="11.3042450" />
      <trkpt lat="46.0100810" lon="11.3043519" />
      <trkpt lat="46.0099759" lon="11.3044174" />
      <trkpt lat="46.0098799" lon="11.3045025" />
      <trkpt lat="46.0097487" lon="11.3046398" />
      <trkpt lat="46.0096533" lon="11.3047943" />
      <trkpt lat="46.0095401" lon="11.3049402" />
      <trkpt lat="46.0094566" lon="11.3050861" />
      <trkpt lat="46.0092857" lon="11.3051897" />
      <trkpt lat="46.0092062" lon="11.3053093" />
      <trkpt lat="46.0091651" lon="11.3053743" />
      <trkpt lat="46.0090647" lon="11.3054807" />
      <trkpt lat="46.0085463" lon="11.3053902" />
      <trkpt lat="46.0084263" lon="11.3053692" />
      <trkpt lat="46.0077830" lon="11.3052568" />
      <trkpt lat="46.0077349" lon="11.3052484" />
      <trkpt lat="46.0074884" lon="11.3052053" />
      <trkpt lat="46.0071910" lon="11.3051534" />
      <trkpt lat="46.0067208" lon="11.3050712" />
      <trkpt lat="46.0066114" lon="11.3050095" />
      <trkpt lat="46.0065420" lon="11.3049351" />
      <trkpt lat="46.0065217" lon="11.3049002" />
      <trkpt lat="46.0064899" lon="11.3047936" />
      <trkpt lat="46.0063629" lon="11.3043361" />
      <trkpt lat="46.0063415" lon="11.3042747" />
      <trkpt lat="46.0063045" lon="11.3040481" />
      <trkpt lat="46.0062972" lon="11.3038449" />
      <trkpt lat="46.0063762" lon="11.3035226" />
      <trkpt lat="46.0063797" lon="11.3035108" />
      <trkpt lat="46.0064759" lon="11.3031605" />
      <trkpt lat="46.0065081" lon="11.3030335" />
      <trkpt lat="46.0066162" lon="11.3026200" />
      <trkpt lat="46.0067126" lon="11.3022732" />
      <trkpt lat="46.0067834" lon="11.3020980" />
      <trkpt lat="46.0068944" lon="11.3018899" />
      <trkpt lat="46.0070144" lon="11.3017272" />
      <trkpt lat="46.0070569" lon="11.3016486" />
      <trkpt lat="46.0070491" lon="11.3016431" />
      <trkpt lat="46.0070405" lon="11.3016340" />
      <trkpt lat="46.0070332" lon="11.3016226" />
      <trkpt lat="46.0070277" lon="11.3016094" />
      <trkpt lat="46.0070241" lon="11.3015950" />
      <trkpt lat="46.0070224" lon="11.3015798" />
      <trkpt lat="46.0070229" lon="11.3015644" />
      <trkpt lat="46.0070255" lon="11.3015494" />
      <trkpt lat="46.0070300" lon="11.3015355" />
      <trkpt lat="46.0070357" lon="11.3015240" />
      <trkpt lat="46.0070335" lon="11.3015234" />
      <trkpt lat="46.0069475" lon="11.3014781" />
      <trkpt lat="46.0067227" lon="11.3013157" />
      <trkpt lat="46.0062803" lon="11.3010351" />
      <trkpt lat="46.0062218" lon="11.3010002" />
      <trkpt lat="46.0061564" lon="11.3009611" />
      <trkpt lat="46.0059826" lon="11.3008654" />
      <trkpt lat="46.0056873" lon="11.3007432" />
      <trkpt lat="46.0052218" lon="11.3005311" />
      <trkpt lat="46.0051116" lon="11.3004891" />
      <trkpt lat="46.0050669" lon="11.3004815" />
      <trkpt lat="46.0050204" lon="11.3004752" />
      <trkpt lat="46.0049871" lon="11.3004752" />
      <trkpt lat="46.0049595" lon="11.3004802" />
      <trkpt lat="46.0049241" lon="11.3004925" />
      <trkpt lat="46.0048723" lon="11.3005080" />
      <trkpt lat="46.0048302" lon="11.3005295" />
      <trkpt lat="46.0047882" lon="11.3005522" />
      <trkpt lat="46.0047558" lon="11.3005886" />
      <trkpt lat="46.0047522" lon="11.3005926" />
      <trkpt lat="46.0047154" lon="11.3006481" />
      <trkpt lat="46.0046821" lon="11.3007137" />
      <trkpt lat="46.0046471" lon="11.3008058" />
      <trkpt lat="46.0046009" lon="11.3009327" />
      <trkpt lat="46.0045470" lon="11.3010045" />
      <trkpt lat="46.0044919" lon="11.3010619" />
      <trkpt lat="46.0043937" lon="11.3010913" />
      <trkpt lat="46.0042811" lon="11.3010908" />
      <trkpt lat="46.0041787" lon="11.3010425" />
      <trkpt lat="46.0041023" lon="11.3009486" />
      <trkpt lat="46.0040538" lon="11.3008252" />
      <trkpt lat="46.0040270" lon="11.3006842" />
      <trkpt lat="46.0040074" lon="11.3005814" />
      <trkpt lat="46.0039591" lon="11.3001292" />
      <trkpt lat="46.0039282" lon="11.2998663" />
      <trkpt lat="46.0038738" lon="11.2993923" />
      <trkpt lat="46.0038177" lon="11.2990040" />
      <trkpt lat="46.0038390" lon="11.2989292" />
      <trkpt lat="46.0038526" lon="11.2988310" />
      <trkpt lat="46.0038185" lon="11.2984688" />
      <trkpt lat="46.0038274" lon="11.2983435" />
      <trkpt lat="46.0039068" lon="11.2976443" />
      <trkpt lat="46.0040197" lon="11.2967070" />
      <trkpt lat="46.0041081" lon="11.2967728" />
      <trkpt lat="46.0042122" lon="11.2968507" />
      <trkpt lat="46.0044745" lon="11.2969966" />
      <trkpt lat="46.0048262" lon="11.2971683" />
      <trkpt lat="46.0050826" lon="11.2973227" />
      <trkpt lat="46.0052244" lon="11.2974104" />
      <trkpt lat="46.0055207" lon="11.2976149" />
      <trkpt lat="46.0061140" lon="11.2979493" />
      <trkpt lat="46.0062227" lon="11.2980094" />
      <trkpt lat="46.0063345" lon="11.2980609" />
      <trkpt lat="46.0064895" lon="11.2981467" />
      <trkpt lat="46.0065761" lon="11.2982076" />
      <trkpt lat="46.0067418" lon="11.2982409" />
      <trkpt lat="46.0068215" lon="11.2982888" />
      <trkpt lat="46.0069069" lon="11.2983699" />
      <trkpt lat="46.0071453" lon="11.2985587" />
      <trkpt lat="46.0073746" lon="11.2987222" />
      <trkpt lat="46.0074566" lon="11.2988582" />
      <trkpt lat="46.0075843" lon="11.2989813" />
      <trkpt lat="46.0078216" lon="11.2991785" />
      <trkpt lat="46.0082432" lon="11.2993967" />
      <trkpt lat="46.0082736" lon="11.2994124" />
      <trkpt lat="46.0083716" lon="11.2994631" />
      <trkpt lat="46.0086613" lon="11.2996130" />
      <trkpt lat="46.0087057" lon="11.2995460" />
      <trkpt lat="46.0088932" lon="11.2991920" />
      <trkpt lat="46.0090193" lon="11.2990345" />
      <trkpt lat="46.0090929" lon="11.2989837" />
      <trkpt lat="46.0091675" lon="11.2989813" />
      <trkpt lat="46.0093803" lon="11.2989948" />
      <trkpt lat="46.0096193" lon="11.2990766" />
      <trkpt lat="46.0100209" lon="11.2991942" />
      <trkpt lat="46.0100425" lon="11.2991474" />
      <trkpt lat="46.0101155" lon="11.2990539" />
      <trkpt lat="46.0102311" lon="11.2987960" />
      <trkpt lat="46.0102381" lon="11.2987961" />
      <trkpt lat="46.0102664" lon="11.2987832" />
      <trkpt lat="46.0102907" lon="11.2987584" />
      <trkpt lat="46.0103084" lon="11.2987240" />
      <trkpt lat="46.0103179" lon="11.2986834" />
      <trkpt lat="46.0103182" lon="11.2986405" />
      <trkpt lat="46.0103092" lon="11.2985996" />
      <trkpt lat="46.0102995" lon="11.2985799" />
      <trkpt lat="46.0103691" lon="11.2984793" />
      <trkpt lat="46.0104499" lon="11.2983154" />
      <trkpt lat="46.0105560" lon="11.2981004" />
      <trkpt lat="46.0106159" lon="11.2979879" />
      <trkpt lat="46.0107801" lon="11.2977017" />
      <trkpt lat="46.0109630" lon="11.2974406" />
      <trkpt lat="46.0111443" lon="11.2971898" />
      <trkpt lat="46.0112181" lon="11.2971112" />
      <trkpt lat="46.0112568" lon="11.2970649" />
      <trkpt lat="46.0111781" lon="11.2968399" />
      <trkpt lat="46.0112072" lon="11.2965500" />
      <trkpt lat="46.0113169" lon="11.2960001" />
      <trkpt lat="46.0114367" lon="11.2956134" />
      <trkpt lat="46.0115150" lon="11.2954806" />
      <trkpt lat="46.0115596" lon="11.2953829" />
      <trkpt lat="46.0114857" lon="11.2952859" />
      <trkpt lat="46.0113457" lon="11.2950572" />
      <trkpt lat="46.0111943" lon="11.2948512" />
      <trkpt lat="46.0110310" lon="11.2946158" />
      <trkpt lat="46.0109107" lon="11.2944565" />
      <trkpt lat="46.0108509" lon="11.2943632" />
      <trkpt lat="46.0107890" lon="11.2942666" />
      <trkpt lat="46.0107622" lon="11.2941624" />
      <trkpt lat="46.0107529" lon="11.2940801" />
      <trkpt lat="46.0107151" lon="11.2940549" />
      <trkpt lat="46.0106885" lon="11.2940373" />
      <trkpt lat="46.0104720" lon="11.2939495" />
      <trkpt lat="46.0102700" lon="11.2938982" />
      <trkpt lat="46.0098088" lon="11.2938097" />
      <trkpt lat="46.0090661" lon="11.2936744" />
      <trkpt lat="46.0089680" lon="11.2936565" />
      <trkpt lat="46.0088694" lon="11.2936467" />
      <trkpt lat="46.0086759" lon="11.2935596" />
      <trkpt lat="46.0086200" lon="11.2935258" />
      <trkpt lat="46.0084383" lon="11.2934159" />
      <trkpt lat="46.0082721" lon="11.2933149" />
      <trkpt lat="46.0081086" lon="11.2932391" />
      <trkpt lat="46.0078961" lon="11.2931425" />
      <trkpt lat="46.0076801" lon="11.2930443" />
      <trkpt lat="46.0075804" lon="11.2929896" />
      <trkpt lat="46.0075628" lon="11.2930394" />
      <trkpt lat="46.0075365" lon="11.2930804" />
      <trkpt lat="46.0075033" lon="11.2931094" />
      <trkpt lat="46.0074595" lon="11.2931252" />
      <trkpt lat="46.0074144" lon="11.2931202" />
      <trkpt lat="46.0073728" lon="11.2930947" />
      <trkpt lat="46.0073492" lon="11.2931457" />
      <trkpt lat="46.0067516" lon="11.2939729" />
      <trkpt lat="46.0066847" lon="11.2940783" />
      <trkpt lat="46.0066375" lon="11.2941693" />
      <trkpt lat="46.0065313" lon="11.2943101" />
      <trkpt lat="46.0064418" lon="11.2944217" />
      <trkpt lat="46.0064019" lon="11.2944567" />
      <trkpt lat="46.0061912" lon="11.2946452" />
      <trkpt lat="46.0060549" lon="11.2947822" />
      <trkpt lat="46.0058800" lon="11.2949544" />
      <trkpt lat="46.0058157" lon="11.2951507" />
      <trkpt lat="46.0057626" lon="11.2953435" />
      <trkpt lat="46.0054697" lon="11.2958594" />
      <trkpt lat="46.0057626" lon="11.2953435" />
      <trkpt lat="46.0058157" lon="11.2951507" />
      <trkpt lat="46.0058800" lon="11.2949544" />
      <trkpt lat="46.0060549" lon="11.2947822" />
      <trkpt lat="46.0061912" lon="11.2946452" />
      <trkpt lat="46.0064019" lon="11.2944567" />
      <trkpt lat="46.0064418" lon="11.2944217" />
      <trkpt lat="46.0065313" lon="11.2943101" />
      <trkpt lat="46.0066375" lon="11.2941693" />
      <trkpt lat="46.0066847" lon="11.2940783" />
      <trkpt lat="46.0067516" lon="11.2939729" />
      <trkpt lat="46.0073492" lon="11.2931457" />
      <trkpt lat="46.0074320" lon="11.2931812" />
      <trkpt lat="46.0074960" lon="11.2932546" />
      <trkpt lat="46.0075285" lon="11.2931979" />
      <trkpt lat="46.0075839" lon="11.2931674" />
      <trkpt lat="46.0076801" lon="11.2930443" />
      <trkpt lat="46.0077066" lon="11.2930044" />
      <trkpt lat="46.0076399" lon="11.2929275" />
      <trkpt lat="46.0076071" lon="11.2927878" />
      <trkpt lat="46.0076061" lon="11.2927072" />
      <trkpt lat="46.0075835" lon="11.2926538" />
      <trkpt lat="46.0075579" lon="11.2925933" />
      <trkpt lat="46.0081916" lon="11.2916187" />
      <trkpt lat="46.0083873" lon="11.2913545" />
      <trkpt lat="46.0085966" lon="11.2910754" />
      <trkpt lat="46.0089896" lon="11.2905536" />
      <trkpt lat="46.0091629" lon="11.2903090" />
      <trkpt lat="46.0093036" lon="11.2901538" />
      <trkpt lat="46.0094460" lon="11.2900661" />
      <trkpt lat="46.0096914" lon="11.2899409" />
      <trkpt lat="46.0097531" lon="11.2899109" />
      <trkpt lat="46.0097829" lon="11.2898964" />
      <trkpt lat="46.0099107" lon="11.2898286" />
      <trkpt lat="46.0101365" lon="11.2897062" />
      <trkpt lat="46.0102610" lon="11.2896391" />
      <trkpt lat="46.0103119" lon="11.2895981" />
      <trkpt lat="46.0103313" lon="11.2895635" />
      <trkpt lat="46.0103406" lon="11.2895290" />
      <trkpt lat="46.0103400" lon="11.2894066" />
      <trkpt lat="46.0103878" lon="11.2894056" />
      <trkpt lat="46.0104484" lon="11.2894042" />
      <trkpt lat="46.0104490" lon="11.2895231" />
      <trkpt lat="46.0104491" lon="11.2896377" />
      <trkpt lat="46.0104495" lon="11.2897156" />
      <trkpt lat="46.0104145" lon="11.2897542" />
      <trkpt lat="46.0104629" lon="11.2907377" />
      <trkpt lat="46.0108742" lon="11.2933398" />
      <trkpt lat="46.0112626" lon="11.2943613" />
      <trkpt lat="46.0117011" lon="11.2951731" />
      <trkpt lat="46.0117049" lon="11.2951673" />
      <trkpt lat="46.0117646" lon="11.2950807" />
      <trkpt lat="46.0118000" lon="11.2950276" />
      <trkpt lat="46.0118242" lon="11.2949915" />
      <trkpt lat="46.0118463" lon="11.2949585" />
      <trkpt lat="46.0119240" lon="11.2949537" />
      <trkpt lat="46.0119840" lon="11.2950076" />
      <trkpt lat="46.0120267" lon="11.2951912" />
      <trkpt lat="46.0120381" lon="11.2952586" />
      <trkpt lat="46.0121823" lon="11.2955836" />
      <trkpt lat="46.0122583" lon="11.2957312" />
      <trkpt lat="46.0123032" lon="11.2958139" />
      <trkpt lat="46.0127317" lon="11.2965387" />
      <trkpt lat="46.0128274" lon="11.2966903" />
      <trkpt lat="46.0129868" lon="11.2968057" />
      <trkpt lat="46.0130733" lon="11.2968554" />
      <trkpt lat="46.0131567" lon="11.2969032" />
      <trkpt lat="46.0131796" lon="11.2972693" />
      <trkpt lat="46.0132414" lon="11.2974829" />
      <trkpt lat="46.0131919" lon="11.2975460" />
      <trkpt lat="46.0131199" lon="11.2976603" />
      <trkpt lat="46.0130468" lon="11.2977714" />
      <trkpt lat="46.0129712" lon="11.2978899" />
      <trkpt lat="46.0129128" lon="11.2980852" />
      <trkpt lat="46.0127604" lon="11.2986362" />
      <trkpt lat="46.0127193" lon="11.2987950" />
      <trkpt lat="46.0127099" lon="11.2988315" />
      <trkpt lat="46.0126048" lon="11.2991203" />
      <trkpt lat="46.0124654" lon="11.2994100" />
      <trkpt lat="46.0123257" lon="11.2996448" />
      <trkpt lat="46.0121762" lon="11.2998590" />
      <trkpt lat="46.0119170" lon="11.3002454" />
      <trkpt lat="46.0117254" lon="11.3005770" />
      <trkpt lat="46.0116549" lon="11.3007415" />
      <trkpt lat="46.0116446" lon="11.3007677" />
      <trkpt lat="46.0115962" lon="11.3009243" />
      <trkpt lat="46.0115915" lon="11.3009636" />
      <trkpt lat="46.0115785" lon="11.3010636" />
      <trkpt lat="46.0115646" lon="11.3012218" />
      <trkpt lat="46.0115644" lon="11.3012354" />
      <trkpt lat="46.0115621" lon="11.3014064" />
      <trkpt lat="46.0115558" lon="11.3014758" />
      <trkpt lat="46.0115298" lon="11.3016640" />
      <trkpt lat="46.0114407" lon="11.3019130" />
      <trkpt lat="46.0113673" lon="11.3021042" />
      <trkpt lat="46.0113220" lon="11.3022145" />
      <trkpt lat="46.0112494" lon="11.3023706" />
      <trkpt lat="46.0111961" lon="11.3024347" />
      <trkpt lat="46.0112386" lon="11.3025816" />
      <trkpt lat="46.0112153" lon="11.3028160" />
      <trkpt lat="46.0112553" lon="11.3030656" />
      <trkpt lat="46.0112129" lon="11.3030813" />
      <trkpt lat="46.0110614" lon="11.3033514" />
      <trkpt lat="46.0110488" lon="11.3033779" />
      <trkpt lat="46.0110293" lon="11.3033696" />
      <trkpt lat="46.0107514" lon="11.3031831" />
      <trkpt lat="46.0106617" lon="11.3033547" />
      <trkpt lat="46.0105931" lon="11.3034706" />
      <trkpt lat="46.0101583" lon="11.3042096" />
      <trkpt lat="46.0101375" lon="11.3042450" />
      <trkpt lat="46.0100810" lon="11.3043519" />
      <trkpt lat="46.0100126" lon="11.3045602" />
      <trkpt lat="46.0097153" lon="11.3054658" />
      <trkpt lat="46.0096786" lon="11.3055774" />
      <trkpt lat="46.0091470" lon="11.3054937" />
      <trkpt lat="46.0090647" lon="11.3054807" />
      <trkpt lat="46.0085463" lon="11.3053902" />
      <trkpt lat="46.0084263" lon="11.3053692" />
      <trkpt lat="46.0077830" lon="11.3052568" />
      <trkpt lat="46.0077349" lon="11.3052484" />
      <trkpt lat="46.0074884" lon="11.3052053" />
      <trkpt lat="46.0071910" lon="11.3051534" />
      <trkpt lat="46.0067208" lon="11.3050712" />
      <trkpt lat="46.0065975" lon="11.3050846" />
      <trkpt lat="46.0065466" lon="11.3051152" />
      <trkpt lat="46.0065026" lon="11.3051581" />
      <trkpt lat="46.0065217" lon="11.3049002" />
      <trkpt lat="46.0064576" lon="11.3050128" />
      <trkpt lat="46.0060983" lon="11.3049590" />
      <trkpt lat="46.0061198" lon="11.3047827" />
      <trkpt lat="46.0061697" lon="11.3043730" />
      <trkpt lat="46.0061854" lon="11.3042582" />
      <trkpt lat="46.0062066" lon="11.3041748" />
      <trkpt lat="46.0062972" lon="11.3038449" />
      <trkpt lat="46.0063762" lon="11.3035226" />
      <trkpt lat="46.0063797" lon="11.3035108" />
      <trkpt lat="46.0064759" lon="11.3031605" />
      <trkpt lat="46.0065081" lon="11.3030335" />
      <trkpt lat="46.0066162" lon="11.3026200" />
      <trkpt lat="46.0067126" lon="11.3022732" />
      <trkpt lat="46.0067834" lon="11.3020980" />
      <trkpt lat="46.0068944" lon="11.3018899" />
      <trkpt lat="46.0070144" lon="11.3017272" />
      <trkpt lat="46.0070569" lon="11.3016486" />
      <trkpt lat="46.0070491" lon="11.3016431" />
      <trkpt lat="46.0070405" lon="11.3016340" />
      <trkpt lat="46.0070332" lon="11.3016226" />
      <trkpt lat="46.0070277" lon="11.3016094" />
      <trkpt lat="46.0070241" lon="11.3015950" />
      <trkpt lat="46.0070224" lon="11.3015798" />
      <trkpt lat="46.0070229" lon="11.3015644" />
      <trkpt lat="46.0070255" lon="11.3015494" />
      <trkpt lat="46.0070300" lon="11.3015355" />
      <trkpt lat="46.0070357" lon="11.3015240" />
      <trkpt lat="46.0070335" lon="11.3015234" />
      <trkpt lat="46.0069475" lon="11.3014781" />
      <trkpt lat="46.0067227" lon="11.3013157" />
      <trkpt lat="46.0062803" lon="11.3010351" />
      <trkpt lat="46.0062218" lon="11.3010002" />
      <trkpt lat="46.0061564" lon="11.3009611" />
      <trkpt lat="46.0062218" lon="11.3010002" />
      <trkpt lat="46.0062803" lon="11.3010351" />
      <trkpt lat="46.0067227" lon="11.3013157" />
      <trkpt lat="46.0069475" lon="11.3014781" />
      <trkpt lat="46.0070335" lon="11.3015234" />
      <trkpt lat="46.0070357" lon="11.3015240" />
      <trkpt lat="46.0070300" lon="11.3015355" />
      <trkpt lat="46.0070255" lon="11.3015494" />
      <trkpt lat="46.0070229" lon="11.3015644" />
      <trkpt lat="46.0070224" lon="11.3015798" />
      <trkpt lat="46.0070241" lon="11.3015950" />
      <trkpt lat="46.0070277" lon="11.3016094" />
      <trkpt lat="46.0070332" lon="11.3016226" />
      <trkpt lat="46.0070405" lon="11.3016340" />
      <trkpt lat="46.0070491" lon="11.3016431" />
      <trkpt lat="46.0070569" lon="11.3016486" />
      <trkpt lat="46.0070144" lon="11.3017272" />
      <trkpt lat="46.0068944" lon="11.3018899" />
      <trkpt lat="46.0067834" lon="11.3020980" />
      <trkpt lat="46.0067126" lon="11.3022732" />
      <trkpt lat="46.0066162" lon="11.3026200" />
      <trkpt lat="46.0065081" lon="11.3030335" />
      <trkpt lat="46.0064759" lon="11.3031605" />
      <trkpt lat="46.0063797" lon="11.3035108" />
      <trkpt lat="46.0063762" lon="11.3035226" />
      <trkpt lat="46.0062972" lon="11.3038449" />
      <trkpt lat="46.0063045" lon="11.3040481" />
      <trkpt lat="46.0063415" lon="11.3042747" />
      <trkpt lat="46.0063629" lon="11.3043361" />
      <trkpt lat="46.0064899" lon="11.3047936" />
      <trkpt lat="46.0065217" lon="11.3049002" />
      <trkpt lat="46.0065420" lon="11.3049351" />
      <trkpt lat="46.0066114" lon="11.3050095" />
      <trkpt lat="46.0067208" lon="11.3050712" />
      <trkpt lat="46.0071910" lon="11.3051534" />
      <trkpt lat="46.0074884" lon="11.3052053" />
      <trkpt lat="46.0077349" lon="11.3052484" />
      <trkpt lat="46.0077830" lon="11.3052568" />
      <trkpt lat="46.0084263" lon="11.3053692" />
      <trkpt lat="46.0085463" lon="11.3053902" />
      <trkpt lat="46.0090647" lon="11.3054807" />
      <trkpt lat="46.0091651" lon="11.3053743" />
      <trkpt lat="46.0092062" lon="11.3053093" />
      <trkpt lat="46.0092857" lon="11.3051897" />
      <trkpt lat="46.0094566" lon="11.3050861" />
      <trkpt lat="46.0095401" lon="11.3049402" />
      <trkpt lat="46.0096533" lon="11.3047943" />
      <trkpt lat="46.0097487" lon="11.3046398" />
      <trkpt lat="46.0098799" lon="11.3045025" />
      <trkpt lat="46.0099759" lon="11.3044174" />
      <trkpt lat="46.0100810" lon="11.3043519" />
      <trkpt lat="46.0101375" lon="11.3042450" />
      <trkpt lat="46.0101583" lon="11.3042096" />
      <trkpt lat="46.0105931" lon="11.3034706" />
      <trkpt lat="46.0106617" lon="11.3033547" />
      <trkpt lat="46.0107514" lon="11.3031831" />
      <trkpt lat="46.0109980" lon="11.3026461" />
      <trkpt lat="46.0111195" lon="11.3024808" />
      <trkpt lat="46.0111961" lon="11.3024347" />
      <trkpt lat="46.0112494" lon="11.3023706" />
      <trkpt lat="46.0113220" lon="11.3022145" />
      <trkpt lat="46.0113673" lon="11.3021042" />
      <trkpt lat="46.0114407" lon="11.3019130" />
      <trkpt lat="46.0115298" lon="11.3016640" />
      <trkpt lat="46.0115591" lon="11.3016887" />
      <trkpt lat="46.0117545" lon="11.3018306" />
      <trkpt lat="46.0118276" lon="11.3011804" />
      <trkpt lat="46.0118514" lon="11.3011197" />
      <trkpt lat="46.0118598" lon="11.3011056" />
      <trkpt lat="46.0118747" lon="11.3010806" />
      <trkpt lat="46.0119028" lon="11.3010497" />
      <trkpt lat="46.0119307" lon="11.3010390" />
      <trkpt lat="46.0120169" lon="11.3010306" />
      <trkpt lat="46.0119443" lon="11.3009640" />
      <trkpt lat="46.0118496" lon="11.3009037" />
      <trkpt lat="46.0118055" lon="11.3008842" />
      <trkpt lat="46.0118149" lon="11.3008633" />
      <trkpt lat="46.0118615" lon="11.3007597" />
      <trkpt lat="46.0119565" lon="11.3006223" />
      <trkpt lat="46.0119953" lon="11.3005993" />
      <trkpt lat="46.0121758" lon="11.3003503" />
      <trkpt lat="46.0122204" lon="11.3002805" />
      <trkpt lat="46.0123170" lon="11.3001389" />
      <trkpt lat="46.0124897" lon="11.2998568" />
      <trkpt lat="46.0123257" lon="11.2996448" />
      <trkpt lat="46.0124654" lon="11.2994100" />
      <trkpt lat="46.0126048" lon="11.2991203" />
      <trkpt lat="46.0127099" lon="11.2988315" />
      <trkpt lat="46.0123552" lon="11.2985082" />
      <trkpt lat="46.0125364" lon="11.2982718" />
      <trkpt lat="46.0127682" lon="11.2980215" />
      <trkpt lat="46.0128013" lon="11.2980024" />
      <trkpt lat="46.0128770" lon="11.2979586" />
      <trkpt lat="46.0129712" lon="11.2978899" />
      <trkpt lat="46.0129449" lon="11.2977945" />
      <trkpt lat="46.0127363" lon="11.2973759" />
      <trkpt lat="46.0125635" lon="11.2970267" />
      <trkpt lat="46.0123506" lon="11.2965892" />
      <trkpt lat="46.0122597" lon="11.2963978" />
      <trkpt lat="46.0116754" lon="11.2952125" />
      <trkpt lat="46.0112310" lon="11.2944284" />
      <trkpt lat="46.0112000" lon="11.2943451" />
      <trkpt lat="46.0110335" lon="11.2938980" />
      <trkpt lat="46.0112000" lon="11.2943451" />
      <trkpt lat="46.0112310" lon="11.2944284" />
      <trkpt lat="46.0116754" lon="11.2952125" />
      <trkpt lat="46.0117011" lon="11.2951731" />
      <trkpt lat="46.0117049" lon="11.2951673" />
      <trkpt lat="46.0117646" lon="11.2950807" />
      <trkpt lat="46.0118000" lon="11.2950276" />
      <trkpt lat="46.0118242" lon="11.2949915" />
      <trkpt lat="46.0118463" lon="11.2949585" />
      <trkpt lat="46.0119240" lon="11.2949537" />
      <trkpt lat="46.0119840" lon="11.2950076" />
      <trkpt lat="46.0120267" lon="11.2951912" />
      <trkpt lat="46.0120381" lon="11.2952586" />
      <trkpt lat="46.0121823" lon="11.2955836" />
      <trkpt lat="46.0122583" lon="11.2957312" />
      <trkpt lat="46.0123032" lon="11.2958139" />
      <trkpt lat="46.0127317" lon="11.2965387" />
      <trkpt lat="46.0128274" lon="11.2966903" />
      <trkpt lat="46.0129868" lon="11.2968057" />
      <trkpt lat="46.0130733" lon="11.2968554" />
      <trkpt lat="46.0131567" lon="11.2969032" />
      <trkpt lat="46.0132630" lon="11.2966621" />
      <trkpt lat="46.0134018" lon="11.2964807" />
      <trkpt lat="46.0135406" lon="11.2962138" />
      <trkpt lat="46.0136604" lon="11.2958422" />
      <trkpt lat="46.0137250" lon="11.2955075" />
      <trkpt lat="46.0136604" lon="11.2958422" />
      <trkpt lat="46.0135406" lon="11.2962138" />
      <trkpt lat="46.0134018" lon="11.2964807" />
      <trkpt lat="46.0132630" lon="11.2966621" />
      <trkpt lat="46.0131567" lon="11.2969032" />
      <trkpt lat="46.0131796" lon="11.2972693" />
      <trkpt lat="46.0132414" lon="11.2974829" />
      <trkpt lat="46.0133097" lon="11.2974064" />
      <trkpt lat="46.0136602" lon="11.2971080" />
      <trkpt lat="46.0136995" lon="11.2970791" />
      <trkpt lat="46.0138620" lon="11.2969480" />
      <trkpt lat="46.0137251" lon="11.2966531" />
      <trkpt lat="46.0135550" lon="11.2968258" />
      <trkpt lat="46.0134421" lon="11.2969529" />
      <trkpt lat="46.0133345" lon="11.2969620" />
      <trkpt lat="46.0132836" lon="11.2969663" />
      <trkpt lat="46.0133097" lon="11.2974064" />
      <trkpt lat="46.0132414" lon="11.2974829" />
      <trkpt lat="46.0131919" lon="11.2975460" />
      <trkpt lat="46.0131199" lon="11.2976603" />
      <trkpt lat="46.0130468" lon="11.2977714" />
      <trkpt lat="46.0129712" lon="11.2978899" />
      <trkpt lat="46.0128770" lon="11.2979586" />
      <trkpt lat="46.0128013" lon="11.2980024" />
      <trkpt lat="46.0127682" lon="11.2980215" />
      <trkpt lat="46.0125364" lon="11.2982718" />
      <trkpt lat="46.0123552" lon="11.2985082" />
      <trkpt lat="46.0122721" lon="11.2986350" />
      <trkpt lat="46.0121122" lon="11.2989819" />
      <trkpt lat="46.0119829" lon="11.2992330" />
      <trkpt lat="46.0118498" lon="11.2994411" />
      <trkpt lat="46.0116723" lon="11.2996863" />
      <trkpt lat="46.0112962" lon="11.3002246" />
      <trkpt lat="46.0112603" lon="11.3002166" />
      <trkpt lat="46.0111699" lon="11.3001210" />
      <trkpt lat="46.0111478" lon="11.3000732" />
      <trkpt lat="46.0111085" lon="11.2999988" />
      <trkpt lat="46.0110438" lon="11.2998653" />
      <trkpt lat="46.0109808" lon="11.2997521" />
      <trkpt lat="46.0109092" lon="11.2996421" />
      <trkpt lat="46.0108075" lon="11.2995628" />
      <trkpt lat="46.0106519" lon="11.2994633" />
      <trkpt lat="46.0105637" lon="11.2993974" />
      <trkpt lat="46.0104322" lon="11.2993405" />
      <trkpt lat="46.0102671" lon="11.2993336" />
      <trkpt lat="46.0102371" lon="11.2994076" />
      <trkpt lat="46.0101626" lon="11.2996226" />
      <trkpt lat="46.0100917" lon="11.2998207" />
      <trkpt lat="46.0099917" lon="11.3000317" />
      <trkpt lat="46.0098676" lon="11.3001973" />
      <trkpt lat="46.0097259" lon="11.3004099" />
      <trkpt lat="46.0096170" lon="11.3003095" />
      <trkpt lat="46.0095258" lon="11.3002254" />
      <trkpt lat="46.0092017" lon="11.3008885" />
      <trkpt lat="46.0090159" lon="11.3013822" />
      <trkpt lat="46.0088555" lon="11.3018813" />
      <trkpt lat="46.0087682" lon="11.3022782" />
      <trkpt lat="46.0087503" lon="11.3023826" />
      <trkpt lat="46.0093379" lon="11.3028040" />
      <trkpt lat="46.0094560" lon="11.3024060" />
      <trkpt lat="46.0095570" lon="11.3020983" />
      <trkpt lat="46.0096933" lon="11.3017084" />
      <trkpt lat="46.0097980" lon="11.3014492" />
      <trkpt lat="46.0099378" lon="11.3011149" />
      <trkpt lat="46.0099866" lon="11.3008330" />
      <trkpt lat="46.0099449" lon="11.3007687" />
      <trkpt lat="46.0099204" lon="11.3007309" />
      <trkpt lat="46.0099081" lon="11.3007120" />
      <trkpt lat="46.0097259" lon="11.3004099" />
      <trkpt lat="46.0096170" lon="11.3003095" />
      <trkpt lat="46.0095258" lon="11.3002254" />
      <trkpt lat="46.0092735" lon="11.3000264" />
      <trkpt lat="46.0089993" lon="11.2998204" />
      <trkpt lat="46.0086613" lon="11.2996130" />
      <trkpt lat="46.0083716" lon="11.2994631" />
      <trkpt lat="46.0087983" lon="11.2984184" />
      <trkpt lat="46.0086230" lon="11.2982644" />
      <trkpt lat="46.0089354" lon="11.2976279" />
      <trkpt lat="46.0089850" lon="11.2975267" />
      <trkpt lat="46.0090480" lon="11.2977699" />
      <trkpt lat="46.0091039" lon="11.2979094" />
      <trkpt lat="46.0091656" lon="11.2980281" />
      <trkpt lat="46.0092317" lon="11.2981169" />
      <trkpt lat="46.0092880" lon="11.2981822" />
      <trkpt lat="46.0094346" lon="11.2983049" />
      <trkpt lat="46.0095394" lon="11.2983507" />
      <trkpt lat="46.0096438" lon="11.2983759" />
      <trkpt lat="46.0098825" lon="11.2984367" />
      <trkpt lat="46.0098012" lon="11.2986955" />
      <trkpt lat="46.0099120" lon="11.2988591" />
      <trkpt lat="46.0099504" lon="11.2988854" />
      <trkpt lat="46.0100063" lon="11.2990362" />
      <trkpt lat="46.0100425" lon="11.2991474" />
      <trkpt lat="46.0100209" lon="11.2991942" />
      <trkpt lat="46.0101500" lon="11.2991720" />
      <trkpt lat="46.0102028" lon="11.2992541" />
      <trkpt lat="46.0102603" lon="11.2993252" />
      <trkpt lat="46.0102671" lon="11.2993336" />
      <trkpt lat="46.0102603" lon="11.2993252" />
      <trkpt lat="46.0102028" lon="11.2992541" />
      <trkpt lat="46.0101500" lon="11.2991720" />
      <trkpt lat="46.0101155" lon="11.2990539" />
      <trkpt lat="46.0100999" lon="11.2990123" />
      <trkpt lat="46.0101893" lon="11.2987865" />
      <trkpt lat="46.0101801" lon="11.2987820" />
      <trkpt lat="46.0101562" lon="11.2987565" />
      <trkpt lat="46.0101389" lon="11.2987216" />
      <trkpt lat="46.0101300" lon="11.2986808" />
      <trkpt lat="46.0101303" lon="11.2986379" />
      <trkpt lat="46.0101398" lon="11.2985973" />
      <trkpt lat="46.0101575" lon="11.2985629" />
      <trkpt lat="46.0101817" lon="11.2985380" />
      <trkpt lat="46.0102101" lon="11.2985252" />
      <trkpt lat="46.0102411" lon="11.2984343" />
      <trkpt lat="46.0102422" lon="11.2983790" />
      <trkpt lat="46.0101955" lon="11.2983987" />
      <trkpt lat="46.0101622" lon="11.2983686" />
      <trkpt lat="46.0101204" lon="11.2982296" />
      <trkpt lat="46.0100973" lon="11.2981290" />
      <trkpt lat="46.0100622" lon="11.2980408" />
      <trkpt lat="46.0099901" lon="11.2978608" />
      <trkpt lat="46.0096919" lon="11.2974025" />
      <trkpt lat="46.0095239" lon="11.2971002" />
      <trkpt lat="46.0093778" lon="11.2968502" />
      <trkpt lat="46.0092428" lon="11.2965144" />
      <trkpt lat="46.0092321" lon="11.2964879" />
      <trkpt lat="46.0091216" lon="11.2962500" />
      <trkpt lat="46.0089937" lon="11.2960212" />
      <trkpt lat="46.0088595" lon="11.2958710" />
      <trkpt lat="46.0088004" lon="11.2958202" />
      <trkpt lat="46.0087211" lon="11.2957519" />
      <trkpt lat="46.0086317" lon="11.2956996" />
      <trkpt lat="46.0085087" lon="11.2956866" />
      <trkpt lat="46.0084033" lon="11.2952909" />
      <trkpt lat="46.0083832" lon="11.2952157" />
      <trkpt lat="46.0082944" lon="11.2949620" />
      <trkpt lat="46.0082324" lon="11.2947849" />
      <trkpt lat="46.0079673" lon="11.2940833" />
      <trkpt lat="46.0078100" lon="11.2937086" />
      <trkpt lat="46.0075917" lon="11.2932997" />
      <trkpt lat="46.0075779" lon="11.2932774" />
      <trkpt lat="46.0075285" lon="11.2931979" />
      <trkpt lat="46.0075839" lon="11.2931674" />
      <trkpt lat="46.0076801" lon="11.2930443" />
      <trkpt lat="46.0078961" lon="11.2931425" />
      <trkpt lat="46.0081086" lon="11.2932391" />
      <trkpt lat="46.0082721" lon="11.2933149" />
      <trkpt lat="46.0084383" lon="11.2934159" />
      <trkpt lat="46.0086200" lon="11.2935258" />
      <trkpt lat="46.0086759" lon="11.2935596" />
      <trkpt lat="46.0088694" lon="11.2936467" />
      <trkpt lat="46.0089680" lon="11.2936565" />
      <trkpt lat="46.0089737" lon="11.2937248" />
      <trkpt lat="46.0090031" lon="11.2937964" />
      <trkpt lat="46.0091364" lon="11.2939444" />
      <trkpt lat="46.0090031" lon="11.2937964" />
      <trkpt lat="46.0089737" lon="11.2937248" />
      <trkpt lat="46.0089680" lon="11.2936565" />
      <trkpt lat="46.0088694" lon="11.2936467" />
      <trkpt lat="46.0086759" lon="11.2935596" />
      <trkpt lat="46.0086200" lon="11.2935258" />
      <trkpt lat="46.0084383" lon="11.2934159" />
      <trkpt lat="46.0082721" lon="11.2933149" />
      <trkpt lat="46.0081086" lon="11.2932391" />
      <trkpt lat="46.0078961" lon="11.2931425" />
      <trkpt lat="46.0076801" lon="11.2930443" />
      <trkpt lat="46.0075804" lon="11.2929896" />
      <trkpt lat="46.0075628" lon="11.2930394" />
      <trkpt lat="46.0075365" lon="11.2930804" />
      <trkpt lat="46.0075033" lon="11.2931094" />
      <trkpt lat="46.0075285" lon="11.2931979" />
      <trkpt lat="46.0075779" lon="11.2932774" />
      <trkpt lat="46.0075917" lon="11.2932997" />
      <trkpt lat="46.0078100" lon="11.2937086" />
      <trkpt lat="46.0079673" lon="11.2940833" />
      <trkpt lat="46.0082324" lon="11.2947849" />
      <trkpt lat="46.0082944" lon="11.2949620" />
      <trkpt lat="46.0083832" lon="11.2952157" />
      <trkpt lat="46.0084033" lon="11.2952909" />
      <trkpt lat="46.0085087" lon="11.2956866" />
      <trkpt lat="46.0084033" lon="11.2952909" />
      <trkpt lat="46.0083832" lon="11.2952157" />
      <trkpt lat="46.0082944" lon="11.2949620" />
      <trkpt lat="46.0082324" lon="11.2947849" />
      <trkpt lat="46.0079673" lon="11.2940833" />
      <trkpt lat="46.0078100" lon="11.2937086" />
      <trkpt lat="46.0075917" lon="11.2932997" />
      <trkpt lat="46.0075779" lon="11.2932774" />
      <trkpt lat="46.0075285" lon="11.2931979" />
      <trkpt lat="46.0074960" lon="11.2932546" />
      <trkpt lat="46.0074320" lon="11.2931812" />
      <trkpt lat="46.0073492" lon="11.2931457" />
      <trkpt lat="46.0067516" lon="11.2939729" />
      <trkpt lat="46.0066847" lon="11.2940783" />
      <trkpt lat="46.0067697" lon="11.2942843" />
      <trkpt lat="46.0068413" lon="11.2945418" />
      <trkpt lat="46.0069026" lon="11.2948136" />
      <trkpt lat="46.0069250" lon="11.2950282" />
      <trkpt lat="46.0069287" lon="11.2951462" />
      <trkpt lat="46.0069250" lon="11.2950282" />
      <trkpt lat="46.0069026" lon="11.2948136" />
      <trkpt lat="46.0068413" lon="11.2945418" />
      <trkpt lat="46.0067697" lon="11.2942843" />
      <trkpt lat="46.0066847" lon="11.2940783" />
      <trkpt lat="46.0067516" lon="11.2939729" />
      <trkpt lat="46.0073492" lon="11.2931457" />
      <trkpt lat="46.0074320" lon="11.2931812" />
      <trkpt lat="46.0074960" lon="11.2932546" />
      <trkpt lat="46.0075285" lon="11.2931979" />
      <trkpt lat="46.0075779" lon="11.2932774" />
      <trkpt lat="46.0075917" lon="11.2932997" />
      <trkpt lat="46.0078100" lon="11.2937086" />
      <trkpt lat="46.0079673" lon="11.2940833" />
      <trkpt lat="46.0082324" lon="11.2947849" />
      <trkpt lat="46.0082944" lon="11.2949620" />
      <trkpt lat="46.0083832" lon="11.2952157" />
      <trkpt lat="46.0084033" lon="11.2952909" />
      <trkpt lat="46.0085087" lon="11.2956866" />
      <trkpt lat="46.0085345" lon="11.2957863" />
      <trkpt lat="46.0086007" lon="11.2960421" />
      <trkpt lat="46.0087115" lon="11.2964700" />
      <trkpt lat="46.0088589" lon="11.2970393" />
      <trkpt lat="46.0089850" lon="11.2975267" />
      <trkpt lat="46.0089354" lon="11.2976279" />
      <trkpt lat="46.0086230" lon="11.2982644" />
      <trkpt lat="46.0087983" lon="11.2984184" />
      <trkpt lat="46.0083716" lon="11.2994631" />
      <trkpt lat="46.0086613" lon="11.2996130" />
      <trkpt lat="46.0085907" lon="11.2997702" />
      <trkpt lat="46.0083690" lon="11.3003535" />
      <trkpt lat="46.0081833" lon="11.3007954" />
      <trkpt lat="46.0081156" lon="11.3009486" />
      <trkpt lat="46.0080981" lon="11.3009575" />
      <trkpt lat="46.0080384" lon="11.3009880" />
      <trkpt lat="46.0078069" lon="11.3010941" />
      <trkpt lat="46.0072818" lon="11.3013815" />
      <trkpt lat="46.0072785" lon="11.3013637" />
      <trkpt lat="46.0072923" lon="11.3013556" />
      <trkpt lat="46.0077161" lon="11.3011122" />
      <trkpt lat="46.0078777" lon="11.3010371" />
      <trkpt lat="46.0080566" lon="11.3009546" />
      <trkpt lat="46.0080591" lon="11.3009543" />
      <trkpt lat="46.0081156" lon="11.3009486" />
      <trkpt lat="46.0081833" lon="11.3007954" />
      <trkpt lat="46.0083690" lon="11.3003535" />
      <trkpt lat="46.0085907" lon="11.2997702" />
      <trkpt lat="46.0086613" lon="11.2996130" />
      <trkpt lat="46.0083716" lon="11.2994631" />
      <trkpt lat="46.0087983" lon="11.2984184" />
      <trkpt lat="46.0086230" lon="11.2982644" />
      <trkpt lat="46.0089354" lon="11.2976279" />
      <trkpt lat="46.0089850" lon="11.2975267" />
      <trkpt lat="46.0088589" lon="11.2970393" />
      <trkpt lat="46.0087115" lon="11.2964700" />
      <trkpt lat="46.0086007" lon="11.2960421" />
      <trkpt lat="46.0085345" lon="11.2957863" />
      <trkpt lat="46.0085087" lon="11.2956866" />
      <trkpt lat="46.0084033" lon="11.2952909" />
      <trkpt lat="46.0083832" lon="11.2952157" />
      <trkpt lat="46.0082944" lon="11.2949620" />
      <trkpt lat="46.0082324" lon="11.2947849" />
      <trkpt lat="46.0079673" lon="11.2940833" />
      <trkpt lat="46.0078100" lon="11.2937086" />
      <trkpt lat="46.0075917" lon="11.2932997" />
      <trkpt lat="46.0075779" lon="11.2932774" />
      <trkpt lat="46.0075285" lon="11.2931979" />
      <trkpt lat="46.0075033" lon="11.2931094" />
      <trkpt lat="46.0074595" lon="11.2931252" />
      <trkpt lat="46.0074144" lon="11.2931202" />
      <trkpt lat="46.0073728" lon="11.2930947" />
      <trkpt lat="46.0073492" lon="11.2931457" />
      <trkpt lat="46.0067516" lon="11.2939729" />
      <trkpt lat="46.0066847" lon="11.2940783" />
      <trkpt lat="46.0067697" lon="11.2942843" />
      <trkpt lat="46.0068413" lon="11.2945418" />
      <trkpt lat="46.0069026" lon="11.2948136" />
      <trkpt lat="46.0069250" lon="11.2950282" />
      <trkpt lat="46.0069287" lon="11.2951462" />
    </trkseg>
  </trk>
</gpx>
