<?xml version="1.0" encoding="UTF-8"?>
<gpx xmlns="http://www.topografix.com/GPX/1/1" version="1.1" creator="ShapeRoute route-engine">
  <metadata>
    <name>house 10 km · 2026-09-23</name>
    <author>
      <name>ShapeRoute route-engine</name>
    </author>
    <copyright author="OpenStreetMap contributors">
      <license>https://opendatacommons.org/licenses/odbl/1-0/</license>
    </copyright>
    <link href="https://www.openstreetmap.org/copyright">
      <text>© OpenStreetMap contributors</text>
    </link>
    <time>2026-09-23T23:10:55Z</time>
  </metadata>
  <trk>
    <name>house 10 km · 2026-09-23</name>
    <trkseg>
      <trkpt lat="45.4643695" lon="9.1897716" />
      <trkpt lat="45.4644313" lon="9.1898582" />
      <trkpt lat="45.4644741" lon="9.1898729" />
      <trkpt lat="45.4645046" lon="9.1898833" />
      <trkpt lat="45.4645446" lon="9.1898970" />
      <trkpt lat="45.4645546" lon="9.1899005" />
      <trkpt lat="45.4645542" lon="9.1899580" />
      <trkpt lat="45.4645497" lon="9.1899580" />
      <trkpt lat="45.4645497" lon="9.1899743" />
      <trkpt lat="45.4645490" lon="9.1902933" />
      <trkpt lat="45.4645233" lon="9.1902840" />
      <trkpt lat="45.4645236" lon="9.1902631" />
      <trkpt lat="45.4645242" lon="9.1902105" />
      <trkpt lat="45.4644926" lon="9.1902113" />
      <trkpt lat="45.4644924" lon="9.1901827" />
      <trkpt lat="45.4644913" lon="9.1900241" />
      <trkpt lat="45.4644264" lon="9.1900245" />
      <trkpt lat="45.4638736" lon="9.1900090" />
      <trkpt lat="45.4638731" lon="9.1900740" />
      <trkpt lat="45.4638729" lon="9.1901285" />
      <trkpt lat="45.4639022" lon="9.1901304" />
      <trkpt lat="45.4639110" lon="9.1901309" />
      <trkpt lat="45.4639105" lon="9.1901614" />
      <trkpt lat="45.4638623" lon="9.1901606" />
      <trkpt lat="45.4638381" lon="9.1901611" />
      <trkpt lat="45.4638372" lon="9.1902606" />
      <trkpt lat="45.4637484" lon="9.1902593" />
      <trkpt lat="45.4636960" lon="9.1902610" />
      <trkpt lat="45.4636927" lon="9.1905209" />
      <trkpt lat="45.4636917" lon="9.1905498" />
      <trkpt lat="45.4636889" lon="9.1913345" />
      <trkpt lat="45.4636891" lon="9.1913495" />
      <trkpt lat="45.4636995" lon="9.1921135" />
      <trkpt lat="45.4636519" lon="9.1921174" />
      <trkpt lat="45.4636251" lon="9.1921199" />
      <trkpt lat="45.4630249" lon="9.1921750" />
      <trkpt lat="45.4629450" lon="9.1922059" />
      <trkpt lat="45.4627655" lon="9.1922716" />
      <trkpt lat="45.4627624" lon="9.1922734" />
      <trkpt lat="45.4627073" lon="9.1923080" />
      <trkpt lat="45.4626454" lon="9.1923662" />
      <trkpt lat="45.4626372" lon="9.1923751" />
      <trkpt lat="45.4626277" lon="9.1924743" />
      <trkpt lat="45.4626206" lon="9.1925494" />
      <trkpt lat="45.4626311" lon="9.1926016" />
      <trkpt lat="45.4626316" lon="9.1927536" />
      <trkpt lat="45.4626344" lon="9.1936064" />
      <trkpt lat="45.4625126" lon="9.1936218" />
      <trkpt lat="45.4624950" lon="9.1936292" />
      <trkpt lat="45.4624808" lon="9.1936427" />
      <trkpt lat="45.4624603" lon="9.1936619" />
      <trkpt lat="45.4624586" lon="9.1936637" />
      <trkpt lat="45.4624534" lon="9.1936686" />
      <trkpt lat="45.4624322" lon="9.1936887" />
      <trkpt lat="45.4624173" lon="9.1937028" />
      <trkpt lat="45.4624130" lon="9.1937069" />
      <trkpt lat="45.4624005" lon="9.1937188" />
      <trkpt lat="45.4623871" lon="9.1937314" />
      <trkpt lat="45.4623766" lon="9.1937414" />
      <trkpt lat="45.4623716" lon="9.1937461" />
      <trkpt lat="45.4623597" lon="9.1937574" />
      <trkpt lat="45.4623475" lon="9.1937689" />
      <trkpt lat="45.4623318" lon="9.1937838" />
      <trkpt lat="45.4623222" lon="9.1937929" />
      <trkpt lat="45.4623476" lon="9.1938372" />
      <trkpt lat="45.4624435" lon="9.1941361" />
      <trkpt lat="45.4624584" lon="9.1941658" />
      <trkpt lat="45.4624732" lon="9.1941953" />
      <trkpt lat="45.4624904" lon="9.1942286" />
      <trkpt lat="45.4624954" lon="9.1942382" />
      <trkpt lat="45.4627414" lon="9.1947413" />
      <trkpt lat="45.4627830" lon="9.1948553" />
      <trkpt lat="45.4628102" lon="9.1949573" />
      <trkpt lat="45.4628195" lon="9.1950332" />
      <trkpt lat="45.4628513" lon="9.1952921" />
      <trkpt lat="45.4628600" lon="9.1953720" />
      <trkpt lat="45.4628961" lon="9.1957347" />
      <trkpt lat="45.4629095" lon="9.1958705" />
      <trkpt lat="45.4629052" lon="9.1958904" />
      <trkpt lat="45.4629058" lon="9.1958959" />
      <trkpt lat="45.4629102" lon="9.1959323" />
      <trkpt lat="45.4629137" lon="9.1959610" />
      <trkpt lat="45.4629145" lon="9.1959674" />
      <trkpt lat="45.4629222" lon="9.1959775" />
      <trkpt lat="45.4629317" lon="9.1965216" />
      <trkpt lat="45.4629220" lon="9.1967241" />
      <trkpt lat="45.4628952" lon="9.1968745" />
      <trkpt lat="45.4628908" lon="9.1968991" />
      <trkpt lat="45.4628370" lon="9.1970515" />
      <trkpt lat="45.4627741" lon="9.1971949" />
      <trkpt lat="45.4627338" lon="9.1972868" />
      <trkpt lat="45.4627121" lon="9.1972890" />
      <trkpt lat="45.4626941" lon="9.1972726" />
      <trkpt lat="45.4626906" lon="9.1972786" />
      <trkpt lat="45.4626760" lon="9.1973095" />
      <trkpt lat="45.4626566" lon="9.1973505" />
      <trkpt lat="45.4626546" lon="9.1973539" />
      <trkpt lat="45.4626329" lon="9.1973898" />
      <trkpt lat="45.4625377" lon="9.1975782" />
      <trkpt lat="45.4624089" lon="9.1978084" />
      <trkpt lat="45.4623919" lon="9.1978188" />
      <trkpt lat="45.4623628" lon="9.1978195" />
      <trkpt lat="45.4623489" lon="9.1978352" />
      <trkpt lat="45.4623405" lon="9.1978486" />
      <trkpt lat="45.4623315" lon="9.1978631" />
      <trkpt lat="45.4623133" lon="9.1978926" />
      <trkpt lat="45.4622935" lon="9.1979245" />
      <trkpt lat="45.4622721" lon="9.1979590" />
      <trkpt lat="45.4622626" lon="9.1979744" />
      <trkpt lat="45.4622624" lon="9.1980088" />
      <trkpt lat="45.4621733" lon="9.1982624" />
      <trkpt lat="45.4621033" lon="9.1982984" />
      <trkpt lat="45.4616038" lon="9.1983756" />
      <trkpt lat="45.4609889" lon="9.1984672" />
      <trkpt lat="45.4609893" lon="9.1984783" />
      <trkpt lat="45.4609897" lon="9.1984903" />
      <trkpt lat="45.4609904" lon="9.1985033" />
      <trkpt lat="45.4609912" lon="9.1985406" />
      <trkpt lat="45.4609788" lon="9.1985775" />
      <trkpt lat="45.4609688" lon="9.1985784" />
      <trkpt lat="45.4609200" lon="9.1985826" />
      <trkpt lat="45.4608976" lon="9.1985845" />
      <trkpt lat="45.4608908" lon="9.1985851" />
      <trkpt lat="45.4608741" lon="9.1985603" />
      <trkpt lat="45.4603581" lon="9.1986583" />
      <trkpt lat="45.4601092" lon="9.1986999" />
      <trkpt lat="45.4598097" lon="9.1987470" />
      <trkpt lat="45.4598063" lon="9.1987212" />
      <trkpt lat="45.4598034" lon="9.1986947" />
      <trkpt lat="45.4598001" lon="9.1986599" />
      <trkpt lat="45.4597987" lon="9.1986527" />
      <trkpt lat="45.4597734" lon="9.1986108" />
      <trkpt lat="45.4597677" lon="9.1986113" />
      <trkpt lat="45.4597487" lon="9.1986129" />
      <trkpt lat="45.4597333" lon="9.1986143" />
      <trkpt lat="45.4597167" lon="9.1986157" />
      <trkpt lat="45.4596861" lon="9.1986197" />
      <trkpt lat="45.4596906" lon="9.1986484" />
      <trkpt lat="45.4596945" lon="9.1986733" />
      <trkpt lat="45.4597014" lon="9.1987172" />
      <trkpt lat="45.4595559" lon="9.1987407" />
      <trkpt lat="45.4592504" lon="9.1987901" />
      <trkpt lat="45.4591702" lon="9.1988033" />
      <trkpt lat="45.4590463" lon="9.1988206" />
      <trkpt lat="45.4588539" lon="9.1988534" />
      <trkpt lat="45.4588442" lon="9.1989048" />
      <trkpt lat="45.4588412" lon="9.1989205" />
      <trkpt lat="45.4588362" lon="9.1989448" />
      <trkpt lat="45.4588331" lon="9.1989598" />
      <trkpt lat="45.4588160" lon="9.1989890" />
      <trkpt lat="45.4587262" lon="9.1990078" />
      <trkpt lat="45.4586839" lon="9.1990150" />
      <trkpt lat="45.4585417" lon="9.1990371" />
      <trkpt lat="45.4585170" lon="9.1990321" />
      <trkpt lat="45.4584965" lon="9.1990224" />
      <trkpt lat="45.4584918" lon="9.1989777" />
      <trkpt lat="45.4584908" lon="9.1989626" />
      <trkpt lat="45.4584774" lon="9.1989649" />
      <trkpt lat="45.4578356" lon="9.1990571" />
      <trkpt lat="45.4578197" lon="9.1990901" />
      <trkpt lat="45.4577810" lon="9.1990983" />
      <trkpt lat="45.4577553" lon="9.1991037" />
      <trkpt lat="45.4577468" lon="9.1991055" />
      <trkpt lat="45.4578816" lon="9.2003106" />
      <trkpt lat="45.4578884" lon="9.2003484" />
      <trkpt lat="45.4573714" lon="9.2005361" />
      <trkpt lat="45.4569194" lon="9.2006674" />
      <trkpt lat="45.4569254" lon="9.2007041" />
      <trkpt lat="45.4569314" lon="9.2007349" />
      <trkpt lat="45.4569393" lon="9.2007770" />
      <trkpt lat="45.4569423" lon="9.2007959" />
      <trkpt lat="45.4569275" lon="9.2008010" />
      <trkpt lat="45.4569193" lon="9.2008279" />
      <trkpt lat="45.4569096" lon="9.2008309" />
      <trkpt lat="45.4568961" lon="9.2008351" />
      <trkpt lat="45.4568801" lon="9.2008401" />
      <trkpt lat="45.4569679" lon="9.2013745" />
      <trkpt lat="45.4569740" lon="9.2014255" />
      <trkpt lat="45.4569773" lon="9.2014815" />
      <trkpt lat="45.4569778" lon="9.2015291" />
      <trkpt lat="45.4569780" lon="9.2015917" />
      <trkpt lat="45.4569644" lon="9.2015900" />
      <trkpt lat="45.4569346" lon="9.2015861" />
      <trkpt lat="45.4568926" lon="9.2015682" />
      <trkpt lat="45.4569751" lon="9.2020878" />
      <trkpt lat="45.4569737" lon="9.2020986" />
      <trkpt lat="45.4569703" lon="9.2021054" />
      <trkpt lat="45.4569656" lon="9.2021088" />
      <trkpt lat="45.4563122" lon="9.2023268" />
      <trkpt lat="45.4554481" lon="9.2026115" />
      <trkpt lat="45.4554292" lon="9.2026180" />
      <trkpt lat="45.4554157" lon="9.2026215" />
      <trkpt lat="45.4553938" lon="9.2026293" />
      <trkpt lat="45.4553857" lon="9.2026320" />
      <trkpt lat="45.4553782" lon="9.2026418" />
      <trkpt lat="45.4548633" lon="9.2028021" />
      <trkpt lat="45.4548346" lon="9.2027970" />
      <trkpt lat="45.4544151" lon="9.2025524" />
      <trkpt lat="45.4541215" lon="9.2023812" />
      <trkpt lat="45.4540475" lon="9.2023380" />
      <trkpt lat="45.4540202" lon="9.2023252" />
      <trkpt lat="45.4539692" lon="9.2023012" />
      <trkpt lat="45.4538981" lon="9.2022678" />
      <trkpt lat="45.4538728" lon="9.2022559" />
      <trkpt lat="45.4537127" lon="9.2022103" />
      <trkpt lat="45.4528926" lon="9.2020271" />
      <trkpt lat="45.4527917" lon="9.2019887" />
      <trkpt lat="45.4526678" lon="9.2019173" />
      <trkpt lat="45.4525892" lon="9.2018280" />
      <trkpt lat="45.4525494" lon="9.2017712" />
      <trkpt lat="45.4525406" lon="9.2017362" />
      <trkpt lat="45.4525320" lon="9.2017246" />
      <trkpt lat="45.4525104" lon="9.2016955" />
      <trkpt lat="45.4525023" lon="9.2016846" />
      <trkpt lat="45.4524913" lon="9.2016698" />
      <trkpt lat="45.4524610" lon="9.2016290" />
      <trkpt lat="45.4524492" lon="9.2016131" />
      <trkpt lat="45.4524268" lon="9.2016445" />
      <trkpt lat="45.4523947" lon="9.2016123" />
      <trkpt lat="45.4523687" lon="9.2016244" />
      <trkpt lat="45.4523250" lon="9.2016450" />
      <trkpt lat="45.4522883" lon="9.2016625" />
      <trkpt lat="45.4522399" lon="9.2017029" />
      <trkpt lat="45.4522028" lon="9.2017306" />
      <trkpt lat="45.4521794" lon="9.2017526" />
      <trkpt lat="45.4521503" lon="9.2017765" />
      <trkpt lat="45.4521294" lon="9.2017937" />
      <trkpt lat="45.4520981" lon="9.2018194" />
      <trkpt lat="45.4520865" lon="9.2018276" />
      <trkpt lat="45.4520752" lon="9.2018807" />
      <trkpt lat="45.4520442" lon="9.2019940" />
      <trkpt lat="45.4519473" lon="9.2023370" />
      <trkpt lat="45.4518884" lon="9.2023872" />
      <trkpt lat="45.4512852" lon="9.2022621" />
      <trkpt lat="45.4512041" lon="9.2022350" />
      <trkpt lat="45.4511818" lon="9.2022215" />
      <trkpt lat="45.4511244" lon="9.2021438" />
      <trkpt lat="45.4511133" lon="9.2021516" />
      <trkpt lat="45.4510796" lon="9.2021879" />
      <trkpt lat="45.4510716" lon="9.2021954" />
      <trkpt lat="45.4510579" lon="9.2022082" />
      <trkpt lat="45.4510062" lon="9.2022535" />
      <trkpt lat="45.4509962" lon="9.2022656" />
      <trkpt lat="45.4509940" lon="9.2023594" />
      <trkpt lat="45.4502366" lon="9.2024369" />
      <trkpt lat="45.4502289" lon="9.2024373" />
      <trkpt lat="45.4501885" lon="9.2024396" />
      <trkpt lat="45.4501268" lon="9.2024431" />
      <trkpt lat="45.4501101" lon="9.2024436" />
      <trkpt lat="45.4500976" lon="9.2024700" />
      <trkpt lat="45.4498436" lon="9.2024900" />
      <trkpt lat="45.4495454" lon="9.2025135" />
      <trkpt lat="45.4489869" lon="9.2025575" />
      <trkpt lat="45.4489249" lon="9.2025640" />
      <trkpt lat="45.4489238" lon="9.2025369" />
      <trkpt lat="45.4488680" lon="9.2025222" />
      <trkpt lat="45.4488523" lon="9.2025105" />
      <trkpt lat="45.4487957" lon="9.2024683" />
      <trkpt lat="45.4487478" lon="9.2024327" />
      <trkpt lat="45.4487222" lon="9.2024136" />
      <trkpt lat="45.4486793" lon="9.2023906" />
      <trkpt lat="45.4486524" lon="9.2016952" />
      <trkpt lat="45.4486269" lon="9.2009277" />
      <trkpt lat="45.4486054" lon="9.2002832" />
      <trkpt lat="45.4486002" lon="9.2001257" />
      <trkpt lat="45.4478599" lon="9.2001742" />
      <trkpt lat="45.4478595" lon="9.2001639" />
      <trkpt lat="45.4478570" lon="9.2001080" />
      <trkpt lat="45.4478554" lon="9.2000698" />
      <trkpt lat="45.4478548" lon="9.2000558" />
      <trkpt lat="45.4478490" lon="9.1998938" />
      <trkpt lat="45.4478500" lon="9.1998093" />
      <trkpt lat="45.4478669" lon="9.1997235" />
      <trkpt lat="45.4480861" lon="9.1992119" />
      <trkpt lat="45.4480513" lon="9.1991818" />
      <trkpt lat="45.4480065" lon="9.1991430" />
      <trkpt lat="45.4479523" lon="9.1990962" />
      <trkpt lat="45.4479229" lon="9.1990708" />
      <trkpt lat="45.4479108" lon="9.1990922" />
      <trkpt lat="45.4478149" lon="9.1990400" />
      <trkpt lat="45.4477527" lon="9.1979432" />
      <trkpt lat="45.4478154" lon="9.1978219" />
      <trkpt lat="45.4477774" lon="9.1977846" />
      <trkpt lat="45.4478214" lon="9.1977119" />
      <trkpt lat="45.4478360" lon="9.1976878" />
      <trkpt lat="45.4478501" lon="9.1976644" />
      <trkpt lat="45.4478329" lon="9.1976524" />
      <trkpt lat="45.4477359" lon="9.1975845" />
      <trkpt lat="45.4477583" lon="9.1974942" />
      <trkpt lat="45.4477406" lon="9.1974808" />
      <trkpt lat="45.4477140" lon="9.1968817" />
      <trkpt lat="45.4477130" lon="9.1968581" />
      <trkpt lat="45.4477099" lon="9.1967807" />
      <trkpt lat="45.4477082" lon="9.1967315" />
      <trkpt lat="45.4477021" lon="9.1967149" />
      <trkpt lat="45.4476780" lon="9.1961045" />
      <trkpt lat="45.4476646" lon="9.1961052" />
      <trkpt lat="45.4476208" lon="9.1961077" />
      <trkpt lat="45.4475919" lon="9.1961094" />
      <trkpt lat="45.4475783" lon="9.1961102" />
      <trkpt lat="45.4475682" lon="9.1960881" />
      <trkpt lat="45.4475674" lon="9.1960699" />
      <trkpt lat="45.4475645" lon="9.1959958" />
      <trkpt lat="45.4475626" lon="9.1959506" />
      <trkpt lat="45.4475618" lon="9.1959298" />
      <trkpt lat="45.4475702" lon="9.1959099" />
      <trkpt lat="45.4475115" lon="9.1945510" />
      <trkpt lat="45.4474789" lon="9.1945539" />
      <trkpt lat="45.4474763" lon="9.1945336" />
      <trkpt lat="45.4474705" lon="9.1944880" />
      <trkpt lat="45.4474646" lon="9.1944416" />
      <trkpt lat="45.4474594" lon="9.1943821" />
      <trkpt lat="45.4474547" lon="9.1943287" />
      <trkpt lat="45.4474526" lon="9.1942798" />
      <trkpt lat="45.4474508" lon="9.1942377" />
      <trkpt lat="45.4474496" lon="9.1942109" />
      <trkpt lat="45.4475523" lon="9.1942023" />
      <trkpt lat="45.4475655" lon="9.1940844" />
      <trkpt lat="45.4475969" lon="9.1938292" />
      <trkpt lat="45.4476435" lon="9.1935534" />
      <trkpt lat="45.4476761" lon="9.1933484" />
      <trkpt lat="45.4477924" lon="9.1933751" />
      <trkpt lat="45.4481193" lon="9.1933005" />
      <trkpt lat="45.4483702" lon="9.1931943" />
      <trkpt lat="45.4484880" lon="9.1931841" />
      <trkpt lat="45.4485184" lon="9.1941241" />
      <trkpt lat="45.4485668" lon="9.1941196" />
      <trkpt lat="45.4485940" lon="9.1941178" />
      <trkpt lat="45.4486248" lon="9.1941158" />
      <trkpt lat="45.4486422" lon="9.1941147" />
      <trkpt lat="45.4486431" lon="9.1941343" />
      <trkpt lat="45.4486446" lon="9.1941684" />
      <trkpt lat="45.4491540" lon="9.1941335" />
      <trkpt lat="45.4492249" lon="9.1941286" />
      <trkpt lat="45.4493028" lon="9.1941217" />
      <trkpt lat="45.4493040" lon="9.1941656" />
      <trkpt lat="45.4493055" lon="9.1942182" />
      <trkpt lat="45.4497493" lon="9.1941774" />
      <trkpt lat="45.4501067" lon="9.1941526" />
      <trkpt lat="45.4501020" lon="9.1941003" />
      <trkpt lat="45.4500975" lon="9.1940492" />
      <trkpt lat="45.4501625" lon="9.1940434" />
      <trkpt lat="45.4502735" lon="9.1940325" />
      <trkpt lat="45.4505378" lon="9.1940085" />
      <trkpt lat="45.4508502" lon="9.1939901" />
      <trkpt lat="45.4509248" lon="9.1939837" />
      <trkpt lat="45.4509319" lon="9.1939831" />
      <trkpt lat="45.4509509" lon="9.1939815" />
      <trkpt lat="45.4510240" lon="9.1939754" />
      <trkpt lat="45.4510239" lon="9.1939364" />
      <trkpt lat="45.4510417" lon="9.1939181" />
      <trkpt lat="45.4517700" lon="9.1938423" />
      <trkpt lat="45.4517716" lon="9.1928087" />
      <trkpt lat="45.4519047" lon="9.1928095" />
      <trkpt lat="45.4519423" lon="9.1928097" />
      <trkpt lat="45.4519825" lon="9.1928099" />
      <trkpt lat="45.4519923" lon="9.1928099" />
      <trkpt lat="45.4519924" lon="9.1928530" />
      <trkpt lat="45.4520112" lon="9.1928535" />
      <trkpt lat="45.4520349" lon="9.1928543" />
      <trkpt lat="45.4520343" lon="9.1927311" />
      <trkpt lat="45.4520294" lon="9.1911302" />
      <trkpt lat="45.4520666" lon="9.1911389" />
      <trkpt lat="45.4520745" lon="9.1911408" />
      <trkpt lat="45.4520819" lon="9.1911425" />
      <trkpt lat="45.4521131" lon="9.1911498" />
      <trkpt lat="45.4521247" lon="9.1911525" />
      <trkpt lat="45.4521348" lon="9.1911549" />
      <trkpt lat="45.4521645" lon="9.1911051" />
      <trkpt lat="45.4521645" lon="9.1910873" />
      <trkpt lat="45.4521648" lon="9.1910623" />
      <trkpt lat="45.4521651" lon="9.1910376" />
      <trkpt lat="45.4521655" lon="9.1910075" />
      <trkpt lat="45.4521659" lon="9.1909818" />
      <trkpt lat="45.4521666" lon="9.1909364" />
      <trkpt lat="45.4521668" lon="9.1909200" />
      <trkpt lat="45.4521363" lon="9.1908860" />
      <trkpt lat="45.4521422" lon="9.1897673" />
      <trkpt lat="45.4521450" lon="9.1896326" />
      <trkpt lat="45.4521551" lon="9.1896189" />
      <trkpt lat="45.4521549" lon="9.1896054" />
      <trkpt lat="45.4521548" lon="9.1895747" />
      <trkpt lat="45.4521538" lon="9.1895389" />
      <trkpt lat="45.4521536" lon="9.1895272" />
      <trkpt lat="45.4521479" lon="9.1894961" />
      <trkpt lat="45.4522221" lon="9.1887083" />
      <trkpt lat="45.4522173" lon="9.1887073" />
      <trkpt lat="45.4522042" lon="9.1887046" />
      <trkpt lat="45.4521851" lon="9.1887007" />
      <trkpt lat="45.4521649" lon="9.1886966" />
      <trkpt lat="45.4521226" lon="9.1886880" />
      <trkpt lat="45.4520940" lon="9.1886821" />
      <trkpt lat="45.4520888" lon="9.1886810" />
      <trkpt lat="45.4520307" lon="9.1886692" />
      <trkpt lat="45.4520027" lon="9.1886635" />
      <trkpt lat="45.4519975" lon="9.1886624" />
      <trkpt lat="45.4519717" lon="9.1886571" />
      <trkpt lat="45.4519289" lon="9.1886484" />
      <trkpt lat="45.4519044" lon="9.1886434" />
      <trkpt lat="45.4520711" lon="9.1876601" />
      <trkpt lat="45.4521819" lon="9.1871074" />
      <trkpt lat="45.4521728" lon="9.1870854" />
      <trkpt lat="45.4520880" lon="9.1870483" />
      <trkpt lat="45.4518674" lon="9.1869519" />
      <trkpt lat="45.4518509" lon="9.1870050" />
      <trkpt lat="45.4518435" lon="9.1870012" />
      <trkpt lat="45.4518191" lon="9.1869887" />
      <trkpt lat="45.4518135" lon="9.1869856" />
      <trkpt lat="45.4518026" lon="9.1869802" />
      <trkpt lat="45.4517976" lon="9.1869777" />
      <trkpt lat="45.4517844" lon="9.1869708" />
      <trkpt lat="45.4517690" lon="9.1869629" />
      <trkpt lat="45.4517590" lon="9.1869577" />
      <trkpt lat="45.4517559" lon="9.1869562" />
      <trkpt lat="45.4517399" lon="9.1869464" />
      <trkpt lat="45.4517355" lon="9.1869435" />
      <trkpt lat="45.4517187" lon="9.1869371" />
      <trkpt lat="45.4517012" lon="9.1869289" />
      <trkpt lat="45.4516891" lon="9.1869250" />
      <trkpt lat="45.4515470" lon="9.1874947" />
      <trkpt lat="45.4515299" lon="9.1875144" />
      <trkpt lat="45.4512489" lon="9.1874354" />
      <trkpt lat="45.4509245" lon="9.1873342" />
      <trkpt lat="45.4509217" lon="9.1873474" />
      <trkpt lat="45.4509094" lon="9.1874059" />
      <trkpt lat="45.4509030" lon="9.1874363" />
      <trkpt lat="45.4508983" lon="9.1874588" />
      <trkpt lat="45.4499361" lon="9.1871663" />
      <trkpt lat="45.4499103" lon="9.1871586" />
      <trkpt lat="45.4494964" lon="9.1870326" />
      <trkpt lat="45.4493598" lon="9.1870590" />
      <trkpt lat="45.4493388" lon="9.1870641" />
      <trkpt lat="45.4493281" lon="9.1870568" />
      <trkpt lat="45.4492988" lon="9.1870328" />
      <trkpt lat="45.4492794" lon="9.1870165" />
      <trkpt lat="45.4491942" lon="9.1869388" />
      <trkpt lat="45.4490124" lon="9.1867662" />
      <trkpt lat="45.4489979" lon="9.1867688" />
      <trkpt lat="45.4489559" lon="9.1867766" />
      <trkpt lat="45.4489491" lon="9.1866962" />
      <trkpt lat="45.4487626" lon="9.1864642" />
      <trkpt lat="45.4487251" lon="9.1864822" />
      <trkpt lat="45.4486823" lon="9.1865026" />
      <trkpt lat="45.4486427" lon="9.1864989" />
      <trkpt lat="45.4486331" lon="9.1864532" />
      <trkpt lat="45.4486156" lon="9.1863701" />
      <trkpt lat="45.4486041" lon="9.1863154" />
      <trkpt lat="45.4485812" lon="9.1862066" />
      <trkpt lat="45.4485665" lon="9.1861368" />
      <trkpt lat="45.4485535" lon="9.1860750" />
      <trkpt lat="45.4485361" lon="9.1859921" />
      <trkpt lat="45.4486098" lon="9.1859687" />
      <trkpt lat="45.4486026" lon="9.1857143" />
      <trkpt lat="45.4481068" lon="9.1855547" />
      <trkpt lat="45.4480698" lon="9.1856059" />
      <trkpt lat="45.4480437" lon="9.1855689" />
      <trkpt lat="45.4480198" lon="9.1855350" />
      <trkpt lat="45.4480185" lon="9.1855321" />
      <trkpt lat="45.4480124" lon="9.1855180" />
      <trkpt lat="45.4480057" lon="9.1855024" />
      <trkpt lat="45.4480011" lon="9.1854522" />
      <trkpt lat="45.4479981" lon="9.1854192" />
      <trkpt lat="45.4480048" lon="9.1853851" />
      <trkpt lat="45.4480080" lon="9.1853691" />
      <trkpt lat="45.4480155" lon="9.1853311" />
      <trkpt lat="45.4480194" lon="9.1853117" />
      <trkpt lat="45.4480253" lon="9.1852956" />
      <trkpt lat="45.4480095" lon="9.1852669" />
      <trkpt lat="45.4477998" lon="9.1830733" />
      <trkpt lat="45.4477970" lon="9.1830442" />
      <trkpt lat="45.4477899" lon="9.1829700" />
      <trkpt lat="45.4477870" lon="9.1829395" />
      <trkpt lat="45.4477855" lon="9.1829235" />
      <trkpt lat="45.4477807" lon="9.1828753" />
      <trkpt lat="45.4476942" lon="9.1820105" />
      <trkpt lat="45.4477122" lon="9.1819923" />
      <trkpt lat="45.4477092" lon="9.1819651" />
      <trkpt lat="45.4477015" lon="9.1818965" />
      <trkpt lat="45.4476970" lon="9.1818565" />
      <trkpt lat="45.4476958" lon="9.1818453" />
      <trkpt lat="45.4476792" lon="9.1818167" />
      <trkpt lat="45.4474711" lon="9.1796501" />
      <trkpt lat="45.4474902" lon="9.1796125" />
      <trkpt lat="45.4474908" lon="9.1795971" />
      <trkpt lat="45.4474923" lon="9.1795736" />
      <trkpt lat="45.4474937" lon="9.1795542" />
      <trkpt lat="45.4475318" lon="9.1795583" />
      <trkpt lat="45.4486148" lon="9.1796738" />
      <trkpt lat="45.4487754" lon="9.1796909" />
      <trkpt lat="45.4488334" lon="9.1796970" />
      <trkpt lat="45.4489188" lon="9.1797108" />
      <trkpt lat="45.4489197" lon="9.1796916" />
      <trkpt lat="45.4489216" lon="9.1796536" />
      <trkpt lat="45.4489225" lon="9.1796343" />
      <trkpt lat="45.4491270" lon="9.1796628" />
      <trkpt lat="45.4494522" lon="9.1797162" />
      <trkpt lat="45.4494986" lon="9.1797251" />
      <trkpt lat="45.4494991" lon="9.1797103" />
      <trkpt lat="45.4495040" lon="9.1795489" />
      <trkpt lat="45.4495100" lon="9.1793497" />
      <trkpt lat="45.4495152" lon="9.1791757" />
      <trkpt lat="45.4495209" lon="9.1789591" />
      <trkpt lat="45.4495246" lon="9.1788224" />
      <trkpt lat="45.4493618" lon="9.1788170" />
      <trkpt lat="45.4493751" lon="9.1782779" />
      <trkpt lat="45.4493759" lon="9.1782289" />
      <trkpt lat="45.4493804" lon="9.1780663" />
      <trkpt lat="45.4493838" lon="9.1779305" />
      <trkpt lat="45.4493943" lon="9.1777946" />
      <trkpt lat="45.4494073" lon="9.1776363" />
      <trkpt lat="45.4494093" lon="9.1776149" />
      <trkpt lat="45.4495607" lon="9.1776509" />
      <trkpt lat="45.4497950" lon="9.1777073" />
      <trkpt lat="45.4500171" lon="9.1777536" />
      <trkpt lat="45.4501815" lon="9.1777924" />
      <trkpt lat="45.4511612" lon="9.1780271" />
      <trkpt lat="45.4511716" lon="9.1780532" />
      <trkpt lat="45.4511804" lon="9.1780552" />
      <trkpt lat="45.4512212" lon="9.1780644" />
      <trkpt lat="45.4512694" lon="9.1780753" />
      <trkpt lat="45.4512755" lon="9.1780767" />
      <trkpt lat="45.4512892" lon="9.1780566" />
      <trkpt lat="45.4515742" lon="9.1781268" />
      <trkpt lat="45.4515882" lon="9.1781308" />
      <trkpt lat="45.4516658" lon="9.1781529" />
      <trkpt lat="45.4517183" lon="9.1781679" />
      <trkpt lat="45.4517533" lon="9.1781779" />
      <trkpt lat="45.4520214" lon="9.1782463" />
      <trkpt lat="45.4521156" lon="9.1782689" />
      <trkpt lat="45.4522307" lon="9.1782887" />
      <trkpt lat="45.4522521" lon="9.1782928" />
      <trkpt lat="45.4522644" lon="9.1782962" />
      <trkpt lat="45.4522784" lon="9.1782979" />
      <trkpt lat="45.4522897" lon="9.1784137" />
      <trkpt lat="45.4523118" lon="9.1784098" />
      <trkpt lat="45.4523231" lon="9.1784074" />
      <trkpt lat="45.4523392" lon="9.1784046" />
      <trkpt lat="45.4523581" lon="9.1784009" />
      <trkpt lat="45.4524200" lon="9.1790106" />
      <trkpt lat="45.4524244" lon="9.1790468" />
      <trkpt lat="45.4524337" lon="9.1793517" />
      <trkpt lat="45.4524296" lon="9.1794168" />
      <trkpt lat="45.4524155" lon="9.1796334" />
      <trkpt lat="45.4524359" lon="9.1796386" />
      <trkpt lat="45.4524444" lon="9.1796407" />
      <trkpt lat="45.4525029" lon="9.1796600" />
      <trkpt lat="45.4526127" lon="9.1796964" />
      <trkpt lat="45.4526378" lon="9.1797047" />
      <trkpt lat="45.4529262" lon="9.1797873" />
      <trkpt lat="45.4529650" lon="9.1797949" />
      <trkpt lat="45.4529756" lon="9.1797995" />
      <trkpt lat="45.4529831" lon="9.1796978" />
      <trkpt lat="45.4529907" lon="9.1795959" />
      <trkpt lat="45.4529982" lon="9.1794940" />
      <trkpt lat="45.4529850" lon="9.1793160" />
      <trkpt lat="45.4529791" lon="9.1792366" />
      <trkpt lat="45.4529288" lon="9.1785597" />
      <trkpt lat="45.4529502" lon="9.1785544" />
      <trkpt lat="45.4529696" lon="9.1785496" />
      <trkpt lat="45.4529934" lon="9.1785433" />
      <trkpt lat="45.4530186" lon="9.1785367" />
      <trkpt lat="45.4530472" lon="9.1785292" />
      <trkpt lat="45.4530742" lon="9.1785219" />
      <trkpt lat="45.4530844" lon="9.1785192" />
      <trkpt lat="45.4530829" lon="9.1784967" />
      <trkpt lat="45.4530913" lon="9.1784799" />
      <trkpt lat="45.4532032" lon="9.1784424" />
      <trkpt lat="45.4535178" lon="9.1783042" />
      <trkpt lat="45.4543058" lon="9.1777971" />
      <trkpt lat="45.4543346" lon="9.1778199" />
      <trkpt lat="45.4546265" lon="9.1781314" />
      <trkpt lat="45.4546373" lon="9.1781130" />
      <trkpt lat="45.4546549" lon="9.1780833" />
      <trkpt lat="45.4549003" lon="9.1783791" />
      <trkpt lat="45.4549470" lon="9.1783457" />
      <trkpt lat="45.4550228" lon="9.1782915" />
      <trkpt lat="45.4551050" lon="9.1782331" />
      <trkpt lat="45.4555328" lon="9.1779370" />
      <trkpt lat="45.4555690" lon="9.1779140" />
      <trkpt lat="45.4557765" lon="9.1777708" />
      <trkpt lat="45.4558495" lon="9.1777437" />
      <trkpt lat="45.4561605" lon="9.1776859" />
      <trkpt lat="45.4564664" lon="9.1776757" />
      <trkpt lat="45.4566111" lon="9.1776657" />
      <trkpt lat="45.4569339" lon="9.1776079" />
      <trkpt lat="45.4574139" lon="9.1775371" />
      <trkpt lat="45.4575678" lon="9.1775791" />
      <trkpt lat="45.4575617" lon="9.1776286" />
      <trkpt lat="45.4575520" lon="9.1777030" />
      <trkpt lat="45.4575026" lon="9.1780977" />
      <trkpt lat="45.4575399" lon="9.1781050" />
      <trkpt lat="45.4575932" lon="9.1777142" />
      <trkpt lat="45.4576216" lon="9.1777022" />
      <trkpt lat="45.4576493" lon="9.1777131" />
      <trkpt lat="45.4577451" lon="9.1777483" />
      <trkpt lat="45.4584363" lon="9.1782515" />
      <trkpt lat="45.4584443" lon="9.1782322" />
      <trkpt lat="45.4584570" lon="9.1782012" />
      <trkpt lat="45.4584773" lon="9.1782144" />
      <trkpt lat="45.4585311" lon="9.1782599" />
      <trkpt lat="45.4585071" lon="9.1783094" />
      <trkpt lat="45.4584494" lon="9.1784443" />
      <trkpt lat="45.4580060" lon="9.1794464" />
      <trkpt lat="45.4580434" lon="9.1794791" />
      <trkpt lat="45.4580581" lon="9.1794947" />
      <trkpt lat="45.4580502" lon="9.1795102" />
      <trkpt lat="45.4580447" lon="9.1795225" />
      <trkpt lat="45.4578086" lon="9.1800744" />
      <trkpt lat="45.4578950" lon="9.1801680" />
      <trkpt lat="45.4577337" lon="9.1805529" />
      <trkpt lat="45.4577954" lon="9.1806109" />
      <trkpt lat="45.4578340" lon="9.1806496" />
      <trkpt lat="45.4577651" lon="9.1808891" />
      <trkpt lat="45.4577647" lon="9.1809046" />
      <trkpt lat="45.4577632" lon="9.1809649" />
      <trkpt lat="45.4578352" lon="9.1809602" />
      <trkpt lat="45.4578968" lon="9.1809641" />
      <trkpt lat="45.4585739" lon="9.1810460" />
      <trkpt lat="45.4586330" lon="9.1810642" />
      <trkpt lat="45.4586574" lon="9.1810717" />
      <trkpt lat="45.4586960" lon="9.1810848" />
      <trkpt lat="45.4587733" lon="9.1811075" />
      <trkpt lat="45.4588589" lon="9.1811223" />
      <trkpt lat="45.4590039" lon="9.1811267" />
      <trkpt lat="45.4590040" lon="9.1811388" />
      <trkpt lat="45.4590041" lon="9.1811515" />
      <trkpt lat="45.4590045" lon="9.1812143" />
      <trkpt lat="45.4590047" lon="9.1812412" />
      <trkpt lat="45.4590253" lon="9.1812452" />
      <trkpt lat="45.4590459" lon="9.1812491" />
      <trkpt lat="45.4590632" lon="9.1812521" />
      <trkpt lat="45.4590965" lon="9.1812579" />
      <trkpt lat="45.4591282" lon="9.1812635" />
      <trkpt lat="45.4591318" lon="9.1812641" />
      <trkpt lat="45.4591205" lon="9.1814035" />
      <trkpt lat="45.4590852" lon="9.1818414" />
      <trkpt lat="45.4590950" lon="9.1818883" />
      <trkpt lat="45.4591151" lon="9.1819171" />
      <trkpt lat="45.4591118" lon="9.1819543" />
      <trkpt lat="45.4591073" lon="9.1820072" />
      <trkpt lat="45.4591017" lon="9.1820738" />
      <trkpt lat="45.4591003" lon="9.1820899" />
      <trkpt lat="45.4597355" lon="9.1820750" />
      <trkpt lat="45.4597775" lon="9.1821604" />
      <trkpt lat="45.4597842" lon="9.1821447" />
      <trkpt lat="45.4598430" lon="9.1820067" />
      <trkpt lat="45.4598804" lon="9.1820434" />
      <trkpt lat="45.4595617" lon="9.1827802" />
      <trkpt lat="45.4595827" lon="9.1827987" />
      <trkpt lat="45.4596158" lon="9.1828277" />
      <trkpt lat="45.4597742" lon="9.1829611" />
      <trkpt lat="45.4598677" lon="9.1827639" />
      <trkpt lat="45.4598788" lon="9.1827745" />
      <trkpt lat="45.4599414" lon="9.1828341" />
      <trkpt lat="45.4600081" lon="9.1829232" />
      <trkpt lat="45.4600438" lon="9.1829940" />
      <trkpt lat="45.4601020" lon="9.1830759" />
      <trkpt lat="45.4602247" lon="9.1835445" />
      <trkpt lat="45.4602877" lon="9.1837844" />
      <trkpt lat="45.4603120" lon="9.1839089" />
      <trkpt lat="45.4603189" lon="9.1839432" />
      <trkpt lat="45.4604223" lon="9.1839348" />
      <trkpt lat="45.4607504" lon="9.1839176" />
      <trkpt lat="45.4607529" lon="9.1839573" />
      <trkpt lat="45.4607532" lon="9.1839622" />
      <trkpt lat="45.4607641" lon="9.1839965" />
      <trkpt lat="45.4609409" lon="9.1846089" />
      <trkpt lat="45.4611084" lon="9.1849421" />
      <trkpt lat="45.4611102" lon="9.1849518" />
      <trkpt lat="45.4611147" lon="9.1849611" />
      <trkpt lat="45.4611221" lon="9.1849756" />
      <trkpt lat="45.4611427" lon="9.1849600" />
      <trkpt lat="45.4611600" lon="9.1849469" />
      <trkpt lat="45.4611706" lon="9.1849389" />
      <trkpt lat="45.4612117" lon="9.1850058" />
      <trkpt lat="45.4612837" lon="9.1851213" />
      <trkpt lat="45.4613929" lon="9.1852808" />
      <trkpt lat="45.4615077" lon="9.1854471" />
      <trkpt lat="45.4615911" lon="9.1855672" />
      <trkpt lat="45.4615993" lon="9.1855547" />
      <trkpt lat="45.4616085" lon="9.1855408" />
      <trkpt lat="45.4616168" lon="9.1855282" />
      <trkpt lat="45.4617310" lon="9.1856796" />
      <trkpt lat="45.4617923" lon="9.1857612" />
      <trkpt lat="45.4618047" lon="9.1857788" />
      <trkpt lat="45.4618124" lon="9.1857896" />
      <trkpt lat="45.4620003" lon="9.1860531" />
      <trkpt lat="45.4621998" lon="9.1862953" />
      <trkpt lat="45.4625728" lon="9.1867508" />
      <trkpt lat="45.4626144" lon="9.1867803" />
      <trkpt lat="45.4626263" lon="9.1867960" />
      <trkpt lat="45.4626441" lon="9.1868196" />
      <trkpt lat="45.4626642" lon="9.1868462" />
      <trkpt lat="45.4626697" lon="9.1868535" />
      <trkpt lat="45.4626711" lon="9.1869075" />
      <trkpt lat="45.4627629" lon="9.1870086" />
      <trkpt lat="45.4631684" lon="9.1874892" />
      <trkpt lat="45.4631804" lon="9.1874984" />
      <trkpt lat="45.4632002" lon="9.1875002" />
      <trkpt lat="45.4632199" lon="9.1874954" />
      <trkpt lat="45.4632396" lon="9.1874853" />
      <trkpt lat="45.4634995" lon="9.1871194" />
      <trkpt lat="45.4636087" lon="9.1869786" />
      <trkpt lat="45.4636160" lon="9.1869693" />
      <trkpt lat="45.4636189" lon="9.1869739" />
      <trkpt lat="45.4636356" lon="9.1869996" />
      <trkpt lat="45.4636540" lon="9.1870283" />
      <trkpt lat="45.4636711" lon="9.1870547" />
      <trkpt lat="45.4636940" lon="9.1870276" />
      <trkpt lat="45.4637096" lon="9.1870552" />
      <trkpt lat="45.4637986" lon="9.1871957" />
      <trkpt lat="45.4640503" lon="9.1876143" />
      <trkpt lat="45.4640458" lon="9.1876546" />
      <trkpt lat="45.4638534" lon="9.1879133" />
      <trkpt lat="45.4638410" lon="9.1879824" />
      <trkpt lat="45.4638130" lon="9.1880219" />
      <trkpt lat="45.4637869" lon="9.1880588" />
      <trkpt lat="45.4637155" lon="9.1881595" />
      <trkpt lat="45.4636687" lon="9.1883914" />
      <trkpt lat="45.4636976" lon="9.1884988" />
      <trkpt lat="45.4637017" lon="9.1885182" />
      <trkpt lat="45.4637368" lon="9.1886597" />
      <trkpt lat="45.4637362" lon="9.1887051" />
      <trkpt lat="45.4637344" lon="9.1888372" />
      <trkpt lat="45.4637338" lon="9.1888841" />
      <trkpt lat="45.4637335" lon="9.1889066" />
      <trkpt lat="45.4637332" lon="9.1889265" />
      <trkpt lat="45.4637329" lon="9.1889492" />
      <trkpt lat="45.4637319" lon="9.1890225" />
      <trkpt lat="45.4637982" lon="9.1890213" />
      <trkpt lat="45.4637998" lon="9.1889533" />
      <trkpt lat="45.4638000" lon="9.1889344" />
      <trkpt lat="45.4638002" lon="9.1889146" />
      <trkpt lat="45.4638167" lon="9.1889146" />
      <trkpt lat="45.4640993" lon="9.1889147" />
      <trkpt lat="45.4641127" lon="9.1889147" />
      <trkpt lat="45.4641126" lon="9.1889477" />
      <trkpt lat="45.4641115" lon="9.1890703" />
      <trkpt lat="45.4641046" lon="9.1895113" />
      <trkpt lat="45.4641536" lon="9.1896431" />
      <trkpt lat="45.4643695" lon="9.1897716" />
    </trkseg>
  </trk>
</gpx>
