<?xml version="1.0" encoding="UTF-8"?>
<gpx xmlns="http://www.topografix.com/GPX/1/1" version="1.1" creator="ShapeRoute route-engine">
  <metadata>
    <name>italy 15 km · 2026-09-25</name>
    <author>
      <name>ShapeRoute route-engine</name>
    </author>
    <copyright author="OpenStreetMap contributors">
      <license>https://opendatacommons.org/licenses/odbl/1-0/</license>
    </copyright>
    <link href="https://www.openstreetmap.org/copyright">
      <text>© OpenStreetMap contributors</text>
    </link>
    <time>2026-09-25T17:20:10Z</time>
  </metadata>
  <trk>
    <name>italy 15 km · 2026-09-25</name>
    <trkseg>
      <trkpt lat="46.0668711" lon="11.1210492" />
      <trkpt lat="46.0668249" lon="11.1206182" />
      <trkpt lat="46.0670289" lon="11.1205458" />
      <trkpt lat="46.0670637" lon="11.1207156" />
      <trkpt lat="46.0670730" lon="11.1209842" />
      <trkpt lat="46.0670745" lon="11.1210291" />
      <trkpt lat="46.0673165" lon="11.1210193" />
      <trkpt lat="46.0674358" lon="11.1209903" />
      <trkpt lat="46.0675759" lon="11.1209222" />
      <trkpt lat="46.0676386" lon="11.1208917" />
      <trkpt lat="46.0677393" lon="11.1208327" />
      <trkpt lat="46.0678148" lon="11.1207864" />
      <trkpt lat="46.0678457" lon="11.1207672" />
      <trkpt lat="46.0679032" lon="11.1207116" />
      <trkpt lat="46.0681018" lon="11.1205393" />
      <trkpt lat="46.0681669" lon="11.1204445" />
      <trkpt lat="46.0682945" lon="11.1202664" />
      <trkpt lat="46.0683846" lon="11.1201435" />
      <trkpt lat="46.0684504" lon="11.1200865" />
      <trkpt lat="46.0684776" lon="11.1200039" />
      <trkpt lat="46.0685273" lon="11.1200042" />
      <trkpt lat="46.0685313" lon="11.1200706" />
      <trkpt lat="46.0686910" lon="11.1200385" />
      <trkpt lat="46.0686922" lon="11.1200685" />
      <trkpt lat="46.0686941" lon="11.1200894" />
      <trkpt lat="46.0686963" lon="11.1201124" />
      <trkpt lat="46.0687020" lon="11.1201725" />
      <trkpt lat="46.0687388" lon="11.1203760" />
      <trkpt lat="46.0687499" lon="11.1204587" />
      <trkpt lat="46.0688365" lon="11.1211527" />
      <trkpt lat="46.0688387" lon="11.1211858" />
      <trkpt lat="46.0688409" lon="11.1212316" />
      <trkpt lat="46.0688448" lon="11.1212725" />
      <trkpt lat="46.0689171" lon="11.1220222" />
      <trkpt lat="46.0690210" lon="11.1225351" />
      <trkpt lat="46.0693306" lon="11.1224874" />
      <trkpt lat="46.0695838" lon="11.1225012" />
      <trkpt lat="46.0698051" lon="11.1225938" />
      <trkpt lat="46.0698439" lon="11.1229482" />
      <trkpt lat="46.0698562" lon="11.1231818" />
      <trkpt lat="46.0698524" lon="11.1233763" />
      <trkpt lat="46.0698608" lon="11.1238246" />
      <trkpt lat="46.0698412" lon="11.1238252" />
      <trkpt lat="46.0697152" lon="11.1238288" />
      <trkpt lat="46.0695700" lon="11.1238352" />
      <trkpt lat="46.0695561" lon="11.1238358" />
      <trkpt lat="46.0693045" lon="11.1238408" />
      <trkpt lat="46.0692101" lon="11.1238436" />
      <trkpt lat="46.0692091" lon="11.1236989" />
      <trkpt lat="46.0691367" lon="11.1237035" />
      <trkpt lat="46.0690806" lon="11.1237071" />
      <trkpt lat="46.0690525" lon="11.1237112" />
      <trkpt lat="46.0688864" lon="11.1237325" />
      <trkpt lat="46.0682805" lon="11.1238337" />
      <trkpt lat="46.0682827" lon="11.1238602" />
      <trkpt lat="46.0682835" lon="11.1238873" />
      <trkpt lat="46.0683250" lon="11.1239053" />
      <trkpt lat="46.0683541" lon="11.1239478" />
      <trkpt lat="46.0683766" lon="11.1242292" />
      <trkpt lat="46.0683684" lon="11.1245203" />
      <trkpt lat="46.0683518" lon="11.1247826" />
      <trkpt lat="46.0683737" lon="11.1247791" />
      <trkpt lat="46.0684074" lon="11.1247738" />
      <trkpt lat="46.0686416" lon="11.1247367" />
      <trkpt lat="46.0689190" lon="11.1246745" />
      <trkpt lat="46.0690475" lon="11.1246554" />
      <trkpt lat="46.0691707" lon="11.1246269" />
      <trkpt lat="46.0691965" lon="11.1246012" />
      <trkpt lat="46.0692481" lon="11.1245332" />
      <trkpt lat="46.0694052" lon="11.1245238" />
      <trkpt lat="46.0695598" lon="11.1244935" />
      <trkpt lat="46.0700381" lon="11.1244249" />
      <trkpt lat="46.0700639" lon="11.1244390" />
      <trkpt lat="46.0700749" lon="11.1244576" />
      <trkpt lat="46.0700921" lon="11.1245372" />
      <trkpt lat="46.0701056" lon="11.1246991" />
      <trkpt lat="46.0701090" lon="11.1248579" />
      <trkpt lat="46.0701202" lon="11.1250443" />
      <trkpt lat="46.0701360" lon="11.1251878" />
      <trkpt lat="46.0701636" lon="11.1253748" />
      <trkpt lat="46.0701757" lon="11.1254398" />
      <trkpt lat="46.0701951" lon="11.1255251" />
      <trkpt lat="46.0703104" lon="11.1258937" />
      <trkpt lat="46.0703744" lon="11.1261142" />
      <trkpt lat="46.0704496" lon="11.1264614" />
      <trkpt lat="46.0704611" lon="11.1265307" />
      <trkpt lat="46.0704804" lon="11.1266564" />
      <trkpt lat="46.0705083" lon="11.1266443" />
      <trkpt lat="46.0705378" lon="11.1266280" />
      <trkpt lat="46.0705687" lon="11.1266685" />
      <trkpt lat="46.0709427" lon="11.1265551" />
      <trkpt lat="46.0709703" lon="11.1265422" />
      <trkpt lat="46.0714867" lon="11.1261603" />
      <trkpt lat="46.0714910" lon="11.1261744" />
      <trkpt lat="46.0715046" lon="11.1262192" />
      <trkpt lat="46.0715185" lon="11.1262647" />
      <trkpt lat="46.0715224" lon="11.1262776" />
      <trkpt lat="46.0718057" lon="11.1260913" />
      <trkpt lat="46.0719279" lon="11.1259983" />
      <trkpt lat="46.0719595" lon="11.1259970" />
      <trkpt lat="46.0720236" lon="11.1260184" />
      <trkpt lat="46.0720402" lon="11.1259968" />
      <trkpt lat="46.0720594" lon="11.1259585" />
      <trkpt lat="46.0720743" lon="11.1259287" />
      <trkpt lat="46.0720801" lon="11.1259174" />
      <trkpt lat="46.0720949" lon="11.1258874" />
      <trkpt lat="46.0721792" lon="11.1254450" />
      <trkpt lat="46.0721976" lon="11.1253427" />
      <trkpt lat="46.0722208" lon="11.1252132" />
      <trkpt lat="46.0722263" lon="11.1251626" />
      <trkpt lat="46.0722081" lon="11.1251519" />
      <trkpt lat="46.0722036" lon="11.1251377" />
      <trkpt lat="46.0722085" lon="11.1251066" />
      <trkpt lat="46.0721532" lon="11.1250860" />
      <trkpt lat="46.0720767" lon="11.1250590" />
      <trkpt lat="46.0720054" lon="11.1250308" />
      <trkpt lat="46.0720510" lon="11.1248611" />
      <trkpt lat="46.0720544" lon="11.1248036" />
      <trkpt lat="46.0720435" lon="11.1247973" />
      <trkpt lat="46.0720613" lon="11.1247413" />
      <trkpt lat="46.0720684" lon="11.1247187" />
      <trkpt lat="46.0720850" lon="11.1246655" />
      <trkpt lat="46.0721075" lon="11.1246812" />
      <trkpt lat="46.0721375" lon="11.1246107" />
      <trkpt lat="46.0722105" lon="11.1244344" />
      <trkpt lat="46.0721948" lon="11.1244187" />
      <trkpt lat="46.0722095" lon="11.1243820" />
      <trkpt lat="46.0722244" lon="11.1243447" />
      <trkpt lat="46.0722500" lon="11.1243640" />
      <trkpt lat="46.0723332" lon="11.1241877" />
      <trkpt lat="46.0723437" lon="11.1241656" />
      <trkpt lat="46.0723615" lon="11.1241283" />
      <trkpt lat="46.0724401" lon="11.1239279" />
      <trkpt lat="46.0725009" lon="11.1239693" />
      <trkpt lat="46.0725481" lon="11.1238163" />
      <trkpt lat="46.0725820" lon="11.1237131" />
      <trkpt lat="46.0727391" lon="11.1232161" />
      <trkpt lat="46.0729624" lon="11.1225104" />
      <trkpt lat="46.0730388" lon="11.1225596" />
      <trkpt lat="46.0731013" lon="11.1223621" />
      <trkpt lat="46.0731120" lon="11.1223279" />
      <trkpt lat="46.0731278" lon="11.1222791" />
      <trkpt lat="46.0731482" lon="11.1222134" />
      <trkpt lat="46.0731695" lon="11.1221459" />
      <trkpt lat="46.0731922" lon="11.1220740" />
      <trkpt lat="46.0733267" lon="11.1216622" />
      <trkpt lat="46.0733531" lon="11.1215812" />
      <trkpt lat="46.0734782" lon="11.1212068" />
      <trkpt lat="46.0734873" lon="11.1211801" />
      <trkpt lat="46.0734990" lon="11.1211546" />
      <trkpt lat="46.0735296" lon="11.1211077" />
      <trkpt lat="46.0735631" lon="11.1210564" />
      <trkpt lat="46.0735667" lon="11.1210321" />
      <trkpt lat="46.0736363" lon="11.1208018" />
      <trkpt lat="46.0736137" lon="11.1207504" />
      <trkpt lat="46.0735863" lon="11.1206881" />
      <trkpt lat="46.0735648" lon="11.1206361" />
      <trkpt lat="46.0735158" lon="11.1206686" />
      <trkpt lat="46.0728489" lon="11.1201983" />
      <trkpt lat="46.0728264" lon="11.1201796" />
      <trkpt lat="46.0727979" lon="11.1201561" />
      <trkpt lat="46.0727959" lon="11.1201331" />
      <trkpt lat="46.0727950" lon="11.1201218" />
      <trkpt lat="46.0727683" lon="11.1201030" />
      <trkpt lat="46.0727515" lon="11.1200914" />
      <trkpt lat="46.0727608" lon="11.1200597" />
      <trkpt lat="46.0727849" lon="11.1199833" />
      <trkpt lat="46.0731243" lon="11.1189296" />
      <trkpt lat="46.0731564" lon="11.1188234" />
      <trkpt lat="46.0731635" lon="11.1187945" />
      <trkpt lat="46.0732056" lon="11.1186238" />
      <trkpt lat="46.0731721" lon="11.1185466" />
      <trkpt lat="46.0732498" lon="11.1182117" />
      <trkpt lat="46.0732723" lon="11.1181132" />
      <trkpt lat="46.0732968" lon="11.1180112" />
      <trkpt lat="46.0735096" lon="11.1171204" />
      <trkpt lat="46.0735161" lon="11.1170930" />
      <trkpt lat="46.0734418" lon="11.1170916" />
      <trkpt lat="46.0734433" lon="11.1170547" />
      <trkpt lat="46.0728304" lon="11.1169660" />
      <trkpt lat="46.0726435" lon="11.1169339" />
      <trkpt lat="46.0725145" lon="11.1169173" />
      <trkpt lat="46.0725184" lon="11.1168436" />
      <trkpt lat="46.0724838" lon="11.1168318" />
      <trkpt lat="46.0720849" lon="11.1167334" />
      <trkpt lat="46.0717950" lon="11.1166367" />
      <trkpt lat="46.0715440" lon="11.1165300" />
      <trkpt lat="46.0713598" lon="11.1164541" />
      <trkpt lat="46.0712454" lon="11.1164070" />
      <trkpt lat="46.0708611" lon="11.1162327" />
      <trkpt lat="46.0703724" lon="11.1159815" />
      <trkpt lat="46.0700662" lon="11.1158228" />
      <trkpt lat="46.0700117" lon="11.1157886" />
      <trkpt lat="46.0699948" lon="11.1157680" />
      <trkpt lat="46.0699886" lon="11.1157401" />
      <trkpt lat="46.0703250" lon="11.1144890" />
      <trkpt lat="46.0703300" lon="11.1144739" />
      <trkpt lat="46.0703420" lon="11.1144768" />
      <trkpt lat="46.0703535" lon="11.1144784" />
      <trkpt lat="46.0703770" lon="11.1144800" />
      <trkpt lat="46.0704564" lon="11.1145311" />
      <trkpt lat="46.0705116" lon="11.1145755" />
      <trkpt lat="46.0705372" lon="11.1145196" />
      <trkpt lat="46.0705662" lon="11.1144787" />
      <trkpt lat="46.0705584" lon="11.1144041" />
      <trkpt lat="46.0705601" lon="11.1143334" />
      <trkpt lat="46.0705752" lon="11.1142334" />
      <trkpt lat="46.0705777" lon="11.1142077" />
      <trkpt lat="46.0705793" lon="11.1141767" />
      <trkpt lat="46.0705753" lon="11.1140723" />
      <trkpt lat="46.0705734" lon="11.1139813" />
      <trkpt lat="46.0705960" lon="11.1139085" />
      <trkpt lat="46.0706140" lon="11.1138585" />
      <trkpt lat="46.0706918" lon="11.1137159" />
      <trkpt lat="46.0707239" lon="11.1136694" />
      <trkpt lat="46.0707595" lon="11.1136128" />
      <trkpt lat="46.0707920" lon="11.1135551" />
      <trkpt lat="46.0708150" lon="11.1135076" />
      <trkpt lat="46.0708489" lon="11.1134147" />
      <trkpt lat="46.0708809" lon="11.1133125" />
      <trkpt lat="46.0709010" lon="11.1132253" />
      <trkpt lat="46.0709067" lon="11.1131737" />
      <trkpt lat="46.0709055" lon="11.1130990" />
      <trkpt lat="46.0708977" lon="11.1130162" />
      <trkpt lat="46.0708889" lon="11.1129176" />
      <trkpt lat="46.0708861" lon="11.1128809" />
      <trkpt lat="46.0709044" lon="11.1128543" />
      <trkpt lat="46.0709429" lon="11.1127975" />
      <trkpt lat="46.0709759" lon="11.1127520" />
      <trkpt lat="46.0708906" lon="11.1125624" />
      <trkpt lat="46.0708645" lon="11.1125010" />
      <trkpt lat="46.0708272" lon="11.1124134" />
      <trkpt lat="46.0707388" lon="11.1122047" />
      <trkpt lat="46.0707116" lon="11.1121405" />
      <trkpt lat="46.0706788" lon="11.1120416" />
      <trkpt lat="46.0706390" lon="11.1118595" />
      <trkpt lat="46.0706371" lon="11.1118408" />
      <trkpt lat="46.0706259" lon="11.1117047" />
      <trkpt lat="46.0706692" lon="11.1116933" />
      <trkpt lat="46.0707551" lon="11.1116742" />
      <trkpt lat="46.0707652" lon="11.1116704" />
      <trkpt lat="46.0707753" lon="11.1116652" />
      <trkpt lat="46.0707853" lon="11.1116534" />
      <trkpt lat="46.0708125" lon="11.1116088" />
      <trkpt lat="46.0708662" lon="11.1115122" />
      <trkpt lat="46.0709182" lon="11.1114140" />
      <trkpt lat="46.0709785" lon="11.1112871" />
      <trkpt lat="46.0710434" lon="11.1111486" />
      <trkpt lat="46.0710774" lon="11.1110492" />
      <trkpt lat="46.0711156" lon="11.1108963" />
      <trkpt lat="46.0711395" lon="11.1107560" />
      <trkpt lat="46.0712623" lon="11.1105396" />
      <trkpt lat="46.0713295" lon="11.1104178" />
      <trkpt lat="46.0713405" lon="11.1104227" />
      <trkpt lat="46.0713627" lon="11.1103530" />
      <trkpt lat="46.0713873" lon="11.1102859" />
      <trkpt lat="46.0714167" lon="11.1102030" />
      <trkpt lat="46.0714397" lon="11.1101094" />
      <trkpt lat="46.0714686" lon="11.1100618" />
      <trkpt lat="46.0714921" lon="11.1100592" />
      <trkpt lat="46.0715275" lon="11.1099978" />
      <trkpt lat="46.0715100" lon="11.1099822" />
      <trkpt lat="46.0714822" lon="11.1100221" />
      <trkpt lat="46.0714714" lon="11.1100101" />
      <trkpt lat="46.0714750" lon="11.1099654" />
      <trkpt lat="46.0714834" lon="11.1098639" />
      <trkpt lat="46.0714314" lon="11.1098654" />
      <trkpt lat="46.0713749" lon="11.1098781" />
      <trkpt lat="46.0713232" lon="11.1099632" />
      <trkpt lat="46.0713155" lon="11.1100308" />
      <trkpt lat="46.0712804" lon="11.1100276" />
      <trkpt lat="46.0712530" lon="11.1100360" />
      <trkpt lat="46.0712386" lon="11.1100758" />
      <trkpt lat="46.0712181" lon="11.1100599" />
      <trkpt lat="46.0712075" lon="11.1100506" />
      <trkpt lat="46.0709745" lon="11.1098705" />
      <trkpt lat="46.0709782" lon="11.1098558" />
      <trkpt lat="46.0709804" lon="11.1098152" />
      <trkpt lat="46.0709793" lon="11.1097840" />
      <trkpt lat="46.0709758" lon="11.1097204" />
      <trkpt lat="46.0710472" lon="11.1095792" />
      <trkpt lat="46.0710922" lon="11.1094943" />
      <trkpt lat="46.0710705" lon="11.1094582" />
      <trkpt lat="46.0710546" lon="11.1094317" />
      <trkpt lat="46.0711536" lon="11.1092756" />
      <trkpt lat="46.0713090" lon="11.1089748" />
      <trkpt lat="46.0713877" lon="11.1084257" />
      <trkpt lat="46.0714543" lon="11.1083203" />
      <trkpt lat="46.0714827" lon="11.1082763" />
      <trkpt lat="46.0715019" lon="11.1082646" />
      <trkpt lat="46.0715190" lon="11.1082666" />
      <trkpt lat="46.0715446" lon="11.1082793" />
      <trkpt lat="46.0715589" lon="11.1082860" />
      <trkpt lat="46.0715782" lon="11.1082920" />
      <trkpt lat="46.0716002" lon="11.1082846" />
      <trkpt lat="46.0716436" lon="11.1082496" />
      <trkpt lat="46.0718613" lon="11.1079758" />
      <trkpt lat="46.0720748" lon="11.1077531" />
      <trkpt lat="46.0720873" lon="11.1077336" />
      <trkpt lat="46.0720982" lon="11.1077067" />
      <trkpt lat="46.0721171" lon="11.1076376" />
      <trkpt lat="46.0721249" lon="11.1076155" />
      <trkpt lat="46.0721388" lon="11.1075918" />
      <trkpt lat="46.0721555" lon="11.1075667" />
      <trkpt lat="46.0721972" lon="11.1075152" />
      <trkpt lat="46.0722417" lon="11.1074623" />
      <trkpt lat="46.0722843" lon="11.1074068" />
      <trkpt lat="46.0723358" lon="11.1073203" />
      <trkpt lat="46.0723799" lon="11.1072337" />
      <trkpt lat="46.0724149" lon="11.1071537" />
      <trkpt lat="46.0724425" lon="11.1070683" />
      <trkpt lat="46.0724468" lon="11.1070359" />
      <trkpt lat="46.0724492" lon="11.1070009" />
      <trkpt lat="46.0724490" lon="11.1069671" />
      <trkpt lat="46.0724488" lon="11.1069223" />
      <trkpt lat="46.0724508" lon="11.1068510" />
      <trkpt lat="46.0724569" lon="11.1067669" />
      <trkpt lat="46.0724705" lon="11.1066936" />
      <trkpt lat="46.0724889" lon="11.1066444" />
      <trkpt lat="46.0726588" lon="11.1064327" />
      <trkpt lat="46.0728710" lon="11.1061878" />
      <trkpt lat="46.0729673" lon="11.1061017" />
      <trkpt lat="46.0729870" lon="11.1060840" />
      <trkpt lat="46.0729984" lon="11.1060699" />
      <trkpt lat="46.0730079" lon="11.1060518" />
      <trkpt lat="46.0730138" lon="11.1060302" />
      <trkpt lat="46.0730147" lon="11.1060053" />
      <trkpt lat="46.0729853" lon="11.1058462" />
      <trkpt lat="46.0729843" lon="11.1058347" />
      <trkpt lat="46.0729852" lon="11.1058253" />
      <trkpt lat="46.0729880" lon="11.1058165" />
      <trkpt lat="46.0729925" lon="11.1058067" />
      <trkpt lat="46.0730011" lon="11.1057973" />
      <trkpt lat="46.0730114" lon="11.1057895" />
      <trkpt lat="46.0731562" lon="11.1057281" />
      <trkpt lat="46.0731662" lon="11.1057190" />
      <trkpt lat="46.0731736" lon="11.1057055" />
      <trkpt lat="46.0731798" lon="11.1056924" />
      <trkpt lat="46.0731883" lon="11.1056751" />
      <trkpt lat="46.0732016" lon="11.1056510" />
      <trkpt lat="46.0732475" lon="11.1055948" />
      <trkpt lat="46.0732582" lon="11.1055860" />
      <trkpt lat="46.0732700" lon="11.1055829" />
      <trkpt lat="46.0732897" lon="11.1055779" />
      <trkpt lat="46.0733173" lon="11.1055729" />
      <trkpt lat="46.0733546" lon="11.1055749" />
      <trkpt lat="46.0733780" lon="11.1055867" />
      <trkpt lat="46.0734030" lon="11.1055081" />
      <trkpt lat="46.0733756" lon="11.1055039" />
      <trkpt lat="46.0733551" lon="11.1055019" />
      <trkpt lat="46.0732163" lon="11.1055082" />
      <trkpt lat="46.0732021" lon="11.1055067" />
      <trkpt lat="46.0731860" lon="11.1055039" />
      <trkpt lat="46.0731631" lon="11.1054990" />
      <trkpt lat="46.0731436" lon="11.1055008" />
      <trkpt lat="46.0730665" lon="11.1055186" />
      <trkpt lat="46.0729591" lon="11.1055567" />
      <trkpt lat="46.0728648" lon="11.1056031" />
      <trkpt lat="46.0727759" lon="11.1056658" />
      <trkpt lat="46.0726814" lon="11.1057606" />
      <trkpt lat="46.0724810" lon="11.1060040" />
      <trkpt lat="46.0722893" lon="11.1062431" />
      <trkpt lat="46.0722320" lon="11.1062946" />
      <trkpt lat="46.0721887" lon="11.1063259" />
      <trkpt lat="46.0721134" lon="11.1063618" />
      <trkpt lat="46.0720068" lon="11.1064030" />
      <trkpt lat="46.0718550" lon="11.1064816" />
      <trkpt lat="46.0716749" lon="11.1066140" />
      <trkpt lat="46.0715860" lon="11.1067126" />
      <trkpt lat="46.0714814" lon="11.1068834" />
      <trkpt lat="46.0713812" lon="11.1070307" />
      <trkpt lat="46.0713099" lon="11.1071258" />
      <trkpt lat="46.0711960" lon="11.1072143" />
      <trkpt lat="46.0711537" lon="11.1072441" />
      <trkpt lat="46.0711289" lon="11.1072599" />
      <trkpt lat="46.0711111" lon="11.1072710" />
      <trkpt lat="46.0710934" lon="11.1072680" />
      <trkpt lat="46.0710770" lon="11.1072479" />
      <trkpt lat="46.0710690" lon="11.1072037" />
      <trkpt lat="46.0710615" lon="11.1071404" />
      <trkpt lat="46.0710658" lon="11.1069633" />
      <trkpt lat="46.0710817" lon="11.1067605" />
      <trkpt lat="46.0710883" lon="11.1066279" />
      <trkpt lat="46.0710837" lon="11.1065577" />
      <trkpt lat="46.0710809" lon="11.1064921" />
      <trkpt lat="46.0710684" lon="11.1064607" />
      <trkpt lat="46.0710494" lon="11.1064437" />
      <trkpt lat="46.0710283" lon="11.1064457" />
      <trkpt lat="46.0710111" lon="11.1064552" />
      <trkpt lat="46.0709871" lon="11.1064903" />
      <trkpt lat="46.0709263" lon="11.1066278" />
      <trkpt lat="46.0708036" lon="11.1069156" />
      <trkpt lat="46.0707602" lon="11.1069849" />
      <trkpt lat="46.0707164" lon="11.1070232" />
      <trkpt lat="46.0706614" lon="11.1070494" />
      <trkpt lat="46.0705938" lon="11.1070578" />
      <trkpt lat="46.0704786" lon="11.1070412" />
      <trkpt lat="46.0704616" lon="11.1070376" />
      <trkpt lat="46.0703531" lon="11.1070145" />
      <trkpt lat="46.0701850" lon="11.1069673" />
      <trkpt lat="46.0700588" lon="11.1069583" />
      <trkpt lat="46.0699614" lon="11.1069641" />
      <trkpt lat="46.0698625" lon="11.1069881" />
      <trkpt lat="46.0697499" lon="11.1070222" />
      <trkpt lat="46.0695976" lon="11.1070935" />
      <trkpt lat="46.0693760" lon="11.1071472" />
      <trkpt lat="46.0693400" lon="11.1071582" />
      <trkpt lat="46.0693068" lon="11.1071693" />
      <trkpt lat="46.0692312" lon="11.1072155" />
      <trkpt lat="46.0691696" lon="11.1072500" />
      <trkpt lat="46.0690932" lon="11.1072988" />
      <trkpt lat="46.0690168" lon="11.1073557" />
      <trkpt lat="46.0688622" lon="11.1075004" />
      <trkpt lat="46.0688082" lon="11.1075421" />
      <trkpt lat="46.0687738" lon="11.1075589" />
      <trkpt lat="46.0687394" lon="11.1075677" />
      <trkpt lat="46.0686934" lon="11.1075740" />
      <trkpt lat="46.0686447" lon="11.1075803" />
      <trkpt lat="46.0686015" lon="11.1075826" />
      <trkpt lat="46.0685535" lon="11.1075311" />
      <trkpt lat="46.0685256" lon="11.1075181" />
      <trkpt lat="46.0684967" lon="11.1075124" />
      <trkpt lat="46.0683847" lon="11.1075034" />
      <trkpt lat="46.0683283" lon="11.1074975" />
      <trkpt lat="46.0682737" lon="11.1074876" />
      <trkpt lat="46.0682524" lon="11.1074809" />
      <trkpt lat="46.0682329" lon="11.1074716" />
      <trkpt lat="46.0682120" lon="11.1074616" />
      <trkpt lat="46.0681917" lon="11.1074463" />
      <trkpt lat="46.0681553" lon="11.1074176" />
      <trkpt lat="46.0681310" lon="11.1073754" />
      <trkpt lat="46.0681183" lon="11.1073154" />
      <trkpt lat="46.0681148" lon="11.1072581" />
      <trkpt lat="46.0681195" lon="11.1072104" />
      <trkpt lat="46.0681470" lon="11.1070863" />
      <trkpt lat="46.0682040" lon="11.1069284" />
      <trkpt lat="46.0683067" lon="11.1066073" />
      <trkpt lat="46.0683645" lon="11.1065071" />
      <trkpt lat="46.0684760" lon="11.1063648" />
      <trkpt lat="46.0686694" lon="11.1061956" />
      <trkpt lat="46.0687224" lon="11.1061567" />
      <trkpt lat="46.0686203" lon="11.1060716" />
      <trkpt lat="46.0685626" lon="11.1060368" />
      <trkpt lat="46.0685124" lon="11.1059939" />
      <trkpt lat="46.0684770" lon="11.1059831" />
      <trkpt lat="46.0684286" lon="11.1059939" />
      <trkpt lat="46.0683691" lon="11.1060448" />
      <trkpt lat="46.0682649" lon="11.1060931" />
      <trkpt lat="46.0681365" lon="11.1061441" />
      <trkpt lat="46.0680322" lon="11.1061682" />
      <trkpt lat="46.0679597" lon="11.1061682" />
      <trkpt lat="46.0678722" lon="11.1061816" />
      <trkpt lat="46.0677922" lon="11.1061950" />
      <trkpt lat="46.0676787" lon="11.1062379" />
      <trkpt lat="46.0675614" lon="11.1062996" />
      <trkpt lat="46.0674498" lon="11.1063640" />
      <trkpt lat="46.0673307" lon="11.1064042" />
      <trkpt lat="46.0672153" lon="11.1064176" />
      <trkpt lat="46.0670720" lon="11.1064176" />
      <trkpt lat="46.0669715" lon="11.1063855" />
      <trkpt lat="46.0669064" lon="11.1063479" />
      <trkpt lat="46.0668394" lon="11.1063050" />
      <trkpt lat="46.0667724" lon="11.1062969" />
      <trkpt lat="46.0666458" lon="11.1063291" />
      <trkpt lat="46.0665900" lon="11.1063291" />
      <trkpt lat="46.0663816" lon="11.1063265" />
      <trkpt lat="46.0657507" lon="11.1063184" />
      <trkpt lat="46.0655274" lon="11.1062674" />
      <trkpt lat="46.0652854" lon="11.1061977" />
      <trkpt lat="46.0652036" lon="11.1061843" />
      <trkpt lat="46.0651142" lon="11.1061951" />
      <trkpt lat="46.0650770" lon="11.1062165" />
      <trkpt lat="46.0650249" lon="11.1062379" />
      <trkpt lat="46.0649821" lon="11.1062621" />
      <trkpt lat="46.0649523" lon="11.1062943" />
      <trkpt lat="46.0649337" lon="11.1063506" />
      <trkpt lat="46.0649392" lon="11.1064066" />
      <trkpt lat="46.0649560" lon="11.1065085" />
      <trkpt lat="46.0650043" lon="11.1067016" />
      <trkpt lat="46.0650285" lon="11.1068116" />
      <trkpt lat="46.0650658" lon="11.1069434" />
      <trkpt lat="46.0651300" lon="11.1071737" />
      <trkpt lat="46.0651542" lon="11.1072649" />
      <trkpt lat="46.0651560" lon="11.1073400" />
      <trkpt lat="46.0652492" lon="11.1073743" />
      <trkpt lat="46.0652438" lon="11.1074107" />
      <trkpt lat="46.0652584" lon="11.1074937" />
      <trkpt lat="46.0653109" lon="11.1075599" />
      <trkpt lat="46.0653768" lon="11.1075811" />
      <trkpt lat="46.0654651" lon="11.1075861" />
      <trkpt lat="46.0657173" lon="11.1075891" />
      <trkpt lat="46.0660709" lon="11.1075533" />
      <trkpt lat="46.0662432" lon="11.1075788" />
      <trkpt lat="46.0664933" lon="11.1076593" />
      <trkpt lat="46.0666300" lon="11.1076540" />
      <trkpt lat="46.0667951" lon="11.1076646" />
      <trkpt lat="46.0670086" lon="11.1077320" />
      <trkpt lat="46.0671219" lon="11.1078028" />
      <trkpt lat="46.0672128" lon="11.1078871" />
      <trkpt lat="46.0672564" lon="11.1079618" />
      <trkpt lat="46.0672814" lon="11.1080661" />
      <trkpt lat="46.0672900" lon="11.1081886" />
      <trkpt lat="46.0672688" lon="11.1083514" />
      <trkpt lat="46.0672220" lon="11.1085832" />
      <trkpt lat="46.0671723" lon="11.1087728" />
      <trkpt lat="46.0670804" lon="11.1089812" />
      <trkpt lat="46.0670310" lon="11.1091642" />
      <trkpt lat="46.0670348" lon="11.1091840" />
      <trkpt lat="46.0670579" lon="11.1093057" />
      <trkpt lat="46.0670889" lon="11.1093728" />
      <trkpt lat="46.0673005" lon="11.1097321" />
      <trkpt lat="46.0673912" lon="11.1098992" />
      <trkpt lat="46.0674023" lon="11.1098694" />
      <trkpt lat="46.0674302" lon="11.1098423" />
      <trkpt lat="46.0674859" lon="11.1098115" />
      <trkpt lat="46.0675564" lon="11.1097484" />
      <trkpt lat="46.0676585" lon="11.1096451" />
      <trkpt lat="46.0677302" lon="11.1095075" />
      <trkpt lat="46.0677881" lon="11.1093657" />
      <trkpt lat="46.0678768" lon="11.1091576" />
      <trkpt lat="46.0679323" lon="11.1090278" />
      <trkpt lat="46.0679559" lon="11.1089256" />
      <trkpt lat="46.0679621" lon="11.1088868" />
      <trkpt lat="46.0679632" lon="11.1088386" />
      <trkpt lat="46.0679571" lon="11.1087972" />
      <trkpt lat="46.0679435" lon="11.1087653" />
      <trkpt lat="46.0679156" lon="11.1087327" />
      <trkpt lat="46.0678961" lon="11.1087216" />
      <trkpt lat="46.0678662" lon="11.1087137" />
      <trkpt lat="46.0678345" lon="11.1087070" />
      <trkpt lat="46.0678066" lon="11.1087085" />
      <trkpt lat="46.0677453" lon="11.1086460" />
      <trkpt lat="46.0677266" lon="11.1086057" />
      <trkpt lat="46.0677172" lon="11.1085587" />
      <trkpt lat="46.0678320" lon="11.1083489" />
      <trkpt lat="46.0679474" lon="11.1081745" />
      <trkpt lat="46.0680576" lon="11.1080076" />
      <trkpt lat="46.0681898" lon="11.1079003" />
      <trkpt lat="46.0683340" lon="11.1077897" />
      <trkpt lat="46.0685564" lon="11.1076171" />
      <trkpt lat="46.0686015" lon="11.1075826" />
      <trkpt lat="46.0686447" lon="11.1075803" />
      <trkpt lat="46.0686934" lon="11.1075740" />
      <trkpt lat="46.0687394" lon="11.1075677" />
      <trkpt lat="46.0687738" lon="11.1075589" />
      <trkpt lat="46.0688082" lon="11.1075421" />
      <trkpt lat="46.0688622" lon="11.1075004" />
      <trkpt lat="46.0690168" lon="11.1073557" />
      <trkpt lat="46.0690932" lon="11.1072988" />
      <trkpt lat="46.0691696" lon="11.1072500" />
      <trkpt lat="46.0692312" lon="11.1072155" />
      <trkpt lat="46.0693068" lon="11.1071693" />
      <trkpt lat="46.0693400" lon="11.1071582" />
      <trkpt lat="46.0693760" lon="11.1071472" />
      <trkpt lat="46.0695976" lon="11.1070935" />
      <trkpt lat="46.0697499" lon="11.1070222" />
      <trkpt lat="46.0698625" lon="11.1069881" />
      <trkpt lat="46.0699614" lon="11.1069641" />
      <trkpt lat="46.0700588" lon="11.1069583" />
      <trkpt lat="46.0701850" lon="11.1069673" />
      <trkpt lat="46.0703531" lon="11.1070145" />
      <trkpt lat="46.0704616" lon="11.1070376" />
      <trkpt lat="46.0704786" lon="11.1070412" />
      <trkpt lat="46.0705938" lon="11.1070578" />
      <trkpt lat="46.0706614" lon="11.1070494" />
      <trkpt lat="46.0707164" lon="11.1070232" />
      <trkpt lat="46.0707602" lon="11.1069849" />
      <trkpt lat="46.0708036" lon="11.1069156" />
      <trkpt lat="46.0709263" lon="11.1066278" />
      <trkpt lat="46.0709871" lon="11.1064903" />
      <trkpt lat="46.0710111" lon="11.1064552" />
      <trkpt lat="46.0710283" lon="11.1064457" />
      <trkpt lat="46.0710494" lon="11.1064437" />
      <trkpt lat="46.0710684" lon="11.1064607" />
      <trkpt lat="46.0710809" lon="11.1064921" />
      <trkpt lat="46.0710837" lon="11.1065577" />
      <trkpt lat="46.0710883" lon="11.1066279" />
      <trkpt lat="46.0710817" lon="11.1067605" />
      <trkpt lat="46.0710658" lon="11.1069633" />
      <trkpt lat="46.0710615" lon="11.1071404" />
      <trkpt lat="46.0710690" lon="11.1072037" />
      <trkpt lat="46.0710770" lon="11.1072479" />
      <trkpt lat="46.0710934" lon="11.1072680" />
      <trkpt lat="46.0711111" lon="11.1072710" />
      <trkpt lat="46.0711289" lon="11.1072599" />
      <trkpt lat="46.0711537" lon="11.1072441" />
      <trkpt lat="46.0711960" lon="11.1072143" />
      <trkpt lat="46.0713099" lon="11.1071258" />
      <trkpt lat="46.0713812" lon="11.1070307" />
      <trkpt lat="46.0714814" lon="11.1068834" />
      <trkpt lat="46.0715860" lon="11.1067126" />
      <trkpt lat="46.0716749" lon="11.1066140" />
      <trkpt lat="46.0718550" lon="11.1064816" />
      <trkpt lat="46.0720068" lon="11.1064030" />
      <trkpt lat="46.0721134" lon="11.1063618" />
      <trkpt lat="46.0721887" lon="11.1063259" />
      <trkpt lat="46.0722320" lon="11.1062946" />
      <trkpt lat="46.0722893" lon="11.1062431" />
      <trkpt lat="46.0724810" lon="11.1060040" />
      <trkpt lat="46.0726814" lon="11.1057606" />
      <trkpt lat="46.0727759" lon="11.1056658" />
      <trkpt lat="46.0728648" lon="11.1056031" />
      <trkpt lat="46.0729591" lon="11.1055567" />
      <trkpt lat="46.0730665" lon="11.1055186" />
      <trkpt lat="46.0731436" lon="11.1055008" />
      <trkpt lat="46.0731631" lon="11.1054990" />
      <trkpt lat="46.0731860" lon="11.1055039" />
      <trkpt lat="46.0732021" lon="11.1055067" />
      <trkpt lat="46.0732163" lon="11.1055082" />
      <trkpt lat="46.0733551" lon="11.1055019" />
      <trkpt lat="46.0733756" lon="11.1055039" />
      <trkpt lat="46.0734030" lon="11.1055081" />
      <trkpt lat="46.0733780" lon="11.1055867" />
      <trkpt lat="46.0733083" lon="11.1058057" />
      <trkpt lat="46.0732529" lon="11.1059914" />
      <trkpt lat="46.0732200" lon="11.1060497" />
      <trkpt lat="46.0731749" lon="11.1061013" />
      <trkpt lat="46.0730228" lon="11.1062328" />
      <trkpt lat="46.0729383" lon="11.1063107" />
      <trkpt lat="46.0728539" lon="11.1063993" />
      <trkpt lat="46.0728000" lon="11.1064839" />
      <trkpt lat="46.0727777" lon="11.1065370" />
      <trkpt lat="46.0727592" lon="11.1065954" />
      <trkpt lat="46.0727248" lon="11.1067023" />
      <trkpt lat="46.0727016" lon="11.1068147" />
      <trkpt lat="46.0726664" lon="11.1070611" />
      <trkpt lat="46.0726430" lon="11.1071846" />
      <trkpt lat="46.0726278" lon="11.1072317" />
      <trkpt lat="46.0726076" lon="11.1072787" />
      <trkpt lat="46.0725875" lon="11.1073177" />
      <trkpt lat="46.0725572" lon="11.1073568" />
      <trkpt lat="46.0721237" lon="11.1078214" />
      <trkpt lat="46.0718427" lon="11.1081567" />
      <trkpt lat="46.0716956" lon="11.1083682" />
      <trkpt lat="46.0714759" lon="11.1087687" />
      <trkpt lat="46.0714398" lon="11.1088371" />
      <trkpt lat="46.0713762" lon="11.1089573" />
      <trkpt lat="46.0710922" lon="11.1094943" />
      <trkpt lat="46.0710705" lon="11.1094582" />
      <trkpt lat="46.0710196" lon="11.1095462" />
      <trkpt lat="46.0709205" lon="11.1097366" />
      <trkpt lat="46.0708693" lon="11.1098647" />
      <trkpt lat="46.0708554" lon="11.1099003" />
      <trkpt lat="46.0708316" lon="11.1099613" />
      <trkpt lat="46.0707497" lon="11.1101838" />
      <trkpt lat="46.0707018" lon="11.1103180" />
      <trkpt lat="46.0706665" lon="11.1104467" />
      <trkpt lat="46.0706453" lon="11.1105284" />
      <trkpt lat="46.0706014" lon="11.1107079" />
      <trkpt lat="46.0705938" lon="11.1107384" />
      <trkpt lat="46.0705787" lon="11.1108167" />
      <trkpt lat="46.0705413" lon="11.1111003" />
      <trkpt lat="46.0705361" lon="11.1111626" />
      <trkpt lat="46.0705257" lon="11.1113296" />
      <trkpt lat="46.0705187" lon="11.1114760" />
      <trkpt lat="46.0705136" lon="11.1116151" />
      <trkpt lat="46.0705106" lon="11.1117214" />
      <trkpt lat="46.0704958" lon="11.1117395" />
      <trkpt lat="46.0705047" lon="11.1117917" />
      <trkpt lat="46.0705169" lon="11.1118466" />
      <trkpt lat="46.0704794" lon="11.1118659" />
      <trkpt lat="46.0702743" lon="11.1119716" />
      <trkpt lat="46.0700745" lon="11.1120853" />
      <trkpt lat="46.0700153" lon="11.1121170" />
      <trkpt lat="46.0699575" lon="11.1121507" />
      <trkpt lat="46.0698340" lon="11.1122175" />
      <trkpt lat="46.0695621" lon="11.1123584" />
      <trkpt lat="46.0695200" lon="11.1123774" />
      <trkpt lat="46.0694892" lon="11.1123979" />
      <trkpt lat="46.0694766" lon="11.1124185" />
      <trkpt lat="46.0694749" lon="11.1124507" />
      <trkpt lat="46.0694819" lon="11.1124795" />
      <trkpt lat="46.0698039" lon="11.1131995" />
      <trkpt lat="46.0698237" lon="11.1132449" />
      <trkpt lat="46.0698001" lon="11.1132688" />
      <trkpt lat="46.0697929" lon="11.1132763" />
      <trkpt lat="46.0696877" lon="11.1133875" />
      <trkpt lat="46.0696727" lon="11.1134020" />
      <trkpt lat="46.0696193" lon="11.1134541" />
      <trkpt lat="46.0695438" lon="11.1135398" />
      <trkpt lat="46.0694559" lon="11.1135254" />
      <trkpt lat="46.0694187" lon="11.1135240" />
      <trkpt lat="46.0693963" lon="11.1135240" />
      <trkpt lat="46.0693740" lon="11.1135254" />
      <trkpt lat="46.0693600" lon="11.1135294" />
      <trkpt lat="46.0693442" lon="11.1135415" />
      <trkpt lat="46.0693345" lon="11.1135667" />
      <trkpt lat="46.0693165" lon="11.1136571" />
      <trkpt lat="46.0693007" lon="11.1137442" />
      <trkpt lat="46.0692891" lon="11.1138032" />
      <trkpt lat="46.0692827" lon="11.1138365" />
      <trkpt lat="46.0699342" lon="11.1141162" />
      <trkpt lat="46.0699724" lon="11.1140894" />
      <trkpt lat="46.0700735" lon="11.1141344" />
      <trkpt lat="46.0701061" lon="11.1141508" />
      <trkpt lat="46.0701270" lon="11.1141662" />
      <trkpt lat="46.0701555" lon="11.1141871" />
      <trkpt lat="46.0701713" lon="11.1142018" />
      <trkpt lat="46.0701963" lon="11.1142414" />
      <trkpt lat="46.0702122" lon="11.1142749" />
      <trkpt lat="46.0702262" lon="11.1143187" />
      <trkpt lat="46.0702350" lon="11.1143612" />
      <trkpt lat="46.0702508" lon="11.1144356" />
      <trkpt lat="46.0702467" lon="11.1144529" />
      <trkpt lat="46.0699151" lon="11.1156990" />
      <trkpt lat="46.0698998" lon="11.1157127" />
      <trkpt lat="46.0698128" lon="11.1156739" />
      <trkpt lat="46.0695281" lon="11.1155240" />
      <trkpt lat="46.0693015" lon="11.1154028" />
      <trkpt lat="46.0684652" lon="11.1149557" />
      <trkpt lat="46.0682349" lon="11.1148330" />
      <trkpt lat="46.0682075" lon="11.1149285" />
      <trkpt lat="46.0680942" lon="11.1149057" />
      <trkpt lat="46.0680238" lon="11.1149118" />
      <trkpt lat="46.0679737" lon="11.1149448" />
      <trkpt lat="46.0679084" lon="11.1150043" />
      <trkpt lat="46.0678418" lon="11.1150495" />
      <trkpt lat="46.0678139" lon="11.1150654" />
      <trkpt lat="46.0677809" lon="11.1150701" />
      <trkpt lat="46.0677536" lon="11.1150646" />
      <trkpt lat="46.0677139" lon="11.1150479" />
      <trkpt lat="46.0669299" lon="11.1146267" />
      <trkpt lat="46.0668627" lon="11.1145914" />
      <trkpt lat="46.0661066" lon="11.1141926" />
      <trkpt lat="46.0660115" lon="11.1141343" />
      <trkpt lat="46.0656310" lon="11.1139302" />
      <trkpt lat="46.0654098" lon="11.1138232" />
      <trkpt lat="46.0651759" lon="11.1137079" />
      <trkpt lat="46.0647233" lon="11.1135201" />
      <trkpt lat="46.0647077" lon="11.1135928" />
      <trkpt lat="46.0646967" lon="11.1136437" />
      <trkpt lat="46.0641463" lon="11.1134375" />
      <trkpt lat="46.0637524" lon="11.1132971" />
      <trkpt lat="46.0636983" lon="11.1132832" />
      <trkpt lat="46.0636979" lon="11.1133601" />
      <trkpt lat="46.0636581" lon="11.1135183" />
      <trkpt lat="46.0635946" lon="11.1136502" />
      <trkpt lat="46.0635606" lon="11.1138620" />
      <trkpt lat="46.0635467" lon="11.1140323" />
      <trkpt lat="46.0635631" lon="11.1143783" />
      <trkpt lat="46.0635753" lon="11.1147335" />
      <trkpt lat="46.0636563" lon="11.1148654" />
      <trkpt lat="46.0635630" lon="11.1149857" />
      <trkpt lat="46.0635480" lon="11.1150043" />
      <trkpt lat="46.0634300" lon="11.1150156" />
      <trkpt lat="46.0634328" lon="11.1150619" />
      <trkpt lat="46.0634506" lon="11.1154336" />
      <trkpt lat="46.0634008" lon="11.1155391" />
      <trkpt lat="46.0633640" lon="11.1156171" />
      <trkpt lat="46.0633271" lon="11.1156837" />
      <trkpt lat="46.0632879" lon="11.1156921" />
      <trkpt lat="46.0632900" lon="11.1157231" />
      <trkpt lat="46.0633201" lon="11.1160412" />
      <trkpt lat="46.0633696" lon="11.1167056" />
      <trkpt lat="46.0633950" lon="11.1170509" />
      <trkpt lat="46.0634638" lon="11.1179318" />
      <trkpt lat="46.0633965" lon="11.1179432" />
      <trkpt lat="46.0632585" lon="11.1179655" />
      <trkpt lat="46.0627561" lon="11.1180476" />
      <trkpt lat="46.0626978" lon="11.1173313" />
      <trkpt lat="46.0626678" lon="11.1169643" />
      <trkpt lat="46.0621757" lon="11.1170371" />
      <trkpt lat="46.0621527" lon="11.1167167" />
      <trkpt lat="46.0618330" lon="11.1167644" />
      <trkpt lat="46.0618143" lon="11.1167407" />
      <trkpt lat="46.0617513" lon="11.1167507" />
      <trkpt lat="46.0614958" lon="11.1167926" />
      <trkpt lat="46.0613498" lon="11.1168295" />
      <trkpt lat="46.0613082" lon="11.1168400" />
      <trkpt lat="46.0612985" lon="11.1169094" />
      <trkpt lat="46.0613057" lon="11.1170753" />
      <trkpt lat="46.0613260" lon="11.1173293" />
      <trkpt lat="46.0613318" lon="11.1174016" />
      <trkpt lat="46.0613607" lon="11.1177437" />
      <trkpt lat="46.0613911" lon="11.1181035" />
      <trkpt lat="46.0613971" lon="11.1181750" />
      <trkpt lat="46.0614474" lon="11.1187923" />
      <trkpt lat="46.0614622" lon="11.1189104" />
      <trkpt lat="46.0614246" lon="11.1189156" />
      <trkpt lat="46.0613700" lon="11.1189229" />
      <trkpt lat="46.0613698" lon="11.1190007" />
      <trkpt lat="46.0613694" lon="11.1190543" />
      <trkpt lat="46.0612990" lon="11.1190543" />
      <trkpt lat="46.0613030" lon="11.1191248" />
      <trkpt lat="46.0613122" lon="11.1192892" />
      <trkpt lat="46.0613196" lon="11.1194199" />
      <trkpt lat="46.0613217" lon="11.1194579" />
      <trkpt lat="46.0613483" lon="11.1199306" />
      <trkpt lat="46.0613606" lon="11.1201497" />
      <trkpt lat="46.0614088" lon="11.1209608" />
      <trkpt lat="46.0614097" lon="11.1209777" />
      <trkpt lat="46.0614333" lon="11.1214411" />
      <trkpt lat="46.0614345" lon="11.1214648" />
      <trkpt lat="46.0614419" lon="11.1216311" />
      <trkpt lat="46.0614434" lon="11.1216616" />
      <trkpt lat="46.0614464" lon="11.1217229" />
      <trkpt lat="46.0611718" lon="11.1217622" />
      <trkpt lat="46.0610024" lon="11.1217844" />
      <trkpt lat="46.0609143" lon="11.1217977" />
      <trkpt lat="46.0608533" lon="11.1218096" />
      <trkpt lat="46.0607979" lon="11.1218270" />
      <trkpt lat="46.0607096" lon="11.1218637" />
      <trkpt lat="46.0604187" lon="11.1219731" />
      <trkpt lat="46.0603626" lon="11.1219916" />
      <trkpt lat="46.0602974" lon="11.1220154" />
      <trkpt lat="46.0601709" lon="11.1220652" />
      <trkpt lat="46.0600435" lon="11.1221392" />
      <trkpt lat="46.0595564" lon="11.1223304" />
      <trkpt lat="46.0591658" lon="11.1224884" />
      <trkpt lat="46.0586257" lon="11.1227069" />
      <trkpt lat="46.0586352" lon="11.1227565" />
      <trkpt lat="46.0586095" lon="11.1227686" />
      <trkpt lat="46.0586024" lon="11.1227797" />
      <trkpt lat="46.0585968" lon="11.1228125" />
      <trkpt lat="46.0585841" lon="11.1228450" />
      <trkpt lat="46.0585664" lon="11.1228712" />
      <trkpt lat="46.0585491" lon="11.1228879" />
      <trkpt lat="46.0585288" lon="11.1229019" />
      <trkpt lat="46.0585217" lon="11.1229139" />
      <trkpt lat="46.0585221" lon="11.1229323" />
      <trkpt lat="46.0586436" lon="11.1234923" />
      <trkpt lat="46.0586550" lon="11.1235427" />
      <trkpt lat="46.0586600" lon="11.1235743" />
      <trkpt lat="46.0586630" lon="11.1235860" />
      <trkpt lat="46.0588032" lon="11.1242548" />
      <trkpt lat="46.0587532" lon="11.1242783" />
      <trkpt lat="46.0587021" lon="11.1243002" />
      <trkpt lat="46.0587351" lon="11.1244701" />
      <trkpt lat="46.0587443" lon="11.1245194" />
      <trkpt lat="46.0583531" lon="11.1246930" />
      <trkpt lat="46.0580170" lon="11.1254037" />
      <trkpt lat="46.0580007" lon="11.1254332" />
      <trkpt lat="46.0579717" lon="11.1254582" />
      <trkpt lat="46.0579538" lon="11.1255362" />
      <trkpt lat="46.0579003" lon="11.1254811" />
      <trkpt lat="46.0578741" lon="11.1255407" />
      <trkpt lat="46.0577668" lon="11.1257904" />
      <trkpt lat="46.0583284" lon="11.1263150" />
      <trkpt lat="46.0586623" lon="11.1266225" />
      <trkpt lat="46.0586698" lon="11.1266261" />
      <trkpt lat="46.0586813" lon="11.1266261" />
      <trkpt lat="46.0586921" lon="11.1266284" />
      <trkpt lat="46.0587081" lon="11.1266351" />
      <trkpt lat="46.0587747" lon="11.1267065" />
      <trkpt lat="46.0588911" lon="11.1268848" />
      <trkpt lat="46.0588261" lon="11.1269596" />
      <trkpt lat="46.0588174" lon="11.1269682" />
      <trkpt lat="46.0586968" lon="11.1271140" />
      <trkpt lat="46.0586754" lon="11.1271195" />
      <trkpt lat="46.0586630" lon="11.1271230" />
      <trkpt lat="46.0586383" lon="11.1271479" />
      <trkpt lat="46.0586110" lon="11.1271730" />
      <trkpt lat="46.0586068" lon="11.1271806" />
      <trkpt lat="46.0586016" lon="11.1272135" />
      <trkpt lat="46.0585738" lon="11.1272650" />
      <trkpt lat="46.0585005" lon="11.1273448" />
      <trkpt lat="46.0584118" lon="11.1274227" />
      <trkpt lat="46.0583545" lon="11.1274789" />
      <trkpt lat="46.0582717" lon="11.1275332" />
      <trkpt lat="46.0582124" lon="11.1275642" />
      <trkpt lat="46.0580303" lon="11.1276570" />
      <trkpt lat="46.0579490" lon="11.1276980" />
      <trkpt lat="46.0579096" lon="11.1277159" />
      <trkpt lat="46.0578553" lon="11.1277423" />
      <trkpt lat="46.0574651" lon="11.1279462" />
      <trkpt lat="46.0574373" lon="11.1279611" />
      <trkpt lat="46.0574029" lon="11.1279779" />
      <trkpt lat="46.0573147" lon="11.1280238" />
      <trkpt lat="46.0572026" lon="11.1280822" />
      <trkpt lat="46.0567692" lon="11.1283081" />
      <trkpt lat="46.0567373" lon="11.1283233" />
      <trkpt lat="46.0567061" lon="11.1283376" />
      <trkpt lat="46.0566829" lon="11.1283489" />
      <trkpt lat="46.0566725" lon="11.1283511" />
      <trkpt lat="46.0566230" lon="11.1283613" />
      <trkpt lat="46.0563712" lon="11.1284903" />
      <trkpt lat="46.0563478" lon="11.1285045" />
      <trkpt lat="46.0563033" lon="11.1285438" />
      <trkpt lat="46.0562598" lon="11.1285801" />
      <trkpt lat="46.0560218" lon="11.1287026" />
      <trkpt lat="46.0557309" lon="11.1288504" />
      <trkpt lat="46.0554617" lon="11.1289810" />
      <trkpt lat="46.0551324" lon="11.1291484" />
      <trkpt lat="46.0549094" lon="11.1293083" />
      <trkpt lat="46.0547828" lon="11.1293834" />
      <trkpt lat="46.0546451" lon="11.1294410" />
      <trkpt lat="46.0544102" lon="11.1295000" />
      <trkpt lat="46.0539368" lon="11.1296342" />
      <trkpt lat="46.0536130" lon="11.1297105" />
      <trkpt lat="46.0535431" lon="11.1297227" />
      <trkpt lat="46.0532884" lon="11.1297321" />
      <trkpt lat="46.0528645" lon="11.1297151" />
      <trkpt lat="46.0528535" lon="11.1297146" />
      <trkpt lat="46.0528192" lon="11.1297062" />
      <trkpt lat="46.0527937" lon="11.1296839" />
      <trkpt lat="46.0527738" lon="11.1296273" />
      <trkpt lat="46.0527552" lon="11.1293845" />
      <trkpt lat="46.0527049" lon="11.1290291" />
      <trkpt lat="46.0526752" lon="11.1289044" />
      <trkpt lat="46.0526345" lon="11.1288037" />
      <trkpt lat="46.0525242" lon="11.1286377" />
      <trkpt lat="46.0524785" lon="11.1285589" />
      <trkpt lat="46.0524626" lon="11.1284937" />
      <trkpt lat="46.0524578" lon="11.1284493" />
      <trkpt lat="46.0524580" lon="11.1284073" />
      <trkpt lat="46.0524141" lon="11.1282796" />
      <trkpt lat="46.0523998" lon="11.1282253" />
      <trkpt lat="46.0523832" lon="11.1281567" />
      <trkpt lat="46.0523634" lon="11.1281369" />
      <trkpt lat="46.0523441" lon="11.1281112" />
      <trkpt lat="46.0523310" lon="11.1280799" />
      <trkpt lat="46.0523217" lon="11.1280301" />
      <trkpt lat="46.0523019" lon="11.1278722" />
      <trkpt lat="46.0522690" lon="11.1274468" />
      <trkpt lat="46.0522534" lon="11.1272452" />
      <trkpt lat="46.0522428" lon="11.1271137" />
      <trkpt lat="46.0522282" lon="11.1269323" />
      <trkpt lat="46.0522224" lon="11.1267960" />
      <trkpt lat="46.0522220" lon="11.1266578" />
      <trkpt lat="46.0522344" lon="11.1265429" />
      <trkpt lat="46.0522506" lon="11.1264432" />
      <trkpt lat="46.0522680" lon="11.1263686" />
      <trkpt lat="46.0522334" lon="11.1263357" />
      <trkpt lat="46.0522013" lon="11.1263061" />
      <trkpt lat="46.0521993" lon="11.1263152" />
      <trkpt lat="46.0520908" lon="11.1262850" />
      <trkpt lat="46.0512993" lon="11.1260767" />
      <trkpt lat="46.0512993" lon="11.1258260" />
      <trkpt lat="46.0513030" lon="11.1256496" />
      <trkpt lat="46.0512729" lon="11.1254284" />
      <trkpt lat="46.0512127" lon="11.1253683" />
      <trkpt lat="46.0511941" lon="11.1252281" />
      <trkpt lat="46.0510630" lon="11.1250692" />
      <trkpt lat="46.0509569" lon="11.1250708" />
      <trkpt lat="46.0509578" lon="11.1248541" />
      <trkpt lat="46.0509579" lon="11.1246173" />
      <trkpt lat="46.0509578" lon="11.1244934" />
      <trkpt lat="46.0509670" lon="11.1242463" />
      <trkpt lat="46.0508998" lon="11.1240485" />
      <trkpt lat="46.0508437" lon="11.1238663" />
      <trkpt lat="46.0508081" lon="11.1238807" />
      <trkpt lat="46.0507797" lon="11.1238847" />
      <trkpt lat="46.0507518" lon="11.1238776" />
      <trkpt lat="46.0507610" lon="11.1237643" />
      <trkpt lat="46.0507643" lon="11.1237269" />
      <trkpt lat="46.0507458" lon="11.1237266" />
      <trkpt lat="46.0507275" lon="11.1237227" />
      <trkpt lat="46.0507098" lon="11.1237153" />
      <trkpt lat="46.0506929" lon="11.1237044" />
      <trkpt lat="46.0506773" lon="11.1236903" />
      <trkpt lat="46.0506631" lon="11.1236732" />
      <trkpt lat="46.0506507" lon="11.1236535" />
      <trkpt lat="46.0506402" lon="11.1236316" />
      <trkpt lat="46.0506320" lon="11.1236078" />
      <trkpt lat="46.0506259" lon="11.1235819" />
      <trkpt lat="46.0506224" lon="11.1235550" />
      <trkpt lat="46.0506216" lon="11.1235277" />
      <trkpt lat="46.0506234" lon="11.1235004" />
      <trkpt lat="46.0505926" lon="11.1234967" />
      <trkpt lat="46.0505455" lon="11.1235018" />
      <trkpt lat="46.0505465" lon="11.1235499" />
      <trkpt lat="46.0505479" lon="11.1235723" />
      <trkpt lat="46.0505446" lon="11.1235848" />
      <trkpt lat="46.0505376" lon="11.1235996" />
      <trkpt lat="46.0505214" lon="11.1236253" />
      <trkpt lat="46.0505084" lon="11.1236417" />
      <trkpt lat="46.0504830" lon="11.1236758" />
      <trkpt lat="46.0504486" lon="11.1237199" />
      <trkpt lat="46.0504042" lon="11.1237852" />
      <trkpt lat="46.0503047" lon="11.1239248" />
      <trkpt lat="46.0500035" lon="11.1243397" />
      <trkpt lat="46.0499324" lon="11.1244311" />
      <trkpt lat="46.0498647" lon="11.1245258" />
      <trkpt lat="46.0497341" lon="11.1247060" />
      <trkpt lat="46.0495487" lon="11.1249618" />
      <trkpt lat="46.0494879" lon="11.1250426" />
      <trkpt lat="46.0493385" lon="11.1252458" />
      <trkpt lat="46.0492855" lon="11.1253109" />
      <trkpt lat="46.0489663" lon="11.1256823" />
      <trkpt lat="46.0488343" lon="11.1258357" />
      <trkpt lat="46.0487100" lon="11.1259840" />
      <trkpt lat="46.0484835" lon="11.1262397" />
      <trkpt lat="46.0485148" lon="11.1263022" />
      <trkpt lat="46.0485550" lon="11.1263823" />
      <trkpt lat="46.0485655" lon="11.1263701" />
      <trkpt lat="46.0485823" lon="11.1264026" />
      <trkpt lat="46.0485810" lon="11.1264641" />
      <trkpt lat="46.0486114" lon="11.1265307" />
      <trkpt lat="46.0485961" lon="11.1270765" />
      <trkpt lat="46.0485894" lon="11.1271439" />
      <trkpt lat="46.0486447" lon="11.1271723" />
      <trkpt lat="46.0486632" lon="11.1275223" />
      <trkpt lat="46.0488159" lon="11.1278602" />
      <trkpt lat="46.0487033" lon="11.1280413" />
      <trkpt lat="46.0481916" lon="11.1281187" />
      <trkpt lat="46.0481358" lon="11.1282117" />
      <trkpt lat="46.0481081" lon="11.1282580" />
      <trkpt lat="46.0482786" lon="11.1284871" />
      <trkpt lat="46.0484634" lon="11.1287354" />
      <trkpt lat="46.0487793" lon="11.1291598" />
      <trkpt lat="46.0492065" lon="11.1297407" />
      <trkpt lat="46.0498096" lon="11.1305608" />
      <trkpt lat="46.0498634" lon="11.1306283" />
      <trkpt lat="46.0498930" lon="11.1306588" />
      <trkpt lat="46.0499179" lon="11.1306757" />
      <trkpt lat="46.0499466" lon="11.1306886" />
      <trkpt lat="46.0499758" lon="11.1306940" />
      <trkpt lat="46.0500115" lon="11.1306953" />
      <trkpt lat="46.0500383" lon="11.1306994" />
      <trkpt lat="46.0500604" lon="11.1307069" />
      <trkpt lat="46.0500867" lon="11.1307238" />
      <trkpt lat="46.0501197" lon="11.1307543" />
      <trkpt lat="46.0501512" lon="11.1307888" />
      <trkpt lat="46.0501709" lon="11.1308010" />
      <trkpt lat="46.0501973" lon="11.1308085" />
      <trkpt lat="46.0502283" lon="11.1308044" />
      <trkpt lat="46.0502565" lon="11.1307895" />
      <trkpt lat="46.0503675" lon="11.1307109" />
      <trkpt lat="46.0503854" lon="11.1307601" />
      <trkpt lat="46.0504057" lon="11.1308188" />
      <trkpt lat="46.0508383" lon="11.1305182" />
      <trkpt lat="46.0510266" lon="11.1304636" />
      <trkpt lat="46.0510279" lon="11.1305463" />
      <trkpt lat="46.0510290" lon="11.1305913" />
      <trkpt lat="46.0510788" lon="11.1305919" />
      <trkpt lat="46.0510918" lon="11.1306016" />
      <trkpt lat="46.0511028" lon="11.1306162" />
      <trkpt lat="46.0511116" lon="11.1306471" />
      <trkpt lat="46.0511220" lon="11.1308703" />
      <trkpt lat="46.0511339" lon="11.1311259" />
      <trkpt lat="46.0511692" lon="11.1318835" />
      <trkpt lat="46.0511797" lon="11.1320920" />
      <trkpt lat="46.0511931" lon="11.1323569" />
      <trkpt lat="46.0512006" lon="11.1325048" />
      <trkpt lat="46.0512095" lon="11.1326809" />
      <trkpt lat="46.0512223" lon="11.1329339" />
      <trkpt lat="46.0512332" lon="11.1331502" />
      <trkpt lat="46.0512639" lon="11.1331481" />
      <trkpt lat="46.0512672" lon="11.1332077" />
      <trkpt lat="46.0515487" lon="11.1331698" />
      <trkpt lat="46.0516379" lon="11.1331578" />
      <trkpt lat="46.0517955" lon="11.1331366" />
      <trkpt lat="46.0517667" lon="11.1326819" />
      <trkpt lat="46.0521483" lon="11.1326638" />
      <trkpt lat="46.0521408" lon="11.1324653" />
      <trkpt lat="46.0523797" lon="11.1324502" />
      <trkpt lat="46.0526937" lon="11.1324304" />
      <trkpt lat="46.0533123" lon="11.1323914" />
      <trkpt lat="46.0533163" lon="11.1324654" />
      <trkpt lat="46.0533394" lon="11.1324632" />
      <trkpt lat="46.0540805" lon="11.1323426" />
      <trkpt lat="46.0543302" lon="11.1323020" />
      <trkpt lat="46.0543652" lon="11.1322973" />
      <trkpt lat="46.0544192" lon="11.1322901" />
      <trkpt lat="46.0544589" lon="11.1323204" />
      <trkpt lat="46.0544789" lon="11.1324064" />
      <trkpt lat="46.0544743" lon="11.1326167" />
      <trkpt lat="46.0544229" lon="11.1329596" />
      <trkpt lat="46.0543023" lon="11.1333240" />
      <trkpt lat="46.0542928" lon="11.1333758" />
      <trkpt lat="46.0543459" lon="11.1333520" />
      <trkpt lat="46.0545693" lon="11.1332471" />
      <trkpt lat="46.0546337" lon="11.1332129" />
      <trkpt lat="46.0546989" lon="11.1331766" />
      <trkpt lat="46.0547293" lon="11.1331597" />
      <trkpt lat="46.0547441" lon="11.1332023" />
      <trkpt lat="46.0548759" lon="11.1331630" />
      <trkpt lat="46.0549541" lon="11.1331540" />
      <trkpt lat="46.0549580" lon="11.1332328" />
      <trkpt lat="46.0549595" lon="11.1332834" />
      <trkpt lat="46.0549647" lon="11.1333335" />
      <trkpt lat="46.0549610" lon="11.1333523" />
      <trkpt lat="46.0549442" lon="11.1333983" />
      <trkpt lat="46.0549209" lon="11.1334721" />
      <trkpt lat="46.0548836" lon="11.1336042" />
      <trkpt lat="46.0548578" lon="11.1337405" />
      <trkpt lat="46.0548505" lon="11.1338071" />
      <trkpt lat="46.0548495" lon="11.1338878" />
      <trkpt lat="46.0548562" lon="11.1339455" />
      <trkpt lat="46.0549139" lon="11.1339445" />
      <trkpt lat="46.0549182" lon="11.1340847" />
      <trkpt lat="46.0549211" lon="11.1341353" />
      <trkpt lat="46.0549519" lon="11.1343128" />
      <trkpt lat="46.0549584" lon="11.1343426" />
      <trkpt lat="46.0549656" lon="11.1343717" />
      <trkpt lat="46.0549713" lon="11.1344003" />
      <trkpt lat="46.0549819" lon="11.1344415" />
      <trkpt lat="46.0550142" lon="11.1345375" />
      <trkpt lat="46.0550587" lon="11.1346502" />
      <trkpt lat="46.0551157" lon="11.1347527" />
      <trkpt lat="46.0551782" lon="11.1348487" />
      <trkpt lat="46.0552477" lon="11.1349316" />
      <trkpt lat="46.0553315" lon="11.1350058" />
      <trkpt lat="46.0553421" lon="11.1350152" />
      <trkpt lat="46.0554480" lon="11.1350692" />
      <trkpt lat="46.0555452" lon="11.1351386" />
      <trkpt lat="46.0556158" lon="11.1351589" />
      <trkpt lat="46.0557305" lon="11.1351681" />
      <trkpt lat="46.0558361" lon="11.1351731" />
      <trkpt lat="46.0558980" lon="11.1351741" />
      <trkpt lat="46.0560530" lon="11.1351741" />
      <trkpt lat="46.0561954" lon="11.1351713" />
      <trkpt lat="46.0563891" lon="11.1351516" />
      <trkpt lat="46.0564435" lon="11.1351429" />
      <trkpt lat="46.0566064" lon="11.1350932" />
      <trkpt lat="46.0566621" lon="11.1350719" />
      <trkpt lat="46.0567675" lon="11.1350167" />
      <trkpt lat="46.0569149" lon="11.1349217" />
      <trkpt lat="46.0570658" lon="11.1347745" />
      <trkpt lat="46.0571131" lon="11.1347191" />
      <trkpt lat="46.0571556" lon="11.1346751" />
      <trkpt lat="46.0572844" lon="11.1344985" />
      <trkpt lat="46.0573726" lon="11.1343361" />
      <trkpt lat="46.0574286" lon="11.1342052" />
      <trkpt lat="46.0574793" lon="11.1340734" />
      <trkpt lat="46.0575985" lon="11.1336202" />
      <trkpt lat="46.0576203" lon="11.1335437" />
      <trkpt lat="46.0577451" lon="11.1330420" />
      <trkpt lat="46.0577748" lon="11.1330586" />
      <trkpt lat="46.0577848" lon="11.1330629" />
      <trkpt lat="46.0578092" lon="11.1330794" />
      <trkpt lat="46.0578350" lon="11.1330844" />
      <trkpt lat="46.0578791" lon="11.1330673" />
      <trkpt lat="46.0579158" lon="11.1330444" />
      <trkpt lat="46.0579619" lon="11.1329975" />
      <trkpt lat="46.0579703" lon="11.1329841" />
      <trkpt lat="46.0579998" lon="11.1329923" />
      <trkpt lat="46.0580094" lon="11.1329519" />
      <trkpt lat="46.0580179" lon="11.1329138" />
      <trkpt lat="46.0580306" lon="11.1328612" />
      <trkpt lat="46.0583769" lon="11.1330087" />
      <trkpt lat="46.0586360" lon="11.1331044" />
      <trkpt lat="46.0586818" lon="11.1331110" />
      <trkpt lat="46.0588431" lon="11.1331307" />
      <trkpt lat="46.0590681" lon="11.1331501" />
      <trkpt lat="46.0593621" lon="11.1331795" />
      <trkpt lat="46.0596670" lon="11.1332103" />
      <trkpt lat="46.0596787" lon="11.1332099" />
      <trkpt lat="46.0596877" lon="11.1332025" />
      <trkpt lat="46.0596912" lon="11.1331860" />
      <trkpt lat="46.0596935" lon="11.1331703" />
      <trkpt lat="46.0597082" lon="11.1328151" />
      <trkpt lat="46.0597086" lon="11.1327871" />
      <trkpt lat="46.0597156" lon="11.1327439" />
      <trkpt lat="46.0597454" lon="11.1325969" />
      <trkpt lat="46.0597940" lon="11.1323996" />
      <trkpt lat="46.0598539" lon="11.1321752" />
      <trkpt lat="46.0599025" lon="11.1320092" />
      <trkpt lat="46.0599823" lon="11.1317988" />
      <trkpt lat="46.0600329" lon="11.1316672" />
      <trkpt lat="46.0600536" lon="11.1316457" />
      <trkpt lat="46.0600828" lon="11.1316788" />
      <trkpt lat="46.0601118" lon="11.1315933" />
      <trkpt lat="46.0601331" lon="11.1315313" />
      <trkpt lat="46.0601598" lon="11.1314874" />
      <trkpt lat="46.0602282" lon="11.1313988" />
      <trkpt lat="46.0605287" lon="11.1308969" />
      <trkpt lat="46.0605893" lon="11.1307965" />
      <trkpt lat="46.0607706" lon="11.1304938" />
      <trkpt lat="46.0608441" lon="11.1303702" />
      <trkpt lat="46.0608613" lon="11.1303377" />
      <trkpt lat="46.0609970" lon="11.1301334" />
      <trkpt lat="46.0610057" lon="11.1301194" />
      <trkpt lat="46.0610259" lon="11.1300787" />
      <trkpt lat="46.0610424" lon="11.1300545" />
      <trkpt lat="46.0611016" lon="11.1299632" />
      <trkpt lat="46.0612077" lon="11.1298023" />
      <trkpt lat="46.0612165" lon="11.1297888" />
      <trkpt lat="46.0616260" lon="11.1291989" />
      <trkpt lat="46.0616855" lon="11.1291085" />
      <trkpt lat="46.0617307" lon="11.1290432" />
      <trkpt lat="46.0617656" lon="11.1289925" />
      <trkpt lat="46.0620345" lon="11.1286015" />
      <trkpt lat="46.0621868" lon="11.1283752" />
      <trkpt lat="46.0622315" lon="11.1283417" />
      <trkpt lat="46.0622724" lon="11.1282722" />
      <trkpt lat="46.0624512" lon="11.1279835" />
      <trkpt lat="46.0625781" lon="11.1278127" />
      <trkpt lat="46.0627420" lon="11.1276271" />
      <trkpt lat="46.0629498" lon="11.1274281" />
      <trkpt lat="46.0629757" lon="11.1274870" />
      <trkpt lat="46.0630095" lon="11.1274609" />
      <trkpt lat="46.0630302" lon="11.1274548" />
      <trkpt lat="46.0630826" lon="11.1274160" />
      <trkpt lat="46.0631147" lon="11.1273922" />
      <trkpt lat="46.0631350" lon="11.1273812" />
      <trkpt lat="46.0631828" lon="11.1273634" />
      <trkpt lat="46.0632162" lon="11.1273455" />
      <trkpt lat="46.0632440" lon="11.1273260" />
      <trkpt lat="46.0632780" lon="11.1273019" />
      <trkpt lat="46.0633086" lon="11.1273001" />
      <trkpt lat="46.0633401" lon="11.1273160" />
      <trkpt lat="46.0633472" lon="11.1272918" />
      <trkpt lat="46.0633619" lon="11.1272414" />
      <trkpt lat="46.0633767" lon="11.1271905" />
      <trkpt lat="46.0633842" lon="11.1271649" />
      <trkpt lat="46.0638484" lon="11.1274271" />
      <trkpt lat="46.0638498" lon="11.1273627" />
      <trkpt lat="46.0638621" lon="11.1269919" />
      <trkpt lat="46.0638924" lon="11.1260067" />
      <trkpt lat="46.0639138" lon="11.1254909" />
      <trkpt lat="46.0646134" lon="11.1257510" />
      <trkpt lat="46.0646625" lon="11.1257693" />
      <trkpt lat="46.0648439" lon="11.1247453" />
      <trkpt lat="46.0648536" lon="11.1246620" />
      <trkpt lat="46.0648789" lon="11.1242760" />
      <trkpt lat="46.0648838" lon="11.1242128" />
      <trkpt lat="46.0649514" lon="11.1233356" />
      <trkpt lat="46.0649624" lon="11.1233329" />
      <trkpt lat="46.0651569" lon="11.1233035" />
      <trkpt lat="46.0651561" lon="11.1232838" />
      <trkpt lat="46.0651559" lon="11.1232583" />
      <trkpt lat="46.0651514" lon="11.1231779" />
      <trkpt lat="46.0651994" lon="11.1231586" />
      <trkpt lat="46.0652342" lon="11.1231340" />
      <trkpt lat="46.0653655" lon="11.1230951" />
      <trkpt lat="46.0654001" lon="11.1231014" />
      <trkpt lat="46.0655279" lon="11.1230558" />
      <trkpt lat="46.0657344" lon="11.1229534" />
      <trkpt lat="46.0660796" lon="11.1227720" />
      <trkpt lat="46.0662400" lon="11.1226907" />
      <trkpt lat="46.0662774" lon="11.1225941" />
      <trkpt lat="46.0663306" lon="11.1225479" />
      <trkpt lat="46.0663604" lon="11.1225220" />
      <trkpt lat="46.0665144" lon="11.1224055" />
      <trkpt lat="46.0665753" lon="11.1223823" />
      <trkpt lat="46.0667414" lon="11.1223091" />
      <trkpt lat="46.0667357" lon="11.1222747" />
      <trkpt lat="46.0667350" lon="11.1222603" />
      <trkpt lat="46.0667287" lon="11.1221612" />
      <trkpt lat="46.0667249" lon="11.1220591" />
      <trkpt lat="46.0667229" lon="11.1219913" />
      <trkpt lat="46.0667210" lon="11.1219626" />
      <trkpt lat="46.0667304" lon="11.1218751" />
      <trkpt lat="46.0667274" lon="11.1218448" />
      <trkpt lat="46.0666789" lon="11.1217092" />
      <trkpt lat="46.0666701" lon="11.1215352" />
      <trkpt lat="46.0667024" lon="11.1213629" />
      <trkpt lat="46.0667526" lon="11.1210542" />
      <trkpt lat="46.0667705" lon="11.1210629" />
      <trkpt lat="46.0668711" lon="11.1210492" />
    </trkseg>
  </trk>
</gpx>
