<?xml version="1.0" encoding="UTF-8"?>
<gpx xmlns="http://www.topografix.com/GPX/1/1" version="1.1" creator="ShapeRoute route-engine">
  <metadata>
    <name>heart 15 km · 2026-09-23</name>
    <author>
      <name>ShapeRoute route-engine</name>
    </author>
    <time>2026-09-23T05:02:22Z</time>
  </metadata>
  <trk>
    <name>heart 15 km · 2026-09-23</name>
    <trkseg>
      <trkpt lat="46.0668711" lon="11.1210492" />
      <trkpt lat="46.0667705" lon="11.1210629" />
      <trkpt lat="46.0667526" lon="11.1210542" />
      <trkpt lat="46.0667024" lon="11.1213629" />
      <trkpt lat="46.0666701" lon="11.1215352" />
      <trkpt lat="46.0666789" lon="11.1217092" />
      <trkpt lat="46.0667274" lon="11.1218448" />
      <trkpt lat="46.0667304" lon="11.1218751" />
      <trkpt lat="46.0667210" lon="11.1219626" />
      <trkpt lat="46.0667229" lon="11.1219913" />
      <trkpt lat="46.0667249" lon="11.1220591" />
      <trkpt lat="46.0667287" lon="11.1221612" />
      <trkpt lat="46.0667350" lon="11.1222603" />
      <trkpt lat="46.0667357" lon="11.1222747" />
      <trkpt lat="46.0667414" lon="11.1223091" />
      <trkpt lat="46.0667532" lon="11.1223909" />
      <trkpt lat="46.0667715" lon="11.1225101" />
      <trkpt lat="46.0667729" lon="11.1225194" />
      <trkpt lat="46.0667810" lon="11.1225726" />
      <trkpt lat="46.0668548" lon="11.1230552" />
      <trkpt lat="46.0668872" lon="11.1232848" />
      <trkpt lat="46.0668905" lon="11.1233334" />
      <trkpt lat="46.0668986" lon="11.1233290" />
      <trkpt lat="46.0669188" lon="11.1233181" />
      <trkpt lat="46.0669670" lon="11.1232923" />
      <trkpt lat="46.0672635" lon="11.1232024" />
      <trkpt lat="46.0672653" lon="11.1232368" />
      <trkpt lat="46.0672686" lon="11.1232351" />
      <trkpt lat="46.0672810" lon="11.1232291" />
      <trkpt lat="46.0672821" lon="11.1232581" />
      <trkpt lat="46.0672873" lon="11.1232576" />
      <trkpt lat="46.0673011" lon="11.1232564" />
      <trkpt lat="46.0673146" lon="11.1232553" />
      <trkpt lat="46.0673183" lon="11.1232550" />
      <trkpt lat="46.0673371" lon="11.1232534" />
      <trkpt lat="46.0674008" lon="11.1232483" />
      <trkpt lat="46.0674156" lon="11.1232472" />
      <trkpt lat="46.0676659" lon="11.1232331" />
      <trkpt lat="46.0677631" lon="11.1232283" />
      <trkpt lat="46.0678077" lon="11.1232267" />
      <trkpt lat="46.0678084" lon="11.1230699" />
      <trkpt lat="46.0678154" lon="11.1230007" />
      <trkpt lat="46.0679498" lon="11.1229741" />
      <trkpt lat="46.0681832" lon="11.1229244" />
      <trkpt lat="46.0682031" lon="11.1229202" />
      <trkpt lat="46.0682323" lon="11.1232256" />
      <trkpt lat="46.0682565" lon="11.1234891" />
      <trkpt lat="46.0682783" lon="11.1234658" />
      <trkpt lat="46.0685395" lon="11.1234315" />
      <trkpt lat="46.0687294" lon="11.1233985" />
      <trkpt lat="46.0688361" lon="11.1233813" />
      <trkpt lat="46.0690627" lon="11.1233576" />
      <trkpt lat="46.0690639" lon="11.1234329" />
      <trkpt lat="46.0690806" lon="11.1237071" />
      <trkpt lat="46.0691367" lon="11.1237035" />
      <trkpt lat="46.0692091" lon="11.1236989" />
      <trkpt lat="46.0692101" lon="11.1238436" />
      <trkpt lat="46.0693045" lon="11.1238408" />
      <trkpt lat="46.0695561" lon="11.1238358" />
      <trkpt lat="46.0695537" lon="11.1238750" />
      <trkpt lat="46.0695547" lon="11.1239629" />
      <trkpt lat="46.0693441" lon="11.1239657" />
      <trkpt lat="46.0693059" lon="11.1239659" />
      <trkpt lat="46.0691378" lon="11.1239665" />
      <trkpt lat="46.0691374" lon="11.1237729" />
      <trkpt lat="46.0691367" lon="11.1237035" />
      <trkpt lat="46.0690806" lon="11.1237071" />
      <trkpt lat="46.0690525" lon="11.1237112" />
      <trkpt lat="46.0688864" lon="11.1237325" />
      <trkpt lat="46.0682805" lon="11.1238337" />
      <trkpt lat="46.0682827" lon="11.1238602" />
      <trkpt lat="46.0682835" lon="11.1238873" />
      <trkpt lat="46.0683250" lon="11.1239053" />
      <trkpt lat="46.0683541" lon="11.1239478" />
      <trkpt lat="46.0683766" lon="11.1242292" />
      <trkpt lat="46.0683684" lon="11.1245203" />
      <trkpt lat="46.0683518" lon="11.1247826" />
      <trkpt lat="46.0683737" lon="11.1247791" />
      <trkpt lat="46.0684074" lon="11.1247738" />
      <trkpt lat="46.0686416" lon="11.1247367" />
      <trkpt lat="46.0689190" lon="11.1246745" />
      <trkpt lat="46.0690475" lon="11.1246554" />
      <trkpt lat="46.0691707" lon="11.1246269" />
      <trkpt lat="46.0691965" lon="11.1246012" />
      <trkpt lat="46.0692481" lon="11.1245332" />
      <trkpt lat="46.0694052" lon="11.1245238" />
      <trkpt lat="46.0695598" lon="11.1244935" />
      <trkpt lat="46.0700381" lon="11.1244249" />
      <trkpt lat="46.0700639" lon="11.1244390" />
      <trkpt lat="46.0700749" lon="11.1244576" />
      <trkpt lat="46.0700921" lon="11.1245372" />
      <trkpt lat="46.0701056" lon="11.1246991" />
      <trkpt lat="46.0701090" lon="11.1248579" />
      <trkpt lat="46.0701202" lon="11.1250443" />
      <trkpt lat="46.0701360" lon="11.1251878" />
      <trkpt lat="46.0701636" lon="11.1253748" />
      <trkpt lat="46.0701757" lon="11.1254398" />
      <trkpt lat="46.0701951" lon="11.1255251" />
      <trkpt lat="46.0703104" lon="11.1258937" />
      <trkpt lat="46.0703744" lon="11.1261142" />
      <trkpt lat="46.0704496" lon="11.1264614" />
      <trkpt lat="46.0704611" lon="11.1265307" />
      <trkpt lat="46.0704804" lon="11.1266564" />
      <trkpt lat="46.0705083" lon="11.1266443" />
      <trkpt lat="46.0705378" lon="11.1266280" />
      <trkpt lat="46.0705687" lon="11.1266685" />
      <trkpt lat="46.0705967" lon="11.1267698" />
      <trkpt lat="46.0706168" lon="11.1268395" />
      <trkpt lat="46.0706463" lon="11.1269426" />
      <trkpt lat="46.0706575" lon="11.1269811" />
      <trkpt lat="46.0707283" lon="11.1269408" />
      <trkpt lat="46.0707397" lon="11.1269815" />
      <trkpt lat="46.0707473" lon="11.1270088" />
      <trkpt lat="46.0708008" lon="11.1272006" />
      <trkpt lat="46.0708310" lon="11.1273090" />
      <trkpt lat="46.0708551" lon="11.1273949" />
      <trkpt lat="46.0707200" lon="11.1274690" />
      <trkpt lat="46.0705564" lon="11.1275589" />
      <trkpt lat="46.0705506" lon="11.1275580" />
      <trkpt lat="46.0705344" lon="11.1275585" />
      <trkpt lat="46.0700829" lon="11.1274439" />
      <trkpt lat="46.0700838" lon="11.1273345" />
      <trkpt lat="46.0701338" lon="11.1272889" />
      <trkpt lat="46.0701441" lon="11.1272813" />
      <trkpt lat="46.0701335" lon="11.1272571" />
      <trkpt lat="46.0701274" lon="11.1272407" />
      <trkpt lat="46.0700069" lon="11.1273936" />
      <trkpt lat="46.0699719" lon="11.1274335" />
      <trkpt lat="46.0699578" lon="11.1274338" />
      <trkpt lat="46.0699232" lon="11.1274344" />
      <trkpt lat="46.0699231" lon="11.1274466" />
      <trkpt lat="46.0699231" lon="11.1274554" />
      <trkpt lat="46.0699221" lon="11.1275173" />
      <trkpt lat="46.0699209" lon="11.1275983" />
      <trkpt lat="46.0699206" lon="11.1276259" />
      <trkpt lat="46.0699262" lon="11.1276890" />
      <trkpt lat="46.0699314" lon="11.1277523" />
      <trkpt lat="46.0699398" lon="11.1278053" />
      <trkpt lat="46.0699595" lon="11.1278391" />
      <trkpt lat="46.0699423" lon="11.1279639" />
      <trkpt lat="46.0699935" lon="11.1279812" />
      <trkpt lat="46.0700492" lon="11.1279925" />
      <trkpt lat="46.0700467" lon="11.1280819" />
      <trkpt lat="46.0700540" lon="11.1281059" />
      <trkpt lat="46.0700926" lon="11.1282337" />
      <trkpt lat="46.0701544" lon="11.1284147" />
      <trkpt lat="46.0701982" lon="11.1285050" />
      <trkpt lat="46.0702715" lon="11.1286032" />
      <trkpt lat="46.0703584" lon="11.1285810" />
      <trkpt lat="46.0704962" lon="11.1290391" />
      <trkpt lat="46.0706184" lon="11.1294365" />
      <trkpt lat="46.0706309" lon="11.1294774" />
      <trkpt lat="46.0706390" lon="11.1295035" />
      <trkpt lat="46.0706641" lon="11.1295856" />
      <trkpt lat="46.0707053" lon="11.1296377" />
      <trkpt lat="46.0713248" lon="11.1303620" />
      <trkpt lat="46.0713448" lon="11.1303846" />
      <trkpt lat="46.0715655" lon="11.1306134" />
      <trkpt lat="46.0714554" lon="11.1306923" />
      <trkpt lat="46.0714800" lon="11.1307652" />
      <trkpt lat="46.0715519" lon="11.1307148" />
      <trkpt lat="46.0715149" lon="11.1309888" />
      <trkpt lat="46.0715544" lon="11.1310345" />
      <trkpt lat="46.0715578" lon="11.1310635" />
      <trkpt lat="46.0715708" lon="11.1311038" />
      <trkpt lat="46.0715978" lon="11.1311574" />
      <trkpt lat="46.0716374" lon="11.1312149" />
      <trkpt lat="46.0717819" lon="11.1313280" />
      <trkpt lat="46.0718788" lon="11.1314021" />
      <trkpt lat="46.0719930" lon="11.1315096" />
      <trkpt lat="46.0720435" lon="11.1315664" />
      <trkpt lat="46.0720836" lon="11.1316390" />
      <trkpt lat="46.0721139" lon="11.1317196" />
      <trkpt lat="46.0721144" lon="11.1317686" />
      <trkpt lat="46.0721008" lon="11.1318201" />
      <trkpt lat="46.0720797" lon="11.1318641" />
      <trkpt lat="46.0720421" lon="11.1319164" />
      <trkpt lat="46.0719643" lon="11.1319913" />
      <trkpt lat="46.0719258" lon="11.1320398" />
      <trkpt lat="46.0719145" lon="11.1320862" />
      <trkpt lat="46.0719147" lon="11.1321316" />
      <trkpt lat="46.0719448" lon="11.1322604" />
      <trkpt lat="46.0719807" lon="11.1323818" />
      <trkpt lat="46.0720101" lon="11.1324277" />
      <trkpt lat="46.0719746" lon="11.1324988" />
      <trkpt lat="46.0719709" lon="11.1325213" />
      <trkpt lat="46.0719776" lon="11.1331362" />
      <trkpt lat="46.0719828" lon="11.1334470" />
      <trkpt lat="46.0719835" lon="11.1335398" />
      <trkpt lat="46.0719843" lon="11.1335966" />
      <trkpt lat="46.0715938" lon="11.1336994" />
      <trkpt lat="46.0714904" lon="11.1337297" />
      <trkpt lat="46.0712629" lon="11.1337943" />
      <trkpt lat="46.0712584" lon="11.1337956" />
      <trkpt lat="46.0709909" lon="11.1338182" />
      <trkpt lat="46.0709099" lon="11.1338289" />
      <trkpt lat="46.0707519" lon="11.1338460" />
      <trkpt lat="46.0707196" lon="11.1338490" />
      <trkpt lat="46.0707708" lon="11.1339881" />
      <trkpt lat="46.0708130" lon="11.1341216" />
      <trkpt lat="46.0708207" lon="11.1341930" />
      <trkpt lat="46.0708231" lon="11.1342690" />
      <trkpt lat="46.0708290" lon="11.1347986" />
      <trkpt lat="46.0708341" lon="11.1348351" />
      <trkpt lat="46.0708550" lon="11.1348788" />
      <trkpt lat="46.0708948" lon="11.1349245" />
      <trkpt lat="46.0709837" lon="11.1350352" />
      <trkpt lat="46.0710552" lon="11.1351316" />
      <trkpt lat="46.0711365" lon="11.1352796" />
      <trkpt lat="46.0710282" lon="11.1354218" />
      <trkpt lat="46.0710022" lon="11.1354809" />
      <trkpt lat="46.0709723" lon="11.1355488" />
      <trkpt lat="46.0709283" lon="11.1356937" />
      <trkpt lat="46.0709278" lon="11.1358668" />
      <trkpt lat="46.0709615" lon="11.1359821" />
      <trkpt lat="46.0710268" lon="11.1360779" />
      <trkpt lat="46.0711008" lon="11.1361519" />
      <trkpt lat="46.0712101" lon="11.1362043" />
      <trkpt lat="46.0713696" lon="11.1362658" />
      <trkpt lat="46.0715230" lon="11.1362552" />
      <trkpt lat="46.0716212" lon="11.1362493" />
      <trkpt lat="46.0716892" lon="11.1363300" />
      <trkpt lat="46.0717016" lon="11.1364402" />
      <trkpt lat="46.0716956" lon="11.1365394" />
      <trkpt lat="46.0715862" lon="11.1365663" />
      <trkpt lat="46.0711961" lon="11.1364608" />
      <trkpt lat="46.0711575" lon="11.1364492" />
      <trkpt lat="46.0711071" lon="11.1364341" />
      <trkpt lat="46.0706039" lon="11.1364254" />
      <trkpt lat="46.0705297" lon="11.1364286" />
      <trkpt lat="46.0703298" lon="11.1364896" />
      <trkpt lat="46.0702114" lon="11.1365416" />
      <trkpt lat="46.0701192" lon="11.1365820" />
      <trkpt lat="46.0700460" lon="11.1366541" />
      <trkpt lat="46.0699980" lon="11.1366063" />
      <trkpt lat="46.0699588" lon="11.1365763" />
      <trkpt lat="46.0699344" lon="11.1365686" />
      <trkpt lat="46.0698969" lon="11.1365557" />
      <trkpt lat="46.0696967" lon="11.1365079" />
      <trkpt lat="46.0695896" lon="11.1364866" />
      <trkpt lat="46.0693227" lon="11.1364305" />
      <trkpt lat="46.0691865" lon="11.1364066" />
      <trkpt lat="46.0691639" lon="11.1364021" />
      <trkpt lat="46.0691413" lon="11.1363726" />
      <trkpt lat="46.0690572" lon="11.1363348" />
      <trkpt lat="46.0690171" lon="11.1363270" />
      <trkpt lat="46.0689659" lon="11.1363171" />
      <trkpt lat="46.0688876" lon="11.1363178" />
      <trkpt lat="46.0688479" lon="11.1363352" />
      <trkpt lat="46.0688116" lon="11.1363757" />
      <trkpt lat="46.0687624" lon="11.1363655" />
      <trkpt lat="46.0686635" lon="11.1363451" />
      <trkpt lat="46.0685712" lon="11.1363270" />
      <trkpt lat="46.0683294" lon="11.1362797" />
      <trkpt lat="46.0681256" lon="11.1362399" />
      <trkpt lat="46.0681022" lon="11.1362353" />
      <trkpt lat="46.0679711" lon="11.1362164" />
      <trkpt lat="46.0677502" lon="11.1362150" />
      <trkpt lat="46.0673964" lon="11.1362654" />
      <trkpt lat="46.0668339" lon="11.1363302" />
      <trkpt lat="46.0666597" lon="11.1363567" />
      <trkpt lat="46.0665786" lon="11.1363592" />
      <trkpt lat="46.0665158" lon="11.1363369" />
      <trkpt lat="46.0665063" lon="11.1363960" />
      <trkpt lat="46.0664010" lon="11.1363412" />
      <trkpt lat="46.0663628" lon="11.1362939" />
      <trkpt lat="46.0663281" lon="11.1362580" />
      <trkpt lat="46.0663071" lon="11.1362447" />
      <trkpt lat="46.0662916" lon="11.1362363" />
      <trkpt lat="46.0659518" lon="11.1360367" />
      <trkpt lat="46.0657114" lon="11.1358023" />
      <trkpt lat="46.0655347" lon="11.1357705" />
      <trkpt lat="46.0654566" lon="11.1357405" />
      <trkpt lat="46.0653233" lon="11.1356535" />
      <trkpt lat="46.0652385" lon="11.1356027" />
      <trkpt lat="46.0651792" lon="11.1354971" />
      <trkpt lat="46.0651491" lon="11.1354441" />
      <trkpt lat="46.0651249" lon="11.1354976" />
      <trkpt lat="46.0649644" lon="11.1357256" />
      <trkpt lat="46.0649292" lon="11.1357846" />
      <trkpt lat="46.0649149" lon="11.1358081" />
      <trkpt lat="46.0647484" lon="11.1360380" />
      <trkpt lat="46.0647387" lon="11.1360504" />
      <trkpt lat="46.0647329" lon="11.1360399" />
      <trkpt lat="46.0643913" lon="11.1355207" />
      <trkpt lat="46.0643430" lon="11.1355222" />
      <trkpt lat="46.0643031" lon="11.1355235" />
      <trkpt lat="46.0642302" lon="11.1354115" />
      <trkpt lat="46.0641053" lon="11.1352279" />
      <trkpt lat="46.0640869" lon="11.1351979" />
      <trkpt lat="46.0636104" lon="11.1345006" />
      <trkpt lat="46.0635996" lon="11.1344920" />
      <trkpt lat="46.0635831" lon="11.1344688" />
      <trkpt lat="46.0632217" lon="11.1350092" />
      <trkpt lat="46.0631931" lon="11.1350282" />
      <trkpt lat="46.0631653" lon="11.1350261" />
      <trkpt lat="46.0629823" lon="11.1347616" />
      <trkpt lat="46.0629520" lon="11.1347179" />
      <trkpt lat="46.0627630" lon="11.1344324" />
      <trkpt lat="46.0624155" lon="11.1339336" />
      <trkpt lat="46.0622679" lon="11.1337218" />
      <trkpt lat="46.0622160" lon="11.1336476" />
      <trkpt lat="46.0619864" lon="11.1333197" />
      <trkpt lat="46.0619225" lon="11.1332358" />
      <trkpt lat="46.0618559" lon="11.1331433" />
      <trkpt lat="46.0617302" lon="11.1329667" />
      <trkpt lat="46.0616191" lon="11.1328106" />
      <trkpt lat="46.0613837" lon="11.1325307" />
      <trkpt lat="46.0611542" lon="11.1322911" />
      <trkpt lat="46.0610940" lon="11.1322238" />
      <trkpt lat="46.0610205" lon="11.1321407" />
      <trkpt lat="46.0608806" lon="11.1320052" />
      <trkpt lat="46.0608204" lon="11.1319610" />
      <trkpt lat="46.0607253" lon="11.1318912" />
      <trkpt lat="46.0606789" lon="11.1318580" />
      <trkpt lat="46.0606445" lon="11.1318341" />
      <trkpt lat="46.0603336" lon="11.1316717" />
      <trkpt lat="46.0602665" lon="11.1316114" />
      <trkpt lat="46.0602364" lon="11.1315926" />
      <trkpt lat="46.0601331" lon="11.1315313" />
      <trkpt lat="46.0600367" lon="11.1314940" />
      <trkpt lat="46.0597878" lon="11.1313660" />
      <trkpt lat="46.0595575" lon="11.1312424" />
      <trkpt lat="46.0594679" lon="11.1311943" />
      <trkpt lat="46.0594469" lon="11.1311830" />
      <trkpt lat="46.0590705" lon="11.1309840" />
      <trkpt lat="46.0588093" lon="11.1308421" />
      <trkpt lat="46.0584274" lon="11.1306345" />
      <trkpt lat="46.0583533" lon="11.1305912" />
      <trkpt lat="46.0583750" lon="11.1305034" />
      <trkpt lat="46.0586170" lon="11.1295928" />
      <trkpt lat="46.0585827" lon="11.1295743" />
      <trkpt lat="46.0585371" lon="11.1295494" />
      <trkpt lat="46.0584905" lon="11.1295320" />
      <trkpt lat="46.0583962" lon="11.1294834" />
      <trkpt lat="46.0583371" lon="11.1294462" />
      <trkpt lat="46.0582064" lon="11.1293306" />
      <trkpt lat="46.0581753" lon="11.1293031" />
      <trkpt lat="46.0580443" lon="11.1291843" />
      <trkpt lat="46.0579492" lon="11.1290857" />
      <trkpt lat="46.0577390" lon="11.1288192" />
      <trkpt lat="46.0577046" lon="11.1287822" />
      <trkpt lat="46.0578879" lon="11.1284808" />
      <trkpt lat="46.0578589" lon="11.1284396" />
      <trkpt lat="46.0579227" lon="11.1283331" />
      <trkpt lat="46.0579083" lon="11.1282984" />
      <trkpt lat="46.0578303" lon="11.1279805" />
      <trkpt lat="46.0578231" lon="11.1279518" />
      <trkpt lat="46.0578167" lon="11.1279235" />
      <trkpt lat="46.0580642" lon="11.1278020" />
      <trkpt lat="46.0580490" lon="11.1277391" />
      <trkpt lat="46.0580303" lon="11.1276570" />
      <trkpt lat="46.0579490" lon="11.1276980" />
      <trkpt lat="46.0579287" lon="11.1276489" />
      <trkpt lat="46.0578453" lon="11.1273253" />
      <trkpt lat="46.0578382" lon="11.1273078" />
      <trkpt lat="46.0578312" lon="11.1272971" />
      <trkpt lat="46.0578201" lon="11.1272872" />
      <trkpt lat="46.0576746" lon="11.1271576" />
      <trkpt lat="46.0571659" lon="11.1267046" />
      <trkpt lat="46.0571286" lon="11.1266750" />
      <trkpt lat="46.0570810" lon="11.1266339" />
      <trkpt lat="46.0570510" lon="11.1266071" />
      <trkpt lat="46.0570323" lon="11.1266495" />
      <trkpt lat="46.0569279" lon="11.1265562" />
      <trkpt lat="46.0567968" lon="11.1264400" />
      <trkpt lat="46.0567719" lon="11.1264179" />
      <trkpt lat="46.0565432" lon="11.1262103" />
      <trkpt lat="46.0564748" lon="11.1261490" />
      <trkpt lat="46.0563786" lon="11.1260609" />
      <trkpt lat="46.0562180" lon="11.1259136" />
      <trkpt lat="46.0561970" lon="11.1259421" />
      <trkpt lat="46.0559159" lon="11.1265027" />
      <trkpt lat="46.0557898" lon="11.1267969" />
      <trkpt lat="46.0557682" lon="11.1268159" />
      <trkpt lat="46.0557235" lon="11.1269139" />
      <trkpt lat="46.0556939" lon="11.1269170" />
      <trkpt lat="46.0556328" lon="11.1269196" />
      <trkpt lat="46.0555263" lon="11.1267828" />
      <trkpt lat="46.0554870" lon="11.1266405" />
      <trkpt lat="46.0554520" lon="11.1265437" />
      <trkpt lat="46.0553833" lon="11.1264077" />
      <trkpt lat="46.0552172" lon="11.1260994" />
      <trkpt lat="46.0551463" lon="11.1259137" />
      <trkpt lat="46.0550657" lon="11.1253995" />
      <trkpt lat="46.0550465" lon="11.1253238" />
      <trkpt lat="46.0549484" lon="11.1248430" />
      <trkpt lat="46.0548935" lon="11.1246587" />
      <trkpt lat="46.0547878" lon="11.1243878" />
      <trkpt lat="46.0546784" lon="11.1241151" />
      <trkpt lat="46.0545585" lon="11.1238530" />
      <trkpt lat="46.0543956" lon="11.1235183" />
      <trkpt lat="46.0543094" lon="11.1233485" />
      <trkpt lat="46.0542051" lon="11.1231369" />
      <trkpt lat="46.0541649" lon="11.1231008" />
      <trkpt lat="46.0541228" lon="11.1230209" />
      <trkpt lat="46.0541058" lon="11.1230279" />
      <trkpt lat="46.0540823" lon="11.1230396" />
      <trkpt lat="46.0540637" lon="11.1230532" />
      <trkpt lat="46.0540198" lon="11.1230010" />
      <trkpt lat="46.0539821" lon="11.1229536" />
      <trkpt lat="46.0539603" lon="11.1229174" />
      <trkpt lat="46.0539236" lon="11.1228860" />
      <trkpt lat="46.0538645" lon="11.1228306" />
      <trkpt lat="46.0538053" lon="11.1227679" />
      <trkpt lat="46.0535712" lon="11.1225220" />
      <trkpt lat="46.0534547" lon="11.1224028" />
      <trkpt lat="46.0533438" lon="11.1222898" />
      <trkpt lat="46.0532505" lon="11.1222005" />
      <trkpt lat="46.0532109" lon="11.1221654" />
      <trkpt lat="46.0530826" lon="11.1220516" />
      <trkpt lat="46.0529475" lon="11.1219335" />
      <trkpt lat="46.0528599" lon="11.1218647" />
      <trkpt lat="46.0527015" lon="11.1217529" />
      <trkpt lat="46.0526452" lon="11.1217322" />
      <trkpt lat="46.0526689" lon="11.1216645" />
      <trkpt lat="46.0526806" lon="11.1216301" />
      <trkpt lat="46.0527616" lon="11.1214065" />
      <trkpt lat="46.0527714" lon="11.1213796" />
      <trkpt lat="46.0527848" lon="11.1213421" />
      <trkpt lat="46.0528103" lon="11.1212554" />
      <trkpt lat="46.0528263" lon="11.1211766" />
      <trkpt lat="46.0528373" lon="11.1210849" />
      <trkpt lat="46.0528388" lon="11.1209198" />
      <trkpt lat="46.0528342" lon="11.1207970" />
      <trkpt lat="46.0528256" lon="11.1205494" />
      <trkpt lat="46.0528156" lon="11.1204424" />
      <trkpt lat="46.0528086" lon="11.1203455" />
      <trkpt lat="46.0527962" lon="11.1202378" />
      <trkpt lat="46.0528122" lon="11.1202332" />
      <trkpt lat="46.0528282" lon="11.1202286" />
      <trkpt lat="46.0528776" lon="11.1207704" />
      <trkpt lat="46.0530980" lon="11.1207509" />
      <trkpt lat="46.0531229" lon="11.1208020" />
      <trkpt lat="46.0531835" lon="11.1207936" />
      <trkpt lat="46.0533750" lon="11.1207566" />
      <trkpt lat="46.0536486" lon="11.1206856" />
      <trkpt lat="46.0538976" lon="11.1206253" />
      <trkpt lat="46.0541256" lon="11.1205645" />
      <trkpt lat="46.0542694" lon="11.1205304" />
      <trkpt lat="46.0544118" lon="11.1204953" />
      <trkpt lat="46.0545248" lon="11.1204675" />
      <trkpt lat="46.0546024" lon="11.1204073" />
      <trkpt lat="46.0546579" lon="11.1203963" />
      <trkpt lat="46.0546569" lon="11.1203787" />
      <trkpt lat="46.0546563" lon="11.1203578" />
      <trkpt lat="46.0546718" lon="11.1203538" />
      <trkpt lat="46.0547125" lon="11.1203444" />
      <trkpt lat="46.0547062" lon="11.1202879" />
      <trkpt lat="46.0546997" lon="11.1198566" />
      <trkpt lat="46.0547055" lon="11.1197270" />
      <trkpt lat="46.0547662" lon="11.1197310" />
      <trkpt lat="46.0548931" lon="11.1197332" />
      <trkpt lat="46.0549096" lon="11.1197531" />
      <trkpt lat="46.0549322" lon="11.1196788" />
      <trkpt lat="46.0549550" lon="11.1196366" />
      <trkpt lat="46.0550285" lon="11.1195897" />
      <trkpt lat="46.0551798" lon="11.1195537" />
      <trkpt lat="46.0551849" lon="11.1196507" />
      <trkpt lat="46.0551756" lon="11.1197405" />
      <trkpt lat="46.0551549" lon="11.1198057" />
      <trkpt lat="46.0550374" lon="11.1198324" />
      <trkpt lat="46.0549685" lon="11.1198257" />
      <trkpt lat="46.0549259" lon="11.1197988" />
      <trkpt lat="46.0549155" lon="11.1197761" />
      <trkpt lat="46.0549096" lon="11.1197531" />
      <trkpt lat="46.0548931" lon="11.1197332" />
      <trkpt lat="46.0547662" lon="11.1197310" />
      <trkpt lat="46.0547055" lon="11.1197270" />
      <trkpt lat="46.0547228" lon="11.1195245" />
      <trkpt lat="46.0547648" lon="11.1192248" />
      <trkpt lat="46.0548309" lon="11.1189276" />
      <trkpt lat="46.0548902" lon="11.1187155" />
      <trkpt lat="46.0549986" lon="11.1183959" />
      <trkpt lat="46.0550231" lon="11.1183306" />
      <trkpt lat="46.0550316" lon="11.1182977" />
      <trkpt lat="46.0550571" lon="11.1183023" />
      <trkpt lat="46.0551001" lon="11.1183263" />
      <trkpt lat="46.0551468" lon="11.1183677" />
      <trkpt lat="46.0552771" lon="11.1184276" />
      <trkpt lat="46.0553645" lon="11.1184544" />
      <trkpt lat="46.0554799" lon="11.1184754" />
      <trkpt lat="46.0554826" lon="11.1184206" />
      <trkpt lat="46.0554855" lon="11.1183550" />
      <trkpt lat="46.0555594" lon="11.1183586" />
      <trkpt lat="46.0555779" lon="11.1183563" />
      <trkpt lat="46.0556625" lon="11.1183456" />
      <trkpt lat="46.0557153" lon="11.1183376" />
      <trkpt lat="46.0557671" lon="11.1183289" />
      <trkpt lat="46.0558328" lon="11.1183179" />
      <trkpt lat="46.0559498" lon="11.1182934" />
      <trkpt lat="46.0559790" lon="11.1182872" />
      <trkpt lat="46.0561401" lon="11.1182498" />
      <trkpt lat="46.0563996" lon="11.1181895" />
      <trkpt lat="46.0565642" lon="11.1181488" />
      <trkpt lat="46.0565855" lon="11.1181443" />
      <trkpt lat="46.0566150" lon="11.1181380" />
      <trkpt lat="46.0566635" lon="11.1181278" />
      <trkpt lat="46.0568830" lon="11.1181211" />
      <trkpt lat="46.0569504" lon="11.1181238" />
      <trkpt lat="46.0569877" lon="11.1181278" />
      <trkpt lat="46.0570167" lon="11.1181309" />
      <trkpt lat="46.0570388" lon="11.1181332" />
      <trkpt lat="46.0573208" lon="11.1182222" />
      <trkpt lat="46.0573578" lon="11.1182219" />
      <trkpt lat="46.0573949" lon="11.1182153" />
      <trkpt lat="46.0574264" lon="11.1181914" />
      <trkpt lat="46.0574521" lon="11.1181562" />
      <trkpt lat="46.0574822" lon="11.1180704" />
      <trkpt lat="46.0574928" lon="11.1180134" />
      <trkpt lat="46.0575070" lon="11.1179163" />
      <trkpt lat="46.0575138" lon="11.1178290" />
      <trkpt lat="46.0575070" lon="11.1177555" />
      <trkpt lat="46.0574699" lon="11.1174758" />
      <trkpt lat="46.0574610" lon="11.1174088" />
      <trkpt lat="46.0573161" lon="11.1163155" />
      <trkpt lat="46.0572914" lon="11.1161286" />
      <trkpt lat="46.0572817" lon="11.1160970" />
      <trkpt lat="46.0572519" lon="11.1160740" />
      <trkpt lat="46.0572305" lon="11.1160775" />
      <trkpt lat="46.0572289" lon="11.1160278" />
      <trkpt lat="46.0572246" lon="11.1159758" />
      <trkpt lat="46.0572450" lon="11.1159689" />
      <trkpt lat="46.0572696" lon="11.1159161" />
      <trkpt lat="46.0571982" lon="11.1153312" />
      <trkpt lat="46.0572360" lon="11.1153223" />
      <trkpt lat="46.0572834" lon="11.1153113" />
      <trkpt lat="46.0572807" lon="11.1152652" />
      <trkpt lat="46.0572862" lon="11.1152365" />
      <trkpt lat="46.0573002" lon="11.1152056" />
      <trkpt lat="46.0573142" lon="11.1151938" />
      <trkpt lat="46.0573628" lon="11.1151863" />
      <trkpt lat="46.0574084" lon="11.1151807" />
      <trkpt lat="46.0574124" lon="11.1152374" />
      <trkpt lat="46.0582241" lon="11.1151208" />
      <trkpt lat="46.0583221" lon="11.1151063" />
      <trkpt lat="46.0583790" lon="11.1150491" />
      <trkpt lat="46.0584373" lon="11.1150024" />
      <trkpt lat="46.0585353" lon="11.1149430" />
      <trkpt lat="46.0587620" lon="11.1149087" />
      <trkpt lat="46.0587594" lon="11.1148608" />
      <trkpt lat="46.0591061" lon="11.1148199" />
      <trkpt lat="46.0591472" lon="11.1148142" />
      <trkpt lat="46.0591393" lon="11.1144647" />
      <trkpt lat="46.0591340" lon="11.1140740" />
      <trkpt lat="46.0591315" lon="11.1139340" />
      <trkpt lat="46.0591207" lon="11.1135315" />
      <trkpt lat="46.0592298" lon="11.1135164" />
      <trkpt lat="46.0593995" lon="11.1134879" />
      <trkpt lat="46.0595687" lon="11.1134622" />
      <trkpt lat="46.0595129" lon="11.1127099" />
      <trkpt lat="46.0595011" lon="11.1125259" />
      <trkpt lat="46.0594860" lon="11.1122524" />
      <trkpt lat="46.0594812" lon="11.1121658" />
      <trkpt lat="46.0594804" lon="11.1121372" />
      <trkpt lat="46.0593801" lon="11.1106811" />
      <trkpt lat="46.0593786" lon="11.1106518" />
      <trkpt lat="46.0600307" lon="11.1107022" />
      <trkpt lat="46.0606705" lon="11.1107908" />
      <trkpt lat="46.0611232" lon="11.1108706" />
      <trkpt lat="46.0614099" lon="11.1109141" />
      <trkpt lat="46.0616625" lon="11.1109625" />
      <trkpt lat="46.0618733" lon="11.1109959" />
      <trkpt lat="46.0619551" lon="11.1109905" />
      <trkpt lat="46.0620459" lon="11.1109974" />
      <trkpt lat="46.0623999" lon="11.1110614" />
      <trkpt lat="46.0625659" lon="11.1110885" />
      <trkpt lat="46.0627373" lon="11.1111248" />
      <trkpt lat="46.0632642" lon="11.1112501" />
      <trkpt lat="46.0637341" lon="11.1113826" />
      <trkpt lat="46.0645481" lon="11.1116363" />
      <trkpt lat="46.0650129" lon="11.1118153" />
      <trkpt lat="46.0654497" lon="11.1120193" />
      <trkpt lat="46.0657475" lon="11.1121655" />
      <trkpt lat="46.0659448" lon="11.1122803" />
      <trkpt lat="46.0660642" lon="11.1123444" />
      <trkpt lat="46.0665617" lon="11.1125893" />
      <trkpt lat="46.0669326" lon="11.1127701" />
      <trkpt lat="46.0673455" lon="11.1129810" />
      <trkpt lat="46.0673536" lon="11.1129461" />
      <trkpt lat="46.0673664" lon="11.1128912" />
      <trkpt lat="46.0671655" lon="11.1127930" />
      <trkpt lat="46.0666378" lon="11.1125382" />
      <trkpt lat="46.0664459" lon="11.1124424" />
      <trkpt lat="46.0663458" lon="11.1123873" />
      <trkpt lat="46.0662549" lon="11.1123373" />
      <trkpt lat="46.0661341" lon="11.1122726" />
      <trkpt lat="46.0659473" lon="11.1121444" />
      <trkpt lat="46.0657686" lon="11.1120135" />
      <trkpt lat="46.0657321" lon="11.1119834" />
      <trkpt lat="46.0656970" lon="11.1119553" />
      <trkpt lat="46.0656552" lon="11.1119128" />
      <trkpt lat="46.0656202" lon="11.1118561" />
      <trkpt lat="46.0656037" lon="11.1117864" />
      <trkpt lat="46.0655801" lon="11.1117341" />
      <trkpt lat="46.0655393" lon="11.1116720" />
      <trkpt lat="46.0655000" lon="11.1116278" />
      <trkpt lat="46.0654648" lon="11.1116150" />
      <trkpt lat="46.0654318" lon="11.1115931" />
      <trkpt lat="46.0653928" lon="11.1115505" />
      <trkpt lat="46.0653709" lon="11.1115147" />
      <trkpt lat="46.0653528" lon="11.1114716" />
      <trkpt lat="46.0653361" lon="11.1113995" />
      <trkpt lat="46.0653331" lon="11.1113240" />
      <trkpt lat="46.0653438" lon="11.1112506" />
      <trkpt lat="46.0653673" lon="11.1111841" />
      <trkpt lat="46.0653976" lon="11.1111341" />
      <trkpt lat="46.0653258" lon="11.1111755" />
      <trkpt lat="46.0652612" lon="11.1111935" />
      <trkpt lat="46.0649784" lon="11.1112274" />
      <trkpt lat="46.0647897" lon="11.1112308" />
      <trkpt lat="46.0646034" lon="11.1112188" />
      <trkpt lat="46.0643149" lon="11.1111878" />
      <trkpt lat="46.0642962" lon="11.1111445" />
      <trkpt lat="46.0644807" lon="11.1111581" />
      <trkpt lat="46.0647909" lon="11.1111826" />
      <trkpt lat="46.0649342" lon="11.1111878" />
      <trkpt lat="46.0651361" lon="11.1111671" />
      <trkpt lat="46.0652710" lon="11.1111482" />
      <trkpt lat="46.0653307" lon="11.1111241" />
      <trkpt lat="46.0653857" lon="11.1110759" />
      <trkpt lat="46.0654418" lon="11.1110346" />
      <trkpt lat="46.0655027" lon="11.1110157" />
      <trkpt lat="46.0655648" lon="11.1110157" />
      <trkpt lat="46.0656150" lon="11.1110329" />
      <trkpt lat="46.0656754" lon="11.1110658" />
      <trkpt lat="46.0657413" lon="11.1110758" />
      <trkpt lat="46.0657429" lon="11.1111127" />
      <trkpt lat="46.0657447" lon="11.1111602" />
      <trkpt lat="46.0657646" lon="11.1111987" />
      <trkpt lat="46.0657815" lon="11.1112705" />
      <trkpt lat="46.0657918" lon="11.1113967" />
      <trkpt lat="46.0657665" lon="11.1114730" />
      <trkpt lat="46.0657581" lon="11.1115083" />
      <trkpt lat="46.0657461" lon="11.1115452" />
      <trkpt lat="46.0657183" lon="11.1115943" />
      <trkpt lat="46.0656985" lon="11.1116224" />
      <trkpt lat="46.0656701" lon="11.1116567" />
      <trkpt lat="46.0656557" lon="11.1117010" />
      <trkpt lat="46.0656524" lon="11.1117582" />
      <trkpt lat="46.0656714" lon="11.1118334" />
      <trkpt lat="46.0657154" lon="11.1118816" />
      <trkpt lat="46.0657602" lon="11.1119164" />
      <trkpt lat="46.0659507" lon="11.1120658" />
      <trkpt lat="46.0660737" lon="11.1121478" />
      <trkpt lat="46.0661497" lon="11.1122121" />
      <trkpt lat="46.0661341" lon="11.1122726" />
      <trkpt lat="46.0662549" lon="11.1123373" />
      <trkpt lat="46.0663458" lon="11.1123873" />
      <trkpt lat="46.0664355" lon="11.1123727" />
      <trkpt lat="46.0664783" lon="11.1123687" />
      <trkpt lat="46.0665127" lon="11.1123673" />
      <trkpt lat="46.0665583" lon="11.1123780" />
      <trkpt lat="46.0666151" lon="11.1124008" />
      <trkpt lat="46.0667323" lon="11.1124585" />
      <trkpt lat="46.0673091" lon="11.1127388" />
      <trkpt lat="46.0673965" lon="11.1127666" />
      <trkpt lat="46.0677509" lon="11.1129466" />
      <trkpt lat="46.0684938" lon="11.1133206" />
      <trkpt lat="46.0685773" lon="11.1133602" />
      <trkpt lat="46.0686258" lon="11.1133829" />
      <trkpt lat="46.0688523" lon="11.1134865" />
      <trkpt lat="46.0688583" lon="11.1134553" />
      <trkpt lat="46.0688616" lon="11.1134384" />
      <trkpt lat="46.0689402" lon="11.1134705" />
      <trkpt lat="46.0691420" lon="11.1135756" />
      <trkpt lat="46.0691549" lon="11.1135817" />
      <trkpt lat="46.0693165" lon="11.1136571" />
      <trkpt lat="46.0693839" lon="11.1136877" />
      <trkpt lat="46.0698971" lon="11.1138947" />
      <trkpt lat="46.0699068" lon="11.1138839" />
      <trkpt lat="46.0699847" lon="11.1137969" />
      <trkpt lat="46.0700069" lon="11.1137728" />
      <trkpt lat="46.0700424" lon="11.1137402" />
      <trkpt lat="46.0700647" lon="11.1137245" />
      <trkpt lat="46.0702578" lon="11.1136080" />
      <trkpt lat="46.0703578" lon="11.1135531" />
      <trkpt lat="46.0703913" lon="11.1135338" />
      <trkpt lat="46.0704501" lon="11.1135005" />
      <trkpt lat="46.0704730" lon="11.1134880" />
      <trkpt lat="46.0704990" lon="11.1134751" />
      <trkpt lat="46.0706116" lon="11.1134177" />
      <trkpt lat="46.0707114" lon="11.1133647" />
      <trkpt lat="46.0707246" lon="11.1133446" />
      <trkpt lat="46.0707789" lon="11.1132401" />
      <trkpt lat="46.0708070" lon="11.1131605" />
      <trkpt lat="46.0708180" lon="11.1130716" />
      <trkpt lat="46.0708255" lon="11.1129959" />
      <trkpt lat="46.0708128" lon="11.1129679" />
      <trkpt lat="46.0708090" lon="11.1129404" />
      <trkpt lat="46.0708027" lon="11.1129052" />
      <trkpt lat="46.0707340" lon="11.1126350" />
      <trkpt lat="46.0707258" lon="11.1126025" />
      <trkpt lat="46.0706417" lon="11.1123099" />
      <trkpt lat="46.0705718" lon="11.1120551" />
      <trkpt lat="46.0705292" lon="11.1118991" />
      <trkpt lat="46.0705169" lon="11.1118466" />
      <trkpt lat="46.0705047" lon="11.1117917" />
      <trkpt lat="46.0704958" lon="11.1117395" />
      <trkpt lat="46.0705106" lon="11.1117214" />
      <trkpt lat="46.0705136" lon="11.1116151" />
      <trkpt lat="46.0705187" lon="11.1114760" />
      <trkpt lat="46.0705257" lon="11.1113296" />
      <trkpt lat="46.0705361" lon="11.1111626" />
      <trkpt lat="46.0705413" lon="11.1111003" />
      <trkpt lat="46.0705787" lon="11.1108167" />
      <trkpt lat="46.0705938" lon="11.1107384" />
      <trkpt lat="46.0706014" lon="11.1107079" />
      <trkpt lat="46.0706453" lon="11.1105284" />
      <trkpt lat="46.0706665" lon="11.1104467" />
      <trkpt lat="46.0707018" lon="11.1103180" />
      <trkpt lat="46.0707497" lon="11.1101838" />
      <trkpt lat="46.0708316" lon="11.1099613" />
      <trkpt lat="46.0708554" lon="11.1099003" />
      <trkpt lat="46.0708693" lon="11.1098647" />
      <trkpt lat="46.0709205" lon="11.1097366" />
      <trkpt lat="46.0710196" lon="11.1095462" />
      <trkpt lat="46.0710705" lon="11.1094582" />
      <trkpt lat="46.0710546" lon="11.1094317" />
      <trkpt lat="46.0711536" lon="11.1092756" />
      <trkpt lat="46.0713090" lon="11.1089748" />
      <trkpt lat="46.0713877" lon="11.1084257" />
      <trkpt lat="46.0714543" lon="11.1083203" />
      <trkpt lat="46.0714827" lon="11.1082763" />
      <trkpt lat="46.0715019" lon="11.1082646" />
      <trkpt lat="46.0715190" lon="11.1082666" />
      <trkpt lat="46.0715446" lon="11.1082793" />
      <trkpt lat="46.0715589" lon="11.1082860" />
      <trkpt lat="46.0715782" lon="11.1082920" />
      <trkpt lat="46.0716002" lon="11.1082846" />
      <trkpt lat="46.0716436" lon="11.1082496" />
      <trkpt lat="46.0718613" lon="11.1079758" />
      <trkpt lat="46.0720748" lon="11.1077531" />
      <trkpt lat="46.0720873" lon="11.1077336" />
      <trkpt lat="46.0720982" lon="11.1077067" />
      <trkpt lat="46.0721171" lon="11.1076376" />
      <trkpt lat="46.0721249" lon="11.1076155" />
      <trkpt lat="46.0721388" lon="11.1075918" />
      <trkpt lat="46.0721555" lon="11.1075667" />
      <trkpt lat="46.0721972" lon="11.1075152" />
      <trkpt lat="46.0722417" lon="11.1074623" />
      <trkpt lat="46.0722843" lon="11.1074068" />
      <trkpt lat="46.0723358" lon="11.1073203" />
      <trkpt lat="46.0723799" lon="11.1072337" />
      <trkpt lat="46.0724149" lon="11.1071537" />
      <trkpt lat="46.0724425" lon="11.1070683" />
      <trkpt lat="46.0724468" lon="11.1070359" />
      <trkpt lat="46.0724492" lon="11.1070009" />
      <trkpt lat="46.0724490" lon="11.1069671" />
      <trkpt lat="46.0724488" lon="11.1069223" />
      <trkpt lat="46.0724508" lon="11.1068510" />
      <trkpt lat="46.0724569" lon="11.1067669" />
      <trkpt lat="46.0724705" lon="11.1066936" />
      <trkpt lat="46.0724889" lon="11.1066444" />
      <trkpt lat="46.0726588" lon="11.1064327" />
      <trkpt lat="46.0728710" lon="11.1061878" />
      <trkpt lat="46.0729673" lon="11.1061017" />
      <trkpt lat="46.0729870" lon="11.1060840" />
      <trkpt lat="46.0729984" lon="11.1060699" />
      <trkpt lat="46.0730079" lon="11.1060518" />
      <trkpt lat="46.0730138" lon="11.1060302" />
      <trkpt lat="46.0730147" lon="11.1060053" />
      <trkpt lat="46.0729853" lon="11.1058462" />
      <trkpt lat="46.0729843" lon="11.1058347" />
      <trkpt lat="46.0729852" lon="11.1058253" />
      <trkpt lat="46.0729880" lon="11.1058165" />
      <trkpt lat="46.0729925" lon="11.1058067" />
      <trkpt lat="46.0730011" lon="11.1057973" />
      <trkpt lat="46.0730114" lon="11.1057895" />
      <trkpt lat="46.0731562" lon="11.1057281" />
      <trkpt lat="46.0731662" lon="11.1057190" />
      <trkpt lat="46.0731736" lon="11.1057055" />
      <trkpt lat="46.0731798" lon="11.1056924" />
      <trkpt lat="46.0731883" lon="11.1056751" />
      <trkpt lat="46.0732016" lon="11.1056510" />
      <trkpt lat="46.0732475" lon="11.1055948" />
      <trkpt lat="46.0732582" lon="11.1055860" />
      <trkpt lat="46.0732700" lon="11.1055829" />
      <trkpt lat="46.0732897" lon="11.1055779" />
      <trkpt lat="46.0733173" lon="11.1055729" />
      <trkpt lat="46.0733546" lon="11.1055749" />
      <trkpt lat="46.0733780" lon="11.1055867" />
      <trkpt lat="46.0734030" lon="11.1055081" />
      <trkpt lat="46.0733756" lon="11.1055039" />
      <trkpt lat="46.0733551" lon="11.1055019" />
      <trkpt lat="46.0732163" lon="11.1055082" />
      <trkpt lat="46.0732021" lon="11.1055067" />
      <trkpt lat="46.0731860" lon="11.1055039" />
      <trkpt lat="46.0731631" lon="11.1054990" />
      <trkpt lat="46.0731436" lon="11.1055008" />
      <trkpt lat="46.0730665" lon="11.1055186" />
      <trkpt lat="46.0729591" lon="11.1055567" />
      <trkpt lat="46.0728648" lon="11.1056031" />
      <trkpt lat="46.0727759" lon="11.1056658" />
      <trkpt lat="46.0726814" lon="11.1057606" />
      <trkpt lat="46.0724810" lon="11.1060040" />
      <trkpt lat="46.0722893" lon="11.1062431" />
      <trkpt lat="46.0722320" lon="11.1062946" />
      <trkpt lat="46.0721887" lon="11.1063259" />
      <trkpt lat="46.0721134" lon="11.1063618" />
      <trkpt lat="46.0720068" lon="11.1064030" />
      <trkpt lat="46.0718550" lon="11.1064816" />
      <trkpt lat="46.0716749" lon="11.1066140" />
      <trkpt lat="46.0715860" lon="11.1067126" />
      <trkpt lat="46.0714814" lon="11.1068834" />
      <trkpt lat="46.0713812" lon="11.1070307" />
      <trkpt lat="46.0713099" lon="11.1071258" />
      <trkpt lat="46.0711960" lon="11.1072143" />
      <trkpt lat="46.0711537" lon="11.1072441" />
      <trkpt lat="46.0711289" lon="11.1072599" />
      <trkpt lat="46.0711111" lon="11.1072710" />
      <trkpt lat="46.0710934" lon="11.1072680" />
      <trkpt lat="46.0710770" lon="11.1072479" />
      <trkpt lat="46.0710690" lon="11.1072037" />
      <trkpt lat="46.0710615" lon="11.1071404" />
      <trkpt lat="46.0710658" lon="11.1069633" />
      <trkpt lat="46.0710817" lon="11.1067605" />
      <trkpt lat="46.0710883" lon="11.1066279" />
      <trkpt lat="46.0710837" lon="11.1065577" />
      <trkpt lat="46.0710809" lon="11.1064921" />
      <trkpt lat="46.0710684" lon="11.1064607" />
      <trkpt lat="46.0710494" lon="11.1064437" />
      <trkpt lat="46.0710283" lon="11.1064457" />
      <trkpt lat="46.0710111" lon="11.1064552" />
      <trkpt lat="46.0709871" lon="11.1064903" />
      <trkpt lat="46.0709263" lon="11.1066278" />
      <trkpt lat="46.0708036" lon="11.1069156" />
      <trkpt lat="46.0707602" lon="11.1069849" />
      <trkpt lat="46.0707164" lon="11.1070232" />
      <trkpt lat="46.0706614" lon="11.1070494" />
      <trkpt lat="46.0705938" lon="11.1070578" />
      <trkpt lat="46.0704786" lon="11.1070412" />
      <trkpt lat="46.0704616" lon="11.1070376" />
      <trkpt lat="46.0703531" lon="11.1070145" />
      <trkpt lat="46.0701850" lon="11.1069673" />
      <trkpt lat="46.0700588" lon="11.1069583" />
      <trkpt lat="46.0699614" lon="11.1069641" />
      <trkpt lat="46.0698625" lon="11.1069881" />
      <trkpt lat="46.0697499" lon="11.1070222" />
      <trkpt lat="46.0695976" lon="11.1070935" />
      <trkpt lat="46.0693760" lon="11.1071472" />
      <trkpt lat="46.0693400" lon="11.1071582" />
      <trkpt lat="46.0693068" lon="11.1071693" />
      <trkpt lat="46.0692312" lon="11.1072155" />
      <trkpt lat="46.0691696" lon="11.1072500" />
      <trkpt lat="46.0690932" lon="11.1072988" />
      <trkpt lat="46.0690168" lon="11.1073557" />
      <trkpt lat="46.0688622" lon="11.1075004" />
      <trkpt lat="46.0688082" lon="11.1075421" />
      <trkpt lat="46.0687738" lon="11.1075589" />
      <trkpt lat="46.0687394" lon="11.1075677" />
      <trkpt lat="46.0686934" lon="11.1075740" />
      <trkpt lat="46.0686447" lon="11.1075803" />
      <trkpt lat="46.0686015" lon="11.1075826" />
      <trkpt lat="46.0685564" lon="11.1076171" />
      <trkpt lat="46.0683340" lon="11.1077897" />
      <trkpt lat="46.0681898" lon="11.1079003" />
      <trkpt lat="46.0680576" lon="11.1080076" />
      <trkpt lat="46.0679474" lon="11.1081745" />
      <trkpt lat="46.0678320" lon="11.1083489" />
      <trkpt lat="46.0677172" lon="11.1085587" />
      <trkpt lat="46.0677088" lon="11.1084682" />
      <trkpt lat="46.0677040" lon="11.1083817" />
      <trkpt lat="46.0677226" lon="11.1080867" />
      <trkpt lat="46.0676833" lon="11.1077262" />
      <trkpt lat="46.0676507" lon="11.1076130" />
      <trkpt lat="46.0676106" lon="11.1075266" />
      <trkpt lat="46.0675304" lon="11.1074342" />
      <trkpt lat="46.0674187" lon="11.1073895" />
      <trkpt lat="46.0671934" lon="11.1073686" />
      <trkpt lat="46.0670404" lon="11.1073716" />
      <trkpt lat="46.0667365" lon="11.1073597" />
      <trkpt lat="46.0663913" lon="11.1073507" />
      <trkpt lat="46.0661246" lon="11.1073448" />
      <trkpt lat="46.0659261" lon="11.1072822" />
      <trkpt lat="46.0656698" lon="11.1072166" />
      <trkpt lat="46.0654511" lon="11.1071956" />
      <trkpt lat="46.0653496" lon="11.1072176" />
      <trkpt lat="46.0652969" lon="11.1072581" />
      <trkpt lat="46.0652553" lon="11.1073330" />
      <trkpt lat="46.0652492" lon="11.1073743" />
      <trkpt lat="46.0651560" lon="11.1073400" />
      <trkpt lat="46.0651542" lon="11.1072649" />
      <trkpt lat="46.0651300" lon="11.1071737" />
      <trkpt lat="46.0650658" lon="11.1069434" />
      <trkpt lat="46.0650285" lon="11.1068116" />
      <trkpt lat="46.0650043" lon="11.1067016" />
      <trkpt lat="46.0649560" lon="11.1065085" />
      <trkpt lat="46.0649392" lon="11.1064066" />
      <trkpt lat="46.0649337" lon="11.1063506" />
      <trkpt lat="46.0649523" lon="11.1062943" />
      <trkpt lat="46.0649821" lon="11.1062621" />
      <trkpt lat="46.0650249" lon="11.1062379" />
      <trkpt lat="46.0650770" lon="11.1062165" />
      <trkpt lat="46.0651142" lon="11.1061951" />
      <trkpt lat="46.0652036" lon="11.1061843" />
      <trkpt lat="46.0652854" lon="11.1061977" />
      <trkpt lat="46.0655274" lon="11.1062674" />
      <trkpt lat="46.0657507" lon="11.1063184" />
      <trkpt lat="46.0663816" lon="11.1063265" />
      <trkpt lat="46.0665900" lon="11.1063291" />
      <trkpt lat="46.0666458" lon="11.1063291" />
      <trkpt lat="46.0667724" lon="11.1062969" />
      <trkpt lat="46.0668394" lon="11.1063050" />
      <trkpt lat="46.0669064" lon="11.1063479" />
      <trkpt lat="46.0669715" lon="11.1063855" />
      <trkpt lat="46.0670720" lon="11.1064176" />
      <trkpt lat="46.0672153" lon="11.1064176" />
      <trkpt lat="46.0673307" lon="11.1064042" />
      <trkpt lat="46.0674498" lon="11.1063640" />
      <trkpt lat="46.0675614" lon="11.1062996" />
      <trkpt lat="46.0676787" lon="11.1062379" />
      <trkpt lat="46.0677922" lon="11.1061950" />
      <trkpt lat="46.0678722" lon="11.1061816" />
      <trkpt lat="46.0679597" lon="11.1061682" />
      <trkpt lat="46.0680322" lon="11.1061682" />
      <trkpt lat="46.0681365" lon="11.1061441" />
      <trkpt lat="46.0682649" lon="11.1060931" />
      <trkpt lat="46.0683691" lon="11.1060448" />
      <trkpt lat="46.0684286" lon="11.1059939" />
      <trkpt lat="46.0684770" lon="11.1059831" />
      <trkpt lat="46.0685124" lon="11.1059939" />
      <trkpt lat="46.0685626" lon="11.1060368" />
      <trkpt lat="46.0686203" lon="11.1060716" />
      <trkpt lat="46.0687224" lon="11.1061567" />
      <trkpt lat="46.0686694" lon="11.1061956" />
      <trkpt lat="46.0684760" lon="11.1063648" />
      <trkpt lat="46.0683645" lon="11.1065071" />
      <trkpt lat="46.0683067" lon="11.1066073" />
      <trkpt lat="46.0682040" lon="11.1069284" />
      <trkpt lat="46.0681470" lon="11.1070863" />
      <trkpt lat="46.0681195" lon="11.1072104" />
      <trkpt lat="46.0681148" lon="11.1072581" />
      <trkpt lat="46.0681183" lon="11.1073154" />
      <trkpt lat="46.0681310" lon="11.1073754" />
      <trkpt lat="46.0681553" lon="11.1074176" />
      <trkpt lat="46.0681917" lon="11.1074463" />
      <trkpt lat="46.0682120" lon="11.1074616" />
      <trkpt lat="46.0682329" lon="11.1074716" />
      <trkpt lat="46.0682524" lon="11.1074809" />
      <trkpt lat="46.0682737" lon="11.1074876" />
      <trkpt lat="46.0683283" lon="11.1074975" />
      <trkpt lat="46.0683847" lon="11.1075034" />
      <trkpt lat="46.0684967" lon="11.1075124" />
      <trkpt lat="46.0685256" lon="11.1075181" />
      <trkpt lat="46.0685535" lon="11.1075311" />
      <trkpt lat="46.0686015" lon="11.1075826" />
      <trkpt lat="46.0686447" lon="11.1075803" />
      <trkpt lat="46.0686934" lon="11.1075740" />
      <trkpt lat="46.0687394" lon="11.1075677" />
      <trkpt lat="46.0687738" lon="11.1075589" />
      <trkpt lat="46.0688082" lon="11.1075421" />
      <trkpt lat="46.0688622" lon="11.1075004" />
      <trkpt lat="46.0690168" lon="11.1073557" />
      <trkpt lat="46.0690932" lon="11.1072988" />
      <trkpt lat="46.0691696" lon="11.1072500" />
      <trkpt lat="46.0692312" lon="11.1072155" />
      <trkpt lat="46.0693068" lon="11.1071693" />
      <trkpt lat="46.0693400" lon="11.1071582" />
      <trkpt lat="46.0693760" lon="11.1071472" />
      <trkpt lat="46.0695976" lon="11.1070935" />
      <trkpt lat="46.0697499" lon="11.1070222" />
      <trkpt lat="46.0698625" lon="11.1069881" />
      <trkpt lat="46.0699614" lon="11.1069641" />
      <trkpt lat="46.0700588" lon="11.1069583" />
      <trkpt lat="46.0701850" lon="11.1069673" />
      <trkpt lat="46.0703531" lon="11.1070145" />
      <trkpt lat="46.0704616" lon="11.1070376" />
      <trkpt lat="46.0704786" lon="11.1070412" />
      <trkpt lat="46.0705938" lon="11.1070578" />
      <trkpt lat="46.0706614" lon="11.1070494" />
      <trkpt lat="46.0707164" lon="11.1070232" />
      <trkpt lat="46.0707602" lon="11.1069849" />
      <trkpt lat="46.0708036" lon="11.1069156" />
      <trkpt lat="46.0709263" lon="11.1066278" />
      <trkpt lat="46.0709871" lon="11.1064903" />
      <trkpt lat="46.0710111" lon="11.1064552" />
      <trkpt lat="46.0710283" lon="11.1064457" />
      <trkpt lat="46.0710494" lon="11.1064437" />
      <trkpt lat="46.0710684" lon="11.1064607" />
      <trkpt lat="46.0710809" lon="11.1064921" />
      <trkpt lat="46.0710837" lon="11.1065577" />
      <trkpt lat="46.0710883" lon="11.1066279" />
      <trkpt lat="46.0710817" lon="11.1067605" />
      <trkpt lat="46.0710658" lon="11.1069633" />
      <trkpt lat="46.0710615" lon="11.1071404" />
      <trkpt lat="46.0710690" lon="11.1072037" />
      <trkpt lat="46.0710770" lon="11.1072479" />
      <trkpt lat="46.0710934" lon="11.1072680" />
      <trkpt lat="46.0711111" lon="11.1072710" />
      <trkpt lat="46.0711289" lon="11.1072599" />
      <trkpt lat="46.0711537" lon="11.1072441" />
      <trkpt lat="46.0711960" lon="11.1072143" />
      <trkpt lat="46.0713099" lon="11.1071258" />
      <trkpt lat="46.0713812" lon="11.1070307" />
      <trkpt lat="46.0714814" lon="11.1068834" />
      <trkpt lat="46.0715860" lon="11.1067126" />
      <trkpt lat="46.0716749" lon="11.1066140" />
      <trkpt lat="46.0718550" lon="11.1064816" />
      <trkpt lat="46.0720068" lon="11.1064030" />
      <trkpt lat="46.0721134" lon="11.1063618" />
      <trkpt lat="46.0721887" lon="11.1063259" />
      <trkpt lat="46.0722320" lon="11.1062946" />
      <trkpt lat="46.0722893" lon="11.1062431" />
      <trkpt lat="46.0724810" lon="11.1060040" />
      <trkpt lat="46.0726814" lon="11.1057606" />
      <trkpt lat="46.0727759" lon="11.1056658" />
      <trkpt lat="46.0728648" lon="11.1056031" />
      <trkpt lat="46.0729591" lon="11.1055567" />
      <trkpt lat="46.0730665" lon="11.1055186" />
      <trkpt lat="46.0731436" lon="11.1055008" />
      <trkpt lat="46.0731631" lon="11.1054990" />
      <trkpt lat="46.0731860" lon="11.1055039" />
      <trkpt lat="46.0732021" lon="11.1055067" />
      <trkpt lat="46.0732163" lon="11.1055082" />
      <trkpt lat="46.0733551" lon="11.1055019" />
      <trkpt lat="46.0733756" lon="11.1055039" />
      <trkpt lat="46.0734030" lon="11.1055081" />
      <trkpt lat="46.0733780" lon="11.1055867" />
      <trkpt lat="46.0733083" lon="11.1058057" />
      <trkpt lat="46.0732529" lon="11.1059914" />
      <trkpt lat="46.0732200" lon="11.1060497" />
      <trkpt lat="46.0731749" lon="11.1061013" />
      <trkpt lat="46.0730228" lon="11.1062328" />
      <trkpt lat="46.0729383" lon="11.1063107" />
      <trkpt lat="46.0728539" lon="11.1063993" />
      <trkpt lat="46.0728000" lon="11.1064839" />
      <trkpt lat="46.0727777" lon="11.1065370" />
      <trkpt lat="46.0727592" lon="11.1065954" />
      <trkpt lat="46.0727248" lon="11.1067023" />
      <trkpt lat="46.0727016" lon="11.1068147" />
      <trkpt lat="46.0726664" lon="11.1070611" />
      <trkpt lat="46.0726430" lon="11.1071846" />
      <trkpt lat="46.0726278" lon="11.1072317" />
      <trkpt lat="46.0726076" lon="11.1072787" />
      <trkpt lat="46.0725875" lon="11.1073177" />
      <trkpt lat="46.0725572" lon="11.1073568" />
      <trkpt lat="46.0721237" lon="11.1078214" />
      <trkpt lat="46.0718427" lon="11.1081567" />
      <trkpt lat="46.0716956" lon="11.1083682" />
      <trkpt lat="46.0714759" lon="11.1087687" />
      <trkpt lat="46.0714398" lon="11.1088371" />
      <trkpt lat="46.0713762" lon="11.1089573" />
      <trkpt lat="46.0710922" lon="11.1094943" />
      <trkpt lat="46.0710472" lon="11.1095792" />
      <trkpt lat="46.0709758" lon="11.1097204" />
      <trkpt lat="46.0708898" lon="11.1099156" />
      <trkpt lat="46.0708699" lon="11.1099676" />
      <trkpt lat="46.0708044" lon="11.1101298" />
      <trkpt lat="46.0707208" lon="11.1103771" />
      <trkpt lat="46.0706692" lon="11.1105778" />
      <trkpt lat="46.0706562" lon="11.1106262" />
      <trkpt lat="46.0706362" lon="11.1107149" />
      <trkpt lat="46.0706282" lon="11.1107785" />
      <trkpt lat="46.0705792" lon="11.1111217" />
      <trkpt lat="46.0705413" lon="11.1111003" />
      <trkpt lat="46.0705361" lon="11.1111626" />
      <trkpt lat="46.0705257" lon="11.1113296" />
      <trkpt lat="46.0705187" lon="11.1114760" />
      <trkpt lat="46.0705136" lon="11.1116151" />
      <trkpt lat="46.0705106" lon="11.1117214" />
      <trkpt lat="46.0704958" lon="11.1117395" />
      <trkpt lat="46.0705047" lon="11.1117917" />
      <trkpt lat="46.0705169" lon="11.1118466" />
      <trkpt lat="46.0705292" lon="11.1118991" />
      <trkpt lat="46.0706025" lon="11.1118700" />
      <trkpt lat="46.0706390" lon="11.1118595" />
      <trkpt lat="46.0706788" lon="11.1120416" />
      <trkpt lat="46.0707116" lon="11.1121405" />
      <trkpt lat="46.0707388" lon="11.1122047" />
      <trkpt lat="46.0708272" lon="11.1124134" />
      <trkpt lat="46.0708645" lon="11.1125010" />
      <trkpt lat="46.0708906" lon="11.1125624" />
      <trkpt lat="46.0709759" lon="11.1127520" />
      <trkpt lat="46.0710044" lon="11.1128120" />
      <trkpt lat="46.0711426" lon="11.1130964" />
      <trkpt lat="46.0711659" lon="11.1131444" />
      <trkpt lat="46.0711916" lon="11.1131957" />
      <trkpt lat="46.0712260" lon="11.1132822" />
      <trkpt lat="46.0712590" lon="11.1133721" />
      <trkpt lat="46.0712858" lon="11.1134671" />
      <trkpt lat="46.0713211" lon="11.1136075" />
      <trkpt lat="46.0713250" lon="11.1136230" />
      <trkpt lat="46.0713294" lon="11.1136394" />
      <trkpt lat="46.0713398" lon="11.1136831" />
      <trkpt lat="46.0713254" lon="11.1136882" />
      <trkpt lat="46.0713602" lon="11.1138424" />
      <trkpt lat="46.0713938" lon="11.1138528" />
      <trkpt lat="46.0713979" lon="11.1138918" />
      <trkpt lat="46.0714095" lon="11.1139887" />
      <trkpt lat="46.0714292" lon="11.1140880" />
      <trkpt lat="46.0715524" lon="11.1145972" />
      <trkpt lat="46.0716461" lon="11.1150144" />
      <trkpt lat="46.0716005" lon="11.1150685" />
      <trkpt lat="46.0715565" lon="11.1151446" />
      <trkpt lat="46.0716777" lon="11.1151800" />
      <trkpt lat="46.0716701" lon="11.1152371" />
      <trkpt lat="46.0715462" lon="11.1151968" />
      <trkpt lat="46.0714778" lon="11.1151767" />
      <trkpt lat="46.0714751" lon="11.1151881" />
      <trkpt lat="46.0714713" lon="11.1152069" />
      <trkpt lat="46.0712489" lon="11.1150973" />
      <trkpt lat="46.0711800" lon="11.1150634" />
      <trkpt lat="46.0711622" lon="11.1150542" />
      <trkpt lat="46.0709446" lon="11.1149414" />
      <trkpt lat="46.0708185" lon="11.1148581" />
      <trkpt lat="46.0707959" lon="11.1148434" />
      <trkpt lat="46.0708009" lon="11.1148281" />
      <trkpt lat="46.0708045" lon="11.1148160" />
      <trkpt lat="46.0707833" lon="11.1147994" />
      <trkpt lat="46.0705116" lon="11.1145755" />
      <trkpt lat="46.0704564" lon="11.1145311" />
      <trkpt lat="46.0703770" lon="11.1144800" />
      <trkpt lat="46.0703535" lon="11.1144784" />
      <trkpt lat="46.0703420" lon="11.1144768" />
      <trkpt lat="46.0703300" lon="11.1144739" />
      <trkpt lat="46.0703250" lon="11.1144890" />
      <trkpt lat="46.0699886" lon="11.1157401" />
      <trkpt lat="46.0699948" lon="11.1157680" />
      <trkpt lat="46.0700117" lon="11.1157886" />
      <trkpt lat="46.0700662" lon="11.1158228" />
      <trkpt lat="46.0700586" lon="11.1159035" />
      <trkpt lat="46.0700453" lon="11.1160451" />
      <trkpt lat="46.0700459" lon="11.1161000" />
      <trkpt lat="46.0700146" lon="11.1161265" />
      <trkpt lat="46.0700032" lon="11.1161537" />
      <trkpt lat="46.0700003" lon="11.1162009" />
      <trkpt lat="46.0700091" lon="11.1162886" />
      <trkpt lat="46.0700203" lon="11.1163341" />
      <trkpt lat="46.0699884" lon="11.1163713" />
      <trkpt lat="46.0699495" lon="11.1164167" />
      <trkpt lat="46.0700000" lon="11.1164941" />
      <trkpt lat="46.0700236" lon="11.1165374" />
      <trkpt lat="46.0700680" lon="11.1166069" />
      <trkpt lat="46.0701165" lon="11.1166890" />
      <trkpt lat="46.0701363" lon="11.1167225" />
      <trkpt lat="46.0701743" lon="11.1167917" />
      <trkpt lat="46.0702123" lon="11.1168786" />
      <trkpt lat="46.0702292" lon="11.1169470" />
      <trkpt lat="46.0702367" lon="11.1170213" />
      <trkpt lat="46.0702287" lon="11.1171541" />
      <trkpt lat="46.0702169" lon="11.1171918" />
      <trkpt lat="46.0701805" lon="11.1173050" />
      <trkpt lat="46.0700861" lon="11.1176034" />
      <trkpt lat="46.0700527" lon="11.1177069" />
      <trkpt lat="46.0700431" lon="11.1177476" />
      <trkpt lat="46.0700369" lon="11.1177882" />
      <trkpt lat="46.0700305" lon="11.1178362" />
      <trkpt lat="46.0700294" lon="11.1178856" />
      <trkpt lat="46.0700269" lon="11.1179061" />
      <trkpt lat="46.0699908" lon="11.1179414" />
      <trkpt lat="46.0699871" lon="11.1179668" />
      <trkpt lat="46.0699905" lon="11.1180483" />
      <trkpt lat="46.0700084" lon="11.1181540" />
      <trkpt lat="46.0699803" lon="11.1181633" />
      <trkpt lat="46.0699644" lon="11.1181025" />
      <trkpt lat="46.0699602" lon="11.1180863" />
      <trkpt lat="46.0698926" lon="11.1180856" />
      <trkpt lat="46.0698565" lon="11.1180693" />
      <trkpt lat="46.0698227" lon="11.1180755" />
      <trkpt lat="46.0698226" lon="11.1181539" />
      <trkpt lat="46.0698295" lon="11.1182314" />
      <trkpt lat="46.0698110" lon="11.1182381" />
      <trkpt lat="46.0697546" lon="11.1182695" />
      <trkpt lat="46.0696180" lon="11.1183567" />
      <trkpt lat="46.0696374" lon="11.1184169" />
      <trkpt lat="46.0696258" lon="11.1184346" />
      <trkpt lat="46.0696142" lon="11.1184596" />
      <trkpt lat="46.0696082" lon="11.1184989" />
      <trkpt lat="46.0696063" lon="11.1185267" />
      <trkpt lat="46.0696086" lon="11.1185638" />
      <trkpt lat="46.0696099" lon="11.1185848" />
      <trkpt lat="46.0696197" lon="11.1187227" />
      <trkpt lat="46.0696191" lon="11.1187510" />
      <trkpt lat="46.0696189" lon="11.1187623" />
      <trkpt lat="46.0696052" lon="11.1192349" />
      <trkpt lat="46.0696024" lon="11.1192604" />
      <trkpt lat="46.0695759" lon="11.1192602" />
      <trkpt lat="46.0695663" lon="11.1193364" />
      <trkpt lat="46.0695538" lon="11.1194352" />
      <trkpt lat="46.0695229" lon="11.1197302" />
      <trkpt lat="46.0695220" lon="11.1198116" />
      <trkpt lat="46.0694763" lon="11.1198434" />
      <trkpt lat="46.0693982" lon="11.1198734" />
      <trkpt lat="46.0692352" lon="11.1199271" />
      <trkpt lat="46.0691667" lon="11.1199367" />
      <trkpt lat="46.0691086" lon="11.1199380" />
      <trkpt lat="46.0690484" lon="11.1199429" />
      <trkpt lat="46.0689900" lon="11.1199487" />
      <trkpt lat="46.0688928" lon="11.1199633" />
      <trkpt lat="46.0688785" lon="11.1199652" />
      <trkpt lat="46.0688503" lon="11.1199666" />
      <trkpt lat="46.0688097" lon="11.1199685" />
      <trkpt lat="46.0687784" lon="11.1199700" />
      <trkpt lat="46.0687688" lon="11.1199699" />
      <trkpt lat="46.0687055" lon="11.1199855" />
      <trkpt lat="46.0686285" lon="11.1199921" />
      <trkpt lat="46.0685273" lon="11.1200042" />
      <trkpt lat="46.0684776" lon="11.1200039" />
      <trkpt lat="46.0684504" lon="11.1200865" />
      <trkpt lat="46.0683846" lon="11.1201435" />
      <trkpt lat="46.0682945" lon="11.1202664" />
      <trkpt lat="46.0681669" lon="11.1204445" />
      <trkpt lat="46.0681018" lon="11.1205393" />
      <trkpt lat="46.0679032" lon="11.1207116" />
      <trkpt lat="46.0678457" lon="11.1207672" />
      <trkpt lat="46.0678148" lon="11.1207864" />
      <trkpt lat="46.0677393" lon="11.1208327" />
      <trkpt lat="46.0676386" lon="11.1208917" />
      <trkpt lat="46.0675759" lon="11.1209222" />
      <trkpt lat="46.0674358" lon="11.1209903" />
      <trkpt lat="46.0673165" lon="11.1210193" />
      <trkpt lat="46.0670745" lon="11.1210291" />
      <trkpt lat="46.0670730" lon="11.1209842" />
      <trkpt lat="46.0670637" lon="11.1207156" />
      <trkpt lat="46.0670289" lon="11.1205458" />
      <trkpt lat="46.0668249" lon="11.1206182" />
      <trkpt lat="46.0668711" lon="11.1210492" />
    </trkseg>
  </trk>
</gpx>
