<?xml version="1.0" encoding="UTF-8"?>
<gpx xmlns="http://www.topografix.com/GPX/1/1" version="1.1" creator="ShapeRoute route-engine">
  <metadata>
    <name>donut 15 km · 2026-10-05</name>
    <author>
      <name>ShapeRoute route-engine</name>
    </author>
    <copyright author="OpenStreetMap contributors">
      <license>https://opendatacommons.org/licenses/odbl/1-0/</license>
    </copyright>
    <link href="https://www.openstreetmap.org/copyright">
      <text>© OpenStreetMap contributors</text>
    </link>
    <time>2026-10-05T11:55:45Z</time>
  </metadata>
  <wpt lat="46.0512771" lon="11.1354471">
    <name>Pause</name>
  </wpt>
  <wpt lat="46.0502197" lon="11.1329521">
    <name>Resume</name>
  </wpt>
  <wpt lat="46.0664006" lon="11.1289477">
    <name>Pause</name>
  </wpt>
  <wpt lat="46.0606122" lon="11.1272765">
    <name>Resume</name>
  </wpt>
  <wpt lat="46.0543956" lon="11.1235183">
    <name>Pause</name>
  </wpt>
  <wpt lat="46.0550325" lon="11.1231434">
    <name>Resume</name>
  </wpt>
  <trk>
    <name>donut 15 km · 2026-10-05</name>
    <trkseg>
      <trkpt lat="46.0664006" lon="11.1289477" />
      <trkpt lat="46.0664215" lon="11.1288729" />
      <trkpt lat="46.0664625" lon="11.1288956" />
      <trkpt lat="46.0668494" lon="11.1291127" />
      <trkpt lat="46.0668274" lon="11.1291887" />
      <trkpt lat="46.0668188" lon="11.1292183" />
      <trkpt lat="46.0668142" lon="11.1292747" />
      <trkpt lat="46.0667026" lon="11.1295738" />
      <trkpt lat="46.0666394" lon="11.1295965" />
      <trkpt lat="46.0664346" lon="11.1298206" />
      <trkpt lat="46.0662088" lon="11.1302350" />
      <trkpt lat="46.0661606" lon="11.1302929" />
      <trkpt lat="46.0660435" lon="11.1304337" />
      <trkpt lat="46.0659796" lon="11.1305289" />
      <trkpt lat="46.0658513" lon="11.1307203" />
      <trkpt lat="46.0657613" lon="11.1308662" />
      <trkpt lat="46.0656871" lon="11.1310347" />
      <trkpt lat="46.0655740" lon="11.1313366" />
      <trkpt lat="46.0654649" lon="11.1314763" />
      <trkpt lat="46.0654405" lon="11.1315074" />
      <trkpt lat="46.0653469" lon="11.1316538" />
      <trkpt lat="46.0653327" lon="11.1317337" />
      <trkpt lat="46.0653207" lon="11.1317899" />
      <trkpt lat="46.0652484" lon="11.1319978" />
      <trkpt lat="46.0652426" lon="11.1320148" />
      <trkpt lat="46.0651576" lon="11.1322635" />
      <trkpt lat="46.0651460" lon="11.1323122" />
      <trkpt lat="46.0650883" lon="11.1325540" />
      <trkpt lat="46.0650723" lon="11.1326963" />
      <trkpt lat="46.0650257" lon="11.1330043" />
      <trkpt lat="46.0649877" lon="11.1332559" />
      <trkpt lat="46.0649854" lon="11.1334981" />
      <trkpt lat="46.0649989" lon="11.1337148" />
      <trkpt lat="46.0649644" lon="11.1337159" />
      <trkpt lat="46.0647790" lon="11.1336853" />
      <trkpt lat="46.0647298" lon="11.1336763" />
      <trkpt lat="46.0647356" lon="11.1337309" />
      <trkpt lat="46.0645068" lon="11.1336580" />
      <trkpt lat="46.0644190" lon="11.1336144" />
      <trkpt lat="46.0644123" lon="11.1336305" />
      <trkpt lat="46.0644188" lon="11.1336395" />
      <trkpt lat="46.0644548" lon="11.1336712" />
      <trkpt lat="46.0644972" lon="11.1337084" />
      <trkpt lat="46.0645540" lon="11.1337317" />
      <trkpt lat="46.0646162" lon="11.1337512" />
      <trkpt lat="46.0647207" lon="11.1337725" />
      <trkpt lat="46.0647735" lon="11.1337899" />
      <trkpt lat="46.0647915" lon="11.1338006" />
      <trkpt lat="46.0648815" lon="11.1338440" />
      <trkpt lat="46.0649573" lon="11.1338573" />
      <trkpt lat="46.0649928" lon="11.1338613" />
      <trkpt lat="46.0650787" lon="11.1345968" />
      <trkpt lat="46.0650863" lon="11.1347048" />
      <trkpt lat="46.0651259" lon="11.1346992" />
      <trkpt lat="46.0651491" lon="11.1354441" />
      <trkpt lat="46.0651249" lon="11.1354976" />
      <trkpt lat="46.0649644" lon="11.1357256" />
      <trkpt lat="46.0649292" lon="11.1357846" />
      <trkpt lat="46.0649227" lon="11.1357751" />
      <trkpt lat="46.0649073" lon="11.1357966" />
      <trkpt lat="46.0647416" lon="11.1360277" />
      <trkpt lat="46.0647329" lon="11.1360399" />
      <trkpt lat="46.0643913" lon="11.1355207" />
      <trkpt lat="46.0643430" lon="11.1355222" />
      <trkpt lat="46.0643031" lon="11.1355235" />
      <trkpt lat="46.0642302" lon="11.1354115" />
      <trkpt lat="46.0641053" lon="11.1352279" />
      <trkpt lat="46.0640869" lon="11.1351979" />
      <trkpt lat="46.0636104" lon="11.1345006" />
      <trkpt lat="46.0635996" lon="11.1344920" />
      <trkpt lat="46.0635831" lon="11.1344688" />
      <trkpt lat="46.0632217" lon="11.1350092" />
      <trkpt lat="46.0631931" lon="11.1350282" />
      <trkpt lat="46.0631653" lon="11.1350261" />
      <trkpt lat="46.0629823" lon="11.1347616" />
      <trkpt lat="46.0629520" lon="11.1347179" />
      <trkpt lat="46.0629316" lon="11.1347486" />
      <trkpt lat="46.0627621" lon="11.1345177" />
      <trkpt lat="46.0627322" lon="11.1344744" />
      <trkpt lat="46.0625081" lon="11.1348081" />
      <trkpt lat="46.0624754" lon="11.1348748" />
      <trkpt lat="46.0623180" lon="11.1354315" />
      <trkpt lat="46.0623145" lon="11.1354420" />
      <trkpt lat="46.0623069" lon="11.1354787" />
      <trkpt lat="46.0623809" lon="11.1355288" />
      <trkpt lat="46.0625085" lon="11.1356185" />
      <trkpt lat="46.0626167" lon="11.1357201" />
      <trkpt lat="46.0627726" lon="11.1359084" />
      <trkpt lat="46.0628263" lon="11.1359907" />
      <trkpt lat="46.0628409" lon="11.1360504" />
      <trkpt lat="46.0628455" lon="11.1361100" />
      <trkpt lat="46.0628337" lon="11.1361739" />
      <trkpt lat="46.0628010" lon="11.1362314" />
      <trkpt lat="46.0626655" lon="11.1363408" />
      <trkpt lat="46.0621472" lon="11.1367110" />
      <trkpt lat="46.0620774" lon="11.1367518" />
      <trkpt lat="46.0620108" lon="11.1367840" />
      <trkpt lat="46.0619651" lon="11.1368052" />
      <trkpt lat="46.0619203" lon="11.1368269" />
      <trkpt lat="46.0618985" lon="11.1368357" />
      <trkpt lat="46.0618627" lon="11.1368455" />
      <trkpt lat="46.0618089" lon="11.1368701" />
      <trkpt lat="46.0617786" lon="11.1368905" />
      <trkpt lat="46.0617682" lon="11.1368963" />
      <trkpt lat="46.0617253" lon="11.1369144" />
      <trkpt lat="46.0616005" lon="11.1369625" />
      <trkpt lat="46.0615403" lon="11.1369863" />
      <trkpt lat="46.0615290" lon="11.1369905" />
      <trkpt lat="46.0613574" lon="11.1370576" />
      <trkpt lat="46.0612307" lon="11.1371853" />
      <trkpt lat="46.0611738" lon="11.1372161" />
      <trkpt lat="46.0609712" lon="11.1373131" />
      <trkpt lat="46.0608002" lon="11.1374043" />
      <trkpt lat="46.0604626" lon="11.1375336" />
      <trkpt lat="46.0604100" lon="11.1375609" />
      <trkpt lat="46.0603984" lon="11.1375821" />
      <trkpt lat="46.0603942" lon="11.1376034" />
      <trkpt lat="46.0603436" lon="11.1376869" />
      <trkpt lat="46.0602890" lon="11.1379101" />
      <trkpt lat="46.0605306" lon="11.1381591" />
      <trkpt lat="46.0607935" lon="11.1380727" />
      <trkpt lat="46.0608906" lon="11.1380227" />
      <trkpt lat="46.0608952" lon="11.1381229" />
      <trkpt lat="46.0607369" lon="11.1382324" />
      <trkpt lat="46.0606145" lon="11.1382739" />
      <trkpt lat="46.0605754" lon="11.1382871" />
      <trkpt lat="46.0604235" lon="11.1383328" />
      <trkpt lat="46.0602715" lon="11.1384195" />
      <trkpt lat="46.0602050" lon="11.1384560" />
      <trkpt lat="46.0601005" lon="11.1384377" />
      <trkpt lat="46.0599676" lon="11.1383921" />
      <trkpt lat="46.0595928" lon="11.1380522" />
      <trkpt lat="46.0594564" lon="11.1379254" />
      <trkpt lat="46.0592231" lon="11.1378223" />
      <trkpt lat="46.0591153" lon="11.1378001" />
      <trkpt lat="46.0589703" lon="11.1378355" />
      <trkpt lat="46.0588770" lon="11.1378790" />
      <trkpt lat="46.0588595" lon="11.1378871" />
      <trkpt lat="46.0586639" lon="11.1380152" />
      <trkpt lat="46.0584846" lon="11.1381366" />
      <trkpt lat="46.0583143" lon="11.1382999" />
      <trkpt lat="46.0580246" lon="11.1386369" />
      <trkpt lat="46.0578197" lon="11.1387354" />
      <trkpt lat="46.0577060" lon="11.1387946" />
      <trkpt lat="46.0576391" lon="11.1386461" />
      <trkpt lat="46.0575775" lon="11.1386515" />
      <trkpt lat="46.0574991" lon="11.1386340" />
      <trkpt lat="46.0574366" lon="11.1385762" />
      <trkpt lat="46.0573843" lon="11.1385654" />
      <trkpt lat="46.0573536" lon="11.1386256" />
      <trkpt lat="46.0573322" lon="11.1386397" />
      <trkpt lat="46.0572244" lon="11.1386255" />
      <trkpt lat="46.0571517" lon="11.1385982" />
      <trkpt lat="46.0570462" lon="11.1385631" />
      <trkpt lat="46.0569792" lon="11.1385531" />
      <trkpt lat="46.0569446" lon="11.1385577" />
      <trkpt lat="46.0568925" lon="11.1386845" />
      <trkpt lat="46.0568674" lon="11.1387336" />
      <trkpt lat="46.0567259" lon="11.1387537" />
      <trkpt lat="46.0566424" lon="11.1386969" />
      <trkpt lat="46.0565475" lon="11.1386370" />
      <trkpt lat="46.0566436" lon="11.1387888" />
      <trkpt lat="46.0567268" lon="11.1390276" />
      <trkpt lat="46.0567281" lon="11.1391139" />
      <trkpt lat="46.0566905" lon="11.1391929" />
      <trkpt lat="46.0566647" lon="11.1391783" />
      <trkpt lat="46.0566400" lon="11.1391944" />
      <trkpt lat="46.0565719" lon="11.1392036" />
      <trkpt lat="46.0564683" lon="11.1391608" />
      <trkpt lat="46.0563717" lon="11.1391180" />
      <trkpt lat="46.0562751" lon="11.1391189" />
      <trkpt lat="46.0562245" lon="11.1391508" />
      <trkpt lat="46.0561564" lon="11.1391575" />
      <trkpt lat="46.0560988" lon="11.1391508" />
      <trkpt lat="46.0560685" lon="11.1391700" />
      <trkpt lat="46.0560639" lon="11.1392044" />
      <trkpt lat="46.0561046" lon="11.1392984" />
      <trkpt lat="46.0561704" lon="11.1394065" />
      <trkpt lat="46.0562309" lon="11.1394577" />
      <trkpt lat="46.0562641" lon="11.1394636" />
      <trkpt lat="46.0562914" lon="11.1394460" />
      <trkpt lat="46.0563281" lon="11.1393671" />
      <trkpt lat="46.0563444" lon="11.1393411" />
      <trkpt lat="46.0563834" lon="11.1393466" />
      <trkpt lat="46.0564176" lon="11.1393745" />
      <trkpt lat="46.0564078" lon="11.1394203" />
      <trkpt lat="46.0563095" lon="11.1395365" />
      <trkpt lat="46.0561697" lon="11.1395884" />
      <trkpt lat="46.0561293" lon="11.1395602" />
      <trkpt lat="46.0560359" lon="11.1394704" />
      <trkpt lat="46.0559406" lon="11.1393455" />
      <trkpt lat="46.0559107" lon="11.1392108" />
      <trkpt lat="46.0559034" lon="11.1390876" />
      <trkpt lat="46.0558814" lon="11.1390260" />
      <trkpt lat="46.0558490" lon="11.1390137" />
      <trkpt lat="46.0557012" lon="11.1390735" />
      <trkpt lat="46.0556005" lon="11.1390243" />
      <trkpt lat="46.0553173" lon="11.1388763" />
      <trkpt lat="46.0550934" lon="11.1387506" />
      <trkpt lat="46.0549315" lon="11.1386703" />
      <trkpt lat="46.0548694" lon="11.1385703" />
      <trkpt lat="46.0548402" lon="11.1386448" />
      <trkpt lat="46.0548166" lon="11.1386900" />
      <trkpt lat="46.0547865" lon="11.1386721" />
      <trkpt lat="46.0547727" lon="11.1386888" />
      <trkpt lat="46.0546040" lon="11.1384793" />
      <trkpt lat="46.0544660" lon="11.1382853" />
      <trkpt lat="46.0543864" lon="11.1381726" />
      <trkpt lat="46.0542750" lon="11.1380800" />
      <trkpt lat="46.0541044" lon="11.1379238" />
      <trkpt lat="46.0540300" lon="11.1376691" />
      <trkpt lat="46.0539741" lon="11.1376798" />
      <trkpt lat="46.0530670" lon="11.1373619" />
      <trkpt lat="46.0529759" lon="11.1372941" />
      <trkpt lat="46.0528715" lon="11.1372289" />
      <trkpt lat="46.0523854" lon="11.1369259" />
      <trkpt lat="46.0522544" lon="11.1369409" />
      <trkpt lat="46.0520170" lon="11.1369344" />
      <trkpt lat="46.0517455" lon="11.1369304" />
      <trkpt lat="46.0515415" lon="11.1369283" />
      <trkpt lat="46.0515548" lon="11.1368720" />
      <trkpt lat="46.0515288" lon="11.1368296" />
      <trkpt lat="46.0515033" lon="11.1367896" />
      <trkpt lat="46.0516354" lon="11.1364756" />
      <trkpt lat="46.0516817" lon="11.1363868" />
      <trkpt lat="46.0516986" lon="11.1363611" />
      <trkpt lat="46.0517233" lon="11.1363261" />
      <trkpt lat="46.0517054" lon="11.1362797" />
      <trkpt lat="46.0516861" lon="11.1362323" />
      <trkpt lat="46.0515951" lon="11.1361272" />
      <trkpt lat="46.0513669" lon="11.1361208" />
      <trkpt lat="46.0512923" lon="11.1360782" />
      <trkpt lat="46.0512578" lon="11.1360021" />
      <trkpt lat="46.0512773" lon="11.1357976" />
      <trkpt lat="46.0512768" lon="11.1357493" />
      <trkpt lat="46.0512633" lon="11.1357024" />
      <trkpt lat="46.0512316" lon="11.1356491" />
      <trkpt lat="46.0511126" lon="11.1354486" />
      <trkpt lat="46.0511726" lon="11.1354355" />
      <trkpt lat="46.0512350" lon="11.1354388" />
      <trkpt lat="46.0512771" lon="11.1354471" />
      <trkpt lat="46.0512927" lon="11.1354502" />
      <trkpt lat="46.0513415" lon="11.1354643" />
      <trkpt lat="46.0513913" lon="11.1354824" />
      <trkpt lat="46.0514267" lon="11.1354911" />
      <trkpt lat="46.0514486" lon="11.1354884" />
      <trkpt lat="46.0516181" lon="11.1354545" />
      <trkpt lat="46.0517464" lon="11.1354388" />
      <trkpt lat="46.0518465" lon="11.1354429" />
      <trkpt lat="46.0519172" lon="11.1354536" />
      <trkpt lat="46.0519916" lon="11.1354672" />
      <trkpt lat="46.0520461" lon="11.1354986" />
      <trkpt lat="46.0521030" lon="11.1355030" />
      <trkpt lat="46.0521741" lon="11.1354428" />
      <trkpt lat="46.0522187" lon="11.1354053" />
      <trkpt lat="46.0522783" lon="11.1353798" />
      <trkpt lat="46.0523056" lon="11.1353774" />
      <trkpt lat="46.0524202" lon="11.1353671" />
      <trkpt lat="46.0524565" lon="11.1353610" />
      <trkpt lat="46.0524924" lon="11.1353443" />
      <trkpt lat="46.0525189" lon="11.1353128" />
      <trkpt lat="46.0525394" lon="11.1352450" />
      <trkpt lat="46.0525599" lon="11.1351619" />
      <trkpt lat="46.0525743" lon="11.1350734" />
      <trkpt lat="46.0525859" lon="11.1349091" />
      <trkpt lat="46.0525952" lon="11.1348672" />
      <trkpt lat="46.0526129" lon="11.1347877" />
      <trkpt lat="46.0526557" lon="11.1346201" />
      <trkpt lat="46.0527013" lon="11.1345141" />
      <trkpt lat="46.0527739" lon="11.1343686" />
      <trkpt lat="46.0528251" lon="11.1342701" />
      <trkpt lat="46.0528841" lon="11.1341805" />
      <trkpt lat="46.0528972" lon="11.1341594" />
      <trkpt lat="46.0529515" lon="11.1340881" />
      <trkpt lat="46.0530270" lon="11.1340089" />
      <trkpt lat="46.0530491" lon="11.1339857" />
      <trkpt lat="46.0531985" lon="11.1338745" />
      <trkpt lat="46.0532310" lon="11.1338530" />
      <trkpt lat="46.0532917" lon="11.1338139" />
      <trkpt lat="46.0533497" lon="11.1337597" />
      <trkpt lat="46.0533160" lon="11.1337172" />
      <trkpt lat="46.0532889" lon="11.1336562" />
      <trkpt lat="46.0532841" lon="11.1335893" />
      <trkpt lat="46.0532950" lon="11.1335122" />
      <trkpt lat="46.0533096" lon="11.1334206" />
      <trkpt lat="46.0533190" lon="11.1333545" />
      <trkpt lat="46.0533264" lon="11.1333021" />
      <trkpt lat="46.0533376" lon="11.1332233" />
      <trkpt lat="46.0533411" lon="11.1330833" />
      <trkpt lat="46.0533401" lon="11.1329688" />
      <trkpt lat="46.0533213" lon="11.1326102" />
      <trkpt lat="46.0533163" lon="11.1324654" />
      <trkpt lat="46.0533123" lon="11.1323914" />
      <trkpt lat="46.0526937" lon="11.1324304" />
      <trkpt lat="46.0523797" lon="11.1324502" />
      <trkpt lat="46.0521408" lon="11.1324653" />
      <trkpt lat="46.0521483" lon="11.1326638" />
      <trkpt lat="46.0517667" lon="11.1326819" />
      <trkpt lat="46.0517955" lon="11.1331366" />
      <trkpt lat="46.0516379" lon="11.1331578" />
      <trkpt lat="46.0516431" lon="11.1332253" />
      <trkpt lat="46.0515900" lon="11.1332294" />
      <trkpt lat="46.0515905" lon="11.1332647" />
      <trkpt lat="46.0515909" lon="11.1332908" />
      <trkpt lat="46.0515163" lon="11.1333085" />
      <trkpt lat="46.0513483" lon="11.1332952" />
      <trkpt lat="46.0512674" lon="11.1332755" />
      <trkpt lat="46.0511158" lon="11.1332384" />
      <trkpt lat="46.0510285" lon="11.1332094" />
      <trkpt lat="46.0509357" lon="11.1331640" />
      <trkpt lat="46.0508895" lon="11.1331565" />
      <trkpt lat="46.0508729" lon="11.1331538" />
      <trkpt lat="46.0507730" lon="11.1331215" />
      <trkpt lat="46.0507195" lon="11.1331051" />
      <trkpt lat="46.0502197" lon="11.1329521" />
      <trkpt lat="46.0501616" lon="11.1329343" />
      <trkpt lat="46.0501134" lon="11.1328643" />
      <trkpt lat="46.0500874" lon="11.1328675" />
      <trkpt lat="46.0498685" lon="11.1328145" />
      <trkpt lat="46.0498433" lon="11.1324914" />
      <trkpt lat="46.0498351" lon="11.1323866" />
      <trkpt lat="46.0498144" lon="11.1321209" />
      <trkpt lat="46.0500662" lon="11.1320789" />
      <trkpt lat="46.0500726" lon="11.1320777" />
      <trkpt lat="46.0500449" lon="11.1316719" />
      <trkpt lat="46.0500416" lon="11.1316369" />
      <trkpt lat="46.0500276" lon="11.1314851" />
      <trkpt lat="46.0500113" lon="11.1312909" />
      <trkpt lat="46.0499941" lon="11.1312565" />
      <trkpt lat="46.0499847" lon="11.1312371" />
      <trkpt lat="46.0499822" lon="11.1312320" />
      <trkpt lat="46.0499652" lon="11.1312091" />
      <trkpt lat="46.0499368" lon="11.1311997" />
      <trkpt lat="46.0496982" lon="11.1312948" />
      <trkpt lat="46.0495718" lon="11.1313315" />
      <trkpt lat="46.0495654" lon="11.1312417" />
      <trkpt lat="46.0495621" lon="11.1311892" />
      <trkpt lat="46.0495619" lon="11.1311855" />
      <trkpt lat="46.0495629" lon="11.1311770" />
      <trkpt lat="46.0495987" lon="11.1311734" />
      <trkpt lat="46.0496366" lon="11.1311613" />
      <trkpt lat="46.0496764" lon="11.1311449" />
      <trkpt lat="46.0497247" lon="11.1311209" />
      <trkpt lat="46.0497565" lon="11.1310988" />
      <trkpt lat="46.0497818" lon="11.1310649" />
      <trkpt lat="46.0498039" lon="11.1310246" />
      <trkpt lat="46.0498189" lon="11.1309774" />
      <trkpt lat="46.0498328" lon="11.1309269" />
      <trkpt lat="46.0498319" lon="11.1308678" />
      <trkpt lat="46.0498254" lon="11.1308133" />
      <trkpt lat="46.0498066" lon="11.1307578" />
      <trkpt lat="46.0497743" lon="11.1306952" />
      <trkpt lat="46.0497476" lon="11.1306542" />
      <trkpt lat="46.0496408" lon="11.1305106" />
      <trkpt lat="46.0493454" lon="11.1301134" />
      <trkpt lat="46.0493717" lon="11.1300704" />
      <trkpt lat="46.0491664" lon="11.1297925" />
      <trkpt lat="46.0487418" lon="11.1292177" />
      <trkpt lat="46.0484527" lon="11.1288327" />
      <trkpt lat="46.0484260" lon="11.1287965" />
      <trkpt lat="46.0483348" lon="11.1286729" />
      <trkpt lat="46.0482416" lon="11.1285397" />
      <trkpt lat="46.0480725" lon="11.1283174" />
      <trkpt lat="46.0481081" lon="11.1282580" />
      <trkpt lat="46.0481358" lon="11.1282117" />
      <trkpt lat="46.0481916" lon="11.1281187" />
      <trkpt lat="46.0487033" lon="11.1280413" />
      <trkpt lat="46.0488159" lon="11.1278602" />
      <trkpt lat="46.0486632" lon="11.1275223" />
      <trkpt lat="46.0486447" lon="11.1271723" />
      <trkpt lat="46.0485894" lon="11.1271439" />
      <trkpt lat="46.0485961" lon="11.1270765" />
      <trkpt lat="46.0486114" lon="11.1265307" />
      <trkpt lat="46.0485810" lon="11.1264641" />
      <trkpt lat="46.0485823" lon="11.1264026" />
      <trkpt lat="46.0485655" lon="11.1263701" />
      <trkpt lat="46.0485550" lon="11.1263823" />
      <trkpt lat="46.0485148" lon="11.1263022" />
      <trkpt lat="46.0484835" lon="11.1262397" />
      <trkpt lat="46.0487100" lon="11.1259840" />
      <trkpt lat="46.0488343" lon="11.1258357" />
      <trkpt lat="46.0489663" lon="11.1256823" />
      <trkpt lat="46.0492855" lon="11.1253109" />
      <trkpt lat="46.0493385" lon="11.1252458" />
      <trkpt lat="46.0494879" lon="11.1250426" />
      <trkpt lat="46.0495487" lon="11.1249618" />
      <trkpt lat="46.0497341" lon="11.1247060" />
      <trkpt lat="46.0498647" lon="11.1245258" />
      <trkpt lat="46.0499324" lon="11.1244311" />
      <trkpt lat="46.0500035" lon="11.1243397" />
      <trkpt lat="46.0499602" lon="11.1243361" />
      <trkpt lat="46.0500217" lon="11.1241666" />
      <trkpt lat="46.0500168" lon="11.1240416" />
      <trkpt lat="46.0500196" lon="11.1239557" />
      <trkpt lat="46.0500412" lon="11.1238698" />
      <trkpt lat="46.0500526" lon="11.1237907" />
      <trkpt lat="46.0500591" lon="11.1237286" />
      <trkpt lat="46.0498050" lon="11.1238256" />
      <trkpt lat="46.0496303" lon="11.1238899" />
      <trkpt lat="46.0496031" lon="11.1238431" />
      <trkpt lat="46.0495763" lon="11.1238678" />
      <trkpt lat="46.0494139" lon="11.1239267" />
      <trkpt lat="46.0493827" lon="11.1238729" />
      <trkpt lat="46.0493757" lon="11.1238608" />
      <trkpt lat="46.0493341" lon="11.1238350" />
      <trkpt lat="46.0491205" lon="11.1238385" />
      <trkpt lat="46.0490733" lon="11.1235792" />
      <trkpt lat="46.0490382" lon="11.1234756" />
      <trkpt lat="46.0490095" lon="11.1234416" />
      <trkpt lat="46.0488849" lon="11.1233993" />
      <trkpt lat="46.0488541" lon="11.1233606" />
      <trkpt lat="46.0487813" lon="11.1232832" />
      <trkpt lat="46.0487232" lon="11.1232228" />
      <trkpt lat="46.0488024" lon="11.1231121" />
      <trkpt lat="46.0492171" lon="11.1225273" />
      <trkpt lat="46.0492952" lon="11.1224234" />
      <trkpt lat="46.0493120" lon="11.1224174" />
      <trkpt lat="46.0493362" lon="11.1224187" />
      <trkpt lat="46.0493525" lon="11.1224335" />
      <trkpt lat="46.0493683" lon="11.1224657" />
      <trkpt lat="46.0495195" lon="11.1234084" />
      <trkpt lat="46.0495527" lon="11.1233982" />
      <trkpt lat="46.0496066" lon="11.1237330" />
      <trkpt lat="46.0496238" lon="11.1237842" />
      <trkpt lat="46.0496322" lon="11.1238012" />
      <trkpt lat="46.0496415" lon="11.1238115" />
      <trkpt lat="46.0496689" lon="11.1238266" />
      <trkpt lat="46.0500643" lon="11.1236795" />
      <trkpt lat="46.0504197" lon="11.1235389" />
      <trkpt lat="46.0505141" lon="11.1235070" />
      <trkpt lat="46.0505455" lon="11.1235018" />
      <trkpt lat="46.0505446" lon="11.1234604" />
      <trkpt lat="46.0505777" lon="11.1234459" />
      <trkpt lat="46.0506018" lon="11.1234230" />
      <trkpt lat="46.0506167" lon="11.1234021" />
      <trkpt lat="46.0506364" lon="11.1233670" />
      <trkpt lat="46.0506566" lon="11.1233395" />
      <trkpt lat="46.0506788" lon="11.1233147" />
      <trkpt lat="46.0507001" lon="11.1233010" />
      <trkpt lat="46.0507204" lon="11.1232913" />
      <trkpt lat="46.0507428" lon="11.1232838" />
      <trkpt lat="46.0507653" lon="11.1232706" />
      <trkpt lat="46.0507851" lon="11.1232513" />
      <trkpt lat="46.0509059" lon="11.1230753" />
      <trkpt lat="46.0509526" lon="11.1230100" />
      <trkpt lat="46.0509880" lon="11.1229587" />
      <trkpt lat="46.0510342" lon="11.1228911" />
      <trkpt lat="46.0512784" lon="11.1225734" />
      <trkpt lat="46.0512826" lon="11.1225537" />
      <trkpt lat="46.0512826" lon="11.1225360" />
      <trkpt lat="46.0512746" lon="11.1225074" />
      <trkpt lat="46.0512745" lon="11.1224959" />
      <trkpt lat="46.0512780" lon="11.1224829" />
      <trkpt lat="46.0512847" lon="11.1224734" />
      <trkpt lat="46.0512946" lon="11.1224684" />
      <trkpt lat="46.0513210" lon="11.1224502" />
      <trkpt lat="46.0513314" lon="11.1224442" />
      <trkpt lat="46.0513392" lon="11.1224418" />
      <trkpt lat="46.0513582" lon="11.1224420" />
      <trkpt lat="46.0513690" lon="11.1224398" />
      <trkpt lat="46.0513798" lon="11.1224352" />
      <trkpt lat="46.0513939" lon="11.1224251" />
      <trkpt lat="46.0514124" lon="11.1224017" />
      <trkpt lat="46.0514910" lon="11.1222884" />
      <trkpt lat="46.0514600" lon="11.1222355" />
      <trkpt lat="46.0516325" lon="11.1219955" />
      <trkpt lat="46.0515825" lon="11.1209188" />
      <trkpt lat="46.0521063" lon="11.1212713" />
      <trkpt lat="46.0524117" lon="11.1214870" />
      <trkpt lat="46.0524931" lon="11.1215245" />
      <trkpt lat="46.0525287" lon="11.1215568" />
      <trkpt lat="46.0525472" lon="11.1215723" />
      <trkpt lat="46.0525566" lon="11.1215783" />
      <trkpt lat="46.0525669" lon="11.1215768" />
      <trkpt lat="46.0525738" lon="11.1215665" />
      <trkpt lat="46.0525800" lon="11.1215536" />
      <trkpt lat="46.0526638" lon="11.1213322" />
      <trkpt lat="46.0526843" lon="11.1212764" />
      <trkpt lat="46.0527316" lon="11.1213074" />
      <trkpt lat="46.0527515" lon="11.1212420" />
      <trkpt lat="46.0527767" lon="11.1211558" />
      <trkpt lat="46.0527935" lon="11.1210371" />
      <trkpt lat="46.0527894" lon="11.1209252" />
      <trkpt lat="46.0527814" lon="11.1208028" />
      <trkpt lat="46.0527682" lon="11.1205219" />
      <trkpt lat="46.0527253" lon="11.1200463" />
      <trkpt lat="46.0527143" lon="11.1199246" />
      <trkpt lat="46.0527074" lon="11.1198479" />
      <trkpt lat="46.0526593" lon="11.1193149" />
      <trkpt lat="46.0526488" lon="11.1191979" />
      <trkpt lat="46.0526019" lon="11.1191158" />
      <trkpt lat="46.0525780" lon="11.1191248" />
      <trkpt lat="46.0525576" lon="11.1190461" />
      <trkpt lat="46.0525480" lon="11.1190137" />
      <trkpt lat="46.0525380" lon="11.1189965" />
      <trkpt lat="46.0525235" lon="11.1189794" />
      <trkpt lat="46.0525212" lon="11.1189683" />
      <trkpt lat="46.0525102" lon="11.1189283" />
      <trkpt lat="46.0524997" lon="11.1188897" />
      <trkpt lat="46.0524953" lon="11.1188756" />
      <trkpt lat="46.0524957" lon="11.1188581" />
      <trkpt lat="46.0524768" lon="11.1187948" />
      <trkpt lat="46.0523870" lon="11.1185278" />
      <trkpt lat="46.0521598" lon="11.1178740" />
      <trkpt lat="46.0521417" lon="11.1178247" />
      <trkpt lat="46.0521214" lon="11.1177743" />
      <trkpt lat="46.0520936" lon="11.1177250" />
      <trkpt lat="46.0520662" lon="11.1176860" />
      <trkpt lat="46.0520578" lon="11.1176773" />
      <trkpt lat="46.0520387" lon="11.1177059" />
      <trkpt lat="46.0519269" lon="11.1178296" />
      <trkpt lat="46.0518862" lon="11.1178746" />
      <trkpt lat="46.0506608" lon="11.1173770" />
      <trkpt lat="46.0505915" lon="11.1173304" />
      <trkpt lat="46.0504966" lon="11.1172665" />
      <trkpt lat="46.0504548" lon="11.1172600" />
      <trkpt lat="46.0504130" lon="11.1172534" />
      <trkpt lat="46.0503757" lon="11.1175643" />
      <trkpt lat="46.0501158" lon="11.1175214" />
      <trkpt lat="46.0498962" lon="11.1174852" />
      <trkpt lat="46.0499471" lon="11.1171618" />
      <trkpt lat="46.0499582" lon="11.1170611" />
      <trkpt lat="46.0499659" lon="11.1169915" />
      <trkpt lat="46.0501093" lon="11.1170103" />
      <trkpt lat="46.0502440" lon="11.1169928" />
      <trkpt lat="46.0503869" lon="11.1169743" />
      <trkpt lat="46.0505650" lon="11.1169532" />
      <trkpt lat="46.0506154" lon="11.1169749" />
      <trkpt lat="46.0506205" lon="11.1169141" />
      <trkpt lat="46.0506852" lon="11.1169497" />
      <trkpt lat="46.0510327" lon="11.1171009" />
      <trkpt lat="46.0510971" lon="11.1171292" />
      <trkpt lat="46.0511333" lon="11.1171463" />
      <trkpt lat="46.0512037" lon="11.1171789" />
      <trkpt lat="46.0513829" lon="11.1172522" />
      <trkpt lat="46.0514236" lon="11.1172715" />
      <trkpt lat="46.0514573" lon="11.1172862" />
      <trkpt lat="46.0516451" lon="11.1173638" />
      <trkpt lat="46.0517204" lon="11.1173933" />
      <trkpt lat="46.0517443" lon="11.1173955" />
      <trkpt lat="46.0517653" lon="11.1173942" />
      <trkpt lat="46.0517878" lon="11.1173904" />
      <trkpt lat="46.0518146" lon="11.1173785" />
      <trkpt lat="46.0518394" lon="11.1173625" />
      <trkpt lat="46.0518549" lon="11.1173483" />
      <trkpt lat="46.0518698" lon="11.1173294" />
      <trkpt lat="46.0518912" lon="11.1172972" />
      <trkpt lat="46.0519055" lon="11.1172704" />
      <trkpt lat="46.0519195" lon="11.1172299" />
      <trkpt lat="46.0519264" lon="11.1171983" />
      <trkpt lat="46.0519292" lon="11.1171617" />
      <trkpt lat="46.0519278" lon="11.1171265" />
      <trkpt lat="46.0519230" lon="11.1170924" />
      <trkpt lat="46.0519127" lon="11.1170512" />
      <trkpt lat="46.0518999" lon="11.1170135" />
      <trkpt lat="46.0518762" lon="11.1169513" />
      <trkpt lat="46.0519038" lon="11.1169221" />
      <trkpt lat="46.0519659" lon="11.1168687" />
      <trkpt lat="46.0520039" lon="11.1168360" />
      <trkpt lat="46.0519143" lon="11.1166082" />
      <trkpt lat="46.0516689" lon="11.1159844" />
      <trkpt lat="46.0515488" lon="11.1156692" />
      <trkpt lat="46.0514370" lon="11.1152836" />
      <trkpt lat="46.0514486" lon="11.1152787" />
      <trkpt lat="46.0514013" lon="11.1150421" />
      <trkpt lat="46.0514183" lon="11.1150350" />
      <trkpt lat="46.0514113" lon="11.1149675" />
      <trkpt lat="46.0514166" lon="11.1149480" />
      <trkpt lat="46.0514481" lon="11.1149013" />
      <trkpt lat="46.0515233" lon="11.1148882" />
      <trkpt lat="46.0515866" lon="11.1149852" />
      <trkpt lat="46.0516769" lon="11.1150804" />
      <trkpt lat="46.0517514" lon="11.1151193" />
      <trkpt lat="46.0518662" lon="11.1151435" />
      <trkpt lat="46.0518689" lon="11.1151210" />
      <trkpt lat="46.0518931" lon="11.1150874" />
      <trkpt lat="46.0519713" lon="11.1150499" />
      <trkpt lat="46.0523408" lon="11.1149144" />
      <trkpt lat="46.0523845" lon="11.1149184" />
      <trkpt lat="46.0524063" lon="11.1149336" />
      <trkpt lat="46.0524317" lon="11.1150207" />
      <trkpt lat="46.0524643" lon="11.1152306" />
      <trkpt lat="46.0525437" lon="11.1151949" />
      <trkpt lat="46.0526371" lon="11.1151978" />
      <trkpt lat="46.0526710" lon="11.1151989" />
      <trkpt lat="46.0527015" lon="11.1151806" />
      <trkpt lat="46.0527572" lon="11.1151473" />
      <trkpt lat="46.0527745" lon="11.1151369" />
      <trkpt lat="46.0528038" lon="11.1151193" />
      <trkpt lat="46.0529253" lon="11.1155153" />
      <trkpt lat="46.0529365" lon="11.1155238" />
      <trkpt lat="46.0530050" lon="11.1155488" />
      <trkpt lat="46.0531856" lon="11.1161463" />
      <trkpt lat="46.0532285" lon="11.1161297" />
      <trkpt lat="46.0532739" lon="11.1162915" />
      <trkpt lat="46.0533371" lon="11.1166312" />
      <trkpt lat="46.0533723" lon="11.1166184" />
      <trkpt lat="46.0533915" lon="11.1166580" />
      <trkpt lat="46.0534125" lon="11.1166701" />
      <trkpt lat="46.0534378" lon="11.1166693" />
      <trkpt lat="46.0537637" lon="11.1165517" />
      <trkpt lat="46.0538980" lon="11.1165062" />
      <trkpt lat="46.0539780" lon="11.1164903" />
      <trkpt lat="46.0543539" lon="11.1164000" />
      <trkpt lat="46.0545161" lon="11.1163681" />
      <trkpt lat="46.0546153" lon="11.1163472" />
      <trkpt lat="46.0547135" lon="11.1163279" />
      <trkpt lat="46.0549899" lon="11.1162892" />
      <trkpt lat="46.0550256" lon="11.1162831" />
      <trkpt lat="46.0550615" lon="11.1162775" />
      <trkpt lat="46.0551570" lon="11.1162732" />
      <trkpt lat="46.0551726" lon="11.1162753" />
      <trkpt lat="46.0555059" lon="11.1162220" />
      <trkpt lat="46.0555640" lon="11.1162127" />
      <trkpt lat="46.0559332" lon="11.1161645" />
      <trkpt lat="46.0564387" lon="11.1160790" />
      <trkpt lat="46.0567822" lon="11.1160338" />
      <trkpt lat="46.0572246" lon="11.1159758" />
      <trkpt lat="46.0572450" lon="11.1159689" />
      <trkpt lat="46.0572696" lon="11.1159161" />
      <trkpt lat="46.0571982" lon="11.1153312" />
      <trkpt lat="46.0571608" lon="11.1150138" />
      <trkpt lat="46.0571430" lon="11.1148658" />
      <trkpt lat="46.0570981" lon="11.1145176" />
      <trkpt lat="46.0568799" lon="11.1127190" />
      <trkpt lat="46.0568711" lon="11.1126825" />
      <trkpt lat="46.0568480" lon="11.1126295" />
      <trkpt lat="46.0568160" lon="11.1125909" />
      <trkpt lat="46.0567840" lon="11.1125592" />
      <trkpt lat="46.0567505" lon="11.1125442" />
      <trkpt lat="46.0567084" lon="11.1125329" />
      <trkpt lat="46.0560629" lon="11.1124910" />
      <trkpt lat="46.0560655" lon="11.1124271" />
      <trkpt lat="46.0560691" lon="11.1122985" />
      <trkpt lat="46.0565143" lon="11.1123293" />
      <trkpt lat="46.0571265" lon="11.1123712" />
      <trkpt lat="46.0571223" lon="11.1124710" />
      <trkpt lat="46.0571199" lon="11.1125299" />
      <trkpt lat="46.0573151" lon="11.1125443" />
      <trkpt lat="46.0573464" lon="11.1125459" />
      <trkpt lat="46.0573856" lon="11.1125479" />
      <trkpt lat="46.0582649" lon="11.1126053" />
      <trkpt lat="46.0582967" lon="11.1126081" />
      <trkpt lat="46.0583462" lon="11.1126125" />
      <trkpt lat="46.0583932" lon="11.1126167" />
      <trkpt lat="46.0585866" lon="11.1126234" />
      <trkpt lat="46.0589074" lon="11.1126370" />
      <trkpt lat="46.0589526" lon="11.1126534" />
      <trkpt lat="46.0589874" lon="11.1126536" />
      <trkpt lat="46.0590736" lon="11.1126630" />
      <trkpt lat="46.0595129" lon="11.1127099" />
      <trkpt lat="46.0595011" lon="11.1125259" />
      <trkpt lat="46.0600073" lon="11.1125645" />
      <trkpt lat="46.0605162" lon="11.1125968" />
      <trkpt lat="46.0610109" lon="11.1126279" />
      <trkpt lat="46.0610254" lon="11.1128130" />
      <trkpt lat="46.0610526" lon="11.1131823" />
      <trkpt lat="46.0610721" lon="11.1134257" />
      <trkpt lat="46.0611072" lon="11.1134227" />
      <trkpt lat="46.0612735" lon="11.1134347" />
      <trkpt lat="46.0615126" lon="11.1134600" />
      <trkpt lat="46.0616604" lon="11.1134805" />
      <trkpt lat="46.0618492" lon="11.1135112" />
      <trkpt lat="46.0620544" lon="11.1135429" />
      <trkpt lat="46.0622377" lon="11.1135805" />
      <trkpt lat="46.0622386" lon="11.1136111" />
      <trkpt lat="46.0622448" lon="11.1139243" />
      <trkpt lat="46.0622454" lon="11.1139330" />
      <trkpt lat="46.0622475" lon="11.1139712" />
      <trkpt lat="46.0622527" lon="11.1140658" />
      <trkpt lat="46.0622541" lon="11.1140921" />
      <trkpt lat="46.0622581" lon="11.1141568" />
      <trkpt lat="46.0622465" lon="11.1142023" />
      <trkpt lat="46.0622458" lon="11.1142389" />
      <trkpt lat="46.0622527" lon="11.1143689" />
      <trkpt lat="46.0622878" lon="11.1148562" />
      <trkpt lat="46.0622932" lon="11.1149361" />
      <trkpt lat="46.0623143" lon="11.1150434" />
      <trkpt lat="46.0623172" lon="11.1150953" />
      <trkpt lat="46.0621866" lon="11.1151140" />
      <trkpt lat="46.0621886" lon="11.1151401" />
      <trkpt lat="46.0621908" lon="11.1151687" />
      <trkpt lat="46.0621926" lon="11.1151918" />
      <trkpt lat="46.0621952" lon="11.1152262" />
      <trkpt lat="46.0623235" lon="11.1152078" />
      <trkpt lat="46.0623258" lon="11.1152459" />
      <trkpt lat="46.0623980" lon="11.1152361" />
      <trkpt lat="46.0624451" lon="11.1152295" />
      <trkpt lat="46.0624545" lon="11.1152502" />
      <trkpt lat="46.0624630" lon="11.1153766" />
      <trkpt lat="46.0624812" lon="11.1153737" />
      <trkpt lat="46.0624821" lon="11.1153882" />
      <trkpt lat="46.0624850" lon="11.1154315" />
      <trkpt lat="46.0624877" lon="11.1154771" />
      <trkpt lat="46.0625755" lon="11.1154629" />
      <trkpt lat="46.0627135" lon="11.1154394" />
      <trkpt lat="46.0628553" lon="11.1154153" />
      <trkpt lat="46.0628490" lon="11.1153244" />
      <trkpt lat="46.0628314" lon="11.1150730" />
      <trkpt lat="46.0632431" lon="11.1150335" />
      <trkpt lat="46.0634300" lon="11.1150156" />
      <trkpt lat="46.0634328" lon="11.1150619" />
      <trkpt lat="46.0634506" lon="11.1154336" />
      <trkpt lat="46.0634008" lon="11.1155391" />
      <trkpt lat="46.0633640" lon="11.1156171" />
      <trkpt lat="46.0633271" lon="11.1156837" />
      <trkpt lat="46.0632879" lon="11.1156921" />
      <trkpt lat="46.0632900" lon="11.1157231" />
      <trkpt lat="46.0633201" lon="11.1160412" />
      <trkpt lat="46.0633696" lon="11.1167056" />
      <trkpt lat="46.0633950" lon="11.1170509" />
      <trkpt lat="46.0634299" lon="11.1169932" />
      <trkpt lat="46.0635353" lon="11.1168949" />
      <trkpt lat="46.0641805" lon="11.1167941" />
      <trkpt lat="46.0644674" lon="11.1167469" />
      <trkpt lat="46.0645052" lon="11.1167422" />
      <trkpt lat="46.0645336" lon="11.1167401" />
      <trkpt lat="46.0645821" lon="11.1167575" />
      <trkpt lat="46.0648460" lon="11.1166995" />
      <trkpt lat="46.0649438" lon="11.1166932" />
      <trkpt lat="46.0650448" lon="11.1167071" />
      <trkpt lat="46.0651046" lon="11.1172245" />
      <trkpt lat="46.0651532" lon="11.1172758" />
      <trkpt lat="46.0651934" lon="11.1177089" />
      <trkpt lat="46.0651950" lon="11.1180758" />
      <trkpt lat="46.0652151" lon="11.1188117" />
      <trkpt lat="46.0652385" lon="11.1192116" />
      <trkpt lat="46.0652869" lon="11.1191976" />
      <trkpt lat="46.0653169" lon="11.1192084" />
      <trkpt lat="46.0653255" lon="11.1193045" />
      <trkpt lat="46.0653328" lon="11.1193958" />
      <trkpt lat="46.0658652" lon="11.1192840" />
      <trkpt lat="46.0659053" lon="11.1192886" />
      <trkpt lat="46.0660099" lon="11.1201785" />
      <trkpt lat="46.0660309" lon="11.1203589" />
      <trkpt lat="46.0660965" lon="11.1210453" />
      <trkpt lat="46.0661493" lon="11.1210343" />
      <trkpt lat="46.0661586" lon="11.1211285" />
      <trkpt lat="46.0664061" lon="11.1210506" />
      <trkpt lat="46.0665614" lon="11.1210220" />
      <trkpt lat="46.0666115" lon="11.1210169" />
      <trkpt lat="46.0666602" lon="11.1210169" />
      <trkpt lat="46.0667526" lon="11.1210542" />
      <trkpt lat="46.0667024" lon="11.1213629" />
      <trkpt lat="46.0666701" lon="11.1215352" />
      <trkpt lat="46.0666789" lon="11.1217092" />
      <trkpt lat="46.0667274" lon="11.1218448" />
      <trkpt lat="46.0667304" lon="11.1218751" />
      <trkpt lat="46.0667210" lon="11.1219626" />
      <trkpt lat="46.0667229" lon="11.1219913" />
      <trkpt lat="46.0667249" lon="11.1220591" />
      <trkpt lat="46.0667287" lon="11.1221612" />
      <trkpt lat="46.0667350" lon="11.1222603" />
      <trkpt lat="46.0667357" lon="11.1222747" />
      <trkpt lat="46.0667414" lon="11.1223091" />
      <trkpt lat="46.0667532" lon="11.1223909" />
      <trkpt lat="46.0667715" lon="11.1225101" />
      <trkpt lat="46.0667729" lon="11.1225194" />
      <trkpt lat="46.0667810" lon="11.1225726" />
      <trkpt lat="46.0668548" lon="11.1230552" />
      <trkpt lat="46.0668872" lon="11.1232848" />
      <trkpt lat="46.0668905" lon="11.1233334" />
      <trkpt lat="46.0668986" lon="11.1233290" />
      <trkpt lat="46.0669188" lon="11.1233181" />
      <trkpt lat="46.0669662" lon="11.1237185" />
      <trkpt lat="46.0669731" lon="11.1237689" />
      <trkpt lat="46.0670242" lon="11.1241418" />
      <trkpt lat="46.0670336" lon="11.1242105" />
      <trkpt lat="46.0669974" lon="11.1242205" />
      <trkpt lat="46.0670012" lon="11.1242659" />
      <trkpt lat="46.0670305" lon="11.1244447" />
      <trkpt lat="46.0670340" lon="11.1244675" />
      <trkpt lat="46.0670364" lon="11.1244833" />
      <trkpt lat="46.0670655" lon="11.1246097" />
      <trkpt lat="46.0671157" lon="11.1249286" />
      <trkpt lat="46.0671361" lon="11.1251006" />
      <trkpt lat="46.0671376" lon="11.1251295" />
      <trkpt lat="46.0671402" lon="11.1251507" />
      <trkpt lat="46.0671686" lon="11.1253767" />
      <trkpt lat="46.0671801" lon="11.1253736" />
      <trkpt lat="46.0671955" lon="11.1255186" />
      <trkpt lat="46.0672169" lon="11.1256572" />
      <trkpt lat="46.0672654" lon="11.1262921" />
      <trkpt lat="46.0672389" lon="11.1262953" />
      <trkpt lat="46.0671660" lon="11.1262902" />
      <trkpt lat="46.0671498" lon="11.1263455" />
      <trkpt lat="46.0671303" lon="11.1264120" />
      <trkpt lat="46.0671142" lon="11.1264672" />
      <trkpt lat="46.0671094" lon="11.1264834" />
      <trkpt lat="46.0670913" lon="11.1265454" />
      <trkpt lat="46.0671094" lon="11.1265571" />
      <trkpt lat="46.0671428" lon="11.1265958" />
      <trkpt lat="46.0671749" lon="11.1266663" />
      <trkpt lat="46.0672108" lon="11.1267545" />
      <trkpt lat="46.0672267" lon="11.1268322" />
      <trkpt lat="46.0671149" lon="11.1272417" />
      <trkpt lat="46.0671139" lon="11.1273330" />
      <trkpt lat="46.0670167" lon="11.1276981" />
      <trkpt lat="46.0671701" lon="11.1277728" />
      <trkpt lat="46.0671617" lon="11.1278150" />
      <trkpt lat="46.0671509" lon="11.1278684" />
      <trkpt lat="46.0667700" lon="11.1276702" />
      <trkpt lat="46.0667460" lon="11.1276611" />
      <trkpt lat="46.0664215" lon="11.1288729" />
      <trkpt lat="46.0664006" lon="11.1289477" />
      <trkpt lat="46.0664215" lon="11.1288729" />
      <trkpt lat="46.0663816" lon="11.1288471" />
      <trkpt lat="46.0663544" lon="11.1288314" />
      <trkpt lat="46.0663345" lon="11.1289105" />
      <trkpt lat="46.0663240" lon="11.1289545" />
      <trkpt lat="46.0657225" lon="11.1286354" />
      <trkpt lat="46.0656486" lon="11.1285962" />
      <trkpt lat="46.0650763" lon="11.1282832" />
      <trkpt lat="46.0649902" lon="11.1282361" />
      <trkpt lat="46.0649274" lon="11.1282017" />
      <trkpt lat="46.0649203" lon="11.1282300" />
      <trkpt lat="46.0649057" lon="11.1282221" />
      <trkpt lat="46.0648723" lon="11.1282038" />
      <trkpt lat="46.0647866" lon="11.1281574" />
      <trkpt lat="46.0647932" lon="11.1281318" />
      <trkpt lat="46.0643990" lon="11.1279089" />
      <trkpt lat="46.0643773" lon="11.1278908" />
      <trkpt lat="46.0643429" lon="11.1278623" />
      <trkpt lat="46.0643297" lon="11.1278550" />
      <trkpt lat="46.0643459" lon="11.1277844" />
      <trkpt lat="46.0643624" lon="11.1277123" />
      <trkpt lat="46.0638484" lon="11.1274271" />
      <trkpt lat="46.0633842" lon="11.1271649" />
      <trkpt lat="46.0631797" lon="11.1270131" />
      <trkpt lat="46.0630708" lon="11.1269038" />
      <trkpt lat="46.0628640" lon="11.1266650" />
      <trkpt lat="46.0628223" lon="11.1266136" />
      <trkpt lat="46.0626243" lon="11.1262872" />
      <trkpt lat="46.0626076" lon="11.1262566" />
      <trkpt lat="46.0625804" lon="11.1262030" />
      <trkpt lat="46.0624697" lon="11.1259209" />
      <trkpt lat="46.0624497" lon="11.1258990" />
      <trkpt lat="46.0624054" lon="11.1259306" />
      <trkpt lat="46.0623668" lon="11.1259580" />
      <trkpt lat="46.0623587" lon="11.1259340" />
      <trkpt lat="46.0623485" lon="11.1259144" />
      <trkpt lat="46.0623331" lon="11.1259032" />
      <trkpt lat="46.0623173" lon="11.1259016" />
      <trkpt lat="46.0623026" lon="11.1259092" />
      <trkpt lat="46.0622871" lon="11.1258701" />
      <trkpt lat="46.0622666" lon="11.1258210" />
      <trkpt lat="46.0617535" lon="11.1263066" />
      <trkpt lat="46.0617401" lon="11.1263092" />
      <trkpt lat="46.0617280" lon="11.1263081" />
      <trkpt lat="46.0617189" lon="11.1263032" />
      <trkpt lat="46.0617098" lon="11.1263121" />
      <trkpt lat="46.0616697" lon="11.1263513" />
      <trkpt lat="46.0616283" lon="11.1263941" />
      <trkpt lat="46.0616334" lon="11.1264055" />
      <trkpt lat="46.0616335" lon="11.1264194" />
      <trkpt lat="46.0616272" lon="11.1264252" />
      <trkpt lat="46.0616131" lon="11.1264388" />
      <trkpt lat="46.0614900" lon="11.1265572" />
      <trkpt lat="46.0607006" lon="11.1273165" />
      <trkpt lat="46.0606892" lon="11.1273274" />
      <trkpt lat="46.0606740" lon="11.1273366" />
      <trkpt lat="46.0606587" lon="11.1273413" />
      <trkpt lat="46.0606443" lon="11.1273366" />
      <trkpt lat="46.0606347" lon="11.1273239" />
      <trkpt lat="46.0606122" lon="11.1272765" />
      <trkpt lat="46.0605746" lon="11.1273141" />
      <trkpt lat="46.0605334" lon="11.1273545" />
      <trkpt lat="46.0605570" lon="11.1274087" />
      <trkpt lat="46.0605598" lon="11.1274150" />
      <trkpt lat="46.0605644" lon="11.1274337" />
      <trkpt lat="46.0605618" lon="11.1274492" />
      <trkpt lat="46.0605307" lon="11.1274796" />
      <trkpt lat="46.0605580" lon="11.1275393" />
      <trkpt lat="46.0598806" lon="11.1282058" />
      <trkpt lat="46.0598535" lon="11.1282325" />
      <trkpt lat="46.0598300" lon="11.1282789" />
      <trkpt lat="46.0602050" lon="11.1288262" />
      <trkpt lat="46.0602269" lon="11.1288582" />
      <trkpt lat="46.0602997" lon="11.1289644" />
      <trkpt lat="46.0604501" lon="11.1291803" />
      <trkpt lat="46.0606803" lon="11.1295211" />
      <trkpt lat="46.0609740" lon="11.1299560" />
      <trkpt lat="46.0610009" lon="11.1299950" />
      <trkpt lat="46.0609856" lon="11.1300168" />
      <trkpt lat="46.0609606" lon="11.1300524" />
      <trkpt lat="46.0609838" lon="11.1300849" />
      <trkpt lat="46.0609734" lon="11.1300990" />
      <trkpt lat="46.0608358" lon="11.1303007" />
      <trkpt lat="46.0608210" lon="11.1303287" />
      <trkpt lat="46.0607406" lon="11.1304583" />
      <trkpt lat="46.0606077" lon="11.1306817" />
      <trkpt lat="46.0605895" lon="11.1306992" />
      <trkpt lat="46.0605734" lon="11.1307038" />
      <trkpt lat="46.0605566" lon="11.1306941" />
      <trkpt lat="46.0605437" lon="11.1306851" />
      <trkpt lat="46.0605170" lon="11.1307247" />
      <trkpt lat="46.0604552" lon="11.1306430" />
      <trkpt lat="46.0603853" lon="11.1305806" />
      <trkpt lat="46.0600331" lon="11.1303102" />
      <trkpt lat="46.0598367" lon="11.1301590" />
      <trkpt lat="46.0594803" lon="11.1298855" />
      <trkpt lat="46.0591918" lon="11.1296640" />
      <trkpt lat="46.0588020" lon="11.1293632" />
      <trkpt lat="46.0587271" lon="11.1292881" />
      <trkpt lat="46.0586979" lon="11.1292643" />
      <trkpt lat="46.0586170" lon="11.1295928" />
      <trkpt lat="46.0583750" lon="11.1305034" />
      <trkpt lat="46.0583426" lon="11.1304879" />
      <trkpt lat="46.0583350" lon="11.1305054" />
      <trkpt lat="46.0583240" lon="11.1305170" />
      <trkpt lat="46.0583074" lon="11.1305189" />
      <trkpt lat="46.0582884" lon="11.1305127" />
      <trkpt lat="46.0582729" lon="11.1305558" />
      <trkpt lat="46.0580252" lon="11.1304445" />
      <trkpt lat="46.0577769" lon="11.1303406" />
      <trkpt lat="46.0576368" lon="11.1302834" />
      <trkpt lat="46.0575308" lon="11.1302394" />
      <trkpt lat="46.0574781" lon="11.1302125" />
      <trkpt lat="46.0574266" lon="11.1301740" />
      <trkpt lat="46.0573813" lon="11.1301310" />
      <trkpt lat="46.0572469" lon="11.1299757" />
      <trkpt lat="46.0571989" lon="11.1299202" />
      <trkpt lat="46.0571257" lon="11.1298724" />
      <trkpt lat="46.0570681" lon="11.1298544" />
      <trkpt lat="46.0570046" lon="11.1299631" />
      <trkpt lat="46.0569722" lon="11.1299235" />
      <trkpt lat="46.0564929" lon="11.1307344" />
      <trkpt lat="46.0564605" lon="11.1307887" />
      <trkpt lat="46.0564318" lon="11.1308185" />
      <trkpt lat="46.0564095" lon="11.1308247" />
      <trkpt lat="46.0563810" lon="11.1308179" />
      <trkpt lat="46.0563630" lon="11.1308070" />
      <trkpt lat="46.0563462" lon="11.1307857" />
      <trkpt lat="46.0563381" lon="11.1307666" />
      <trkpt lat="46.0562973" lon="11.1307822" />
      <trkpt lat="46.0561212" lon="11.1299168" />
      <trkpt lat="46.0560255" lon="11.1294469" />
      <trkpt lat="46.0559427" lon="11.1290400" />
      <trkpt lat="46.0558802" lon="11.1290627" />
      <trkpt lat="46.0558737" lon="11.1290322" />
      <trkpt lat="46.0558665" lon="11.1290062" />
      <trkpt lat="46.0558522" lon="11.1289753" />
      <trkpt lat="46.0558337" lon="11.1289595" />
      <trkpt lat="46.0558133" lon="11.1289545" />
      <trkpt lat="46.0557592" lon="11.1289802" />
      <trkpt lat="46.0557410" lon="11.1289072" />
      <trkpt lat="46.0557309" lon="11.1288504" />
      <trkpt lat="46.0554617" lon="11.1289810" />
      <trkpt lat="46.0551324" lon="11.1291484" />
      <trkpt lat="46.0549094" lon="11.1293083" />
      <trkpt lat="46.0547828" lon="11.1293834" />
      <trkpt lat="46.0546451" lon="11.1294410" />
      <trkpt lat="46.0544102" lon="11.1295000" />
      <trkpt lat="46.0539368" lon="11.1296342" />
      <trkpt lat="46.0536130" lon="11.1297105" />
      <trkpt lat="46.0536355" lon="11.1296339" />
      <trkpt lat="46.0536510" lon="11.1295593" />
      <trkpt lat="46.0536578" lon="11.1292597" />
      <trkpt lat="46.0536629" lon="11.1288062" />
      <trkpt lat="46.0536613" lon="11.1279749" />
      <trkpt lat="46.0536595" lon="11.1278565" />
      <trkpt lat="46.0536570" lon="11.1276956" />
      <trkpt lat="46.0536460" lon="11.1269844" />
      <trkpt lat="46.0536457" lon="11.1269449" />
      <trkpt lat="46.0537172" lon="11.1269242" />
      <trkpt lat="46.0537474" lon="11.1269470" />
      <trkpt lat="46.0540892" lon="11.1269346" />
      <trkpt lat="46.0541317" lon="11.1269563" />
      <trkpt lat="46.0541749" lon="11.1269947" />
      <trkpt lat="46.0542058" lon="11.1269895" />
      <trkpt lat="46.0542324" lon="11.1269522" />
      <trkpt lat="46.0542396" lon="11.1269003" />
      <trkpt lat="46.0542274" lon="11.1268391" />
      <trkpt lat="46.0542001" lon="11.1268039" />
      <trkpt lat="46.0541662" lon="11.1268039" />
      <trkpt lat="46.0540640" lon="11.1267790" />
      <trkpt lat="46.0540360" lon="11.1267603" />
      <trkpt lat="46.0537424" lon="11.1267655" />
      <trkpt lat="46.0537164" lon="11.1268029" />
      <trkpt lat="46.0537172" lon="11.1269242" />
      <trkpt lat="46.0536457" lon="11.1269449" />
      <trkpt lat="46.0536451" lon="11.1269076" />
      <trkpt lat="46.0534205" lon="11.1269117" />
      <trkpt lat="46.0534153" lon="11.1268860" />
      <trkpt lat="46.0534136" lon="11.1264015" />
      <trkpt lat="46.0534080" lon="11.1260027" />
      <trkpt lat="46.0534123" lon="11.1259933" />
      <trkpt lat="46.0534211" lon="11.1259879" />
      <trkpt lat="46.0535148" lon="11.1259788" />
      <trkpt lat="46.0535113" lon="11.1259211" />
      <trkpt lat="46.0539060" lon="11.1258747" />
      <trkpt lat="46.0540416" lon="11.1258588" />
      <trkpt lat="46.0548282" lon="11.1257645" />
      <trkpt lat="46.0548393" lon="11.1257072" />
      <trkpt lat="46.0548453" lon="11.1256157" />
      <trkpt lat="46.0548687" lon="11.1256314" />
      <trkpt lat="46.0548792" lon="11.1256445" />
      <trkpt lat="46.0548879" lon="11.1256709" />
      <trkpt lat="46.0549034" lon="11.1257517" />
      <trkpt lat="46.0549121" lon="11.1257757" />
      <trkpt lat="46.0549226" lon="11.1257943" />
      <trkpt lat="46.0549307" lon="11.1258019" />
      <trkpt lat="46.0549493" lon="11.1258078" />
      <trkpt lat="46.0549831" lon="11.1258126" />
      <trkpt lat="46.0550400" lon="11.1258083" />
      <trkpt lat="46.0550442" lon="11.1257931" />
      <trkpt lat="46.0550483" lon="11.1256739" />
      <trkpt lat="46.0550489" lon="11.1256109" />
      <trkpt lat="46.0550378" lon="11.1254605" />
      <trkpt lat="46.0550382" lon="11.1254293" />
      <trkpt lat="46.0550459" lon="11.1254099" />
      <trkpt lat="46.0550657" lon="11.1253995" />
      <trkpt lat="46.0550465" lon="11.1253238" />
      <trkpt lat="46.0549484" lon="11.1248430" />
      <trkpt lat="46.0548935" lon="11.1246587" />
      <trkpt lat="46.0547878" lon="11.1243878" />
      <trkpt lat="46.0546784" lon="11.1241151" />
      <trkpt lat="46.0545585" lon="11.1238530" />
      <trkpt lat="46.0543956" lon="11.1235183" />
      <trkpt lat="46.0543094" lon="11.1233485" />
      <trkpt lat="46.0542051" lon="11.1231369" />
      <trkpt lat="46.0541649" lon="11.1231008" />
      <trkpt lat="46.0541228" lon="11.1230209" />
      <trkpt lat="46.0541058" lon="11.1230279" />
      <trkpt lat="46.0540823" lon="11.1230396" />
      <trkpt lat="46.0540637" lon="11.1230532" />
      <trkpt lat="46.0540198" lon="11.1230010" />
      <trkpt lat="46.0539821" lon="11.1229536" />
      <trkpt lat="46.0539603" lon="11.1229174" />
      <trkpt lat="46.0539236" lon="11.1228860" />
      <trkpt lat="46.0538645" lon="11.1228306" />
      <trkpt lat="46.0538053" lon="11.1227679" />
      <trkpt lat="46.0535712" lon="11.1225220" />
      <trkpt lat="46.0534547" lon="11.1224028" />
      <trkpt lat="46.0533438" lon="11.1222898" />
      <trkpt lat="46.0532505" lon="11.1222005" />
      <trkpt lat="46.0532109" lon="11.1221654" />
      <trkpt lat="46.0530826" lon="11.1220516" />
      <trkpt lat="46.0529475" lon="11.1219335" />
      <trkpt lat="46.0528599" lon="11.1218647" />
      <trkpt lat="46.0527015" lon="11.1217529" />
      <trkpt lat="46.0526452" lon="11.1217322" />
      <trkpt lat="46.0526689" lon="11.1216645" />
      <trkpt lat="46.0526806" lon="11.1216301" />
      <trkpt lat="46.0527616" lon="11.1214065" />
      <trkpt lat="46.0527714" lon="11.1213796" />
      <trkpt lat="46.0527848" lon="11.1213421" />
      <trkpt lat="46.0528103" lon="11.1212554" />
      <trkpt lat="46.0528263" lon="11.1211766" />
      <trkpt lat="46.0528373" lon="11.1210849" />
      <trkpt lat="46.0528388" lon="11.1209198" />
      <trkpt lat="46.0528342" lon="11.1207970" />
      <trkpt lat="46.0528256" lon="11.1205494" />
      <trkpt lat="46.0528156" lon="11.1204424" />
      <trkpt lat="46.0528086" lon="11.1203455" />
      <trkpt lat="46.0527962" lon="11.1202378" />
      <trkpt lat="46.0528122" lon="11.1202332" />
      <trkpt lat="46.0528282" lon="11.1202286" />
      <trkpt lat="46.0528776" lon="11.1207704" />
      <trkpt lat="46.0530980" lon="11.1207509" />
      <trkpt lat="46.0531229" lon="11.1208020" />
      <trkpt lat="46.0531720" lon="11.1208832" />
      <trkpt lat="46.0538773" lon="11.1207384" />
      <trkpt lat="46.0539097" lon="11.1207300" />
      <trkpt lat="46.0539482" lon="11.1207201" />
      <trkpt lat="46.0543504" lon="11.1205986" />
      <trkpt lat="46.0544214" lon="11.1205854" />
      <trkpt lat="46.0544663" lon="11.1209689" />
      <trkpt lat="46.0545022" lon="11.1212932" />
      <trkpt lat="46.0545405" lon="11.1217170" />
      <trkpt lat="46.0545468" lon="11.1217957" />
      <trkpt lat="46.0545815" lon="11.1222286" />
      <trkpt lat="46.0545975" lon="11.1224279" />
      <trkpt lat="46.0546148" lon="11.1225865" />
      <trkpt lat="46.0546218" lon="11.1226721" />
      <trkpt lat="46.0546723" lon="11.1228394" />
      <trkpt lat="46.0549272" lon="11.1230488" />
      <trkpt lat="46.0550032" lon="11.1231151" />
      <trkpt lat="46.0550325" lon="11.1231434" />
      <trkpt lat="46.0550216" lon="11.1229602" />
      <trkpt lat="46.0549978" lon="11.1226613" />
      <trkpt lat="46.0549784" lon="11.1224167" />
      <trkpt lat="46.0550034" lon="11.1224092" />
      <trkpt lat="46.0554659" lon="11.1223205" />
      <trkpt lat="46.0555884" lon="11.1223038" />
      <trkpt lat="46.0558950" lon="11.1222571" />
      <trkpt lat="46.0558941" lon="11.1222222" />
      <trkpt lat="46.0559202" lon="11.1222157" />
      <trkpt lat="46.0559737" lon="11.1222044" />
      <trkpt lat="46.0562499" lon="11.1221461" />
      <trkpt lat="46.0560896" lon="11.1213268" />
      <trkpt lat="46.0561376" lon="11.1213126" />
      <trkpt lat="46.0561267" lon="11.1212571" />
      <trkpt lat="46.0560664" lon="11.1209508" />
      <trkpt lat="46.0560407" lon="11.1208203" />
      <trkpt lat="46.0559397" lon="11.1203072" />
      <trkpt lat="46.0559327" lon="11.1202716" />
      <trkpt lat="46.0559296" lon="11.1202557" />
      <trkpt lat="46.0559671" lon="11.1202417" />
      <trkpt lat="46.0559610" lon="11.1202056" />
      <trkpt lat="46.0559610" lon="11.1201866" />
      <trkpt lat="46.0559641" lon="11.1201721" />
      <trkpt lat="46.0559776" lon="11.1201611" />
      <trkpt lat="46.0559918" lon="11.1201558" />
      <trkpt lat="46.0561027" lon="11.1201269" />
      <trkpt lat="46.0562096" lon="11.1200819" />
      <trkpt lat="46.0562987" lon="11.1200155" />
      <trkpt lat="46.0563700" lon="11.1199545" />
      <trkpt lat="46.0565401" lon="11.1198034" />
      <trkpt lat="46.0565655" lon="11.1197852" />
      <trkpt lat="46.0566134" lon="11.1200016" />
      <trkpt lat="46.0568295" lon="11.1199433" />
      <trkpt lat="46.0571362" lon="11.1198341" />
      <trkpt lat="46.0572027" lon="11.1198102" />
      <trkpt lat="46.0572398" lon="11.1197669" />
      <trkpt lat="46.0573338" lon="11.1197233" />
      <trkpt lat="46.0573449" lon="11.1197192" />
      <trkpt lat="46.0575885" lon="11.1196225" />
      <trkpt lat="46.0576636" lon="11.1196851" />
      <trkpt lat="46.0577849" lon="11.1196381" />
      <trkpt lat="46.0578031" lon="11.1196991" />
      <trkpt lat="46.0578313" lon="11.1198397" />
      <trkpt lat="46.0578400" lon="11.1198836" />
      <trkpt lat="46.0578706" lon="11.1200364" />
      <trkpt lat="46.0579898" lon="11.1206318" />
      <trkpt lat="46.0579967" lon="11.1206670" />
      <trkpt lat="46.0580511" lon="11.1206464" />
      <trkpt lat="46.0580557" lon="11.1206700" />
      <trkpt lat="46.0580624" lon="11.1207034" />
      <trkpt lat="46.0581494" lon="11.1206671" />
      <trkpt lat="46.0581647" lon="11.1206609" />
      <trkpt lat="46.0582555" lon="11.1206235" />
      <trkpt lat="46.0582705" lon="11.1206146" />
      <trkpt lat="46.0582823" lon="11.1206105" />
      <trkpt lat="46.0583362" lon="11.1208873" />
      <trkpt lat="46.0583715" lon="11.1210685" />
      <trkpt lat="46.0586628" lon="11.1209540" />
      <trkpt lat="46.0586696" lon="11.1209909" />
      <trkpt lat="46.0586754" lon="11.1210228" />
      <trkpt lat="46.0587087" lon="11.1212048" />
      <trkpt lat="46.0587116" lon="11.1212219" />
      <trkpt lat="46.0586809" lon="11.1212344" />
      <trkpt lat="46.0584501" lon="11.1213281" />
      <trkpt lat="46.0583507" lon="11.1213685" />
      <trkpt lat="46.0583172" lon="11.1213821" />
      <trkpt lat="46.0583267" lon="11.1214554" />
      <trkpt lat="46.0583365" lon="11.1215291" />
      <trkpt lat="46.0583258" lon="11.1215660" />
      <trkpt lat="46.0584851" lon="11.1223788" />
      <trkpt lat="46.0585186" lon="11.1225472" />
      <trkpt lat="46.0585271" lon="11.1225818" />
      <trkpt lat="46.0585414" lon="11.1226204" />
      <trkpt lat="46.0585640" lon="11.1226430" />
      <trkpt lat="46.0586146" lon="11.1226489" />
      <trkpt lat="46.0591554" lon="11.1224311" />
      <trkpt lat="46.0595453" lon="11.1222739" />
      <trkpt lat="46.0602896" lon="11.1219745" />
      <trkpt lat="46.0602974" lon="11.1220154" />
      <trkpt lat="46.0603094" lon="11.1220824" />
      <trkpt lat="46.0603176" lon="11.1220861" />
      <trkpt lat="46.0603234" lon="11.1220950" />
      <trkpt lat="46.0603291" lon="11.1221215" />
      <trkpt lat="46.0603860" lon="11.1224033" />
      <trkpt lat="46.0603949" lon="11.1224245" />
      <trkpt lat="46.0604038" lon="11.1224458" />
      <trkpt lat="46.0604627" lon="11.1227451" />
      <trkpt lat="46.0604744" lon="11.1228050" />
      <trkpt lat="46.0604823" lon="11.1228476" />
      <trkpt lat="46.0605971" lon="11.1234256" />
      <trkpt lat="46.0606457" lon="11.1236712" />
      <trkpt lat="46.0607042" lon="11.1239462" />
      <trkpt lat="46.0607230" lon="11.1240345" />
      <trkpt lat="46.0607726" lon="11.1242613" />
      <trkpt lat="46.0608179" lon="11.1244644" />
      <trkpt lat="46.0608477" lon="11.1245912" />
      <trkpt lat="46.0608681" lon="11.1246846" />
      <trkpt lat="46.0608749" lon="11.1247194" />
      <trkpt lat="46.0608765" lon="11.1247411" />
      <trkpt lat="46.0608746" lon="11.1247636" />
      <trkpt lat="46.0608750" lon="11.1248044" />
      <trkpt lat="46.0608350" lon="11.1248591" />
      <trkpt lat="46.0608675" lon="11.1249438" />
      <trkpt lat="46.0609062" lon="11.1250349" />
      <trkpt lat="46.0605366" lon="11.1254107" />
      <trkpt lat="46.0603448" lon="11.1256153" />
      <trkpt lat="46.0599954" lon="11.1259916" />
      <trkpt lat="46.0599888" lon="11.1260047" />
      <trkpt lat="46.0599826" lon="11.1260290" />
      <trkpt lat="46.0599690" lon="11.1260502" />
      <trkpt lat="46.0600076" lon="11.1261239" />
      <trkpt lat="46.0606122" lon="11.1272765" />
    </trkseg>
  </trk>
</gpx>
