<?xml version="1.0" encoding="UTF-8"?>
<gpx xmlns="http://www.topografix.com/GPX/1/1" version="1.1" creator="ShapeRoute route-engine">
  <metadata>
    <name>heart 5 km · 2026-09-22</name>
    <author>
      <name>ShapeRoute route-engine</name>
    </author>
    <time>2026-09-22T21:32:39Z</time>
  </metadata>
  <trk>
    <name>heart 5 km · 2026-09-22</name>
    <trkseg>
      <trkpt lat="46.0668711" lon="11.1210492" />
      <trkpt lat="46.0667705" lon="11.1210629" />
      <trkpt lat="46.0667526" lon="11.1210542" />
      <trkpt lat="46.0667024" lon="11.1213629" />
      <trkpt lat="46.0666701" lon="11.1215352" />
      <trkpt lat="46.0666789" lon="11.1217092" />
      <trkpt lat="46.0667274" lon="11.1218448" />
      <trkpt lat="46.0667304" lon="11.1218751" />
      <trkpt lat="46.0667697" lon="11.1219637" />
      <trkpt lat="46.0668675" lon="11.1221842" />
      <trkpt lat="46.0668704" lon="11.1222043" />
      <trkpt lat="46.0668726" lon="11.1222251" />
      <trkpt lat="46.0667963" lon="11.1222541" />
      <trkpt lat="46.0667787" lon="11.1222601" />
      <trkpt lat="46.0667357" lon="11.1222747" />
      <trkpt lat="46.0667414" lon="11.1223091" />
      <trkpt lat="46.0667532" lon="11.1223909" />
      <trkpt lat="46.0667715" lon="11.1225101" />
      <trkpt lat="46.0667729" lon="11.1225194" />
      <trkpt lat="46.0667810" lon="11.1225726" />
      <trkpt lat="46.0668548" lon="11.1230552" />
      <trkpt lat="46.0668872" lon="11.1232848" />
      <trkpt lat="46.0668905" lon="11.1233334" />
      <trkpt lat="46.0668986" lon="11.1233290" />
      <trkpt lat="46.0669188" lon="11.1233181" />
      <trkpt lat="46.0669670" lon="11.1232923" />
      <trkpt lat="46.0672635" lon="11.1232024" />
      <trkpt lat="46.0672653" lon="11.1232368" />
      <trkpt lat="46.0672686" lon="11.1232351" />
      <trkpt lat="46.0672810" lon="11.1232291" />
      <trkpt lat="46.0672821" lon="11.1232581" />
      <trkpt lat="46.0672873" lon="11.1232576" />
      <trkpt lat="46.0673011" lon="11.1232564" />
      <trkpt lat="46.0673146" lon="11.1232553" />
      <trkpt lat="46.0673183" lon="11.1232550" />
      <trkpt lat="46.0673371" lon="11.1232534" />
      <trkpt lat="46.0674008" lon="11.1232483" />
      <trkpt lat="46.0674156" lon="11.1232472" />
      <trkpt lat="46.0676659" lon="11.1232331" />
      <trkpt lat="46.0677631" lon="11.1232283" />
      <trkpt lat="46.0678077" lon="11.1232267" />
      <trkpt lat="46.0678084" lon="11.1230699" />
      <trkpt lat="46.0678154" lon="11.1230007" />
      <trkpt lat="46.0679498" lon="11.1229741" />
      <trkpt lat="46.0681832" lon="11.1229244" />
      <trkpt lat="46.0682031" lon="11.1229202" />
      <trkpt lat="46.0682323" lon="11.1232256" />
      <trkpt lat="46.0682565" lon="11.1234891" />
      <trkpt lat="46.0682783" lon="11.1234658" />
      <trkpt lat="46.0685395" lon="11.1234315" />
      <trkpt lat="46.0687294" lon="11.1233985" />
      <trkpt lat="46.0688361" lon="11.1233813" />
      <trkpt lat="46.0690627" lon="11.1233576" />
      <trkpt lat="46.0690639" lon="11.1234329" />
      <trkpt lat="46.0690806" lon="11.1237071" />
      <trkpt lat="46.0690525" lon="11.1237112" />
      <trkpt lat="46.0688864" lon="11.1237325" />
      <trkpt lat="46.0682805" lon="11.1238337" />
      <trkpt lat="46.0682827" lon="11.1238602" />
      <trkpt lat="46.0682835" lon="11.1238873" />
      <trkpt lat="46.0683250" lon="11.1239053" />
      <trkpt lat="46.0683541" lon="11.1239478" />
      <trkpt lat="46.0683766" lon="11.1242292" />
      <trkpt lat="46.0683684" lon="11.1245203" />
      <trkpt lat="46.0683518" lon="11.1247826" />
      <trkpt lat="46.0683737" lon="11.1247791" />
      <trkpt lat="46.0684074" lon="11.1247738" />
      <trkpt lat="46.0686416" lon="11.1247367" />
      <trkpt lat="46.0689190" lon="11.1246745" />
      <trkpt lat="46.0690475" lon="11.1246554" />
      <trkpt lat="46.0691707" lon="11.1246269" />
      <trkpt lat="46.0691965" lon="11.1246012" />
      <trkpt lat="46.0692481" lon="11.1245332" />
      <trkpt lat="46.0694052" lon="11.1245238" />
      <trkpt lat="46.0695598" lon="11.1244935" />
      <trkpt lat="46.0700381" lon="11.1244249" />
      <trkpt lat="46.0700639" lon="11.1244390" />
      <trkpt lat="46.0700749" lon="11.1244576" />
      <trkpt lat="46.0700921" lon="11.1245372" />
      <trkpt lat="46.0701056" lon="11.1246991" />
      <trkpt lat="46.0701090" lon="11.1248579" />
      <trkpt lat="46.0701202" lon="11.1250443" />
      <trkpt lat="46.0701360" lon="11.1251878" />
      <trkpt lat="46.0701636" lon="11.1253748" />
      <trkpt lat="46.0701757" lon="11.1254398" />
      <trkpt lat="46.0701951" lon="11.1255251" />
      <trkpt lat="46.0703104" lon="11.1258937" />
      <trkpt lat="46.0703744" lon="11.1261142" />
      <trkpt lat="46.0704496" lon="11.1264614" />
      <trkpt lat="46.0704611" lon="11.1265307" />
      <trkpt lat="46.0704804" lon="11.1266564" />
      <trkpt lat="46.0704667" lon="11.1267264" />
      <trkpt lat="46.0703267" lon="11.1268739" />
      <trkpt lat="46.0702530" lon="11.1269621" />
      <trkpt lat="46.0700418" lon="11.1271952" />
      <trkpt lat="46.0699625" lon="11.1272466" />
      <trkpt lat="46.0699820" lon="11.1273093" />
      <trkpt lat="46.0700069" lon="11.1273936" />
      <trkpt lat="46.0699719" lon="11.1274335" />
      <trkpt lat="46.0699578" lon="11.1274338" />
      <trkpt lat="46.0699232" lon="11.1274344" />
      <trkpt lat="46.0699231" lon="11.1274466" />
      <trkpt lat="46.0699231" lon="11.1274554" />
      <trkpt lat="46.0699221" lon="11.1275173" />
      <trkpt lat="46.0699209" lon="11.1275983" />
      <trkpt lat="46.0699206" lon="11.1276259" />
      <trkpt lat="46.0699262" lon="11.1276890" />
      <trkpt lat="46.0699314" lon="11.1277523" />
      <trkpt lat="46.0699398" lon="11.1278053" />
      <trkpt lat="46.0699595" lon="11.1278391" />
      <trkpt lat="46.0699423" lon="11.1279639" />
      <trkpt lat="46.0699317" lon="11.1280657" />
      <trkpt lat="46.0699156" lon="11.1280643" />
      <trkpt lat="46.0698968" lon="11.1280672" />
      <trkpt lat="46.0698804" lon="11.1280920" />
      <trkpt lat="46.0698727" lon="11.1281221" />
      <trkpt lat="46.0698805" lon="11.1283204" />
      <trkpt lat="46.0698261" lon="11.1284497" />
      <trkpt lat="46.0698402" lon="11.1286135" />
      <trkpt lat="46.0698570" lon="11.1286746" />
      <trkpt lat="46.0698171" lon="11.1287601" />
      <trkpt lat="46.0697673" lon="11.1288385" />
      <trkpt lat="46.0696669" lon="11.1289332" />
      <trkpt lat="46.0694804" lon="11.1290691" />
      <trkpt lat="46.0688348" lon="11.1293939" />
      <trkpt lat="46.0687211" lon="11.1294348" />
      <trkpt lat="46.0686560" lon="11.1294429" />
      <trkpt lat="46.0685184" lon="11.1294392" />
      <trkpt lat="46.0684387" lon="11.1294344" />
      <trkpt lat="46.0684046" lon="11.1294416" />
      <trkpt lat="46.0683501" lon="11.1293914" />
      <trkpt lat="46.0683302" lon="11.1294010" />
      <trkpt lat="46.0683123" lon="11.1294097" />
      <trkpt lat="46.0682925" lon="11.1293320" />
      <trkpt lat="46.0682679" lon="11.1293437" />
      <trkpt lat="46.0682805" lon="11.1293978" />
      <trkpt lat="46.0682864" lon="11.1294242" />
      <trkpt lat="46.0683023" lon="11.1294154" />
      <trkpt lat="46.0682952" lon="11.1293883" />
      <trkpt lat="46.0682492" lon="11.1291994" />
      <trkpt lat="46.0682011" lon="11.1290129" />
      <trkpt lat="46.0681793" lon="11.1290225" />
      <trkpt lat="46.0682030" lon="11.1291172" />
      <trkpt lat="46.0682264" lon="11.1292093" />
      <trkpt lat="46.0682327" lon="11.1292333" />
      <trkpt lat="46.0680149" lon="11.1293389" />
      <trkpt lat="46.0679083" lon="11.1294018" />
      <trkpt lat="46.0677778" lon="11.1295168" />
      <trkpt lat="46.0676633" lon="11.1296383" />
      <trkpt lat="46.0676905" lon="11.1296887" />
      <trkpt lat="46.0676316" lon="11.1297529" />
      <trkpt lat="46.0671709" lon="11.1304027" />
      <trkpt lat="46.0670662" lon="11.1305822" />
      <trkpt lat="46.0669499" lon="11.1308480" />
      <trkpt lat="46.0669291" lon="11.1308955" />
      <trkpt lat="46.0668870" lon="11.1308644" />
      <trkpt lat="46.0669014" lon="11.1308307" />
      <trkpt lat="46.0670063" lon="11.1305799" />
      <trkpt lat="46.0670726" lon="11.1304665" />
      <trkpt lat="46.0671833" lon="11.1302975" />
      <trkpt lat="46.0674516" lon="11.1299333" />
      <trkpt lat="46.0674371" lon="11.1299081" />
      <trkpt lat="46.0675257" lon="11.1297774" />
      <trkpt lat="46.0676328" lon="11.1294750" />
      <trkpt lat="46.0676974" lon="11.1292563" />
      <trkpt lat="46.0677760" lon="11.1290764" />
      <trkpt lat="46.0675431" lon="11.1289875" />
      <trkpt lat="46.0675234" lon="11.1289800" />
      <trkpt lat="46.0674601" lon="11.1289333" />
      <trkpt lat="46.0671609" lon="11.1286784" />
      <trkpt lat="46.0670564" lon="11.1289334" />
      <trkpt lat="46.0669807" lon="11.1291233" />
      <trkpt lat="46.0669782" lon="11.1291295" />
      <trkpt lat="46.0669580" lon="11.1291785" />
      <trkpt lat="46.0668906" lon="11.1293426" />
      <trkpt lat="46.0668399" lon="11.1294591" />
      <trkpt lat="46.0668304" lon="11.1294810" />
      <trkpt lat="46.0668216" lon="11.1294715" />
      <trkpt lat="46.0666768" lon="11.1298246" />
      <trkpt lat="46.0666162" lon="11.1299725" />
      <trkpt lat="46.0666068" lon="11.1299950" />
      <trkpt lat="46.0663999" lon="11.1304961" />
      <trkpt lat="46.0662931" lon="11.1307546" />
      <trkpt lat="46.0662790" lon="11.1307867" />
      <trkpt lat="46.0662535" lon="11.1308450" />
      <trkpt lat="46.0661968" lon="11.1309856" />
      <trkpt lat="46.0662110" lon="11.1310004" />
      <trkpt lat="46.0662690" lon="11.1308597" />
      <trkpt lat="46.0662535" lon="11.1308450" />
      <trkpt lat="46.0662274" lon="11.1308204" />
      <trkpt lat="46.0661815" lon="11.1307770" />
      <trkpt lat="46.0663226" lon="11.1304402" />
      <trkpt lat="46.0661606" lon="11.1302929" />
      <trkpt lat="46.0660435" lon="11.1304337" />
      <trkpt lat="46.0659796" lon="11.1305289" />
      <trkpt lat="46.0658513" lon="11.1307203" />
      <trkpt lat="46.0657613" lon="11.1308662" />
      <trkpt lat="46.0656871" lon="11.1310347" />
      <trkpt lat="46.0655740" lon="11.1313366" />
      <trkpt lat="46.0654649" lon="11.1314763" />
      <trkpt lat="46.0654405" lon="11.1315074" />
      <trkpt lat="46.0653469" lon="11.1316538" />
      <trkpt lat="46.0653256" lon="11.1316381" />
      <trkpt lat="46.0649198" lon="11.1314133" />
      <trkpt lat="46.0649009" lon="11.1314028" />
      <trkpt lat="46.0648863" lon="11.1313947" />
      <trkpt lat="46.0648578" lon="11.1313789" />
      <trkpt lat="46.0647951" lon="11.1313442" />
      <trkpt lat="46.0647706" lon="11.1313306" />
      <trkpt lat="46.0647513" lon="11.1313199" />
      <trkpt lat="46.0644093" lon="11.1311305" />
      <trkpt lat="46.0643221" lon="11.1310822" />
      <trkpt lat="46.0643248" lon="11.1310385" />
      <trkpt lat="46.0643277" lon="11.1310006" />
      <trkpt lat="46.0643312" lon="11.1309593" />
      <trkpt lat="46.0643782" lon="11.1304176" />
      <trkpt lat="46.0643810" lon="11.1304035" />
      <trkpt lat="46.0643177" lon="11.1303894" />
      <trkpt lat="46.0642499" lon="11.1303632" />
      <trkpt lat="46.0642489" lon="11.1303747" />
      <trkpt lat="46.0641956" lon="11.1310309" />
      <trkpt lat="46.0641877" lon="11.1311286" />
      <trkpt lat="46.0639791" lon="11.1311128" />
      <trkpt lat="46.0638872" lon="11.1308950" />
      <trkpt lat="46.0638631" lon="11.1308888" />
      <trkpt lat="46.0638482" lon="11.1308834" />
      <trkpt lat="46.0638357" lon="11.1309654" />
      <trkpt lat="46.0638167" lon="11.1309821" />
      <trkpt lat="46.0637757" lon="11.1309684" />
      <trkpt lat="46.0637326" lon="11.1309525" />
      <trkpt lat="46.0636085" lon="11.1309061" />
      <trkpt lat="46.0632457" lon="11.1307706" />
      <trkpt lat="46.0630286" lon="11.1306895" />
      <trkpt lat="46.0629706" lon="11.1306670" />
      <trkpt lat="46.0627777" lon="11.1305924" />
      <trkpt lat="46.0627358" lon="11.1305342" />
      <trkpt lat="46.0617865" lon="11.1291111" />
      <trkpt lat="46.0618136" lon="11.1290575" />
      <trkpt lat="46.0618751" lon="11.1289637" />
      <trkpt lat="46.0620828" lon="11.1286578" />
      <trkpt lat="46.0622669" lon="11.1283922" />
      <trkpt lat="46.0622527" lon="11.1283717" />
      <trkpt lat="46.0622315" lon="11.1283417" />
      <trkpt lat="46.0622030" lon="11.1283010" />
      <trkpt lat="46.0621856" lon="11.1282792" />
      <trkpt lat="46.0622098" lon="11.1282476" />
      <trkpt lat="46.0622197" lon="11.1282033" />
      <trkpt lat="46.0621012" lon="11.1280138" />
      <trkpt lat="46.0620589" lon="11.1279242" />
      <trkpt lat="46.0620219" lon="11.1278179" />
      <trkpt lat="46.0619901" lon="11.1276877" />
      <trkpt lat="46.0619717" lon="11.1275611" />
      <trkpt lat="46.0619655" lon="11.1275182" />
      <trkpt lat="46.0619626" lon="11.1274877" />
      <trkpt lat="46.0619457" lon="11.1273106" />
      <trkpt lat="46.0619169" lon="11.1271221" />
      <trkpt lat="46.0618689" lon="11.1269229" />
      <trkpt lat="46.0618383" lon="11.1268290" />
      <trkpt lat="46.0618146" lon="11.1267563" />
      <trkpt lat="46.0618098" lon="11.1267415" />
      <trkpt lat="46.0618009" lon="11.1267141" />
      <trkpt lat="46.0617988" lon="11.1267075" />
      <trkpt lat="46.0617341" lon="11.1265399" />
      <trkpt lat="46.0617249" lon="11.1265160" />
      <trkpt lat="46.0617146" lon="11.1264893" />
      <trkpt lat="46.0616975" lon="11.1264327" />
      <trkpt lat="46.0616697" lon="11.1263513" />
      <trkpt lat="46.0613988" lon="11.1258030" />
      <trkpt lat="46.0610270" lon="11.1250504" />
      <trkpt lat="46.0609884" lon="11.1249637" />
      <trkpt lat="46.0609442" lon="11.1248663" />
      <trkpt lat="46.0609066" lon="11.1246665" />
      <trkpt lat="46.0608681" lon="11.1246846" />
      <trkpt lat="46.0608477" lon="11.1245912" />
      <trkpt lat="46.0608179" lon="11.1244644" />
      <trkpt lat="46.0607726" lon="11.1242613" />
      <trkpt lat="46.0607230" lon="11.1240345" />
      <trkpt lat="46.0607042" lon="11.1239462" />
      <trkpt lat="46.0606457" lon="11.1236712" />
      <trkpt lat="46.0605971" lon="11.1234256" />
      <trkpt lat="46.0604823" lon="11.1228476" />
      <trkpt lat="46.0601569" lon="11.1229832" />
      <trkpt lat="46.0601353" lon="11.1229922" />
      <trkpt lat="46.0598169" lon="11.1231249" />
      <trkpt lat="46.0597862" lon="11.1231377" />
      <trkpt lat="46.0597111" lon="11.1231656" />
      <trkpt lat="46.0596626" lon="11.1231835" />
      <trkpt lat="46.0593421" lon="11.1233024" />
      <trkpt lat="46.0586630" lon="11.1235860" />
      <trkpt lat="46.0586600" lon="11.1235743" />
      <trkpt lat="46.0586550" lon="11.1235427" />
      <trkpt lat="46.0586436" lon="11.1234923" />
      <trkpt lat="46.0585221" lon="11.1229323" />
      <trkpt lat="46.0585217" lon="11.1229139" />
      <trkpt lat="46.0585288" lon="11.1229019" />
      <trkpt lat="46.0585491" lon="11.1228879" />
      <trkpt lat="46.0585664" lon="11.1228712" />
      <trkpt lat="46.0585841" lon="11.1228450" />
      <trkpt lat="46.0585968" lon="11.1228125" />
      <trkpt lat="46.0586024" lon="11.1227797" />
      <trkpt lat="46.0586095" lon="11.1227686" />
      <trkpt lat="46.0586352" lon="11.1227565" />
      <trkpt lat="46.0586257" lon="11.1227069" />
      <trkpt lat="46.0586146" lon="11.1226489" />
      <trkpt lat="46.0585640" lon="11.1226430" />
      <trkpt lat="46.0585414" lon="11.1226204" />
      <trkpt lat="46.0585271" lon="11.1225818" />
      <trkpt lat="46.0585186" lon="11.1225472" />
      <trkpt lat="46.0584527" lon="11.1225748" />
      <trkpt lat="46.0584341" lon="11.1224777" />
      <trkpt lat="46.0583463" lon="11.1225134" />
      <trkpt lat="46.0582824" lon="11.1221902" />
      <trkpt lat="46.0582744" lon="11.1221495" />
      <trkpt lat="46.0582626" lon="11.1220895" />
      <trkpt lat="46.0581951" lon="11.1217461" />
      <trkpt lat="46.0581812" lon="11.1216752" />
      <trkpt lat="46.0581808" lon="11.1216264" />
      <trkpt lat="46.0582618" lon="11.1215927" />
      <trkpt lat="46.0583258" lon="11.1215660" />
      <trkpt lat="46.0583365" lon="11.1215291" />
      <trkpt lat="46.0583267" lon="11.1214554" />
      <trkpt lat="46.0583172" lon="11.1213821" />
      <trkpt lat="46.0583507" lon="11.1213685" />
      <trkpt lat="46.0584501" lon="11.1213281" />
      <trkpt lat="46.0586809" lon="11.1212344" />
      <trkpt lat="46.0587116" lon="11.1212219" />
      <trkpt lat="46.0587087" lon="11.1212048" />
      <trkpt lat="46.0586754" lon="11.1210228" />
      <trkpt lat="46.0586696" lon="11.1209909" />
      <trkpt lat="46.0586628" lon="11.1209540" />
      <trkpt lat="46.0586294" lon="11.1207712" />
      <trkpt lat="46.0588112" lon="11.1206992" />
      <trkpt lat="46.0588016" lon="11.1206479" />
      <trkpt lat="46.0587970" lon="11.1206241" />
      <trkpt lat="46.0587834" lon="11.1205542" />
      <trkpt lat="46.0587721" lon="11.1204963" />
      <trkpt lat="46.0587679" lon="11.1204749" />
      <trkpt lat="46.0587571" lon="11.1204212" />
      <trkpt lat="46.0587994" lon="11.1204019" />
      <trkpt lat="46.0589085" lon="11.1203577" />
      <trkpt lat="46.0589307" lon="11.1203486" />
      <trkpt lat="46.0590134" lon="11.1203157" />
      <trkpt lat="46.0590832" lon="11.1202878" />
      <trkpt lat="46.0591123" lon="11.1202761" />
      <trkpt lat="46.0591334" lon="11.1202676" />
      <trkpt lat="46.0599196" lon="11.1199536" />
      <trkpt lat="46.0599094" lon="11.1198994" />
      <trkpt lat="46.0598691" lon="11.1196907" />
      <trkpt lat="46.0598386" lon="11.1195324" />
      <trkpt lat="46.0598011" lon="11.1193380" />
      <trkpt lat="46.0598452" lon="11.1193238" />
      <trkpt lat="46.0598924" lon="11.1193086" />
      <trkpt lat="46.0598839" lon="11.1192591" />
      <trkpt lat="46.0598828" lon="11.1192368" />
      <trkpt lat="46.0598901" lon="11.1192199" />
      <trkpt lat="46.0599017" lon="11.1192111" />
      <trkpt lat="46.0599987" lon="11.1191778" />
      <trkpt lat="46.0600867" lon="11.1191288" />
      <trkpt lat="46.0600799" lon="11.1190896" />
      <trkpt lat="46.0600721" lon="11.1190439" />
      <trkpt lat="46.0600831" lon="11.1189967" />
      <trkpt lat="46.0600939" lon="11.1189517" />
      <trkpt lat="46.0601076" lon="11.1189541" />
      <trkpt lat="46.0602340" lon="11.1189412" />
      <trkpt lat="46.0604440" lon="11.1189285" />
      <trkpt lat="46.0604807" lon="11.1189271" />
      <trkpt lat="46.0604488" lon="11.1185789" />
      <trkpt lat="46.0604390" lon="11.1184963" />
      <trkpt lat="46.0604161" lon="11.1183020" />
      <trkpt lat="46.0604211" lon="11.1182696" />
      <trkpt lat="46.0604118" lon="11.1181814" />
      <trkpt lat="46.0603833" lon="11.1179239" />
      <trkpt lat="46.0603224" lon="11.1179016" />
      <trkpt lat="46.0602992" lon="11.1178237" />
      <trkpt lat="46.0603147" lon="11.1177458" />
      <trkpt lat="46.0602930" lon="11.1175918" />
      <trkpt lat="46.0602714" lon="11.1174376" />
      <trkpt lat="46.0602676" lon="11.1174171" />
      <trkpt lat="46.0602641" lon="11.1173954" />
      <trkpt lat="46.0604543" lon="11.1173496" />
      <trkpt lat="46.0605424" lon="11.1173313" />
      <trkpt lat="46.0606490" lon="11.1182300" />
      <trkpt lat="46.0609065" lon="11.1181941" />
      <trkpt lat="46.0613604" lon="11.1181774" />
      <trkpt lat="46.0613563" lon="11.1181290" />
      <trkpt lat="46.0613592" lon="11.1181240" />
      <trkpt lat="46.0613013" lon="11.1174065" />
      <trkpt lat="46.0612750" lon="11.1170808" />
      <trkpt lat="46.0613057" lon="11.1170753" />
      <trkpt lat="46.0612985" lon="11.1169094" />
      <trkpt lat="46.0613082" lon="11.1168400" />
      <trkpt lat="46.0613042" lon="11.1167878" />
      <trkpt lat="46.0612742" lon="11.1163432" />
      <trkpt lat="46.0612549" lon="11.1160629" />
      <trkpt lat="46.0612441" lon="11.1158990" />
      <trkpt lat="46.0612635" lon="11.1158956" />
      <trkpt lat="46.0612929" lon="11.1158177" />
      <trkpt lat="46.0612950" lon="11.1157692" />
      <trkpt lat="46.0612977" lon="11.1157019" />
      <trkpt lat="46.0612914" lon="11.1156170" />
      <trkpt lat="46.0617999" lon="11.1155445" />
      <trkpt lat="46.0617811" lon="11.1152857" />
      <trkpt lat="46.0617786" lon="11.1152517" />
      <trkpt lat="46.0617767" lon="11.1152259" />
      <trkpt lat="46.0617747" lon="11.1151974" />
      <trkpt lat="46.0617728" lon="11.1151733" />
      <trkpt lat="46.0617538" lon="11.1149303" />
      <trkpt lat="46.0617407" lon="11.1147394" />
      <trkpt lat="46.0620965" lon="11.1144859" />
      <trkpt lat="46.0622527" lon="11.1143689" />
      <trkpt lat="46.0622458" lon="11.1142389" />
      <trkpt lat="46.0622465" lon="11.1142023" />
      <trkpt lat="46.0622581" lon="11.1141568" />
      <trkpt lat="46.0622541" lon="11.1140921" />
      <trkpt lat="46.0622527" lon="11.1140658" />
      <trkpt lat="46.0622475" lon="11.1139712" />
      <trkpt lat="46.0622454" lon="11.1139330" />
      <trkpt lat="46.0622448" lon="11.1139243" />
      <trkpt lat="46.0622386" lon="11.1136111" />
      <trkpt lat="46.0622377" lon="11.1135805" />
      <trkpt lat="46.0622819" lon="11.1135872" />
      <trkpt lat="46.0623318" lon="11.1135988" />
      <trkpt lat="46.0623474" lon="11.1136024" />
      <trkpt lat="46.0626176" lon="11.1136671" />
      <trkpt lat="46.0626817" lon="11.1136839" />
      <trkpt lat="46.0627296" lon="11.1138256" />
      <trkpt lat="46.0627499" lon="11.1138055" />
      <trkpt lat="46.0628087" lon="11.1137879" />
      <trkpt lat="46.0627728" lon="11.1133084" />
      <trkpt lat="46.0627648" lon="11.1132690" />
      <trkpt lat="46.0627569" lon="11.1131586" />
      <trkpt lat="46.0627498" lon="11.1130403" />
      <trkpt lat="46.0627502" lon="11.1130204" />
      <trkpt lat="46.0631257" lon="11.1131259" />
      <trkpt lat="46.0633090" lon="11.1131770" />
      <trkpt lat="46.0634818" lon="11.1132254" />
      <trkpt lat="46.0636621" lon="11.1132752" />
      <trkpt lat="46.0636983" lon="11.1132832" />
      <trkpt lat="46.0637524" lon="11.1132971" />
      <trkpt lat="46.0641463" lon="11.1134375" />
      <trkpt lat="46.0646967" lon="11.1136437" />
      <trkpt lat="46.0647077" lon="11.1135928" />
      <trkpt lat="46.0647233" lon="11.1135201" />
      <trkpt lat="46.0651759" lon="11.1137079" />
      <trkpt lat="46.0654098" lon="11.1138232" />
      <trkpt lat="46.0656310" lon="11.1139302" />
      <trkpt lat="46.0660115" lon="11.1141343" />
      <trkpt lat="46.0661066" lon="11.1141926" />
      <trkpt lat="46.0668627" lon="11.1145914" />
      <trkpt lat="46.0669299" lon="11.1146267" />
      <trkpt lat="46.0677139" lon="11.1150479" />
      <trkpt lat="46.0677536" lon="11.1150646" />
      <trkpt lat="46.0677809" lon="11.1150701" />
      <trkpt lat="46.0678139" lon="11.1150654" />
      <trkpt lat="46.0678418" lon="11.1150495" />
      <trkpt lat="46.0679084" lon="11.1150043" />
      <trkpt lat="46.0679737" lon="11.1149448" />
      <trkpt lat="46.0680238" lon="11.1149118" />
      <trkpt lat="46.0680942" lon="11.1149057" />
      <trkpt lat="46.0682075" lon="11.1149285" />
      <trkpt lat="46.0682349" lon="11.1148330" />
      <trkpt lat="46.0684652" lon="11.1149557" />
      <trkpt lat="46.0693015" lon="11.1154028" />
      <trkpt lat="46.0695281" lon="11.1155240" />
      <trkpt lat="46.0698128" lon="11.1156739" />
      <trkpt lat="46.0698998" lon="11.1157127" />
      <trkpt lat="46.0699151" lon="11.1156990" />
      <trkpt lat="46.0702467" lon="11.1144529" />
      <trkpt lat="46.0702508" lon="11.1144356" />
      <trkpt lat="46.0702350" lon="11.1143612" />
      <trkpt lat="46.0702262" lon="11.1143187" />
      <trkpt lat="46.0702122" lon="11.1142749" />
      <trkpt lat="46.0701963" lon="11.1142414" />
      <trkpt lat="46.0701713" lon="11.1142018" />
      <trkpt lat="46.0701555" lon="11.1141871" />
      <trkpt lat="46.0701270" lon="11.1141662" />
      <trkpt lat="46.0701061" lon="11.1141508" />
      <trkpt lat="46.0700735" lon="11.1141344" />
      <trkpt lat="46.0699724" lon="11.1140894" />
      <trkpt lat="46.0699342" lon="11.1141162" />
      <trkpt lat="46.0692827" lon="11.1138365" />
      <trkpt lat="46.0692891" lon="11.1138032" />
      <trkpt lat="46.0693007" lon="11.1137442" />
      <trkpt lat="46.0691468" lon="11.1136799" />
      <trkpt lat="46.0691269" lon="11.1136716" />
      <trkpt lat="46.0690246" lon="11.1136730" />
      <trkpt lat="46.0689154" lon="11.1136521" />
      <trkpt lat="46.0688389" lon="11.1136235" />
      <trkpt lat="46.0687643" lon="11.1135895" />
      <trkpt lat="46.0678119" lon="11.1131210" />
      <trkpt lat="46.0673664" lon="11.1128912" />
      <trkpt lat="46.0671655" lon="11.1127930" />
      <trkpt lat="46.0666378" lon="11.1125382" />
      <trkpt lat="46.0664459" lon="11.1124424" />
      <trkpt lat="46.0663458" lon="11.1123873" />
      <trkpt lat="46.0662549" lon="11.1123373" />
      <trkpt lat="46.0663234" lon="11.1122960" />
      <trkpt lat="46.0663686" lon="11.1122400" />
      <trkpt lat="46.0663810" lon="11.1121917" />
      <trkpt lat="46.0663792" lon="11.1120025" />
      <trkpt lat="46.0663848" lon="11.1116740" />
      <trkpt lat="46.0663913" lon="11.1116056" />
      <trkpt lat="46.0663969" lon="11.1115653" />
      <trkpt lat="46.0664056" lon="11.1115441" />
      <trkpt lat="46.0664155" lon="11.1115197" />
      <trkpt lat="46.0664282" lon="11.1114932" />
      <trkpt lat="46.0664341" lon="11.1114808" />
      <trkpt lat="46.0664630" lon="11.1114353" />
      <trkpt lat="46.0664974" lon="11.1113883" />
      <trkpt lat="46.0666346" lon="11.1113904" />
      <trkpt lat="46.0671246" lon="11.1113916" />
      <trkpt lat="46.0673218" lon="11.1114009" />
      <trkpt lat="46.0673423" lon="11.1114272" />
      <trkpt lat="46.0673699" lon="11.1114659" />
      <trkpt lat="46.0673758" lon="11.1114741" />
      <trkpt lat="46.0674167" lon="11.1115291" />
      <trkpt lat="46.0674558" lon="11.1115667" />
      <trkpt lat="46.0674885" lon="11.1115995" />
      <trkpt lat="46.0675042" lon="11.1116002" />
      <trkpt lat="46.0675265" lon="11.1115975" />
      <trkpt lat="46.0675460" lon="11.1115895" />
      <trkpt lat="46.0675665" lon="11.1115761" />
      <trkpt lat="46.0675851" lon="11.1115627" />
      <trkpt lat="46.0676980" lon="11.1114593" />
      <trkpt lat="46.0678257" lon="11.1117174" />
      <trkpt lat="46.0682241" lon="11.1125259" />
      <trkpt lat="46.0683564" lon="11.1127915" />
      <trkpt lat="46.0684835" lon="11.1130467" />
      <trkpt lat="46.0684969" lon="11.1130964" />
      <trkpt lat="46.0685085" lon="11.1131533" />
      <trkpt lat="46.0685128" lon="11.1131975" />
      <trkpt lat="46.0685121" lon="11.1132361" />
      <trkpt lat="46.0685063" lon="11.1132629" />
      <trkpt lat="46.0685193" lon="11.1132700" />
      <trkpt lat="46.0686253" lon="11.1133238" />
      <trkpt lat="46.0687718" lon="11.1133981" />
      <trkpt lat="46.0688616" lon="11.1134384" />
      <trkpt lat="46.0689402" lon="11.1134705" />
      <trkpt lat="46.0691420" lon="11.1135756" />
      <trkpt lat="46.0691549" lon="11.1135817" />
      <trkpt lat="46.0693165" lon="11.1136571" />
      <trkpt lat="46.0693839" lon="11.1136877" />
      <trkpt lat="46.0698971" lon="11.1138947" />
      <trkpt lat="46.0701004" lon="11.1139878" />
      <trkpt lat="46.0701414" lon="11.1139943" />
      <trkpt lat="46.0701824" lon="11.1139941" />
      <trkpt lat="46.0702044" lon="11.1139869" />
      <trkpt lat="46.0702044" lon="11.1140479" />
      <trkpt lat="46.0702038" lon="11.1140736" />
      <trkpt lat="46.0701933" lon="11.1141300" />
      <trkpt lat="46.0701826" lon="11.1141474" />
      <trkpt lat="46.0701713" lon="11.1142018" />
      <trkpt lat="46.0701963" lon="11.1142414" />
      <trkpt lat="46.0702122" lon="11.1142749" />
      <trkpt lat="46.0702262" lon="11.1143187" />
      <trkpt lat="46.0702350" lon="11.1143612" />
      <trkpt lat="46.0702508" lon="11.1144356" />
      <trkpt lat="46.0702894" lon="11.1144548" />
      <trkpt lat="46.0703300" lon="11.1144739" />
      <trkpt lat="46.0703250" lon="11.1144890" />
      <trkpt lat="46.0699886" lon="11.1157401" />
      <trkpt lat="46.0699948" lon="11.1157680" />
      <trkpt lat="46.0700117" lon="11.1157886" />
      <trkpt lat="46.0700662" lon="11.1158228" />
      <trkpt lat="46.0700586" lon="11.1159035" />
      <trkpt lat="46.0700453" lon="11.1160451" />
      <trkpt lat="46.0700459" lon="11.1161000" />
      <trkpt lat="46.0700146" lon="11.1161265" />
      <trkpt lat="46.0700032" lon="11.1161537" />
      <trkpt lat="46.0700003" lon="11.1162009" />
      <trkpt lat="46.0700091" lon="11.1162886" />
      <trkpt lat="46.0700203" lon="11.1163341" />
      <trkpt lat="46.0699884" lon="11.1163713" />
      <trkpt lat="46.0699495" lon="11.1164167" />
      <trkpt lat="46.0700000" lon="11.1164941" />
      <trkpt lat="46.0700236" lon="11.1165374" />
      <trkpt lat="46.0700680" lon="11.1166069" />
      <trkpt lat="46.0701165" lon="11.1166890" />
      <trkpt lat="46.0701363" lon="11.1167225" />
      <trkpt lat="46.0701743" lon="11.1167917" />
      <trkpt lat="46.0702123" lon="11.1168786" />
      <trkpt lat="46.0702292" lon="11.1169470" />
      <trkpt lat="46.0702367" lon="11.1170213" />
      <trkpt lat="46.0702287" lon="11.1171541" />
      <trkpt lat="46.0702169" lon="11.1171918" />
      <trkpt lat="46.0701805" lon="11.1173050" />
      <trkpt lat="46.0700861" lon="11.1176034" />
      <trkpt lat="46.0700527" lon="11.1177069" />
      <trkpt lat="46.0700431" lon="11.1177476" />
      <trkpt lat="46.0700369" lon="11.1177882" />
      <trkpt lat="46.0700305" lon="11.1178362" />
      <trkpt lat="46.0700294" lon="11.1178856" />
      <trkpt lat="46.0700269" lon="11.1179061" />
      <trkpt lat="46.0699908" lon="11.1179414" />
      <trkpt lat="46.0699871" lon="11.1179668" />
      <trkpt lat="46.0699905" lon="11.1180483" />
      <trkpt lat="46.0700084" lon="11.1181540" />
      <trkpt lat="46.0699803" lon="11.1181633" />
      <trkpt lat="46.0699941" lon="11.1182001" />
      <trkpt lat="46.0700049" lon="11.1182351" />
      <trkpt lat="46.0700436" lon="11.1186690" />
      <trkpt lat="46.0699695" lon="11.1186849" />
      <trkpt lat="46.0699125" lon="11.1186966" />
      <trkpt lat="46.0699110" lon="11.1186579" />
      <trkpt lat="46.0698656" lon="11.1186968" />
      <trkpt lat="46.0696359" lon="11.1187473" />
      <trkpt lat="46.0696191" lon="11.1187510" />
      <trkpt lat="46.0696189" lon="11.1187623" />
      <trkpt lat="46.0696052" lon="11.1192349" />
      <trkpt lat="46.0696024" lon="11.1192604" />
      <trkpt lat="46.0695759" lon="11.1192602" />
      <trkpt lat="46.0695663" lon="11.1193364" />
      <trkpt lat="46.0695538" lon="11.1194352" />
      <trkpt lat="46.0695229" lon="11.1197302" />
      <trkpt lat="46.0695220" lon="11.1198116" />
      <trkpt lat="46.0694763" lon="11.1198434" />
      <trkpt lat="46.0693982" lon="11.1198734" />
      <trkpt lat="46.0692352" lon="11.1199271" />
      <trkpt lat="46.0691667" lon="11.1199367" />
      <trkpt lat="46.0691086" lon="11.1199380" />
      <trkpt lat="46.0690484" lon="11.1199429" />
      <trkpt lat="46.0689900" lon="11.1199487" />
      <trkpt lat="46.0688928" lon="11.1199633" />
      <trkpt lat="46.0688785" lon="11.1199652" />
      <trkpt lat="46.0688503" lon="11.1199666" />
      <trkpt lat="46.0688097" lon="11.1199685" />
      <trkpt lat="46.0687784" lon="11.1199700" />
      <trkpt lat="46.0687688" lon="11.1199699" />
      <trkpt lat="46.0687055" lon="11.1199855" />
      <trkpt lat="46.0686285" lon="11.1199921" />
      <trkpt lat="46.0685273" lon="11.1200042" />
      <trkpt lat="46.0684776" lon="11.1200039" />
      <trkpt lat="46.0684504" lon="11.1200865" />
      <trkpt lat="46.0683846" lon="11.1201435" />
      <trkpt lat="46.0682945" lon="11.1202664" />
      <trkpt lat="46.0681669" lon="11.1204445" />
      <trkpt lat="46.0681018" lon="11.1205393" />
      <trkpt lat="46.0679032" lon="11.1207116" />
      <trkpt lat="46.0678457" lon="11.1207672" />
      <trkpt lat="46.0678148" lon="11.1207864" />
      <trkpt lat="46.0677393" lon="11.1208327" />
      <trkpt lat="46.0676386" lon="11.1208917" />
      <trkpt lat="46.0675759" lon="11.1209222" />
      <trkpt lat="46.0674358" lon="11.1209903" />
      <trkpt lat="46.0673165" lon="11.1210193" />
      <trkpt lat="46.0670745" lon="11.1210291" />
      <trkpt lat="46.0670730" lon="11.1209842" />
      <trkpt lat="46.0670637" lon="11.1207156" />
      <trkpt lat="46.0670289" lon="11.1205458" />
      <trkpt lat="46.0668249" lon="11.1206182" />
      <trkpt lat="46.0668711" lon="11.1210492" />
    </trkseg>
  </trk>
</gpx>
