<?xml version="1.0" encoding="UTF-8"?>
<gpx xmlns="http://www.topografix.com/GPX/1/1" version="1.1" creator="ShapeRoute route-engine">
  <metadata>
    <name>circle 5 km · 2026-09-22</name>
    <author>
      <name>ShapeRoute route-engine</name>
    </author>
    <time>2026-09-22T21:32:31Z</time>
  </metadata>
  <trk>
    <name>circle 5 km · 2026-09-22</name>
    <trkseg>
      <trkpt lat="46.0123552" lon="11.2985082" />
      <trkpt lat="46.0125364" lon="11.2982718" />
      <trkpt lat="46.0127682" lon="11.2980215" />
      <trkpt lat="46.0128013" lon="11.2980024" />
      <trkpt lat="46.0128770" lon="11.2979586" />
      <trkpt lat="46.0129712" lon="11.2978899" />
      <trkpt lat="46.0130468" lon="11.2977714" />
      <trkpt lat="46.0131199" lon="11.2976603" />
      <trkpt lat="46.0131919" lon="11.2975460" />
      <trkpt lat="46.0132320" lon="11.2976177" />
      <trkpt lat="46.0133454" lon="11.2977970" />
      <trkpt lat="46.0134865" lon="11.2979792" />
      <trkpt lat="46.0136470" lon="11.2981837" />
      <trkpt lat="46.0136746" lon="11.2981500" />
      <trkpt lat="46.0137274" lon="11.2981551" />
      <trkpt lat="46.0138146" lon="11.2981599" />
      <trkpt lat="46.0138716" lon="11.2981659" />
      <trkpt lat="46.0139269" lon="11.2981602" />
      <trkpt lat="46.0139981" lon="11.2981438" />
      <trkpt lat="46.0140799" lon="11.2980571" />
      <trkpt lat="46.0139900" lon="11.2979244" />
      <trkpt lat="46.0139600" lon="11.2978680" />
      <trkpt lat="46.0139502" lon="11.2978049" />
      <trkpt lat="46.0139456" lon="11.2975985" />
      <trkpt lat="46.0140364" lon="11.2974192" />
      <trkpt lat="46.0140662" lon="11.2973583" />
      <trkpt lat="46.0141187" lon="11.2973459" />
      <trkpt lat="46.0141775" lon="11.2973351" />
      <trkpt lat="46.0141194" lon="11.2972125" />
      <trkpt lat="46.0140565" lon="11.2970602" />
      <trkpt lat="46.0139217" lon="11.2968977" />
      <trkpt lat="46.0140508" lon="11.2967979" />
      <trkpt lat="46.0140627" lon="11.2968161" />
      <trkpt lat="46.0140812" lon="11.2968272" />
      <trkpt lat="46.0141489" lon="11.2968261" />
      <trkpt lat="46.0143698" lon="11.2967863" />
      <trkpt lat="46.0144941" lon="11.2967329" />
      <trkpt lat="46.0147829" lon="11.2966885" />
      <trkpt lat="46.0152410" lon="11.2962611" />
      <trkpt lat="46.0157332" lon="11.2958155" />
      <trkpt lat="46.0161067" lon="11.2955120" />
      <trkpt lat="46.0163360" lon="11.2953323" />
      <trkpt lat="46.0165988" lon="11.2951123" />
      <trkpt lat="46.0167238" lon="11.2949244" />
      <trkpt lat="46.0168312" lon="11.2947578" />
      <trkpt lat="46.0169304" lon="11.2945945" />
      <trkpt lat="46.0170422" lon="11.2943575" />
      <trkpt lat="46.0172495" lon="11.2938798" />
      <trkpt lat="46.0173430" lon="11.2937574" />
      <trkpt lat="46.0173871" lon="11.2937052" />
      <trkpt lat="46.0174817" lon="11.2936170" />
      <trkpt lat="46.0175692" lon="11.2934869" />
      <trkpt lat="46.0176519" lon="11.2933103" />
      <trkpt lat="46.0178524" lon="11.2927823" />
      <trkpt lat="46.0179695" lon="11.2924714" />
      <trkpt lat="46.0180112" lon="11.2923515" />
      <trkpt lat="46.0180244" lon="11.2922908" />
      <trkpt lat="46.0181028" lon="11.2920184" />
      <trkpt lat="46.0180974" lon="11.2915761" />
      <trkpt lat="46.0178831" lon="11.2915479" />
      <trkpt lat="46.0176620" lon="11.2915180" />
      <trkpt lat="46.0175818" lon="11.2915045" />
      <trkpt lat="46.0174692" lon="11.2914958" />
      <trkpt lat="46.0174110" lon="11.2915161" />
      <trkpt lat="46.0174150" lon="11.2916260" />
      <trkpt lat="46.0174291" lon="11.2921034" />
      <trkpt lat="46.0174090" lon="11.2926705" />
      <trkpt lat="46.0174009" lon="11.2932173" />
      <trkpt lat="46.0173788" lon="11.2935240" />
      <trkpt lat="46.0173871" lon="11.2937052" />
      <trkpt lat="46.0173430" lon="11.2937574" />
      <trkpt lat="46.0172495" lon="11.2938798" />
      <trkpt lat="46.0170422" lon="11.2943575" />
      <trkpt lat="46.0169304" lon="11.2945945" />
      <trkpt lat="46.0166634" lon="11.2943853" />
      <trkpt lat="46.0165815" lon="11.2945784" />
      <trkpt lat="46.0164485" lon="11.2947194" />
      <trkpt lat="46.0162980" lon="11.2948585" />
      <trkpt lat="46.0142711" lon="11.2966157" />
      <trkpt lat="46.0141646" lon="11.2967071" />
      <trkpt lat="46.0140508" lon="11.2967979" />
      <trkpt lat="46.0139217" lon="11.2968977" />
      <trkpt lat="46.0138620" lon="11.2969480" />
      <trkpt lat="46.0136995" lon="11.2970791" />
      <trkpt lat="46.0136602" lon="11.2971080" />
      <trkpt lat="46.0133097" lon="11.2974064" />
      <trkpt lat="46.0132414" lon="11.2974829" />
      <trkpt lat="46.0131919" lon="11.2975460" />
      <trkpt lat="46.0131199" lon="11.2976603" />
      <trkpt lat="46.0130468" lon="11.2977714" />
      <trkpt lat="46.0129712" lon="11.2978899" />
      <trkpt lat="46.0129449" lon="11.2977945" />
      <trkpt lat="46.0127363" lon="11.2973759" />
      <trkpt lat="46.0125635" lon="11.2970267" />
      <trkpt lat="46.0124966" lon="11.2970878" />
      <trkpt lat="46.0124454" lon="11.2969828" />
      <trkpt lat="46.0124205" lon="11.2970021" />
      <trkpt lat="46.0124188" lon="11.2970045" />
      <trkpt lat="46.0124894" lon="11.2971477" />
      <trkpt lat="46.0124890" lon="11.2972019" />
      <trkpt lat="46.0124616" lon="11.2972508" />
      <trkpt lat="46.0121759" lon="11.2976221" />
      <trkpt lat="46.0120196" lon="11.2974579" />
      <trkpt lat="46.0119304" lon="11.2974983" />
      <trkpt lat="46.0117244" lon="11.2976832" />
      <trkpt lat="46.0116484" lon="11.2977478" />
      <trkpt lat="46.0116123" lon="11.2977853" />
      <trkpt lat="46.0112181" lon="11.2971112" />
      <trkpt lat="46.0111443" lon="11.2971898" />
      <trkpt lat="46.0109630" lon="11.2974406" />
      <trkpt lat="46.0107801" lon="11.2977017" />
      <trkpt lat="46.0106159" lon="11.2979879" />
      <trkpt lat="46.0105560" lon="11.2981004" />
      <trkpt lat="46.0104499" lon="11.2983154" />
      <trkpt lat="46.0103691" lon="11.2984793" />
      <trkpt lat="46.0102995" lon="11.2985799" />
      <trkpt lat="46.0102920" lon="11.2985647" />
      <trkpt lat="46.0102681" lon="11.2985392" />
      <trkpt lat="46.0102399" lon="11.2985256" />
      <trkpt lat="46.0102101" lon="11.2985252" />
      <trkpt lat="46.0102411" lon="11.2984343" />
      <trkpt lat="46.0102422" lon="11.2983790" />
      <trkpt lat="46.0101955" lon="11.2983987" />
      <trkpt lat="46.0101622" lon="11.2983686" />
      <trkpt lat="46.0101204" lon="11.2982296" />
      <trkpt lat="46.0100973" lon="11.2981290" />
      <trkpt lat="46.0100622" lon="11.2980408" />
      <trkpt lat="46.0099901" lon="11.2978608" />
      <trkpt lat="46.0096919" lon="11.2974025" />
      <trkpt lat="46.0095239" lon="11.2971002" />
      <trkpt lat="46.0093778" lon="11.2968502" />
      <trkpt lat="46.0092428" lon="11.2965144" />
      <trkpt lat="46.0092321" lon="11.2964879" />
      <trkpt lat="46.0091216" lon="11.2962500" />
      <trkpt lat="46.0089937" lon="11.2960212" />
      <trkpt lat="46.0088595" lon="11.2958710" />
      <trkpt lat="46.0088004" lon="11.2958202" />
      <trkpt lat="46.0087211" lon="11.2957519" />
      <trkpt lat="46.0086317" lon="11.2956996" />
      <trkpt lat="46.0085087" lon="11.2956866" />
      <trkpt lat="46.0084033" lon="11.2952909" />
      <trkpt lat="46.0083832" lon="11.2952157" />
      <trkpt lat="46.0082944" lon="11.2949620" />
      <trkpt lat="46.0082324" lon="11.2947849" />
      <trkpt lat="46.0079673" lon="11.2940833" />
      <trkpt lat="46.0078100" lon="11.2937086" />
      <trkpt lat="46.0075917" lon="11.2932997" />
      <trkpt lat="46.0075779" lon="11.2932774" />
      <trkpt lat="46.0075285" lon="11.2931979" />
      <trkpt lat="46.0074960" lon="11.2932546" />
      <trkpt lat="46.0074320" lon="11.2931812" />
      <trkpt lat="46.0073492" lon="11.2931457" />
      <trkpt lat="46.0072582" lon="11.2929831" />
      <trkpt lat="46.0072143" lon="11.2929119" />
      <trkpt lat="46.0071569" lon="11.2928501" />
      <trkpt lat="46.0070436" lon="11.2927249" />
      <trkpt lat="46.0067496" lon="11.2923820" />
      <trkpt lat="46.0063120" lon="11.2918505" />
      <trkpt lat="46.0061265" lon="11.2916198" />
      <trkpt lat="46.0061187" lon="11.2916103" />
      <trkpt lat="46.0061136" lon="11.2916040" />
      <trkpt lat="46.0060721" lon="11.2915522" />
      <trkpt lat="46.0060023" lon="11.2914652" />
      <trkpt lat="46.0059831" lon="11.2914413" />
      <trkpt lat="46.0059617" lon="11.2914159" />
      <trkpt lat="46.0056345" lon="11.2910289" />
      <trkpt lat="46.0056137" lon="11.2910038" />
      <trkpt lat="46.0056287" lon="11.2909373" />
      <trkpt lat="46.0056664" lon="11.2908929" />
      <trkpt lat="46.0056710" lon="11.2908528" />
      <trkpt lat="46.0056833" lon="11.2907267" />
      <trkpt lat="46.0057102" lon="11.2903954" />
      <trkpt lat="46.0057476" lon="11.2899830" />
      <trkpt lat="46.0057875" lon="11.2898952" />
      <trkpt lat="46.0057931" lon="11.2897772" />
      <trkpt lat="46.0058080" lon="11.2894231" />
      <trkpt lat="46.0058229" lon="11.2891334" />
      <trkpt lat="46.0058639" lon="11.2881115" />
      <trkpt lat="46.0058788" lon="11.2875697" />
      <trkpt lat="46.0059011" lon="11.2870574" />
      <trkpt lat="46.0059309" lon="11.2865236" />
      <trkpt lat="46.0059371" lon="11.2863030" />
      <trkpt lat="46.0059421" lon="11.2861240" />
      <trkpt lat="46.0059663" lon="11.2855232" />
      <trkpt lat="46.0059887" lon="11.2850457" />
      <trkpt lat="46.0060089" lon="11.2849039" />
      <trkpt lat="46.0060791" lon="11.2845651" />
      <trkpt lat="46.0061883" lon="11.2841360" />
      <trkpt lat="46.0062306" lon="11.2838999" />
      <trkpt lat="46.0062551" lon="11.2836161" />
      <trkpt lat="46.0062737" lon="11.2833720" />
      <trkpt lat="46.0062849" lon="11.2831011" />
      <trkpt lat="46.0062905" lon="11.2828007" />
      <trkpt lat="46.0062878" lon="11.2825911" />
      <trkpt lat="46.0062965" lon="11.2823360" />
      <trkpt lat="46.0063325" lon="11.2822117" />
      <trkpt lat="46.0063865" lon="11.2820400" />
      <trkpt lat="46.0064173" lon="11.2822292" />
      <trkpt lat="46.0064120" lon="11.2823573" />
      <trkpt lat="46.0065193" lon="11.2825268" />
      <trkpt lat="46.0065272" lon="11.2826662" />
      <trkpt lat="46.0064670" lon="11.2827717" />
      <trkpt lat="46.0065612" lon="11.2831597" />
      <trkpt lat="46.0065376" lon="11.2834046" />
      <trkpt lat="46.0063440" lon="11.2835741" />
      <trkpt lat="46.0063466" lon="11.2834950" />
      <trkpt lat="46.0062551" lon="11.2836161" />
      <trkpt lat="46.0062306" lon="11.2838999" />
      <trkpt lat="46.0061883" lon="11.2841360" />
      <trkpt lat="46.0060791" lon="11.2845651" />
      <trkpt lat="46.0060089" lon="11.2849039" />
      <trkpt lat="46.0059721" lon="11.2849308" />
      <trkpt lat="46.0062180" lon="11.2838113" />
      <trkpt lat="46.0062572" lon="11.2830732" />
      <trkpt lat="46.0062530" lon="11.2826210" />
      <trkpt lat="46.0062378" lon="11.2823980" />
      <trkpt lat="46.0061273" lon="11.2824079" />
      <trkpt lat="46.0060352" lon="11.2824938" />
      <trkpt lat="46.0059011" lon="11.2827835" />
      <trkpt lat="46.0058188" lon="11.2831220" />
      <trkpt lat="46.0057968" lon="11.2832126" />
      <trkpt lat="46.0057642" lon="11.2832787" />
      <trkpt lat="46.0057297" lon="11.2833092" />
      <trkpt lat="46.0056403" lon="11.2837383" />
      <trkpt lat="46.0056030" lon="11.2838993" />
      <trkpt lat="46.0055583" lon="11.2839315" />
      <trkpt lat="46.0055230" lon="11.2838559" />
      <trkpt lat="46.0055176" lon="11.2837513" />
      <trkpt lat="46.0054906" lon="11.2832967" />
      <trkpt lat="46.0054763" lon="11.2831482" />
      <trkpt lat="46.0054316" lon="11.2827084" />
      <trkpt lat="46.0053839" lon="11.2826550" />
      <trkpt lat="46.0053337" lon="11.2825619" />
      <trkpt lat="46.0053304" lon="11.2824696" />
      <trkpt lat="46.0054936" lon="11.2816637" />
      <trkpt lat="46.0058320" lon="11.2802823" />
      <trkpt lat="46.0059825" lon="11.2794733" />
      <trkpt lat="46.0061626" lon="11.2788646" />
      <trkpt lat="46.0062817" lon="11.2784164" />
      <trkpt lat="46.0062819" lon="11.2781809" />
      <trkpt lat="46.0061945" lon="11.2780580" />
      <trkpt lat="46.0061649" lon="11.2780867" />
      <trkpt lat="46.0061139" lon="11.2781491" />
      <trkpt lat="46.0060129" lon="11.2785885" />
      <trkpt lat="46.0058788" lon="11.2788460" />
      <trkpt lat="46.0056999" lon="11.2794361" />
      <trkpt lat="46.0055732" lon="11.2796936" />
      <trkpt lat="46.0053496" lon="11.2800691" />
      <trkpt lat="46.0052155" lon="11.2805090" />
      <trkpt lat="46.0050590" lon="11.2812600" />
      <trkpt lat="46.0049994" lon="11.2815711" />
      <trkpt lat="46.0048449" lon="11.2818736" />
      <trkpt lat="46.0047833" lon="11.2821076" />
      <trkpt lat="46.0046640" lon="11.2823221" />
      <trkpt lat="46.0045374" lon="11.2825367" />
      <trkpt lat="46.0044628" lon="11.2828049" />
      <trkpt lat="46.0045075" lon="11.2828693" />
      <trkpt lat="46.0045970" lon="11.2828693" />
      <trkpt lat="46.0047460" lon="11.2826333" />
      <trkpt lat="46.0048429" lon="11.2824723" />
      <trkpt lat="46.0049770" lon="11.2822363" />
      <trkpt lat="46.0050516" lon="11.2821076" />
      <trkpt lat="46.0050963" lon="11.2821183" />
      <trkpt lat="46.0051112" lon="11.2822041" />
      <trkpt lat="46.0050590" lon="11.2823114" />
      <trkpt lat="46.0050292" lon="11.2825367" />
      <trkpt lat="46.0050292" lon="11.2828478" />
      <trkpt lat="46.0050665" lon="11.2830517" />
      <trkpt lat="46.0051261" lon="11.2830839" />
      <trkpt lat="46.0052230" lon="11.2830302" />
      <trkpt lat="46.0052602" lon="11.2828693" />
      <trkpt lat="46.0052677" lon="11.2826976" />
      <trkpt lat="46.0053049" lon="11.2826333" />
      <trkpt lat="46.0053646" lon="11.2826333" />
      <trkpt lat="46.0053839" lon="11.2826550" />
      <trkpt lat="46.0054316" lon="11.2827084" />
      <trkpt lat="46.0054763" lon="11.2831482" />
      <trkpt lat="46.0054906" lon="11.2832967" />
      <trkpt lat="46.0055176" lon="11.2837513" />
      <trkpt lat="46.0055230" lon="11.2838559" />
      <trkpt lat="46.0055583" lon="11.2839315" />
      <trkpt lat="46.0056030" lon="11.2838993" />
      <trkpt lat="46.0056403" lon="11.2837383" />
      <trkpt lat="46.0057297" lon="11.2833092" />
      <trkpt lat="46.0057642" lon="11.2832787" />
      <trkpt lat="46.0057968" lon="11.2832126" />
      <trkpt lat="46.0058188" lon="11.2831220" />
      <trkpt lat="46.0059011" lon="11.2827835" />
      <trkpt lat="46.0060352" lon="11.2824938" />
      <trkpt lat="46.0061273" lon="11.2824079" />
      <trkpt lat="46.0062378" lon="11.2823980" />
      <trkpt lat="46.0062530" lon="11.2826210" />
      <trkpt lat="46.0062572" lon="11.2830732" />
      <trkpt lat="46.0062180" lon="11.2838113" />
      <trkpt lat="46.0059721" lon="11.2849308" />
      <trkpt lat="46.0057821" lon="11.2849801" />
      <trkpt lat="46.0052009" lon="11.2852077" />
      <trkpt lat="46.0050567" lon="11.2853509" />
      <trkpt lat="46.0049591" lon="11.2854546" />
      <trkpt lat="46.0049934" lon="11.2856460" />
      <trkpt lat="46.0050192" lon="11.2859102" />
      <trkpt lat="46.0049979" lon="11.2863394" />
      <trkpt lat="46.0050760" lon="11.2868197" />
      <trkpt lat="46.0052029" lon="11.2871711" />
      <trkpt lat="46.0050958" lon="11.2873389" />
      <trkpt lat="46.0044746" lon="11.2882791" />
      <trkpt lat="46.0043784" lon="11.2884364" />
      <trkpt lat="46.0044612" lon="11.2885519" />
      <trkpt lat="46.0042596" lon="11.2888915" />
      <trkpt lat="46.0042296" lon="11.2889397" />
      <trkpt lat="46.0042093" lon="11.2889147" />
      <trkpt lat="46.0040586" lon="11.2887284" />
      <trkpt lat="46.0040149" lon="11.2887105" />
      <trkpt lat="46.0039589" lon="11.2888223" />
      <trkpt lat="46.0039147" lon="11.2889133" />
      <trkpt lat="46.0039244" lon="11.2889256" />
      <trkpt lat="46.0040061" lon="11.2890183" />
      <trkpt lat="46.0041204" lon="11.2891534" />
      <trkpt lat="46.0041342" lon="11.2891696" />
      <trkpt lat="46.0045284" lon="11.2896353" />
      <trkpt lat="46.0047858" lon="11.2899393" />
      <trkpt lat="46.0051229" lon="11.2903376" />
      <trkpt lat="46.0051065" lon="11.2903925" />
      <trkpt lat="46.0051264" lon="11.2904165" />
      <trkpt lat="46.0053607" lon="11.2906989" />
      <trkpt lat="46.0053797" lon="11.2907218" />
      <trkpt lat="46.0054014" lon="11.2907480" />
      <trkpt lat="46.0055938" lon="11.2909798" />
      <trkpt lat="46.0056137" lon="11.2910038" />
      <trkpt lat="46.0056287" lon="11.2909373" />
      <trkpt lat="46.0060110" lon="11.2913919" />
      <trkpt lat="46.0059925" lon="11.2914253" />
      <trkpt lat="46.0059831" lon="11.2914413" />
      <trkpt lat="46.0060023" lon="11.2914652" />
      <trkpt lat="46.0060721" lon="11.2915522" />
      <trkpt lat="46.0061136" lon="11.2916040" />
      <trkpt lat="46.0061187" lon="11.2916103" />
      <trkpt lat="46.0061265" lon="11.2916198" />
      <trkpt lat="46.0063120" lon="11.2918505" />
      <trkpt lat="46.0062718" lon="11.2919310" />
      <trkpt lat="46.0061718" lon="11.2921281" />
      <trkpt lat="46.0061454" lon="11.2922543" />
      <trkpt lat="46.0062155" lon="11.2924344" />
      <trkpt lat="46.0064631" lon="11.2928357" />
      <trkpt lat="46.0065037" lon="11.2927713" />
      <trkpt lat="46.0065652" lon="11.2926662" />
      <trkpt lat="46.0067031" lon="11.2924537" />
      <trkpt lat="46.0071066" lon="11.2929451" />
      <trkpt lat="46.0071569" lon="11.2928501" />
      <trkpt lat="46.0072143" lon="11.2929119" />
      <trkpt lat="46.0072582" lon="11.2929831" />
      <trkpt lat="46.0073492" lon="11.2931457" />
      <trkpt lat="46.0073728" lon="11.2930947" />
      <trkpt lat="46.0074144" lon="11.2931202" />
      <trkpt lat="46.0074595" lon="11.2931252" />
      <trkpt lat="46.0075033" lon="11.2931094" />
      <trkpt lat="46.0075285" lon="11.2931979" />
      <trkpt lat="46.0075779" lon="11.2932774" />
      <trkpt lat="46.0075917" lon="11.2932997" />
      <trkpt lat="46.0078100" lon="11.2937086" />
      <trkpt lat="46.0079673" lon="11.2940833" />
      <trkpt lat="46.0082324" lon="11.2947849" />
      <trkpt lat="46.0082944" lon="11.2949620" />
      <trkpt lat="46.0083832" lon="11.2952157" />
      <trkpt lat="46.0084033" lon="11.2952909" />
      <trkpt lat="46.0085087" lon="11.2956866" />
      <trkpt lat="46.0085345" lon="11.2957863" />
      <trkpt lat="46.0086007" lon="11.2960421" />
      <trkpt lat="46.0087115" lon="11.2964700" />
      <trkpt lat="46.0088589" lon="11.2970393" />
      <trkpt lat="46.0089850" lon="11.2975267" />
      <trkpt lat="46.0090480" lon="11.2977699" />
      <trkpt lat="46.0091039" lon="11.2979094" />
      <trkpt lat="46.0091656" lon="11.2980281" />
      <trkpt lat="46.0092317" lon="11.2981169" />
      <trkpt lat="46.0092880" lon="11.2981822" />
      <trkpt lat="46.0094346" lon="11.2983049" />
      <trkpt lat="46.0095394" lon="11.2983507" />
      <trkpt lat="46.0096438" lon="11.2983759" />
      <trkpt lat="46.0098825" lon="11.2984367" />
      <trkpt lat="46.0098012" lon="11.2986955" />
      <trkpt lat="46.0099120" lon="11.2988591" />
      <trkpt lat="46.0099504" lon="11.2988854" />
      <trkpt lat="46.0100063" lon="11.2990362" />
      <trkpt lat="46.0100425" lon="11.2991474" />
      <trkpt lat="46.0100209" lon="11.2991942" />
      <trkpt lat="46.0096193" lon="11.2990766" />
      <trkpt lat="46.0093803" lon="11.2989948" />
      <trkpt lat="46.0091675" lon="11.2989813" />
      <trkpt lat="46.0090929" lon="11.2989837" />
      <trkpt lat="46.0090193" lon="11.2990345" />
      <trkpt lat="46.0088932" lon="11.2991920" />
      <trkpt lat="46.0087057" lon="11.2995460" />
      <trkpt lat="46.0086613" lon="11.2996130" />
      <trkpt lat="46.0089993" lon="11.2998204" />
      <trkpt lat="46.0092735" lon="11.3000264" />
      <trkpt lat="46.0096193" lon="11.2990766" />
      <trkpt lat="46.0100209" lon="11.2991942" />
      <trkpt lat="46.0100425" lon="11.2991474" />
      <trkpt lat="46.0100063" lon="11.2990362" />
      <trkpt lat="46.0100987" lon="11.2987285" />
      <trkpt lat="46.0100667" lon="11.2986271" />
      <trkpt lat="46.0100762" lon="11.2985089" />
      <trkpt lat="46.0100365" lon="11.2984927" />
      <trkpt lat="46.0099647" lon="11.2984635" />
      <trkpt lat="46.0099589" lon="11.2984611" />
      <trkpt lat="46.0098825" lon="11.2984367" />
      <trkpt lat="46.0096438" lon="11.2983759" />
      <trkpt lat="46.0095394" lon="11.2983507" />
      <trkpt lat="46.0094346" lon="11.2983049" />
      <trkpt lat="46.0092880" lon="11.2981822" />
      <trkpt lat="46.0092317" lon="11.2981169" />
      <trkpt lat="46.0091656" lon="11.2980281" />
      <trkpt lat="46.0091039" lon="11.2979094" />
      <trkpt lat="46.0090480" lon="11.2977699" />
      <trkpt lat="46.0089850" lon="11.2975267" />
      <trkpt lat="46.0088589" lon="11.2970393" />
      <trkpt lat="46.0087115" lon="11.2964700" />
      <trkpt lat="46.0086007" lon="11.2960421" />
      <trkpt lat="46.0085345" lon="11.2957863" />
      <trkpt lat="46.0085087" lon="11.2956866" />
      <trkpt lat="46.0086317" lon="11.2956996" />
      <trkpt lat="46.0087211" lon="11.2957519" />
      <trkpt lat="46.0088004" lon="11.2958202" />
      <trkpt lat="46.0088595" lon="11.2958710" />
      <trkpt lat="46.0089937" lon="11.2960212" />
      <trkpt lat="46.0091216" lon="11.2962500" />
      <trkpt lat="46.0092321" lon="11.2964879" />
      <trkpt lat="46.0092428" lon="11.2965144" />
      <trkpt lat="46.0093778" lon="11.2968502" />
      <trkpt lat="46.0095239" lon="11.2971002" />
      <trkpt lat="46.0096919" lon="11.2974025" />
      <trkpt lat="46.0099901" lon="11.2978608" />
      <trkpt lat="46.0100622" lon="11.2980408" />
      <trkpt lat="46.0100973" lon="11.2981290" />
      <trkpt lat="46.0101204" lon="11.2982296" />
      <trkpt lat="46.0101622" lon="11.2983686" />
      <trkpt lat="46.0101955" lon="11.2983987" />
      <trkpt lat="46.0102422" lon="11.2983790" />
      <trkpt lat="46.0102411" lon="11.2984343" />
      <trkpt lat="46.0102101" lon="11.2985252" />
      <trkpt lat="46.0102399" lon="11.2985256" />
      <trkpt lat="46.0102681" lon="11.2985392" />
      <trkpt lat="46.0102920" lon="11.2985647" />
      <trkpt lat="46.0102995" lon="11.2985799" />
      <trkpt lat="46.0103691" lon="11.2984793" />
      <trkpt lat="46.0104499" lon="11.2983154" />
      <trkpt lat="46.0105560" lon="11.2981004" />
      <trkpt lat="46.0106159" lon="11.2979879" />
      <trkpt lat="46.0107801" lon="11.2977017" />
      <trkpt lat="46.0109630" lon="11.2974406" />
      <trkpt lat="46.0111443" lon="11.2971898" />
      <trkpt lat="46.0112181" lon="11.2971112" />
      <trkpt lat="46.0116123" lon="11.2977853" />
      <trkpt lat="46.0115764" lon="11.2979707" />
      <trkpt lat="46.0115587" lon="11.2979934" />
      <trkpt lat="46.0116728" lon="11.2981556" />
      <trkpt lat="46.0118028" lon="11.2983483" />
      <trkpt lat="46.0118824" lon="11.2985225" />
      <trkpt lat="46.0120860" lon="11.2982428" />
      <trkpt lat="46.0122052" lon="11.2981248" />
      <trkpt lat="46.0122499" lon="11.2982214" />
      <trkpt lat="46.0122424" lon="11.2983394" />
      <trkpt lat="46.0123552" lon="11.2985082" />
    </trkseg>
  </trk>
</gpx>
