<?xml version="1.0" encoding="UTF-8"?>
<gpx xmlns="http://www.topografix.com/GPX/1/1" version="1.1" creator="ShapeRoute route-engine">
  <metadata>
    <name>ciao 12 km · 2026-10-05</name>
    <author>
      <name>ShapeRoute route-engine</name>
    </author>
    <copyright author="OpenStreetMap contributors">
      <license>https://opendatacommons.org/licenses/odbl/1-0/</license>
    </copyright>
    <link href="https://www.openstreetmap.org/copyright">
      <text>© OpenStreetMap contributors</text>
    </link>
    <time>2026-10-05T11:12:45Z</time>
  </metadata>
  <trk>
    <name>ciao 12 km · 2026-10-05</name>
    <trkseg>
      <trkpt lat="46.0668711" lon="11.1210492" />
      <trkpt lat="46.0667705" lon="11.1210629" />
      <trkpt lat="46.0667526" lon="11.1210542" />
      <trkpt lat="46.0667024" lon="11.1213629" />
      <trkpt lat="46.0666701" lon="11.1215352" />
      <trkpt lat="46.0666789" lon="11.1217092" />
      <trkpt lat="46.0667274" lon="11.1218448" />
      <trkpt lat="46.0667304" lon="11.1218751" />
      <trkpt lat="46.0667210" lon="11.1219626" />
      <trkpt lat="46.0667229" lon="11.1219913" />
      <trkpt lat="46.0667249" lon="11.1220591" />
      <trkpt lat="46.0667287" lon="11.1221612" />
      <trkpt lat="46.0667350" lon="11.1222603" />
      <trkpt lat="46.0667357" lon="11.1222747" />
      <trkpt lat="46.0667414" lon="11.1223091" />
      <trkpt lat="46.0667532" lon="11.1223909" />
      <trkpt lat="46.0667715" lon="11.1225101" />
      <trkpt lat="46.0667729" lon="11.1225194" />
      <trkpt lat="46.0667810" lon="11.1225726" />
      <trkpt lat="46.0668548" lon="11.1230552" />
      <trkpt lat="46.0668872" lon="11.1232848" />
      <trkpt lat="46.0668905" lon="11.1233334" />
      <trkpt lat="46.0668986" lon="11.1233290" />
      <trkpt lat="46.0669188" lon="11.1233181" />
      <trkpt lat="46.0669662" lon="11.1237185" />
      <trkpt lat="46.0670098" lon="11.1237070" />
      <trkpt lat="46.0670190" lon="11.1237046" />
      <trkpt lat="46.0671462" lon="11.1236709" />
      <trkpt lat="46.0672770" lon="11.1236362" />
      <trkpt lat="46.0672773" lon="11.1236703" />
      <trkpt lat="46.0672835" lon="11.1236687" />
      <trkpt lat="46.0672953" lon="11.1236656" />
      <trkpt lat="46.0672974" lon="11.1236820" />
      <trkpt lat="46.0673423" lon="11.1240359" />
      <trkpt lat="46.0673490" lon="11.1240885" />
      <trkpt lat="46.0671006" lon="11.1241540" />
      <trkpt lat="46.0671042" lon="11.1241841" />
      <trkpt lat="46.0671085" lon="11.1242194" />
      <trkpt lat="46.0673448" lon="11.1241473" />
      <trkpt lat="46.0673613" lon="11.1241477" />
      <trkpt lat="46.0673764" lon="11.1241480" />
      <trkpt lat="46.0676957" lon="11.1240624" />
      <trkpt lat="46.0676580" lon="11.1242806" />
      <trkpt lat="46.0676640" lon="11.1246106" />
      <trkpt lat="46.0676595" lon="11.1246244" />
      <trkpt lat="46.0678409" lon="11.1247037" />
      <trkpt lat="46.0681132" lon="11.1247351" />
      <trkpt lat="46.0681095" lon="11.1247764" />
      <trkpt lat="46.0681278" lon="11.1248990" />
      <trkpt lat="46.0681331" lon="11.1250200" />
      <trkpt lat="46.0680776" lon="11.1252048" />
      <trkpt lat="46.0681150" lon="11.1252172" />
      <trkpt lat="46.0681785" lon="11.1252211" />
      <trkpt lat="46.0682273" lon="11.1253477" />
      <trkpt lat="46.0682312" lon="11.1253579" />
      <trkpt lat="46.0683737" lon="11.1252392" />
      <trkpt lat="46.0683943" lon="11.1252914" />
      <trkpt lat="46.0685395" lon="11.1255528" />
      <trkpt lat="46.0687920" lon="11.1259214" />
      <trkpt lat="46.0689309" lon="11.1259038" />
      <trkpt lat="46.0689600" lon="11.1258922" />
      <trkpt lat="46.0690129" lon="11.1258657" />
      <trkpt lat="46.0690323" lon="11.1258559" />
      <trkpt lat="46.0691752" lon="11.1258084" />
      <trkpt lat="46.0693468" lon="11.1257235" />
      <trkpt lat="46.0694703" lon="11.1256455" />
      <trkpt lat="46.0695166" lon="11.1256194" />
      <trkpt lat="46.0696736" lon="11.1255595" />
      <trkpt lat="46.0696998" lon="11.1255439" />
      <trkpt lat="46.0699822" lon="11.1254971" />
      <trkpt lat="46.0701757" lon="11.1254398" />
      <trkpt lat="46.0701951" lon="11.1255251" />
      <trkpt lat="46.0703104" lon="11.1258937" />
      <trkpt lat="46.0703744" lon="11.1261142" />
      <trkpt lat="46.0703104" lon="11.1258937" />
      <trkpt lat="46.0701951" lon="11.1255251" />
      <trkpt lat="46.0701757" lon="11.1254398" />
      <trkpt lat="46.0699822" lon="11.1254971" />
      <trkpt lat="46.0696998" lon="11.1255439" />
      <trkpt lat="46.0696736" lon="11.1255595" />
      <trkpt lat="46.0695166" lon="11.1256194" />
      <trkpt lat="46.0694703" lon="11.1256455" />
      <trkpt lat="46.0693468" lon="11.1257235" />
      <trkpt lat="46.0691752" lon="11.1258084" />
      <trkpt lat="46.0690323" lon="11.1258559" />
      <trkpt lat="46.0690129" lon="11.1258657" />
      <trkpt lat="46.0689600" lon="11.1258922" />
      <trkpt lat="46.0689309" lon="11.1259038" />
      <trkpt lat="46.0687920" lon="11.1259214" />
      <trkpt lat="46.0685395" lon="11.1255528" />
      <trkpt lat="46.0683943" lon="11.1252914" />
      <trkpt lat="46.0683737" lon="11.1252392" />
      <trkpt lat="46.0682312" lon="11.1253579" />
      <trkpt lat="46.0682273" lon="11.1253477" />
      <trkpt lat="46.0681785" lon="11.1252211" />
      <trkpt lat="46.0681150" lon="11.1252172" />
      <trkpt lat="46.0680776" lon="11.1252048" />
      <trkpt lat="46.0681331" lon="11.1250200" />
      <trkpt lat="46.0681278" lon="11.1248990" />
      <trkpt lat="46.0681095" lon="11.1247764" />
      <trkpt lat="46.0681132" lon="11.1247351" />
      <trkpt lat="46.0678409" lon="11.1247037" />
      <trkpt lat="46.0676595" lon="11.1246244" />
      <trkpt lat="46.0676640" lon="11.1246106" />
      <trkpt lat="46.0676580" lon="11.1242806" />
      <trkpt lat="46.0676957" lon="11.1240624" />
      <trkpt lat="46.0673764" lon="11.1241480" />
      <trkpt lat="46.0673613" lon="11.1241477" />
      <trkpt lat="46.0673448" lon="11.1241473" />
      <trkpt lat="46.0671085" lon="11.1242194" />
      <trkpt lat="46.0670867" lon="11.1242261" />
      <trkpt lat="46.0671291" lon="11.1248045" />
      <trkpt lat="46.0671577" lon="11.1249223" />
      <trkpt lat="46.0671883" lon="11.1251108" />
      <trkpt lat="46.0672104" lon="11.1253055" />
      <trkpt lat="46.0672112" lon="11.1253651" />
      <trkpt lat="46.0671801" lon="11.1253736" />
      <trkpt lat="46.0671955" lon="11.1255186" />
      <trkpt lat="46.0672169" lon="11.1256572" />
      <trkpt lat="46.0672654" lon="11.1262921" />
      <trkpt lat="46.0672389" lon="11.1262953" />
      <trkpt lat="46.0671660" lon="11.1262902" />
      <trkpt lat="46.0671654" lon="11.1262313" />
      <trkpt lat="46.0671711" lon="11.1261888" />
      <trkpt lat="46.0669729" lon="11.1260698" />
      <trkpt lat="46.0669435" lon="11.1260287" />
      <trkpt lat="46.0668109" lon="11.1259490" />
      <trkpt lat="46.0667623" lon="11.1259229" />
      <trkpt lat="46.0665128" lon="11.1257710" />
      <trkpt lat="46.0665218" lon="11.1260084" />
      <trkpt lat="46.0662258" lon="11.1258198" />
      <trkpt lat="46.0661835" lon="11.1257896" />
      <trkpt lat="46.0660046" lon="11.1256384" />
      <trkpt lat="46.0659888" lon="11.1256911" />
      <trkpt lat="46.0659575" lon="11.1257955" />
      <trkpt lat="46.0659342" lon="11.1258733" />
      <trkpt lat="46.0662441" lon="11.1260428" />
      <trkpt lat="46.0662124" lon="11.1261632" />
      <trkpt lat="46.0659664" lon="11.1270981" />
      <trkpt lat="46.0660419" lon="11.1271369" />
      <trkpt lat="46.0660788" lon="11.1271557" />
      <trkpt lat="46.0660946" lon="11.1271778" />
      <trkpt lat="46.0661080" lon="11.1271906" />
      <trkpt lat="46.0660933" lon="11.1272524" />
      <trkpt lat="46.0660811" lon="11.1273035" />
      <trkpt lat="46.0666898" lon="11.1276342" />
      <trkpt lat="46.0667460" lon="11.1276611" />
      <trkpt lat="46.0667700" lon="11.1276702" />
      <trkpt lat="46.0671509" lon="11.1278684" />
      <trkpt lat="46.0671397" lon="11.1279343" />
      <trkpt lat="46.0672226" lon="11.1279648" />
      <trkpt lat="46.0672549" lon="11.1279761" />
      <trkpt lat="46.0673063" lon="11.1279940" />
      <trkpt lat="46.0672919" lon="11.1280548" />
      <trkpt lat="46.0673689" lon="11.1281179" />
      <trkpt lat="46.0674041" lon="11.1281471" />
      <trkpt lat="46.0675698" lon="11.1282843" />
      <trkpt lat="46.0677410" lon="11.1284260" />
      <trkpt lat="46.0677852" lon="11.1284430" />
      <trkpt lat="46.0677416" lon="11.1285543" />
      <trkpt lat="46.0676937" lon="11.1286589" />
      <trkpt lat="46.0676290" lon="11.1287581" />
      <trkpt lat="46.0675899" lon="11.1288339" />
      <trkpt lat="46.0675431" lon="11.1289875" />
      <trkpt lat="46.0677760" lon="11.1290764" />
      <trkpt lat="46.0676974" lon="11.1292563" />
      <trkpt lat="46.0676328" lon="11.1294750" />
      <trkpt lat="46.0675257" lon="11.1297774" />
      <trkpt lat="46.0674371" lon="11.1299081" />
      <trkpt lat="46.0674516" lon="11.1299333" />
      <trkpt lat="46.0671833" lon="11.1302975" />
      <trkpt lat="46.0670726" lon="11.1304665" />
      <trkpt lat="46.0670063" lon="11.1305799" />
      <trkpt lat="46.0669014" lon="11.1308307" />
      <trkpt lat="46.0668870" lon="11.1308644" />
      <trkpt lat="46.0669014" lon="11.1308307" />
      <trkpt lat="46.0670063" lon="11.1305799" />
      <trkpt lat="46.0670726" lon="11.1304665" />
      <trkpt lat="46.0671833" lon="11.1302975" />
      <trkpt lat="46.0674516" lon="11.1299333" />
      <trkpt lat="46.0674371" lon="11.1299081" />
      <trkpt lat="46.0675257" lon="11.1297774" />
      <trkpt lat="46.0676328" lon="11.1294750" />
      <trkpt lat="46.0676974" lon="11.1292563" />
      <trkpt lat="46.0677760" lon="11.1290764" />
      <trkpt lat="46.0675431" lon="11.1289875" />
      <trkpt lat="46.0675234" lon="11.1289800" />
      <trkpt lat="46.0674601" lon="11.1289333" />
      <trkpt lat="46.0671609" lon="11.1286784" />
      <trkpt lat="46.0670564" lon="11.1289334" />
      <trkpt lat="46.0669807" lon="11.1291233" />
      <trkpt lat="46.0669782" lon="11.1291295" />
      <trkpt lat="46.0669580" lon="11.1291785" />
      <trkpt lat="46.0668906" lon="11.1293426" />
      <trkpt lat="46.0668399" lon="11.1294591" />
      <trkpt lat="46.0668304" lon="11.1294810" />
      <trkpt lat="46.0667883" lon="11.1295779" />
      <trkpt lat="46.0666866" lon="11.1298336" />
      <trkpt lat="46.0666267" lon="11.1299842" />
      <trkpt lat="46.0666178" lon="11.1300060" />
      <trkpt lat="46.0664133" lon="11.1305095" />
      <trkpt lat="46.0663081" lon="11.1307684" />
      <trkpt lat="46.0662937" lon="11.1308020" />
      <trkpt lat="46.0662690" lon="11.1308597" />
      <trkpt lat="46.0662110" lon="11.1310004" />
      <trkpt lat="46.0662020" lon="11.1310224" />
      <trkpt lat="46.0661961" lon="11.1310374" />
      <trkpt lat="46.0660807" lon="11.1313301" />
      <trkpt lat="46.0660704" lon="11.1313564" />
      <trkpt lat="46.0660534" lon="11.1313411" />
      <trkpt lat="46.0660391" lon="11.1313766" />
      <trkpt lat="46.0659342" lon="11.1316366" />
      <trkpt lat="46.0659046" lon="11.1316135" />
      <trkpt lat="46.0659342" lon="11.1316366" />
      <trkpt lat="46.0657065" lon="11.1322009" />
      <trkpt lat="46.0655562" lon="11.1325879" />
      <trkpt lat="46.0653870" lon="11.1330235" />
      <trkpt lat="46.0653088" lon="11.1332542" />
      <trkpt lat="46.0652791" lon="11.1333480" />
      <trkpt lat="46.0652521" lon="11.1334486" />
      <trkpt lat="46.0652232" lon="11.1335881" />
      <trkpt lat="46.0651955" lon="11.1337356" />
      <trkpt lat="46.0652243" lon="11.1337433" />
      <trkpt lat="46.0651984" lon="11.1340365" />
      <trkpt lat="46.0651966" lon="11.1340777" />
      <trkpt lat="46.0651899" lon="11.1342266" />
      <trkpt lat="46.0651779" lon="11.1346935" />
      <trkpt lat="46.0651793" lon="11.1349244" />
      <trkpt lat="46.0651805" lon="11.1351790" />
      <trkpt lat="46.0651878" lon="11.1353888" />
      <trkpt lat="46.0651993" lon="11.1354464" />
      <trkpt lat="46.0651792" lon="11.1354971" />
      <trkpt lat="46.0651491" lon="11.1354441" />
      <trkpt lat="46.0651249" lon="11.1354976" />
      <trkpt lat="46.0649644" lon="11.1357256" />
      <trkpt lat="46.0649292" lon="11.1357846" />
      <trkpt lat="46.0649149" lon="11.1358081" />
      <trkpt lat="46.0647484" lon="11.1360380" />
      <trkpt lat="46.0647387" lon="11.1360504" />
      <trkpt lat="46.0646688" lon="11.1360651" />
      <trkpt lat="46.0646666" lon="11.1360810" />
      <trkpt lat="46.0647571" lon="11.1360948" />
      <trkpt lat="46.0649451" lon="11.1363777" />
      <trkpt lat="46.0650800" lon="11.1365695" />
      <trkpt lat="46.0652233" lon="11.1368029" />
      <trkpt lat="46.0653381" lon="11.1369615" />
      <trkpt lat="46.0652233" lon="11.1368029" />
      <trkpt lat="46.0650800" lon="11.1365695" />
      <trkpt lat="46.0649451" lon="11.1363777" />
      <trkpt lat="46.0647571" lon="11.1360948" />
      <trkpt lat="46.0646666" lon="11.1360810" />
      <trkpt lat="46.0646688" lon="11.1360651" />
      <trkpt lat="46.0647387" lon="11.1360504" />
      <trkpt lat="46.0647329" lon="11.1360399" />
      <trkpt lat="46.0647416" lon="11.1360277" />
      <trkpt lat="46.0649073" lon="11.1357966" />
      <trkpt lat="46.0649227" lon="11.1357751" />
      <trkpt lat="46.0649292" lon="11.1357846" />
      <trkpt lat="46.0649644" lon="11.1357256" />
      <trkpt lat="46.0651249" lon="11.1354976" />
      <trkpt lat="46.0651491" lon="11.1354441" />
      <trkpt lat="46.0651792" lon="11.1354971" />
      <trkpt lat="46.0652385" lon="11.1356027" />
      <trkpt lat="46.0653527" lon="11.1357398" />
      <trkpt lat="46.0654131" lon="11.1357890" />
      <trkpt lat="46.0654938" lon="11.1358506" />
      <trkpt lat="46.0655964" lon="11.1359023" />
      <trkpt lat="46.0656340" lon="11.1359161" />
      <trkpt lat="46.0657268" lon="11.1359380" />
      <trkpt lat="46.0657572" lon="11.1359521" />
      <trkpt lat="46.0658664" lon="11.1360698" />
      <trkpt lat="46.0659041" lon="11.1361217" />
      <trkpt lat="46.0660516" lon="11.1363747" />
      <trkpt lat="46.0661586" lon="11.1365284" />
      <trkpt lat="46.0662155" lon="11.1365977" />
      <trkpt lat="46.0663092" lon="11.1366570" />
      <trkpt lat="46.0663618" lon="11.1366839" />
      <trkpt lat="46.0664807" lon="11.1367333" />
      <trkpt lat="46.0665653" lon="11.1367554" />
      <trkpt lat="46.0666011" lon="11.1367615" />
      <trkpt lat="46.0666097" lon="11.1367658" />
      <trkpt lat="46.0667427" lon="11.1369357" />
      <trkpt lat="46.0668043" lon="11.1369847" />
      <trkpt lat="46.0668630" lon="11.1370144" />
      <trkpt lat="46.0668957" lon="11.1370294" />
      <trkpt lat="46.0669119" lon="11.1370406" />
      <trkpt lat="46.0669485" lon="11.1370766" />
      <trkpt lat="46.0669565" lon="11.1373186" />
      <trkpt lat="46.0667909" lon="11.1377035" />
      <trkpt lat="46.0667605" lon="11.1377435" />
      <trkpt lat="46.0667569" lon="11.1377711" />
      <trkpt lat="46.0667579" lon="11.1377948" />
      <trkpt lat="46.0667629" lon="11.1378286" />
      <trkpt lat="46.0667790" lon="11.1378516" />
      <trkpt lat="46.0668019" lon="11.1378600" />
      <trkpt lat="46.0668245" lon="11.1378579" />
      <trkpt lat="46.0669617" lon="11.1377731" />
      <trkpt lat="46.0670657" lon="11.1376903" />
      <trkpt lat="46.0671663" lon="11.1375921" />
      <trkpt lat="46.0671660" lon="11.1376322" />
      <trkpt lat="46.0671903" lon="11.1376082" />
      <trkpt lat="46.0672260" lon="11.1375704" />
      <trkpt lat="46.0672417" lon="11.1375601" />
      <trkpt lat="46.0672583" lon="11.1375544" />
      <trkpt lat="46.0672729" lon="11.1375606" />
      <trkpt lat="46.0672839" lon="11.1375703" />
      <trkpt lat="46.0674043" lon="11.1377294" />
      <trkpt lat="46.0674480" lon="11.1377871" />
      <trkpt lat="46.0674599" lon="11.1378120" />
      <trkpt lat="46.0674668" lon="11.1378283" />
      <trkpt lat="46.0674652" lon="11.1378492" />
      <trkpt lat="46.0674531" lon="11.1378712" />
      <trkpt lat="46.0673516" lon="11.1378834" />
      <trkpt lat="46.0673215" lon="11.1378986" />
      <trkpt lat="46.0673044" lon="11.1379228" />
      <trkpt lat="46.0672811" lon="11.1379453" />
      <trkpt lat="46.0672673" lon="11.1379769" />
      <trkpt lat="46.0672428" lon="11.1381262" />
      <trkpt lat="46.0672139" lon="11.1384187" />
      <trkpt lat="46.0672018" lon="11.1388340" />
      <trkpt lat="46.0672485" lon="11.1389416" />
      <trkpt lat="46.0672539" lon="11.1389531" />
      <trkpt lat="46.0671918" lon="11.1390935" />
      <trkpt lat="46.0671750" lon="11.1390879" />
      <trkpt lat="46.0670461" lon="11.1390656" />
      <trkpt lat="46.0670358" lon="11.1390638" />
      <trkpt lat="46.0668825" lon="11.1390605" />
      <trkpt lat="46.0667294" lon="11.1390573" />
      <trkpt lat="46.0660903" lon="11.1390197" />
      <trkpt lat="46.0660191" lon="11.1390155" />
      <trkpt lat="46.0653871" lon="11.1389783" />
      <trkpt lat="46.0652670" lon="11.1385947" />
      <trkpt lat="46.0651723" lon="11.1384323" />
      <trkpt lat="46.0650432" lon="11.1383625" />
      <trkpt lat="46.0649079" lon="11.1382576" />
      <trkpt lat="46.0647679" lon="11.1382004" />
      <trkpt lat="46.0646412" lon="11.1381976" />
      <trkpt lat="46.0646312" lon="11.1387717" />
      <trkpt lat="46.0646273" lon="11.1389956" />
      <trkpt lat="46.0646173" lon="11.1395669" />
      <trkpt lat="46.0649060" lon="11.1396495" />
      <trkpt lat="46.0650187" lon="11.1395761" />
      <trkpt lat="46.0650700" lon="11.1395427" />
      <trkpt lat="46.0651992" lon="11.1394636" />
      <trkpt lat="46.0652521" lon="11.1393160" />
      <trkpt lat="46.0654473" lon="11.1393013" />
      <trkpt lat="46.0654534" lon="11.1393657" />
      <trkpt lat="46.0655111" lon="11.1394790" />
      <trkpt lat="46.0658023" lon="11.1398123" />
      <trkpt lat="46.0660559" lon="11.1401086" />
      <trkpt lat="46.0660787" lon="11.1401294" />
      <trkpt lat="46.0660630" lon="11.1402436" />
      <trkpt lat="46.0661112" lon="11.1402939" />
      <trkpt lat="46.0661717" lon="11.1403659" />
      <trkpt lat="46.0662142" lon="11.1404164" />
      <trkpt lat="46.0662231" lon="11.1404852" />
      <trkpt lat="46.0664209" lon="11.1404408" />
      <trkpt lat="46.0664890" lon="11.1404366" />
      <trkpt lat="46.0666417" lon="11.1404482" />
      <trkpt lat="46.0667853" lon="11.1404478" />
      <trkpt lat="46.0668409" lon="11.1404287" />
      <trkpt lat="46.0668838" lon="11.1404039" />
      <trkpt lat="46.0669473" lon="11.1403496" />
      <trkpt lat="46.0669509" lon="11.1404251" />
      <trkpt lat="46.0669525" lon="11.1404574" />
      <trkpt lat="46.0669939" lon="11.1404220" />
      <trkpt lat="46.0670138" lon="11.1403635" />
      <trkpt lat="46.0670885" lon="11.1402487" />
      <trkpt lat="46.0671225" lon="11.1401527" />
      <trkpt lat="46.0671351" lon="11.1400933" />
      <trkpt lat="46.0671543" lon="11.1399549" />
      <trkpt lat="46.0671904" lon="11.1398173" />
      <trkpt lat="46.0672216" lon="11.1395758" />
      <trkpt lat="46.0672267" lon="11.1393427" />
      <trkpt lat="46.0672342" lon="11.1393047" />
      <trkpt lat="46.0671856" lon="11.1392856" />
      <trkpt lat="46.0671392" lon="11.1392674" />
      <trkpt lat="46.0671415" lon="11.1392509" />
      <trkpt lat="46.0671556" lon="11.1391835" />
      <trkpt lat="46.0671918" lon="11.1390935" />
      <trkpt lat="46.0672539" lon="11.1389531" />
      <trkpt lat="46.0672485" lon="11.1389416" />
      <trkpt lat="46.0672751" lon="11.1389190" />
      <trkpt lat="46.0672992" lon="11.1389454" />
      <trkpt lat="46.0673314" lon="11.1389522" />
      <trkpt lat="46.0673799" lon="11.1389287" />
      <trkpt lat="46.0675009" lon="11.1389303" />
      <trkpt lat="46.0676024" lon="11.1389561" />
      <trkpt lat="46.0677186" lon="11.1390348" />
      <trkpt lat="46.0678210" lon="11.1391646" />
      <trkpt lat="46.0678802" lon="11.1393266" />
      <trkpt lat="46.0679872" lon="11.1395685" />
      <trkpt lat="46.0681065" lon="11.1397604" />
      <trkpt lat="46.0683336" lon="11.1400999" />
      <trkpt lat="46.0684844" lon="11.1403007" />
      <trkpt lat="46.0685824" lon="11.1403953" />
      <trkpt lat="46.0686131" lon="11.1404025" />
      <trkpt lat="46.0687138" lon="11.1404089" />
      <trkpt lat="46.0688601" lon="11.1403929" />
      <trkpt lat="46.0689369" lon="11.1403475" />
      <trkpt lat="46.0689790" lon="11.1403265" />
      <trkpt lat="46.0690425" lon="11.1402500" />
      <trkpt lat="46.0691168" lon="11.1400183" />
      <trkpt lat="46.0692829" lon="11.1395513" />
      <trkpt lat="46.0694301" lon="11.1391203" />
      <trkpt lat="46.0694509" lon="11.1390582" />
      <trkpt lat="46.0694061" lon="11.1390337" />
      <trkpt lat="46.0693453" lon="11.1389288" />
      <trkpt lat="46.0692805" lon="11.1387261" />
      <trkpt lat="46.0692715" lon="11.1386112" />
      <trkpt lat="46.0692662" lon="11.1385140" />
      <trkpt lat="46.0692475" lon="11.1384000" />
      <trkpt lat="46.0692289" lon="11.1382820" />
      <trkpt lat="46.0692187" lon="11.1381492" />
      <trkpt lat="46.0692215" lon="11.1380634" />
      <trkpt lat="46.0692354" lon="11.1379588" />
      <trkpt lat="46.0692578" lon="11.1378796" />
      <trkpt lat="46.0692829" lon="11.1378139" />
      <trkpt lat="46.0693099" lon="11.1377482" />
      <trkpt lat="46.0693345" lon="11.1377027" />
      <trkpt lat="46.0693691" lon="11.1376485" />
      <trkpt lat="46.0694205" lon="11.1376078" />
      <trkpt lat="46.0694958" lon="11.1375630" />
      <trkpt lat="46.0695669" lon="11.1375287" />
      <trkpt lat="46.0696960" lon="11.1374748" />
      <trkpt lat="46.0698097" lon="11.1374252" />
      <trkpt lat="46.0698577" lon="11.1374005" />
      <trkpt lat="46.0699044" lon="11.1373765" />
      <trkpt lat="46.0699590" lon="11.1373417" />
      <trkpt lat="46.0699983" lon="11.1372896" />
      <trkpt lat="46.0700359" lon="11.1372142" />
      <trkpt lat="46.0700536" lon="11.1371474" />
      <trkpt lat="46.0700612" lon="11.1370759" />
      <trkpt lat="46.0700600" lon="11.1369938" />
      <trkpt lat="46.0700520" lon="11.1369177" />
      <trkpt lat="46.0700315" lon="11.1368442" />
      <trkpt lat="46.0700045" lon="11.1367838" />
      <trkpt lat="46.0699628" lon="11.1367309" />
      <trkpt lat="46.0699289" lon="11.1367025" />
      <trkpt lat="46.0698741" lon="11.1366741" />
      <trkpt lat="46.0693090" lon="11.1365445" />
      <trkpt lat="46.0691697" lon="11.1365126" />
      <trkpt lat="46.0690643" lon="11.1364884" />
      <trkpt lat="46.0690040" lon="11.1364746" />
      <trkpt lat="46.0686997" lon="11.1364151" />
      <trkpt lat="46.0686635" lon="11.1363451" />
      <trkpt lat="46.0685712" lon="11.1363270" />
      <trkpt lat="46.0683294" lon="11.1362797" />
      <trkpt lat="46.0681256" lon="11.1362399" />
      <trkpt lat="46.0681022" lon="11.1362353" />
      <trkpt lat="46.0679711" lon="11.1362164" />
      <trkpt lat="46.0677502" lon="11.1362150" />
      <trkpt lat="46.0673964" lon="11.1362654" />
      <trkpt lat="46.0668339" lon="11.1363302" />
      <trkpt lat="46.0666597" lon="11.1363567" />
      <trkpt lat="46.0665786" lon="11.1363592" />
      <trkpt lat="46.0665158" lon="11.1363369" />
      <trkpt lat="46.0664309" lon="11.1362988" />
      <trkpt lat="46.0663878" lon="11.1362547" />
      <trkpt lat="46.0663426" lon="11.1361849" />
      <trkpt lat="46.0663281" lon="11.1362580" />
      <trkpt lat="46.0663071" lon="11.1362447" />
      <trkpt lat="46.0662916" lon="11.1362363" />
      <trkpt lat="46.0659518" lon="11.1360367" />
      <trkpt lat="46.0657114" lon="11.1358023" />
      <trkpt lat="46.0655347" lon="11.1357705" />
      <trkpt lat="46.0654566" lon="11.1357405" />
      <trkpt lat="46.0653233" lon="11.1356535" />
      <trkpt lat="46.0652385" lon="11.1356027" />
      <trkpt lat="46.0651792" lon="11.1354971" />
      <trkpt lat="46.0651491" lon="11.1354441" />
      <trkpt lat="46.0651249" lon="11.1354976" />
      <trkpt lat="46.0652875" lon="11.1357100" />
      <trkpt lat="46.0652626" lon="11.1357477" />
      <trkpt lat="46.0651950" lon="11.1358541" />
      <trkpt lat="46.0651345" lon="11.1359714" />
      <trkpt lat="46.0649644" lon="11.1357256" />
      <trkpt lat="46.0649292" lon="11.1357846" />
      <trkpt lat="46.0649392" lon="11.1357985" />
      <trkpt lat="46.0649232" lon="11.1358205" />
      <trkpt lat="46.0647564" lon="11.1360500" />
      <trkpt lat="46.0647461" lon="11.1360628" />
      <trkpt lat="46.0647387" lon="11.1360504" />
      <trkpt lat="46.0646688" lon="11.1360651" />
      <trkpt lat="46.0646666" lon="11.1360810" />
      <trkpt lat="46.0647571" lon="11.1360948" />
      <trkpt lat="46.0649451" lon="11.1363777" />
      <trkpt lat="46.0650800" lon="11.1365695" />
      <trkpt lat="46.0652233" lon="11.1368029" />
      <trkpt lat="46.0653381" lon="11.1369615" />
      <trkpt lat="46.0652233" lon="11.1368029" />
      <trkpt lat="46.0650800" lon="11.1365695" />
      <trkpt lat="46.0649451" lon="11.1363777" />
      <trkpt lat="46.0647571" lon="11.1360948" />
      <trkpt lat="46.0646666" lon="11.1360810" />
      <trkpt lat="46.0646688" lon="11.1360651" />
      <trkpt lat="46.0647387" lon="11.1360504" />
      <trkpt lat="46.0647329" lon="11.1360399" />
      <trkpt lat="46.0647416" lon="11.1360277" />
      <trkpt lat="46.0649073" lon="11.1357966" />
      <trkpt lat="46.0649227" lon="11.1357751" />
      <trkpt lat="46.0649292" lon="11.1357846" />
      <trkpt lat="46.0649644" lon="11.1357256" />
      <trkpt lat="46.0651249" lon="11.1354976" />
      <trkpt lat="46.0651491" lon="11.1354441" />
      <trkpt lat="46.0651792" lon="11.1354971" />
      <trkpt lat="46.0651993" lon="11.1354464" />
      <trkpt lat="46.0651878" lon="11.1353888" />
      <trkpt lat="46.0651805" lon="11.1351790" />
      <trkpt lat="46.0651793" lon="11.1349244" />
      <trkpt lat="46.0651779" lon="11.1346935" />
      <trkpt lat="46.0651899" lon="11.1342266" />
      <trkpt lat="46.0651966" lon="11.1340777" />
      <trkpt lat="46.0651984" lon="11.1340365" />
      <trkpt lat="46.0652243" lon="11.1337433" />
      <trkpt lat="46.0651955" lon="11.1337356" />
      <trkpt lat="46.0652232" lon="11.1335881" />
      <trkpt lat="46.0652521" lon="11.1334486" />
      <trkpt lat="46.0652791" lon="11.1333480" />
      <trkpt lat="46.0653088" lon="11.1332542" />
      <trkpt lat="46.0653870" lon="11.1330235" />
      <trkpt lat="46.0655562" lon="11.1325879" />
      <trkpt lat="46.0657065" lon="11.1322009" />
      <trkpt lat="46.0659342" lon="11.1316366" />
      <trkpt lat="46.0660391" lon="11.1313766" />
      <trkpt lat="46.0660534" lon="11.1313411" />
      <trkpt lat="46.0660704" lon="11.1313564" />
      <trkpt lat="46.0660807" lon="11.1313301" />
      <trkpt lat="46.0660651" lon="11.1313120" />
      <trkpt lat="46.0660861" lon="11.1312600" />
      <trkpt lat="46.0660911" lon="11.1312475" />
      <trkpt lat="46.0661812" lon="11.1310242" />
      <trkpt lat="46.0661968" lon="11.1309856" />
      <trkpt lat="46.0662535" lon="11.1308450" />
      <trkpt lat="46.0662790" lon="11.1307867" />
      <trkpt lat="46.0662931" lon="11.1307546" />
      <trkpt lat="46.0663999" lon="11.1304961" />
      <trkpt lat="46.0666068" lon="11.1299950" />
      <trkpt lat="46.0666162" lon="11.1299725" />
      <trkpt lat="46.0666768" lon="11.1298246" />
      <trkpt lat="46.0668216" lon="11.1294715" />
      <trkpt lat="46.0668307" lon="11.1294493" />
      <trkpt lat="46.0668786" lon="11.1293325" />
      <trkpt lat="46.0669465" lon="11.1291676" />
      <trkpt lat="46.0669684" lon="11.1291146" />
      <trkpt lat="46.0670457" lon="11.1289216" />
      <trkpt lat="46.0671465" lon="11.1286661" />
      <trkpt lat="46.0671609" lon="11.1286784" />
      <trkpt lat="46.0674601" lon="11.1289333" />
      <trkpt lat="46.0675234" lon="11.1289800" />
      <trkpt lat="46.0675431" lon="11.1289875" />
      <trkpt lat="46.0677760" lon="11.1290764" />
      <trkpt lat="46.0679327" lon="11.1290117" />
      <trkpt lat="46.0681926" lon="11.1289843" />
      <trkpt lat="46.0682011" lon="11.1290129" />
      <trkpt lat="46.0682492" lon="11.1291994" />
      <trkpt lat="46.0682952" lon="11.1293883" />
      <trkpt lat="46.0683023" lon="11.1294154" />
      <trkpt lat="46.0682864" lon="11.1294242" />
      <trkpt lat="46.0682805" lon="11.1293978" />
      <trkpt lat="46.0682679" lon="11.1293437" />
      <trkpt lat="46.0682925" lon="11.1293320" />
      <trkpt lat="46.0683123" lon="11.1294097" />
      <trkpt lat="46.0683302" lon="11.1294010" />
      <trkpt lat="46.0683501" lon="11.1293914" />
      <trkpt lat="46.0684046" lon="11.1294416" />
      <trkpt lat="46.0683669" lon="11.1294680" />
      <trkpt lat="46.0683048" lon="11.1295341" />
      <trkpt lat="46.0682635" lon="11.1296235" />
      <trkpt lat="46.0682152" lon="11.1298106" />
      <trkpt lat="46.0682000" lon="11.1298692" />
      <trkpt lat="46.0682354" lon="11.1299454" />
      <trkpt lat="46.0682755" lon="11.1300116" />
      <trkpt lat="46.0683367" lon="11.1300526" />
      <trkpt lat="46.0685374" lon="11.1301279" />
      <trkpt lat="46.0686387" lon="11.1301774" />
      <trkpt lat="46.0688370" lon="11.1303213" />
      <trkpt lat="46.0688754" lon="11.1303507" />
      <trkpt lat="46.0689787" lon="11.1304282" />
      <trkpt lat="46.0691380" lon="11.1305057" />
      <trkpt lat="46.0692162" lon="11.1305197" />
      <trkpt lat="46.0694048" lon="11.1305328" />
      <trkpt lat="46.0694521" lon="11.1305519" />
      <trkpt lat="46.0694647" lon="11.1305620" />
      <trkpt lat="46.0694735" lon="11.1305691" />
      <trkpt lat="46.0695333" lon="11.1306929" />
      <trkpt lat="46.0694735" lon="11.1305691" />
      <trkpt lat="46.0694647" lon="11.1305620" />
      <trkpt lat="46.0694521" lon="11.1305519" />
      <trkpt lat="46.0694048" lon="11.1305328" />
      <trkpt lat="46.0694057" lon="11.1305168" />
      <trkpt lat="46.0692136" lon="11.1304975" />
      <trkpt lat="46.0691397" lon="11.1304824" />
      <trkpt lat="46.0691157" lon="11.1304747" />
      <trkpt lat="46.0690362" lon="11.1304355" />
      <trkpt lat="46.0689219" lon="11.1303339" />
      <trkpt lat="46.0688892" lon="11.1303022" />
      <trkpt lat="46.0688370" lon="11.1303213" />
      <trkpt lat="46.0686387" lon="11.1301774" />
      <trkpt lat="46.0685374" lon="11.1301279" />
      <trkpt lat="46.0683367" lon="11.1300526" />
      <trkpt lat="46.0682755" lon="11.1300116" />
      <trkpt lat="46.0682354" lon="11.1299454" />
      <trkpt lat="46.0682000" lon="11.1298692" />
      <trkpt lat="46.0682152" lon="11.1298106" />
      <trkpt lat="46.0682635" lon="11.1296235" />
      <trkpt lat="46.0683048" lon="11.1295341" />
      <trkpt lat="46.0683669" lon="11.1294680" />
      <trkpt lat="46.0684046" lon="11.1294416" />
      <trkpt lat="46.0683501" lon="11.1293914" />
      <trkpt lat="46.0683302" lon="11.1294010" />
      <trkpt lat="46.0683123" lon="11.1294097" />
      <trkpt lat="46.0682925" lon="11.1293320" />
      <trkpt lat="46.0682679" lon="11.1293437" />
      <trkpt lat="46.0682805" lon="11.1293978" />
      <trkpt lat="46.0682864" lon="11.1294242" />
      <trkpt lat="46.0683023" lon="11.1294154" />
      <trkpt lat="46.0682952" lon="11.1293883" />
      <trkpt lat="46.0682492" lon="11.1291994" />
      <trkpt lat="46.0682011" lon="11.1290129" />
      <trkpt lat="46.0681926" lon="11.1289843" />
      <trkpt lat="46.0679327" lon="11.1290117" />
      <trkpt lat="46.0677760" lon="11.1290764" />
      <trkpt lat="46.0675431" lon="11.1289875" />
      <trkpt lat="46.0675234" lon="11.1289800" />
      <trkpt lat="46.0674601" lon="11.1289333" />
      <trkpt lat="46.0671609" lon="11.1286784" />
      <trkpt lat="46.0670564" lon="11.1289334" />
      <trkpt lat="46.0669807" lon="11.1291233" />
      <trkpt lat="46.0669684" lon="11.1291146" />
      <trkpt lat="46.0669527" lon="11.1291035" />
      <trkpt lat="46.0669053" lon="11.1290700" />
      <trkpt lat="46.0668956" lon="11.1290931" />
      <trkpt lat="46.0668863" lon="11.1291066" />
      <trkpt lat="46.0668740" lon="11.1291156" />
      <trkpt lat="46.0668618" lon="11.1291195" />
      <trkpt lat="46.0668494" lon="11.1291127" />
      <trkpt lat="46.0664625" lon="11.1288956" />
      <trkpt lat="46.0664215" lon="11.1288729" />
      <trkpt lat="46.0663816" lon="11.1288471" />
      <trkpt lat="46.0663544" lon="11.1288314" />
      <trkpt lat="46.0657607" lon="11.1284880" />
      <trkpt lat="46.0657270" lon="11.1284685" />
      <trkpt lat="46.0660378" lon="11.1273383" />
      <trkpt lat="46.0660492" lon="11.1272866" />
      <trkpt lat="46.0660811" lon="11.1273035" />
      <trkpt lat="46.0660933" lon="11.1272524" />
      <trkpt lat="46.0661080" lon="11.1271906" />
      <trkpt lat="46.0660946" lon="11.1271778" />
      <trkpt lat="46.0660788" lon="11.1271557" />
      <trkpt lat="46.0660419" lon="11.1271369" />
      <trkpt lat="46.0659664" lon="11.1270981" />
      <trkpt lat="46.0662124" lon="11.1261632" />
      <trkpt lat="46.0662441" lon="11.1260428" />
      <trkpt lat="46.0659342" lon="11.1258733" />
      <trkpt lat="46.0659575" lon="11.1257955" />
      <trkpt lat="46.0659888" lon="11.1256911" />
      <trkpt lat="46.0660046" lon="11.1256384" />
      <trkpt lat="46.0661835" lon="11.1257896" />
      <trkpt lat="46.0662258" lon="11.1258198" />
      <trkpt lat="46.0665218" lon="11.1260084" />
      <trkpt lat="46.0665128" lon="11.1257710" />
      <trkpt lat="46.0667623" lon="11.1259229" />
      <trkpt lat="46.0668109" lon="11.1259490" />
      <trkpt lat="46.0669435" lon="11.1260287" />
      <trkpt lat="46.0669729" lon="11.1260698" />
      <trkpt lat="46.0671711" lon="11.1261888" />
      <trkpt lat="46.0671654" lon="11.1262313" />
      <trkpt lat="46.0671660" lon="11.1262902" />
      <trkpt lat="46.0672389" lon="11.1262953" />
      <trkpt lat="46.0672654" lon="11.1262921" />
      <trkpt lat="46.0672169" lon="11.1256572" />
      <trkpt lat="46.0671955" lon="11.1255186" />
      <trkpt lat="46.0671801" lon="11.1253736" />
      <trkpt lat="46.0671686" lon="11.1253767" />
      <trkpt lat="46.0671402" lon="11.1251507" />
      <trkpt lat="46.0671376" lon="11.1251295" />
      <trkpt lat="46.0670974" lon="11.1251287" />
      <trkpt lat="46.0670603" lon="11.1251142" />
      <trkpt lat="46.0669555" lon="11.1249664" />
      <trkpt lat="46.0667974" lon="11.1247227" />
      <trkpt lat="46.0666876" lon="11.1245789" />
      <trkpt lat="46.0665222" lon="11.1246307" />
      <trkpt lat="46.0664914" lon="11.1243614" />
      <trkpt lat="46.0664498" lon="11.1240203" />
      <trkpt lat="46.0663806" lon="11.1234542" />
      <trkpt lat="46.0666735" lon="11.1233841" />
      <trkpt lat="46.0668835" lon="11.1233350" />
      <trkpt lat="46.0668905" lon="11.1233334" />
      <trkpt lat="46.0668872" lon="11.1232848" />
      <trkpt lat="46.0668548" lon="11.1230552" />
      <trkpt lat="46.0667810" lon="11.1225726" />
      <trkpt lat="46.0667729" lon="11.1225194" />
      <trkpt lat="46.0667715" lon="11.1225101" />
      <trkpt lat="46.0667532" lon="11.1223909" />
      <trkpt lat="46.0667414" lon="11.1223091" />
      <trkpt lat="46.0667357" lon="11.1222747" />
      <trkpt lat="46.0667350" lon="11.1222603" />
      <trkpt lat="46.0667287" lon="11.1221612" />
      <trkpt lat="46.0667249" lon="11.1220591" />
      <trkpt lat="46.0667229" lon="11.1219913" />
      <trkpt lat="46.0667210" lon="11.1219626" />
      <trkpt lat="46.0667304" lon="11.1218751" />
      <trkpt lat="46.0667274" lon="11.1218448" />
      <trkpt lat="46.0666789" lon="11.1217092" />
      <trkpt lat="46.0666701" lon="11.1215352" />
      <trkpt lat="46.0667024" lon="11.1213629" />
      <trkpt lat="46.0667526" lon="11.1210542" />
      <trkpt lat="46.0667705" lon="11.1210629" />
      <trkpt lat="46.0668711" lon="11.1210492" />
      <trkpt lat="46.0668249" lon="11.1206182" />
      <trkpt lat="46.0670289" lon="11.1205458" />
      <trkpt lat="46.0670444" lon="11.1205090" />
      <trkpt lat="46.0670559" lon="11.1205068" />
      <trkpt lat="46.0671281" lon="11.1204977" />
      <trkpt lat="46.0672643" lon="11.1204667" />
      <trkpt lat="46.0672800" lon="11.1204559" />
      <trkpt lat="46.0672765" lon="11.1203235" />
      <trkpt lat="46.0672696" lon="11.1202246" />
      <trkpt lat="46.0672684" lon="11.1202069" />
      <trkpt lat="46.0673967" lon="11.1201946" />
      <trkpt lat="46.0675208" lon="11.1202206" />
      <trkpt lat="46.0675481" lon="11.1202039" />
      <trkpt lat="46.0675648" lon="11.1201851" />
      <trkpt lat="46.0675899" lon="11.1201529" />
      <trkpt lat="46.0676157" lon="11.1201320" />
      <trkpt lat="46.0676225" lon="11.1201073" />
      <trkpt lat="46.0676206" lon="11.1200671" />
      <trkpt lat="46.0676272" lon="11.1199974" />
      <trkpt lat="46.0676448" lon="11.1199678" />
      <trkpt lat="46.0676821" lon="11.1199464" />
      <trkpt lat="46.0677323" lon="11.1199236" />
      <trkpt lat="46.0677742" lon="11.1198820" />
      <trkpt lat="46.0678130" lon="11.1198242" />
      <trkpt lat="46.0678540" lon="11.1197239" />
      <trkpt lat="46.0678811" lon="11.1196664" />
      <trkpt lat="46.0679043" lon="11.1196359" />
      <trkpt lat="46.0681147" lon="11.1195474" />
      <trkpt lat="46.0681837" lon="11.1195184" />
      <trkpt lat="46.0684278" lon="11.1194633" />
      <trkpt lat="46.0684351" lon="11.1194617" />
      <trkpt lat="46.0684304" lon="11.1194104" />
      <trkpt lat="46.0684171" lon="11.1192676" />
      <trkpt lat="46.0684172" lon="11.1192445" />
      <trkpt lat="46.0684074" lon="11.1192452" />
      <trkpt lat="46.0682172" lon="11.1192595" />
      <trkpt lat="46.0684074" lon="11.1192452" />
      <trkpt lat="46.0684172" lon="11.1192445" />
      <trkpt lat="46.0684171" lon="11.1192676" />
      <trkpt lat="46.0684304" lon="11.1194104" />
      <trkpt lat="46.0684351" lon="11.1194617" />
      <trkpt lat="46.0684509" lon="11.1196680" />
      <trkpt lat="46.0684630" lon="11.1197517" />
      <trkpt lat="46.0684648" lon="11.1198296" />
      <trkpt lat="46.0684582" lon="11.1198973" />
      <trkpt lat="46.0684648" lon="11.1198296" />
      <trkpt lat="46.0684630" lon="11.1197517" />
      <trkpt lat="46.0684509" lon="11.1196680" />
      <trkpt lat="46.0684351" lon="11.1194617" />
      <trkpt lat="46.0684304" lon="11.1194104" />
      <trkpt lat="46.0684171" lon="11.1192676" />
      <trkpt lat="46.0684172" lon="11.1192445" />
      <trkpt lat="46.0684074" lon="11.1192452" />
      <trkpt lat="46.0682172" lon="11.1192595" />
      <trkpt lat="46.0684074" lon="11.1192452" />
      <trkpt lat="46.0684172" lon="11.1192445" />
      <trkpt lat="46.0684592" lon="11.1192417" />
      <trkpt lat="46.0684638" lon="11.1190894" />
      <trkpt lat="46.0684411" lon="11.1187850" />
      <trkpt lat="46.0684296" lon="11.1187852" />
      <trkpt lat="46.0684199" lon="11.1187854" />
      <trkpt lat="46.0684165" lon="11.1187327" />
      <trkpt lat="46.0684127" lon="11.1186739" />
      <trkpt lat="46.0684227" lon="11.1186725" />
      <trkpt lat="46.0684724" lon="11.1186651" />
      <trkpt lat="46.0686142" lon="11.1186552" />
      <trkpt lat="46.0686980" lon="11.1186286" />
      <trkpt lat="46.0687959" lon="11.1185979" />
      <trkpt lat="46.0688148" lon="11.1185920" />
      <trkpt lat="46.0689044" lon="11.1185614" />
      <trkpt lat="46.0689028" lon="11.1185479" />
      <trkpt lat="46.0688969" lon="11.1185026" />
      <trkpt lat="46.0689348" lon="11.1184936" />
      <trkpt lat="46.0689868" lon="11.1184789" />
      <trkpt lat="46.0690201" lon="11.1184690" />
      <trkpt lat="46.0691264" lon="11.1184447" />
      <trkpt lat="46.0693555" lon="11.1183905" />
      <trkpt lat="46.0695171" lon="11.1183209" />
      <trkpt lat="46.0695917" lon="11.1182747" />
      <trkpt lat="46.0696831" lon="11.1182181" />
      <trkpt lat="46.0697890" lon="11.1181478" />
      <trkpt lat="46.0697905" lon="11.1180822" />
      <trkpt lat="46.0698227" lon="11.1180755" />
      <trkpt lat="46.0698565" lon="11.1180693" />
      <trkpt lat="46.0698926" lon="11.1180856" />
      <trkpt lat="46.0698874" lon="11.1179709" />
      <trkpt lat="46.0698848" lon="11.1178924" />
      <trkpt lat="46.0698990" lon="11.1178689" />
      <trkpt lat="46.0699296" lon="11.1178355" />
      <trkpt lat="46.0699671" lon="11.1178132" />
      <trkpt lat="46.0700163" lon="11.1177972" />
      <trkpt lat="46.0701370" lon="11.1178229" />
      <trkpt lat="46.0701882" lon="11.1178380" />
      <trkpt lat="46.0702595" lon="11.1179004" />
      <trkpt lat="46.0702855" lon="11.1180091" />
      <trkpt lat="46.0703396" lon="11.1182213" />
      <trkpt lat="46.0703853" lon="11.1183941" />
      <trkpt lat="46.0705171" lon="11.1184906" />
      <trkpt lat="46.0707374" lon="11.1186498" />
      <trkpt lat="46.0709143" lon="11.1187818" />
      <trkpt lat="46.0710027" lon="11.1188451" />
      <trkpt lat="46.0710071" lon="11.1189698" />
      <trkpt lat="46.0710107" lon="11.1191001" />
      <trkpt lat="46.0710176" lon="11.1192952" />
      <trkpt lat="46.0710186" lon="11.1193165" />
      <trkpt lat="46.0710219" lon="11.1193869" />
      <trkpt lat="46.0710251" lon="11.1194572" />
      <trkpt lat="46.0710517" lon="11.1194757" />
      <trkpt lat="46.0710665" lon="11.1194830" />
      <trkpt lat="46.0710926" lon="11.1194817" />
      <trkpt lat="46.0711236" lon="11.1194739" />
      <trkpt lat="46.0714274" lon="11.1194035" />
      <trkpt lat="46.0714512" lon="11.1194011" />
      <trkpt lat="46.0715071" lon="11.1193966" />
      <trkpt lat="46.0715269" lon="11.1193964" />
      <trkpt lat="46.0716394" lon="11.1194029" />
      <trkpt lat="46.0716742" lon="11.1194223" />
      <trkpt lat="46.0717283" lon="11.1193503" />
      <trkpt lat="46.0717587" lon="11.1193721" />
      <trkpt lat="46.0718731" lon="11.1194517" />
      <trkpt lat="46.0720348" lon="11.1195641" />
      <trkpt lat="46.0720098" lon="11.1196544" />
      <trkpt lat="46.0719946" lon="11.1197010" />
      <trkpt lat="46.0719683" lon="11.1197820" />
      <trkpt lat="46.0719480" lon="11.1198441" />
      <trkpt lat="46.0719325" lon="11.1198947" />
      <trkpt lat="46.0720757" lon="11.1199983" />
      <trkpt lat="46.0720036" lon="11.1200829" />
      <trkpt lat="46.0719564" lon="11.1201650" />
      <trkpt lat="46.0719031" lon="11.1203393" />
      <trkpt lat="46.0718764" lon="11.1204264" />
      <trkpt lat="46.0718357" lon="11.1205551" />
      <trkpt lat="46.0717791" lon="11.1207338" />
      <trkpt lat="46.0717270" lon="11.1208985" />
      <trkpt lat="46.0716533" lon="11.1211213" />
      <trkpt lat="46.0716174" lon="11.1210984" />
      <trkpt lat="46.0715831" lon="11.1210789" />
      <trkpt lat="46.0715562" lon="11.1212575" />
      <trkpt lat="46.0715435" lon="11.1213417" />
      <trkpt lat="46.0715562" lon="11.1212575" />
      <trkpt lat="46.0715831" lon="11.1210789" />
      <trkpt lat="46.0716174" lon="11.1210984" />
      <trkpt lat="46.0716533" lon="11.1211213" />
      <trkpt lat="46.0717270" lon="11.1208985" />
      <trkpt lat="46.0717791" lon="11.1207338" />
      <trkpt lat="46.0718357" lon="11.1205551" />
      <trkpt lat="46.0718764" lon="11.1204264" />
      <trkpt lat="46.0719031" lon="11.1203393" />
      <trkpt lat="46.0719564" lon="11.1201650" />
      <trkpt lat="46.0720036" lon="11.1200829" />
      <trkpt lat="46.0720757" lon="11.1199983" />
      <trkpt lat="46.0719325" lon="11.1198947" />
      <trkpt lat="46.0719480" lon="11.1198441" />
      <trkpt lat="46.0719683" lon="11.1197820" />
      <trkpt lat="46.0719946" lon="11.1197010" />
      <trkpt lat="46.0720098" lon="11.1196544" />
      <trkpt lat="46.0720348" lon="11.1195641" />
      <trkpt lat="46.0718731" lon="11.1194517" />
      <trkpt lat="46.0717587" lon="11.1193721" />
      <trkpt lat="46.0717283" lon="11.1193503" />
      <trkpt lat="46.0716742" lon="11.1194223" />
      <trkpt lat="46.0716394" lon="11.1194029" />
      <trkpt lat="46.0715269" lon="11.1193964" />
      <trkpt lat="46.0715071" lon="11.1193966" />
      <trkpt lat="46.0714512" lon="11.1194011" />
      <trkpt lat="46.0714274" lon="11.1194035" />
      <trkpt lat="46.0711236" lon="11.1194739" />
      <trkpt lat="46.0710926" lon="11.1194817" />
      <trkpt lat="46.0710665" lon="11.1194830" />
      <trkpt lat="46.0710517" lon="11.1194757" />
      <trkpt lat="46.0710251" lon="11.1194572" />
      <trkpt lat="46.0710219" lon="11.1193869" />
      <trkpt lat="46.0710186" lon="11.1193165" />
      <trkpt lat="46.0710176" lon="11.1192952" />
      <trkpt lat="46.0710107" lon="11.1191001" />
      <trkpt lat="46.0710071" lon="11.1189698" />
      <trkpt lat="46.0710027" lon="11.1188451" />
      <trkpt lat="46.0709143" lon="11.1187818" />
      <trkpt lat="46.0707374" lon="11.1186498" />
      <trkpt lat="46.0705171" lon="11.1184906" />
      <trkpt lat="46.0703853" lon="11.1183941" />
      <trkpt lat="46.0703396" lon="11.1182213" />
      <trkpt lat="46.0702855" lon="11.1180091" />
      <trkpt lat="46.0702595" lon="11.1179004" />
      <trkpt lat="46.0701882" lon="11.1178380" />
      <trkpt lat="46.0701370" lon="11.1178229" />
      <trkpt lat="46.0700163" lon="11.1177972" />
      <trkpt lat="46.0699671" lon="11.1178132" />
      <trkpt lat="46.0699296" lon="11.1178355" />
      <trkpt lat="46.0698990" lon="11.1178689" />
      <trkpt lat="46.0698848" lon="11.1178924" />
      <trkpt lat="46.0698874" lon="11.1179709" />
      <trkpt lat="46.0698926" lon="11.1180856" />
      <trkpt lat="46.0698565" lon="11.1180693" />
      <trkpt lat="46.0698227" lon="11.1180755" />
      <trkpt lat="46.0697905" lon="11.1180822" />
      <trkpt lat="46.0697890" lon="11.1181478" />
      <trkpt lat="46.0696831" lon="11.1182181" />
      <trkpt lat="46.0695917" lon="11.1182747" />
      <trkpt lat="46.0695171" lon="11.1183209" />
      <trkpt lat="46.0693555" lon="11.1183905" />
      <trkpt lat="46.0691264" lon="11.1184447" />
      <trkpt lat="46.0690201" lon="11.1184690" />
      <trkpt lat="46.0689868" lon="11.1184789" />
      <trkpt lat="46.0689348" lon="11.1184936" />
      <trkpt lat="46.0688969" lon="11.1185026" />
      <trkpt lat="46.0689028" lon="11.1185479" />
      <trkpt lat="46.0689044" lon="11.1185614" />
      <trkpt lat="46.0688148" lon="11.1185920" />
      <trkpt lat="46.0687959" lon="11.1185979" />
      <trkpt lat="46.0686980" lon="11.1186286" />
      <trkpt lat="46.0686142" lon="11.1186552" />
      <trkpt lat="46.0684724" lon="11.1186651" />
      <trkpt lat="46.0684227" lon="11.1186725" />
      <trkpt lat="46.0684127" lon="11.1186739" />
      <trkpt lat="46.0684165" lon="11.1187327" />
      <trkpt lat="46.0684199" lon="11.1187854" />
      <trkpt lat="46.0684296" lon="11.1187852" />
      <trkpt lat="46.0684411" lon="11.1187850" />
      <trkpt lat="46.0684638" lon="11.1190894" />
      <trkpt lat="46.0684592" lon="11.1192417" />
      <trkpt lat="46.0684172" lon="11.1192445" />
      <trkpt lat="46.0684171" lon="11.1192676" />
      <trkpt lat="46.0684304" lon="11.1194104" />
      <trkpt lat="46.0684351" lon="11.1194617" />
      <trkpt lat="46.0684278" lon="11.1194633" />
      <trkpt lat="46.0681837" lon="11.1195184" />
      <trkpt lat="46.0681147" lon="11.1195474" />
      <trkpt lat="46.0679043" lon="11.1196359" />
      <trkpt lat="46.0678811" lon="11.1196664" />
      <trkpt lat="46.0678540" lon="11.1197239" />
      <trkpt lat="46.0678130" lon="11.1198242" />
      <trkpt lat="46.0677742" lon="11.1198820" />
      <trkpt lat="46.0677323" lon="11.1199236" />
      <trkpt lat="46.0676821" lon="11.1199464" />
      <trkpt lat="46.0676448" lon="11.1199678" />
      <trkpt lat="46.0676272" lon="11.1199974" />
      <trkpt lat="46.0676206" lon="11.1200671" />
      <trkpt lat="46.0676225" lon="11.1201073" />
      <trkpt lat="46.0676157" lon="11.1201320" />
      <trkpt lat="46.0675899" lon="11.1201529" />
      <trkpt lat="46.0675648" lon="11.1201851" />
      <trkpt lat="46.0675481" lon="11.1202039" />
      <trkpt lat="46.0675208" lon="11.1202206" />
      <trkpt lat="46.0673967" lon="11.1201946" />
      <trkpt lat="46.0672684" lon="11.1202069" />
      <trkpt lat="46.0672696" lon="11.1202246" />
      <trkpt lat="46.0672765" lon="11.1203235" />
      <trkpt lat="46.0672800" lon="11.1204559" />
      <trkpt lat="46.0672643" lon="11.1204667" />
      <trkpt lat="46.0671281" lon="11.1204977" />
      <trkpt lat="46.0670559" lon="11.1205068" />
      <trkpt lat="46.0670444" lon="11.1205090" />
      <trkpt lat="46.0670289" lon="11.1205458" />
      <trkpt lat="46.0668249" lon="11.1206182" />
      <trkpt lat="46.0668711" lon="11.1210492" />
    </trkseg>
  </trk>
</gpx>
