<?xml version="1.0" encoding="UTF-8"?>
<gpx xmlns="http://www.topografix.com/GPX/1/1" version="1.1" creator="ShapeRoute route-engine">
  <metadata>
    <name>HUB 15 km levico round-top</name>
    <author>
      <name>ShapeRoute route-engine</name>
    </author>
    <copyright author="OpenStreetMap contributors">
      <license>https://opendatacommons.org/licenses/odbl/1-0/</license>
    </copyright>
    <link href="https://www.openstreetmap.org/copyright">
      <text>© OpenStreetMap contributors</text>
    </link>
    <time>2026-10-02T11:12:13Z</time>
  </metadata>
  <trk>
    <name>HUB 15 km levico round-top</name>
    <trkseg>
      <trkpt lat="46.0137251" lon="11.2966531" />
      <trkpt lat="46.0135550" lon="11.2968258" />
      <trkpt lat="46.0136389" lon="11.2970461" />
      <trkpt lat="46.0136602" lon="11.2971080" />
      <trkpt lat="46.0133097" lon="11.2974064" />
      <trkpt lat="46.0132414" lon="11.2974829" />
      <trkpt lat="46.0131919" lon="11.2975460" />
      <trkpt lat="46.0132320" lon="11.2976177" />
      <trkpt lat="46.0133454" lon="11.2977970" />
      <trkpt lat="46.0134865" lon="11.2979792" />
      <trkpt lat="46.0133454" lon="11.2977970" />
      <trkpt lat="46.0132320" lon="11.2976177" />
      <trkpt lat="46.0131919" lon="11.2975460" />
      <trkpt lat="46.0131199" lon="11.2976603" />
      <trkpt lat="46.0130468" lon="11.2977714" />
      <trkpt lat="46.0129712" lon="11.2978899" />
      <trkpt lat="46.0128770" lon="11.2979586" />
      <trkpt lat="46.0128013" lon="11.2980024" />
      <trkpt lat="46.0127682" lon="11.2980215" />
      <trkpt lat="46.0125364" lon="11.2982718" />
      <trkpt lat="46.0123552" lon="11.2985082" />
      <trkpt lat="46.0122424" lon="11.2983394" />
      <trkpt lat="46.0122499" lon="11.2982214" />
      <trkpt lat="46.0122052" lon="11.2981248" />
      <trkpt lat="46.0120860" lon="11.2982428" />
      <trkpt lat="46.0118824" lon="11.2985225" />
      <trkpt lat="46.0115130" lon="11.2989377" />
      <trkpt lat="46.0114073" lon="11.2988065" />
      <trkpt lat="46.0113012" lon="11.2986379" />
      <trkpt lat="46.0111941" lon="11.2984770" />
      <trkpt lat="46.0115587" lon="11.2979934" />
      <trkpt lat="46.0115764" lon="11.2979707" />
      <trkpt lat="46.0116123" lon="11.2977853" />
      <trkpt lat="46.0112181" lon="11.2971112" />
      <trkpt lat="46.0111443" lon="11.2971898" />
      <trkpt lat="46.0109630" lon="11.2974406" />
      <trkpt lat="46.0107801" lon="11.2977017" />
      <trkpt lat="46.0106159" lon="11.2979879" />
      <trkpt lat="46.0105560" lon="11.2981004" />
      <trkpt lat="46.0104499" lon="11.2983154" />
      <trkpt lat="46.0103691" lon="11.2984793" />
      <trkpt lat="46.0102995" lon="11.2985799" />
      <trkpt lat="46.0102920" lon="11.2985647" />
      <trkpt lat="46.0102681" lon="11.2985392" />
      <trkpt lat="46.0102399" lon="11.2985256" />
      <trkpt lat="46.0102101" lon="11.2985252" />
      <trkpt lat="46.0101817" lon="11.2985380" />
      <trkpt lat="46.0101575" lon="11.2985629" />
      <trkpt lat="46.0101398" lon="11.2985973" />
      <trkpt lat="46.0101303" lon="11.2986379" />
      <trkpt lat="46.0101300" lon="11.2986808" />
      <trkpt lat="46.0101389" lon="11.2987216" />
      <trkpt lat="46.0101562" lon="11.2987565" />
      <trkpt lat="46.0101801" lon="11.2987820" />
      <trkpt lat="46.0101893" lon="11.2987865" />
      <trkpt lat="46.0100999" lon="11.2990123" />
      <trkpt lat="46.0100425" lon="11.2991474" />
      <trkpt lat="46.0100209" lon="11.2991942" />
      <trkpt lat="46.0096193" lon="11.2990766" />
      <trkpt lat="46.0093803" lon="11.2989948" />
      <trkpt lat="46.0091675" lon="11.2989813" />
      <trkpt lat="46.0090929" lon="11.2989837" />
      <trkpt lat="46.0090193" lon="11.2990345" />
      <trkpt lat="46.0088932" lon="11.2991920" />
      <trkpt lat="46.0087057" lon="11.2995460" />
      <trkpt lat="46.0086613" lon="11.2996130" />
      <trkpt lat="46.0085907" lon="11.2997702" />
      <trkpt lat="46.0083690" lon="11.3003535" />
      <trkpt lat="46.0081833" lon="11.3007954" />
      <trkpt lat="46.0081156" lon="11.3009486" />
      <trkpt lat="46.0080981" lon="11.3009575" />
      <trkpt lat="46.0080384" lon="11.3009880" />
      <trkpt lat="46.0079388" lon="11.3013912" />
      <trkpt lat="46.0079344" lon="11.3016165" />
      <trkpt lat="46.0079589" lon="11.3017630" />
      <trkpt lat="46.0079858" lon="11.3018595" />
      <trkpt lat="46.0080662" lon="11.3019871" />
      <trkpt lat="46.0080991" lon="11.3020391" />
      <trkpt lat="46.0082414" lon="11.3021044" />
      <trkpt lat="46.0085220" lon="11.3022333" />
      <trkpt lat="46.0087503" lon="11.3023826" />
      <trkpt lat="46.0093379" lon="11.3028040" />
      <trkpt lat="46.0094482" lon="11.3027916" />
      <trkpt lat="46.0095734" lon="11.3027502" />
      <trkpt lat="46.0099002" lon="11.3026136" />
      <trkpt lat="46.0099138" lon="11.3026079" />
      <trkpt lat="46.0099654" lon="11.3027323" />
      <trkpt lat="46.0100029" lon="11.3029118" />
      <trkpt lat="46.0100490" lon="11.3031043" />
      <trkpt lat="46.0100840" lon="11.3031553" />
      <trkpt lat="46.0101244" lon="11.3031866" />
      <trkpt lat="46.0103653" lon="11.3033064" />
      <trkpt lat="46.0104574" lon="11.3033467" />
      <trkpt lat="46.0105931" lon="11.3034706" />
      <trkpt lat="46.0106617" lon="11.3033547" />
      <trkpt lat="46.0107514" lon="11.3031831" />
      <trkpt lat="46.0110293" lon="11.3033696" />
      <trkpt lat="46.0110488" lon="11.3033779" />
      <trkpt lat="46.0112763" lon="11.3034178" />
      <trkpt lat="46.0113727" lon="11.3034152" />
      <trkpt lat="46.0115685" lon="11.3033874" />
      <trkpt lat="46.0116328" lon="11.3033272" />
      <trkpt lat="46.0117136" lon="11.3032249" />
      <trkpt lat="46.0117371" lon="11.3032074" />
      <trkpt lat="46.0118052" lon="11.3032175" />
      <trkpt lat="46.0119735" lon="11.3032791" />
      <trkpt lat="46.0119908" lon="11.3032882" />
      <trkpt lat="46.0120087" lon="11.3032976" />
      <trkpt lat="46.0120643" lon="11.3033270" />
      <trkpt lat="46.0122138" lon="11.3034024" />
      <trkpt lat="46.0123698" lon="11.3034913" />
      <trkpt lat="46.0124641" lon="11.3035155" />
      <trkpt lat="46.0125647" lon="11.3035184" />
      <trkpt lat="46.0127143" lon="11.3035197" />
      <trkpt lat="46.0127603" lon="11.3035217" />
      <trkpt lat="46.0127785" lon="11.3033938" />
      <trkpt lat="46.0128267" lon="11.3034075" />
      <trkpt lat="46.0129663" lon="11.3033746" />
      <trkpt lat="46.0132342" lon="11.3033603" />
      <trkpt lat="46.0134434" lon="11.3033458" />
      <trkpt lat="46.0136874" lon="11.3033397" />
      <trkpt lat="46.0137485" lon="11.3033721" />
      <trkpt lat="46.0140056" lon="11.3035487" />
      <trkpt lat="46.0141446" lon="11.3036802" />
      <trkpt lat="46.0139686" lon="11.3042444" />
      <trkpt lat="46.0139211" lon="11.3044210" />
      <trkpt lat="46.0136996" lon="11.3055082" />
      <trkpt lat="46.0138253" lon="11.3056538" />
      <trkpt lat="46.0137384" lon="11.3060950" />
      <trkpt lat="46.0135289" lon="11.3071749" />
      <trkpt lat="46.0134803" lon="11.3073438" />
      <trkpt lat="46.0133970" lon="11.3074903" />
      <trkpt lat="46.0133741" lon="11.3075777" />
      <trkpt lat="46.0133257" lon="11.3084986" />
      <trkpt lat="46.0133450" lon="11.3085849" />
      <trkpt lat="46.0132950" lon="11.3086265" />
      <trkpt lat="46.0132379" lon="11.3086679" />
      <trkpt lat="46.0131735" lon="11.3087524" />
      <trkpt lat="46.0131139" lon="11.3088596" />
      <trkpt lat="46.0130617" lon="11.3091225" />
      <trkpt lat="46.0130319" lon="11.3092083" />
      <trkpt lat="46.0129761" lon="11.3092566" />
      <trkpt lat="46.0128792" lon="11.3092834" />
      <trkpt lat="46.0124877" lon="11.3093217" />
      <trkpt lat="46.0125112" lon="11.3095719" />
      <trkpt lat="46.0125396" lon="11.3096631" />
      <trkpt lat="46.0126642" lon="11.3100298" />
      <trkpt lat="46.0130312" lon="11.3120209" />
      <trkpt lat="46.0131658" lon="11.3128957" />
      <trkpt lat="46.0133271" lon="11.3136518" />
      <trkpt lat="46.0130782" lon="11.3137293" />
      <trkpt lat="46.0129807" lon="11.3137517" />
      <trkpt lat="46.0128944" lon="11.3137494" />
      <trkpt lat="46.0128110" lon="11.3137171" />
      <trkpt lat="46.0126415" lon="11.3136326" />
      <trkpt lat="46.0123586" lon="11.3134967" />
      <trkpt lat="46.0122690" lon="11.3134494" />
      <trkpt lat="46.0121874" lon="11.3134327" />
      <trkpt lat="46.0120941" lon="11.3134365" />
      <trkpt lat="46.0119632" lon="11.3134631" />
      <trkpt lat="46.0117628" lon="11.3135423" />
      <trkpt lat="46.0115386" lon="11.3118246" />
      <trkpt lat="46.0114134" lon="11.3118904" />
      <trkpt lat="46.0113099" lon="11.3119234" />
      <trkpt lat="46.0111544" lon="11.3119172" />
      <trkpt lat="46.0109155" lon="11.3119592" />
      <trkpt lat="46.0108293" lon="11.3120168" />
      <trkpt lat="46.0107489" lon="11.3116393" />
      <trkpt lat="46.0107626" lon="11.3114794" />
      <trkpt lat="46.0107896" lon="11.3112799" />
      <trkpt lat="46.0107599" lon="11.3108730" />
      <trkpt lat="46.0107490" lon="11.3107772" />
      <trkpt lat="46.0107072" lon="11.3102059" />
      <trkpt lat="46.0106833" lon="11.3100343" />
      <trkpt lat="46.0106237" lon="11.3098884" />
      <trkpt lat="46.0105999" lon="11.3097167" />
      <trkpt lat="46.0105969" lon="11.3092274" />
      <trkpt lat="46.0104685" lon="11.3092444" />
      <trkpt lat="46.0103494" lon="11.3092761" />
      <trkpt lat="46.0098931" lon="11.3094071" />
      <trkpt lat="46.0098305" lon="11.3094158" />
      <trkpt lat="46.0097471" lon="11.3093905" />
      <trkpt lat="46.0096743" lon="11.3093517" />
      <trkpt lat="46.0096191" lon="11.3093162" />
      <trkpt lat="46.0095602" lon="11.3092690" />
      <trkpt lat="46.0095413" lon="11.3092533" />
      <trkpt lat="46.0095093" lon="11.3092309" />
      <trkpt lat="46.0094848" lon="11.3092210" />
      <trkpt lat="46.0094485" lon="11.3092101" />
      <trkpt lat="46.0094113" lon="11.3092100" />
      <trkpt lat="46.0093756" lon="11.3092212" />
      <trkpt lat="46.0093417" lon="11.3092364" />
      <trkpt lat="46.0093089" lon="11.3092664" />
      <trkpt lat="46.0092747" lon="11.3093032" />
      <trkpt lat="46.0092055" lon="11.3093792" />
      <trkpt lat="46.0092180" lon="11.3094163" />
      <trkpt lat="46.0092218" lon="11.3094572" />
      <trkpt lat="46.0092165" lon="11.3094977" />
      <trkpt lat="46.0092028" lon="11.3095339" />
      <trkpt lat="46.0091819" lon="11.3095621" />
      <trkpt lat="46.0092147" lon="11.3096070" />
      <trkpt lat="46.0092684" lon="11.3096785" />
      <trkpt lat="46.0093344" lon="11.3098344" />
      <trkpt lat="46.0093880" lon="11.3100457" />
      <trkpt lat="46.0094338" lon="11.3102144" />
      <trkpt lat="46.0095716" lon="11.3109346" />
      <trkpt lat="46.0097121" lon="11.3116421" />
      <trkpt lat="46.0098528" lon="11.3119847" />
      <trkpt lat="46.0098652" lon="11.3120149" />
      <trkpt lat="46.0100043" lon="11.3122845" />
      <trkpt lat="46.0100260" lon="11.3123266" />
      <trkpt lat="46.0100407" lon="11.3123551" />
      <trkpt lat="46.0101811" lon="11.3126513" />
      <trkpt lat="46.0101470" lon="11.3126763" />
      <trkpt lat="46.0102359" lon="11.3128742" />
      <trkpt lat="46.0102137" lon="11.3128986" />
      <trkpt lat="46.0101811" lon="11.3129238" />
      <trkpt lat="46.0100733" lon="11.3130140" />
      <trkpt lat="46.0099596" lon="11.3130959" />
      <trkpt lat="46.0098511" lon="11.3131746" />
      <trkpt lat="46.0097875" lon="11.3132968" />
      <trkpt lat="46.0097988" lon="11.3137698" />
      <trkpt lat="46.0099471" lon="11.3143299" />
      <trkpt lat="46.0102007" lon="11.3150626" />
      <trkpt lat="46.0100985" lon="11.3151266" />
      <trkpt lat="46.0098642" lon="11.3151936" />
      <trkpt lat="46.0096661" lon="11.3152790" />
      <trkpt lat="46.0094636" lon="11.3154283" />
      <trkpt lat="46.0094486" lon="11.3154405" />
      <trkpt lat="46.0094293" lon="11.3154563" />
      <trkpt lat="46.0093907" lon="11.3153401" />
      <trkpt lat="46.0092992" lon="11.3154056" />
      <trkpt lat="46.0090466" lon="11.3156334" />
      <trkpt lat="46.0089753" lon="11.3157063" />
      <trkpt lat="46.0089372" lon="11.3156646" />
      <trkpt lat="46.0088865" lon="11.3151673" />
      <trkpt lat="46.0088472" lon="11.3151044" />
      <trkpt lat="46.0087831" lon="11.3150278" />
      <trkpt lat="46.0087912" lon="11.3149598" />
      <trkpt lat="46.0087914" lon="11.3147422" />
      <trkpt lat="46.0088022" lon="11.3142137" />
      <trkpt lat="46.0088287" lon="11.3136027" />
      <trkpt lat="46.0087810" lon="11.3137964" />
      <trkpt lat="46.0087278" lon="11.3138873" />
      <trkpt lat="46.0085718" lon="11.3138099" />
      <trkpt lat="46.0085143" lon="11.3134063" />
      <trkpt lat="46.0084889" lon="11.3132048" />
      <trkpt lat="46.0084545" lon="11.3129566" />
      <trkpt lat="46.0084349" lon="11.3128150" />
      <trkpt lat="46.0084138" lon="11.3126652" />
      <trkpt lat="46.0083970" lon="11.3125461" />
      <trkpt lat="46.0083716" lon="11.3123548" />
      <trkpt lat="46.0083373" lon="11.3120961" />
      <trkpt lat="46.0081889" lon="11.3110227" />
      <trkpt lat="46.0081771" lon="11.3109370" />
      <trkpt lat="46.0080908" lon="11.3103122" />
      <trkpt lat="46.0080561" lon="11.3099425" />
      <trkpt lat="46.0080447" lon="11.3098215" />
      <trkpt lat="46.0080458" lon="11.3096974" />
      <trkpt lat="46.0080464" lon="11.3096269" />
      <trkpt lat="46.0080468" lon="11.3095756" />
      <trkpt lat="46.0082414" lon="11.3073453" />
      <trkpt lat="46.0088896" lon="11.3073866" />
      <trkpt lat="46.0088444" lon="11.3078784" />
      <trkpt lat="46.0088209" lon="11.3080963" />
      <trkpt lat="46.0088175" lon="11.3083890" />
      <trkpt lat="46.0088044" lon="11.3086422" />
      <trkpt lat="46.0088224" lon="11.3087871" />
      <trkpt lat="46.0088516" lon="11.3089000" />
      <trkpt lat="46.0089409" lon="11.3090544" />
      <trkpt lat="46.0089976" lon="11.3091176" />
      <trkpt lat="46.0090311" lon="11.3092009" />
      <trkpt lat="46.0090504" lon="11.3092722" />
      <trkpt lat="46.0090726" lon="11.3093539" />
      <trkpt lat="46.0090947" lon="11.3093342" />
      <trkpt lat="46.0091198" lon="11.3093242" />
      <trkpt lat="46.0091459" lon="11.3093250" />
      <trkpt lat="46.0091689" lon="11.3093351" />
      <trkpt lat="46.0091892" lon="11.3093536" />
      <trkpt lat="46.0092055" lon="11.3093792" />
      <trkpt lat="46.0092747" lon="11.3093032" />
      <trkpt lat="46.0093089" lon="11.3092664" />
      <trkpt lat="46.0093417" lon="11.3092364" />
      <trkpt lat="46.0093756" lon="11.3092212" />
      <trkpt lat="46.0094113" lon="11.3092100" />
      <trkpt lat="46.0094485" lon="11.3092101" />
      <trkpt lat="46.0094848" lon="11.3092210" />
      <trkpt lat="46.0095093" lon="11.3092309" />
      <trkpt lat="46.0095413" lon="11.3092533" />
      <trkpt lat="46.0095602" lon="11.3092690" />
      <trkpt lat="46.0096191" lon="11.3093162" />
      <trkpt lat="46.0096743" lon="11.3093517" />
      <trkpt lat="46.0097471" lon="11.3093905" />
      <trkpt lat="46.0098305" lon="11.3094158" />
      <trkpt lat="46.0098931" lon="11.3094071" />
      <trkpt lat="46.0103494" lon="11.3092761" />
      <trkpt lat="46.0104685" lon="11.3092444" />
      <trkpt lat="46.0105969" lon="11.3092274" />
      <trkpt lat="46.0110743" lon="11.3092062" />
      <trkpt lat="46.0110982" lon="11.3092079" />
      <trkpt lat="46.0112065" lon="11.3092161" />
      <trkpt lat="46.0113540" lon="11.3092369" />
      <trkpt lat="46.0115957" lon="11.3092885" />
      <trkpt lat="46.0117285" lon="11.3093139" />
      <trkpt lat="46.0117912" lon="11.3093198" />
      <trkpt lat="46.0119086" lon="11.3093218" />
      <trkpt lat="46.0120910" lon="11.3093193" />
      <trkpt lat="46.0121068" lon="11.3093195" />
      <trkpt lat="46.0121885" lon="11.3093191" />
      <trkpt lat="46.0123477" lon="11.3093205" />
      <trkpt lat="46.0124877" lon="11.3093217" />
      <trkpt lat="46.0128792" lon="11.3092834" />
      <trkpt lat="46.0129761" lon="11.3092566" />
      <trkpt lat="46.0130319" lon="11.3092083" />
      <trkpt lat="46.0130617" lon="11.3091225" />
      <trkpt lat="46.0131139" lon="11.3088596" />
      <trkpt lat="46.0131735" lon="11.3087524" />
      <trkpt lat="46.0132379" lon="11.3086679" />
      <trkpt lat="46.0132950" lon="11.3086265" />
      <trkpt lat="46.0133450" lon="11.3085849" />
      <trkpt lat="46.0133257" lon="11.3084986" />
      <trkpt lat="46.0133741" lon="11.3075777" />
      <trkpt lat="46.0133970" lon="11.3074903" />
      <trkpt lat="46.0134803" lon="11.3073438" />
      <trkpt lat="46.0135289" lon="11.3071749" />
      <trkpt lat="46.0137384" lon="11.3060950" />
      <trkpt lat="46.0138253" lon="11.3056538" />
      <trkpt lat="46.0136996" lon="11.3055082" />
      <trkpt lat="46.0139211" lon="11.3044210" />
      <trkpt lat="46.0139686" lon="11.3042444" />
      <trkpt lat="46.0141446" lon="11.3036802" />
      <trkpt lat="46.0140056" lon="11.3035487" />
      <trkpt lat="46.0137485" lon="11.3033721" />
      <trkpt lat="46.0136874" lon="11.3033397" />
      <trkpt lat="46.0134434" lon="11.3033458" />
      <trkpt lat="46.0132342" lon="11.3033603" />
      <trkpt lat="46.0129663" lon="11.3033746" />
      <trkpt lat="46.0128267" lon="11.3034075" />
      <trkpt lat="46.0127785" lon="11.3033938" />
      <trkpt lat="46.0127603" lon="11.3035217" />
      <trkpt lat="46.0127143" lon="11.3035197" />
      <trkpt lat="46.0125647" lon="11.3035184" />
      <trkpt lat="46.0124641" lon="11.3035155" />
      <trkpt lat="46.0123698" lon="11.3034913" />
      <trkpt lat="46.0122138" lon="11.3034024" />
      <trkpt lat="46.0120643" lon="11.3033270" />
      <trkpt lat="46.0120087" lon="11.3032976" />
      <trkpt lat="46.0119908" lon="11.3032882" />
      <trkpt lat="46.0119735" lon="11.3032791" />
      <trkpt lat="46.0118052" lon="11.3032175" />
      <trkpt lat="46.0117371" lon="11.3032074" />
      <trkpt lat="46.0117136" lon="11.3032249" />
      <trkpt lat="46.0116328" lon="11.3033272" />
      <trkpt lat="46.0115685" lon="11.3033874" />
      <trkpt lat="46.0113727" lon="11.3034152" />
      <trkpt lat="46.0112763" lon="11.3034178" />
      <trkpt lat="46.0110488" lon="11.3033779" />
      <trkpt lat="46.0110293" lon="11.3033696" />
      <trkpt lat="46.0107514" lon="11.3031831" />
      <trkpt lat="46.0106617" lon="11.3033547" />
      <trkpt lat="46.0105931" lon="11.3034706" />
      <trkpt lat="46.0104574" lon="11.3033467" />
      <trkpt lat="46.0103653" lon="11.3033064" />
      <trkpt lat="46.0101244" lon="11.3031866" />
      <trkpt lat="46.0100840" lon="11.3031553" />
      <trkpt lat="46.0100490" lon="11.3031043" />
      <trkpt lat="46.0100029" lon="11.3029118" />
      <trkpt lat="46.0099654" lon="11.3027323" />
      <trkpt lat="46.0099138" lon="11.3026079" />
      <trkpt lat="46.0099002" lon="11.3026136" />
      <trkpt lat="46.0095734" lon="11.3027502" />
      <trkpt lat="46.0094482" lon="11.3027916" />
      <trkpt lat="46.0093379" lon="11.3028040" />
      <trkpt lat="46.0087503" lon="11.3023826" />
      <trkpt lat="46.0085220" lon="11.3022333" />
      <trkpt lat="46.0082414" lon="11.3021044" />
      <trkpt lat="46.0080991" lon="11.3020391" />
      <trkpt lat="46.0080662" lon="11.3019871" />
      <trkpt lat="46.0079858" lon="11.3018595" />
      <trkpt lat="46.0079589" lon="11.3017630" />
      <trkpt lat="46.0079344" lon="11.3016165" />
      <trkpt lat="46.0079388" lon="11.3013912" />
      <trkpt lat="46.0080384" lon="11.3009880" />
      <trkpt lat="46.0080981" lon="11.3009575" />
      <trkpt lat="46.0081156" lon="11.3009486" />
      <trkpt lat="46.0081833" lon="11.3007954" />
      <trkpt lat="46.0083690" lon="11.3003535" />
      <trkpt lat="46.0085907" lon="11.2997702" />
      <trkpt lat="46.0086613" lon="11.2996130" />
      <trkpt lat="46.0087057" lon="11.2995460" />
      <trkpt lat="46.0088932" lon="11.2991920" />
      <trkpt lat="46.0090193" lon="11.2990345" />
      <trkpt lat="46.0090929" lon="11.2989837" />
      <trkpt lat="46.0091675" lon="11.2989813" />
      <trkpt lat="46.0093803" lon="11.2989948" />
      <trkpt lat="46.0096193" lon="11.2990766" />
      <trkpt lat="46.0100209" lon="11.2991942" />
      <trkpt lat="46.0100425" lon="11.2991474" />
      <trkpt lat="46.0100999" lon="11.2990123" />
      <trkpt lat="46.0101893" lon="11.2987865" />
      <trkpt lat="46.0101801" lon="11.2987820" />
      <trkpt lat="46.0101562" lon="11.2987565" />
      <trkpt lat="46.0101389" lon="11.2987216" />
      <trkpt lat="46.0101300" lon="11.2986808" />
      <trkpt lat="46.0101303" lon="11.2986379" />
      <trkpt lat="46.0101398" lon="11.2985973" />
      <trkpt lat="46.0101575" lon="11.2985629" />
      <trkpt lat="46.0101817" lon="11.2985380" />
      <trkpt lat="46.0102101" lon="11.2985252" />
      <trkpt lat="46.0102399" lon="11.2985256" />
      <trkpt lat="46.0102681" lon="11.2985392" />
      <trkpt lat="46.0102920" lon="11.2985647" />
      <trkpt lat="46.0102995" lon="11.2985799" />
      <trkpt lat="46.0103691" lon="11.2984793" />
      <trkpt lat="46.0104499" lon="11.2983154" />
      <trkpt lat="46.0105560" lon="11.2981004" />
      <trkpt lat="46.0106159" lon="11.2979879" />
      <trkpt lat="46.0107801" lon="11.2977017" />
      <trkpt lat="46.0109630" lon="11.2974406" />
      <trkpt lat="46.0111443" lon="11.2971898" />
      <trkpt lat="46.0112181" lon="11.2971112" />
      <trkpt lat="46.0116123" lon="11.2977853" />
      <trkpt lat="46.0115764" lon="11.2979707" />
      <trkpt lat="46.0115587" lon="11.2979934" />
      <trkpt lat="46.0116728" lon="11.2981556" />
      <trkpt lat="46.0118028" lon="11.2983483" />
      <trkpt lat="46.0118824" lon="11.2985225" />
      <trkpt lat="46.0120860" lon="11.2982428" />
      <trkpt lat="46.0122052" lon="11.2981248" />
      <trkpt lat="46.0122499" lon="11.2982214" />
      <trkpt lat="46.0122424" lon="11.2983394" />
      <trkpt lat="46.0123552" lon="11.2985082" />
      <trkpt lat="46.0125364" lon="11.2982718" />
      <trkpt lat="46.0127682" lon="11.2980215" />
      <trkpt lat="46.0128013" lon="11.2980024" />
      <trkpt lat="46.0128770" lon="11.2979586" />
      <trkpt lat="46.0129712" lon="11.2978899" />
      <trkpt lat="46.0130468" lon="11.2977714" />
      <trkpt lat="46.0131199" lon="11.2976603" />
      <trkpt lat="46.0131919" lon="11.2975460" />
      <trkpt lat="46.0132320" lon="11.2976177" />
      <trkpt lat="46.0133454" lon="11.2977970" />
      <trkpt lat="46.0134865" lon="11.2979792" />
      <trkpt lat="46.0133454" lon="11.2977970" />
      <trkpt lat="46.0132320" lon="11.2976177" />
      <trkpt lat="46.0131919" lon="11.2975460" />
      <trkpt lat="46.0132414" lon="11.2974829" />
      <trkpt lat="46.0131796" lon="11.2972693" />
      <trkpt lat="46.0131567" lon="11.2969032" />
      <trkpt lat="46.0132630" lon="11.2966621" />
      <trkpt lat="46.0134018" lon="11.2964807" />
      <trkpt lat="46.0135406" lon="11.2962138" />
      <trkpt lat="46.0136604" lon="11.2958422" />
      <trkpt lat="46.0137250" lon="11.2955075" />
      <trkpt lat="46.0137425" lon="11.2954170" />
      <trkpt lat="46.0137702" lon="11.2951992" />
      <trkpt lat="46.0138117" lon="11.2949132" />
      <trkpt lat="46.0138750" lon="11.2944603" />
      <trkpt lat="46.0139568" lon="11.2938870" />
      <trkpt lat="46.0139888" lon="11.2936522" />
      <trkpt lat="46.0140896" lon="11.2933702" />
      <trkpt lat="46.0139921" lon="11.2933736" />
      <trkpt lat="46.0132165" lon="11.2935172" />
      <trkpt lat="46.0131754" lon="11.2935322" />
      <trkpt lat="46.0129133" lon="11.2936275" />
      <trkpt lat="46.0125329" lon="11.2939461" />
      <trkpt lat="46.0121425" lon="11.2943986" />
      <trkpt lat="46.0117996" lon="11.2948382" />
      <trkpt lat="46.0118463" lon="11.2949585" />
      <trkpt lat="46.0118242" lon="11.2949915" />
      <trkpt lat="46.0118000" lon="11.2950276" />
      <trkpt lat="46.0117646" lon="11.2950807" />
      <trkpt lat="46.0117049" lon="11.2951673" />
      <trkpt lat="46.0117011" lon="11.2951731" />
      <trkpt lat="46.0116754" lon="11.2952125" />
      <trkpt lat="46.0112310" lon="11.2944284" />
      <trkpt lat="46.0111727" lon="11.2943826" />
      <trkpt lat="46.0108907" lon="11.2941611" />
      <trkpt lat="46.0107529" lon="11.2940801" />
      <trkpt lat="46.0107151" lon="11.2940549" />
      <trkpt lat="46.0106885" lon="11.2940373" />
      <trkpt lat="46.0104720" lon="11.2939495" />
      <trkpt lat="46.0102700" lon="11.2938982" />
      <trkpt lat="46.0098088" lon="11.2938097" />
      <trkpt lat="46.0090661" lon="11.2936744" />
      <trkpt lat="46.0089680" lon="11.2936565" />
      <trkpt lat="46.0088694" lon="11.2936467" />
      <trkpt lat="46.0089680" lon="11.2936565" />
      <trkpt lat="46.0090661" lon="11.2936744" />
      <trkpt lat="46.0098088" lon="11.2938097" />
      <trkpt lat="46.0102700" lon="11.2938982" />
      <trkpt lat="46.0104720" lon="11.2939495" />
      <trkpt lat="46.0106885" lon="11.2940373" />
      <trkpt lat="46.0107151" lon="11.2940549" />
      <trkpt lat="46.0107529" lon="11.2940801" />
      <trkpt lat="46.0108907" lon="11.2941611" />
      <trkpt lat="46.0111727" lon="11.2943826" />
      <trkpt lat="46.0112310" lon="11.2944284" />
      <trkpt lat="46.0112000" lon="11.2943451" />
      <trkpt lat="46.0110335" lon="11.2938980" />
      <trkpt lat="46.0109990" lon="11.2938063" />
      <trkpt lat="46.0109158" lon="11.2935850" />
      <trkpt lat="46.0108294" lon="11.2933553" />
      <trkpt lat="46.0107784" lon="11.2930600" />
      <trkpt lat="46.0107197" lon="11.2927207" />
      <trkpt lat="46.0106094" lon="11.2920821" />
      <trkpt lat="46.0104074" lon="11.2908287" />
      <trkpt lat="46.0103691" lon="11.2904097" />
      <trkpt lat="46.0103607" lon="11.2898128" />
      <trkpt lat="46.0103715" lon="11.2896984" />
      <trkpt lat="46.0103607" lon="11.2898128" />
      <trkpt lat="46.0103691" lon="11.2904097" />
      <trkpt lat="46.0104074" lon="11.2908287" />
      <trkpt lat="46.0106094" lon="11.2920821" />
      <trkpt lat="46.0107197" lon="11.2927207" />
      <trkpt lat="46.0107784" lon="11.2930600" />
      <trkpt lat="46.0108294" lon="11.2933553" />
      <trkpt lat="46.0109158" lon="11.2935850" />
      <trkpt lat="46.0109990" lon="11.2938063" />
      <trkpt lat="46.0110335" lon="11.2938980" />
      <trkpt lat="46.0110198" lon="11.2939291" />
      <trkpt lat="46.0109707" lon="11.2940401" />
      <trkpt lat="46.0109189" lon="11.2941184" />
      <trkpt lat="46.0108907" lon="11.2941611" />
      <trkpt lat="46.0107529" lon="11.2940801" />
      <trkpt lat="46.0107151" lon="11.2940549" />
      <trkpt lat="46.0106885" lon="11.2940373" />
      <trkpt lat="46.0107151" lon="11.2940549" />
      <trkpt lat="46.0107529" lon="11.2940801" />
      <trkpt lat="46.0108907" lon="11.2941611" />
      <trkpt lat="46.0111727" lon="11.2943826" />
      <trkpt lat="46.0112310" lon="11.2944284" />
      <trkpt lat="46.0116754" lon="11.2952125" />
      <trkpt lat="46.0117011" lon="11.2951731" />
      <trkpt lat="46.0112626" lon="11.2943613" />
      <trkpt lat="46.0108742" lon="11.2933398" />
      <trkpt lat="46.0104629" lon="11.2907377" />
      <trkpt lat="46.0104145" lon="11.2897542" />
      <trkpt lat="46.0104495" lon="11.2897156" />
      <trkpt lat="46.0104491" lon="11.2896377" />
      <trkpt lat="46.0104490" lon="11.2895231" />
      <trkpt lat="46.0104484" lon="11.2894042" />
      <trkpt lat="46.0103878" lon="11.2894056" />
      <trkpt lat="46.0103400" lon="11.2894066" />
      <trkpt lat="46.0103406" lon="11.2895290" />
      <trkpt lat="46.0103313" lon="11.2895635" />
      <trkpt lat="46.0103119" lon="11.2895981" />
      <trkpt lat="46.0102610" lon="11.2896391" />
      <trkpt lat="46.0101365" lon="11.2897062" />
      <trkpt lat="46.0099107" lon="11.2898286" />
      <trkpt lat="46.0097829" lon="11.2898964" />
      <trkpt lat="46.0097531" lon="11.2899109" />
      <trkpt lat="46.0097334" lon="11.2898114" />
      <trkpt lat="46.0097235" lon="11.2897894" />
      <trkpt lat="46.0097102" lon="11.2897827" />
      <trkpt lat="46.0096962" lon="11.2897827" />
      <trkpt lat="46.0096776" lon="11.2897837" />
      <trkpt lat="46.0096387" lon="11.2897784" />
      <trkpt lat="46.0093986" lon="11.2899309" />
      <trkpt lat="46.0093958" lon="11.2899229" />
      <trkpt lat="46.0090416" lon="11.2889431" />
      <trkpt lat="46.0088389" lon="11.2883637" />
      <trkpt lat="46.0090416" lon="11.2889431" />
      <trkpt lat="46.0093958" lon="11.2899229" />
      <trkpt lat="46.0093986" lon="11.2899309" />
      <trkpt lat="46.0096387" lon="11.2897784" />
      <trkpt lat="46.0096776" lon="11.2897837" />
      <trkpt lat="46.0096962" lon="11.2897827" />
      <trkpt lat="46.0097102" lon="11.2897827" />
      <trkpt lat="46.0097235" lon="11.2897894" />
      <trkpt lat="46.0097334" lon="11.2898114" />
      <trkpt lat="46.0097531" lon="11.2899109" />
      <trkpt lat="46.0097829" lon="11.2898964" />
      <trkpt lat="46.0099107" lon="11.2898286" />
      <trkpt lat="46.0101365" lon="11.2897062" />
      <trkpt lat="46.0102610" lon="11.2896391" />
      <trkpt lat="46.0103119" lon="11.2895981" />
      <trkpt lat="46.0103313" lon="11.2895635" />
      <trkpt lat="46.0103406" lon="11.2895290" />
      <trkpt lat="46.0103400" lon="11.2894066" />
      <trkpt lat="46.0103878" lon="11.2894056" />
      <trkpt lat="46.0104484" lon="11.2894042" />
      <trkpt lat="46.0104490" lon="11.2895231" />
      <trkpt lat="46.0104601" lon="11.2895497" />
      <trkpt lat="46.0104819" lon="11.2895643" />
      <trkpt lat="46.0105075" lon="11.2895672" />
      <trkpt lat="46.0105457" lon="11.2895609" />
      <trkpt lat="46.0116967" lon="11.2893124" />
      <trkpt lat="46.0119076" lon="11.2892653" />
      <trkpt lat="46.0119694" lon="11.2892404" />
      <trkpt lat="46.0120120" lon="11.2892244" />
      <trkpt lat="46.0120429" lon="11.2892117" />
      <trkpt lat="46.0121666" lon="11.2891716" />
      <trkpt lat="46.0122996" lon="11.2890980" />
      <trkpt lat="46.0122430" lon="11.2889569" />
      <trkpt lat="46.0123462" lon="11.2888647" />
      <trkpt lat="46.0124638" lon="11.2887863" />
      <trkpt lat="46.0123462" lon="11.2888647" />
      <trkpt lat="46.0122430" lon="11.2889569" />
      <trkpt lat="46.0122996" lon="11.2890980" />
      <trkpt lat="46.0121666" lon="11.2891716" />
      <trkpt lat="46.0120429" lon="11.2892117" />
      <trkpt lat="46.0120120" lon="11.2892244" />
      <trkpt lat="46.0119694" lon="11.2892404" />
      <trkpt lat="46.0119076" lon="11.2892653" />
      <trkpt lat="46.0116967" lon="11.2893124" />
      <trkpt lat="46.0105457" lon="11.2895609" />
      <trkpt lat="46.0105075" lon="11.2895672" />
      <trkpt lat="46.0104819" lon="11.2895643" />
      <trkpt lat="46.0104601" lon="11.2895497" />
      <trkpt lat="46.0104490" lon="11.2895231" />
      <trkpt lat="46.0104491" lon="11.2896377" />
      <trkpt lat="46.0104495" lon="11.2897156" />
      <trkpt lat="46.0104145" lon="11.2897542" />
      <trkpt lat="46.0104629" lon="11.2907377" />
      <trkpt lat="46.0108742" lon="11.2933398" />
      <trkpt lat="46.0112626" lon="11.2943613" />
      <trkpt lat="46.0117011" lon="11.2951731" />
      <trkpt lat="46.0116754" lon="11.2952125" />
      <trkpt lat="46.0112310" lon="11.2944284" />
      <trkpt lat="46.0112000" lon="11.2943451" />
      <trkpt lat="46.0110335" lon="11.2938980" />
      <trkpt lat="46.0109990" lon="11.2938063" />
      <trkpt lat="46.0109158" lon="11.2935850" />
      <trkpt lat="46.0108294" lon="11.2933553" />
      <trkpt lat="46.0107784" lon="11.2930600" />
      <trkpt lat="46.0107197" lon="11.2927207" />
      <trkpt lat="46.0106094" lon="11.2920821" />
      <trkpt lat="46.0104074" lon="11.2908287" />
      <trkpt lat="46.0103691" lon="11.2904097" />
      <trkpt lat="46.0103607" lon="11.2898128" />
      <trkpt lat="46.0103715" lon="11.2896984" />
      <trkpt lat="46.0103607" lon="11.2898128" />
      <trkpt lat="46.0103691" lon="11.2904097" />
      <trkpt lat="46.0104074" lon="11.2908287" />
      <trkpt lat="46.0106094" lon="11.2920821" />
      <trkpt lat="46.0107197" lon="11.2927207" />
      <trkpt lat="46.0107784" lon="11.2930600" />
      <trkpt lat="46.0108294" lon="11.2933553" />
      <trkpt lat="46.0109158" lon="11.2935850" />
      <trkpt lat="46.0109990" lon="11.2938063" />
      <trkpt lat="46.0110335" lon="11.2938980" />
      <trkpt lat="46.0112000" lon="11.2943451" />
      <trkpt lat="46.0112310" lon="11.2944284" />
      <trkpt lat="46.0116754" lon="11.2952125" />
      <trkpt lat="46.0117011" lon="11.2951731" />
      <trkpt lat="46.0117049" lon="11.2951673" />
      <trkpt lat="46.0117646" lon="11.2950807" />
      <trkpt lat="46.0118000" lon="11.2950276" />
      <trkpt lat="46.0118242" lon="11.2949915" />
      <trkpt lat="46.0118463" lon="11.2949585" />
      <trkpt lat="46.0117996" lon="11.2948382" />
      <trkpt lat="46.0121425" lon="11.2943986" />
      <trkpt lat="46.0125329" lon="11.2939461" />
      <trkpt lat="46.0129133" lon="11.2936275" />
      <trkpt lat="46.0131754" lon="11.2935322" />
      <trkpt lat="46.0132165" lon="11.2935172" />
      <trkpt lat="46.0139921" lon="11.2933736" />
      <trkpt lat="46.0140896" lon="11.2933702" />
      <trkpt lat="46.0139888" lon="11.2936522" />
      <trkpt lat="46.0139568" lon="11.2938870" />
      <trkpt lat="46.0138750" lon="11.2944603" />
      <trkpt lat="46.0138117" lon="11.2949132" />
      <trkpt lat="46.0137702" lon="11.2951992" />
      <trkpt lat="46.0137425" lon="11.2954170" />
      <trkpt lat="46.0137250" lon="11.2955075" />
      <trkpt lat="46.0136604" lon="11.2958422" />
      <trkpt lat="46.0135406" lon="11.2962138" />
      <trkpt lat="46.0134018" lon="11.2964807" />
      <trkpt lat="46.0132630" lon="11.2966621" />
      <trkpt lat="46.0131567" lon="11.2969032" />
      <trkpt lat="46.0131796" lon="11.2972693" />
      <trkpt lat="46.0132414" lon="11.2974829" />
      <trkpt lat="46.0133097" lon="11.2974064" />
      <trkpt lat="46.0136602" lon="11.2971080" />
      <trkpt lat="46.0136389" lon="11.2970461" />
      <trkpt lat="46.0135550" lon="11.2968258" />
      <trkpt lat="46.0137251" lon="11.2966531" />
    </trkseg>
  </trk>
</gpx>
