<?xml version="1.0" encoding="UTF-8"?>
<gpx xmlns="http://www.topografix.com/GPX/1/1" version="1.1" creator="ShapeRoute route-engine">
  <metadata>
    <name>star 15 km · 2026-09-25</name>
    <author>
      <name>ShapeRoute route-engine</name>
    </author>
    <copyright author="OpenStreetMap contributors">
      <license>https://opendatacommons.org/licenses/odbl/1-0/</license>
    </copyright>
    <link href="https://www.openstreetmap.org/copyright">
      <text>© OpenStreetMap contributors</text>
    </link>
    <time>2026-09-25T17:18:32Z</time>
  </metadata>
  <trk>
    <name>star 15 km · 2026-09-25</name>
    <trkseg>
      <trkpt lat="45.4643695" lon="9.1897716" />
      <trkpt lat="45.4644313" lon="9.1898582" />
      <trkpt lat="45.4644741" lon="9.1898729" />
      <trkpt lat="45.4645046" lon="9.1898833" />
      <trkpt lat="45.4645446" lon="9.1898970" />
      <trkpt lat="45.4645546" lon="9.1899005" />
      <trkpt lat="45.4645542" lon="9.1899580" />
      <trkpt lat="45.4645497" lon="9.1899580" />
      <trkpt lat="45.4645497" lon="9.1899743" />
      <trkpt lat="45.4645490" lon="9.1902933" />
      <trkpt lat="45.4645233" lon="9.1902840" />
      <trkpt lat="45.4645236" lon="9.1902631" />
      <trkpt lat="45.4645242" lon="9.1902105" />
      <trkpt lat="45.4644926" lon="9.1902113" />
      <trkpt lat="45.4644924" lon="9.1901827" />
      <trkpt lat="45.4644913" lon="9.1900241" />
      <trkpt lat="45.4644264" lon="9.1900245" />
      <trkpt lat="45.4638736" lon="9.1900090" />
      <trkpt lat="45.4638731" lon="9.1900740" />
      <trkpt lat="45.4638729" lon="9.1901285" />
      <trkpt lat="45.4639022" lon="9.1901304" />
      <trkpt lat="45.4639110" lon="9.1901309" />
      <trkpt lat="45.4639105" lon="9.1901614" />
      <trkpt lat="45.4638623" lon="9.1901606" />
      <trkpt lat="45.4638381" lon="9.1901611" />
      <trkpt lat="45.4638372" lon="9.1902606" />
      <trkpt lat="45.4637484" lon="9.1902593" />
      <trkpt lat="45.4636960" lon="9.1902610" />
      <trkpt lat="45.4636927" lon="9.1905209" />
      <trkpt lat="45.4636917" lon="9.1905498" />
      <trkpt lat="45.4636889" lon="9.1913345" />
      <trkpt lat="45.4636891" lon="9.1913495" />
      <trkpt lat="45.4636995" lon="9.1921135" />
      <trkpt lat="45.4636519" lon="9.1921174" />
      <trkpt lat="45.4636251" lon="9.1921199" />
      <trkpt lat="45.4630249" lon="9.1921750" />
      <trkpt lat="45.4629450" lon="9.1922059" />
      <trkpt lat="45.4627655" lon="9.1922716" />
      <trkpt lat="45.4627624" lon="9.1922734" />
      <trkpt lat="45.4627073" lon="9.1923080" />
      <trkpt lat="45.4626454" lon="9.1923662" />
      <trkpt lat="45.4626372" lon="9.1923751" />
      <trkpt lat="45.4626277" lon="9.1924743" />
      <trkpt lat="45.4626206" lon="9.1925494" />
      <trkpt lat="45.4626311" lon="9.1926016" />
      <trkpt lat="45.4626316" lon="9.1927536" />
      <trkpt lat="45.4626344" lon="9.1936064" />
      <trkpt lat="45.4625126" lon="9.1936218" />
      <trkpt lat="45.4624950" lon="9.1936292" />
      <trkpt lat="45.4624808" lon="9.1936427" />
      <trkpt lat="45.4624603" lon="9.1936619" />
      <trkpt lat="45.4624586" lon="9.1936637" />
      <trkpt lat="45.4624534" lon="9.1936686" />
      <trkpt lat="45.4624322" lon="9.1936887" />
      <trkpt lat="45.4624173" lon="9.1937028" />
      <trkpt lat="45.4624130" lon="9.1937069" />
      <trkpt lat="45.4624005" lon="9.1937188" />
      <trkpt lat="45.4623871" lon="9.1937314" />
      <trkpt lat="45.4623766" lon="9.1937414" />
      <trkpt lat="45.4623716" lon="9.1937461" />
      <trkpt lat="45.4623597" lon="9.1937574" />
      <trkpt lat="45.4623475" lon="9.1937689" />
      <trkpt lat="45.4623318" lon="9.1937838" />
      <trkpt lat="45.4623222" lon="9.1937929" />
      <trkpt lat="45.4623476" lon="9.1938372" />
      <trkpt lat="45.4624435" lon="9.1941361" />
      <trkpt lat="45.4621288" lon="9.1944618" />
      <trkpt lat="45.4620850" lon="9.1945305" />
      <trkpt lat="45.4619207" lon="9.1948811" />
      <trkpt lat="45.4619072" lon="9.1949200" />
      <trkpt lat="45.4618883" lon="9.1949199" />
      <trkpt lat="45.4618293" lon="9.1948889" />
      <trkpt lat="45.4618267" lon="9.1948968" />
      <trkpt lat="45.4618124" lon="9.1949397" />
      <trkpt lat="45.4618017" lon="9.1949720" />
      <trkpt lat="45.4618004" lon="9.1949760" />
      <trkpt lat="45.4617996" lon="9.1949936" />
      <trkpt lat="45.4617255" lon="9.1952110" />
      <trkpt lat="45.4616910" lon="9.1953031" />
      <trkpt lat="45.4615889" lon="9.1954801" />
      <trkpt lat="45.4615612" lon="9.1955059" />
      <trkpt lat="45.4614410" lon="9.1955664" />
      <trkpt lat="45.4614237" lon="9.1955636" />
      <trkpt lat="45.4613913" lon="9.1955788" />
      <trkpt lat="45.4613561" lon="9.1955953" />
      <trkpt lat="45.4613601" lon="9.1956287" />
      <trkpt lat="45.4613608" lon="9.1956416" />
      <trkpt lat="45.4613576" lon="9.1956637" />
      <trkpt lat="45.4613456" lon="9.1956856" />
      <trkpt lat="45.4611009" lon="9.1959758" />
      <trkpt lat="45.4608010" lon="9.1963368" />
      <trkpt lat="45.4607844" lon="9.1963347" />
      <trkpt lat="45.4607772" lon="9.1963500" />
      <trkpt lat="45.4607719" lon="9.1963614" />
      <trkpt lat="45.4607420" lon="9.1964253" />
      <trkpt lat="45.4607178" lon="9.1964772" />
      <trkpt lat="45.4607113" lon="9.1964968" />
      <trkpt lat="45.4608434" lon="9.1966069" />
      <trkpt lat="45.4608616" lon="9.1966566" />
      <trkpt lat="45.4608621" lon="9.1967059" />
      <trkpt lat="45.4608883" lon="9.1984481" />
      <trkpt lat="45.4608702" lon="9.1984910" />
      <trkpt lat="45.4603967" lon="9.1985637" />
      <trkpt lat="45.4603115" lon="9.1985777" />
      <trkpt lat="45.4597987" lon="9.1986527" />
      <trkpt lat="45.4597734" lon="9.1986108" />
      <trkpt lat="45.4597677" lon="9.1986113" />
      <trkpt lat="45.4597487" lon="9.1986129" />
      <trkpt lat="45.4597537" lon="9.1987063" />
      <trkpt lat="45.4597014" lon="9.1987172" />
      <trkpt lat="45.4595559" lon="9.1987407" />
      <trkpt lat="45.4592504" lon="9.1987901" />
      <trkpt lat="45.4591702" lon="9.1988033" />
      <trkpt lat="45.4590463" lon="9.1988206" />
      <trkpt lat="45.4588539" lon="9.1988534" />
      <trkpt lat="45.4588442" lon="9.1989048" />
      <trkpt lat="45.4588412" lon="9.1989205" />
      <trkpt lat="45.4588362" lon="9.1989448" />
      <trkpt lat="45.4588331" lon="9.1989598" />
      <trkpt lat="45.4588160" lon="9.1989890" />
      <trkpt lat="45.4587262" lon="9.1990078" />
      <trkpt lat="45.4586839" lon="9.1990150" />
      <trkpt lat="45.4585417" lon="9.1990371" />
      <trkpt lat="45.4585170" lon="9.1990321" />
      <trkpt lat="45.4584965" lon="9.1990224" />
      <trkpt lat="45.4585066" lon="9.1991197" />
      <trkpt lat="45.4585180" lon="9.1992337" />
      <trkpt lat="45.4585525" lon="9.1995748" />
      <trkpt lat="45.4585910" lon="9.1995829" />
      <trkpt lat="45.4585525" lon="9.1995748" />
      <trkpt lat="45.4585180" lon="9.1992337" />
      <trkpt lat="45.4585066" lon="9.1991197" />
      <trkpt lat="45.4584965" lon="9.1990224" />
      <trkpt lat="45.4584918" lon="9.1989777" />
      <trkpt lat="45.4584908" lon="9.1989626" />
      <trkpt lat="45.4584774" lon="9.1989649" />
      <trkpt lat="45.4578356" lon="9.1990571" />
      <trkpt lat="45.4578197" lon="9.1990901" />
      <trkpt lat="45.4577810" lon="9.1990983" />
      <trkpt lat="45.4577553" lon="9.1991037" />
      <trkpt lat="45.4577468" lon="9.1991055" />
      <trkpt lat="45.4577298" lon="9.1990825" />
      <trkpt lat="45.4567023" lon="9.1992330" />
      <trkpt lat="45.4566759" lon="9.1992380" />
      <trkpt lat="45.4566643" lon="9.1992653" />
      <trkpt lat="45.4566615" lon="9.1992677" />
      <trkpt lat="45.4566438" lon="9.1992702" />
      <trkpt lat="45.4566323" lon="9.1992718" />
      <trkpt lat="45.4566203" lon="9.1992735" />
      <trkpt lat="45.4566000" lon="9.1992764" />
      <trkpt lat="45.4565867" lon="9.1992653" />
      <trkpt lat="45.4565661" lon="9.1992427" />
      <trkpt lat="45.4558719" lon="9.1993957" />
      <trkpt lat="45.4550173" lon="9.1996261" />
      <trkpt lat="45.4550155" lon="9.1996123" />
      <trkpt lat="45.4550120" lon="9.1995863" />
      <trkpt lat="45.4550072" lon="9.1995498" />
      <trkpt lat="45.4550054" lon="9.1995364" />
      <trkpt lat="45.4549909" lon="9.1995225" />
      <trkpt lat="45.4548883" lon="9.1988002" />
      <trkpt lat="45.4548762" lon="9.1987154" />
      <trkpt lat="45.4547781" lon="9.1980849" />
      <trkpt lat="45.4547210" lon="9.1981751" />
      <trkpt lat="45.4546890" lon="9.1982255" />
      <trkpt lat="45.4546625" lon="9.1982673" />
      <trkpt lat="45.4546535" lon="9.1982816" />
      <trkpt lat="45.4546485" lon="9.1982894" />
      <trkpt lat="45.4540533" lon="9.1992584" />
      <trkpt lat="45.4540418" lon="9.1992782" />
      <trkpt lat="45.4540309" lon="9.1992650" />
      <trkpt lat="45.4540175" lon="9.1992488" />
      <trkpt lat="45.4540101" lon="9.1992399" />
      <trkpt lat="45.4539977" lon="9.1992249" />
      <trkpt lat="45.4539635" lon="9.1991838" />
      <trkpt lat="45.4539576" lon="9.1991768" />
      <trkpt lat="45.4539918" lon="9.1991246" />
      <trkpt lat="45.4540707" lon="9.1989921" />
      <trkpt lat="45.4543253" lon="9.1985653" />
      <trkpt lat="45.4543653" lon="9.1984940" />
      <trkpt lat="45.4544782" lon="9.1983081" />
      <trkpt lat="45.4545606" lon="9.1981726" />
      <trkpt lat="45.4545660" lon="9.1981798" />
      <trkpt lat="45.4546088" lon="9.1982365" />
      <trkpt lat="45.4546199" lon="9.1982511" />
      <trkpt lat="45.4546281" lon="9.1982622" />
      <trkpt lat="45.4546395" lon="9.1982774" />
      <trkpt lat="45.4546485" lon="9.1982894" />
      <trkpt lat="45.4546535" lon="9.1982816" />
      <trkpt lat="45.4546853" lon="9.1982937" />
      <trkpt lat="45.4547385" lon="9.1984149" />
      <trkpt lat="45.4548476" lon="9.1987855" />
      <trkpt lat="45.4549507" lon="9.1995342" />
      <trkpt lat="45.4549874" lon="9.1998009" />
      <trkpt lat="45.4550223" lon="9.2000468" />
      <trkpt lat="45.4550711" lon="9.2003897" />
      <trkpt lat="45.4551520" lon="9.2009492" />
      <trkpt lat="45.4551925" lon="9.2012453" />
      <trkpt lat="45.4552288" lon="9.2015136" />
      <trkpt lat="45.4552797" lon="9.2018619" />
      <trkpt lat="45.4552846" lon="9.2018954" />
      <trkpt lat="45.4552907" lon="9.2019312" />
      <trkpt lat="45.4553232" lon="9.2021978" />
      <trkpt lat="45.4553272" lon="9.2022171" />
      <trkpt lat="45.4553857" lon="9.2026320" />
      <trkpt lat="45.4553782" lon="9.2026418" />
      <trkpt lat="45.4548633" lon="9.2028021" />
      <trkpt lat="45.4548346" lon="9.2027970" />
      <trkpt lat="45.4544151" lon="9.2025524" />
      <trkpt lat="45.4541215" lon="9.2023812" />
      <trkpt lat="45.4540475" lon="9.2023380" />
      <trkpt lat="45.4540202" lon="9.2023252" />
      <trkpt lat="45.4539692" lon="9.2023012" />
      <trkpt lat="45.4538981" lon="9.2022678" />
      <trkpt lat="45.4538728" lon="9.2022559" />
      <trkpt lat="45.4537127" lon="9.2022103" />
      <trkpt lat="45.4528926" lon="9.2020271" />
      <trkpt lat="45.4527917" lon="9.2019887" />
      <trkpt lat="45.4526678" lon="9.2019173" />
      <trkpt lat="45.4525892" lon="9.2018280" />
      <trkpt lat="45.4525494" lon="9.2017712" />
      <trkpt lat="45.4525406" lon="9.2017362" />
      <trkpt lat="45.4525320" lon="9.2017246" />
      <trkpt lat="45.4525104" lon="9.2016955" />
      <trkpt lat="45.4525023" lon="9.2016846" />
      <trkpt lat="45.4524913" lon="9.2016698" />
      <trkpt lat="45.4524610" lon="9.2016290" />
      <trkpt lat="45.4524492" lon="9.2016131" />
      <trkpt lat="45.4524268" lon="9.2016445" />
      <trkpt lat="45.4523947" lon="9.2016123" />
      <trkpt lat="45.4523687" lon="9.2016244" />
      <trkpt lat="45.4523250" lon="9.2016450" />
      <trkpt lat="45.4522883" lon="9.2016625" />
      <trkpt lat="45.4522399" lon="9.2017029" />
      <trkpt lat="45.4522028" lon="9.2017306" />
      <trkpt lat="45.4521794" lon="9.2017526" />
      <trkpt lat="45.4521503" lon="9.2017765" />
      <trkpt lat="45.4521294" lon="9.2017937" />
      <trkpt lat="45.4520981" lon="9.2018194" />
      <trkpt lat="45.4520865" lon="9.2018276" />
      <trkpt lat="45.4520752" lon="9.2018807" />
      <trkpt lat="45.4520442" lon="9.2019940" />
      <trkpt lat="45.4519473" lon="9.2023370" />
      <trkpt lat="45.4518884" lon="9.2023872" />
      <trkpt lat="45.4512852" lon="9.2022621" />
      <trkpt lat="45.4512041" lon="9.2022350" />
      <trkpt lat="45.4511818" lon="9.2022215" />
      <trkpt lat="45.4511244" lon="9.2021438" />
      <trkpt lat="45.4511133" lon="9.2021516" />
      <trkpt lat="45.4510796" lon="9.2021879" />
      <trkpt lat="45.4510716" lon="9.2021954" />
      <trkpt lat="45.4510579" lon="9.2022082" />
      <trkpt lat="45.4510062" lon="9.2022535" />
      <trkpt lat="45.4509962" lon="9.2022656" />
      <trkpt lat="45.4509940" lon="9.2023594" />
      <trkpt lat="45.4502366" lon="9.2024369" />
      <trkpt lat="45.4498927" lon="9.2015533" />
      <trkpt lat="45.4498953" lon="9.2015356" />
      <trkpt lat="45.4498935" lon="9.2015310" />
      <trkpt lat="45.4498771" lon="9.2014879" />
      <trkpt lat="45.4498652" lon="9.2014566" />
      <trkpt lat="45.4498638" lon="9.2014530" />
      <trkpt lat="45.4498493" lon="9.2014424" />
      <trkpt lat="45.4493627" lon="9.2001670" />
      <trkpt lat="45.4493600" lon="9.2001643" />
      <trkpt lat="45.4493073" lon="9.2001294" />
      <trkpt lat="45.4492601" lon="9.2000982" />
      <trkpt lat="45.4492542" lon="9.2000943" />
      <trkpt lat="45.4492410" lon="9.2000822" />
      <trkpt lat="45.4488929" lon="9.2001073" />
      <trkpt lat="45.4488379" lon="9.2001104" />
      <trkpt lat="45.4488377" lon="9.2001037" />
      <trkpt lat="45.4488367" lon="9.2000542" />
      <trkpt lat="45.4488358" lon="9.2000101" />
      <trkpt lat="45.4488355" lon="9.1999964" />
      <trkpt lat="45.4488215" lon="9.1999565" />
      <trkpt lat="45.4487924" lon="9.1999593" />
      <trkpt lat="45.4487705" lon="9.1999614" />
      <trkpt lat="45.4487110" lon="9.1999671" />
      <trkpt lat="45.4486611" lon="9.1999719" />
      <trkpt lat="45.4486399" lon="9.1999739" />
      <trkpt lat="45.4485956" lon="9.1999782" />
      <trkpt lat="45.4485965" lon="9.2000090" />
      <trkpt lat="45.4478548" lon="9.2000558" />
      <trkpt lat="45.4478554" lon="9.2000698" />
      <trkpt lat="45.4478570" lon="9.2001080" />
      <trkpt lat="45.4478595" lon="9.2001639" />
      <trkpt lat="45.4478599" lon="9.2001742" />
      <trkpt lat="45.4478605" lon="9.2001935" />
      <trkpt lat="45.4479633" lon="9.2025009" />
      <trkpt lat="45.4479642" lon="9.2025216" />
      <trkpt lat="45.4479661" lon="9.2025654" />
      <trkpt lat="45.4479704" lon="9.2026650" />
      <trkpt lat="45.4479787" lon="9.2028582" />
      <trkpt lat="45.4479826" lon="9.2029484" />
      <trkpt lat="45.4479848" lon="9.2029992" />
      <trkpt lat="45.4479859" lon="9.2030236" />
      <trkpt lat="45.4479787" lon="9.2030375" />
      <trkpt lat="45.4480565" lon="9.2047406" />
      <trkpt lat="45.4480621" lon="9.2048628" />
      <trkpt lat="45.4480654" lon="9.2048854" />
      <trkpt lat="45.4492372" lon="9.2058402" />
      <trkpt lat="45.4492090" lon="9.2059031" />
      <trkpt lat="45.4491948" lon="9.2059349" />
      <trkpt lat="45.4492082" lon="9.2059456" />
      <trkpt lat="45.4492322" lon="9.2059643" />
      <trkpt lat="45.4492657" lon="9.2059924" />
      <trkpt lat="45.4492514" lon="9.2060376" />
      <trkpt lat="45.4492408" lon="9.2060802" />
      <trkpt lat="45.4492311" lon="9.2061287" />
      <trkpt lat="45.4492252" lon="9.2061719" />
      <trkpt lat="45.4492226" lon="9.2062303" />
      <trkpt lat="45.4492237" lon="9.2062806" />
      <trkpt lat="45.4492292" lon="9.2063261" />
      <trkpt lat="45.4492387" lon="9.2063616" />
      <trkpt lat="45.4492656" lon="9.2064449" />
      <trkpt lat="45.4493159" lon="9.2066177" />
      <trkpt lat="45.4493344" lon="9.2066063" />
      <trkpt lat="45.4493473" lon="9.2066132" />
      <trkpt lat="45.4493737" lon="9.2066267" />
      <trkpt lat="45.4494366" lon="9.2066621" />
      <trkpt lat="45.4494475" lon="9.2066644" />
      <trkpt lat="45.4494601" lon="9.2066708" />
      <trkpt lat="45.4494679" lon="9.2066749" />
      <trkpt lat="45.4494893" lon="9.2066858" />
      <trkpt lat="45.4495194" lon="9.2067012" />
      <trkpt lat="45.4495773" lon="9.2066040" />
      <trkpt lat="45.4496197" lon="9.2066322" />
      <trkpt lat="45.4496269" lon="9.2066373" />
      <trkpt lat="45.4496429" lon="9.2066527" />
      <trkpt lat="45.4496563" lon="9.2066645" />
      <trkpt lat="45.4496943" lon="9.2066996" />
      <trkpt lat="45.4493485" lon="9.2072477" />
      <trkpt lat="45.4493944" lon="9.2072926" />
      <trkpt lat="45.4502811" lon="9.2080061" />
      <trkpt lat="45.4502751" lon="9.2080209" />
      <trkpt lat="45.4502575" lon="9.2080642" />
      <trkpt lat="45.4502386" lon="9.2081108" />
      <trkpt lat="45.4502326" lon="9.2081255" />
      <trkpt lat="45.4502350" lon="9.2081516" />
      <trkpt lat="45.4500007" lon="9.2087297" />
      <trkpt lat="45.4497276" lon="9.2094035" />
      <trkpt lat="45.4497416" lon="9.2094154" />
      <trkpt lat="45.4497696" lon="9.2094394" />
      <trkpt lat="45.4498137" lon="9.2094770" />
      <trkpt lat="45.4498243" lon="9.2094860" />
      <trkpt lat="45.4498248" lon="9.2095625" />
      <trkpt lat="45.4510878" lon="9.2105777" />
      <trkpt lat="45.4510777" lon="9.2106052" />
      <trkpt lat="45.4510599" lon="9.2106535" />
      <trkpt lat="45.4510351" lon="9.2107206" />
      <trkpt lat="45.4510234" lon="9.2107524" />
      <trkpt lat="45.4510288" lon="9.2107758" />
      <trkpt lat="45.4509001" lon="9.2112529" />
      <trkpt lat="45.4508955" lon="9.2112703" />
      <trkpt lat="45.4508798" lon="9.2113287" />
      <trkpt lat="45.4508639" lon="9.2113883" />
      <trkpt lat="45.4508584" lon="9.2114087" />
      <trkpt lat="45.4508466" lon="9.2114677" />
      <trkpt lat="45.4508709" lon="9.2114799" />
      <trkpt lat="45.4509001" lon="9.2114946" />
      <trkpt lat="45.4508899" lon="9.2115386" />
      <trkpt lat="45.4508825" lon="9.2115723" />
      <trkpt lat="45.4507914" lon="9.2120407" />
      <trkpt lat="45.4507522" lon="9.2122426" />
      <trkpt lat="45.4507232" lon="9.2123919" />
      <trkpt lat="45.4506992" lon="9.2125151" />
      <trkpt lat="45.4506745" lon="9.2126217" />
      <trkpt lat="45.4506222" lon="9.2129269" />
      <trkpt lat="45.4506174" lon="9.2129535" />
      <trkpt lat="45.4506108" lon="9.2129888" />
      <trkpt lat="45.4506032" lon="9.2130292" />
      <trkpt lat="45.4505971" lon="9.2130551" />
      <trkpt lat="45.4505900" lon="9.2130861" />
      <trkpt lat="45.4504233" lon="9.2137770" />
      <trkpt lat="45.4502079" lon="9.2146702" />
      <trkpt lat="45.4501830" lon="9.2147801" />
      <trkpt lat="45.4501438" lon="9.2149115" />
      <trkpt lat="45.4499922" lon="9.2154279" />
      <trkpt lat="45.4498369" lon="9.2159551" />
      <trkpt lat="45.4497925" lon="9.2160952" />
      <trkpt lat="45.4497630" lon="9.2161961" />
      <trkpt lat="45.4495814" lon="9.2167905" />
      <trkpt lat="45.4494648" lon="9.2171720" />
      <trkpt lat="45.4494210" lon="9.2173144" />
      <trkpt lat="45.4493475" lon="9.2173156" />
      <trkpt lat="45.4493324" lon="9.2173622" />
      <trkpt lat="45.4493035" lon="9.2174512" />
      <trkpt lat="45.4493086" lon="9.2174580" />
      <trkpt lat="45.4493126" lon="9.2174646" />
      <trkpt lat="45.4493140" lon="9.2174715" />
      <trkpt lat="45.4493128" lon="9.2174806" />
      <trkpt lat="45.4491886" lon="9.2178006" />
      <trkpt lat="45.4491534" lon="9.2178935" />
      <trkpt lat="45.4490511" lon="9.2181687" />
      <trkpt lat="45.4489056" lon="9.2186229" />
      <trkpt lat="45.4486934" lon="9.2192848" />
      <trkpt lat="45.4486861" lon="9.2193160" />
      <trkpt lat="45.4486704" lon="9.2193830" />
      <trkpt lat="45.4486577" lon="9.2194370" />
      <trkpt lat="45.4486535" lon="9.2194547" />
      <trkpt lat="45.4486471" lon="9.2194823" />
      <trkpt lat="45.4486347" lon="9.2195350" />
      <trkpt lat="45.4486198" lon="9.2195986" />
      <trkpt lat="45.4486160" lon="9.2196147" />
      <trkpt lat="45.4486259" lon="9.2196392" />
      <trkpt lat="45.4485706" lon="9.2200284" />
      <trkpt lat="45.4484671" lon="9.2207623" />
      <trkpt lat="45.4484319" lon="9.2210121" />
      <trkpt lat="45.4484277" lon="9.2210363" />
      <trkpt lat="45.4484183" lon="9.2210909" />
      <trkpt lat="45.4483841" lon="9.2212893" />
      <trkpt lat="45.4483759" lon="9.2213367" />
      <trkpt lat="45.4483264" lon="9.2216970" />
      <trkpt lat="45.4483990" lon="9.2217195" />
      <trkpt lat="45.4484493" lon="9.2213621" />
      <trkpt lat="45.4484888" lon="9.2210821" />
      <trkpt lat="45.4484183" lon="9.2210909" />
      <trkpt lat="45.4465632" lon="9.2215350" />
      <trkpt lat="45.4465409" lon="9.2215437" />
      <trkpt lat="45.4465213" lon="9.2215574" />
      <trkpt lat="45.4465076" lon="9.2215704" />
      <trkpt lat="45.4464946" lon="9.2215867" />
      <trkpt lat="45.4464821" lon="9.2216107" />
      <trkpt lat="45.4464751" lon="9.2216292" />
      <trkpt lat="45.4464702" lon="9.2216487" />
      <trkpt lat="45.4464666" lon="9.2216777" />
      <trkpt lat="45.4464666" lon="9.2217166" />
      <trkpt lat="45.4465710" lon="9.2236015" />
      <trkpt lat="45.4465752" lon="9.2236345" />
      <trkpt lat="45.4465865" lon="9.2236765" />
      <trkpt lat="45.4466043" lon="9.2237105" />
      <trkpt lat="45.4466265" lon="9.2237285" />
      <trkpt lat="45.4466553" lon="9.2237385" />
      <trkpt lat="45.4466774" lon="9.2237393" />
      <trkpt lat="45.4468111" lon="9.2237256" />
      <trkpt lat="45.4466774" lon="9.2237393" />
      <trkpt lat="45.4466553" lon="9.2237385" />
      <trkpt lat="45.4466265" lon="9.2237285" />
      <trkpt lat="45.4466043" lon="9.2237105" />
      <trkpt lat="45.4465865" lon="9.2236765" />
      <trkpt lat="45.4465752" lon="9.2236345" />
      <trkpt lat="45.4465710" lon="9.2236015" />
      <trkpt lat="45.4464666" lon="9.2217166" />
      <trkpt lat="45.4464666" lon="9.2216777" />
      <trkpt lat="45.4464702" lon="9.2216487" />
      <trkpt lat="45.4464751" lon="9.2216292" />
      <trkpt lat="45.4464821" lon="9.2216107" />
      <trkpt lat="45.4464946" lon="9.2215867" />
      <trkpt lat="45.4465076" lon="9.2215704" />
      <trkpt lat="45.4465213" lon="9.2215574" />
      <trkpt lat="45.4465409" lon="9.2215437" />
      <trkpt lat="45.4465632" lon="9.2215350" />
      <trkpt lat="45.4484183" lon="9.2210909" />
      <trkpt lat="45.4483841" lon="9.2212893" />
      <trkpt lat="45.4483759" lon="9.2213367" />
      <trkpt lat="45.4483264" lon="9.2216970" />
      <trkpt lat="45.4483129" lon="9.2217953" />
      <trkpt lat="45.4481985" lon="9.2226141" />
      <trkpt lat="45.4482698" lon="9.2226362" />
      <trkpt lat="45.4481489" lon="9.2234949" />
      <trkpt lat="45.4481379" lon="9.2235725" />
      <trkpt lat="45.4481323" lon="9.2236222" />
      <trkpt lat="45.4481347" lon="9.2236715" />
      <trkpt lat="45.4481436" lon="9.2237038" />
      <trkpt lat="45.4481600" lon="9.2237468" />
      <trkpt lat="45.4481221" lon="9.2238965" />
      <trkpt lat="45.4487968" lon="9.2238964" />
      <trkpt lat="45.4499255" lon="9.2238841" />
      <trkpt lat="45.4501132" lon="9.2239458" />
      <trkpt lat="45.4501644" lon="9.2239644" />
      <trkpt lat="45.4501786" lon="9.2239883" />
      <trkpt lat="45.4502449" lon="9.2239840" />
      <trkpt lat="45.4502759" lon="9.2239807" />
      <trkpt lat="45.4503916" lon="9.2239522" />
      <trkpt lat="45.4504500" lon="9.2239265" />
      <trkpt lat="45.4504508" lon="9.2239008" />
      <trkpt lat="45.4504545" lon="9.2237770" />
      <trkpt lat="45.4505713" lon="9.2236038" />
      <trkpt lat="45.4505588" lon="9.2235131" />
      <trkpt lat="45.4505795" lon="9.2235068" />
      <trkpt lat="45.4506232" lon="9.2234936" />
      <trkpt lat="45.4506352" lon="9.2234899" />
      <trkpt lat="45.4506506" lon="9.2234853" />
      <trkpt lat="45.4507013" lon="9.2234699" />
      <trkpt lat="45.4507242" lon="9.2234630" />
      <trkpt lat="45.4507398" lon="9.2234680" />
      <trkpt lat="45.4511814" lon="9.2234804" />
      <trkpt lat="45.4512400" lon="9.2233827" />
      <trkpt lat="45.4512485" lon="9.2233942" />
      <trkpt lat="45.4512634" lon="9.2234142" />
      <trkpt lat="45.4512880" lon="9.2234472" />
      <trkpt lat="45.4513073" lon="9.2234731" />
      <trkpt lat="45.4513313" lon="9.2235053" />
      <trkpt lat="45.4513614" lon="9.2235348" />
      <trkpt lat="45.4513671" lon="9.2235334" />
      <trkpt lat="45.4513784" lon="9.2235308" />
      <trkpt lat="45.4514320" lon="9.2235183" />
      <trkpt lat="45.4514882" lon="9.2235053" />
      <trkpt lat="45.4515992" lon="9.2237507" />
      <trkpt lat="45.4516105" lon="9.2237506" />
      <trkpt lat="45.4517186" lon="9.2237499" />
      <trkpt lat="45.4518673" lon="9.2237489" />
      <trkpt lat="45.4519962" lon="9.2237480" />
      <trkpt lat="45.4529693" lon="9.2237459" />
      <trkpt lat="45.4535174" lon="9.2237255" />
      <trkpt lat="45.4535177" lon="9.2237497" />
      <trkpt lat="45.4535183" lon="9.2237888" />
      <trkpt lat="45.4536252" lon="9.2237888" />
      <trkpt lat="45.4537236" lon="9.2237896" />
      <trkpt lat="45.4542394" lon="9.2237862" />
      <trkpt lat="45.4544410" lon="9.2237822" />
      <trkpt lat="45.4546942" lon="9.2237736" />
      <trkpt lat="45.4553723" lon="9.2237687" />
      <trkpt lat="45.4560502" lon="9.2237679" />
      <trkpt lat="45.4561956" lon="9.2237677" />
      <trkpt lat="45.4562429" lon="9.2237659" />
      <trkpt lat="45.4562733" lon="9.2237652" />
      <trkpt lat="45.4562735" lon="9.2238271" />
      <trkpt lat="45.4562736" lon="9.2238962" />
      <trkpt lat="45.4562739" lon="9.2239942" />
      <trkpt lat="45.4562741" lon="9.2240692" />
      <trkpt lat="45.4562741" lon="9.2240839" />
      <trkpt lat="45.4562744" lon="9.2241745" />
      <trkpt lat="45.4562746" lon="9.2242188" />
      <trkpt lat="45.4562747" lon="9.2242583" />
      <trkpt lat="45.4562747" lon="9.2242728" />
      <trkpt lat="45.4574695" lon="9.2242591" />
      <trkpt lat="45.4586058" lon="9.2242461" />
      <trkpt lat="45.4586208" lon="9.2242751" />
      <trkpt lat="45.4586213" lon="9.2243158" />
      <trkpt lat="45.4586425" lon="9.2243154" />
      <trkpt lat="45.4586597" lon="9.2243150" />
      <trkpt lat="45.4586806" lon="9.2243146" />
      <trkpt lat="45.4586956" lon="9.2243143" />
      <trkpt lat="45.4587137" lon="9.2243139" />
      <trkpt lat="45.4587540" lon="9.2243131" />
      <trkpt lat="45.4587773" lon="9.2243126" />
      <trkpt lat="45.4587786" lon="9.2244937" />
      <trkpt lat="45.4587889" lon="9.2245671" />
      <trkpt lat="45.4588032" lon="9.2246283" />
      <trkpt lat="45.4588319" lon="9.2247221" />
      <trkpt lat="45.4588529" lon="9.2247661" />
      <trkpt lat="45.4588941" lon="9.2248089" />
      <trkpt lat="45.4589303" lon="9.2248478" />
      <trkpt lat="45.4590086" lon="9.2249556" />
      <trkpt lat="45.4590681" lon="9.2251291" />
      <trkpt lat="45.4591093" lon="9.2253377" />
      <trkpt lat="45.4591087" lon="9.2259974" />
      <trkpt lat="45.4591080" lon="9.2267189" />
      <trkpt lat="45.4591008" lon="9.2288977" />
      <trkpt lat="45.4591258" lon="9.2289888" />
      <trkpt lat="45.4591673" lon="9.2290510" />
      <trkpt lat="45.4592232" lon="9.2290775" />
      <trkpt lat="45.4596821" lon="9.2290810" />
      <trkpt lat="45.4597539" lon="9.2290836" />
      <trkpt lat="45.4597651" lon="9.2290840" />
      <trkpt lat="45.4597833" lon="9.2290847" />
      <trkpt lat="45.4598213" lon="9.2290861" />
      <trkpt lat="45.4598419" lon="9.2290876" />
      <trkpt lat="45.4598459" lon="9.2300695" />
      <trkpt lat="45.4598623" lon="9.2300928" />
      <trkpt lat="45.4598942" lon="9.2301259" />
      <trkpt lat="45.4599337" lon="9.2301468" />
      <trkpt lat="45.4599509" lon="9.2301509" />
      <trkpt lat="45.4599783" lon="9.2301527" />
      <trkpt lat="45.4599990" lon="9.2301537" />
      <trkpt lat="45.4600197" lon="9.2301548" />
      <trkpt lat="45.4603917" lon="9.2301487" />
      <trkpt lat="45.4606407" lon="9.2301446" />
      <trkpt lat="45.4606407" lon="9.2301352" />
      <trkpt lat="45.4606729" lon="9.2301352" />
      <trkpt lat="45.4607352" lon="9.2301351" />
      <trkpt lat="45.4607896" lon="9.2301350" />
      <trkpt lat="45.4608275" lon="9.2301349" />
      <trkpt lat="45.4608275" lon="9.2301866" />
      <trkpt lat="45.4608276" lon="9.2302488" />
      <trkpt lat="45.4608277" lon="9.2303295" />
      <trkpt lat="45.4608277" lon="9.2303571" />
      <trkpt lat="45.4618320" lon="9.2303556" />
      <trkpt lat="45.4620174" lon="9.2306166" />
      <trkpt lat="45.4620166" lon="9.2309748" />
      <trkpt lat="45.4620166" lon="9.2309883" />
      <trkpt lat="45.4620167" lon="9.2310308" />
      <trkpt lat="45.4620166" lon="9.2310738" />
      <trkpt lat="45.4620165" lon="9.2310922" />
      <trkpt lat="45.4620129" lon="9.2321684" />
      <trkpt lat="45.4620120" lon="9.2324204" />
      <trkpt lat="45.4620378" lon="9.2324205" />
      <trkpt lat="45.4620918" lon="9.2324206" />
      <trkpt lat="45.4621304" lon="9.2324206" />
      <trkpt lat="45.4621619" lon="9.2324207" />
      <trkpt lat="45.4621897" lon="9.2324208" />
      <trkpt lat="45.4622183" lon="9.2324210" />
      <trkpt lat="45.4622366" lon="9.2324149" />
      <trkpt lat="45.4622459" lon="9.2324209" />
      <trkpt lat="45.4622885" lon="9.2324209" />
      <trkpt lat="45.4623159" lon="9.2324210" />
      <trkpt lat="45.4623524" lon="9.2324211" />
      <trkpt lat="45.4623883" lon="9.2324211" />
      <trkpt lat="45.4624394" lon="9.2324212" />
      <trkpt lat="45.4624738" lon="9.2324213" />
      <trkpt lat="45.4624739" lon="9.2324340" />
      <trkpt lat="45.4629685" lon="9.2324266" />
      <trkpt lat="45.4631294" lon="9.2324242" />
      <trkpt lat="45.4636300" lon="9.2324168" />
      <trkpt lat="45.4636458" lon="9.2324024" />
      <trkpt lat="45.4636559" lon="9.2317147" />
      <trkpt lat="45.4636638" lon="9.2303741" />
      <trkpt lat="45.4636744" lon="9.2303741" />
      <trkpt lat="45.4637053" lon="9.2303740" />
      <trkpt lat="45.4637497" lon="9.2303738" />
      <trkpt lat="45.4637534" lon="9.2303738" />
      <trkpt lat="45.4641364" lon="9.2303551" />
      <trkpt lat="45.4641357" lon="9.2303080" />
      <trkpt lat="45.4641342" lon="9.2302013" />
      <trkpt lat="45.4641326" lon="9.2300867" />
      <trkpt lat="45.4641323" lon="9.2300642" />
      <trkpt lat="45.4641523" lon="9.2300446" />
      <trkpt lat="45.4641411" lon="9.2287849" />
      <trkpt lat="45.4641327" lon="9.2279937" />
      <trkpt lat="45.4641727" lon="9.2279926" />
      <trkpt lat="45.4641927" lon="9.2279921" />
      <trkpt lat="45.4642144" lon="9.2279915" />
      <trkpt lat="45.4642471" lon="9.2279907" />
      <trkpt lat="45.4642468" lon="9.2279566" />
      <trkpt lat="45.4643656" lon="9.2278981" />
      <trkpt lat="45.4643501" lon="9.2278257" />
      <trkpt lat="45.4643427" lon="9.2277914" />
      <trkpt lat="45.4643392" lon="9.2277745" />
      <trkpt lat="45.4643324" lon="9.2277418" />
      <trkpt lat="45.4643476" lon="9.2277361" />
      <trkpt lat="45.4643627" lon="9.2277304" />
      <trkpt lat="45.4643572" lon="9.2277054" />
      <trkpt lat="45.4643521" lon="9.2276821" />
      <trkpt lat="45.4643452" lon="9.2276507" />
      <trkpt lat="45.4643324" lon="9.2275929" />
      <trkpt lat="45.4642422" lon="9.2275361" />
      <trkpt lat="45.4642333" lon="9.2267018" />
      <trkpt lat="45.4642327" lon="9.2266491" />
      <trkpt lat="45.4642321" lon="9.2265924" />
      <trkpt lat="45.4642314" lon="9.2265209" />
      <trkpt lat="45.4642217" lon="9.2256151" />
      <trkpt lat="45.4642068" lon="9.2242297" />
      <trkpt lat="45.4642065" lon="9.2241834" />
      <trkpt lat="45.4642176" lon="9.2241698" />
      <trkpt lat="45.4642175" lon="9.2241543" />
      <trkpt lat="45.4642169" lon="9.2240968" />
      <trkpt lat="45.4642166" lon="9.2240692" />
      <trkpt lat="45.4642156" lon="9.2239632" />
      <trkpt lat="45.4642148" lon="9.2238755" />
      <trkpt lat="45.4642140" lon="9.2237909" />
      <trkpt lat="45.4642129" lon="9.2236877" />
      <trkpt lat="45.4642126" lon="9.2236523" />
      <trkpt lat="45.4642119" lon="9.2236055" />
      <trkpt lat="45.4642115" lon="9.2235835" />
      <trkpt lat="45.4641923" lon="9.2235690" />
      <trkpt lat="45.4641759" lon="9.2216345" />
      <trkpt lat="45.4641946" lon="9.2216208" />
      <trkpt lat="45.4641941" lon="9.2215821" />
      <trkpt lat="45.4641932" lon="9.2215177" />
      <trkpt lat="45.4648061" lon="9.2214980" />
      <trkpt lat="45.4648050" lon="9.2214352" />
      <trkpt lat="45.4648044" lon="9.2213998" />
      <trkpt lat="45.4648036" lon="9.2207044" />
      <trkpt lat="45.4647975" lon="9.2206993" />
      <trkpt lat="45.4647974" lon="9.2206896" />
      <trkpt lat="45.4647969" lon="9.2206473" />
      <trkpt lat="45.4648469" lon="9.2206460" />
      <trkpt lat="45.4648861" lon="9.2206451" />
      <trkpt lat="45.4648857" lon="9.2206055" />
      <trkpt lat="45.4648856" lon="9.2206011" />
      <trkpt lat="45.4654703" lon="9.2205904" />
      <trkpt lat="45.4654867" lon="9.2205756" />
      <trkpt lat="45.4654832" lon="9.2199356" />
      <trkpt lat="45.4654973" lon="9.2199354" />
      <trkpt lat="45.4655274" lon="9.2199349" />
      <trkpt lat="45.4655711" lon="9.2199342" />
      <trkpt lat="45.4655913" lon="9.2199339" />
      <trkpt lat="45.4656215" lon="9.2198631" />
      <trkpt lat="45.4666191" lon="9.2198455" />
      <trkpt lat="45.4666188" lon="9.2198253" />
      <trkpt lat="45.4666179" lon="9.2197633" />
      <trkpt lat="45.4666173" lon="9.2197214" />
      <trkpt lat="45.4666169" lon="9.2196922" />
      <trkpt lat="45.4666286" lon="9.2196725" />
      <trkpt lat="45.4666518" lon="9.2196712" />
      <trkpt lat="45.4666790" lon="9.2196696" />
      <trkpt lat="45.4667238" lon="9.2196670" />
      <trkpt lat="45.4667351" lon="9.2196664" />
      <trkpt lat="45.4667521" lon="9.2196983" />
      <trkpt lat="45.4667946" lon="9.2196983" />
      <trkpt lat="45.4668040" lon="9.2196868" />
      <trkpt lat="45.4672195" lon="9.2196817" />
      <trkpt lat="45.4678032" lon="9.2196746" />
      <trkpt lat="45.4678335" lon="9.2196246" />
      <trkpt lat="45.4678799" lon="9.2196236" />
      <trkpt lat="45.4679306" lon="9.2196432" />
      <trkpt lat="45.4679586" lon="9.2196426" />
      <trkpt lat="45.4679721" lon="9.2196254" />
      <trkpt lat="45.4680005" lon="9.2196249" />
      <trkpt lat="45.4680198" lon="9.2196250" />
      <trkpt lat="45.4680064" lon="9.2181995" />
      <trkpt lat="45.4680043" lon="9.2180503" />
      <trkpt lat="45.4680012" lon="9.2177556" />
      <trkpt lat="45.4679995" lon="9.2175799" />
      <trkpt lat="45.4680349" lon="9.2175798" />
      <trkpt lat="45.4680348" lon="9.2175617" />
      <trkpt lat="45.4680625" lon="9.2175612" />
      <trkpt lat="45.4681017" lon="9.2175383" />
      <trkpt lat="45.4681325" lon="9.2175268" />
      <trkpt lat="45.4681377" lon="9.2175238" />
      <trkpt lat="45.4681389" lon="9.2175156" />
      <trkpt lat="45.4681413" lon="9.2175106" />
      <trkpt lat="45.4681438" lon="9.2175076" />
      <trkpt lat="45.4682312" lon="9.2175062" />
      <trkpt lat="45.4682438" lon="9.2174700" />
      <trkpt lat="45.4682572" lon="9.2174316" />
      <trkpt lat="45.4682764" lon="9.2173810" />
      <trkpt lat="45.4682823" lon="9.2173655" />
      <trkpt lat="45.4682973" lon="9.2173261" />
      <trkpt lat="45.4683151" lon="9.2172793" />
      <trkpt lat="45.4683304" lon="9.2172391" />
      <trkpt lat="45.4683417" lon="9.2172094" />
      <trkpt lat="45.4683530" lon="9.2171797" />
      <trkpt lat="45.4683621" lon="9.2171277" />
      <trkpt lat="45.4683731" lon="9.2170652" />
      <trkpt lat="45.4683790" lon="9.2170315" />
      <trkpt lat="45.4684928" lon="9.2170291" />
      <trkpt lat="45.4685150" lon="9.2170295" />
      <trkpt lat="45.4685320" lon="9.2170298" />
      <trkpt lat="45.4685611" lon="9.2170307" />
      <trkpt lat="45.4685755" lon="9.2170311" />
      <trkpt lat="45.4687577" lon="9.2170280" />
      <trkpt lat="45.4692215" lon="9.2170202" />
      <trkpt lat="45.4692318" lon="9.2170200" />
      <trkpt lat="45.4692458" lon="9.2170198" />
      <trkpt lat="45.4692879" lon="9.2170192" />
      <trkpt lat="45.4693286" lon="9.2170186" />
      <trkpt lat="45.4693450" lon="9.2170184" />
      <trkpt lat="45.4693540" lon="9.2170259" />
      <trkpt lat="45.4699778" lon="9.2170131" />
      <trkpt lat="45.4699869" lon="9.2170129" />
      <trkpt lat="45.4700202" lon="9.2170123" />
      <trkpt lat="45.4700598" lon="9.2170117" />
      <trkpt lat="45.4700703" lon="9.2170115" />
      <trkpt lat="45.4707437" lon="9.2169954" />
      <trkpt lat="45.4707685" lon="9.2169951" />
      <trkpt lat="45.4708230" lon="9.2169944" />
      <trkpt lat="45.4708785" lon="9.2169938" />
      <trkpt lat="45.4709044" lon="9.2169935" />
      <trkpt lat="45.4710906" lon="9.2169903" />
      <trkpt lat="45.4712702" lon="9.2169871" />
      <trkpt lat="45.4714168" lon="9.2169846" />
      <trkpt lat="45.4714336" lon="9.2169845" />
      <trkpt lat="45.4714570" lon="9.2169844" />
      <trkpt lat="45.4714901" lon="9.2169843" />
      <trkpt lat="45.4715032" lon="9.2169843" />
      <trkpt lat="45.4718448" lon="9.2169779" />
      <trkpt lat="45.4718876" lon="9.2169791" />
      <trkpt lat="45.4719141" lon="9.2169799" />
      <trkpt lat="45.4719638" lon="9.2169807" />
      <trkpt lat="45.4720861" lon="9.2169827" />
      <trkpt lat="45.4721325" lon="9.2169835" />
      <trkpt lat="45.4721599" lon="9.2169840" />
      <trkpt lat="45.4721988" lon="9.2169848" />
      <trkpt lat="45.4722192" lon="9.2169679" />
      <trkpt lat="45.4722344" lon="9.2169552" />
      <trkpt lat="45.4722642" lon="9.2169317" />
      <trkpt lat="45.4722859" lon="9.2169146" />
      <trkpt lat="45.4722583" lon="9.2168422" />
      <trkpt lat="45.4728733" lon="9.2154833" />
      <trkpt lat="45.4728960" lon="9.2154694" />
      <trkpt lat="45.4729044" lon="9.2154530" />
      <trkpt lat="45.4729319" lon="9.2153995" />
      <trkpt lat="45.4729506" lon="9.2153633" />
      <trkpt lat="45.4729734" lon="9.2153190" />
      <trkpt lat="45.4729943" lon="9.2152784" />
      <trkpt lat="45.4730113" lon="9.2152454" />
      <trkpt lat="45.4730208" lon="9.2152270" />
      <trkpt lat="45.4730382" lon="9.2151932" />
      <trkpt lat="45.4730580" lon="9.2151548" />
      <trkpt lat="45.4730735" lon="9.2151246" />
      <trkpt lat="45.4730703" lon="9.2151103" />
      <trkpt lat="45.4731726" lon="9.2148946" />
      <trkpt lat="45.4731921" lon="9.2148565" />
      <trkpt lat="45.4732478" lon="9.2147460" />
      <trkpt lat="45.4732900" lon="9.2146624" />
      <trkpt lat="45.4733029" lon="9.2146365" />
      <trkpt lat="45.4733073" lon="9.2146317" />
      <trkpt lat="45.4733093" lon="9.2146278" />
      <trkpt lat="45.4733219" lon="9.2146033" />
      <trkpt lat="45.4733457" lon="9.2145570" />
      <trkpt lat="45.4733692" lon="9.2145568" />
      <trkpt lat="45.4733760" lon="9.2144546" />
      <trkpt lat="45.4738912" lon="9.2133142" />
      <trkpt lat="45.4739235" lon="9.2133092" />
      <trkpt lat="45.4739394" lon="9.2132813" />
      <trkpt lat="45.4739637" lon="9.2132256" />
      <trkpt lat="45.4739129" lon="9.2131789" />
      <trkpt lat="45.4738694" lon="9.2131390" />
      <trkpt lat="45.4738216" lon="9.2130933" />
      <trkpt lat="45.4737985" lon="9.2130723" />
      <trkpt lat="45.4737433" lon="9.2130206" />
      <trkpt lat="45.4738029" lon="9.2128893" />
      <trkpt lat="45.4744579" lon="9.2114453" />
      <trkpt lat="45.4744399" lon="9.2113816" />
      <trkpt lat="45.4744158" lon="9.2113139" />
      <trkpt lat="45.4744135" lon="9.2112931" />
      <trkpt lat="45.4744033" lon="9.2112676" />
      <trkpt lat="45.4743895" lon="9.2112400" />
      <trkpt lat="45.4743757" lon="9.2112178" />
      <trkpt lat="45.4743526" lon="9.2111914" />
      <trkpt lat="45.4743383" lon="9.2111772" />
      <trkpt lat="45.4743166" lon="9.2111594" />
      <trkpt lat="45.4742929" lon="9.2111416" />
      <trkpt lat="45.4741819" lon="9.2111375" />
      <trkpt lat="45.4741182" lon="9.2111325" />
      <trkpt lat="45.4740431" lon="9.2111252" />
      <trkpt lat="45.4739680" lon="9.2111153" />
      <trkpt lat="45.4729142" lon="9.2111347" />
      <trkpt lat="45.4724715" lon="9.2111435" />
      <trkpt lat="45.4724269" lon="9.2111438" />
      <trkpt lat="45.4724158" lon="9.2111444" />
      <trkpt lat="45.4724017" lon="9.2111446" />
      <trkpt lat="45.4723520" lon="9.2111459" />
      <trkpt lat="45.4723485" lon="9.2110697" />
      <trkpt lat="45.4723475" lon="9.2110477" />
      <trkpt lat="45.4709662" lon="9.2110786" />
      <trkpt lat="45.4709626" lon="9.2106545" />
      <trkpt lat="45.4709531" lon="9.2106546" />
      <trkpt lat="45.4708773" lon="9.2106559" />
      <trkpt lat="45.4708640" lon="9.2106561" />
      <trkpt lat="45.4708606" lon="9.2102671" />
      <trkpt lat="45.4708063" lon="9.2102684" />
      <trkpt lat="45.4708010" lon="9.2102686" />
      <trkpt lat="45.4707534" lon="9.2102697" />
      <trkpt lat="45.4706975" lon="9.2102707" />
      <trkpt lat="45.4706736" lon="9.2102711" />
      <trkpt lat="45.4706352" lon="9.2102722" />
      <trkpt lat="45.4705947" lon="9.2102727" />
      <trkpt lat="45.4705295" lon="9.2102726" />
      <trkpt lat="45.4699587" lon="9.2102791" />
      <trkpt lat="45.4692733" lon="9.2102870" />
      <trkpt lat="45.4692613" lon="9.2102871" />
      <trkpt lat="45.4692151" lon="9.2102874" />
      <trkpt lat="45.4691739" lon="9.2102877" />
      <trkpt lat="45.4691590" lon="9.2102878" />
      <trkpt lat="45.4685324" lon="9.2102947" />
      <trkpt lat="45.4685218" lon="9.2102949" />
      <trkpt lat="45.4684607" lon="9.2102954" />
      <trkpt lat="45.4684445" lon="9.2102955" />
      <trkpt lat="45.4684229" lon="9.2102956" />
      <trkpt lat="45.4684155" lon="9.2102957" />
      <trkpt lat="45.4681780" lon="9.2102973" />
      <trkpt lat="45.4681676" lon="9.2103243" />
      <trkpt lat="45.4681663" lon="9.2103235" />
      <trkpt lat="45.4681397" lon="9.2103079" />
      <trkpt lat="45.4681292" lon="9.2103017" />
      <trkpt lat="45.4681059" lon="9.2102726" />
      <trkpt lat="45.4681003" lon="9.2102277" />
      <trkpt lat="45.4681004" lon="9.2102074" />
      <trkpt lat="45.4681008" lon="9.2101578" />
      <trkpt lat="45.4680116" lon="9.2101583" />
      <trkpt lat="45.4680114" lon="9.2101317" />
      <trkpt lat="45.4680113" lon="9.2101178" />
      <trkpt lat="45.4679819" lon="9.2101197" />
      <trkpt lat="45.4679734" lon="9.2101243" />
      <trkpt lat="45.4679663" lon="9.2101281" />
      <trkpt lat="45.4679289" lon="9.2101468" />
      <trkpt lat="45.4679157" lon="9.2101534" />
      <trkpt lat="45.4679010" lon="9.2101523" />
      <trkpt lat="45.4678810" lon="9.2101478" />
      <trkpt lat="45.4678625" lon="9.2101335" />
      <trkpt lat="45.4678516" lon="9.2101273" />
      <trkpt lat="45.4678163" lon="9.2101024" />
      <trkpt lat="45.4677621" lon="9.2100994" />
      <trkpt lat="45.4677272" lon="9.2100975" />
      <trkpt lat="45.4677111" lon="9.2087554" />
      <trkpt lat="45.4677087" lon="9.2086850" />
      <trkpt lat="45.4677075" lon="9.2085805" />
      <trkpt lat="45.4677007" lon="9.2083541" />
      <trkpt lat="45.4675001" lon="9.2072602" />
      <trkpt lat="45.4666283" lon="9.2073580" />
      <trkpt lat="45.4666048" lon="9.2073782" />
      <trkpt lat="45.4665824" lon="9.2073804" />
      <trkpt lat="45.4665570" lon="9.2073810" />
      <trkpt lat="45.4665553" lon="9.2072914" />
      <trkpt lat="45.4664794" lon="9.2072990" />
      <trkpt lat="45.4664727" lon="9.2072249" />
      <trkpt lat="45.4664713" lon="9.2072089" />
      <trkpt lat="45.4664700" lon="9.2071945" />
      <trkpt lat="45.4664677" lon="9.2071695" />
      <trkpt lat="45.4664653" lon="9.2071431" />
      <trkpt lat="45.4664641" lon="9.2071293" />
      <trkpt lat="45.4664625" lon="9.2071114" />
      <trkpt lat="45.4664547" lon="9.2070444" />
      <trkpt lat="45.4664535" lon="9.2070120" />
      <trkpt lat="45.4664522" lon="9.2069978" />
      <trkpt lat="45.4671612" lon="9.2069252" />
      <trkpt lat="45.4671607" lon="9.2069158" />
      <trkpt lat="45.4671223" lon="9.2061482" />
      <trkpt lat="45.4666573" lon="9.2062216" />
      <trkpt lat="45.4666540" lon="9.2061744" />
      <trkpt lat="45.4666492" lon="9.2061291" />
      <trkpt lat="45.4666451" lon="9.2060632" />
      <trkpt lat="45.4666409" lon="9.2059972" />
      <trkpt lat="45.4666332" lon="9.2058755" />
      <trkpt lat="45.4666304" lon="9.2058313" />
      <trkpt lat="45.4666278" lon="9.2057899" />
      <trkpt lat="45.4666272" lon="9.2057798" />
      <trkpt lat="45.4666057" lon="9.2057818" />
      <trkpt lat="45.4665889" lon="9.2057591" />
      <trkpt lat="45.4665852" lon="9.2056910" />
      <trkpt lat="45.4665664" lon="9.2053016" />
      <trkpt lat="45.4665359" lon="9.2047889" />
      <trkpt lat="45.4665518" lon="9.2047867" />
      <trkpt lat="45.4665516" lon="9.2047834" />
      <trkpt lat="45.4665461" lon="9.2046962" />
      <trkpt lat="45.4665452" lon="9.2046815" />
      <trkpt lat="45.4665423" lon="9.2046361" />
      <trkpt lat="45.4665402" lon="9.2046035" />
      <trkpt lat="45.4665262" lon="9.2046069" />
      <trkpt lat="45.4665211" lon="9.2045345" />
      <trkpt lat="45.4665191" lon="9.2044988" />
      <trkpt lat="45.4664900" lon="9.2039814" />
      <trkpt lat="45.4664702" lon="9.2038128" />
      <trkpt lat="45.4664044" lon="9.2032867" />
      <trkpt lat="45.4663017" lon="9.2027077" />
      <trkpt lat="45.4662957" lon="9.2026738" />
      <trkpt lat="45.4662824" lon="9.2026139" />
      <trkpt lat="45.4662807" lon="9.2026055" />
      <trkpt lat="45.4662748" lon="9.2025766" />
      <trkpt lat="45.4662654" lon="9.2025384" />
      <trkpt lat="45.4662525" lon="9.2025088" />
      <trkpt lat="45.4661478" lon="9.2019985" />
      <trkpt lat="45.4660253" lon="9.2013639" />
      <trkpt lat="45.4659708" lon="9.2011118" />
      <trkpt lat="45.4659360" lon="9.2009025" />
      <trkpt lat="45.4658881" lon="9.2006128" />
      <trkpt lat="45.4658986" lon="9.2005660" />
      <trkpt lat="45.4658979" lon="9.2005538" />
      <trkpt lat="45.4658911" lon="9.2004906" />
      <trkpt lat="45.4658848" lon="9.2004309" />
      <trkpt lat="45.4658808" lon="9.2003933" />
      <trkpt lat="45.4658645" lon="9.2003771" />
      <trkpt lat="45.4658689" lon="9.2001506" />
      <trkpt lat="45.4658686" lon="9.2001443" />
      <trkpt lat="45.4658684" lon="9.2001341" />
      <trkpt lat="45.4658670" lon="9.2001258" />
      <trkpt lat="45.4658657" lon="9.2001187" />
      <trkpt lat="45.4658847" lon="9.1993983" />
      <trkpt lat="45.4659051" lon="9.1993679" />
      <trkpt lat="45.4659074" lon="9.1993256" />
      <trkpt lat="45.4659093" lon="9.1992913" />
      <trkpt lat="45.4659121" lon="9.1992421" />
      <trkpt lat="45.4659138" lon="9.1992108" />
      <trkpt lat="45.4659169" lon="9.1991893" />
      <trkpt lat="45.4659418" lon="9.1986493" />
      <trkpt lat="45.4659433" lon="9.1985900" />
      <trkpt lat="45.4659454" lon="9.1985473" />
      <trkpt lat="45.4659690" lon="9.1979493" />
      <trkpt lat="45.4659702" lon="9.1979080" />
      <trkpt lat="45.4661330" lon="9.1979253" />
      <trkpt lat="45.4661347" lon="9.1978982" />
      <trkpt lat="45.4661361" lon="9.1978725" />
      <trkpt lat="45.4661243" lon="9.1978718" />
      <trkpt lat="45.4661150" lon="9.1978712" />
      <trkpt lat="45.4660132" lon="9.1978597" />
      <trkpt lat="45.4659996" lon="9.1978582" />
      <trkpt lat="45.4660090" lon="9.1975692" />
      <trkpt lat="45.4660114" lon="9.1975389" />
      <trkpt lat="45.4660125" lon="9.1974880" />
      <trkpt lat="45.4660133" lon="9.1974356" />
      <trkpt lat="45.4660166" lon="9.1972993" />
      <trkpt lat="45.4659459" lon="9.1972216" />
      <trkpt lat="45.4659047" lon="9.1971283" />
      <trkpt lat="45.4658451" lon="9.1969906" />
      <trkpt lat="45.4658351" lon="9.1969649" />
      <trkpt lat="45.4658253" lon="9.1969365" />
      <trkpt lat="45.4657151" lon="9.1966160" />
      <trkpt lat="45.4657043" lon="9.1965899" />
      <trkpt lat="45.4656468" lon="9.1964456" />
      <trkpt lat="45.4655555" lon="9.1961811" />
      <trkpt lat="45.4655512" lon="9.1961668" />
      <trkpt lat="45.4655398" lon="9.1961287" />
      <trkpt lat="45.4654905" lon="9.1959644" />
      <trkpt lat="45.4653400" lon="9.1954620" />
      <trkpt lat="45.4653098" lon="9.1953612" />
      <trkpt lat="45.4652471" lon="9.1951747" />
      <trkpt lat="45.4652340" lon="9.1951340" />
      <trkpt lat="45.4652200" lon="9.1950928" />
      <trkpt lat="45.4652012" lon="9.1950287" />
      <trkpt lat="45.4651817" lon="9.1949578" />
      <trkpt lat="45.4651051" lon="9.1946782" />
      <trkpt lat="45.4650954" lon="9.1946410" />
      <trkpt lat="45.4650924" lon="9.1946311" />
      <trkpt lat="45.4650902" lon="9.1946236" />
      <trkpt lat="45.4650842" lon="9.1946006" />
      <trkpt lat="45.4650792" lon="9.1945842" />
      <trkpt lat="45.4650720" lon="9.1945582" />
      <trkpt lat="45.4650677" lon="9.1945421" />
      <trkpt lat="45.4649652" lon="9.1941659" />
      <trkpt lat="45.4649773" lon="9.1941579" />
      <trkpt lat="45.4650350" lon="9.1941188" />
      <trkpt lat="45.4650079" lon="9.1940222" />
      <trkpt lat="45.4648615" lon="9.1934817" />
      <trkpt lat="45.4648401" lon="9.1934008" />
      <trkpt lat="45.4648346" lon="9.1933799" />
      <trkpt lat="45.4647161" lon="9.1929137" />
      <trkpt lat="45.4646721" lon="9.1927654" />
      <trkpt lat="45.4646734" lon="9.1923054" />
      <trkpt lat="45.4646511" lon="9.1923052" />
      <trkpt lat="45.4646515" lon="9.1916688" />
      <trkpt lat="45.4646465" lon="9.1911206" />
      <trkpt lat="45.4646012" lon="9.1911209" />
      <trkpt lat="45.4646007" lon="9.1910693" />
      <trkpt lat="45.4646003" lon="9.1909797" />
      <trkpt lat="45.4646000" lon="9.1909552" />
      <trkpt lat="45.4645935" lon="9.1906061" />
      <trkpt lat="45.4646621" lon="9.1904786" />
      <trkpt lat="45.4646642" lon="9.1904112" />
      <trkpt lat="45.4646652" lon="9.1903590" />
      <trkpt lat="45.4646377" lon="9.1902705" />
      <trkpt lat="45.4646376" lon="9.1902500" />
      <trkpt lat="45.4646378" lon="9.1902372" />
      <trkpt lat="45.4646380" lon="9.1901870" />
      <trkpt lat="45.4646177" lon="9.1901722" />
      <trkpt lat="45.4646180" lon="9.1901380" />
      <trkpt lat="45.4646185" lon="9.1901205" />
      <trkpt lat="45.4646189" lon="9.1900818" />
      <trkpt lat="45.4645905" lon="9.1900674" />
      <trkpt lat="45.4645900" lon="9.1899176" />
      <trkpt lat="45.4645891" lon="9.1898632" />
      <trkpt lat="45.4645547" lon="9.1898629" />
      <trkpt lat="45.4645547" lon="9.1898439" />
      <trkpt lat="45.4645471" lon="9.1898437" />
      <trkpt lat="45.4645044" lon="9.1898425" />
      <trkpt lat="45.4644741" lon="9.1898729" />
      <trkpt lat="45.4644313" lon="9.1898582" />
      <trkpt lat="45.4643695" lon="9.1897716" />
    </trkseg>
  </trk>
</gpx>
