<?xml version="1.0" encoding="UTF-8"?>
<gpx xmlns="http://www.topografix.com/GPX/1/1" version="1.1" creator="ShapeRoute route-engine">
  <metadata>
    <name>apple 10 km · 2026-10-03</name>
    <author>
      <name>ShapeRoute route-engine</name>
    </author>
    <copyright author="OpenStreetMap contributors">
      <license>https://opendatacommons.org/licenses/odbl/1-0/</license>
    </copyright>
    <link href="https://www.openstreetmap.org/copyright">
      <text>© OpenStreetMap contributors</text>
    </link>
    <time>2026-10-03T20:00:22Z</time>
  </metadata>
  <trk>
    <name>apple 10 km · 2026-10-03</name>
    <trkseg>
      <trkpt lat="46.0694939" lon="11.1215669" />
      <trkpt lat="46.0695162" lon="11.1215597" />
      <trkpt lat="46.0695166" lon="11.1214696" />
      <trkpt lat="46.0695155" lon="11.1212758" />
      <trkpt lat="46.0695156" lon="11.1212370" />
      <trkpt lat="46.0690418" lon="11.1212454" />
      <trkpt lat="46.0688448" lon="11.1212725" />
      <trkpt lat="46.0688409" lon="11.1212316" />
      <trkpt lat="46.0688387" lon="11.1211858" />
      <trkpt lat="46.0688365" lon="11.1211527" />
      <trkpt lat="46.0687499" lon="11.1204587" />
      <trkpt lat="46.0687388" lon="11.1203760" />
      <trkpt lat="46.0687020" lon="11.1201725" />
      <trkpt lat="46.0686963" lon="11.1201124" />
      <trkpt lat="46.0686941" lon="11.1200894" />
      <trkpt lat="46.0686922" lon="11.1200685" />
      <trkpt lat="46.0686910" lon="11.1200385" />
      <trkpt lat="46.0685313" lon="11.1200706" />
      <trkpt lat="46.0685273" lon="11.1200042" />
      <trkpt lat="46.0686285" lon="11.1199921" />
      <trkpt lat="46.0687055" lon="11.1199855" />
      <trkpt lat="46.0687688" lon="11.1199699" />
      <trkpt lat="46.0687784" lon="11.1199700" />
      <trkpt lat="46.0688097" lon="11.1199685" />
      <trkpt lat="46.0688503" lon="11.1199666" />
      <trkpt lat="46.0688785" lon="11.1199652" />
      <trkpt lat="46.0688928" lon="11.1199633" />
      <trkpt lat="46.0689900" lon="11.1199487" />
      <trkpt lat="46.0690484" lon="11.1199429" />
      <trkpt lat="46.0691086" lon="11.1199380" />
      <trkpt lat="46.0691667" lon="11.1199367" />
      <trkpt lat="46.0692352" lon="11.1199271" />
      <trkpt lat="46.0693982" lon="11.1198734" />
      <trkpt lat="46.0694763" lon="11.1198434" />
      <trkpt lat="46.0695220" lon="11.1198116" />
      <trkpt lat="46.0695493" lon="11.1198090" />
      <trkpt lat="46.0695787" lon="11.1198028" />
      <trkpt lat="46.0699049" lon="11.1197056" />
      <trkpt lat="46.0699981" lon="11.1197027" />
      <trkpt lat="46.0700021" lon="11.1197557" />
      <trkpt lat="46.0700053" lon="11.1197976" />
      <trkpt lat="46.0700337" lon="11.1198021" />
      <trkpt lat="46.0700585" lon="11.1200224" />
      <trkpt lat="46.0701289" lon="11.1206585" />
      <trkpt lat="46.0702108" lon="11.1214249" />
      <trkpt lat="46.0702164" lon="11.1214756" />
      <trkpt lat="46.0702645" lon="11.1214627" />
      <trkpt lat="46.0703324" lon="11.1214444" />
      <trkpt lat="46.0703515" lon="11.1214390" />
      <trkpt lat="46.0703665" lon="11.1214519" />
      <trkpt lat="46.0703902" lon="11.1214490" />
      <trkpt lat="46.0703987" lon="11.1215044" />
      <trkpt lat="46.0704156" lon="11.1216145" />
      <trkpt lat="46.0706252" lon="11.1215476" />
      <trkpt lat="46.0706477" lon="11.1215420" />
      <trkpt lat="46.0707043" lon="11.1215280" />
      <trkpt lat="46.0707121" lon="11.1215728" />
      <trkpt lat="46.0708101" lon="11.1221373" />
      <trkpt lat="46.0708612" lon="11.1223889" />
      <trkpt lat="46.0709172" lon="11.1225127" />
      <trkpt lat="46.0710212" lon="11.1226413" />
      <trkpt lat="46.0711314" lon="11.1229085" />
      <trkpt lat="46.0711553" lon="11.1228796" />
      <trkpt lat="46.0712765" lon="11.1227211" />
      <trkpt lat="46.0715240" lon="11.1228865" />
      <trkpt lat="46.0715376" lon="11.1228957" />
      <trkpt lat="46.0715508" lon="11.1228559" />
      <trkpt lat="46.0715891" lon="11.1227660" />
      <trkpt lat="46.0716210" lon="11.1227893" />
      <trkpt lat="46.0716714" lon="11.1228236" />
      <trkpt lat="46.0716413" lon="11.1229209" />
      <trkpt lat="46.0716439" lon="11.1229978" />
      <trkpt lat="46.0716222" lon="11.1230596" />
      <trkpt lat="46.0716061" lon="11.1231052" />
      <trkpt lat="46.0715836" lon="11.1230897" />
      <trkpt lat="46.0714768" lon="11.1233966" />
      <trkpt lat="46.0714695" lon="11.1234250" />
      <trkpt lat="46.0714629" lon="11.1234503" />
      <trkpt lat="46.0713852" lon="11.1236407" />
      <trkpt lat="46.0713794" lon="11.1236748" />
      <trkpt lat="46.0713714" lon="11.1237224" />
      <trkpt lat="46.0712973" lon="11.1239242" />
      <trkpt lat="46.0715715" lon="11.1242588" />
      <trkpt lat="46.0716139" lon="11.1243025" />
      <trkpt lat="46.0717352" lon="11.1244219" />
      <trkpt lat="46.0717827" lon="11.1244553" />
      <trkpt lat="46.0720850" lon="11.1246655" />
      <trkpt lat="46.0720684" lon="11.1247187" />
      <trkpt lat="46.0720613" lon="11.1247413" />
      <trkpt lat="46.0720435" lon="11.1247973" />
      <trkpt lat="46.0720544" lon="11.1248036" />
      <trkpt lat="46.0720510" lon="11.1248611" />
      <trkpt lat="46.0720054" lon="11.1250308" />
      <trkpt lat="46.0719940" lon="11.1250990" />
      <trkpt lat="46.0719870" lon="11.1251285" />
      <trkpt lat="46.0719774" lon="11.1251717" />
      <trkpt lat="46.0719539" lon="11.1255959" />
      <trkpt lat="46.0719340" lon="11.1256061" />
      <trkpt lat="46.0718481" lon="11.1256467" />
      <trkpt lat="46.0716321" lon="11.1257215" />
      <trkpt lat="46.0713680" lon="11.1257925" />
      <trkpt lat="46.0713828" lon="11.1258382" />
      <trkpt lat="46.0714187" lon="11.1259513" />
      <trkpt lat="46.0714407" lon="11.1260195" />
      <trkpt lat="46.0714842" lon="11.1261526" />
      <trkpt lat="46.0714867" lon="11.1261603" />
      <trkpt lat="46.0714910" lon="11.1261744" />
      <trkpt lat="46.0715046" lon="11.1262192" />
      <trkpt lat="46.0715185" lon="11.1262647" />
      <trkpt lat="46.0715224" lon="11.1262776" />
      <trkpt lat="46.0714852" lon="11.1263054" />
      <trkpt lat="46.0715228" lon="11.1264292" />
      <trkpt lat="46.0715416" lon="11.1264996" />
      <trkpt lat="46.0714506" lon="11.1265560" />
      <trkpt lat="46.0714616" lon="11.1265912" />
      <trkpt lat="46.0714506" lon="11.1265560" />
      <trkpt lat="46.0715416" lon="11.1264996" />
      <trkpt lat="46.0715228" lon="11.1264292" />
      <trkpt lat="46.0714852" lon="11.1263054" />
      <trkpt lat="46.0715224" lon="11.1262776" />
      <trkpt lat="46.0715185" lon="11.1262647" />
      <trkpt lat="46.0715046" lon="11.1262192" />
      <trkpt lat="46.0714910" lon="11.1261744" />
      <trkpt lat="46.0714867" lon="11.1261603" />
      <trkpt lat="46.0714842" lon="11.1261526" />
      <trkpt lat="46.0714407" lon="11.1260195" />
      <trkpt lat="46.0714187" lon="11.1259513" />
      <trkpt lat="46.0713828" lon="11.1258382" />
      <trkpt lat="46.0713680" lon="11.1257925" />
      <trkpt lat="46.0716321" lon="11.1257215" />
      <trkpt lat="46.0718481" lon="11.1256467" />
      <trkpt lat="46.0719340" lon="11.1256061" />
      <trkpt lat="46.0719539" lon="11.1255959" />
      <trkpt lat="46.0719774" lon="11.1251717" />
      <trkpt lat="46.0719870" lon="11.1251285" />
      <trkpt lat="46.0719940" lon="11.1250990" />
      <trkpt lat="46.0720054" lon="11.1250308" />
      <trkpt lat="46.0720510" lon="11.1248611" />
      <trkpt lat="46.0720544" lon="11.1248036" />
      <trkpt lat="46.0720435" lon="11.1247973" />
      <trkpt lat="46.0715775" lon="11.1245299" />
      <trkpt lat="46.0715341" lon="11.1244451" />
      <trkpt lat="46.0715020" lon="11.1244182" />
      <trkpt lat="46.0713980" lon="11.1243293" />
      <trkpt lat="46.0712766" lon="11.1241810" />
      <trkpt lat="46.0711143" lon="11.1239193" />
      <trkpt lat="46.0710943" lon="11.1238719" />
      <trkpt lat="46.0710768" lon="11.1238303" />
      <trkpt lat="46.0710686" lon="11.1238108" />
      <trkpt lat="46.0710576" lon="11.1237843" />
      <trkpt lat="46.0709533" lon="11.1235349" />
      <trkpt lat="46.0709425" lon="11.1235101" />
      <trkpt lat="46.0709296" lon="11.1234806" />
      <trkpt lat="46.0707164" lon="11.1229920" />
      <trkpt lat="46.0706111" lon="11.1227401" />
      <trkpt lat="46.0706010" lon="11.1227161" />
      <trkpt lat="46.0706111" lon="11.1227401" />
      <trkpt lat="46.0707164" lon="11.1229920" />
      <trkpt lat="46.0709296" lon="11.1234806" />
      <trkpt lat="46.0709425" lon="11.1235101" />
      <trkpt lat="46.0709533" lon="11.1235349" />
      <trkpt lat="46.0710576" lon="11.1237843" />
      <trkpt lat="46.0710686" lon="11.1238108" />
      <trkpt lat="46.0710768" lon="11.1238303" />
      <trkpt lat="46.0711314" lon="11.1237796" />
      <trkpt lat="46.0711887" lon="11.1237117" />
      <trkpt lat="46.0712056" lon="11.1237453" />
      <trkpt lat="46.0712168" lon="11.1237386" />
      <trkpt lat="46.0712779" lon="11.1236766" />
      <trkpt lat="46.0714146" lon="11.1233065" />
      <trkpt lat="46.0715293" lon="11.1229234" />
      <trkpt lat="46.0715376" lon="11.1228957" />
      <trkpt lat="46.0715508" lon="11.1228559" />
      <trkpt lat="46.0715891" lon="11.1227660" />
      <trkpt lat="46.0715508" lon="11.1228559" />
      <trkpt lat="46.0715376" lon="11.1228957" />
      <trkpt lat="46.0715240" lon="11.1228865" />
      <trkpt lat="46.0712765" lon="11.1227211" />
      <trkpt lat="46.0711553" lon="11.1228796" />
      <trkpt lat="46.0711314" lon="11.1229085" />
      <trkpt lat="46.0710212" lon="11.1226413" />
      <trkpt lat="46.0709172" lon="11.1225127" />
      <trkpt lat="46.0708612" lon="11.1223889" />
      <trkpt lat="46.0708101" lon="11.1221373" />
      <trkpt lat="46.0707121" lon="11.1215728" />
      <trkpt lat="46.0707043" lon="11.1215280" />
      <trkpt lat="46.0706477" lon="11.1215420" />
      <trkpt lat="46.0706252" lon="11.1215476" />
      <trkpt lat="46.0704156" lon="11.1216145" />
      <trkpt lat="46.0704023" lon="11.1216222" />
      <trkpt lat="46.0703901" lon="11.1216331" />
      <trkpt lat="46.0703817" lon="11.1216491" />
      <trkpt lat="46.0703190" lon="11.1216785" />
      <trkpt lat="46.0702805" lon="11.1216954" />
      <trkpt lat="46.0702568" lon="11.1215927" />
      <trkpt lat="46.0701974" lon="11.1216099" />
      <trkpt lat="46.0701606" lon="11.1216205" />
      <trkpt lat="46.0701034" lon="11.1216374" />
      <trkpt lat="46.0699669" lon="11.1216777" />
      <trkpt lat="46.0698160" lon="11.1217222" />
      <trkpt lat="46.0697616" lon="11.1217383" />
      <trkpt lat="46.0698008" lon="11.1221091" />
      <trkpt lat="46.0698451" lon="11.1225277" />
      <trkpt lat="46.0699005" lon="11.1231801" />
      <trkpt lat="46.0699035" lon="11.1235579" />
      <trkpt lat="46.0699053" lon="11.1235990" />
      <trkpt lat="46.0699161" lon="11.1238382" />
      <trkpt lat="46.0699810" lon="11.1241234" />
      <trkpt lat="46.0700063" lon="11.1241142" />
      <trkpt lat="46.0701341" lon="11.1240829" />
      <trkpt lat="46.0702928" lon="11.1240441" />
      <trkpt lat="46.0704018" lon="11.1240232" />
      <trkpt lat="46.0705860" lon="11.1240028" />
      <trkpt lat="46.0707489" lon="11.1239848" />
      <trkpt lat="46.0708615" lon="11.1239751" />
      <trkpt lat="46.0709517" lon="11.1239651" />
      <trkpt lat="46.0710943" lon="11.1238719" />
      <trkpt lat="46.0711143" lon="11.1239193" />
      <trkpt lat="46.0712766" lon="11.1241810" />
      <trkpt lat="46.0713980" lon="11.1243293" />
      <trkpt lat="46.0715020" lon="11.1244182" />
      <trkpt lat="46.0715341" lon="11.1244451" />
      <trkpt lat="46.0715775" lon="11.1245299" />
      <trkpt lat="46.0720435" lon="11.1247973" />
      <trkpt lat="46.0720544" lon="11.1248036" />
      <trkpt lat="46.0720510" lon="11.1248611" />
      <trkpt lat="46.0720054" lon="11.1250308" />
      <trkpt lat="46.0720767" lon="11.1250590" />
      <trkpt lat="46.0721532" lon="11.1250860" />
      <trkpt lat="46.0722085" lon="11.1251066" />
      <trkpt lat="46.0722036" lon="11.1251377" />
      <trkpt lat="46.0722081" lon="11.1251519" />
      <trkpt lat="46.0722263" lon="11.1251626" />
      <trkpt lat="46.0722208" lon="11.1252132" />
      <trkpt lat="46.0721976" lon="11.1253427" />
      <trkpt lat="46.0721792" lon="11.1254450" />
      <trkpt lat="46.0720949" lon="11.1258874" />
      <trkpt lat="46.0720801" lon="11.1259174" />
      <trkpt lat="46.0720743" lon="11.1259287" />
      <trkpt lat="46.0720594" lon="11.1259585" />
      <trkpt lat="46.0720402" lon="11.1259968" />
      <trkpt lat="46.0720236" lon="11.1260184" />
      <trkpt lat="46.0719595" lon="11.1259970" />
      <trkpt lat="46.0719279" lon="11.1259983" />
      <trkpt lat="46.0718057" lon="11.1260913" />
      <trkpt lat="46.0715224" lon="11.1262776" />
      <trkpt lat="46.0715185" lon="11.1262647" />
      <trkpt lat="46.0715046" lon="11.1262192" />
      <trkpt lat="46.0714910" lon="11.1261744" />
      <trkpt lat="46.0714867" lon="11.1261603" />
      <trkpt lat="46.0709703" lon="11.1265422" />
      <trkpt lat="46.0709427" lon="11.1265551" />
      <trkpt lat="46.0705687" lon="11.1266685" />
      <trkpt lat="46.0705378" lon="11.1266280" />
      <trkpt lat="46.0705083" lon="11.1266443" />
      <trkpt lat="46.0704804" lon="11.1266564" />
      <trkpt lat="46.0704611" lon="11.1265307" />
      <trkpt lat="46.0704496" lon="11.1264614" />
      <trkpt lat="46.0703744" lon="11.1261142" />
      <trkpt lat="46.0703634" lon="11.1261178" />
      <trkpt lat="46.0703131" lon="11.1261373" />
      <trkpt lat="46.0699177" lon="11.1263130" />
      <trkpt lat="46.0697634" lon="11.1263556" />
      <trkpt lat="46.0696138" lon="11.1263324" />
      <trkpt lat="46.0695234" lon="11.1263534" />
      <trkpt lat="46.0694782" lon="11.1261449" />
      <trkpt lat="46.0694494" lon="11.1260118" />
      <trkpt lat="46.0693536" lon="11.1260549" />
      <trkpt lat="46.0692164" lon="11.1261167" />
      <trkpt lat="46.0692044" lon="11.1261221" />
      <trkpt lat="46.0693249" lon="11.1262450" />
      <trkpt lat="46.0694048" lon="11.1263618" />
      <trkpt lat="46.0694294" lon="11.1265151" />
      <trkpt lat="46.0695425" lon="11.1268253" />
      <trkpt lat="46.0696122" lon="11.1270587" />
      <trkpt lat="46.0696661" lon="11.1271122" />
      <trkpt lat="46.0697280" lon="11.1271826" />
      <trkpt lat="46.0698044" lon="11.1272466" />
      <trkpt lat="46.0698554" lon="11.1272697" />
      <trkpt lat="46.0699224" lon="11.1272592" />
      <trkpt lat="46.0699625" lon="11.1272466" />
      <trkpt lat="46.0699820" lon="11.1273093" />
      <trkpt lat="46.0700069" lon="11.1273936" />
      <trkpt lat="46.0699719" lon="11.1274335" />
      <trkpt lat="46.0699578" lon="11.1274338" />
      <trkpt lat="46.0699232" lon="11.1274344" />
      <trkpt lat="46.0699231" lon="11.1274466" />
      <trkpt lat="46.0699231" lon="11.1274554" />
      <trkpt lat="46.0699221" lon="11.1275173" />
      <trkpt lat="46.0699209" lon="11.1275983" />
      <trkpt lat="46.0699206" lon="11.1276259" />
      <trkpt lat="46.0699262" lon="11.1276890" />
      <trkpt lat="46.0696351" lon="11.1276692" />
      <trkpt lat="46.0694680" lon="11.1276424" />
      <trkpt lat="46.0691752" lon="11.1275552" />
      <trkpt lat="46.0691475" lon="11.1275479" />
      <trkpt lat="46.0691354" lon="11.1275378" />
      <trkpt lat="46.0691298" lon="11.1275184" />
      <trkpt lat="46.0691062" lon="11.1275184" />
      <trkpt lat="46.0690840" lon="11.1275180" />
      <trkpt lat="46.0690747" lon="11.1275186" />
      <trkpt lat="46.0690710" lon="11.1275307" />
      <trkpt lat="46.0690596" lon="11.1276035" />
      <trkpt lat="46.0690489" lon="11.1276466" />
      <trkpt lat="46.0690390" lon="11.1277020" />
      <trkpt lat="46.0690366" lon="11.1277209" />
      <trkpt lat="46.0690337" lon="11.1277504" />
      <trkpt lat="46.0690618" lon="11.1278118" />
      <trkpt lat="46.0690471" lon="11.1279563" />
      <trkpt lat="46.0687319" lon="11.1280364" />
      <trkpt lat="46.0686772" lon="11.1280533" />
      <trkpt lat="46.0686317" lon="11.1281072" />
      <trkpt lat="46.0686258" lon="11.1281142" />
      <trkpt lat="46.0685786" lon="11.1281982" />
      <trkpt lat="46.0685295" lon="11.1283095" />
      <trkpt lat="46.0685219" lon="11.1285303" />
      <trkpt lat="46.0685361" lon="11.1288688" />
      <trkpt lat="46.0685377" lon="11.1288878" />
      <trkpt lat="46.0685353" lon="11.1289018" />
      <trkpt lat="46.0685237" lon="11.1289151" />
      <trkpt lat="46.0685043" lon="11.1289206" />
      <trkpt lat="46.0682176" lon="11.1289792" />
      <trkpt lat="46.0682434" lon="11.1291010" />
      <trkpt lat="46.0682844" lon="11.1292584" />
      <trkpt lat="46.0682281" lon="11.1292878" />
      <trkpt lat="46.0681974" lon="11.1293038" />
      <trkpt lat="46.0679193" lon="11.1294608" />
      <trkpt lat="46.0677627" lon="11.1296102" />
      <trkpt lat="46.0676905" lon="11.1296887" />
      <trkpt lat="46.0676316" lon="11.1297529" />
      <trkpt lat="46.0671709" lon="11.1304027" />
      <trkpt lat="46.0670662" lon="11.1305822" />
      <trkpt lat="46.0669499" lon="11.1308480" />
      <trkpt lat="46.0669291" lon="11.1308955" />
      <trkpt lat="46.0668870" lon="11.1308644" />
      <trkpt lat="46.0669014" lon="11.1308307" />
      <trkpt lat="46.0670063" lon="11.1305799" />
      <trkpt lat="46.0670726" lon="11.1304665" />
      <trkpt lat="46.0671833" lon="11.1302975" />
      <trkpt lat="46.0674516" lon="11.1299333" />
      <trkpt lat="46.0674371" lon="11.1299081" />
      <trkpt lat="46.0675257" lon="11.1297774" />
      <trkpt lat="46.0676328" lon="11.1294750" />
      <trkpt lat="46.0676974" lon="11.1292563" />
      <trkpt lat="46.0677760" lon="11.1290764" />
      <trkpt lat="46.0675431" lon="11.1289875" />
      <trkpt lat="46.0675234" lon="11.1289800" />
      <trkpt lat="46.0674601" lon="11.1289333" />
      <trkpt lat="46.0671609" lon="11.1286784" />
      <trkpt lat="46.0670564" lon="11.1289334" />
      <trkpt lat="46.0669807" lon="11.1291233" />
      <trkpt lat="46.0669782" lon="11.1291295" />
      <trkpt lat="46.0669580" lon="11.1291785" />
      <trkpt lat="46.0668906" lon="11.1293426" />
      <trkpt lat="46.0668399" lon="11.1294591" />
      <trkpt lat="46.0668304" lon="11.1294810" />
      <trkpt lat="46.0668216" lon="11.1294715" />
      <trkpt lat="46.0666768" lon="11.1298246" />
      <trkpt lat="46.0666162" lon="11.1299725" />
      <trkpt lat="46.0666068" lon="11.1299950" />
      <trkpt lat="46.0663999" lon="11.1304961" />
      <trkpt lat="46.0662931" lon="11.1307546" />
      <trkpt lat="46.0662790" lon="11.1307867" />
      <trkpt lat="46.0662535" lon="11.1308450" />
      <trkpt lat="46.0661968" lon="11.1309856" />
      <trkpt lat="46.0661812" lon="11.1310242" />
      <trkpt lat="46.0660911" lon="11.1312475" />
      <trkpt lat="46.0660861" lon="11.1312600" />
      <trkpt lat="46.0660651" lon="11.1313120" />
      <trkpt lat="46.0660534" lon="11.1313411" />
      <trkpt lat="46.0660391" lon="11.1313766" />
      <trkpt lat="46.0659342" lon="11.1316366" />
      <trkpt lat="46.0657065" lon="11.1322009" />
      <trkpt lat="46.0656790" lon="11.1321776" />
      <trkpt lat="46.0656410" lon="11.1321380" />
      <trkpt lat="46.0656630" lon="11.1320862" />
      <trkpt lat="46.0653630" lon="11.1318281" />
      <trkpt lat="46.0653454" lon="11.1318147" />
      <trkpt lat="46.0653207" lon="11.1317899" />
      <trkpt lat="46.0652854" lon="11.1317601" />
      <trkpt lat="46.0652112" lon="11.1317159" />
      <trkpt lat="46.0651843" lon="11.1317017" />
      <trkpt lat="46.0650505" lon="11.1316268" />
      <trkpt lat="46.0648998" lon="11.1315425" />
      <trkpt lat="46.0648828" lon="11.1315390" />
      <trkpt lat="46.0648435" lon="11.1315200" />
      <trkpt lat="46.0648279" lon="11.1315110" />
      <trkpt lat="46.0647742" lon="11.1314809" />
      <trkpt lat="46.0647559" lon="11.1314715" />
      <trkpt lat="46.0647347" lon="11.1314578" />
      <trkpt lat="46.0643754" lon="11.1312632" />
      <trkpt lat="46.0643368" lon="11.1312753" />
      <trkpt lat="46.0643093" lon="11.1313184" />
      <trkpt lat="46.0642683" lon="11.1313173" />
      <trkpt lat="46.0642254" lon="11.1313154" />
      <trkpt lat="46.0642238" lon="11.1312484" />
      <trkpt lat="46.0641949" lon="11.1312336" />
      <trkpt lat="46.0638968" lon="11.1312969" />
      <trkpt lat="46.0638865" lon="11.1313666" />
      <trkpt lat="46.0638498" lon="11.1313759" />
      <trkpt lat="46.0638314" lon="11.1313781" />
      <trkpt lat="46.0638135" lon="11.1313802" />
      <trkpt lat="46.0636456" lon="11.1314684" />
      <trkpt lat="46.0635404" lon="11.1315532" />
      <trkpt lat="46.0634075" lon="11.1316603" />
      <trkpt lat="46.0633729" lon="11.1316874" />
      <trkpt lat="46.0631450" lon="11.1318657" />
      <trkpt lat="46.0631302" lon="11.1318327" />
      <trkpt lat="46.0630161" lon="11.1319521" />
      <trkpt lat="46.0628677" lon="11.1321075" />
      <trkpt lat="46.0627906" lon="11.1321275" />
      <trkpt lat="46.0627820" lon="11.1320941" />
      <trkpt lat="46.0627738" lon="11.1320997" />
      <trkpt lat="46.0626949" lon="11.1319134" />
      <trkpt lat="46.0626699" lon="11.1318863" />
      <trkpt lat="46.0626382" lon="11.1318565" />
      <trkpt lat="46.0626426" lon="11.1318358" />
      <trkpt lat="46.0624816" lon="11.1320496" />
      <trkpt lat="46.0616568" lon="11.1308427" />
      <trkpt lat="46.0614939" lon="11.1306083" />
      <trkpt lat="46.0611427" lon="11.1301344" />
      <trkpt lat="46.0611232" lon="11.1301720" />
      <trkpt lat="46.0610424" lon="11.1300545" />
      <trkpt lat="46.0610009" lon="11.1299950" />
      <trkpt lat="46.0609740" lon="11.1299560" />
      <trkpt lat="46.0606803" lon="11.1295211" />
      <trkpt lat="46.0604501" lon="11.1291803" />
      <trkpt lat="46.0602997" lon="11.1289644" />
      <trkpt lat="46.0602269" lon="11.1288582" />
      <trkpt lat="46.0602050" lon="11.1288262" />
      <trkpt lat="46.0598300" lon="11.1282789" />
      <trkpt lat="46.0597850" lon="11.1282180" />
      <trkpt lat="46.0591635" lon="11.1273036" />
      <trkpt lat="46.0590732" lon="11.1271445" />
      <trkpt lat="46.0590349" lon="11.1271380" />
      <trkpt lat="46.0590244" lon="11.1271318" />
      <trkpt lat="46.0590008" lon="11.1270867" />
      <trkpt lat="46.0589778" lon="11.1270429" />
      <trkpt lat="46.0589527" lon="11.1270133" />
      <trkpt lat="46.0589224" lon="11.1269997" />
      <trkpt lat="46.0588897" lon="11.1269858" />
      <trkpt lat="46.0589036" lon="11.1269719" />
      <trkpt lat="46.0589311" lon="11.1269398" />
      <trkpt lat="46.0588911" lon="11.1268848" />
      <trkpt lat="46.0587747" lon="11.1267065" />
      <trkpt lat="46.0587081" lon="11.1266351" />
      <trkpt lat="46.0586921" lon="11.1266284" />
      <trkpt lat="46.0586813" lon="11.1266261" />
      <trkpt lat="46.0586698" lon="11.1266261" />
      <trkpt lat="46.0586623" lon="11.1266225" />
      <trkpt lat="46.0583284" lon="11.1263150" />
      <trkpt lat="46.0577668" lon="11.1257904" />
      <trkpt lat="46.0578741" lon="11.1255407" />
      <trkpt lat="46.0579003" lon="11.1254811" />
      <trkpt lat="46.0579538" lon="11.1255362" />
      <trkpt lat="46.0579717" lon="11.1254582" />
      <trkpt lat="46.0580007" lon="11.1254332" />
      <trkpt lat="46.0580170" lon="11.1254037" />
      <trkpt lat="46.0583531" lon="11.1246930" />
      <trkpt lat="46.0576941" lon="11.1239286" />
      <trkpt lat="46.0578345" lon="11.1238631" />
      <trkpt lat="46.0585618" lon="11.1235804" />
      <trkpt lat="46.0585476" lon="11.1235112" />
      <trkpt lat="46.0584227" lon="11.1228911" />
      <trkpt lat="46.0584199" lon="11.1228643" />
      <trkpt lat="46.0584084" lon="11.1228464" />
      <trkpt lat="46.0583844" lon="11.1228497" />
      <trkpt lat="46.0583410" lon="11.1228663" />
      <trkpt lat="46.0583323" lon="11.1228233" />
      <trkpt lat="46.0583245" lon="11.1227860" />
      <trkpt lat="46.0583210" lon="11.1227666" />
      <trkpt lat="46.0583806" lon="11.1227438" />
      <trkpt lat="46.0583857" lon="11.1227331" />
      <trkpt lat="46.0583853" lon="11.1227177" />
      <trkpt lat="46.0583665" lon="11.1226155" />
      <trkpt lat="46.0583463" lon="11.1225134" />
      <trkpt lat="46.0582824" lon="11.1221902" />
      <trkpt lat="46.0582744" lon="11.1221495" />
      <trkpt lat="46.0582626" lon="11.1220895" />
      <trkpt lat="46.0581951" lon="11.1217461" />
      <trkpt lat="46.0581812" lon="11.1216752" />
      <trkpt lat="46.0581808" lon="11.1216264" />
      <trkpt lat="46.0580881" lon="11.1211423" />
      <trkpt lat="46.0581434" lon="11.1211203" />
      <trkpt lat="46.0580624" lon="11.1207034" />
      <trkpt lat="46.0580557" lon="11.1206700" />
      <trkpt lat="46.0580511" lon="11.1206464" />
      <trkpt lat="46.0579274" lon="11.1200138" />
      <trkpt lat="46.0578976" lon="11.1198612" />
      <trkpt lat="46.0578798" lon="11.1197670" />
      <trkpt lat="46.0578301" lon="11.1196202" />
      <trkpt lat="46.0578057" lon="11.1195485" />
      <trkpt lat="46.0577968" lon="11.1195023" />
      <trkpt lat="46.0577998" lon="11.1194503" />
      <trkpt lat="46.0577385" lon="11.1191154" />
      <trkpt lat="46.0577357" lon="11.1190822" />
      <trkpt lat="46.0577397" lon="11.1190500" />
      <trkpt lat="46.0577653" lon="11.1189924" />
      <trkpt lat="46.0577420" lon="11.1188951" />
      <trkpt lat="46.0577601" lon="11.1188877" />
      <trkpt lat="46.0577862" lon="11.1188771" />
      <trkpt lat="46.0577189" lon="11.1185343" />
      <trkpt lat="46.0577168" lon="11.1185108" />
      <trkpt lat="46.0577234" lon="11.1184931" />
      <trkpt lat="46.0577394" lon="11.1184808" />
      <trkpt lat="46.0578506" lon="11.1184404" />
      <trkpt lat="46.0578659" lon="11.1184086" />
      <trkpt lat="46.0578751" lon="11.1183545" />
      <trkpt lat="46.0578868" lon="11.1182811" />
      <trkpt lat="46.0581327" lon="11.1183594" />
      <trkpt lat="46.0581505" lon="11.1182040" />
      <trkpt lat="46.0581515" lon="11.1181046" />
      <trkpt lat="46.0581569" lon="11.1179059" />
      <trkpt lat="46.0581527" lon="11.1178783" />
      <trkpt lat="46.0581527" lon="11.1177634" />
      <trkpt lat="46.0581516" lon="11.1176588" />
      <trkpt lat="46.0581412" lon="11.1175930" />
      <trkpt lat="46.0580850" lon="11.1174615" />
      <trkpt lat="46.0578821" lon="11.1174818" />
      <trkpt lat="46.0577178" lon="11.1175073" />
      <trkpt lat="46.0576247" lon="11.1175180" />
      <trkpt lat="46.0575619" lon="11.1175238" />
      <trkpt lat="46.0575196" lon="11.1175314" />
      <trkpt lat="46.0575083" lon="11.1174670" />
      <trkpt lat="46.0574996" lon="11.1174023" />
      <trkpt lat="46.0574610" lon="11.1174088" />
      <trkpt lat="46.0573161" lon="11.1163155" />
      <trkpt lat="46.0572914" lon="11.1161286" />
      <trkpt lat="46.0572817" lon="11.1160970" />
      <trkpt lat="46.0572519" lon="11.1160740" />
      <trkpt lat="46.0572305" lon="11.1160775" />
      <trkpt lat="46.0572289" lon="11.1160278" />
      <trkpt lat="46.0572246" lon="11.1159758" />
      <trkpt lat="46.0572450" lon="11.1159689" />
      <trkpt lat="46.0572696" lon="11.1159161" />
      <trkpt lat="46.0571982" lon="11.1153312" />
      <trkpt lat="46.0572360" lon="11.1153223" />
      <trkpt lat="46.0572834" lon="11.1153113" />
      <trkpt lat="46.0572807" lon="11.1152652" />
      <trkpt lat="46.0572862" lon="11.1152365" />
      <trkpt lat="46.0573002" lon="11.1152056" />
      <trkpt lat="46.0573142" lon="11.1151938" />
      <trkpt lat="46.0573628" lon="11.1151863" />
      <trkpt lat="46.0574084" lon="11.1151807" />
      <trkpt lat="46.0574124" lon="11.1152374" />
      <trkpt lat="46.0582241" lon="11.1151208" />
      <trkpt lat="46.0583221" lon="11.1151063" />
      <trkpt lat="46.0583790" lon="11.1150491" />
      <trkpt lat="46.0584373" lon="11.1150024" />
      <trkpt lat="46.0587151" lon="11.1152102" />
      <trkpt lat="46.0587053" lon="11.1152323" />
      <trkpt lat="46.0590826" lon="11.1154964" />
      <trkpt lat="46.0590777" lon="11.1152788" />
      <trkpt lat="46.0590950" lon="11.1152774" />
      <trkpt lat="46.0591155" lon="11.1152755" />
      <trkpt lat="46.0591085" lon="11.1148873" />
      <trkpt lat="46.0591070" lon="11.1148572" />
      <trkpt lat="46.0591061" lon="11.1148199" />
      <trkpt lat="46.0591472" lon="11.1148142" />
      <trkpt lat="46.0592891" lon="11.1147921" />
      <trkpt lat="46.0594891" lon="11.1147610" />
      <trkpt lat="46.0596530" lon="11.1147354" />
      <trkpt lat="46.0596395" lon="11.1145368" />
      <trkpt lat="46.0596297" lon="11.1144066" />
      <trkpt lat="46.0596186" lon="11.1142493" />
      <trkpt lat="46.0596023" lon="11.1140148" />
      <trkpt lat="46.0595922" lon="11.1138712" />
      <trkpt lat="46.0595687" lon="11.1134622" />
      <trkpt lat="46.0597295" lon="11.1134450" />
      <trkpt lat="46.0599219" lon="11.1134290" />
      <trkpt lat="46.0600655" lon="11.1134229" />
      <trkpt lat="46.0602254" lon="11.1134139" />
      <trkpt lat="46.0604255" lon="11.1134099" />
      <trkpt lat="46.0605715" lon="11.1134088" />
      <trkpt lat="46.0605162" lon="11.1125968" />
      <trkpt lat="46.0610109" lon="11.1126279" />
      <trkpt lat="46.0609887" lon="11.1122398" />
      <trkpt lat="46.0604874" lon="11.1122210" />
      <trkpt lat="46.0599813" lon="11.1121852" />
      <trkpt lat="46.0595430" lon="11.1121682" />
      <trkpt lat="46.0594812" lon="11.1121658" />
      <trkpt lat="46.0594804" lon="11.1121372" />
      <trkpt lat="46.0593801" lon="11.1106811" />
      <trkpt lat="46.0593786" lon="11.1106518" />
      <trkpt lat="46.0600307" lon="11.1107022" />
      <trkpt lat="46.0606705" lon="11.1107908" />
      <trkpt lat="46.0611232" lon="11.1108706" />
      <trkpt lat="46.0614099" lon="11.1109141" />
      <trkpt lat="46.0616625" lon="11.1109625" />
      <trkpt lat="46.0618733" lon="11.1109959" />
      <trkpt lat="46.0619551" lon="11.1109905" />
      <trkpt lat="46.0620459" lon="11.1109974" />
      <trkpt lat="46.0623999" lon="11.1110614" />
      <trkpt lat="46.0625659" lon="11.1110885" />
      <trkpt lat="46.0627373" lon="11.1111248" />
      <trkpt lat="46.0632642" lon="11.1112501" />
      <trkpt lat="46.0637341" lon="11.1113826" />
      <trkpt lat="46.0645481" lon="11.1116363" />
      <trkpt lat="46.0650129" lon="11.1118153" />
      <trkpt lat="46.0654497" lon="11.1120193" />
      <trkpt lat="46.0657475" lon="11.1121655" />
      <trkpt lat="46.0659448" lon="11.1122803" />
      <trkpt lat="46.0660642" lon="11.1123444" />
      <trkpt lat="46.0665617" lon="11.1125893" />
      <trkpt lat="46.0669326" lon="11.1127701" />
      <trkpt lat="46.0673455" lon="11.1129810" />
      <trkpt lat="46.0673536" lon="11.1129461" />
      <trkpt lat="46.0673664" lon="11.1128912" />
      <trkpt lat="46.0671655" lon="11.1127930" />
      <trkpt lat="46.0666378" lon="11.1125382" />
      <trkpt lat="46.0664459" lon="11.1124424" />
      <trkpt lat="46.0663458" lon="11.1123873" />
      <trkpt lat="46.0662549" lon="11.1123373" />
      <trkpt lat="46.0663234" lon="11.1122960" />
      <trkpt lat="46.0663686" lon="11.1122400" />
      <trkpt lat="46.0663810" lon="11.1121917" />
      <trkpt lat="46.0663792" lon="11.1120025" />
      <trkpt lat="46.0663848" lon="11.1116740" />
      <trkpt lat="46.0663913" lon="11.1116056" />
      <trkpt lat="46.0663969" lon="11.1115653" />
      <trkpt lat="46.0664056" lon="11.1115441" />
      <trkpt lat="46.0664155" lon="11.1115197" />
      <trkpt lat="46.0664282" lon="11.1114932" />
      <trkpt lat="46.0664341" lon="11.1114808" />
      <trkpt lat="46.0664630" lon="11.1114353" />
      <trkpt lat="46.0666329" lon="11.1114467" />
      <trkpt lat="46.0671237" lon="11.1114614" />
      <trkpt lat="46.0673699" lon="11.1114659" />
      <trkpt lat="46.0673758" lon="11.1114741" />
      <trkpt lat="46.0674167" lon="11.1115291" />
      <trkpt lat="46.0674558" lon="11.1115667" />
      <trkpt lat="46.0674885" lon="11.1115995" />
      <trkpt lat="46.0675042" lon="11.1116002" />
      <trkpt lat="46.0675265" lon="11.1115975" />
      <trkpt lat="46.0675460" lon="11.1115895" />
      <trkpt lat="46.0675665" lon="11.1115761" />
      <trkpt lat="46.0675851" lon="11.1115627" />
      <trkpt lat="46.0676980" lon="11.1114593" />
      <trkpt lat="46.0678257" lon="11.1117174" />
      <trkpt lat="46.0682241" lon="11.1125259" />
      <trkpt lat="46.0681958" lon="11.1125499" />
      <trkpt lat="46.0681223" lon="11.1126059" />
      <trkpt lat="46.0683564" lon="11.1127915" />
      <trkpt lat="46.0684835" lon="11.1130467" />
      <trkpt lat="46.0684969" lon="11.1130964" />
      <trkpt lat="46.0685085" lon="11.1131533" />
      <trkpt lat="46.0685128" lon="11.1131975" />
      <trkpt lat="46.0685121" lon="11.1132361" />
      <trkpt lat="46.0685063" lon="11.1132629" />
      <trkpt lat="46.0685193" lon="11.1132700" />
      <trkpt lat="46.0686253" lon="11.1133238" />
      <trkpt lat="46.0687718" lon="11.1133981" />
      <trkpt lat="46.0688616" lon="11.1134384" />
      <trkpt lat="46.0688583" lon="11.1134553" />
      <trkpt lat="46.0688523" lon="11.1134865" />
      <trkpt lat="46.0690252" lon="11.1135703" />
      <trkpt lat="46.0691269" lon="11.1136716" />
      <trkpt lat="46.0691468" lon="11.1136799" />
      <trkpt lat="46.0693007" lon="11.1137442" />
      <trkpt lat="46.0692891" lon="11.1138032" />
      <trkpt lat="46.0692827" lon="11.1138365" />
      <trkpt lat="46.0699342" lon="11.1141162" />
      <trkpt lat="46.0699724" lon="11.1140894" />
      <trkpt lat="46.0700735" lon="11.1141344" />
      <trkpt lat="46.0701061" lon="11.1141508" />
      <trkpt lat="46.0701270" lon="11.1141662" />
      <trkpt lat="46.0701555" lon="11.1141871" />
      <trkpt lat="46.0701713" lon="11.1142018" />
      <trkpt lat="46.0701963" lon="11.1142414" />
      <trkpt lat="46.0702122" lon="11.1142749" />
      <trkpt lat="46.0702262" lon="11.1143187" />
      <trkpt lat="46.0702350" lon="11.1143612" />
      <trkpt lat="46.0702508" lon="11.1144356" />
      <trkpt lat="46.0702467" lon="11.1144529" />
      <trkpt lat="46.0699151" lon="11.1156990" />
      <trkpt lat="46.0698998" lon="11.1157127" />
      <trkpt lat="46.0698128" lon="11.1156739" />
      <trkpt lat="46.0695281" lon="11.1155240" />
      <trkpt lat="46.0694379" lon="11.1156582" />
      <trkpt lat="46.0694630" lon="11.1156868" />
      <trkpt lat="46.0694235" lon="11.1157469" />
      <trkpt lat="46.0693849" lon="11.1158089" />
      <trkpt lat="46.0694825" lon="11.1159653" />
      <trkpt lat="46.0695837" lon="11.1160774" />
      <trkpt lat="46.0696531" lon="11.1161456" />
      <trkpt lat="46.0698035" lon="11.1162762" />
      <trkpt lat="46.0699295" lon="11.1163939" />
      <trkpt lat="46.0699495" lon="11.1164167" />
      <trkpt lat="46.0700000" lon="11.1164941" />
      <trkpt lat="46.0700236" lon="11.1165374" />
      <trkpt lat="46.0700680" lon="11.1166069" />
      <trkpt lat="46.0701165" lon="11.1166890" />
      <trkpt lat="46.0701363" lon="11.1167225" />
      <trkpt lat="46.0701743" lon="11.1167917" />
      <trkpt lat="46.0702123" lon="11.1168786" />
      <trkpt lat="46.0702292" lon="11.1169470" />
      <trkpt lat="46.0702367" lon="11.1170213" />
      <trkpt lat="46.0702287" lon="11.1171541" />
      <trkpt lat="46.0702169" lon="11.1171918" />
      <trkpt lat="46.0701805" lon="11.1173050" />
      <trkpt lat="46.0700861" lon="11.1176034" />
      <trkpt lat="46.0700527" lon="11.1177069" />
      <trkpt lat="46.0700431" lon="11.1177476" />
      <trkpt lat="46.0700369" lon="11.1177882" />
      <trkpt lat="46.0700305" lon="11.1178362" />
      <trkpt lat="46.0700294" lon="11.1178856" />
      <trkpt lat="46.0700269" lon="11.1179061" />
      <trkpt lat="46.0699908" lon="11.1179414" />
      <trkpt lat="46.0699871" lon="11.1179668" />
      <trkpt lat="46.0699905" lon="11.1180483" />
      <trkpt lat="46.0700084" lon="11.1181540" />
      <trkpt lat="46.0699803" lon="11.1181633" />
      <trkpt lat="46.0699941" lon="11.1182001" />
      <trkpt lat="46.0700049" lon="11.1182351" />
      <trkpt lat="46.0700436" lon="11.1186690" />
      <trkpt lat="46.0699695" lon="11.1186849" />
      <trkpt lat="46.0699125" lon="11.1186966" />
      <trkpt lat="46.0699110" lon="11.1186579" />
      <trkpt lat="46.0698656" lon="11.1186968" />
      <trkpt lat="46.0696359" lon="11.1187473" />
      <trkpt lat="46.0696191" lon="11.1187510" />
      <trkpt lat="46.0696189" lon="11.1187623" />
      <trkpt lat="46.0696052" lon="11.1192349" />
      <trkpt lat="46.0696024" lon="11.1192604" />
      <trkpt lat="46.0695759" lon="11.1192602" />
      <trkpt lat="46.0695663" lon="11.1193364" />
      <trkpt lat="46.0695538" lon="11.1194352" />
      <trkpt lat="46.0695229" lon="11.1197302" />
      <trkpt lat="46.0695220" lon="11.1198116" />
      <trkpt lat="46.0694763" lon="11.1198434" />
      <trkpt lat="46.0693982" lon="11.1198734" />
      <trkpt lat="46.0692352" lon="11.1199271" />
      <trkpt lat="46.0691667" lon="11.1199367" />
      <trkpt lat="46.0691086" lon="11.1199380" />
      <trkpt lat="46.0690484" lon="11.1199429" />
      <trkpt lat="46.0689900" lon="11.1199487" />
      <trkpt lat="46.0688928" lon="11.1199633" />
      <trkpt lat="46.0688785" lon="11.1199652" />
      <trkpt lat="46.0688503" lon="11.1199666" />
      <trkpt lat="46.0688097" lon="11.1199685" />
      <trkpt lat="46.0687784" lon="11.1199700" />
      <trkpt lat="46.0687688" lon="11.1199699" />
      <trkpt lat="46.0687055" lon="11.1199855" />
      <trkpt lat="46.0686285" lon="11.1199921" />
      <trkpt lat="46.0685273" lon="11.1200042" />
      <trkpt lat="46.0685313" lon="11.1200706" />
      <trkpt lat="46.0686910" lon="11.1200385" />
      <trkpt lat="46.0686922" lon="11.1200685" />
      <trkpt lat="46.0686941" lon="11.1200894" />
      <trkpt lat="46.0686963" lon="11.1201124" />
      <trkpt lat="46.0687020" lon="11.1201725" />
      <trkpt lat="46.0687388" lon="11.1203760" />
      <trkpt lat="46.0687499" lon="11.1204587" />
      <trkpt lat="46.0688365" lon="11.1211527" />
      <trkpt lat="46.0688387" lon="11.1211858" />
      <trkpt lat="46.0688409" lon="11.1212316" />
      <trkpt lat="46.0688448" lon="11.1212725" />
      <trkpt lat="46.0690418" lon="11.1212454" />
      <trkpt lat="46.0695156" lon="11.1212370" />
      <trkpt lat="46.0695155" lon="11.1212758" />
      <trkpt lat="46.0695166" lon="11.1214696" />
      <trkpt lat="46.0695162" lon="11.1215597" />
      <trkpt lat="46.0694939" lon="11.1215669" />
    </trkseg>
  </trk>
</gpx>
