<?xml version="1.0" encoding="UTF-8"?>
<gpx xmlns="http://www.topografix.com/GPX/1/1" version="1.1" creator="ShapeRoute route-engine">
  <metadata>
    <name>rabbit_head 15 km · 2026-10-04</name>
    <author>
      <name>ShapeRoute route-engine</name>
    </author>
    <copyright author="OpenStreetMap contributors">
      <license>https://opendatacommons.org/licenses/odbl/1-0/</license>
    </copyright>
    <link href="https://www.openstreetmap.org/copyright">
      <text>© OpenStreetMap contributors</text>
    </link>
    <time>2026-10-04T16:56:36Z</time>
  </metadata>
  <wpt lat="46.0145657" lon="11.2985826">
    <name>Pause</name>
  </wpt>
  <wpt lat="46.0130588" lon="11.3019822">
    <name>Resume</name>
  </wpt>
  <wpt lat="46.0130588" lon="11.3019822">
    <name>Pause</name>
  </wpt>
  <wpt lat="46.0116123" lon="11.2977853">
    <name>Resume</name>
  </wpt>
  <trk>
    <name>rabbit_head 15 km · 2026-10-04</name>
    <trkseg>
      <trkpt lat="46.0145657" lon="11.2985826" />
      <trkpt lat="46.0146356" lon="11.2986752" />
      <trkpt lat="46.0146840" lon="11.2986430" />
      <trkpt lat="46.0147200" lon="11.2986038" />
      <trkpt lat="46.0147775" lon="11.2986185" />
      <trkpt lat="46.0144647" lon="11.2992432" />
      <trkpt lat="46.0147775" lon="11.2986185" />
      <trkpt lat="46.0150983" lon="11.2979778" />
      <trkpt lat="46.0151784" lon="11.2978177" />
      <trkpt lat="46.0153144" lon="11.2975461" />
      <trkpt lat="46.0155343" lon="11.2969473" />
      <trkpt lat="46.0155617" lon="11.2967634" />
      <trkpt lat="46.0158035" lon="11.2968203" />
      <trkpt lat="46.0159253" lon="11.2968559" />
      <trkpt lat="46.0163877" lon="11.2969577" />
      <trkpt lat="46.0165750" lon="11.2969819" />
      <trkpt lat="46.0166245" lon="11.2969918" />
      <trkpt lat="46.0168003" lon="11.2970142" />
      <trkpt lat="46.0169077" lon="11.2970181" />
      <trkpt lat="46.0170069" lon="11.2970027" />
      <trkpt lat="46.0171097" lon="11.2969616" />
      <trkpt lat="46.0172118" lon="11.2969045" />
      <trkpt lat="46.0172976" lon="11.2968324" />
      <trkpt lat="46.0173794" lon="11.2967420" />
      <trkpt lat="46.0174572" lon="11.2966266" />
      <trkpt lat="46.0175221" lon="11.2964985" />
      <trkpt lat="46.0175622" lon="11.2963864" />
      <trkpt lat="46.0176027" lon="11.2962317" />
      <trkpt lat="46.0176249" lon="11.2960966" />
      <trkpt lat="46.0176318" lon="11.2959793" />
      <trkpt lat="46.0176286" lon="11.2956881" />
      <trkpt lat="46.0176407" lon="11.2955777" />
      <trkpt lat="46.0176772" lon="11.2954732" />
      <trkpt lat="46.0177696" lon="11.2954227" />
      <trkpt lat="46.0178414" lon="11.2954379" />
      <trkpt lat="46.0178921" lon="11.2954790" />
      <trkpt lat="46.0179274" lon="11.2955489" />
      <trkpt lat="46.0180114" lon="11.2959467" />
      <trkpt lat="46.0182082" lon="11.2968926" />
      <trkpt lat="46.0182141" lon="11.2970149" />
      <trkpt lat="46.0182051" lon="11.2971507" />
      <trkpt lat="46.0181842" lon="11.2973144" />
      <trkpt lat="46.0181541" lon="11.2974720" />
      <trkpt lat="46.0181146" lon="11.2976118" />
      <trkpt lat="46.0180719" lon="11.2977251" />
      <trkpt lat="46.0179952" lon="11.2978773" />
      <trkpt lat="46.0179054" lon="11.2980103" />
      <trkpt lat="46.0177598" lon="11.2982008" />
      <trkpt lat="46.0174101" lon="11.2985660" />
      <trkpt lat="46.0172189" lon="11.2988241" />
      <trkpt lat="46.0170958" lon="11.2990856" />
      <trkpt lat="46.0169478" lon="11.2995977" />
      <trkpt lat="46.0169414" lon="11.2998931" />
      <trkpt lat="46.0170482" lon="11.3008359" />
      <trkpt lat="46.0170461" lon="11.3009812" />
      <trkpt lat="46.0170520" lon="11.3015792" />
      <trkpt lat="46.0170359" lon="11.3017269" />
      <trkpt lat="46.0169441" lon="11.3021369" />
      <trkpt lat="46.0167927" lon="11.3026196" />
      <trkpt lat="46.0170292" lon="11.3030996" />
      <trkpt lat="46.0169338" lon="11.3032080" />
      <trkpt lat="46.0168363" lon="11.3033181" />
      <trkpt lat="46.0167352" lon="11.3033805" />
      <trkpt lat="46.0167054" lon="11.3034663" />
      <trkpt lat="46.0165981" lon="11.3035436" />
      <trkpt lat="46.0164968" lon="11.3036036" />
      <trkpt lat="46.0164478" lon="11.3036153" />
      <trkpt lat="46.0163277" lon="11.3035821" />
      <trkpt lat="46.0162763" lon="11.3033833" />
      <trkpt lat="46.0163097" lon="11.3033545" />
      <trkpt lat="46.0162802" lon="11.3033173" />
      <trkpt lat="46.0162630" lon="11.3032955" />
      <trkpt lat="46.0162165" lon="11.3032687" />
      <trkpt lat="46.0160398" lon="11.3031618" />
      <trkpt lat="46.0158332" lon="11.3031276" />
      <trkpt lat="46.0157140" lon="11.3031534" />
      <trkpt lat="46.0155054" lon="11.3032306" />
      <trkpt lat="46.0153087" lon="11.3033422" />
      <trkpt lat="46.0150419" lon="11.3034274" />
      <trkpt lat="46.0149052" lon="11.3033735" />
      <trkpt lat="46.0146867" lon="11.3034741" />
      <trkpt lat="46.0147613" lon="11.3037166" />
      <trkpt lat="46.0148071" lon="11.3039585" />
      <trkpt lat="46.0148233" lon="11.3039722" />
      <trkpt lat="46.0148214" lon="11.3042111" />
      <trkpt lat="46.0148201" lon="11.3043045" />
      <trkpt lat="46.0147318" lon="11.3041906" />
      <trkpt lat="46.0146628" lon="11.3041178" />
      <trkpt lat="46.0144747" lon="11.3039626" />
      <trkpt lat="46.0144313" lon="11.3038947" />
      <trkpt lat="46.0143095" lon="11.3038059" />
      <trkpt lat="46.0141446" lon="11.3036802" />
      <trkpt lat="46.0139686" lon="11.3042444" />
      <trkpt lat="46.0139211" lon="11.3044210" />
      <trkpt lat="46.0136996" lon="11.3055082" />
      <trkpt lat="46.0136046" lon="11.3054330" />
      <trkpt lat="46.0134104" lon="11.3053479" />
      <trkpt lat="46.0130363" lon="11.3051489" />
      <trkpt lat="46.0127990" lon="11.3049468" />
      <trkpt lat="46.0127931" lon="11.3047943" />
      <trkpt lat="46.0127644" lon="11.3045046" />
      <trkpt lat="46.0127044" lon="11.3040536" />
      <trkpt lat="46.0126021" lon="11.3041601" />
      <trkpt lat="46.0123670" lon="11.3045484" />
      <trkpt lat="46.0122985" lon="11.3046550" />
      <trkpt lat="46.0122399" lon="11.3047086" />
      <trkpt lat="46.0122150" lon="11.3047684" />
      <trkpt lat="46.0121789" lon="11.3048653" />
      <trkpt lat="46.0121525" lon="11.3052186" />
      <trkpt lat="46.0121464" lon="11.3052965" />
      <trkpt lat="46.0121364" lon="11.3054437" />
      <trkpt lat="46.0120210" lon="11.3054505" />
      <trkpt lat="46.0119182" lon="11.3054963" />
      <trkpt lat="46.0118815" lon="11.3055227" />
      <trkpt lat="46.0118513" lon="11.3055427" />
      <trkpt lat="46.0118148" lon="11.3055680" />
      <trkpt lat="46.0117528" lon="11.3056460" />
      <trkpt lat="46.0115438" lon="11.3059589" />
      <trkpt lat="46.0114084" lon="11.3061038" />
      <trkpt lat="46.0113311" lon="11.3061571" />
      <trkpt lat="46.0112066" lon="11.3074709" />
      <trkpt lat="46.0111166" lon="11.3075756" />
      <trkpt lat="46.0110422" lon="11.3076673" />
      <trkpt lat="46.0109644" lon="11.3077709" />
      <trkpt lat="46.0109208" lon="11.3078354" />
      <trkpt lat="46.0108513" lon="11.3079084" />
      <trkpt lat="46.0107806" lon="11.3079584" />
      <trkpt lat="46.0106989" lon="11.3079891" />
      <trkpt lat="46.0106233" lon="11.3079786" />
      <trkpt lat="46.0104900" lon="11.3079707" />
      <trkpt lat="46.0104234" lon="11.3079874" />
      <trkpt lat="46.0103222" lon="11.3080439" />
      <trkpt lat="46.0102616" lon="11.3080781" />
      <trkpt lat="46.0101621" lon="11.3081594" />
      <trkpt lat="46.0100662" lon="11.3082708" />
      <trkpt lat="46.0098608" lon="11.3085065" />
      <trkpt lat="46.0096691" lon="11.3087628" />
      <trkpt lat="46.0096116" lon="11.3090176" />
      <trkpt lat="46.0097726" lon="11.3091191" />
      <trkpt lat="46.0098901" lon="11.3091985" />
      <trkpt lat="46.0100026" lon="11.3092278" />
      <trkpt lat="46.0101673" lon="11.3092081" />
      <trkpt lat="46.0103209" lon="11.3091646" />
      <trkpt lat="46.0103741" lon="11.3085116" />
      <trkpt lat="46.0104234" lon="11.3079874" />
      <trkpt lat="46.0105301" lon="11.3068092" />
      <trkpt lat="46.0105697" lon="11.3068093" />
      <trkpt lat="46.0106037" lon="11.3067951" />
      <trkpt lat="46.0108677" lon="11.3066271" />
      <trkpt lat="46.0110816" lon="11.3064492" />
      <trkpt lat="46.0111409" lon="11.3063598" />
      <trkpt lat="46.0112022" lon="11.3062769" />
      <trkpt lat="46.0113311" lon="11.3061571" />
      <trkpt lat="46.0113750" lon="11.3055987" />
      <trkpt lat="46.0114258" lon="11.3056108" />
      <trkpt lat="46.0114849" lon="11.3055945" />
      <trkpt lat="46.0115371" lon="11.3055262" />
      <trkpt lat="46.0115684" lon="11.3054490" />
      <trkpt lat="46.0116508" lon="11.3052644" />
      <trkpt lat="46.0117020" lon="11.3051613" />
      <trkpt lat="46.0118147" lon="11.3049397" />
      <trkpt lat="46.0118767" lon="11.3048065" />
      <trkpt lat="46.0119477" lon="11.3046725" />
      <trkpt lat="46.0119919" lon="11.3046366" />
      <trkpt lat="46.0120540" lon="11.3046312" />
      <trkpt lat="46.0121026" lon="11.3046545" />
      <trkpt lat="46.0121644" lon="11.3047010" />
      <trkpt lat="46.0122399" lon="11.3047086" />
      <trkpt lat="46.0122985" lon="11.3046550" />
      <trkpt lat="46.0123670" lon="11.3045484" />
      <trkpt lat="46.0126021" lon="11.3041601" />
      <trkpt lat="46.0127044" lon="11.3040536" />
      <trkpt lat="46.0127396" lon="11.3036685" />
      <trkpt lat="46.0127603" lon="11.3035217" />
      <trkpt lat="46.0127143" lon="11.3035197" />
      <trkpt lat="46.0125647" lon="11.3035184" />
      <trkpt lat="46.0124641" lon="11.3035155" />
      <trkpt lat="46.0123698" lon="11.3034913" />
      <trkpt lat="46.0122138" lon="11.3034024" />
      <trkpt lat="46.0120643" lon="11.3033270" />
      <trkpt lat="46.0120087" lon="11.3032976" />
      <trkpt lat="46.0119908" lon="11.3032882" />
      <trkpt lat="46.0119735" lon="11.3032791" />
      <trkpt lat="46.0118052" lon="11.3032175" />
      <trkpt lat="46.0117371" lon="11.3032074" />
      <trkpt lat="46.0117136" lon="11.3032249" />
      <trkpt lat="46.0116328" lon="11.3033272" />
      <trkpt lat="46.0115685" lon="11.3033874" />
      <trkpt lat="46.0113727" lon="11.3034152" />
      <trkpt lat="46.0112763" lon="11.3034178" />
      <trkpt lat="46.0110488" lon="11.3033779" />
      <trkpt lat="46.0110293" lon="11.3033696" />
      <trkpt lat="46.0107514" lon="11.3031831" />
      <trkpt lat="46.0106617" lon="11.3033547" />
      <trkpt lat="46.0105931" lon="11.3034706" />
      <trkpt lat="46.0101583" lon="11.3042096" />
      <trkpt lat="46.0101375" lon="11.3042450" />
      <trkpt lat="46.0100810" lon="11.3043519" />
      <trkpt lat="46.0100126" lon="11.3045602" />
      <trkpt lat="46.0097153" lon="11.3054658" />
      <trkpt lat="46.0096786" lon="11.3055774" />
      <trkpt lat="46.0096641" lon="11.3056852" />
      <trkpt lat="46.0095240" lon="11.3067264" />
      <trkpt lat="46.0095166" lon="11.3067814" />
      <trkpt lat="46.0094781" lon="11.3069639" />
      <trkpt lat="46.0093622" lon="11.3075134" />
      <trkpt lat="46.0092508" lon="11.3080413" />
      <trkpt lat="46.0091126" lon="11.3089637" />
      <trkpt lat="46.0090992" lon="11.3090419" />
      <trkpt lat="46.0090780" lon="11.3090909" />
      <trkpt lat="46.0090463" lon="11.3091177" />
      <trkpt lat="46.0089976" lon="11.3091176" />
      <trkpt lat="46.0089409" lon="11.3090544" />
      <trkpt lat="46.0088516" lon="11.3089000" />
      <trkpt lat="46.0088224" lon="11.3087871" />
      <trkpt lat="46.0088044" lon="11.3086422" />
      <trkpt lat="46.0088175" lon="11.3083890" />
      <trkpt lat="46.0088209" lon="11.3080963" />
      <trkpt lat="46.0088444" lon="11.3078784" />
      <trkpt lat="46.0088896" lon="11.3073866" />
      <trkpt lat="46.0082414" lon="11.3073453" />
      <trkpt lat="46.0083271" lon="11.3064780" />
      <trkpt lat="46.0082661" lon="11.3064320" />
      <trkpt lat="46.0079350" lon="11.3063275" />
      <trkpt lat="46.0076858" lon="11.3062259" />
      <trkpt lat="46.0073430" lon="11.3061002" />
      <trkpt lat="46.0074884" lon="11.3052053" />
      <trkpt lat="46.0071910" lon="11.3051534" />
      <trkpt lat="46.0067208" lon="11.3050712" />
      <trkpt lat="46.0066114" lon="11.3050095" />
      <trkpt lat="46.0065420" lon="11.3049351" />
      <trkpt lat="46.0065217" lon="11.3049002" />
      <trkpt lat="46.0064899" lon="11.3047936" />
      <trkpt lat="46.0063629" lon="11.3043361" />
      <trkpt lat="46.0063415" lon="11.3042747" />
      <trkpt lat="46.0063045" lon="11.3040481" />
      <trkpt lat="46.0062972" lon="11.3038449" />
      <trkpt lat="46.0063762" lon="11.3035226" />
      <trkpt lat="46.0063797" lon="11.3035108" />
      <trkpt lat="46.0064759" lon="11.3031605" />
      <trkpt lat="46.0065081" lon="11.3030335" />
      <trkpt lat="46.0066162" lon="11.3026200" />
      <trkpt lat="46.0067126" lon="11.3022732" />
      <trkpt lat="46.0067834" lon="11.3020980" />
      <trkpt lat="46.0068944" lon="11.3018899" />
      <trkpt lat="46.0070144" lon="11.3017272" />
      <trkpt lat="46.0070569" lon="11.3016486" />
      <trkpt lat="46.0070491" lon="11.3016431" />
      <trkpt lat="46.0070405" lon="11.3016340" />
      <trkpt lat="46.0070332" lon="11.3016226" />
      <trkpt lat="46.0070277" lon="11.3016094" />
      <trkpt lat="46.0070241" lon="11.3015950" />
      <trkpt lat="46.0070224" lon="11.3015798" />
      <trkpt lat="46.0070229" lon="11.3015644" />
      <trkpt lat="46.0070255" lon="11.3015494" />
      <trkpt lat="46.0070300" lon="11.3015355" />
      <trkpt lat="46.0070357" lon="11.3015240" />
      <trkpt lat="46.0070335" lon="11.3015234" />
      <trkpt lat="46.0069475" lon="11.3014781" />
      <trkpt lat="46.0067227" lon="11.3013157" />
      <trkpt lat="46.0062803" lon="11.3010351" />
      <trkpt lat="46.0062218" lon="11.3010002" />
      <trkpt lat="46.0061564" lon="11.3009611" />
      <trkpt lat="46.0061547" lon="11.3010629" />
      <trkpt lat="46.0059128" lon="11.3025278" />
      <trkpt lat="46.0061547" lon="11.3010629" />
      <trkpt lat="46.0061564" lon="11.3009611" />
      <trkpt lat="46.0062218" lon="11.3010002" />
      <trkpt lat="46.0062803" lon="11.3010351" />
      <trkpt lat="46.0067227" lon="11.3013157" />
      <trkpt lat="46.0069475" lon="11.3014781" />
      <trkpt lat="46.0070335" lon="11.3015234" />
      <trkpt lat="46.0070357" lon="11.3015240" />
      <trkpt lat="46.0070300" lon="11.3015355" />
      <trkpt lat="46.0070255" lon="11.3015494" />
      <trkpt lat="46.0070229" lon="11.3015644" />
      <trkpt lat="46.0070224" lon="11.3015798" />
      <trkpt lat="46.0070241" lon="11.3015950" />
      <trkpt lat="46.0070277" lon="11.3016094" />
      <trkpt lat="46.0070332" lon="11.3016226" />
      <trkpt lat="46.0070405" lon="11.3016340" />
      <trkpt lat="46.0070491" lon="11.3016431" />
      <trkpt lat="46.0070569" lon="11.3016486" />
      <trkpt lat="46.0070144" lon="11.3017272" />
      <trkpt lat="46.0068944" lon="11.3018899" />
      <trkpt lat="46.0067834" lon="11.3020980" />
      <trkpt lat="46.0067126" lon="11.3022732" />
      <trkpt lat="46.0066162" lon="11.3026200" />
      <trkpt lat="46.0065081" lon="11.3030335" />
      <trkpt lat="46.0066162" lon="11.3026200" />
      <trkpt lat="46.0067126" lon="11.3022732" />
      <trkpt lat="46.0067834" lon="11.3020980" />
      <trkpt lat="46.0068944" lon="11.3018899" />
      <trkpt lat="46.0070144" lon="11.3017272" />
      <trkpt lat="46.0070569" lon="11.3016486" />
      <trkpt lat="46.0070491" lon="11.3016431" />
      <trkpt lat="46.0070405" lon="11.3016340" />
      <trkpt lat="46.0070332" lon="11.3016226" />
      <trkpt lat="46.0070277" lon="11.3016094" />
      <trkpt lat="46.0070241" lon="11.3015950" />
      <trkpt lat="46.0070224" lon="11.3015798" />
      <trkpt lat="46.0070229" lon="11.3015644" />
      <trkpt lat="46.0070255" lon="11.3015494" />
      <trkpt lat="46.0070300" lon="11.3015355" />
      <trkpt lat="46.0070357" lon="11.3015240" />
      <trkpt lat="46.0070335" lon="11.3015234" />
      <trkpt lat="46.0069475" lon="11.3014781" />
      <trkpt lat="46.0067227" lon="11.3013157" />
      <trkpt lat="46.0062803" lon="11.3010351" />
      <trkpt lat="46.0062218" lon="11.3010002" />
      <trkpt lat="46.0061564" lon="11.3009611" />
      <trkpt lat="46.0059826" lon="11.3008654" />
      <trkpt lat="46.0059845" lon="11.3008341" />
      <trkpt lat="46.0059826" lon="11.3008654" />
      <trkpt lat="46.0061564" lon="11.3009611" />
      <trkpt lat="46.0062218" lon="11.3010002" />
      <trkpt lat="46.0062803" lon="11.3010351" />
      <trkpt lat="46.0067227" lon="11.3013157" />
      <trkpt lat="46.0069475" lon="11.3014781" />
      <trkpt lat="46.0070335" lon="11.3015234" />
      <trkpt lat="46.0070357" lon="11.3015240" />
      <trkpt lat="46.0070442" lon="11.3015127" />
      <trkpt lat="46.0070533" lon="11.3015047" />
      <trkpt lat="46.0070634" lon="11.3014994" />
      <trkpt lat="46.0070739" lon="11.3014971" />
      <trkpt lat="46.0070846" lon="11.3014978" />
      <trkpt lat="46.0070950" lon="11.3015015" />
      <trkpt lat="46.0071047" lon="11.3015080" />
      <trkpt lat="46.0071148" lon="11.3015190" />
      <trkpt lat="46.0071213" lon="11.3015131" />
      <trkpt lat="46.0071272" lon="11.3015076" />
      <trkpt lat="46.0072818" lon="11.3013815" />
      <trkpt lat="46.0078069" lon="11.3010941" />
      <trkpt lat="46.0080384" lon="11.3009880" />
      <trkpt lat="46.0079388" lon="11.3013912" />
      <trkpt lat="46.0079344" lon="11.3016165" />
      <trkpt lat="46.0079589" lon="11.3017630" />
      <trkpt lat="46.0079858" lon="11.3018595" />
      <trkpt lat="46.0080662" lon="11.3019871" />
      <trkpt lat="46.0080991" lon="11.3020391" />
      <trkpt lat="46.0082414" lon="11.3021044" />
      <trkpt lat="46.0085220" lon="11.3022333" />
      <trkpt lat="46.0087503" lon="11.3023826" />
      <trkpt lat="46.0093379" lon="11.3028040" />
      <trkpt lat="46.0094482" lon="11.3027916" />
      <trkpt lat="46.0095734" lon="11.3027502" />
      <trkpt lat="46.0099002" lon="11.3026136" />
      <trkpt lat="46.0099138" lon="11.3026079" />
      <trkpt lat="46.0099961" lon="11.3025243" />
      <trkpt lat="46.0100790" lon="11.3023999" />
      <trkpt lat="46.0101211" lon="11.3023020" />
      <trkpt lat="46.0101573" lon="11.3021876" />
      <trkpt lat="46.0102036" lon="11.3019969" />
      <trkpt lat="46.0102794" lon="11.3017012" />
      <trkpt lat="46.0104112" lon="11.3014153" />
      <trkpt lat="46.0101640" lon="11.3010780" />
      <trkpt lat="46.0100785" lon="11.3009629" />
      <trkpt lat="46.0100554" lon="11.3009318" />
      <trkpt lat="46.0099866" lon="11.3008330" />
      <trkpt lat="46.0099449" lon="11.3007687" />
      <trkpt lat="46.0099204" lon="11.3007309" />
      <trkpt lat="46.0099081" lon="11.3007120" />
      <trkpt lat="46.0097259" lon="11.3004099" />
      <trkpt lat="46.0096170" lon="11.3003095" />
      <trkpt lat="46.0095258" lon="11.3002254" />
      <trkpt lat="46.0092735" lon="11.3000264" />
      <trkpt lat="46.0089993" lon="11.2998204" />
      <trkpt lat="46.0088160" lon="11.3002149" />
      <trkpt lat="46.0086540" lon="11.3006161" />
      <trkpt lat="46.0085514" lon="11.3008740" />
      <trkpt lat="46.0085132" lon="11.3009526" />
      <trkpt lat="46.0084804" lon="11.3009856" />
      <trkpt lat="46.0084291" lon="11.3009951" />
      <trkpt lat="46.0083362" lon="11.3009589" />
      <trkpt lat="46.0082347" lon="11.3009432" />
      <trkpt lat="46.0081156" lon="11.3009486" />
      <trkpt lat="46.0080981" lon="11.3009575" />
      <trkpt lat="46.0080384" lon="11.3009880" />
      <trkpt lat="46.0078069" lon="11.3010941" />
      <trkpt lat="46.0072818" lon="11.3013815" />
      <trkpt lat="46.0071272" lon="11.3015076" />
      <trkpt lat="46.0071213" lon="11.3015131" />
      <trkpt lat="46.0071148" lon="11.3015190" />
      <trkpt lat="46.0071047" lon="11.3015080" />
      <trkpt lat="46.0070950" lon="11.3015015" />
      <trkpt lat="46.0070846" lon="11.3014978" />
      <trkpt lat="46.0070739" lon="11.3014971" />
      <trkpt lat="46.0070634" lon="11.3014994" />
      <trkpt lat="46.0070533" lon="11.3015047" />
      <trkpt lat="46.0070442" lon="11.3015127" />
      <trkpt lat="46.0070357" lon="11.3015240" />
      <trkpt lat="46.0070335" lon="11.3015234" />
      <trkpt lat="46.0069475" lon="11.3014781" />
      <trkpt lat="46.0067227" lon="11.3013157" />
      <trkpt lat="46.0062803" lon="11.3010351" />
      <trkpt lat="46.0062218" lon="11.3010002" />
      <trkpt lat="46.0061564" lon="11.3009611" />
      <trkpt lat="46.0061547" lon="11.3010629" />
      <trkpt lat="46.0059128" lon="11.3025278" />
      <trkpt lat="46.0061547" lon="11.3010629" />
      <trkpt lat="46.0061564" lon="11.3009611" />
      <trkpt lat="46.0059826" lon="11.3008654" />
      <trkpt lat="46.0059845" lon="11.3008341" />
      <trkpt lat="46.0061622" lon="11.3009274" />
      <trkpt lat="46.0062218" lon="11.3010002" />
      <trkpt lat="46.0062803" lon="11.3010351" />
      <trkpt lat="46.0067227" lon="11.3013157" />
      <trkpt lat="46.0069475" lon="11.3014781" />
      <trkpt lat="46.0070335" lon="11.3015234" />
      <trkpt lat="46.0070357" lon="11.3015240" />
      <trkpt lat="46.0070442" lon="11.3015127" />
      <trkpt lat="46.0070533" lon="11.3015047" />
      <trkpt lat="46.0070634" lon="11.3014994" />
      <trkpt lat="46.0070739" lon="11.3014971" />
      <trkpt lat="46.0070846" lon="11.3014978" />
      <trkpt lat="46.0070950" lon="11.3015015" />
      <trkpt lat="46.0071047" lon="11.3015080" />
      <trkpt lat="46.0071148" lon="11.3015190" />
      <trkpt lat="46.0071381" lon="11.3014736" />
      <trkpt lat="46.0072785" lon="11.3013637" />
      <trkpt lat="46.0072923" lon="11.3013556" />
      <trkpt lat="46.0077161" lon="11.3011122" />
      <trkpt lat="46.0078777" lon="11.3010371" />
      <trkpt lat="46.0080566" lon="11.3009546" />
      <trkpt lat="46.0080591" lon="11.3009543" />
      <trkpt lat="46.0081156" lon="11.3009486" />
      <trkpt lat="46.0081833" lon="11.3007954" />
      <trkpt lat="46.0083690" lon="11.3003535" />
      <trkpt lat="46.0085907" lon="11.2997702" />
      <trkpt lat="46.0086613" lon="11.2996130" />
      <trkpt lat="46.0083716" lon="11.2994631" />
      <trkpt lat="46.0087983" lon="11.2984184" />
      <trkpt lat="46.0086230" lon="11.2982644" />
      <trkpt lat="46.0089354" lon="11.2976279" />
      <trkpt lat="46.0089850" lon="11.2975267" />
      <trkpt lat="46.0088589" lon="11.2970393" />
      <trkpt lat="46.0087115" lon="11.2964700" />
      <trkpt lat="46.0086007" lon="11.2960421" />
      <trkpt lat="46.0085345" lon="11.2957863" />
      <trkpt lat="46.0085087" lon="11.2956866" />
      <trkpt lat="46.0084033" lon="11.2952909" />
      <trkpt lat="46.0083832" lon="11.2952157" />
      <trkpt lat="46.0082944" lon="11.2949620" />
      <trkpt lat="46.0082324" lon="11.2947849" />
      <trkpt lat="46.0079673" lon="11.2940833" />
      <trkpt lat="46.0078100" lon="11.2937086" />
      <trkpt lat="46.0075917" lon="11.2932997" />
      <trkpt lat="46.0075779" lon="11.2932774" />
      <trkpt lat="46.0075285" lon="11.2931979" />
      <trkpt lat="46.0074960" lon="11.2932546" />
      <trkpt lat="46.0074320" lon="11.2931812" />
      <trkpt lat="46.0073492" lon="11.2931457" />
      <trkpt lat="46.0073728" lon="11.2930947" />
      <trkpt lat="46.0074144" lon="11.2931202" />
      <trkpt lat="46.0074595" lon="11.2931252" />
      <trkpt lat="46.0075033" lon="11.2931094" />
      <trkpt lat="46.0075365" lon="11.2930804" />
      <trkpt lat="46.0075628" lon="11.2930394" />
      <trkpt lat="46.0075804" lon="11.2929896" />
      <trkpt lat="46.0076801" lon="11.2930443" />
      <trkpt lat="46.0078961" lon="11.2931425" />
      <trkpt lat="46.0081086" lon="11.2932391" />
      <trkpt lat="46.0082721" lon="11.2933149" />
      <trkpt lat="46.0084383" lon="11.2934159" />
      <trkpt lat="46.0086200" lon="11.2935258" />
      <trkpt lat="46.0086759" lon="11.2935596" />
      <trkpt lat="46.0088694" lon="11.2936467" />
      <trkpt lat="46.0089680" lon="11.2936565" />
      <trkpt lat="46.0090661" lon="11.2936744" />
      <trkpt lat="46.0098088" lon="11.2938097" />
      <trkpt lat="46.0102700" lon="11.2938982" />
      <trkpt lat="46.0104720" lon="11.2939495" />
      <trkpt lat="46.0106885" lon="11.2940373" />
      <trkpt lat="46.0107151" lon="11.2940549" />
      <trkpt lat="46.0107529" lon="11.2940801" />
      <trkpt lat="46.0108907" lon="11.2941611" />
      <trkpt lat="46.0111727" lon="11.2943826" />
      <trkpt lat="46.0112310" lon="11.2944284" />
      <trkpt lat="46.0116754" lon="11.2952125" />
      <trkpt lat="46.0117011" lon="11.2951731" />
      <trkpt lat="46.0117049" lon="11.2951673" />
      <trkpt lat="46.0117646" lon="11.2950807" />
      <trkpt lat="46.0118000" lon="11.2950276" />
      <trkpt lat="46.0118242" lon="11.2949915" />
      <trkpt lat="46.0118463" lon="11.2949585" />
      <trkpt lat="46.0119240" lon="11.2949537" />
      <trkpt lat="46.0119840" lon="11.2950076" />
      <trkpt lat="46.0125068" lon="11.2944506" />
      <trkpt lat="46.0119840" lon="11.2950076" />
      <trkpt lat="46.0119240" lon="11.2949537" />
      <trkpt lat="46.0118463" lon="11.2949585" />
      <trkpt lat="46.0117996" lon="11.2948382" />
      <trkpt lat="46.0121425" lon="11.2943986" />
      <trkpt lat="46.0125329" lon="11.2939461" />
      <trkpt lat="46.0129133" lon="11.2936275" />
      <trkpt lat="46.0131754" lon="11.2935322" />
      <trkpt lat="46.0132165" lon="11.2935172" />
      <trkpt lat="46.0139921" lon="11.2933736" />
      <trkpt lat="46.0140896" lon="11.2933702" />
      <trkpt lat="46.0141552" lon="11.2932415" />
      <trkpt lat="46.0143101" lon="11.2930012" />
      <trkpt lat="46.0144265" lon="11.2927022" />
      <trkpt lat="46.0145784" lon="11.2923231" />
      <trkpt lat="46.0147036" lon="11.2921944" />
      <trkpt lat="46.0150076" lon="11.2919050" />
      <trkpt lat="46.0150509" lon="11.2920681" />
      <trkpt lat="46.0151925" lon="11.2923573" />
      <trkpt lat="46.0152555" lon="11.2924861" />
      <trkpt lat="46.0153284" lon="11.2926093" />
      <trkpt lat="46.0154225" lon="11.2927684" />
      <trkpt lat="46.0154946" lon="11.2928902" />
      <trkpt lat="46.0156203" lon="11.2931027" />
      <trkpt lat="46.0158371" lon="11.2934691" />
      <trkpt lat="46.0161019" lon="11.2939130" />
      <trkpt lat="46.0162323" lon="11.2941864" />
      <trkpt lat="46.0163044" lon="11.2945247" />
      <trkpt lat="46.0163501" lon="11.2946240" />
      <trkpt lat="46.0164485" lon="11.2947194" />
      <trkpt lat="46.0165815" lon="11.2945784" />
      <trkpt lat="46.0166634" lon="11.2943853" />
      <trkpt lat="46.0166774" lon="11.2943284" />
      <trkpt lat="46.0167454" lon="11.2940527" />
      <trkpt lat="46.0167450" lon="11.2936566" />
      <trkpt lat="46.0167173" lon="11.2934673" />
      <trkpt lat="46.0166521" lon="11.2930221" />
      <trkpt lat="46.0165943" lon="11.2926445" />
      <trkpt lat="46.0166270" lon="11.2925817" />
      <trkpt lat="46.0166311" lon="11.2925627" />
      <trkpt lat="46.0166368" lon="11.2924727" />
      <trkpt lat="46.0166295" lon="11.2921484" />
      <trkpt lat="46.0166496" lon="11.2916436" />
      <trkpt lat="46.0167088" lon="11.2913240" />
      <trkpt lat="46.0168501" lon="11.2910206" />
      <trkpt lat="46.0172765" lon="11.2903975" />
      <trkpt lat="46.0176322" lon="11.2898739" />
      <trkpt lat="46.0177777" lon="11.2897505" />
      <trkpt lat="46.0178227" lon="11.2897334" />
      <trkpt lat="46.0179645" lon="11.2897034" />
      <trkpt lat="46.0181041" lon="11.2897191" />
      <trkpt lat="46.0181945" lon="11.2898624" />
      <trkpt lat="46.0182657" lon="11.2903066" />
      <trkpt lat="46.0181158" lon="11.2913897" />
      <trkpt lat="46.0180974" lon="11.2915761" />
      <trkpt lat="46.0181028" lon="11.2920184" />
      <trkpt lat="46.0180244" lon="11.2922908" />
      <trkpt lat="46.0180112" lon="11.2923515" />
      <trkpt lat="46.0179695" lon="11.2924714" />
      <trkpt lat="46.0178524" lon="11.2927823" />
      <trkpt lat="46.0176519" lon="11.2933103" />
      <trkpt lat="46.0175692" lon="11.2934869" />
      <trkpt lat="46.0174817" lon="11.2936170" />
      <trkpt lat="46.0173871" lon="11.2937052" />
      <trkpt lat="46.0173430" lon="11.2937574" />
      <trkpt lat="46.0172495" lon="11.2938798" />
      <trkpt lat="46.0170422" lon="11.2943575" />
      <trkpt lat="46.0169304" lon="11.2945945" />
      <trkpt lat="46.0168312" lon="11.2947578" />
      <trkpt lat="46.0167238" lon="11.2949244" />
      <trkpt lat="46.0165988" lon="11.2951123" />
      <trkpt lat="46.0163360" lon="11.2953323" />
      <trkpt lat="46.0161067" lon="11.2955120" />
      <trkpt lat="46.0157332" lon="11.2958155" />
      <trkpt lat="46.0152410" lon="11.2962611" />
      <trkpt lat="46.0147829" lon="11.2966885" />
      <trkpt lat="46.0144941" lon="11.2967329" />
      <trkpt lat="46.0143698" lon="11.2967863" />
      <trkpt lat="46.0141489" lon="11.2968261" />
      <trkpt lat="46.0140812" lon="11.2968272" />
      <trkpt lat="46.0140627" lon="11.2968161" />
      <trkpt lat="46.0140508" lon="11.2967979" />
      <trkpt lat="46.0139217" lon="11.2968977" />
      <trkpt lat="46.0140565" lon="11.2970602" />
      <trkpt lat="46.0141194" lon="11.2972125" />
      <trkpt lat="46.0141775" lon="11.2973351" />
      <trkpt lat="46.0141187" lon="11.2973459" />
      <trkpt lat="46.0140662" lon="11.2973583" />
      <trkpt lat="46.0140364" lon="11.2974192" />
      <trkpt lat="46.0139456" lon="11.2975985" />
      <trkpt lat="46.0137415" lon="11.2975623" />
      <trkpt lat="46.0137279" lon="11.2977886" />
      <trkpt lat="46.0137421" lon="11.2980122" />
      <trkpt lat="46.0137274" lon="11.2981551" />
      <trkpt lat="46.0136746" lon="11.2981500" />
      <trkpt lat="46.0136470" lon="11.2981837" />
      <trkpt lat="46.0139231" lon="11.2985434" />
      <trkpt lat="46.0141584" lon="11.2988474" />
      <trkpt lat="46.0141849" lon="11.2988817" />
      <trkpt lat="46.0144647" lon="11.2992432" />
      <trkpt lat="46.0143419" lon="11.2994850" />
      <trkpt lat="46.0143116" lon="11.2995475" />
      <trkpt lat="46.0144803" lon="11.2997321" />
      <trkpt lat="46.0146982" lon="11.3000057" />
      <trkpt lat="46.0150596" lon="11.3004563" />
      <trkpt lat="46.0151833" lon="11.3006314" />
      <trkpt lat="46.0154172" lon="11.3009633" />
      <trkpt lat="46.0156351" lon="11.3013334" />
      <trkpt lat="46.0158363" lon="11.3017116" />
      <trkpt lat="46.0159630" lon="11.3020147" />
      <trkpt lat="46.0160393" lon="11.3022480" />
      <trkpt lat="46.0161120" lon="11.3025324" />
      <trkpt lat="46.0161921" lon="11.3028596" />
      <trkpt lat="46.0162536" lon="11.3031305" />
      <trkpt lat="46.0163097" lon="11.3033545" />
      <trkpt lat="46.0162763" lon="11.3033833" />
      <trkpt lat="46.0163277" lon="11.3035821" />
      <trkpt lat="46.0164478" lon="11.3036153" />
      <trkpt lat="46.0164968" lon="11.3036036" />
      <trkpt lat="46.0165981" lon="11.3035436" />
      <trkpt lat="46.0167054" lon="11.3034663" />
      <trkpt lat="46.0167352" lon="11.3033805" />
      <trkpt lat="46.0168363" lon="11.3033181" />
      <trkpt lat="46.0169338" lon="11.3032080" />
      <trkpt lat="46.0170292" lon="11.3030996" />
      <trkpt lat="46.0167927" lon="11.3026196" />
      <trkpt lat="46.0166719" lon="11.3023249" />
      <trkpt lat="46.0166319" lon="11.3021868" />
      <trkpt lat="46.0166736" lon="11.3019590" />
      <trkpt lat="46.0167136" lon="11.3017241" />
      <trkpt lat="46.0168036" lon="11.3014512" />
      <trkpt lat="46.0168268" lon="11.3013808" />
      <trkpt lat="46.0168864" lon="11.3012349" />
      <trkpt lat="46.0168507" lon="11.3010289" />
      <trkpt lat="46.0167848" lon="11.3008219" />
      <trkpt lat="46.0167475" lon="11.3007453" />
      <trkpt lat="46.0166596" lon="11.3005644" />
      <trkpt lat="46.0165426" lon="11.3003874" />
      <trkpt lat="46.0163497" lon="11.3000924" />
      <trkpt lat="46.0162066" lon="11.2999207" />
      <trkpt lat="46.0160338" lon="11.2998263" />
      <trkpt lat="46.0157648" lon="11.2997010" />
      <trkpt lat="46.0156523" lon="11.2995860" />
      <trkpt lat="46.0155092" lon="11.2994658" />
      <trkpt lat="46.0153721" lon="11.2994057" />
      <trkpt lat="46.0152529" lon="11.2994057" />
      <trkpt lat="46.0151116" lon="11.2994017" />
      <trkpt lat="46.0149522" lon="11.2994952" />
      <trkpt lat="46.0147999" lon="11.2995516" />
      <trkpt lat="46.0146771" lon="11.2995241" />
      <trkpt lat="46.0145811" lon="11.2994220" />
      <trkpt lat="46.0145138" lon="11.2993285" />
      <trkpt lat="46.0144647" lon="11.2992432" />
      <trkpt lat="46.0147775" lon="11.2986185" />
      <trkpt lat="46.0150983" lon="11.2979778" />
      <trkpt lat="46.0151784" lon="11.2978177" />
      <trkpt lat="46.0153144" lon="11.2975461" />
      <trkpt lat="46.0155343" lon="11.2969473" />
      <trkpt lat="46.0155617" lon="11.2967634" />
      <trkpt lat="46.0151964" lon="11.2967112" />
      <trkpt lat="46.0149241" lon="11.2966919" />
      <trkpt lat="46.0147829" lon="11.2966885" />
      <trkpt lat="46.0144941" lon="11.2967329" />
      <trkpt lat="46.0143698" lon="11.2967863" />
      <trkpt lat="46.0141489" lon="11.2968261" />
      <trkpt lat="46.0140812" lon="11.2968272" />
      <trkpt lat="46.0140627" lon="11.2968161" />
      <trkpt lat="46.0140508" lon="11.2967979" />
      <trkpt lat="46.0139217" lon="11.2968977" />
      <trkpt lat="46.0138620" lon="11.2969480" />
      <trkpt lat="46.0136995" lon="11.2970791" />
      <trkpt lat="46.0136602" lon="11.2971080" />
      <trkpt lat="46.0133097" lon="11.2974064" />
      <trkpt lat="46.0132414" lon="11.2974829" />
      <trkpt lat="46.0131919" lon="11.2975460" />
      <trkpt lat="46.0132320" lon="11.2976177" />
      <trkpt lat="46.0133454" lon="11.2977970" />
      <trkpt lat="46.0134865" lon="11.2979792" />
      <trkpt lat="46.0136470" lon="11.2981837" />
      <trkpt lat="46.0139231" lon="11.2985434" />
      <trkpt lat="46.0141584" lon="11.2988474" />
      <trkpt lat="46.0141849" lon="11.2988817" />
      <trkpt lat="46.0142859" lon="11.2987840" />
      <trkpt lat="46.0145020" lon="11.2986284" />
      <trkpt lat="46.0145657" lon="11.2985826" />
      <trkpt lat="46.0146356" lon="11.2986752" />
      <trkpt lat="46.0146840" lon="11.2986430" />
      <trkpt lat="46.0147200" lon="11.2986038" />
      <trkpt lat="46.0147775" lon="11.2986185" />
      <trkpt lat="46.0144647" lon="11.2992432" />
      <trkpt lat="46.0143419" lon="11.2994850" />
      <trkpt lat="46.0143116" lon="11.2995475" />
      <trkpt lat="46.0139448" lon="11.3002023" />
      <trkpt lat="46.0136191" lon="11.3007836" />
      <trkpt lat="46.0134381" lon="11.3011068" />
      <trkpt lat="46.0131872" lon="11.3015350" />
      <trkpt lat="46.0130588" lon="11.3019822" />
      <trkpt lat="46.0129158" lon="11.3025677" />
      <trkpt lat="46.0128501" lon="11.3028052" />
      <trkpt lat="46.0128080" lon="11.3031323" />
      <trkpt lat="46.0127785" lon="11.3033938" />
      <trkpt lat="46.0127603" lon="11.3035217" />
      <trkpt lat="46.0127396" lon="11.3036685" />
      <trkpt lat="46.0127044" lon="11.3040536" />
      <trkpt lat="46.0126021" lon="11.3041601" />
      <trkpt lat="46.0123670" lon="11.3045484" />
      <trkpt lat="46.0122985" lon="11.3046550" />
      <trkpt lat="46.0122399" lon="11.3047086" />
      <trkpt lat="46.0121644" lon="11.3047010" />
      <trkpt lat="46.0121026" lon="11.3046545" />
      <trkpt lat="46.0120540" lon="11.3046312" />
      <trkpt lat="46.0119919" lon="11.3046366" />
      <trkpt lat="46.0119477" lon="11.3046725" />
      <trkpt lat="46.0118767" lon="11.3048065" />
      <trkpt lat="46.0118147" lon="11.3049397" />
      <trkpt lat="46.0117020" lon="11.3051613" />
      <trkpt lat="46.0117353" lon="11.3052622" />
      <trkpt lat="46.0117819" lon="11.3053851" />
      <trkpt lat="46.0118513" lon="11.3055427" />
      <trkpt lat="46.0118815" lon="11.3055227" />
      <trkpt lat="46.0119182" lon="11.3054963" />
      <trkpt lat="46.0120210" lon="11.3054505" />
      <trkpt lat="46.0121364" lon="11.3054437" />
      <trkpt lat="46.0121464" lon="11.3052965" />
      <trkpt lat="46.0121525" lon="11.3052186" />
      <trkpt lat="46.0121789" lon="11.3048653" />
      <trkpt lat="46.0122150" lon="11.3047684" />
      <trkpt lat="46.0122399" lon="11.3047086" />
      <trkpt lat="46.0122985" lon="11.3046550" />
      <trkpt lat="46.0123670" lon="11.3045484" />
      <trkpt lat="46.0126021" lon="11.3041601" />
      <trkpt lat="46.0127044" lon="11.3040536" />
      <trkpt lat="46.0127396" lon="11.3036685" />
      <trkpt lat="46.0127603" lon="11.3035217" />
      <trkpt lat="46.0127785" lon="11.3033938" />
      <trkpt lat="46.0126938" lon="11.3033373" />
      <trkpt lat="46.0125542" lon="11.3032472" />
      <trkpt lat="46.0124206" lon="11.3031691" />
      <trkpt lat="46.0123544" lon="11.3031279" />
      <trkpt lat="46.0121903" lon="11.3031071" />
      <trkpt lat="46.0121321" lon="11.3030905" />
      <trkpt lat="46.0120576" lon="11.3030517" />
      <trkpt lat="46.0120175" lon="11.3030194" />
      <trkpt lat="46.0118040" lon="11.3028461" />
      <trkpt lat="46.0117195" lon="11.3027829" />
      <trkpt lat="46.0115724" lon="11.3026949" />
      <trkpt lat="46.0113093" lon="11.3025375" />
      <trkpt lat="46.0111961" lon="11.3024347" />
      <trkpt lat="46.0112494" lon="11.3023706" />
      <trkpt lat="46.0113220" lon="11.3022145" />
      <trkpt lat="46.0113673" lon="11.3021042" />
      <trkpt lat="46.0114407" lon="11.3019130" />
      <trkpt lat="46.0115298" lon="11.3016640" />
      <trkpt lat="46.0115591" lon="11.3016887" />
      <trkpt lat="46.0117545" lon="11.3018306" />
      <trkpt lat="46.0118276" lon="11.3011804" />
      <trkpt lat="46.0118514" lon="11.3011197" />
      <trkpt lat="46.0118598" lon="11.3011056" />
      <trkpt lat="46.0118747" lon="11.3010806" />
      <trkpt lat="46.0119028" lon="11.3010497" />
      <trkpt lat="46.0119307" lon="11.3010390" />
      <trkpt lat="46.0120169" lon="11.3010306" />
      <trkpt lat="46.0120772" lon="11.3011040" />
      <trkpt lat="46.0121159" lon="11.3011788" />
      <trkpt lat="46.0122465" lon="11.3013586" />
      <trkpt lat="46.0122740" lon="11.3014141" />
      <trkpt lat="46.0124475" lon="11.3015655" />
      <trkpt lat="46.0126992" lon="11.3017516" />
      <trkpt lat="46.0130588" lon="11.3019822" />
      <trkpt lat="46.0126992" lon="11.3017516" />
      <trkpt lat="46.0124475" lon="11.3015655" />
      <trkpt lat="46.0122740" lon="11.3014141" />
      <trkpt lat="46.0122465" lon="11.3013586" />
      <trkpt lat="46.0121159" lon="11.3011788" />
      <trkpt lat="46.0120772" lon="11.3011040" />
      <trkpt lat="46.0120169" lon="11.3010306" />
      <trkpt lat="46.0119443" lon="11.3009640" />
      <trkpt lat="46.0118496" lon="11.3009037" />
      <trkpt lat="46.0118055" lon="11.3008842" />
      <trkpt lat="46.0116630" lon="11.3009231" />
      <trkpt lat="46.0115915" lon="11.3009636" />
      <trkpt lat="46.0115785" lon="11.3010636" />
      <trkpt lat="46.0115191" lon="11.3009521" />
      <trkpt lat="46.0114434" lon="11.3007649" />
      <trkpt lat="46.0113854" lon="11.3006619" />
      <trkpt lat="46.0113758" lon="11.3005772" />
      <trkpt lat="46.0113555" lon="11.3004664" />
      <trkpt lat="46.0112962" lon="11.3002246" />
      <trkpt lat="46.0116723" lon="11.2996863" />
      <trkpt lat="46.0118498" lon="11.2994411" />
      <trkpt lat="46.0118373" lon="11.2994164" />
      <trkpt lat="46.0117397" lon="11.2992656" />
      <trkpt lat="46.0115130" lon="11.2989377" />
      <trkpt lat="46.0114073" lon="11.2988065" />
      <trkpt lat="46.0113012" lon="11.2986379" />
      <trkpt lat="46.0111941" lon="11.2984770" />
      <trkpt lat="46.0115587" lon="11.2979934" />
      <trkpt lat="46.0115764" lon="11.2979707" />
      <trkpt lat="46.0116123" lon="11.2977853" />
      <trkpt lat="46.0116484" lon="11.2977478" />
      <trkpt lat="46.0117244" lon="11.2976832" />
      <trkpt lat="46.0116886" lon="11.2976218" />
      <trkpt lat="46.0115521" lon="11.2973954" />
      <trkpt lat="46.0115313" lon="11.2973384" />
      <trkpt lat="46.0115322" lon="11.2972718" />
      <trkpt lat="46.0115821" lon="11.2971936" />
      <trkpt lat="46.0117613" lon="11.2969557" />
      <trkpt lat="46.0118075" lon="11.2968904" />
      <trkpt lat="46.0118474" lon="11.2968385" />
      <trkpt lat="46.0119490" lon="11.2968157" />
      <trkpt lat="46.0120889" lon="11.2967972" />
      <trkpt lat="46.0121944" lon="11.2967657" />
      <trkpt lat="46.0122737" lon="11.2966867" />
      <trkpt lat="46.0123506" lon="11.2965892" />
      <trkpt lat="46.0122597" lon="11.2963978" />
      <trkpt lat="46.0116754" lon="11.2952125" />
      <trkpt lat="46.0112310" lon="11.2944284" />
      <trkpt lat="46.0111727" lon="11.2943826" />
      <trkpt lat="46.0108907" lon="11.2941611" />
      <trkpt lat="46.0107529" lon="11.2940801" />
      <trkpt lat="46.0107151" lon="11.2940549" />
      <trkpt lat="46.0106885" lon="11.2940373" />
      <trkpt lat="46.0104720" lon="11.2939495" />
      <trkpt lat="46.0102700" lon="11.2938982" />
      <trkpt lat="46.0098088" lon="11.2938097" />
      <trkpt lat="46.0090661" lon="11.2936744" />
      <trkpt lat="46.0089680" lon="11.2936565" />
      <trkpt lat="46.0089737" lon="11.2937248" />
      <trkpt lat="46.0090031" lon="11.2937964" />
      <trkpt lat="46.0091364" lon="11.2939444" />
      <trkpt lat="46.0091637" lon="11.2939748" />
      <trkpt lat="46.0093406" lon="11.2941340" />
      <trkpt lat="46.0095860" lon="11.2944225" />
      <trkpt lat="46.0096077" lon="11.2944514" />
      <trkpt lat="46.0098606" lon="11.2948293" />
      <trkpt lat="46.0099173" lon="11.2949136" />
      <trkpt lat="46.0099498" lon="11.2949615" />
      <trkpt lat="46.0101526" lon="11.2952325" />
      <trkpt lat="46.0102519" lon="11.2953652" />
      <trkpt lat="46.0102901" lon="11.2954163" />
      <trkpt lat="46.0103318" lon="11.2954721" />
      <trkpt lat="46.0105090" lon="11.2957082" />
      <trkpt lat="46.0105204" lon="11.2957234" />
      <trkpt lat="46.0104566" lon="11.2958391" />
      <trkpt lat="46.0102281" lon="11.2962543" />
      <trkpt lat="46.0101356" lon="11.2961689" />
      <trkpt lat="46.0100583" lon="11.2960911" />
      <trkpt lat="46.0099884" lon="11.2961112" />
      <trkpt lat="46.0099288" lon="11.2962024" />
      <trkpt lat="46.0096697" lon="11.2965853" />
      <trkpt lat="46.0093990" lon="11.2962716" />
      <trkpt lat="46.0093666" lon="11.2962829" />
      <trkpt lat="46.0092428" lon="11.2965144" />
      <trkpt lat="46.0093778" lon="11.2968502" />
      <trkpt lat="46.0095239" lon="11.2971002" />
      <trkpt lat="46.0096919" lon="11.2974025" />
      <trkpt lat="46.0099901" lon="11.2978608" />
      <trkpt lat="46.0100622" lon="11.2980408" />
      <trkpt lat="46.0100973" lon="11.2981290" />
      <trkpt lat="46.0101204" lon="11.2982296" />
      <trkpt lat="46.0101622" lon="11.2983686" />
      <trkpt lat="46.0101955" lon="11.2983987" />
      <trkpt lat="46.0102422" lon="11.2983790" />
      <trkpt lat="46.0102411" lon="11.2984343" />
      <trkpt lat="46.0102101" lon="11.2985252" />
      <trkpt lat="46.0102399" lon="11.2985256" />
      <trkpt lat="46.0102681" lon="11.2985392" />
      <trkpt lat="46.0102920" lon="11.2985647" />
      <trkpt lat="46.0102995" lon="11.2985799" />
      <trkpt lat="46.0103691" lon="11.2984793" />
      <trkpt lat="46.0104499" lon="11.2983154" />
      <trkpt lat="46.0105560" lon="11.2981004" />
      <trkpt lat="46.0106159" lon="11.2979879" />
      <trkpt lat="46.0107801" lon="11.2977017" />
      <trkpt lat="46.0109630" lon="11.2974406" />
      <trkpt lat="46.0111443" lon="11.2971898" />
      <trkpt lat="46.0112181" lon="11.2971112" />
      <trkpt lat="46.0116123" lon="11.2977853" />
    </trkseg>
  </trk>
</gpx>
