<?xml version="1.0" encoding="UTF-8"?>
<gpx xmlns="http://www.topografix.com/GPX/1/1" version="1.1" creator="ShapeRoute route-engine">
  <metadata>
    <name>horse 10 km · 2026-09-23</name>
    <author>
      <name>ShapeRoute route-engine</name>
    </author>
    <copyright author="OpenStreetMap contributors">
      <license>https://opendatacommons.org/licenses/odbl/1-0/</license>
    </copyright>
    <link href="https://www.openstreetmap.org/copyright">
      <text>© OpenStreetMap contributors</text>
    </link>
    <time>2026-09-23T22:57:53Z</time>
  </metadata>
  <trk>
    <name>horse 10 km · 2026-09-23</name>
    <trkseg>
      <trkpt lat="46.0668711" lon="11.1210492" />
      <trkpt lat="46.0668249" lon="11.1206182" />
      <trkpt lat="46.0667816" lon="11.1201952" />
      <trkpt lat="46.0667099" lon="11.1201551" />
      <trkpt lat="46.0666578" lon="11.1196518" />
      <trkpt lat="46.0666065" lon="11.1191557" />
      <trkpt lat="46.0665858" lon="11.1191592" />
      <trkpt lat="46.0661009" lon="11.1192643" />
      <trkpt lat="46.0660727" lon="11.1192704" />
      <trkpt lat="46.0660439" lon="11.1192766" />
      <trkpt lat="46.0659594" lon="11.1192947" />
      <trkpt lat="46.0659053" lon="11.1192886" />
      <trkpt lat="46.0658652" lon="11.1192840" />
      <trkpt lat="46.0653328" lon="11.1193958" />
      <trkpt lat="46.0653255" lon="11.1193045" />
      <trkpt lat="46.0653169" lon="11.1192084" />
      <trkpt lat="46.0652869" lon="11.1191976" />
      <trkpt lat="46.0652385" lon="11.1192116" />
      <trkpt lat="46.0652034" lon="11.1192260" />
      <trkpt lat="46.0651907" lon="11.1192425" />
      <trkpt lat="46.0649945" lon="11.1192726" />
      <trkpt lat="46.0649924" lon="11.1192729" />
      <trkpt lat="46.0649545" lon="11.1192807" />
      <trkpt lat="46.0649181" lon="11.1192900" />
      <trkpt lat="46.0648990" lon="11.1192948" />
      <trkpt lat="46.0644326" lon="11.1194103" />
      <trkpt lat="46.0639015" lon="11.1195174" />
      <trkpt lat="46.0638679" lon="11.1195140" />
      <trkpt lat="46.0638476" lon="11.1195040" />
      <trkpt lat="46.0636739" lon="11.1193765" />
      <trkpt lat="46.0635716" lon="11.1192952" />
      <trkpt lat="46.0635348" lon="11.1192660" />
      <trkpt lat="46.0635400" lon="11.1193559" />
      <trkpt lat="46.0635446" lon="11.1194350" />
      <trkpt lat="46.0635551" lon="11.1194431" />
      <trkpt lat="46.0635681" lon="11.1196328" />
      <trkpt lat="46.0635700" lon="11.1196605" />
      <trkpt lat="46.0635728" lon="11.1197002" />
      <trkpt lat="46.0635783" lon="11.1197799" />
      <trkpt lat="46.0636003" lon="11.1197751" />
      <trkpt lat="46.0636202" lon="11.1197707" />
      <trkpt lat="46.0638171" lon="11.1197277" />
      <trkpt lat="46.0638376" lon="11.1197232" />
      <trkpt lat="46.0638574" lon="11.1197189" />
      <trkpt lat="46.0639165" lon="11.1197060" />
      <trkpt lat="46.0641474" lon="11.1196563" />
      <trkpt lat="46.0641708" lon="11.1196512" />
      <trkpt lat="46.0642270" lon="11.1196399" />
      <trkpt lat="46.0642591" lon="11.1196322" />
      <trkpt lat="46.0643459" lon="11.1196135" />
      <trkpt lat="46.0643852" lon="11.1196053" />
      <trkpt lat="46.0643978" lon="11.1196024" />
      <trkpt lat="46.0644295" lon="11.1195955" />
      <trkpt lat="46.0644531" lon="11.1195906" />
      <trkpt lat="46.0644817" lon="11.1195841" />
      <trkpt lat="46.0645264" lon="11.1195740" />
      <trkpt lat="46.0646833" lon="11.1195354" />
      <trkpt lat="46.0647060" lon="11.1195298" />
      <trkpt lat="46.0647339" lon="11.1195230" />
      <trkpt lat="46.0652460" lon="11.1194078" />
      <trkpt lat="46.0652508" lon="11.1194546" />
      <trkpt lat="46.0653920" lon="11.1208081" />
      <trkpt lat="46.0654182" lon="11.1210589" />
      <trkpt lat="46.0654197" lon="11.1211443" />
      <trkpt lat="46.0654209" lon="11.1212172" />
      <trkpt lat="46.0654688" lon="11.1212196" />
      <trkpt lat="46.0652374" lon="11.1226394" />
      <trkpt lat="46.0651961" lon="11.1228928" />
      <trkpt lat="46.0652184" lon="11.1229778" />
      <trkpt lat="46.0652344" lon="11.1230754" />
      <trkpt lat="46.0652342" lon="11.1231340" />
      <trkpt lat="46.0651994" lon="11.1231586" />
      <trkpt lat="46.0651514" lon="11.1231779" />
      <trkpt lat="46.0651559" lon="11.1232583" />
      <trkpt lat="46.0651561" lon="11.1232838" />
      <trkpt lat="46.0651569" lon="11.1233035" />
      <trkpt lat="46.0649624" lon="11.1233329" />
      <trkpt lat="46.0649514" lon="11.1233356" />
      <trkpt lat="46.0647279" lon="11.1233788" />
      <trkpt lat="46.0639446" lon="11.1235411" />
      <trkpt lat="46.0638860" lon="11.1235660" />
      <trkpt lat="46.0635299" lon="11.1237173" />
      <trkpt lat="46.0634735" lon="11.1237412" />
      <trkpt lat="46.0633715" lon="11.1237939" />
      <trkpt lat="46.0633733" lon="11.1238494" />
      <trkpt lat="46.0633555" lon="11.1241631" />
      <trkpt lat="46.0633537" lon="11.1243526" />
      <trkpt lat="46.0633533" lon="11.1243884" />
      <trkpt lat="46.0633606" lon="11.1244626" />
      <trkpt lat="46.0633695" lon="11.1245514" />
      <trkpt lat="46.0633818" lon="11.1246976" />
      <trkpt lat="46.0633603" lon="11.1247838" />
      <trkpt lat="46.0633371" lon="11.1248642" />
      <trkpt lat="46.0633147" lon="11.1249380" />
      <trkpt lat="46.0632933" lon="11.1250292" />
      <trkpt lat="46.0632458" lon="11.1252229" />
      <trkpt lat="46.0628939" lon="11.1253262" />
      <trkpt lat="46.0627661" lon="11.1253867" />
      <trkpt lat="46.0626657" lon="11.1254516" />
      <trkpt lat="46.0624140" lon="11.1255971" />
      <trkpt lat="46.0623724" lon="11.1256237" />
      <trkpt lat="46.0623814" lon="11.1256601" />
      <trkpt lat="46.0623313" lon="11.1256875" />
      <trkpt lat="46.0622931" lon="11.1257084" />
      <trkpt lat="46.0622980" lon="11.1257316" />
      <trkpt lat="46.0622971" lon="11.1257512" />
      <trkpt lat="46.0622923" lon="11.1257732" />
      <trkpt lat="46.0622829" lon="11.1257975" />
      <trkpt lat="46.0622666" lon="11.1258210" />
      <trkpt lat="46.0617535" lon="11.1263066" />
      <trkpt lat="46.0617401" lon="11.1263092" />
      <trkpt lat="46.0617280" lon="11.1263081" />
      <trkpt lat="46.0617189" lon="11.1263032" />
      <trkpt lat="46.0617098" lon="11.1263121" />
      <trkpt lat="46.0616697" lon="11.1263513" />
      <trkpt lat="46.0616283" lon="11.1263941" />
      <trkpt lat="46.0616334" lon="11.1264055" />
      <trkpt lat="46.0616335" lon="11.1264194" />
      <trkpt lat="46.0616272" lon="11.1264252" />
      <trkpt lat="46.0616131" lon="11.1264388" />
      <trkpt lat="46.0614900" lon="11.1265572" />
      <trkpt lat="46.0607006" lon="11.1273165" />
      <trkpt lat="46.0607283" lon="11.1273770" />
      <trkpt lat="46.0607498" lon="11.1274240" />
      <trkpt lat="46.0607353" lon="11.1274382" />
      <trkpt lat="46.0607334" lon="11.1274476" />
      <trkpt lat="46.0607366" lon="11.1274610" />
      <trkpt lat="46.0607661" lon="11.1275242" />
      <trkpt lat="46.0607035" lon="11.1275885" />
      <trkpt lat="46.0608338" lon="11.1278450" />
      <trkpt lat="46.0607998" lon="11.1278896" />
      <trkpt lat="46.0608114" lon="11.1279065" />
      <trkpt lat="46.0608183" lon="11.1279172" />
      <trkpt lat="46.0609318" lon="11.1280947" />
      <trkpt lat="46.0610073" lon="11.1281956" />
      <trkpt lat="46.0610219" lon="11.1282159" />
      <trkpt lat="46.0611114" lon="11.1283449" />
      <trkpt lat="46.0612169" lon="11.1285063" />
      <trkpt lat="46.0615852" lon="11.1290484" />
      <trkpt lat="46.0616001" lon="11.1290734" />
      <trkpt lat="46.0616049" lon="11.1290891" />
      <trkpt lat="46.0616042" lon="11.1291063" />
      <trkpt lat="46.0615992" lon="11.1291283" />
      <trkpt lat="46.0615892" lon="11.1291469" />
      <trkpt lat="46.0611790" lon="11.1297359" />
      <trkpt lat="46.0611681" lon="11.1297520" />
      <trkpt lat="46.0610624" lon="11.1299081" />
      <trkpt lat="46.0610403" lon="11.1299387" />
      <trkpt lat="46.0610294" lon="11.1299539" />
      <trkpt lat="46.0610009" lon="11.1299950" />
      <trkpt lat="46.0609856" lon="11.1300168" />
      <trkpt lat="46.0609606" lon="11.1300524" />
      <trkpt lat="46.0609838" lon="11.1300849" />
      <trkpt lat="46.0609734" lon="11.1300990" />
      <trkpt lat="46.0608358" lon="11.1303007" />
      <trkpt lat="46.0608210" lon="11.1303287" />
      <trkpt lat="46.0607406" lon="11.1304583" />
      <trkpt lat="46.0606077" lon="11.1306817" />
      <trkpt lat="46.0605895" lon="11.1306992" />
      <trkpt lat="46.0605734" lon="11.1307038" />
      <trkpt lat="46.0605566" lon="11.1306941" />
      <trkpt lat="46.0605437" lon="11.1306851" />
      <trkpt lat="46.0605170" lon="11.1307247" />
      <trkpt lat="46.0605588" lon="11.1307662" />
      <trkpt lat="46.0605893" lon="11.1307965" />
      <trkpt lat="46.0607706" lon="11.1304938" />
      <trkpt lat="46.0608441" lon="11.1303702" />
      <trkpt lat="46.0608613" lon="11.1303377" />
      <trkpt lat="46.0609970" lon="11.1301334" />
      <trkpt lat="46.0610057" lon="11.1301194" />
      <trkpt lat="46.0610259" lon="11.1300787" />
      <trkpt lat="46.0610424" lon="11.1300545" />
      <trkpt lat="46.0611016" lon="11.1299632" />
      <trkpt lat="46.0612077" lon="11.1298023" />
      <trkpt lat="46.0612165" lon="11.1297888" />
      <trkpt lat="46.0616260" lon="11.1291989" />
      <trkpt lat="46.0616855" lon="11.1291085" />
      <trkpt lat="46.0617307" lon="11.1290432" />
      <trkpt lat="46.0617656" lon="11.1289925" />
      <trkpt lat="46.0620345" lon="11.1286015" />
      <trkpt lat="46.0621868" lon="11.1283752" />
      <trkpt lat="46.0622315" lon="11.1283417" />
      <trkpt lat="46.0622527" lon="11.1283717" />
      <trkpt lat="46.0622669" lon="11.1283922" />
      <trkpt lat="46.0622832" lon="11.1283746" />
      <trkpt lat="46.0623076" lon="11.1283411" />
      <trkpt lat="46.0623285" lon="11.1283074" />
      <trkpt lat="46.0624776" lon="11.1280998" />
      <trkpt lat="46.0626158" lon="11.1278848" />
      <trkpt lat="46.0626840" lon="11.1278065" />
      <trkpt lat="46.0627643" lon="11.1277171" />
      <trkpt lat="46.0628305" lon="11.1276484" />
      <trkpt lat="46.0628982" lon="11.1275786" />
      <trkpt lat="46.0629580" lon="11.1275212" />
      <trkpt lat="46.0629757" lon="11.1274870" />
      <trkpt lat="46.0630095" lon="11.1274609" />
      <trkpt lat="46.0630302" lon="11.1274548" />
      <trkpt lat="46.0630826" lon="11.1274160" />
      <trkpt lat="46.0631147" lon="11.1273922" />
      <trkpt lat="46.0631350" lon="11.1273812" />
      <trkpt lat="46.0631828" lon="11.1273634" />
      <trkpt lat="46.0632162" lon="11.1273455" />
      <trkpt lat="46.0632440" lon="11.1273260" />
      <trkpt lat="46.0632780" lon="11.1273019" />
      <trkpt lat="46.0633086" lon="11.1273001" />
      <trkpt lat="46.0633401" lon="11.1273160" />
      <trkpt lat="46.0640806" lon="11.1277168" />
      <trkpt lat="46.0643297" lon="11.1278550" />
      <trkpt lat="46.0643429" lon="11.1278623" />
      <trkpt lat="46.0642108" lon="11.1286521" />
      <trkpt lat="46.0642053" lon="11.1286852" />
      <trkpt lat="46.0641991" lon="11.1287220" />
      <trkpt lat="46.0641830" lon="11.1288156" />
      <trkpt lat="46.0641796" lon="11.1288366" />
      <trkpt lat="46.0641733" lon="11.1288744" />
      <trkpt lat="46.0641614" lon="11.1289482" />
      <trkpt lat="46.0639763" lon="11.1300593" />
      <trkpt lat="46.0639347" lon="11.1304085" />
      <trkpt lat="46.0638482" lon="11.1308834" />
      <trkpt lat="46.0638631" lon="11.1308888" />
      <trkpt lat="46.0638872" lon="11.1308950" />
      <trkpt lat="46.0639791" lon="11.1311128" />
      <trkpt lat="46.0641877" lon="11.1311286" />
      <trkpt lat="46.0641956" lon="11.1310309" />
      <trkpt lat="46.0642751" lon="11.1310378" />
      <trkpt lat="46.0642660" lon="11.1311712" />
      <trkpt lat="46.0643067" lon="11.1311791" />
      <trkpt lat="46.0642700" lon="11.1312801" />
      <trkpt lat="46.0642683" lon="11.1313173" />
      <trkpt lat="46.0642601" lon="11.1317087" />
      <trkpt lat="46.0642595" lon="11.1317455" />
      <trkpt lat="46.0642585" lon="11.1318018" />
      <trkpt lat="46.0642535" lon="11.1320869" />
      <trkpt lat="46.0642474" lon="11.1324358" />
      <trkpt lat="46.0642500" lon="11.1325546" />
      <trkpt lat="46.0642987" lon="11.1329674" />
      <trkpt lat="46.0643767" lon="11.1334448" />
      <trkpt lat="46.0643895" lon="11.1335130" />
      <trkpt lat="46.0644190" lon="11.1336144" />
      <trkpt lat="46.0644123" lon="11.1336305" />
      <trkpt lat="46.0644188" lon="11.1336395" />
      <trkpt lat="46.0644548" lon="11.1336712" />
      <trkpt lat="46.0644972" lon="11.1337084" />
      <trkpt lat="46.0645540" lon="11.1337317" />
      <trkpt lat="46.0646162" lon="11.1337512" />
      <trkpt lat="46.0647207" lon="11.1337725" />
      <trkpt lat="46.0647735" lon="11.1337899" />
      <trkpt lat="46.0647915" lon="11.1338006" />
      <trkpt lat="46.0648815" lon="11.1338440" />
      <trkpt lat="46.0649573" lon="11.1338573" />
      <trkpt lat="46.0649928" lon="11.1338613" />
      <trkpt lat="46.0650787" lon="11.1345968" />
      <trkpt lat="46.0650863" lon="11.1347048" />
      <trkpt lat="46.0651259" lon="11.1346992" />
      <trkpt lat="46.0651491" lon="11.1354441" />
      <trkpt lat="46.0651249" lon="11.1354976" />
      <trkpt lat="46.0649644" lon="11.1357256" />
      <trkpt lat="46.0649292" lon="11.1357846" />
      <trkpt lat="46.0649227" lon="11.1357751" />
      <trkpt lat="46.0649073" lon="11.1357966" />
      <trkpt lat="46.0647416" lon="11.1360277" />
      <trkpt lat="46.0647329" lon="11.1360399" />
      <trkpt lat="46.0643913" lon="11.1355207" />
      <trkpt lat="46.0643430" lon="11.1355222" />
      <trkpt lat="46.0643031" lon="11.1355235" />
      <trkpt lat="46.0642302" lon="11.1354115" />
      <trkpt lat="46.0641053" lon="11.1352279" />
      <trkpt lat="46.0640869" lon="11.1351979" />
      <trkpt lat="46.0636104" lon="11.1345006" />
      <trkpt lat="46.0635996" lon="11.1344920" />
      <trkpt lat="46.0635831" lon="11.1344688" />
      <trkpt lat="46.0632217" lon="11.1350092" />
      <trkpt lat="46.0631931" lon="11.1350282" />
      <trkpt lat="46.0631653" lon="11.1350261" />
      <trkpt lat="46.0629823" lon="11.1347616" />
      <trkpt lat="46.0629520" lon="11.1347179" />
      <trkpt lat="46.0627630" lon="11.1344324" />
      <trkpt lat="46.0624155" lon="11.1339336" />
      <trkpt lat="46.0622679" lon="11.1337218" />
      <trkpt lat="46.0622160" lon="11.1336476" />
      <trkpt lat="46.0622679" lon="11.1337218" />
      <trkpt lat="46.0622441" lon="11.1337562" />
      <trkpt lat="46.0623913" lon="11.1339683" />
      <trkpt lat="46.0626984" lon="11.1344106" />
      <trkpt lat="46.0627026" lon="11.1344228" />
      <trkpt lat="46.0627322" lon="11.1344744" />
      <trkpt lat="46.0625081" lon="11.1348081" />
      <trkpt lat="46.0624754" lon="11.1348748" />
      <trkpt lat="46.0623180" lon="11.1354315" />
      <trkpt lat="46.0623145" lon="11.1354420" />
      <trkpt lat="46.0623069" lon="11.1354787" />
      <trkpt lat="46.0622242" lon="11.1354383" />
      <trkpt lat="46.0621333" lon="11.1353982" />
      <trkpt lat="46.0620572" lon="11.1353731" />
      <trkpt lat="46.0619745" lon="11.1353477" />
      <trkpt lat="46.0618708" lon="11.1353331" />
      <trkpt lat="46.0617787" lon="11.1353272" />
      <trkpt lat="46.0617812" lon="11.1354195" />
      <trkpt lat="46.0617755" lon="11.1354385" />
      <trkpt lat="46.0617741" lon="11.1354702" />
      <trkpt lat="46.0617756" lon="11.1366391" />
      <trkpt lat="46.0617772" lon="11.1366769" />
      <trkpt lat="46.0617788" lon="11.1367042" />
      <trkpt lat="46.0617813" lon="11.1367132" />
      <trkpt lat="46.0617979" lon="11.1367500" />
      <trkpt lat="46.0618237" lon="11.1367777" />
      <trkpt lat="46.0618559" lon="11.1367876" />
      <trkpt lat="46.0618883" lon="11.1367894" />
      <trkpt lat="46.0618985" lon="11.1368357" />
      <trkpt lat="46.0619203" lon="11.1368269" />
      <trkpt lat="46.0619651" lon="11.1368052" />
      <trkpt lat="46.0620108" lon="11.1367840" />
      <trkpt lat="46.0620774" lon="11.1367518" />
      <trkpt lat="46.0621472" lon="11.1367110" />
      <trkpt lat="46.0626655" lon="11.1363408" />
      <trkpt lat="46.0628010" lon="11.1362314" />
      <trkpt lat="46.0628337" lon="11.1361739" />
      <trkpt lat="46.0628455" lon="11.1361100" />
      <trkpt lat="46.0628409" lon="11.1360504" />
      <trkpt lat="46.0628263" lon="11.1359907" />
      <trkpt lat="46.0627726" lon="11.1359084" />
      <trkpt lat="46.0628416" lon="11.1358957" />
      <trkpt lat="46.0628263" lon="11.1358533" />
      <trkpt lat="46.0627778" lon="11.1358520" />
      <trkpt lat="46.0626246" lon="11.1356817" />
      <trkpt lat="46.0625595" lon="11.1356153" />
      <trkpt lat="46.0624443" lon="11.1355183" />
      <trkpt lat="46.0623426" lon="11.1354487" />
      <trkpt lat="46.0623180" lon="11.1354315" />
      <trkpt lat="46.0624754" lon="11.1348748" />
      <trkpt lat="46.0625081" lon="11.1348081" />
      <trkpt lat="46.0627322" lon="11.1344744" />
      <trkpt lat="46.0627621" lon="11.1345177" />
      <trkpt lat="46.0629316" lon="11.1347486" />
      <trkpt lat="46.0629520" lon="11.1347179" />
      <trkpt lat="46.0629823" lon="11.1347616" />
      <trkpt lat="46.0630079" lon="11.1347246" />
      <trkpt lat="46.0631776" lon="11.1349704" />
      <trkpt lat="46.0631996" lon="11.1349642" />
      <trkpt lat="46.0635631" lon="11.1344407" />
      <trkpt lat="46.0635831" lon="11.1344688" />
      <trkpt lat="46.0636097" lon="11.1344291" />
      <trkpt lat="46.0641230" lon="11.1351879" />
      <trkpt lat="46.0643430" lon="11.1355222" />
      <trkpt lat="46.0644714" lon="11.1357258" />
      <trkpt lat="46.0645097" lon="11.1358120" />
      <trkpt lat="46.0645368" lon="11.1358857" />
      <trkpt lat="46.0645587" lon="11.1359610" />
      <trkpt lat="46.0645803" lon="11.1359489" />
      <trkpt lat="46.0646035" lon="11.1359470" />
      <trkpt lat="46.0646260" lon="11.1359557" />
      <trkpt lat="46.0646454" lon="11.1359741" />
      <trkpt lat="46.0646599" lon="11.1360003" />
      <trkpt lat="46.0646679" lon="11.1360317" />
      <trkpt lat="46.0646688" lon="11.1360651" />
      <trkpt lat="46.0647387" lon="11.1360504" />
      <trkpt lat="46.0647484" lon="11.1360380" />
      <trkpt lat="46.0649149" lon="11.1358081" />
      <trkpt lat="46.0649292" lon="11.1357846" />
      <trkpt lat="46.0649644" lon="11.1357256" />
      <trkpt lat="46.0651249" lon="11.1354976" />
      <trkpt lat="46.0651491" lon="11.1354441" />
      <trkpt lat="46.0651792" lon="11.1354971" />
      <trkpt lat="46.0652385" lon="11.1356027" />
      <trkpt lat="46.0653527" lon="11.1357398" />
      <trkpt lat="46.0654131" lon="11.1357890" />
      <trkpt lat="46.0654938" lon="11.1358506" />
      <trkpt lat="46.0655964" lon="11.1359023" />
      <trkpt lat="46.0656340" lon="11.1359161" />
      <trkpt lat="46.0657268" lon="11.1359380" />
      <trkpt lat="46.0657572" lon="11.1359521" />
      <trkpt lat="46.0658664" lon="11.1360698" />
      <trkpt lat="46.0659041" lon="11.1361217" />
      <trkpt lat="46.0660516" lon="11.1363747" />
      <trkpt lat="46.0661586" lon="11.1365284" />
      <trkpt lat="46.0662155" lon="11.1365977" />
      <trkpt lat="46.0663092" lon="11.1366570" />
      <trkpt lat="46.0663618" lon="11.1366839" />
      <trkpt lat="46.0664807" lon="11.1367333" />
      <trkpt lat="46.0665653" lon="11.1367554" />
      <trkpt lat="46.0666011" lon="11.1367615" />
      <trkpt lat="46.0666097" lon="11.1367658" />
      <trkpt lat="46.0667427" lon="11.1369357" />
      <trkpt lat="46.0668043" lon="11.1369847" />
      <trkpt lat="46.0668630" lon="11.1370144" />
      <trkpt lat="46.0668957" lon="11.1370294" />
      <trkpt lat="46.0669119" lon="11.1370406" />
      <trkpt lat="46.0669485" lon="11.1370766" />
      <trkpt lat="46.0669565" lon="11.1373186" />
      <trkpt lat="46.0667909" lon="11.1377035" />
      <trkpt lat="46.0667605" lon="11.1377435" />
      <trkpt lat="46.0667569" lon="11.1377711" />
      <trkpt lat="46.0667579" lon="11.1377948" />
      <trkpt lat="46.0667629" lon="11.1378286" />
      <trkpt lat="46.0667790" lon="11.1378516" />
      <trkpt lat="46.0668019" lon="11.1378600" />
      <trkpt lat="46.0668245" lon="11.1378579" />
      <trkpt lat="46.0669617" lon="11.1377731" />
      <trkpt lat="46.0670657" lon="11.1376903" />
      <trkpt lat="46.0671663" lon="11.1375921" />
      <trkpt lat="46.0671988" lon="11.1375605" />
      <trkpt lat="46.0672370" lon="11.1375263" />
      <trkpt lat="46.0672487" lon="11.1375201" />
      <trkpt lat="46.0672612" lon="11.1375183" />
      <trkpt lat="46.0672737" lon="11.1375247" />
      <trkpt lat="46.0672873" lon="11.1375379" />
      <trkpt lat="46.0674334" lon="11.1377372" />
      <trkpt lat="46.0674684" lon="11.1377438" />
      <trkpt lat="46.0674992" lon="11.1377496" />
      <trkpt lat="46.0675788" lon="11.1378012" />
      <trkpt lat="46.0674992" lon="11.1377496" />
      <trkpt lat="46.0674684" lon="11.1377438" />
      <trkpt lat="46.0674334" lon="11.1377372" />
      <trkpt lat="46.0674645" lon="11.1377797" />
      <trkpt lat="46.0674781" lon="11.1378045" />
      <trkpt lat="46.0674844" lon="11.1378302" />
      <trkpt lat="46.0674839" lon="11.1378480" />
      <trkpt lat="46.0674755" lon="11.1378670" />
      <trkpt lat="46.0674600" lon="11.1378857" />
      <trkpt lat="46.0673334" lon="11.1379089" />
      <trkpt lat="46.0673044" lon="11.1379228" />
      <trkpt lat="46.0672811" lon="11.1379453" />
      <trkpt lat="46.0672673" lon="11.1379769" />
      <trkpt lat="46.0672428" lon="11.1381262" />
      <trkpt lat="46.0672139" lon="11.1384187" />
      <trkpt lat="46.0672018" lon="11.1388340" />
      <trkpt lat="46.0672485" lon="11.1389416" />
      <trkpt lat="46.0672751" lon="11.1389190" />
      <trkpt lat="46.0672992" lon="11.1389454" />
      <trkpt lat="46.0673314" lon="11.1389522" />
      <trkpt lat="46.0673799" lon="11.1389287" />
      <trkpt lat="46.0675009" lon="11.1389303" />
      <trkpt lat="46.0676024" lon="11.1389561" />
      <trkpt lat="46.0677186" lon="11.1390348" />
      <trkpt lat="46.0678210" lon="11.1391646" />
      <trkpt lat="46.0678802" lon="11.1393266" />
      <trkpt lat="46.0679872" lon="11.1395685" />
      <trkpt lat="46.0681065" lon="11.1397604" />
      <trkpt lat="46.0683336" lon="11.1400999" />
      <trkpt lat="46.0684844" lon="11.1403007" />
      <trkpt lat="46.0685824" lon="11.1403953" />
      <trkpt lat="46.0684844" lon="11.1403007" />
      <trkpt lat="46.0683336" lon="11.1400999" />
      <trkpt lat="46.0681065" lon="11.1397604" />
      <trkpt lat="46.0679872" lon="11.1395685" />
      <trkpt lat="46.0678802" lon="11.1393266" />
      <trkpt lat="46.0678210" lon="11.1391646" />
      <trkpt lat="46.0677186" lon="11.1390348" />
      <trkpt lat="46.0676024" lon="11.1389561" />
      <trkpt lat="46.0675009" lon="11.1389303" />
      <trkpt lat="46.0673799" lon="11.1389287" />
      <trkpt lat="46.0673314" lon="11.1389522" />
      <trkpt lat="46.0672992" lon="11.1389454" />
      <trkpt lat="46.0672751" lon="11.1389190" />
      <trkpt lat="46.0672485" lon="11.1389416" />
      <trkpt lat="46.0672539" lon="11.1389531" />
      <trkpt lat="46.0671918" lon="11.1390935" />
      <trkpt lat="46.0671556" lon="11.1391835" />
      <trkpt lat="46.0671415" lon="11.1392509" />
      <trkpt lat="46.0671392" lon="11.1392674" />
      <trkpt lat="46.0671856" lon="11.1392856" />
      <trkpt lat="46.0672342" lon="11.1393047" />
      <trkpt lat="46.0672267" lon="11.1393427" />
      <trkpt lat="46.0672216" lon="11.1395758" />
      <trkpt lat="46.0671904" lon="11.1398173" />
      <trkpt lat="46.0671543" lon="11.1399549" />
      <trkpt lat="46.0671351" lon="11.1400933" />
      <trkpt lat="46.0671225" lon="11.1401527" />
      <trkpt lat="46.0670885" lon="11.1402487" />
      <trkpt lat="46.0670138" lon="11.1403635" />
      <trkpt lat="46.0669939" lon="11.1404220" />
      <trkpt lat="46.0669525" lon="11.1404574" />
      <trkpt lat="46.0669440" lon="11.1405197" />
      <trkpt lat="46.0668635" lon="11.1409898" />
      <trkpt lat="46.0668091" lon="11.1412164" />
      <trkpt lat="46.0667250" lon="11.1415338" />
      <trkpt lat="46.0666858" lon="11.1416980" />
      <trkpt lat="46.0666082" lon="11.1417934" />
      <trkpt lat="46.0665451" lon="11.1418452" />
      <trkpt lat="46.0664811" lon="11.1419396" />
      <trkpt lat="46.0664339" lon="11.1421425" />
      <trkpt lat="46.0664034" lon="11.1423009" />
      <trkpt lat="46.0663933" lon="11.1423603" />
      <trkpt lat="46.0663714" lon="11.1424885" />
      <trkpt lat="46.0663597" lon="11.1425570" />
      <trkpt lat="46.0663350" lon="11.1425988" />
      <trkpt lat="46.0662272" lon="11.1425861" />
      <trkpt lat="46.0661727" lon="11.1425572" />
      <trkpt lat="46.0660893" lon="11.1424905" />
      <trkpt lat="46.0660712" lon="11.1425172" />
      <trkpt lat="46.0661009" lon="11.1425586" />
      <trkpt lat="46.0661005" lon="11.1425788" />
      <trkpt lat="46.0660194" lon="11.1425738" />
      <trkpt lat="46.0659461" lon="11.1425720" />
      <trkpt lat="46.0659455" lon="11.1426746" />
      <trkpt lat="46.0659651" lon="11.1426753" />
      <trkpt lat="46.0660729" lon="11.1426803" />
      <trkpt lat="46.0662012" lon="11.1426924" />
      <trkpt lat="46.0662403" lon="11.1427046" />
      <trkpt lat="46.0663165" lon="11.1427677" />
      <trkpt lat="46.0663478" lon="11.1428019" />
      <trkpt lat="46.0663699" lon="11.1427812" />
      <trkpt lat="46.0664247" lon="11.1427903" />
      <trkpt lat="46.0665941" lon="11.1428941" />
      <trkpt lat="46.0667447" lon="11.1430197" />
      <trkpt lat="46.0670222" lon="11.1432941" />
      <trkpt lat="46.0673582" lon="11.1436749" />
      <trkpt lat="46.0670222" lon="11.1432941" />
      <trkpt lat="46.0667447" lon="11.1430197" />
      <trkpt lat="46.0665941" lon="11.1428941" />
      <trkpt lat="46.0664247" lon="11.1427903" />
      <trkpt lat="46.0663699" lon="11.1427812" />
      <trkpt lat="46.0663478" lon="11.1428019" />
      <trkpt lat="46.0663405" lon="11.1428407" />
      <trkpt lat="46.0662179" lon="11.1428467" />
      <trkpt lat="46.0662026" lon="11.1428681" />
      <trkpt lat="46.0659856" lon="11.1427282" />
      <trkpt lat="46.0659453" lon="11.1427003" />
      <trkpt lat="46.0659455" lon="11.1426746" />
      <trkpt lat="46.0659461" lon="11.1425720" />
      <trkpt lat="46.0660194" lon="11.1425738" />
      <trkpt lat="46.0661005" lon="11.1425788" />
      <trkpt lat="46.0661009" lon="11.1425586" />
      <trkpt lat="46.0660712" lon="11.1425172" />
      <trkpt lat="46.0660893" lon="11.1424905" />
      <trkpt lat="46.0661727" lon="11.1425572" />
      <trkpt lat="46.0662272" lon="11.1425861" />
      <trkpt lat="46.0663350" lon="11.1425988" />
      <trkpt lat="46.0663597" lon="11.1425570" />
      <trkpt lat="46.0663714" lon="11.1424885" />
      <trkpt lat="46.0663933" lon="11.1423603" />
      <trkpt lat="46.0664034" lon="11.1423009" />
      <trkpt lat="46.0664339" lon="11.1421425" />
      <trkpt lat="46.0664811" lon="11.1419396" />
      <trkpt lat="46.0665451" lon="11.1418452" />
      <trkpt lat="46.0666082" lon="11.1417934" />
      <trkpt lat="46.0666858" lon="11.1416980" />
      <trkpt lat="46.0667250" lon="11.1415338" />
      <trkpt lat="46.0668091" lon="11.1412164" />
      <trkpt lat="46.0668635" lon="11.1409898" />
      <trkpt lat="46.0669440" lon="11.1405197" />
      <trkpt lat="46.0669525" lon="11.1404574" />
      <trkpt lat="46.0669939" lon="11.1404220" />
      <trkpt lat="46.0670138" lon="11.1403635" />
      <trkpt lat="46.0670885" lon="11.1402487" />
      <trkpt lat="46.0671225" lon="11.1401527" />
      <trkpt lat="46.0671351" lon="11.1400933" />
      <trkpt lat="46.0671543" lon="11.1399549" />
      <trkpt lat="46.0671904" lon="11.1398173" />
      <trkpt lat="46.0672216" lon="11.1395758" />
      <trkpt lat="46.0672267" lon="11.1393427" />
      <trkpt lat="46.0672342" lon="11.1393047" />
      <trkpt lat="46.0671856" lon="11.1392856" />
      <trkpt lat="46.0671392" lon="11.1392674" />
      <trkpt lat="46.0671415" lon="11.1392509" />
      <trkpt lat="46.0671556" lon="11.1391835" />
      <trkpt lat="46.0671918" lon="11.1390935" />
      <trkpt lat="46.0672539" lon="11.1389531" />
      <trkpt lat="46.0672485" lon="11.1389416" />
      <trkpt lat="46.0672751" lon="11.1389190" />
      <trkpt lat="46.0672992" lon="11.1389454" />
      <trkpt lat="46.0673314" lon="11.1389522" />
      <trkpt lat="46.0673799" lon="11.1389287" />
      <trkpt lat="46.0675009" lon="11.1389303" />
      <trkpt lat="46.0676024" lon="11.1389561" />
      <trkpt lat="46.0677186" lon="11.1390348" />
      <trkpt lat="46.0678210" lon="11.1391646" />
      <trkpt lat="46.0678802" lon="11.1393266" />
      <trkpt lat="46.0679872" lon="11.1395685" />
      <trkpt lat="46.0681065" lon="11.1397604" />
      <trkpt lat="46.0683336" lon="11.1400999" />
      <trkpt lat="46.0684844" lon="11.1403007" />
      <trkpt lat="46.0685824" lon="11.1403953" />
      <trkpt lat="46.0686438" lon="11.1404593" />
      <trkpt lat="46.0687962" lon="11.1405159" />
      <trkpt lat="46.0689239" lon="11.1405225" />
      <trkpt lat="46.0690268" lon="11.1404817" />
      <trkpt lat="46.0691523" lon="11.1403932" />
      <trkpt lat="46.0693467" lon="11.1402217" />
      <trkpt lat="46.0697309" lon="11.1398519" />
      <trkpt lat="46.0697477" lon="11.1398366" />
      <trkpt lat="46.0697822" lon="11.1398013" />
      <trkpt lat="46.0698059" lon="11.1397640" />
      <trkpt lat="46.0698185" lon="11.1397174" />
      <trkpt lat="46.0698229" lon="11.1396355" />
      <trkpt lat="46.0698315" lon="11.1395899" />
      <trkpt lat="46.0698507" lon="11.1395275" />
      <trkpt lat="46.0698553" lon="11.1394620" />
      <trkpt lat="46.0698377" lon="11.1393943" />
      <trkpt lat="46.0698003" lon="11.1393395" />
      <trkpt lat="46.0698212" lon="11.1392929" />
      <trkpt lat="46.0698404" lon="11.1392512" />
      <trkpt lat="46.0699293" lon="11.1393377" />
      <trkpt lat="46.0700563" lon="11.1394498" />
      <trkpt lat="46.0701449" lon="11.1395241" />
      <trkpt lat="46.0702364" lon="11.1395846" />
      <trkpt lat="46.0703134" lon="11.1396098" />
      <trkpt lat="46.0703324" lon="11.1396160" />
      <trkpt lat="46.0704183" lon="11.1396366" />
      <trkpt lat="46.0705379" lon="11.1396587" />
      <trkpt lat="46.0705907" lon="11.1396685" />
      <trkpt lat="46.0706886" lon="11.1397271" />
      <trkpt lat="46.0707200" lon="11.1397422" />
      <trkpt lat="46.0707402" lon="11.1397307" />
      <trkpt lat="46.0707597" lon="11.1396582" />
      <trkpt lat="46.0708143" lon="11.1394174" />
      <trkpt lat="46.0708580" lon="11.1392533" />
      <trkpt lat="46.0708768" lon="11.1391916" />
      <trkpt lat="46.0709190" lon="11.1390747" />
      <trkpt lat="46.0709834" lon="11.1389369" />
      <trkpt lat="46.0710097" lon="11.1388892" />
      <trkpt lat="46.0709747" lon="11.1388432" />
      <trkpt lat="46.0709660" lon="11.1388318" />
      <trkpt lat="46.0709193" lon="11.1387895" />
      <trkpt lat="46.0706095" lon="11.1385811" />
      <trkpt lat="46.0704281" lon="11.1383898" />
      <trkpt lat="46.0702877" lon="11.1382010" />
      <trkpt lat="46.0701465" lon="11.1379445" />
      <trkpt lat="46.0699840" lon="11.1377090" />
      <trkpt lat="46.0698888" lon="11.1376158" />
      <trkpt lat="46.0698198" lon="11.1375402" />
      <trkpt lat="46.0698819" lon="11.1374977" />
      <trkpt lat="46.0699721" lon="11.1374405" />
      <trkpt lat="46.0700454" lon="11.1373521" />
      <trkpt lat="46.0701083" lon="11.1372627" />
      <trkpt lat="46.0701308" lon="11.1371906" />
      <trkpt lat="46.0701431" lon="11.1371370" />
      <trkpt lat="46.0701570" lon="11.1370356" />
      <trkpt lat="46.0701570" lon="11.1369505" />
      <trkpt lat="46.0701448" lon="11.1368852" />
      <trkpt lat="46.0701257" lon="11.1368090" />
      <trkpt lat="46.0701039" lon="11.1367439" />
      <trkpt lat="46.0700738" lon="11.1366900" />
      <trkpt lat="46.0700460" lon="11.1366541" />
      <trkpt lat="46.0699980" lon="11.1366063" />
      <trkpt lat="46.0699588" lon="11.1365763" />
      <trkpt lat="46.0699344" lon="11.1365686" />
      <trkpt lat="46.0699407" lon="11.1363890" />
      <trkpt lat="46.0699395" lon="11.1360514" />
      <trkpt lat="46.0701224" lon="11.1360461" />
      <trkpt lat="46.0701295" lon="11.1364642" />
      <trkpt lat="46.0701192" lon="11.1365820" />
      <trkpt lat="46.0702114" lon="11.1365416" />
      <trkpt lat="46.0703298" lon="11.1364896" />
      <trkpt lat="46.0705297" lon="11.1364286" />
      <trkpt lat="46.0706039" lon="11.1364254" />
      <trkpt lat="46.0711071" lon="11.1364341" />
      <trkpt lat="46.0711575" lon="11.1364492" />
      <trkpt lat="46.0711961" lon="11.1364608" />
      <trkpt lat="46.0715862" lon="11.1365663" />
      <trkpt lat="46.0716956" lon="11.1365394" />
      <trkpt lat="46.0717016" lon="11.1364402" />
      <trkpt lat="46.0716892" lon="11.1363300" />
      <trkpt lat="46.0716212" lon="11.1362493" />
      <trkpt lat="46.0715230" lon="11.1362552" />
      <trkpt lat="46.0713696" lon="11.1362658" />
      <trkpt lat="46.0712101" lon="11.1362043" />
      <trkpt lat="46.0711008" lon="11.1361519" />
      <trkpt lat="46.0710268" lon="11.1360779" />
      <trkpt lat="46.0709615" lon="11.1359821" />
      <trkpt lat="46.0709278" lon="11.1358668" />
      <trkpt lat="46.0709283" lon="11.1356937" />
      <trkpt lat="46.0709723" lon="11.1355488" />
      <trkpt lat="46.0710022" lon="11.1354809" />
      <trkpt lat="46.0710282" lon="11.1354218" />
      <trkpt lat="46.0711365" lon="11.1352796" />
      <trkpt lat="46.0710552" lon="11.1351316" />
      <trkpt lat="46.0709837" lon="11.1350352" />
      <trkpt lat="46.0708948" lon="11.1349245" />
      <trkpt lat="46.0708550" lon="11.1348788" />
      <trkpt lat="46.0708341" lon="11.1348351" />
      <trkpt lat="46.0708290" lon="11.1347986" />
      <trkpt lat="46.0708231" lon="11.1342690" />
      <trkpt lat="46.0708207" lon="11.1341930" />
      <trkpt lat="46.0708130" lon="11.1341216" />
      <trkpt lat="46.0707708" lon="11.1339881" />
      <trkpt lat="46.0707196" lon="11.1338490" />
      <trkpt lat="46.0706348" lon="11.1336393" />
      <trkpt lat="46.0705241" lon="11.1335203" />
      <trkpt lat="46.0701221" lon="11.1334207" />
      <trkpt lat="46.0700210" lon="11.1333681" />
      <trkpt lat="46.0699178" lon="11.1332668" />
      <trkpt lat="46.0698294" lon="11.1331279" />
      <trkpt lat="46.0696373" lon="11.1329262" />
      <trkpt lat="46.0694575" lon="11.1327188" />
      <trkpt lat="46.0693210" lon="11.1326859" />
      <trkpt lat="46.0692278" lon="11.1325915" />
      <trkpt lat="46.0690428" lon="11.1324866" />
      <trkpt lat="46.0688921" lon="11.1323618" />
      <trkpt lat="46.0687477" lon="11.1321876" />
      <trkpt lat="46.0686823" lon="11.1321086" />
      <trkpt lat="46.0685321" lon="11.1319109" />
      <trkpt lat="46.0685203" lon="11.1318954" />
      <trkpt lat="46.0683358" lon="11.1317598" />
      <trkpt lat="46.0681894" lon="11.1316591" />
      <trkpt lat="46.0681255" lon="11.1315863" />
      <trkpt lat="46.0680966" lon="11.1315533" />
      <trkpt lat="46.0680656" lon="11.1315179" />
      <trkpt lat="46.0679883" lon="11.1314393" />
      <trkpt lat="46.0679660" lon="11.1314044" />
      <trkpt lat="46.0678830" lon="11.1311669" />
      <trkpt lat="46.0679520" lon="11.1309920" />
      <trkpt lat="46.0679772" lon="11.1309209" />
      <trkpt lat="46.0680034" lon="11.1308440" />
      <trkpt lat="46.0680182" lon="11.1307638" />
      <trkpt lat="46.0680228" lon="11.1306852" />
      <trkpt lat="46.0680592" lon="11.1303525" />
      <trkpt lat="46.0681217" lon="11.1300830" />
      <trkpt lat="46.0681476" lon="11.1299694" />
      <trkpt lat="46.0682000" lon="11.1298692" />
      <trkpt lat="46.0682152" lon="11.1298106" />
      <trkpt lat="46.0682635" lon="11.1296235" />
      <trkpt lat="46.0683048" lon="11.1295341" />
      <trkpt lat="46.0683669" lon="11.1294680" />
      <trkpt lat="46.0684046" lon="11.1294416" />
      <trkpt lat="46.0683501" lon="11.1293914" />
      <trkpt lat="46.0683302" lon="11.1294010" />
      <trkpt lat="46.0683123" lon="11.1294097" />
      <trkpt lat="46.0682925" lon="11.1293320" />
      <trkpt lat="46.0682679" lon="11.1293437" />
      <trkpt lat="46.0682805" lon="11.1293978" />
      <trkpt lat="46.0682864" lon="11.1294242" />
      <trkpt lat="46.0683023" lon="11.1294154" />
      <trkpt lat="46.0682952" lon="11.1293883" />
      <trkpt lat="46.0682492" lon="11.1291994" />
      <trkpt lat="46.0682011" lon="11.1290129" />
      <trkpt lat="46.0681926" lon="11.1289843" />
      <trkpt lat="46.0681550" lon="11.1288650" />
      <trkpt lat="46.0680624" lon="11.1287669" />
      <trkpt lat="46.0679736" lon="11.1286626" />
      <trkpt lat="46.0678157" lon="11.1284547" />
      <trkpt lat="46.0677852" lon="11.1284430" />
      <trkpt lat="46.0677410" lon="11.1284260" />
      <trkpt lat="46.0675698" lon="11.1282843" />
      <trkpt lat="46.0674041" lon="11.1281471" />
      <trkpt lat="46.0674591" lon="11.1279752" />
      <trkpt lat="46.0674753" lon="11.1278541" />
      <trkpt lat="46.0674621" lon="11.1276608" />
      <trkpt lat="46.0674317" lon="11.1274771" />
      <trkpt lat="46.0674463" lon="11.1273902" />
      <trkpt lat="46.0674624" lon="11.1272949" />
      <trkpt lat="46.0674389" lon="11.1272505" />
      <trkpt lat="46.0674589" lon="11.1270980" />
      <trkpt lat="46.0674142" lon="11.1270839" />
      <trkpt lat="46.0673797" lon="11.1270731" />
      <trkpt lat="46.0673959" lon="11.1269904" />
      <trkpt lat="46.0674238" lon="11.1268989" />
      <trkpt lat="46.0674573" lon="11.1268523" />
      <trkpt lat="46.0675112" lon="11.1268155" />
      <trkpt lat="46.0675228" lon="11.1267715" />
      <trkpt lat="46.0675385" lon="11.1267116" />
      <trkpt lat="46.0675525" lon="11.1266584" />
      <trkpt lat="46.0675131" lon="11.1266040" />
      <trkpt lat="46.0675110" lon="11.1265653" />
      <trkpt lat="46.0675158" lon="11.1265438" />
      <trkpt lat="46.0675366" lon="11.1264538" />
      <trkpt lat="46.0675929" lon="11.1263359" />
      <trkpt lat="46.0675748" lon="11.1263186" />
      <trkpt lat="46.0678665" lon="11.1257547" />
      <trkpt lat="46.0679001" lon="11.1255912" />
      <trkpt lat="46.0681112" lon="11.1250287" />
      <trkpt lat="46.0681074" lon="11.1249009" />
      <trkpt lat="46.0680840" lon="11.1248247" />
      <trkpt lat="46.0680508" lon="11.1248035" />
      <trkpt lat="46.0677545" lon="11.1247463" />
      <trkpt lat="46.0677283" lon="11.1247412" />
      <trkpt lat="46.0676346" lon="11.1246853" />
      <trkpt lat="46.0675877" lon="11.1246271" />
      <trkpt lat="46.0675754" lon="11.1246062" />
      <trkpt lat="46.0673954" lon="11.1243006" />
      <trkpt lat="46.0673597" lon="11.1241899" />
      <trkpt lat="46.0673613" lon="11.1241477" />
      <trkpt lat="46.0673448" lon="11.1241473" />
      <trkpt lat="46.0671085" lon="11.1242194" />
      <trkpt lat="46.0671042" lon="11.1241841" />
      <trkpt lat="46.0671006" lon="11.1241540" />
      <trkpt lat="46.0670680" lon="11.1241626" />
      <trkpt lat="46.0670164" lon="11.1237560" />
      <trkpt lat="46.0670143" lon="11.1237397" />
      <trkpt lat="46.0670231" lon="11.1237366" />
      <trkpt lat="46.0671493" lon="11.1237041" />
      <trkpt lat="46.0671462" lon="11.1236709" />
      <trkpt lat="46.0670190" lon="11.1237046" />
      <trkpt lat="46.0670098" lon="11.1237070" />
      <trkpt lat="46.0669662" lon="11.1237185" />
      <trkpt lat="46.0669188" lon="11.1233181" />
      <trkpt lat="46.0668986" lon="11.1233290" />
      <trkpt lat="46.0668905" lon="11.1233334" />
      <trkpt lat="46.0668872" lon="11.1232848" />
      <trkpt lat="46.0668548" lon="11.1230552" />
      <trkpt lat="46.0667810" lon="11.1225726" />
      <trkpt lat="46.0667729" lon="11.1225194" />
      <trkpt lat="46.0667715" lon="11.1225101" />
      <trkpt lat="46.0667532" lon="11.1223909" />
      <trkpt lat="46.0667414" lon="11.1223091" />
      <trkpt lat="46.0667357" lon="11.1222747" />
      <trkpt lat="46.0667350" lon="11.1222603" />
      <trkpt lat="46.0667287" lon="11.1221612" />
      <trkpt lat="46.0667249" lon="11.1220591" />
      <trkpt lat="46.0667229" lon="11.1219913" />
      <trkpt lat="46.0667210" lon="11.1219626" />
      <trkpt lat="46.0667304" lon="11.1218751" />
      <trkpt lat="46.0667274" lon="11.1218448" />
      <trkpt lat="46.0666789" lon="11.1217092" />
      <trkpt lat="46.0666701" lon="11.1215352" />
      <trkpt lat="46.0667024" lon="11.1213629" />
      <trkpt lat="46.0667526" lon="11.1210542" />
      <trkpt lat="46.0667705" lon="11.1210629" />
      <trkpt lat="46.0668711" lon="11.1210492" />
    </trkseg>
  </trk>
</gpx>
