<?xml version="1.0" encoding="UTF-8"?>
<gpx xmlns="http://www.topografix.com/GPX/1/1" version="1.1" creator="ShapeRoute route-engine">
  <metadata>
    <name>cat 15 km · 2026-09-24</name>
    <author>
      <name>ShapeRoute route-engine</name>
    </author>
    <copyright author="OpenStreetMap contributors">
      <license>https://opendatacommons.org/licenses/odbl/1-0/</license>
    </copyright>
    <link href="https://www.openstreetmap.org/copyright">
      <text>© OpenStreetMap contributors</text>
    </link>
    <time>2026-09-24T05:00:47Z</time>
  </metadata>
  <trk>
    <name>cat 15 km · 2026-09-24</name>
    <trkseg>
      <trkpt lat="46.0123552" lon="11.2985082" />
      <trkpt lat="46.0127099" lon="11.2988315" />
      <trkpt lat="46.0127193" lon="11.2987950" />
      <trkpt lat="46.0128564" lon="11.2988935" />
      <trkpt lat="46.0129549" lon="11.2989829" />
      <trkpt lat="46.0131011" lon="11.2992585" />
      <trkpt lat="46.0129920" lon="11.2994181" />
      <trkpt lat="46.0130152" lon="11.2995155" />
      <trkpt lat="46.0131631" lon="11.2997923" />
      <trkpt lat="46.0133640" lon="11.3000599" />
      <trkpt lat="46.0135307" lon="11.3002820" />
      <trkpt lat="46.0136300" lon="11.3003277" />
      <trkpt lat="46.0137103" lon="11.3003368" />
      <trkpt lat="46.0137990" lon="11.3002881" />
      <trkpt lat="46.0139448" lon="11.3002023" />
      <trkpt lat="46.0143116" lon="11.2995475" />
      <trkpt lat="46.0144803" lon="11.2997321" />
      <trkpt lat="46.0146982" lon="11.3000057" />
      <trkpt lat="46.0150596" lon="11.3004563" />
      <trkpt lat="46.0151833" lon="11.3006314" />
      <trkpt lat="46.0154172" lon="11.3009633" />
      <trkpt lat="46.0156351" lon="11.3013334" />
      <trkpt lat="46.0158363" lon="11.3017116" />
      <trkpt lat="46.0159630" lon="11.3020147" />
      <trkpt lat="46.0160393" lon="11.3022480" />
      <trkpt lat="46.0161120" lon="11.3025324" />
      <trkpt lat="46.0161921" lon="11.3028596" />
      <trkpt lat="46.0162536" lon="11.3031305" />
      <trkpt lat="46.0163097" lon="11.3033545" />
      <trkpt lat="46.0164946" lon="11.3030559" />
      <trkpt lat="46.0167927" lon="11.3026196" />
      <trkpt lat="46.0170292" lon="11.3030996" />
      <trkpt lat="46.0169338" lon="11.3032080" />
      <trkpt lat="46.0168363" lon="11.3033181" />
      <trkpt lat="46.0167352" lon="11.3033805" />
      <trkpt lat="46.0167054" lon="11.3034663" />
      <trkpt lat="46.0167292" lon="11.3036036" />
      <trkpt lat="46.0168768" lon="11.3041644" />
      <trkpt lat="46.0169713" lon="11.3047150" />
      <trkpt lat="46.0169994" lon="11.3049075" />
      <trkpt lat="46.0170498" lon="11.3051086" />
      <trkpt lat="46.0171816" lon="11.3054649" />
      <trkpt lat="46.0174605" lon="11.3059445" />
      <trkpt lat="46.0175943" lon="11.3060763" />
      <trkpt lat="46.0177038" lon="11.3061079" />
      <trkpt lat="46.0178213" lon="11.3060850" />
      <trkpt lat="46.0179815" lon="11.3060313" />
      <trkpt lat="46.0183559" lon="11.3060340" />
      <trkpt lat="46.0184881" lon="11.3060099" />
      <trkpt lat="46.0185738" lon="11.3059992" />
      <trkpt lat="46.0186502" lon="11.3059348" />
      <trkpt lat="46.0186967" lon="11.3058463" />
      <trkpt lat="46.0188252" lon="11.3055512" />
      <trkpt lat="46.0191177" lon="11.3053125" />
      <trkpt lat="46.0193784" lon="11.3052428" />
      <trkpt lat="46.0196448" lon="11.3052240" />
      <trkpt lat="46.0198366" lon="11.3052160" />
      <trkpt lat="46.0201097" lon="11.3051109" />
      <trkpt lat="46.0203188" lon="11.3049647" />
      <trkpt lat="46.0204739" lon="11.3049117" />
      <trkpt lat="46.0206524" lon="11.3048270" />
      <trkpt lat="46.0209150" lon="11.3048270" />
      <trkpt lat="46.0211124" lon="11.3048297" />
      <trkpt lat="46.0212540" lon="11.3047868" />
      <trkpt lat="46.0213415" lon="11.3047224" />
      <trkpt lat="46.0214104" lon="11.3046312" />
      <trkpt lat="46.0214421" lon="11.3045213" />
      <trkpt lat="46.0214477" lon="11.3043818" />
      <trkpt lat="46.0214384" lon="11.3041565" />
      <trkpt lat="46.0214645" lon="11.3038453" />
      <trkpt lat="46.0214198" lon="11.3035154" />
      <trkpt lat="46.0214160" lon="11.3029093" />
      <trkpt lat="46.0213918" lon="11.3024184" />
      <trkpt lat="46.0213583" lon="11.3020831" />
      <trkpt lat="46.0213061" lon="11.3019276" />
      <trkpt lat="46.0212354" lon="11.3017666" />
      <trkpt lat="46.0211538" lon="11.3016688" />
      <trkpt lat="46.0211088" lon="11.3014813" />
      <trkpt lat="46.0210543" lon="11.3013930" />
      <trkpt lat="46.0209755" lon="11.3013780" />
      <trkpt lat="46.0209196" lon="11.3013163" />
      <trkpt lat="46.0209042" lon="11.3012260" />
      <trkpt lat="46.0208976" lon="11.3011399" />
      <trkpt lat="46.0209176" lon="11.3010762" />
      <trkpt lat="46.0209503" lon="11.3010138" />
      <trkpt lat="46.0211171" lon="11.3007253" />
      <trkpt lat="46.0212589" lon="11.3006941" />
      <trkpt lat="46.0211171" lon="11.3007253" />
      <trkpt lat="46.0209503" lon="11.3010138" />
      <trkpt lat="46.0209176" lon="11.3010762" />
      <trkpt lat="46.0208976" lon="11.3011399" />
      <trkpt lat="46.0209042" lon="11.3012260" />
      <trkpt lat="46.0209196" lon="11.3013163" />
      <trkpt lat="46.0209755" lon="11.3013780" />
      <trkpt lat="46.0210543" lon="11.3013930" />
      <trkpt lat="46.0211088" lon="11.3014813" />
      <trkpt lat="46.0211538" lon="11.3016688" />
      <trkpt lat="46.0212354" lon="11.3017666" />
      <trkpt lat="46.0213061" lon="11.3019276" />
      <trkpt lat="46.0213583" lon="11.3020831" />
      <trkpt lat="46.0213918" lon="11.3024184" />
      <trkpt lat="46.0214160" lon="11.3029093" />
      <trkpt lat="46.0214198" lon="11.3035154" />
      <trkpt lat="46.0214645" lon="11.3038453" />
      <trkpt lat="46.0214384" lon="11.3041565" />
      <trkpt lat="46.0214477" lon="11.3043818" />
      <trkpt lat="46.0214421" lon="11.3045213" />
      <trkpt lat="46.0214104" lon="11.3046312" />
      <trkpt lat="46.0213415" lon="11.3047224" />
      <trkpt lat="46.0212540" lon="11.3047868" />
      <trkpt lat="46.0211124" lon="11.3048297" />
      <trkpt lat="46.0209150" lon="11.3048270" />
      <trkpt lat="46.0206524" lon="11.3048270" />
      <trkpt lat="46.0204739" lon="11.3049117" />
      <trkpt lat="46.0203188" lon="11.3049647" />
      <trkpt lat="46.0201097" lon="11.3051109" />
      <trkpt lat="46.0199316" lon="11.3053259" />
      <trkpt lat="46.0198590" lon="11.3054359" />
      <trkpt lat="46.0197919" lon="11.3055432" />
      <trkpt lat="46.0197236" lon="11.3056787" />
      <trkpt lat="46.0196677" lon="11.3057807" />
      <trkpt lat="46.0196342" lon="11.3058772" />
      <trkpt lat="46.0196416" lon="11.3059416" />
      <trkpt lat="46.0196751" lon="11.3060811" />
      <trkpt lat="46.0197385" lon="11.3061454" />
      <trkpt lat="46.0198447" lon="11.3061803" />
      <trkpt lat="46.0199303" lon="11.3062286" />
      <trkpt lat="46.0200346" lon="11.3062983" />
      <trkpt lat="46.0201352" lon="11.3063895" />
      <trkpt lat="46.0201874" lon="11.3065182" />
      <trkpt lat="46.0202209" lon="11.3067060" />
      <trkpt lat="46.0202172" lon="11.3068723" />
      <trkpt lat="46.0201911" lon="11.3070815" />
      <trkpt lat="46.0201464" lon="11.3073605" />
      <trkpt lat="46.0201054" lon="11.3075909" />
      <trkpt lat="46.0200570" lon="11.3076716" />
      <trkpt lat="46.0199378" lon="11.3076609" />
      <trkpt lat="46.0198223" lon="11.3076555" />
      <trkpt lat="46.0197589" lon="11.3076643" />
      <trkpt lat="46.0196797" lon="11.3077166" />
      <trkpt lat="46.0195991" lon="11.3078901" />
      <trkpt lat="46.0194557" lon="11.3080578" />
      <trkpt lat="46.0192713" lon="11.3082334" />
      <trkpt lat="46.0192033" lon="11.3082817" />
      <trkpt lat="46.0191540" lon="11.3082965" />
      <trkpt lat="46.0191046" lon="11.3082992" />
      <trkpt lat="46.0190404" lon="11.3082629" />
      <trkpt lat="46.0187638" lon="11.3081261" />
      <trkpt lat="46.0187221" lon="11.3082708" />
      <trkpt lat="46.0186954" lon="11.3085270" />
      <trkpt lat="46.0187132" lon="11.3086551" />
      <trkpt lat="46.0187932" lon="11.3087576" />
      <trkpt lat="46.0188614" lon="11.3088516" />
      <trkpt lat="46.0188703" lon="11.3089839" />
      <trkpt lat="46.0188585" lon="11.3091761" />
      <trkpt lat="46.0188288" lon="11.3092615" />
      <trkpt lat="46.0186064" lon="11.3092487" />
      <trkpt lat="46.0184048" lon="11.3092060" />
      <trkpt lat="46.0181883" lon="11.3091206" />
      <trkpt lat="46.0178828" lon="11.3090608" />
      <trkpt lat="46.0175655" lon="11.3090822" />
      <trkpt lat="46.0172038" lon="11.3091206" />
      <trkpt lat="46.0167619" lon="11.3091889" />
      <trkpt lat="46.0166818" lon="11.3092274" />
      <trkpt lat="46.0166492" lon="11.3093469" />
      <trkpt lat="46.0166700" lon="11.3095391" />
      <trkpt lat="46.0166100" lon="11.3096126" />
      <trkpt lat="46.0167447" lon="11.3099256" />
      <trkpt lat="46.0168531" lon="11.3101777" />
      <trkpt lat="46.0164436" lon="11.3101138" />
      <trkpt lat="46.0161098" lon="11.3099253" />
      <trkpt lat="46.0158237" lon="11.3097536" />
      <trkpt lat="46.0155435" lon="11.3096935" />
      <trkpt lat="46.0151755" lon="11.3095997" />
      <trkpt lat="46.0150426" lon="11.3094836" />
      <trkpt lat="46.0149739" lon="11.3093695" />
      <trkpt lat="46.0149467" lon="11.3092691" />
      <trkpt lat="46.0149346" lon="11.3091044" />
      <trkpt lat="46.0149375" lon="11.3089053" />
      <trkpt lat="46.0149682" lon="11.3086612" />
      <trkpt lat="46.0149475" lon="11.3085481" />
      <trkpt lat="46.0148886" lon="11.3084980" />
      <trkpt lat="46.0147663" lon="11.3085009" />
      <trkpt lat="46.0145486" lon="11.3085446" />
      <trkpt lat="46.0143280" lon="11.3085730" />
      <trkpt lat="46.0141429" lon="11.3085671" />
      <trkpt lat="46.0137875" lon="11.3085719" />
      <trkpt lat="46.0137052" lon="11.3085868" />
      <trkpt lat="46.0136430" lon="11.3086202" />
      <trkpt lat="46.0136139" lon="11.3086583" />
      <trkpt lat="46.0135936" lon="11.3086788" />
      <trkpt lat="46.0135640" lon="11.3086957" />
      <trkpt lat="46.0135413" lon="11.3086948" />
      <trkpt lat="46.0135225" lon="11.3086854" />
      <trkpt lat="46.0134812" lon="11.3086513" />
      <trkpt lat="46.0134568" lon="11.3086278" />
      <trkpt lat="46.0134044" lon="11.3085949" />
      <trkpt lat="46.0133450" lon="11.3085849" />
      <trkpt lat="46.0132950" lon="11.3086265" />
      <trkpt lat="46.0132379" lon="11.3086679" />
      <trkpt lat="46.0131735" lon="11.3087524" />
      <trkpt lat="46.0131139" lon="11.3088596" />
      <trkpt lat="46.0130617" lon="11.3091225" />
      <trkpt lat="46.0130319" lon="11.3092083" />
      <trkpt lat="46.0129761" lon="11.3092566" />
      <trkpt lat="46.0128792" lon="11.3092834" />
      <trkpt lat="46.0124877" lon="11.3093217" />
      <trkpt lat="46.0125112" lon="11.3095719" />
      <trkpt lat="46.0125396" lon="11.3096631" />
      <trkpt lat="46.0126642" lon="11.3100298" />
      <trkpt lat="46.0130312" lon="11.3120209" />
      <trkpt lat="46.0131658" lon="11.3128957" />
      <trkpt lat="46.0133271" lon="11.3136518" />
      <trkpt lat="46.0135245" lon="11.3143214" />
      <trkpt lat="46.0135590" lon="11.3144756" />
      <trkpt lat="46.0137896" lon="11.3155063" />
      <trkpt lat="46.0138404" lon="11.3156680" />
      <trkpt lat="46.0139534" lon="11.3158835" />
      <trkpt lat="46.0141538" lon="11.3161173" />
      <trkpt lat="46.0144307" lon="11.3163372" />
      <trkpt lat="46.0145098" lon="11.3164072" />
      <trkpt lat="46.0146092" lon="11.3165448" />
      <trkpt lat="46.0146948" lon="11.3166976" />
      <trkpt lat="46.0146805" lon="11.3168091" />
      <trkpt lat="46.0147372" lon="11.3170096" />
      <trkpt lat="46.0148061" lon="11.3172537" />
      <trkpt lat="46.0148349" lon="11.3176091" />
      <trkpt lat="46.0148521" lon="11.3177686" />
      <trkpt lat="46.0148506" lon="11.3180519" />
      <trkpt lat="46.0148332" lon="11.3182306" />
      <trkpt lat="46.0148106" lon="11.3183394" />
      <trkpt lat="46.0146133" lon="11.3182669" />
      <trkpt lat="46.0143082" lon="11.3182566" />
      <trkpt lat="46.0142613" lon="11.3182485" />
      <trkpt lat="46.0142106" lon="11.3182397" />
      <trkpt lat="46.0139994" lon="11.3181689" />
      <trkpt lat="46.0137604" lon="11.3180580" />
      <trkpt lat="46.0137276" lon="11.3181457" />
      <trkpt lat="46.0136931" lon="11.3182379" />
      <trkpt lat="46.0135583" lon="11.3187308" />
      <trkpt lat="46.0135405" lon="11.3187823" />
      <trkpt lat="46.0134956" lon="11.3189123" />
      <trkpt lat="46.0134417" lon="11.3190154" />
      <trkpt lat="46.0133891" lon="11.3190775" />
      <trkpt lat="46.0133763" lon="11.3190926" />
      <trkpt lat="46.0132023" lon="11.3191660" />
      <trkpt lat="46.0130420" lon="11.3191867" />
      <trkpt lat="46.0129080" lon="11.3192330" />
      <trkpt lat="46.0127248" lon="11.3193919" />
      <trkpt lat="46.0126416" lon="11.3193976" />
      <trkpt lat="46.0124432" lon="11.3193425" />
      <trkpt lat="46.0121107" lon="11.3193324" />
      <trkpt lat="46.0121283" lon="11.3194106" />
      <trkpt lat="46.0117018" lon="11.3197390" />
      <trkpt lat="46.0114670" lon="11.3199691" />
      <trkpt lat="46.0112406" lon="11.3201735" />
      <trkpt lat="46.0109794" lon="11.3204505" />
      <trkpt lat="46.0107664" lon="11.3206245" />
      <trkpt lat="46.0106770" lon="11.3206931" />
      <trkpt lat="46.0104807" lon="11.3208489" />
      <trkpt lat="46.0102661" lon="11.3209777" />
      <trkpt lat="46.0100079" lon="11.3211017" />
      <trkpt lat="46.0097847" lon="11.3205667" />
      <trkpt lat="46.0095114" lon="11.3198769" />
      <trkpt lat="46.0094134" lon="11.3195938" />
      <trkpt lat="46.0093069" lon="11.3191934" />
      <trkpt lat="46.0080687" lon="11.3194383" />
      <trkpt lat="46.0079378" lon="11.3191646" />
      <trkpt lat="46.0079043" lon="11.3191195" />
      <trkpt lat="46.0078576" lon="11.3190566" />
      <trkpt lat="46.0078471" lon="11.3190383" />
      <trkpt lat="46.0078035" lon="11.3189629" />
      <trkpt lat="46.0077091" lon="11.3193328" />
      <trkpt lat="46.0076393" lon="11.3195457" />
      <trkpt lat="46.0075206" lon="11.3198137" />
      <trkpt lat="46.0071585" lon="11.3203162" />
      <trkpt lat="46.0065988" lon="11.3210383" />
      <trkpt lat="46.0061841" lon="11.3216120" />
      <trkpt lat="46.0060084" lon="11.3219615" />
      <trkpt lat="46.0058122" lon="11.3225417" />
      <trkpt lat="46.0057556" lon="11.3227120" />
      <trkpt lat="46.0055561" lon="11.3233126" />
      <trkpt lat="46.0055378" lon="11.3233853" />
      <trkpt lat="46.0054417" lon="11.3237250" />
      <trkpt lat="46.0053517" lon="11.3243187" />
      <trkpt lat="46.0049528" lon="11.3239377" />
      <trkpt lat="46.0045267" lon="11.3237152" />
      <trkpt lat="46.0040631" lon="11.3233453" />
      <trkpt lat="46.0036315" lon="11.3228140" />
      <trkpt lat="46.0032142" lon="11.3220093" />
      <trkpt lat="46.0030686" lon="11.3214972" />
      <trkpt lat="46.0029299" lon="11.3211765" />
      <trkpt lat="46.0028518" lon="11.3209082" />
      <trkpt lat="46.0028203" lon="11.3206899" />
      <trkpt lat="46.0025423" lon="11.3208195" />
      <trkpt lat="46.0022967" lon="11.3204984" />
      <trkpt lat="46.0021329" lon="11.3202748" />
      <trkpt lat="46.0020001" lon="11.3200512" />
      <trkpt lat="46.0018872" lon="11.3198194" />
      <trkpt lat="46.0017770" lon="11.3195471" />
      <trkpt lat="46.0016326" lon="11.3191922" />
      <trkpt lat="46.0015251" lon="11.3192773" />
      <trkpt lat="46.0013719" lon="11.3194129" />
      <trkpt lat="46.0013031" lon="11.3195119" />
      <trkpt lat="46.0012273" lon="11.3196742" />
      <trkpt lat="46.0011331" lon="11.3198981" />
      <trkpt lat="46.0010638" lon="11.3200312" />
      <trkpt lat="46.0009957" lon="11.3201177" />
      <trkpt lat="46.0008672" lon="11.3201893" />
      <trkpt lat="46.0003836" lon="11.3203888" />
      <trkpt lat="45.9998876" lon="11.3205421" />
      <trkpt lat="45.9998453" lon="11.3205635" />
      <trkpt lat="45.9996713" lon="11.3201651" />
      <trkpt lat="45.9995264" lon="11.3198562" />
      <trkpt lat="45.9994727" lon="11.3197416" />
      <trkpt lat="45.9992801" lon="11.3192177" />
      <trkpt lat="45.9992130" lon="11.3189021" />
      <trkpt lat="45.9990676" lon="11.3178487" />
      <trkpt lat="45.9990506" lon="11.3173004" />
      <trkpt lat="45.9990051" lon="11.3169218" />
      <trkpt lat="45.9989049" lon="11.3163351" />
      <trkpt lat="45.9988596" lon="11.3160611" />
      <trkpt lat="45.9988205" lon="11.3155534" />
      <trkpt lat="45.9988157" lon="11.3154627" />
      <trkpt lat="45.9988847" lon="11.3153194" />
      <trkpt lat="45.9990229" lon="11.3150948" />
      <trkpt lat="45.9990405" lon="11.3150234" />
      <trkpt lat="45.9975616" lon="11.3151384" />
      <trkpt lat="45.9975240" lon="11.3149895" />
      <trkpt lat="45.9974420" lon="11.3148393" />
      <trkpt lat="45.9973153" lon="11.3146033" />
      <trkpt lat="45.9971662" lon="11.3143458" />
      <trkpt lat="45.9970171" lon="11.3141527" />
      <trkpt lat="45.9968187" lon="11.3139759" />
      <trkpt lat="45.9969708" lon="11.3139601" />
      <trkpt lat="45.9971612" lon="11.3138399" />
      <trkpt lat="45.9973376" lon="11.3136055" />
      <trkpt lat="45.9974271" lon="11.3134124" />
      <trkpt lat="45.9975538" lon="11.3132514" />
      <trkpt lat="45.9977017" lon="11.3130482" />
      <trkpt lat="45.9978731" lon="11.3128658" />
      <trkpt lat="45.9976620" lon="11.3126010" />
      <trkpt lat="45.9974101" lon="11.3123017" />
      <trkpt lat="45.9972725" lon="11.3121447" />
      <trkpt lat="45.9971960" lon="11.3119854" />
      <trkpt lat="45.9970842" lon="11.3115241" />
      <trkpt lat="45.9969053" lon="11.3109769" />
      <trkpt lat="45.9968569" lon="11.3106873" />
      <trkpt lat="45.9968513" lon="11.3104941" />
      <trkpt lat="45.9968516" lon="11.3103620" />
      <trkpt lat="45.9968308" lon="11.3101615" />
      <trkpt lat="45.9967488" lon="11.3099416" />
      <trkpt lat="45.9967190" lon="11.3096358" />
      <trkpt lat="45.9967206" lon="11.3095956" />
      <trkpt lat="45.9967227" lon="11.3095446" />
      <trkpt lat="45.9967212" lon="11.3095344" />
      <trkpt lat="45.9967022" lon="11.3094052" />
      <trkpt lat="45.9966743" lon="11.3092523" />
      <trkpt lat="45.9965997" lon="11.3091316" />
      <trkpt lat="45.9965438" lon="11.3090109" />
      <trkpt lat="45.9964954" lon="11.3088553" />
      <trkpt lat="45.9964544" lon="11.3087158" />
      <trkpt lat="45.9964302" lon="11.3085817" />
      <trkpt lat="45.9964339" lon="11.3084154" />
      <trkpt lat="45.9964544" lon="11.3082652" />
      <trkpt lat="45.9965532" lon="11.3079487" />
      <trkpt lat="45.9966333" lon="11.3077395" />
      <trkpt lat="45.9967358" lon="11.3074606" />
      <trkpt lat="45.9967637" lon="11.3072674" />
      <trkpt lat="45.9968066" lon="11.3069322" />
      <trkpt lat="45.9968196" lon="11.3065969" />
      <trkpt lat="45.9968345" lon="11.3062938" />
      <trkpt lat="45.9968843" lon="11.3062532" />
      <trkpt lat="45.9969493" lon="11.3062325" />
      <trkpt lat="45.9970560" lon="11.3062050" />
      <trkpt lat="45.9970980" lon="11.3061424" />
      <trkpt lat="45.9971066" lon="11.3060497" />
      <trkpt lat="45.9970897" lon="11.3059517" />
      <trkpt lat="45.9970806" lon="11.3058496" />
      <trkpt lat="45.9970780" lon="11.3057876" />
      <trkpt lat="45.9970751" lon="11.3057217" />
      <trkpt lat="45.9970360" lon="11.3055944" />
      <trkpt lat="45.9970074" lon="11.3055313" />
      <trkpt lat="45.9969731" lon="11.3054724" />
      <trkpt lat="45.9969281" lon="11.3054032" />
      <trkpt lat="45.9968989" lon="11.3053490" />
      <trkpt lat="45.9968592" lon="11.3052753" />
      <trkpt lat="45.9968259" lon="11.3051837" />
      <trkpt lat="45.9968100" lon="11.3050572" />
      <trkpt lat="45.9968100" lon="11.3049834" />
      <trkpt lat="45.9968132" lon="11.3048841" />
      <trkpt lat="45.9968058" lon="11.3047563" />
      <trkpt lat="45.9967808" lon="11.3046600" />
      <trkpt lat="45.9968017" lon="11.3043816" />
      <trkpt lat="45.9967933" lon="11.3042176" />
      <trkpt lat="45.9967870" lon="11.3041243" />
      <trkpt lat="45.9967724" lon="11.3039393" />
      <trkpt lat="45.9967417" lon="11.3038725" />
      <trkpt lat="45.9966992" lon="11.3037858" />
      <trkpt lat="45.9966470" lon="11.3037181" />
      <trkpt lat="45.9965728" lon="11.3036474" />
      <trkpt lat="45.9965163" lon="11.3036233" />
      <trkpt lat="45.9964641" lon="11.3035601" />
      <trkpt lat="45.9964055" lon="11.3035346" />
      <trkpt lat="45.9963460" lon="11.3034638" />
      <trkpt lat="45.9962979" lon="11.3033480" />
      <trkpt lat="45.9962979" lon="11.3032126" />
      <trkpt lat="45.9962979" lon="11.3030772" />
      <trkpt lat="45.9963461" lon="11.3030206" />
      <trkpt lat="45.9963888" lon="11.3029358" />
      <trkpt lat="45.9963951" lon="11.3027657" />
      <trkpt lat="45.9963972" lon="11.3026800" />
      <trkpt lat="45.9964108" lon="11.3026048" />
      <trkpt lat="45.9964196" lon="11.3025024" />
      <trkpt lat="45.9964206" lon="11.3024332" />
      <trkpt lat="45.9964321" lon="11.3023497" />
      <trkpt lat="45.9964322" lon="11.3023046" />
      <trkpt lat="45.9964379" lon="11.3021895" />
      <trkpt lat="45.9964395" lon="11.3021218" />
      <trkpt lat="45.9964472" lon="11.3020350" />
      <trkpt lat="45.9966226" lon="11.3014884" />
      <trkpt lat="45.9968401" lon="11.3008330" />
      <trkpt lat="45.9968736" lon="11.3007320" />
      <trkpt lat="45.9969803" lon="11.3003320" />
      <trkpt lat="45.9970697" lon="11.2999513" />
      <trkpt lat="45.9971174" lon="11.2996595" />
      <trkpt lat="45.9971739" lon="11.2987203" />
      <trkpt lat="45.9972091" lon="11.2985696" />
      <trkpt lat="45.9972485" lon="11.2984579" />
      <trkpt lat="45.9973301" lon="11.2983702" />
      <trkpt lat="45.9974036" lon="11.2983205" />
      <trkpt lat="45.9976182" lon="11.2982776" />
      <trkpt lat="45.9989034" lon="11.2981519" />
      <trkpt lat="45.9990286" lon="11.2981390" />
      <trkpt lat="45.9992472" lon="11.2982715" />
      <trkpt lat="45.9994357" lon="11.2983901" />
      <trkpt lat="46.0001826" lon="11.2987838" />
      <trkpt lat="46.0005099" lon="11.2989507" />
      <trkpt lat="46.0009837" lon="11.2991231" />
      <trkpt lat="46.0016049" lon="11.2992657" />
      <trkpt lat="46.0018577" lon="11.2993329" />
      <trkpt lat="46.0019072" lon="11.2993405" />
      <trkpt lat="46.0019763" lon="11.2993525" />
      <trkpt lat="46.0021509" lon="11.2993686" />
      <trkpt lat="46.0021564" lon="11.2993399" />
      <trkpt lat="46.0021638" lon="11.2993121" />
      <trkpt lat="46.0021829" lon="11.2992950" />
      <trkpt lat="46.0024897" lon="11.2993804" />
      <trkpt lat="46.0025320" lon="11.2993243" />
      <trkpt lat="46.0025323" lon="11.2992139" />
      <trkpt lat="46.0024878" lon="11.2990538" />
      <trkpt lat="46.0023596" lon="11.2987631" />
      <trkpt lat="46.0022649" lon="11.2985541" />
      <trkpt lat="46.0021645" lon="11.2983059" />
      <trkpt lat="46.0021192" lon="11.2981525" />
      <trkpt lat="46.0021375" lon="11.2979777" />
      <trkpt lat="46.0022107" lon="11.2975201" />
      <trkpt lat="46.0022153" lon="11.2973432" />
      <trkpt lat="46.0021835" lon="11.2971978" />
      <trkpt lat="46.0021340" lon="11.2970697" />
      <trkpt lat="46.0021594" lon="11.2970500" />
      <trkpt lat="46.0022912" lon="11.2969370" />
      <trkpt lat="46.0023110" lon="11.2969239" />
      <trkpt lat="46.0023962" lon="11.2970834" />
      <trkpt lat="46.0024540" lon="11.2972363" />
      <trkpt lat="46.0025714" lon="11.2972792" />
      <trkpt lat="46.0027819" lon="11.2973597" />
      <trkpt lat="46.0029421" lon="11.2973973" />
      <trkpt lat="46.0030390" lon="11.2973892" />
      <trkpt lat="46.0030893" lon="11.2973999" />
      <trkpt lat="46.0030874" lon="11.2974831" />
      <trkpt lat="46.0030669" lon="11.2975609" />
      <trkpt lat="46.0030502" lon="11.2976494" />
      <trkpt lat="46.0030409" lon="11.2978962" />
      <trkpt lat="46.0030371" lon="11.2987947" />
      <trkpt lat="46.0030185" lon="11.2989208" />
      <trkpt lat="46.0029757" lon="11.2989985" />
      <trkpt lat="46.0029011" lon="11.2990173" />
      <trkpt lat="46.0027968" lon="11.2989824" />
      <trkpt lat="46.0027074" lon="11.2989342" />
      <trkpt lat="46.0026328" lon="11.2989208" />
      <trkpt lat="46.0026012" lon="11.2989664" />
      <trkpt lat="46.0026012" lon="11.2990415" />
      <trkpt lat="46.0026515" lon="11.2992158" />
      <trkpt lat="46.0026813" lon="11.2992614" />
      <trkpt lat="46.0028050" lon="11.2993171" />
      <trkpt lat="46.0027865" lon="11.2994957" />
      <trkpt lat="46.0027777" lon="11.2995822" />
      <trkpt lat="46.0028535" lon="11.2996748" />
      <trkpt lat="46.0029291" lon="11.2997920" />
      <trkpt lat="46.0029547" lon="11.2998372" />
      <trkpt lat="46.0029765" lon="11.2998932" />
      <trkpt lat="46.0029886" lon="11.2999384" />
      <trkpt lat="46.0029949" lon="11.2999621" />
      <trkpt lat="46.0030015" lon="11.3000399" />
      <trkpt lat="46.0030024" lon="11.3001284" />
      <trkpt lat="46.0030015" lon="11.3001995" />
      <trkpt lat="46.0029987" lon="11.3002813" />
      <trkpt lat="46.0030005" lon="11.3003584" />
      <trkpt lat="46.0030027" lon="11.3004305" />
      <trkpt lat="46.0030164" lon="11.3004992" />
      <trkpt lat="46.0030464" lon="11.3005706" />
      <trkpt lat="46.0030834" lon="11.3006186" />
      <trkpt lat="46.0031799" lon="11.3006919" />
      <trkpt lat="46.0032959" lon="11.3007514" />
      <trkpt lat="46.0034708" lon="11.3007999" />
      <trkpt lat="46.0036324" lon="11.3007808" />
      <trkpt lat="46.0037494" lon="11.3007078" />
      <trkpt lat="46.0038169" lon="11.3006131" />
      <trkpt lat="46.0038563" lon="11.3005271" />
      <trkpt lat="46.0038972" lon="11.3003766" />
      <trkpt lat="46.0039040" lon="11.3002185" />
      <trkpt lat="46.0039003" lon="11.3001144" />
      <trkpt lat="46.0038945" lon="11.2999540" />
      <trkpt lat="46.0038906" lon="11.2998388" />
      <trkpt lat="46.0038738" lon="11.2993923" />
      <trkpt lat="46.0038177" lon="11.2990040" />
      <trkpt lat="46.0038390" lon="11.2989292" />
      <trkpt lat="46.0038526" lon="11.2988310" />
      <trkpt lat="46.0038185" lon="11.2984688" />
      <trkpt lat="46.0038274" lon="11.2983435" />
      <trkpt lat="46.0039068" lon="11.2976443" />
      <trkpt lat="46.0040197" lon="11.2967070" />
      <trkpt lat="46.0041081" lon="11.2967728" />
      <trkpt lat="46.0042122" lon="11.2968507" />
      <trkpt lat="46.0044745" lon="11.2969966" />
      <trkpt lat="46.0048262" lon="11.2971683" />
      <trkpt lat="46.0050826" lon="11.2973227" />
      <trkpt lat="46.0052244" lon="11.2974104" />
      <trkpt lat="46.0055207" lon="11.2976149" />
      <trkpt lat="46.0061140" lon="11.2979493" />
      <trkpt lat="46.0062227" lon="11.2980094" />
      <trkpt lat="46.0063345" lon="11.2980609" />
      <trkpt lat="46.0064895" lon="11.2981467" />
      <trkpt lat="46.0065761" lon="11.2982076" />
      <trkpt lat="46.0067418" lon="11.2982409" />
      <trkpt lat="46.0068215" lon="11.2982888" />
      <trkpt lat="46.0069069" lon="11.2983699" />
      <trkpt lat="46.0071453" lon="11.2985587" />
      <trkpt lat="46.0073746" lon="11.2987222" />
      <trkpt lat="46.0074566" lon="11.2988582" />
      <trkpt lat="46.0075843" lon="11.2989813" />
      <trkpt lat="46.0078216" lon="11.2991785" />
      <trkpt lat="46.0082432" lon="11.2993967" />
      <trkpt lat="46.0082736" lon="11.2994124" />
      <trkpt lat="46.0083716" lon="11.2994631" />
      <trkpt lat="46.0087983" lon="11.2984184" />
      <trkpt lat="46.0086230" lon="11.2982644" />
      <trkpt lat="46.0089354" lon="11.2976279" />
      <trkpt lat="46.0089850" lon="11.2975267" />
      <trkpt lat="46.0088589" lon="11.2970393" />
      <trkpt lat="46.0087115" lon="11.2964700" />
      <trkpt lat="46.0086007" lon="11.2960421" />
      <trkpt lat="46.0085345" lon="11.2957863" />
      <trkpt lat="46.0085087" lon="11.2956866" />
      <trkpt lat="46.0084033" lon="11.2952909" />
      <trkpt lat="46.0083832" lon="11.2952157" />
      <trkpt lat="46.0082944" lon="11.2949620" />
      <trkpt lat="46.0082324" lon="11.2947849" />
      <trkpt lat="46.0079673" lon="11.2940833" />
      <trkpt lat="46.0078100" lon="11.2937086" />
      <trkpt lat="46.0075917" lon="11.2932997" />
      <trkpt lat="46.0075779" lon="11.2932774" />
      <trkpt lat="46.0075285" lon="11.2931979" />
      <trkpt lat="46.0074960" lon="11.2932546" />
      <trkpt lat="46.0074320" lon="11.2931812" />
      <trkpt lat="46.0073492" lon="11.2931457" />
      <trkpt lat="46.0072582" lon="11.2929831" />
      <trkpt lat="46.0072143" lon="11.2929119" />
      <trkpt lat="46.0071569" lon="11.2928501" />
      <trkpt lat="46.0070436" lon="11.2927249" />
      <trkpt lat="46.0067496" lon="11.2923820" />
      <trkpt lat="46.0063120" lon="11.2918505" />
      <trkpt lat="46.0061265" lon="11.2916198" />
      <trkpt lat="46.0061617" lon="11.2915634" />
      <trkpt lat="46.0061808" lon="11.2915296" />
      <trkpt lat="46.0061889" lon="11.2915152" />
      <trkpt lat="46.0062273" lon="11.2914513" />
      <trkpt lat="46.0067109" lon="11.2906711" />
      <trkpt lat="46.0084543" lon="11.2877742" />
      <trkpt lat="46.0085013" lon="11.2876968" />
      <trkpt lat="46.0085887" lon="11.2877427" />
      <trkpt lat="46.0086383" lon="11.2877703" />
      <trkpt lat="46.0086680" lon="11.2877792" />
      <trkpt lat="46.0086914" lon="11.2878024" />
      <trkpt lat="46.0087744" lon="11.2878722" />
      <trkpt lat="46.0088116" lon="11.2879678" />
      <trkpt lat="46.0088342" lon="11.2881141" />
      <trkpt lat="46.0088389" lon="11.2883637" />
      <trkpt lat="46.0090416" lon="11.2889431" />
      <trkpt lat="46.0093958" lon="11.2899229" />
      <trkpt lat="46.0093986" lon="11.2899309" />
      <trkpt lat="46.0094460" lon="11.2900661" />
      <trkpt lat="46.0096914" lon="11.2899409" />
      <trkpt lat="46.0097531" lon="11.2899109" />
      <trkpt lat="46.0097829" lon="11.2898964" />
      <trkpt lat="46.0099107" lon="11.2898286" />
      <trkpt lat="46.0101365" lon="11.2897062" />
      <trkpt lat="46.0102610" lon="11.2896391" />
      <trkpt lat="46.0103119" lon="11.2895981" />
      <trkpt lat="46.0103313" lon="11.2895635" />
      <trkpt lat="46.0103406" lon="11.2895290" />
      <trkpt lat="46.0103400" lon="11.2894066" />
      <trkpt lat="46.0103878" lon="11.2894056" />
      <trkpt lat="46.0104484" lon="11.2894042" />
      <trkpt lat="46.0104444" lon="11.2886372" />
      <trkpt lat="46.0104484" lon="11.2877290" />
      <trkpt lat="46.0104514" lon="11.2871361" />
      <trkpt lat="46.0104637" lon="11.2869170" />
      <trkpt lat="46.0103934" lon="11.2869232" />
      <trkpt lat="46.0104006" lon="11.2868144" />
      <trkpt lat="46.0104091" lon="11.2866866" />
      <trkpt lat="46.0100091" lon="11.2866776" />
      <trkpt lat="46.0098357" lon="11.2866307" />
      <trkpt lat="46.0100091" lon="11.2866776" />
      <trkpt lat="46.0100124" lon="11.2865293" />
      <trkpt lat="46.0104188" lon="11.2865409" />
      <trkpt lat="46.0104091" lon="11.2866866" />
      <trkpt lat="46.0104006" lon="11.2868144" />
      <trkpt lat="46.0103934" lon="11.2869232" />
      <trkpt lat="46.0104637" lon="11.2869170" />
      <trkpt lat="46.0104514" lon="11.2871361" />
      <trkpt lat="46.0104484" lon="11.2877290" />
      <trkpt lat="46.0104444" lon="11.2886372" />
      <trkpt lat="46.0104484" lon="11.2894042" />
      <trkpt lat="46.0104490" lon="11.2895231" />
      <trkpt lat="46.0104601" lon="11.2895497" />
      <trkpt lat="46.0104819" lon="11.2895643" />
      <trkpt lat="46.0105075" lon="11.2895672" />
      <trkpt lat="46.0105457" lon="11.2895609" />
      <trkpt lat="46.0116967" lon="11.2893124" />
      <trkpt lat="46.0119076" lon="11.2892653" />
      <trkpt lat="46.0119694" lon="11.2892404" />
      <trkpt lat="46.0120120" lon="11.2892244" />
      <trkpt lat="46.0120153" lon="11.2892938" />
      <trkpt lat="46.0120193" lon="11.2893392" />
      <trkpt lat="46.0120118" lon="11.2893791" />
      <trkpt lat="46.0120090" lon="11.2894359" />
      <trkpt lat="46.0119891" lon="11.2895508" />
      <trkpt lat="46.0119559" lon="11.2897268" />
      <trkpt lat="46.0119333" lon="11.2898959" />
      <trkpt lat="46.0119071" lon="11.2901018" />
      <trkpt lat="46.0118615" lon="11.2905121" />
      <trkpt lat="46.0117435" lon="11.2911472" />
      <trkpt lat="46.0116482" lon="11.2919540" />
      <trkpt lat="46.0115994" lon="11.2925910" />
      <trkpt lat="46.0115647" lon="11.2930441" />
      <trkpt lat="46.0115528" lon="11.2936792" />
      <trkpt lat="46.0115349" lon="11.2938251" />
      <trkpt lat="46.0114753" lon="11.2942715" />
      <trkpt lat="46.0115051" lon="11.2944431" />
      <trkpt lat="46.0115468" lon="11.2945461" />
      <trkpt lat="46.0116660" lon="11.2947435" />
      <trkpt lat="46.0117646" lon="11.2949525" />
      <trkpt lat="46.0118000" lon="11.2950276" />
      <trkpt lat="46.0117646" lon="11.2950807" />
      <trkpt lat="46.0117049" lon="11.2951673" />
      <trkpt lat="46.0117011" lon="11.2951731" />
      <trkpt lat="46.0116754" lon="11.2952125" />
      <trkpt lat="46.0115596" lon="11.2953829" />
      <trkpt lat="46.0115150" lon="11.2954806" />
      <trkpt lat="46.0119362" lon="11.2961529" />
      <trkpt lat="46.0120607" lon="11.2963293" />
      <trkpt lat="46.0122597" lon="11.2963978" />
      <trkpt lat="46.0123506" lon="11.2965892" />
      <trkpt lat="46.0125635" lon="11.2970267" />
      <trkpt lat="46.0127363" lon="11.2973759" />
      <trkpt lat="46.0129449" lon="11.2977945" />
      <trkpt lat="46.0129712" lon="11.2978899" />
      <trkpt lat="46.0128770" lon="11.2979586" />
      <trkpt lat="46.0128013" lon="11.2980024" />
      <trkpt lat="46.0127682" lon="11.2980215" />
      <trkpt lat="46.0125364" lon="11.2982718" />
      <trkpt lat="46.0123552" lon="11.2985082" />
    </trkseg>
  </trk>
</gpx>
