<?xml version="1.0" encoding="UTF-8"?>
<gpx xmlns="http://www.topografix.com/GPX/1/1" version="1.1" creator="ShapeRoute route-engine">
  <metadata>
    <name>house 15 km · 2026-09-24</name>
    <author>
      <name>ShapeRoute route-engine</name>
    </author>
    <copyright author="OpenStreetMap contributors">
      <license>https://opendatacommons.org/licenses/odbl/1-0/</license>
    </copyright>
    <link href="https://www.openstreetmap.org/copyright">
      <text>© OpenStreetMap contributors</text>
    </link>
    <time>2026-09-24T07:49:27Z</time>
  </metadata>
  <trk>
    <name>house 15 km · 2026-09-24</name>
    <trkseg>
      <trkpt lat="45.4643695" lon="9.1897716" />
      <trkpt lat="45.4644313" lon="9.1898582" />
      <trkpt lat="45.4644741" lon="9.1898729" />
      <trkpt lat="45.4645046" lon="9.1898833" />
      <trkpt lat="45.4645446" lon="9.1898970" />
      <trkpt lat="45.4645546" lon="9.1899005" />
      <trkpt lat="45.4645542" lon="9.1899580" />
      <trkpt lat="45.4645497" lon="9.1899580" />
      <trkpt lat="45.4645497" lon="9.1899743" />
      <trkpt lat="45.4645490" lon="9.1902933" />
      <trkpt lat="45.4645233" lon="9.1902840" />
      <trkpt lat="45.4645236" lon="9.1902631" />
      <trkpt lat="45.4645242" lon="9.1902105" />
      <trkpt lat="45.4644926" lon="9.1902113" />
      <trkpt lat="45.4644924" lon="9.1901827" />
      <trkpt lat="45.4644913" lon="9.1900241" />
      <trkpt lat="45.4644264" lon="9.1900245" />
      <trkpt lat="45.4638736" lon="9.1900090" />
      <trkpt lat="45.4638731" lon="9.1900740" />
      <trkpt lat="45.4638729" lon="9.1901285" />
      <trkpt lat="45.4639022" lon="9.1901304" />
      <trkpt lat="45.4639110" lon="9.1901309" />
      <trkpt lat="45.4639105" lon="9.1901614" />
      <trkpt lat="45.4638623" lon="9.1901606" />
      <trkpt lat="45.4638381" lon="9.1901611" />
      <trkpt lat="45.4638372" lon="9.1902606" />
      <trkpt lat="45.4637484" lon="9.1902593" />
      <trkpt lat="45.4636960" lon="9.1902610" />
      <trkpt lat="45.4635805" lon="9.1899838" />
      <trkpt lat="45.4635770" lon="9.1901104" />
      <trkpt lat="45.4635767" lon="9.1901213" />
      <trkpt lat="45.4635766" lon="9.1901391" />
      <trkpt lat="45.4635759" lon="9.1902779" />
      <trkpt lat="45.4635823" lon="9.1904952" />
      <trkpt lat="45.4636431" lon="9.1904942" />
      <trkpt lat="45.4636294" lon="9.1913797" />
      <trkpt lat="45.4636517" lon="9.1915334" />
      <trkpt lat="45.4636512" lon="9.1920723" />
      <trkpt lat="45.4636519" lon="9.1921174" />
      <trkpt lat="45.4636251" lon="9.1921199" />
      <trkpt lat="45.4630249" lon="9.1921750" />
      <trkpt lat="45.4629450" lon="9.1922059" />
      <trkpt lat="45.4627655" lon="9.1922716" />
      <trkpt lat="45.4627624" lon="9.1922734" />
      <trkpt lat="45.4627073" lon="9.1923080" />
      <trkpt lat="45.4626454" lon="9.1923662" />
      <trkpt lat="45.4626372" lon="9.1923751" />
      <trkpt lat="45.4626277" lon="9.1924743" />
      <trkpt lat="45.4626206" lon="9.1925494" />
      <trkpt lat="45.4626311" lon="9.1926016" />
      <trkpt lat="45.4626316" lon="9.1927536" />
      <trkpt lat="45.4626344" lon="9.1936064" />
      <trkpt lat="45.4625126" lon="9.1936218" />
      <trkpt lat="45.4625239" lon="9.1936416" />
      <trkpt lat="45.4625355" lon="9.1936621" />
      <trkpt lat="45.4625401" lon="9.1936700" />
      <trkpt lat="45.4625511" lon="9.1936894" />
      <trkpt lat="45.4625728" lon="9.1937275" />
      <trkpt lat="45.4625834" lon="9.1937460" />
      <trkpt lat="45.4625858" lon="9.1937503" />
      <trkpt lat="45.4625684" lon="9.1937773" />
      <trkpt lat="45.4625545" lon="9.1938094" />
      <trkpt lat="45.4625434" lon="9.1938518" />
      <trkpt lat="45.4625377" lon="9.1938944" />
      <trkpt lat="45.4625354" lon="9.1939545" />
      <trkpt lat="45.4625418" lon="9.1940033" />
      <trkpt lat="45.4625557" lon="9.1940340" />
      <trkpt lat="45.4625485" lon="9.1940405" />
      <trkpt lat="45.4625407" lon="9.1940476" />
      <trkpt lat="45.4625378" lon="9.1940502" />
      <trkpt lat="45.4625248" lon="9.1940621" />
      <trkpt lat="45.4625116" lon="9.1940741" />
      <trkpt lat="45.4624918" lon="9.1940922" />
      <trkpt lat="45.4624660" lon="9.1941156" />
      <trkpt lat="45.4624435" lon="9.1941361" />
      <trkpt lat="45.4621288" lon="9.1944618" />
      <trkpt lat="45.4620850" lon="9.1945305" />
      <trkpt lat="45.4619207" lon="9.1948811" />
      <trkpt lat="45.4619072" lon="9.1949200" />
      <trkpt lat="45.4618883" lon="9.1949199" />
      <trkpt lat="45.4618293" lon="9.1948889" />
      <trkpt lat="45.4618267" lon="9.1948968" />
      <trkpt lat="45.4618124" lon="9.1949397" />
      <trkpt lat="45.4618658" lon="9.1949796" />
      <trkpt lat="45.4619224" lon="9.1949879" />
      <trkpt lat="45.4620642" lon="9.1950114" />
      <trkpt lat="45.4621788" lon="9.1950796" />
      <trkpt lat="45.4621775" lon="9.1950406" />
      <trkpt lat="45.4623004" lon="9.1950742" />
      <trkpt lat="45.4623722" lon="9.1950738" />
      <trkpt lat="45.4624820" lon="9.1950767" />
      <trkpt lat="45.4625104" lon="9.1950756" />
      <trkpt lat="45.4626679" lon="9.1950802" />
      <trkpt lat="45.4627169" lon="9.1951693" />
      <trkpt lat="45.4627964" lon="9.1952487" />
      <trkpt lat="45.4628513" lon="9.1952921" />
      <trkpt lat="45.4628600" lon="9.1953720" />
      <trkpt lat="45.4628961" lon="9.1957347" />
      <trkpt lat="45.4629095" lon="9.1958705" />
      <trkpt lat="45.4629052" lon="9.1958904" />
      <trkpt lat="45.4629058" lon="9.1958959" />
      <trkpt lat="45.4629102" lon="9.1959323" />
      <trkpt lat="45.4629137" lon="9.1959610" />
      <trkpt lat="45.4629145" lon="9.1959674" />
      <trkpt lat="45.4629222" lon="9.1959775" />
      <trkpt lat="45.4629317" lon="9.1965216" />
      <trkpt lat="45.4629220" lon="9.1967241" />
      <trkpt lat="45.4628952" lon="9.1968745" />
      <trkpt lat="45.4628908" lon="9.1968991" />
      <trkpt lat="45.4628370" lon="9.1970515" />
      <trkpt lat="45.4627741" lon="9.1971949" />
      <trkpt lat="45.4627878" lon="9.1972102" />
      <trkpt lat="45.4628377" lon="9.1972657" />
      <trkpt lat="45.4628590" lon="9.1972894" />
      <trkpt lat="45.4628685" lon="9.1972999" />
      <trkpt lat="45.4628843" lon="9.1973175" />
      <trkpt lat="45.4629082" lon="9.1973441" />
      <trkpt lat="45.4629300" lon="9.1973683" />
      <trkpt lat="45.4629389" lon="9.1973782" />
      <trkpt lat="45.4629548" lon="9.1973955" />
      <trkpt lat="45.4628753" lon="9.1975407" />
      <trkpt lat="45.4628913" lon="9.1975590" />
      <trkpt lat="45.4633089" lon="9.1979566" />
      <trkpt lat="45.4631642" lon="9.1985756" />
      <trkpt lat="45.4631588" lon="9.1985934" />
      <trkpt lat="45.4629709" lon="9.1984173" />
      <trkpt lat="45.4628978" lon="9.1983469" />
      <trkpt lat="45.4627540" lon="9.1982085" />
      <trkpt lat="45.4625745" lon="9.1980356" />
      <trkpt lat="45.4625678" lon="9.1980481" />
      <trkpt lat="45.4625468" lon="9.1980867" />
      <trkpt lat="45.4625206" lon="9.1981352" />
      <trkpt lat="45.4624965" lon="9.1981797" />
      <trkpt lat="45.4624874" lon="9.1981837" />
      <trkpt lat="45.4624652" lon="9.1982104" />
      <trkpt lat="45.4624520" lon="9.1981972" />
      <trkpt lat="45.4624351" lon="9.1981798" />
      <trkpt lat="45.4624257" lon="9.1981711" />
      <trkpt lat="45.4624110" lon="9.1981563" />
      <trkpt lat="45.4623955" lon="9.1981411" />
      <trkpt lat="45.4623716" lon="9.1981173" />
      <trkpt lat="45.4623358" lon="9.1980818" />
      <trkpt lat="45.4622806" lon="9.1982900" />
      <trkpt lat="45.4622151" lon="9.1982979" />
      <trkpt lat="45.4621732" lon="9.1983066" />
      <trkpt lat="45.4621733" lon="9.1983162" />
      <trkpt lat="45.4621719" lon="9.1983285" />
      <trkpt lat="45.4621252" lon="9.1983390" />
      <trkpt lat="45.4613081" lon="9.1984842" />
      <trkpt lat="45.4609912" lon="9.1985406" />
      <trkpt lat="45.4609788" lon="9.1985775" />
      <trkpt lat="45.4609688" lon="9.1985784" />
      <trkpt lat="45.4609200" lon="9.1985826" />
      <trkpt lat="45.4608976" lon="9.1985845" />
      <trkpt lat="45.4608908" lon="9.1985851" />
      <trkpt lat="45.4608741" lon="9.1985603" />
      <trkpt lat="45.4603581" lon="9.1986583" />
      <trkpt lat="45.4601092" lon="9.1986999" />
      <trkpt lat="45.4598097" lon="9.1987470" />
      <trkpt lat="45.4598030" lon="9.1987843" />
      <trkpt lat="45.4598830" lon="9.1999434" />
      <trkpt lat="45.4598650" lon="9.1999452" />
      <trkpt lat="45.4598434" lon="9.1999473" />
      <trkpt lat="45.4598190" lon="9.1999498" />
      <trkpt lat="45.4598127" lon="9.1999504" />
      <trkpt lat="45.4598466" lon="9.2005391" />
      <trkpt lat="45.4598207" lon="9.2005484" />
      <trkpt lat="45.4598210" lon="9.2005504" />
      <trkpt lat="45.4598240" lon="9.2005835" />
      <trkpt lat="45.4588771" lon="9.2008337" />
      <trkpt lat="45.4585538" lon="9.2009065" />
      <trkpt lat="45.4585193" lon="9.2006156" />
      <trkpt lat="45.4585074" lon="9.2005645" />
      <trkpt lat="45.4584792" lon="9.2005275" />
      <trkpt lat="45.4584487" lon="9.2005104" />
      <trkpt lat="45.4584154" lon="9.2005076" />
      <trkpt lat="45.4580568" lon="9.2005993" />
      <trkpt lat="45.4580243" lon="9.2006070" />
      <trkpt lat="45.4579693" lon="9.2006218" />
      <trkpt lat="45.4579436" lon="9.2004170" />
      <trkpt lat="45.4579006" lon="9.2004297" />
      <trkpt lat="45.4579074" lon="9.2004789" />
      <trkpt lat="45.4579067" lon="9.2004846" />
      <trkpt lat="45.4569423" lon="9.2007959" />
      <trkpt lat="45.4569275" lon="9.2008010" />
      <trkpt lat="45.4569193" lon="9.2008279" />
      <trkpt lat="45.4569628" lon="9.2011364" />
      <trkpt lat="45.4570430" lon="9.2016001" />
      <trkpt lat="45.4570137" lon="9.2015963" />
      <trkpt lat="45.4569928" lon="9.2015936" />
      <trkpt lat="45.4569780" lon="9.2015917" />
      <trkpt lat="45.4569644" lon="9.2015900" />
      <trkpt lat="45.4569346" lon="9.2015861" />
      <trkpt lat="45.4568926" lon="9.2015682" />
      <trkpt lat="45.4569751" lon="9.2020878" />
      <trkpt lat="45.4569737" lon="9.2020986" />
      <trkpt lat="45.4569703" lon="9.2021054" />
      <trkpt lat="45.4569656" lon="9.2021088" />
      <trkpt lat="45.4563122" lon="9.2023268" />
      <trkpt lat="45.4554481" lon="9.2026115" />
      <trkpt lat="45.4554292" lon="9.2026180" />
      <trkpt lat="45.4554157" lon="9.2026215" />
      <trkpt lat="45.4553938" lon="9.2026293" />
      <trkpt lat="45.4553857" lon="9.2026320" />
      <trkpt lat="45.4553782" lon="9.2026418" />
      <trkpt lat="45.4548633" lon="9.2028021" />
      <trkpt lat="45.4548346" lon="9.2027970" />
      <trkpt lat="45.4544151" lon="9.2025524" />
      <trkpt lat="45.4541215" lon="9.2023812" />
      <trkpt lat="45.4540475" lon="9.2023380" />
      <trkpt lat="45.4540292" lon="9.2024087" />
      <trkpt lat="45.4540157" lon="9.2024614" />
      <trkpt lat="45.4540028" lon="9.2025112" />
      <trkpt lat="45.4539939" lon="9.2025458" />
      <trkpt lat="45.4539824" lon="9.2025902" />
      <trkpt lat="45.4539684" lon="9.2026445" />
      <trkpt lat="45.4539625" lon="9.2026672" />
      <trkpt lat="45.4539110" lon="9.2026454" />
      <trkpt lat="45.4538757" lon="9.2026296" />
      <trkpt lat="45.4538562" lon="9.2026213" />
      <trkpt lat="45.4538501" lon="9.2026636" />
      <trkpt lat="45.4528460" lon="9.2023414" />
      <trkpt lat="45.4528107" lon="9.2023691" />
      <trkpt lat="45.4528070" lon="9.2023842" />
      <trkpt lat="45.4527863" lon="9.2023734" />
      <trkpt lat="45.4527685" lon="9.2023642" />
      <trkpt lat="45.4527485" lon="9.2023539" />
      <trkpt lat="45.4527379" lon="9.2023484" />
      <trkpt lat="45.4527256" lon="9.2023188" />
      <trkpt lat="45.4526042" lon="9.2022643" />
      <trkpt lat="45.4525909" lon="9.2022583" />
      <trkpt lat="45.4524778" lon="9.2021185" />
      <trkpt lat="45.4524847" lon="9.2021006" />
      <trkpt lat="45.4525061" lon="9.2020448" />
      <trkpt lat="45.4525255" lon="9.2019942" />
      <trkpt lat="45.4525379" lon="9.2019619" />
      <trkpt lat="45.4525530" lon="9.2019226" />
      <trkpt lat="45.4525734" lon="9.2018695" />
      <trkpt lat="45.4525892" lon="9.2018280" />
      <trkpt lat="45.4525494" lon="9.2017712" />
      <trkpt lat="45.4525406" lon="9.2017362" />
      <trkpt lat="45.4525320" lon="9.2017246" />
      <trkpt lat="45.4525104" lon="9.2016955" />
      <trkpt lat="45.4525023" lon="9.2016846" />
      <trkpt lat="45.4524913" lon="9.2016698" />
      <trkpt lat="45.4524610" lon="9.2016290" />
      <trkpt lat="45.4524492" lon="9.2016131" />
      <trkpt lat="45.4524268" lon="9.2016445" />
      <trkpt lat="45.4523947" lon="9.2016123" />
      <trkpt lat="45.4521688" lon="9.2013288" />
      <trkpt lat="45.4521015" lon="9.2012279" />
      <trkpt lat="45.4520626" lon="9.2004042" />
      <trkpt lat="45.4520816" lon="9.2000095" />
      <trkpt lat="45.4521007" lon="9.2000034" />
      <trkpt lat="45.4523736" lon="9.2000560" />
      <trkpt lat="45.4524063" lon="9.2000821" />
      <trkpt lat="45.4529506" lon="9.2007697" />
      <trkpt lat="45.4529561" lon="9.2007609" />
      <trkpt lat="45.4529771" lon="9.2007273" />
      <trkpt lat="45.4529966" lon="9.2006989" />
      <trkpt lat="45.4530020" lon="9.2006875" />
      <trkpt lat="45.4530303" lon="9.2006792" />
      <trkpt lat="45.4532723" lon="9.2002863" />
      <trkpt lat="45.4532731" lon="9.2002521" />
      <trkpt lat="45.4532817" lon="9.2002378" />
      <trkpt lat="45.4533088" lon="9.2001927" />
      <trkpt lat="45.4533346" lon="9.2001499" />
      <trkpt lat="45.4533441" lon="9.2001341" />
      <trkpt lat="45.4533747" lon="9.2001275" />
      <trkpt lat="45.4536639" lon="9.1996301" />
      <trkpt lat="45.4536678" lon="9.1996193" />
      <trkpt lat="45.4536719" lon="9.1996151" />
      <trkpt lat="45.4536854" lon="9.1995944" />
      <trkpt lat="45.4537014" lon="9.1995725" />
      <trkpt lat="45.4537055" lon="9.1995669" />
      <trkpt lat="45.4536317" lon="9.1994466" />
      <trkpt lat="45.4534090" lon="9.1990192" />
      <trkpt lat="45.4534240" lon="9.1989893" />
      <trkpt lat="45.4534366" lon="9.1989020" />
      <trkpt lat="45.4532690" lon="9.1985661" />
      <trkpt lat="45.4532259" lon="9.1986024" />
      <trkpt lat="45.4532012" lon="9.1985517" />
      <trkpt lat="45.4531906" lon="9.1985270" />
      <trkpt lat="45.4530392" lon="9.1982220" />
      <trkpt lat="45.4530116" lon="9.1982111" />
      <trkpt lat="45.4529694" lon="9.1981302" />
      <trkpt lat="45.4529893" lon="9.1980477" />
      <trkpt lat="45.4529750" lon="9.1980224" />
      <trkpt lat="45.4529791" lon="9.1980175" />
      <trkpt lat="45.4531370" lon="9.1978297" />
      <trkpt lat="45.4531461" lon="9.1977028" />
      <trkpt lat="45.4529742" lon="9.1973093" />
      <trkpt lat="45.4533903" lon="9.1968771" />
      <trkpt lat="45.4529742" lon="9.1973093" />
      <trkpt lat="45.4531461" lon="9.1977028" />
      <trkpt lat="45.4531370" lon="9.1978297" />
      <trkpt lat="45.4529791" lon="9.1980175" />
      <trkpt lat="45.4529750" lon="9.1980224" />
      <trkpt lat="45.4529625" lon="9.1980002" />
      <trkpt lat="45.4529077" lon="9.1980034" />
      <trkpt lat="45.4528736" lon="9.1979379" />
      <trkpt lat="45.4528736" lon="9.1978887" />
      <trkpt lat="45.4527612" lon="9.1976624" />
      <trkpt lat="45.4527336" lon="9.1976493" />
      <trkpt lat="45.4526342" lon="9.1974464" />
      <trkpt lat="45.4526308" lon="9.1974500" />
      <trkpt lat="45.4526214" lon="9.1974600" />
      <trkpt lat="45.4525964" lon="9.1974866" />
      <trkpt lat="45.4525914" lon="9.1974919" />
      <trkpt lat="45.4525788" lon="9.1974903" />
      <trkpt lat="45.4522498" lon="9.1979171" />
      <trkpt lat="45.4522232" lon="9.1979609" />
      <trkpt lat="45.4522175" lon="9.1978988" />
      <trkpt lat="45.4522150" lon="9.1978549" />
      <trkpt lat="45.4522092" lon="9.1978077" />
      <trkpt lat="45.4522045" lon="9.1977560" />
      <trkpt lat="45.4521914" lon="9.1977468" />
      <trkpt lat="45.4521359" lon="9.1977516" />
      <trkpt lat="45.4520952" lon="9.1977550" />
      <trkpt lat="45.4520510" lon="9.1977588" />
      <trkpt lat="45.4520348" lon="9.1977602" />
      <trkpt lat="45.4520095" lon="9.1977624" />
      <trkpt lat="45.4519758" lon="9.1977653" />
      <trkpt lat="45.4519605" lon="9.1977655" />
      <trkpt lat="45.4519554" lon="9.1976175" />
      <trkpt lat="45.4519236" lon="9.1966871" />
      <trkpt lat="45.4518963" lon="9.1966542" />
      <trkpt lat="45.4518197" lon="9.1966600" />
      <trkpt lat="45.4517896" lon="9.1966662" />
      <trkpt lat="45.4513964" lon="9.1967557" />
      <trkpt lat="45.4510499" lon="9.1968507" />
      <trkpt lat="45.4510396" lon="9.1968640" />
      <trkpt lat="45.4510311" lon="9.1968889" />
      <trkpt lat="45.4510288" lon="9.1969205" />
      <trkpt lat="45.4510281" lon="9.1971546" />
      <trkpt lat="45.4510027" lon="9.1973081" />
      <trkpt lat="45.4509998" lon="9.1976568" />
      <trkpt lat="45.4510024" lon="9.1980491" />
      <trkpt lat="45.4510023" lon="9.1980682" />
      <trkpt lat="45.4510005" lon="9.1989584" />
      <trkpt lat="45.4510092" lon="9.1989841" />
      <trkpt lat="45.4510088" lon="9.1989909" />
      <trkpt lat="45.4510087" lon="9.1990134" />
      <trkpt lat="45.4513846" lon="9.1990144" />
      <trkpt lat="45.4513853" lon="9.1991964" />
      <trkpt lat="45.4516462" lon="9.1991891" />
      <trkpt lat="45.4516460" lon="9.2000772" />
      <trkpt lat="45.4516460" lon="9.2000913" />
      <trkpt lat="45.4518043" lon="9.2001146" />
      <trkpt lat="45.4518677" lon="9.2001323" />
      <trkpt lat="45.4518166" lon="9.2007843" />
      <trkpt lat="45.4518165" lon="9.2008607" />
      <trkpt lat="45.4518213" lon="9.2009626" />
      <trkpt lat="45.4518517" lon="9.2011544" />
      <trkpt lat="45.4518839" lon="9.2012627" />
      <trkpt lat="45.4519157" lon="9.2013422" />
      <trkpt lat="45.4520291" lon="9.2015729" />
      <trkpt lat="45.4520593" lon="9.2016506" />
      <trkpt lat="45.4520795" lon="9.2017376" />
      <trkpt lat="45.4520865" lon="9.2018276" />
      <trkpt lat="45.4520752" lon="9.2018807" />
      <trkpt lat="45.4520442" lon="9.2019940" />
      <trkpt lat="45.4519473" lon="9.2023370" />
      <trkpt lat="45.4518884" lon="9.2023872" />
      <trkpt lat="45.4512852" lon="9.2022621" />
      <trkpt lat="45.4512041" lon="9.2022350" />
      <trkpt lat="45.4511818" lon="9.2022215" />
      <trkpt lat="45.4511244" lon="9.2021438" />
      <trkpt lat="45.4511133" lon="9.2021516" />
      <trkpt lat="45.4510796" lon="9.2021879" />
      <trkpt lat="45.4510716" lon="9.2021954" />
      <trkpt lat="45.4510579" lon="9.2022082" />
      <trkpt lat="45.4510062" lon="9.2022535" />
      <trkpt lat="45.4509962" lon="9.2022656" />
      <trkpt lat="45.4509940" lon="9.2023594" />
      <trkpt lat="45.4502366" lon="9.2024369" />
      <trkpt lat="45.4502289" lon="9.2024373" />
      <trkpt lat="45.4501885" lon="9.2024396" />
      <trkpt lat="45.4501268" lon="9.2024431" />
      <trkpt lat="45.4501101" lon="9.2024436" />
      <trkpt lat="45.4500976" lon="9.2024700" />
      <trkpt lat="45.4498436" lon="9.2024900" />
      <trkpt lat="45.4495454" lon="9.2025135" />
      <trkpt lat="45.4489869" lon="9.2025575" />
      <trkpt lat="45.4489249" lon="9.2025640" />
      <trkpt lat="45.4489238" lon="9.2025369" />
      <trkpt lat="45.4488680" lon="9.2025222" />
      <trkpt lat="45.4488523" lon="9.2025105" />
      <trkpt lat="45.4487957" lon="9.2024683" />
      <trkpt lat="45.4487478" lon="9.2024327" />
      <trkpt lat="45.4487222" lon="9.2024136" />
      <trkpt lat="45.4486793" lon="9.2023906" />
      <trkpt lat="45.4486868" lon="9.2024203" />
      <trkpt lat="45.4483946" lon="9.2024596" />
      <trkpt lat="45.4479633" lon="9.2025009" />
      <trkpt lat="45.4479642" lon="9.2025216" />
      <trkpt lat="45.4479661" lon="9.2025654" />
      <trkpt lat="45.4479037" lon="9.2025730" />
      <trkpt lat="45.4478525" lon="9.2025801" />
      <trkpt lat="45.4471276" lon="9.2026276" />
      <trkpt lat="45.4471001" lon="9.2026302" />
      <trkpt lat="45.4470765" lon="9.2026318" />
      <trkpt lat="45.4470752" lon="9.2026025" />
      <trkpt lat="45.4470318" lon="9.2015964" />
      <trkpt lat="45.4470140" lon="9.2015507" />
      <trkpt lat="45.4469928" lon="9.2015178" />
      <trkpt lat="45.4469810" lon="9.2015058" />
      <trkpt lat="45.4469672" lon="9.2014918" />
      <trkpt lat="45.4469403" lon="9.2014749" />
      <trkpt lat="45.4468989" lon="9.2014686" />
      <trkpt lat="45.4468559" lon="9.2014724" />
      <trkpt lat="45.4468129" lon="9.2014763" />
      <trkpt lat="45.4468096" lon="9.2014037" />
      <trkpt lat="45.4468087" lon="9.2013841" />
      <trkpt lat="45.4468081" lon="9.2013700" />
      <trkpt lat="45.4466663" lon="9.1982519" />
      <trkpt lat="45.4466538" lon="9.1982548" />
      <trkpt lat="45.4465998" lon="9.1982674" />
      <trkpt lat="45.4465749" lon="9.1982732" />
      <trkpt lat="45.4465546" lon="9.1982779" />
      <trkpt lat="45.4465369" lon="9.1982821" />
      <trkpt lat="45.4465015" lon="9.1982903" />
      <trkpt lat="45.4464956" lon="9.1981767" />
      <trkpt lat="45.4464893" lon="9.1980614" />
      <trkpt lat="45.4464879" lon="9.1980365" />
      <trkpt lat="45.4464873" lon="9.1980248" />
      <trkpt lat="45.4464801" lon="9.1979018" />
      <trkpt lat="45.4464752" lon="9.1977979" />
      <trkpt lat="45.4464537" lon="9.1978028" />
      <trkpt lat="45.4464259" lon="9.1978093" />
      <trkpt lat="45.4464109" lon="9.1978128" />
      <trkpt lat="45.4463711" lon="9.1978223" />
      <trkpt lat="45.4463247" lon="9.1978329" />
      <trkpt lat="45.4463204" lon="9.1978339" />
      <trkpt lat="45.4462729" lon="9.1967147" />
      <trkpt lat="45.4461874" lon="9.1947030" />
      <trkpt lat="45.4462009" lon="9.1947018" />
      <trkpt lat="45.4462307" lon="9.1946992" />
      <trkpt lat="45.4462813" lon="9.1946952" />
      <trkpt lat="45.4463144" lon="9.1946923" />
      <trkpt lat="45.4463399" lon="9.1946897" />
      <trkpt lat="45.4463355" lon="9.1945920" />
      <trkpt lat="45.4463257" lon="9.1943873" />
      <trkpt lat="45.4463212" lon="9.1942809" />
      <trkpt lat="45.4463648" lon="9.1942762" />
      <trkpt lat="45.4464006" lon="9.1942723" />
      <trkpt lat="45.4464304" lon="9.1942691" />
      <trkpt lat="45.4464711" lon="9.1942647" />
      <trkpt lat="45.4464918" lon="9.1942625" />
      <trkpt lat="45.4464443" lon="9.1931309" />
      <trkpt lat="45.4464826" lon="9.1931333" />
      <trkpt lat="45.4465500" lon="9.1930893" />
      <trkpt lat="45.4465882" lon="9.1930400" />
      <trkpt lat="45.4467243" lon="9.1929678" />
      <trkpt lat="45.4467758" lon="9.1929126" />
      <trkpt lat="45.4468219" lon="9.1928318" />
      <trkpt lat="45.4477526" lon="9.1927754" />
      <trkpt lat="45.4477418" lon="9.1929170" />
      <trkpt lat="45.4477145" lon="9.1931087" />
      <trkpt lat="45.4476761" lon="9.1933484" />
      <trkpt lat="45.4477924" lon="9.1933751" />
      <trkpt lat="45.4480857" lon="9.1938422" />
      <trkpt lat="45.4482950" lon="9.1941402" />
      <trkpt lat="45.4483966" lon="9.1941329" />
      <trkpt lat="45.4485184" lon="9.1941241" />
      <trkpt lat="45.4485668" lon="9.1941196" />
      <trkpt lat="45.4485940" lon="9.1941178" />
      <trkpt lat="45.4486248" lon="9.1941158" />
      <trkpt lat="45.4486422" lon="9.1941147" />
      <trkpt lat="45.4486431" lon="9.1941343" />
      <trkpt lat="45.4486446" lon="9.1941684" />
      <trkpt lat="45.4491540" lon="9.1941335" />
      <trkpt lat="45.4492249" lon="9.1941286" />
      <trkpt lat="45.4493028" lon="9.1941217" />
      <trkpt lat="45.4493040" lon="9.1941656" />
      <trkpt lat="45.4493055" lon="9.1942182" />
      <trkpt lat="45.4497493" lon="9.1941774" />
      <trkpt lat="45.4501067" lon="9.1941526" />
      <trkpt lat="45.4501020" lon="9.1941003" />
      <trkpt lat="45.4500975" lon="9.1940492" />
      <trkpt lat="45.4501625" lon="9.1940434" />
      <trkpt lat="45.4502735" lon="9.1940325" />
      <trkpt lat="45.4505378" lon="9.1940085" />
      <trkpt lat="45.4508502" lon="9.1939901" />
      <trkpt lat="45.4508497" lon="9.1939662" />
      <trkpt lat="45.4508489" lon="9.1939303" />
      <trkpt lat="45.4508486" lon="9.1938975" />
      <trkpt lat="45.4508611" lon="9.1938970" />
      <trkpt lat="45.4508789" lon="9.1938964" />
      <trkpt lat="45.4508790" lon="9.1938461" />
      <trkpt lat="45.4508817" lon="9.1933825" />
      <trkpt lat="45.4509368" lon="9.1931636" />
      <trkpt lat="45.4509259" lon="9.1931634" />
      <trkpt lat="45.4508634" lon="9.1931634" />
      <trkpt lat="45.4508576" lon="9.1931634" />
      <trkpt lat="45.4508573" lon="9.1930886" />
      <trkpt lat="45.4508529" lon="9.1930617" />
      <trkpt lat="45.4508539" lon="9.1909524" />
      <trkpt lat="45.4508547" lon="9.1905424" />
      <trkpt lat="45.4508390" lon="9.1905437" />
      <trkpt lat="45.4508393" lon="9.1905120" />
      <trkpt lat="45.4508402" lon="9.1903981" />
      <trkpt lat="45.4508411" lon="9.1902931" />
      <trkpt lat="45.4508415" lon="9.1902479" />
      <trkpt lat="45.4508551" lon="9.1902286" />
      <trkpt lat="45.4508769" lon="9.1902300" />
      <trkpt lat="45.4508992" lon="9.1902342" />
      <trkpt lat="45.4509086" lon="9.1900917" />
      <trkpt lat="45.4509487" lon="9.1898724" />
      <trkpt lat="45.4510755" lon="9.1893796" />
      <trkpt lat="45.4511143" lon="9.1893053" />
      <trkpt lat="45.4511728" lon="9.1892098" />
      <trkpt lat="45.4511937" lon="9.1891685" />
      <trkpt lat="45.4512176" lon="9.1890780" />
      <trkpt lat="45.4513778" lon="9.1884711" />
      <trkpt lat="45.4514478" lon="9.1881970" />
      <trkpt lat="45.4515389" lon="9.1878618" />
      <trkpt lat="45.4515835" lon="9.1876898" />
      <trkpt lat="45.4515739" lon="9.1876668" />
      <trkpt lat="45.4515480" lon="9.1876050" />
      <trkpt lat="45.4515097" lon="9.1875931" />
      <trkpt lat="45.4509094" lon="9.1874059" />
      <trkpt lat="45.4509030" lon="9.1874363" />
      <trkpt lat="45.4508983" lon="9.1874588" />
      <trkpt lat="45.4499361" lon="9.1871663" />
      <trkpt lat="45.4499103" lon="9.1871586" />
      <trkpt lat="45.4494964" lon="9.1870326" />
      <trkpt lat="45.4493598" lon="9.1870590" />
      <trkpt lat="45.4493388" lon="9.1870641" />
      <trkpt lat="45.4493281" lon="9.1870568" />
      <trkpt lat="45.4492988" lon="9.1870328" />
      <trkpt lat="45.4492794" lon="9.1870165" />
      <trkpt lat="45.4491942" lon="9.1869388" />
      <trkpt lat="45.4490124" lon="9.1867662" />
      <trkpt lat="45.4489979" lon="9.1867688" />
      <trkpt lat="45.4489559" lon="9.1867766" />
      <trkpt lat="45.4489271" lon="9.1867820" />
      <trkpt lat="45.4489135" lon="9.1867845" />
      <trkpt lat="45.4489103" lon="9.1867496" />
      <trkpt lat="45.4488615" lon="9.1866618" />
      <trkpt lat="45.4487599" lon="9.1865525" />
      <trkpt lat="45.4486823" lon="9.1865026" />
      <trkpt lat="45.4486427" lon="9.1864989" />
      <trkpt lat="45.4482677" lon="9.1866852" />
      <trkpt lat="45.4481561" lon="9.1867399" />
      <trkpt lat="45.4481203" lon="9.1867578" />
      <trkpt lat="45.4480772" lon="9.1867794" />
      <trkpt lat="45.4480501" lon="9.1867918" />
      <trkpt lat="45.4480357" lon="9.1867984" />
      <trkpt lat="45.4480125" lon="9.1868080" />
      <trkpt lat="45.4479793" lon="9.1868246" />
      <trkpt lat="45.4479350" lon="9.1868454" />
      <trkpt lat="45.4478833" lon="9.1868697" />
      <trkpt lat="45.4465143" lon="9.1875105" />
      <trkpt lat="45.4463193" lon="9.1876017" />
      <trkpt lat="45.4461592" lon="9.1876763" />
      <trkpt lat="45.4459857" lon="9.1877571" />
      <trkpt lat="45.4459793" lon="9.1877392" />
      <trkpt lat="45.4459501" lon="9.1876584" />
      <trkpt lat="45.4459310" lon="9.1875932" />
      <trkpt lat="45.4458746" lon="9.1874008" />
      <trkpt lat="45.4458570" lon="9.1873411" />
      <trkpt lat="45.4458423" lon="9.1872909" />
      <trkpt lat="45.4458384" lon="9.1872773" />
      <trkpt lat="45.4458238" lon="9.1872679" />
      <trkpt lat="45.4457367" lon="9.1870017" />
      <trkpt lat="45.4455561" lon="9.1864001" />
      <trkpt lat="45.4455517" lon="9.1863764" />
      <trkpt lat="45.4455434" lon="9.1863479" />
      <trkpt lat="45.4455327" lon="9.1863208" />
      <trkpt lat="45.4455274" lon="9.1863061" />
      <trkpt lat="45.4457179" lon="9.1861823" />
      <trkpt lat="45.4458111" lon="9.1861247" />
      <trkpt lat="45.4458261" lon="9.1860858" />
      <trkpt lat="45.4457904" lon="9.1855600" />
      <trkpt lat="45.4457984" lon="9.1852248" />
      <trkpt lat="45.4458412" lon="9.1848627" />
      <trkpt lat="45.4458313" lon="9.1848446" />
      <trkpt lat="45.4458330" lon="9.1848337" />
      <trkpt lat="45.4458419" lon="9.1847784" />
      <trkpt lat="45.4458465" lon="9.1847494" />
      <trkpt lat="45.4458487" lon="9.1847359" />
      <trkpt lat="45.4455812" lon="9.1846594" />
      <trkpt lat="45.4454896" lon="9.1846332" />
      <trkpt lat="45.4454816" lon="9.1846175" />
      <trkpt lat="45.4454791" lon="9.1846025" />
      <trkpt lat="45.4454758" lon="9.1845825" />
      <trkpt lat="45.4454687" lon="9.1845400" />
      <trkpt lat="45.4454653" lon="9.1845195" />
      <trkpt lat="45.4454621" lon="9.1845002" />
      <trkpt lat="45.4455454" lon="9.1844942" />
      <trkpt lat="45.4455346" lon="9.1843936" />
      <trkpt lat="45.4454459" lon="9.1836243" />
      <trkpt lat="45.4454449" lon="9.1835703" />
      <trkpt lat="45.4453735" lon="9.1829195" />
      <trkpt lat="45.4453326" lon="9.1825464" />
      <trkpt lat="45.4453312" lon="9.1825308" />
      <trkpt lat="45.4453310" lon="9.1825144" />
      <trkpt lat="45.4453868" lon="9.1825017" />
      <trkpt lat="45.4453836" lon="9.1824756" />
      <trkpt lat="45.4453778" lon="9.1824309" />
      <trkpt lat="45.4453729" lon="9.1823882" />
      <trkpt lat="45.4453670" lon="9.1823401" />
      <trkpt lat="45.4452691" lon="9.1814294" />
      <trkpt lat="45.4452094" lon="9.1808950" />
      <trkpt lat="45.4452174" lon="9.1808783" />
      <trkpt lat="45.4452108" lon="9.1808178" />
      <trkpt lat="45.4452078" lon="9.1807902" />
      <trkpt lat="45.4452042" lon="9.1807570" />
      <trkpt lat="45.4452018" lon="9.1807348" />
      <trkpt lat="45.4451877" lon="9.1807213" />
      <trkpt lat="45.4450715" lon="9.1796069" />
      <trkpt lat="45.4450409" lon="9.1793239" />
      <trkpt lat="45.4450406" lon="9.1792947" />
      <trkpt lat="45.4450378" lon="9.1792228" />
      <trkpt lat="45.4450388" lon="9.1791422" />
      <trkpt lat="45.4450386" lon="9.1791310" />
      <trkpt lat="45.4450127" lon="9.1791261" />
      <trkpt lat="45.4450035" lon="9.1790181" />
      <trkpt lat="45.4449864" lon="9.1788277" />
      <trkpt lat="45.4448532" lon="9.1776301" />
      <trkpt lat="45.4449713" lon="9.1774450" />
      <trkpt lat="45.4449761" lon="9.1774511" />
      <trkpt lat="45.4449904" lon="9.1774278" />
      <trkpt lat="45.4450121" lon="9.1773924" />
      <trkpt lat="45.4451460" lon="9.1775535" />
      <trkpt lat="45.4452886" lon="9.1777368" />
      <trkpt lat="45.4453265" lon="9.1777033" />
      <trkpt lat="45.4453813" lon="9.1776616" />
      <trkpt lat="45.4454337" lon="9.1776397" />
      <trkpt lat="45.4454846" lon="9.1776376" />
      <trkpt lat="45.4455383" lon="9.1776510" />
      <trkpt lat="45.4457125" lon="9.1776956" />
      <trkpt lat="45.4458714" lon="9.1777173" />
      <trkpt lat="45.4459532" lon="9.1777119" />
      <trkpt lat="45.4459791" lon="9.1777058" />
      <trkpt lat="45.4460117" lon="9.1776909" />
      <trkpt lat="45.4460339" lon="9.1777374" />
      <trkpt lat="45.4460421" lon="9.1777546" />
      <trkpt lat="45.4460504" lon="9.1777719" />
      <trkpt lat="45.4460587" lon="9.1777640" />
      <trkpt lat="45.4460818" lon="9.1777421" />
      <trkpt lat="45.4461036" lon="9.1777215" />
      <trkpt lat="45.4461119" lon="9.1777137" />
      <trkpt lat="45.4461196" lon="9.1777263" />
      <trkpt lat="45.4463565" lon="9.1777707" />
      <trkpt lat="45.4463830" lon="9.1778438" />
      <trkpt lat="45.4464943" lon="9.1778625" />
      <trkpt lat="45.4472729" lon="9.1779966" />
      <trkpt lat="45.4473404" lon="9.1780083" />
      <trkpt lat="45.4473805" lon="9.1772116" />
      <trkpt lat="45.4474044" lon="9.1772156" />
      <trkpt lat="45.4474377" lon="9.1772212" />
      <trkpt lat="45.4475118" lon="9.1772337" />
      <trkpt lat="45.4475550" lon="9.1772409" />
      <trkpt lat="45.4475875" lon="9.1772464" />
      <trkpt lat="45.4476082" lon="9.1771875" />
      <trkpt lat="45.4483289" lon="9.1773585" />
      <trkpt lat="45.4484733" lon="9.1773952" />
      <trkpt lat="45.4485021" lon="9.1774021" />
      <trkpt lat="45.4487435" lon="9.1774601" />
      <trkpt lat="45.4488487" lon="9.1774853" />
      <trkpt lat="45.4488640" lon="9.1775131" />
      <trkpt lat="45.4488711" lon="9.1775143" />
      <trkpt lat="45.4488971" lon="9.1775186" />
      <trkpt lat="45.4489351" lon="9.1775250" />
      <trkpt lat="45.4489478" lon="9.1775272" />
      <trkpt lat="45.4489583" lon="9.1775074" />
      <trkpt lat="45.4489699" lon="9.1775099" />
      <trkpt lat="45.4491003" lon="9.1775376" />
      <trkpt lat="45.4494093" lon="9.1776149" />
      <trkpt lat="45.4495607" lon="9.1776509" />
      <trkpt lat="45.4497950" lon="9.1777073" />
      <trkpt lat="45.4500171" lon="9.1777536" />
      <trkpt lat="45.4501815" lon="9.1777924" />
      <trkpt lat="45.4511612" lon="9.1780271" />
      <trkpt lat="45.4511716" lon="9.1780532" />
      <trkpt lat="45.4511804" lon="9.1780552" />
      <trkpt lat="45.4512212" lon="9.1780644" />
      <trkpt lat="45.4512694" lon="9.1780753" />
      <trkpt lat="45.4512755" lon="9.1780767" />
      <trkpt lat="45.4512892" lon="9.1780566" />
      <trkpt lat="45.4515742" lon="9.1781268" />
      <trkpt lat="45.4515882" lon="9.1781308" />
      <trkpt lat="45.4516658" lon="9.1781529" />
      <trkpt lat="45.4517183" lon="9.1781679" />
      <trkpt lat="45.4517533" lon="9.1781779" />
      <trkpt lat="45.4520214" lon="9.1782463" />
      <trkpt lat="45.4521156" lon="9.1782689" />
      <trkpt lat="45.4522307" lon="9.1782887" />
      <trkpt lat="45.4522834" lon="9.1788704" />
      <trkpt lat="45.4522672" lon="9.1788928" />
      <trkpt lat="45.4522701" lon="9.1789035" />
      <trkpt lat="45.4522815" lon="9.1789460" />
      <trkpt lat="45.4522994" lon="9.1790129" />
      <trkpt lat="45.4523108" lon="9.1790558" />
      <trkpt lat="45.4523200" lon="9.1790766" />
      <trkpt lat="45.4523291" lon="9.1790740" />
      <trkpt lat="45.4523453" lon="9.1790696" />
      <trkpt lat="45.4523501" lon="9.1790680" />
      <trkpt lat="45.4523542" lon="9.1790667" />
      <trkpt lat="45.4523732" lon="9.1790614" />
      <trkpt lat="45.4523866" lon="9.1790576" />
      <trkpt lat="45.4523996" lon="9.1790539" />
      <trkpt lat="45.4524152" lon="9.1790494" />
      <trkpt lat="45.4524244" lon="9.1790468" />
      <trkpt lat="45.4524337" lon="9.1793517" />
      <trkpt lat="45.4524296" lon="9.1794168" />
      <trkpt lat="45.4524155" lon="9.1796334" />
      <trkpt lat="45.4524359" lon="9.1796386" />
      <trkpt lat="45.4524444" lon="9.1796407" />
      <trkpt lat="45.4524271" lon="9.1799683" />
      <trkpt lat="45.4524930" lon="9.1799673" />
      <trkpt lat="45.4525972" lon="9.1799942" />
      <trkpt lat="45.4527708" lon="9.1801232" />
      <trkpt lat="45.4528135" lon="9.1801514" />
      <trkpt lat="45.4528494" lon="9.1801616" />
      <trkpt lat="45.4529359" lon="9.1801792" />
      <trkpt lat="45.4529464" lon="9.1801810" />
      <trkpt lat="45.4529511" lon="9.1801816" />
      <trkpt lat="45.4529846" lon="9.1801857" />
      <trkpt lat="45.4530122" lon="9.1801895" />
      <trkpt lat="45.4530377" lon="9.1801929" />
      <trkpt lat="45.4530777" lon="9.1801984" />
      <trkpt lat="45.4531156" lon="9.1802030" />
      <trkpt lat="45.4531264" lon="9.1802044" />
      <trkpt lat="45.4531566" lon="9.1802221" />
      <trkpt lat="45.4531536" lon="9.1802579" />
      <trkpt lat="45.4531508" lon="9.1802946" />
      <trkpt lat="45.4531496" lon="9.1803114" />
      <trkpt lat="45.4532851" lon="9.1803318" />
      <trkpt lat="45.4532898" lon="9.1803519" />
      <trkpt lat="45.4532978" lon="9.1803863" />
      <trkpt lat="45.4533104" lon="9.1804415" />
      <trkpt lat="45.4533293" lon="9.1805104" />
      <trkpt lat="45.4534828" lon="9.1811021" />
      <trkpt lat="45.4534945" lon="9.1811412" />
      <trkpt lat="45.4535265" lon="9.1812578" />
      <trkpt lat="45.4536751" lon="9.1817634" />
      <trkpt lat="45.4537704" lon="9.1819223" />
      <trkpt lat="45.4538620" lon="9.1820751" />
      <trkpt lat="45.4541199" lon="9.1825050" />
      <trkpt lat="45.4543489" lon="9.1827078" />
      <trkpt lat="45.4548868" lon="9.1831837" />
      <trkpt lat="45.4549860" lon="9.1832593" />
      <trkpt lat="45.4554052" lon="9.1835786" />
      <trkpt lat="45.4554175" lon="9.1835914" />
      <trkpt lat="45.4554148" lon="9.1836351" />
      <trkpt lat="45.4554128" lon="9.1836646" />
      <trkpt lat="45.4553937" lon="9.1838985" />
      <trkpt lat="45.4553670" lon="9.1838959" />
      <trkpt lat="45.4551175" lon="9.1838718" />
      <trkpt lat="45.4546422" lon="9.1838260" />
      <trkpt lat="45.4536214" lon="9.1837055" />
      <trkpt lat="45.4536038" lon="9.1837146" />
      <trkpt lat="45.4535694" lon="9.1837353" />
      <trkpt lat="45.4535478" lon="9.1837478" />
      <trkpt lat="45.4535322" lon="9.1837567" />
      <trkpt lat="45.4535099" lon="9.1840117" />
      <trkpt lat="45.4534841" lon="9.1840215" />
      <trkpt lat="45.4527223" lon="9.1843495" />
      <trkpt lat="45.4527047" lon="9.1843229" />
      <trkpt lat="45.4526965" lon="9.1843249" />
      <trkpt lat="45.4526659" lon="9.1843326" />
      <trkpt lat="45.4526427" lon="9.1843383" />
      <trkpt lat="45.4526259" lon="9.1843425" />
      <trkpt lat="45.4525951" lon="9.1843487" />
      <trkpt lat="45.4525391" lon="9.1843641" />
      <trkpt lat="45.4525230" lon="9.1843681" />
      <trkpt lat="45.4524919" lon="9.1843865" />
      <trkpt lat="45.4524418" lon="9.1843883" />
      <trkpt lat="45.4524370" lon="9.1843895" />
      <trkpt lat="45.4524334" lon="9.1844999" />
      <trkpt lat="45.4524150" lon="9.1845178" />
      <trkpt lat="45.4520977" lon="9.1844657" />
      <trkpt lat="45.4520701" lon="9.1844442" />
      <trkpt lat="45.4521583" lon="9.1833278" />
      <trkpt lat="45.4523214" lon="9.1811455" />
      <trkpt lat="45.4523168" lon="9.1811395" />
      <trkpt lat="45.4523029" lon="9.1811295" />
      <trkpt lat="45.4522714" lon="9.1811090" />
      <trkpt lat="45.4522524" lon="9.1810969" />
      <trkpt lat="45.4522452" lon="9.1810921" />
      <trkpt lat="45.4521932" lon="9.1810597" />
      <trkpt lat="45.4521621" lon="9.1810356" />
      <trkpt lat="45.4521584" lon="9.1810722" />
      <trkpt lat="45.4521547" lon="9.1810819" />
      <trkpt lat="45.4521401" lon="9.1811206" />
      <trkpt lat="45.4521367" lon="9.1811234" />
      <trkpt lat="45.4521095" lon="9.1810893" />
      <trkpt lat="45.4520518" lon="9.1811076" />
      <trkpt lat="45.4520083" lon="9.1811214" />
      <trkpt lat="45.4517680" lon="9.1811850" />
      <trkpt lat="45.4520083" lon="9.1811214" />
      <trkpt lat="45.4520518" lon="9.1811076" />
      <trkpt lat="45.4520430" lon="9.1810344" />
      <trkpt lat="45.4520345" lon="9.1809637" />
      <trkpt lat="45.4520033" lon="9.1804372" />
      <trkpt lat="45.4520002" lon="9.1803022" />
      <trkpt lat="45.4519866" lon="9.1802348" />
      <trkpt lat="45.4519376" lon="9.1801973" />
      <trkpt lat="45.4519324" lon="9.1801702" />
      <trkpt lat="45.4519329" lon="9.1801466" />
      <trkpt lat="45.4519332" lon="9.1801263" />
      <trkpt lat="45.4519338" lon="9.1801091" />
      <trkpt lat="45.4519355" lon="9.1800706" />
      <trkpt lat="45.4519364" lon="9.1800370" />
      <trkpt lat="45.4519769" lon="9.1800146" />
      <trkpt lat="45.4519854" lon="9.1800142" />
      <trkpt lat="45.4520214" lon="9.1800127" />
      <trkpt lat="45.4520490" lon="9.1800118" />
      <trkpt lat="45.4520686" lon="9.1800106" />
      <trkpt lat="45.4520900" lon="9.1800099" />
      <trkpt lat="45.4521120" lon="9.1800101" />
      <trkpt lat="45.4521170" lon="9.1800087" />
      <trkpt lat="45.4521185" lon="9.1797514" />
      <trkpt lat="45.4521194" lon="9.1797449" />
      <trkpt lat="45.4521232" lon="9.1797174" />
      <trkpt lat="45.4521263" lon="9.1796954" />
      <trkpt lat="45.4521293" lon="9.1796021" />
      <trkpt lat="45.4521772" lon="9.1795683" />
      <trkpt lat="45.4521951" lon="9.1795372" />
      <trkpt lat="45.4522186" lon="9.1795093" />
      <trkpt lat="45.4522465" lon="9.1794865" />
      <trkpt lat="45.4522791" lon="9.1794705" />
      <trkpt lat="45.4523094" lon="9.1794599" />
      <trkpt lat="45.4523123" lon="9.1794448" />
      <trkpt lat="45.4523189" lon="9.1794459" />
      <trkpt lat="45.4523276" lon="9.1794475" />
      <trkpt lat="45.4523334" lon="9.1793163" />
      <trkpt lat="45.4523340" lon="9.1792425" />
      <trkpt lat="45.4523343" lon="9.1791685" />
      <trkpt lat="45.4523303" lon="9.1790887" />
      <trkpt lat="45.4523291" lon="9.1790740" />
      <trkpt lat="45.4523245" lon="9.1790409" />
      <trkpt lat="45.4523188" lon="9.1789926" />
      <trkpt lat="45.4523404" lon="9.1789419" />
      <trkpt lat="45.4523488" lon="9.1789070" />
      <trkpt lat="45.4523553" lon="9.1788690" />
      <trkpt lat="45.4523588" lon="9.1787689" />
      <trkpt lat="45.4523231" lon="9.1784074" />
      <trkpt lat="45.4523392" lon="9.1784046" />
      <trkpt lat="45.4523581" lon="9.1784009" />
      <trkpt lat="45.4524200" lon="9.1790106" />
      <trkpt lat="45.4524244" lon="9.1790468" />
      <trkpt lat="45.4524337" lon="9.1793517" />
      <trkpt lat="45.4524296" lon="9.1794168" />
      <trkpt lat="45.4524155" lon="9.1796334" />
      <trkpt lat="45.4524359" lon="9.1796386" />
      <trkpt lat="45.4524444" lon="9.1796407" />
      <trkpt lat="45.4525029" lon="9.1796600" />
      <trkpt lat="45.4526127" lon="9.1796964" />
      <trkpt lat="45.4526378" lon="9.1797047" />
      <trkpt lat="45.4529262" lon="9.1797873" />
      <trkpt lat="45.4529650" lon="9.1797949" />
      <trkpt lat="45.4529756" lon="9.1797995" />
      <trkpt lat="45.4529831" lon="9.1796978" />
      <trkpt lat="45.4529907" lon="9.1795959" />
      <trkpt lat="45.4529982" lon="9.1794940" />
      <trkpt lat="45.4529850" lon="9.1793160" />
      <trkpt lat="45.4529791" lon="9.1792366" />
      <trkpt lat="45.4529288" lon="9.1785597" />
      <trkpt lat="45.4529502" lon="9.1785544" />
      <trkpt lat="45.4529696" lon="9.1785496" />
      <trkpt lat="45.4529934" lon="9.1785433" />
      <trkpt lat="45.4530186" lon="9.1785367" />
      <trkpt lat="45.4530472" lon="9.1785292" />
      <trkpt lat="45.4530473" lon="9.1785149" />
      <trkpt lat="45.4530483" lon="9.1785006" />
      <trkpt lat="45.4530511" lon="9.1784871" />
      <trkpt lat="45.4530559" lon="9.1784753" />
      <trkpt lat="45.4530632" lon="9.1784658" />
      <trkpt lat="45.4530717" lon="9.1784593" />
      <trkpt lat="45.4530807" lon="9.1784539" />
      <trkpt lat="45.4530900" lon="9.1784487" />
      <trkpt lat="45.4535144" lon="9.1782564" />
      <trkpt lat="45.4541118" lon="9.1778688" />
      <trkpt lat="45.4541840" lon="9.1778287" />
      <trkpt lat="45.4542089" lon="9.1778018" />
      <trkpt lat="45.4542562" lon="9.1777386" />
      <trkpt lat="45.4542907" lon="9.1777853" />
      <trkpt lat="45.4543058" lon="9.1777971" />
      <trkpt lat="45.4543346" lon="9.1778199" />
      <trkpt lat="45.4546265" lon="9.1781314" />
      <trkpt lat="45.4546373" lon="9.1781130" />
      <trkpt lat="45.4546549" lon="9.1780833" />
      <trkpt lat="45.4549003" lon="9.1783791" />
      <trkpt lat="45.4549470" lon="9.1783457" />
      <trkpt lat="45.4550228" lon="9.1782915" />
      <trkpt lat="45.4551050" lon="9.1782331" />
      <trkpt lat="45.4555328" lon="9.1779370" />
      <trkpt lat="45.4555690" lon="9.1779140" />
      <trkpt lat="45.4557765" lon="9.1777708" />
      <trkpt lat="45.4558495" lon="9.1777437" />
      <trkpt lat="45.4561605" lon="9.1776859" />
      <trkpt lat="45.4564664" lon="9.1776757" />
      <trkpt lat="45.4566111" lon="9.1776657" />
      <trkpt lat="45.4569339" lon="9.1776079" />
      <trkpt lat="45.4574139" lon="9.1775371" />
      <trkpt lat="45.4575678" lon="9.1775791" />
      <trkpt lat="45.4576496" lon="9.1776059" />
      <trkpt lat="45.4577060" lon="9.1776393" />
      <trkpt lat="45.4583136" lon="9.1780794" />
      <trkpt lat="45.4584570" lon="9.1782012" />
      <trkpt lat="45.4584773" lon="9.1782144" />
      <trkpt lat="45.4585311" lon="9.1782599" />
      <trkpt lat="45.4586150" lon="9.1780976" />
      <trkpt lat="45.4586278" lon="9.1780729" />
      <trkpt lat="45.4586988" lon="9.1779189" />
      <trkpt lat="45.4587295" lon="9.1779623" />
      <trkpt lat="45.4587527" lon="9.1779939" />
      <trkpt lat="45.4587621" lon="9.1780068" />
      <trkpt lat="45.4587673" lon="9.1780147" />
      <trkpt lat="45.4588047" lon="9.1780056" />
      <trkpt lat="45.4589191" lon="9.1781496" />
      <trkpt lat="45.4589273" lon="9.1781592" />
      <trkpt lat="45.4589294" lon="9.1781617" />
      <trkpt lat="45.4589427" lon="9.1781769" />
      <trkpt lat="45.4589504" lon="9.1781847" />
      <trkpt lat="45.4589576" lon="9.1781815" />
      <trkpt lat="45.4590028" lon="9.1782236" />
      <trkpt lat="45.4590045" lon="9.1782307" />
      <trkpt lat="45.4589955" lon="9.1782766" />
      <trkpt lat="45.4590049" lon="9.1782970" />
      <trkpt lat="45.4590175" lon="9.1783242" />
      <trkpt lat="45.4590447" lon="9.1783829" />
      <trkpt lat="45.4590476" lon="9.1783892" />
      <trkpt lat="45.4590533" lon="9.1783984" />
      <trkpt lat="45.4590729" lon="9.1783808" />
      <trkpt lat="45.4591175" lon="9.1783399" />
      <trkpt lat="45.4591291" lon="9.1783293" />
      <trkpt lat="45.4591375" lon="9.1783412" />
      <trkpt lat="45.4591692" lon="9.1783988" />
      <trkpt lat="45.4592205" lon="9.1785204" />
      <trkpt lat="45.4596954" lon="9.1798063" />
      <trkpt lat="45.4598655" lon="9.1802669" />
      <trkpt lat="45.4601188" lon="9.1809437" />
      <trkpt lat="45.4601315" lon="9.1809776" />
      <trkpt lat="45.4601368" lon="9.1809707" />
      <trkpt lat="45.4601826" lon="9.1809112" />
      <trkpt lat="45.4601962" lon="9.1809554" />
      <trkpt lat="45.4601975" lon="9.1809712" />
      <trkpt lat="45.4603935" lon="9.1813696" />
      <trkpt lat="45.4604674" lon="9.1814926" />
      <trkpt lat="45.4604763" lon="9.1815077" />
      <trkpt lat="45.4604955" lon="9.1815401" />
      <trkpt lat="45.4605421" lon="9.1816199" />
      <trkpt lat="45.4605559" lon="9.1816419" />
      <trkpt lat="45.4605682" lon="9.1816627" />
      <trkpt lat="45.4605671" lon="9.1817091" />
      <trkpt lat="45.4606321" lon="9.1818848" />
      <trkpt lat="45.4606744" lon="9.1820675" />
      <trkpt lat="45.4607157" lon="9.1823991" />
      <trkpt lat="45.4607346" lon="9.1825571" />
      <trkpt lat="45.4607643" lon="9.1829277" />
      <trkpt lat="45.4607832" lon="9.1829873" />
      <trkpt lat="45.4608020" lon="9.1830336" />
      <trkpt lat="45.4609184" lon="9.1831733" />
      <trkpt lat="45.4610172" lon="9.1832795" />
      <trkpt lat="45.4611116" lon="9.1833854" />
      <trkpt lat="45.4611214" lon="9.1834044" />
      <trkpt lat="45.4611147" lon="9.1834132" />
      <trkpt lat="45.4612378" lon="9.1835308" />
      <trkpt lat="45.4613157" lon="9.1836004" />
      <trkpt lat="45.4614457" lon="9.1837174" />
      <trkpt lat="45.4616063" lon="9.1838949" />
      <trkpt lat="45.4619637" lon="9.1842827" />
      <trkpt lat="45.4619582" lon="9.1842920" />
      <trkpt lat="45.4619519" lon="9.1843054" />
      <trkpt lat="45.4619608" lon="9.1843238" />
      <trkpt lat="45.4619615" lon="9.1843443" />
      <trkpt lat="45.4619214" lon="9.1844190" />
      <trkpt lat="45.4617768" lon="9.1846661" />
      <trkpt lat="45.4616723" lon="9.1848619" />
      <trkpt lat="45.4616238" lon="9.1850099" />
      <trkpt lat="45.4615697" lon="9.1851826" />
      <trkpt lat="45.4615332" lon="9.1852993" />
      <trkpt lat="45.4615180" lon="9.1853152" />
      <trkpt lat="45.4615012" lon="9.1853209" />
      <trkpt lat="45.4615063" lon="9.1853274" />
      <trkpt lat="45.4615344" lon="9.1853633" />
      <trkpt lat="45.4615544" lon="9.1853887" />
      <trkpt lat="45.4615666" lon="9.1854016" />
      <trkpt lat="45.4615681" lon="9.1854239" />
      <trkpt lat="45.4615726" lon="9.1854527" />
      <trkpt lat="45.4615798" lon="9.1854745" />
      <trkpt lat="45.4616168" lon="9.1855282" />
      <trkpt lat="45.4617310" lon="9.1856796" />
      <trkpt lat="45.4617923" lon="9.1857612" />
      <trkpt lat="45.4618047" lon="9.1857788" />
      <trkpt lat="45.4618124" lon="9.1857896" />
      <trkpt lat="45.4620003" lon="9.1860531" />
      <trkpt lat="45.4621998" lon="9.1862953" />
      <trkpt lat="45.4625728" lon="9.1867508" />
      <trkpt lat="45.4625569" lon="9.1867749" />
      <trkpt lat="45.4625400" lon="9.1868004" />
      <trkpt lat="45.4625300" lon="9.1868155" />
      <trkpt lat="45.4625203" lon="9.1868303" />
      <trkpt lat="45.4625027" lon="9.1868568" />
      <trkpt lat="45.4624978" lon="9.1868642" />
      <trkpt lat="45.4625118" lon="9.1868800" />
      <trkpt lat="45.4625170" lon="9.1868867" />
      <trkpt lat="45.4625385" lon="9.1869146" />
      <trkpt lat="45.4625557" lon="9.1869368" />
      <trkpt lat="45.4625815" lon="9.1869703" />
      <trkpt lat="45.4625165" lon="9.1869724" />
      <trkpt lat="45.4623698" lon="9.1871741" />
      <trkpt lat="45.4623633" lon="9.1872663" />
      <trkpt lat="45.4626563" lon="9.1880668" />
      <trkpt lat="45.4626709" lon="9.1881100" />
      <trkpt lat="45.4627054" lon="9.1882123" />
      <trkpt lat="45.4627756" lon="9.1884203" />
      <trkpt lat="45.4628388" lon="9.1884389" />
      <trkpt lat="45.4628391" lon="9.1884746" />
      <trkpt lat="45.4628393" lon="9.1884922" />
      <trkpt lat="45.4628394" lon="9.1885131" />
      <trkpt lat="45.4628780" lon="9.1885136" />
      <trkpt lat="45.4632051" lon="9.1885178" />
      <trkpt lat="45.4632950" lon="9.1885189" />
      <trkpt lat="45.4635267" lon="9.1885191" />
      <trkpt lat="45.4635790" lon="9.1885192" />
      <trkpt lat="45.4635843" lon="9.1885356" />
      <trkpt lat="45.4635933" lon="9.1885635" />
      <trkpt lat="45.4635982" lon="9.1885736" />
      <trkpt lat="45.4636369" lon="9.1885741" />
      <trkpt lat="45.4636712" lon="9.1885745" />
      <trkpt lat="45.4636713" lon="9.1885837" />
      <trkpt lat="45.4636714" lon="9.1886805" />
      <trkpt lat="45.4636706" lon="9.1887812" />
      <trkpt lat="45.4636880" lon="9.1887996" />
      <trkpt lat="45.4636880" lon="9.1888097" />
      <trkpt lat="45.4636879" lon="9.1888363" />
      <trkpt lat="45.4637344" lon="9.1888372" />
      <trkpt lat="45.4637338" lon="9.1888841" />
      <trkpt lat="45.4637335" lon="9.1889066" />
      <trkpt lat="45.4637332" lon="9.1889265" />
      <trkpt lat="45.4637329" lon="9.1889492" />
      <trkpt lat="45.4637319" lon="9.1890225" />
      <trkpt lat="45.4637982" lon="9.1890213" />
      <trkpt lat="45.4637998" lon="9.1889533" />
      <trkpt lat="45.4638000" lon="9.1889344" />
      <trkpt lat="45.4638002" lon="9.1889146" />
      <trkpt lat="45.4638167" lon="9.1889146" />
      <trkpt lat="45.4640993" lon="9.1889147" />
      <trkpt lat="45.4641127" lon="9.1889147" />
      <trkpt lat="45.4641126" lon="9.1889477" />
      <trkpt lat="45.4641115" lon="9.1890703" />
      <trkpt lat="45.4641046" lon="9.1895113" />
      <trkpt lat="45.4641536" lon="9.1896431" />
      <trkpt lat="45.4643695" lon="9.1897716" />
    </trkseg>
  </trk>
</gpx>
