<?xml version="1.0" encoding="UTF-8"?>
<gpx xmlns="http://www.topografix.com/GPX/1/1" version="1.1" creator="ShapeRoute route-engine">
  <metadata>
    <name>ghost 10 km · 2026-10-05</name>
    <author>
      <name>ShapeRoute route-engine</name>
    </author>
    <copyright author="OpenStreetMap contributors">
      <license>https://opendatacommons.org/licenses/odbl/1-0/</license>
    </copyright>
    <link href="https://www.openstreetmap.org/copyright">
      <text>© OpenStreetMap contributors</text>
    </link>
    <time>2026-10-05T11:12:45Z</time>
  </metadata>
  <trk>
    <name>ghost 10 km · 2026-10-05</name>
    <trkseg>
      <trkpt lat="46.0123552" lon="11.2985082" />
      <trkpt lat="46.0122424" lon="11.2983394" />
      <trkpt lat="46.0122499" lon="11.2982214" />
      <trkpt lat="46.0122052" lon="11.2981248" />
      <trkpt lat="46.0120860" lon="11.2982428" />
      <trkpt lat="46.0118824" lon="11.2985225" />
      <trkpt lat="46.0118028" lon="11.2983483" />
      <trkpt lat="46.0116728" lon="11.2981556" />
      <trkpt lat="46.0115587" lon="11.2979934" />
      <trkpt lat="46.0115764" lon="11.2979707" />
      <trkpt lat="46.0116123" lon="11.2977853" />
      <trkpt lat="46.0112181" lon="11.2971112" />
      <trkpt lat="46.0111443" lon="11.2971898" />
      <trkpt lat="46.0109630" lon="11.2974406" />
      <trkpt lat="46.0107801" lon="11.2977017" />
      <trkpt lat="46.0106159" lon="11.2979879" />
      <trkpt lat="46.0107801" lon="11.2977017" />
      <trkpt lat="46.0109630" lon="11.2974406" />
      <trkpt lat="46.0111443" lon="11.2971898" />
      <trkpt lat="46.0112181" lon="11.2971112" />
      <trkpt lat="46.0112568" lon="11.2970649" />
      <trkpt lat="46.0111781" lon="11.2968399" />
      <trkpt lat="46.0112072" lon="11.2965500" />
      <trkpt lat="46.0113169" lon="11.2960001" />
      <trkpt lat="46.0114367" lon="11.2956134" />
      <trkpt lat="46.0115150" lon="11.2954806" />
      <trkpt lat="46.0119362" lon="11.2961529" />
      <trkpt lat="46.0120607" lon="11.2963293" />
      <trkpt lat="46.0122597" lon="11.2963978" />
      <trkpt lat="46.0116754" lon="11.2952125" />
      <trkpt lat="46.0115596" lon="11.2953829" />
      <trkpt lat="46.0114857" lon="11.2952859" />
      <trkpt lat="46.0113457" lon="11.2950572" />
      <trkpt lat="46.0111943" lon="11.2948512" />
      <trkpt lat="46.0110310" lon="11.2946158" />
      <trkpt lat="46.0109107" lon="11.2944565" />
      <trkpt lat="46.0108509" lon="11.2943632" />
      <trkpt lat="46.0107890" lon="11.2942666" />
      <trkpt lat="46.0107622" lon="11.2941624" />
      <trkpt lat="46.0107529" lon="11.2940801" />
      <trkpt lat="46.0108907" lon="11.2941611" />
      <trkpt lat="46.0111727" lon="11.2943826" />
      <trkpt lat="46.0112310" lon="11.2944284" />
      <trkpt lat="46.0116754" lon="11.2952125" />
      <trkpt lat="46.0117011" lon="11.2951731" />
      <trkpt lat="46.0117049" lon="11.2951673" />
      <trkpt lat="46.0117646" lon="11.2950807" />
      <trkpt lat="46.0118000" lon="11.2950276" />
      <trkpt lat="46.0118242" lon="11.2949915" />
      <trkpt lat="46.0118463" lon="11.2949585" />
      <trkpt lat="46.0117996" lon="11.2948382" />
      <trkpt lat="46.0121425" lon="11.2943986" />
      <trkpt lat="46.0125329" lon="11.2939461" />
      <trkpt lat="46.0129133" lon="11.2936275" />
      <trkpt lat="46.0131754" lon="11.2935322" />
      <trkpt lat="46.0132165" lon="11.2935172" />
      <trkpt lat="46.0139921" lon="11.2933736" />
      <trkpt lat="46.0140896" lon="11.2933702" />
      <trkpt lat="46.0141552" lon="11.2932415" />
      <trkpt lat="46.0143101" lon="11.2930012" />
      <trkpt lat="46.0144265" lon="11.2927022" />
      <trkpt lat="46.0145784" lon="11.2923231" />
      <trkpt lat="46.0147036" lon="11.2921944" />
      <trkpt lat="46.0150076" lon="11.2919050" />
      <trkpt lat="46.0150509" lon="11.2920681" />
      <trkpt lat="46.0151925" lon="11.2923573" />
      <trkpt lat="46.0152555" lon="11.2924861" />
      <trkpt lat="46.0153284" lon="11.2926093" />
      <trkpt lat="46.0154225" lon="11.2927684" />
      <trkpt lat="46.0154946" lon="11.2928902" />
      <trkpt lat="46.0156203" lon="11.2931027" />
      <trkpt lat="46.0158371" lon="11.2934691" />
      <trkpt lat="46.0161019" lon="11.2939130" />
      <trkpt lat="46.0162323" lon="11.2941864" />
      <trkpt lat="46.0163044" lon="11.2945247" />
      <trkpt lat="46.0163501" lon="11.2946240" />
      <trkpt lat="46.0164485" lon="11.2947194" />
      <trkpt lat="46.0165815" lon="11.2945784" />
      <trkpt lat="46.0166634" lon="11.2943853" />
      <trkpt lat="46.0169304" lon="11.2945945" />
      <trkpt lat="46.0170422" lon="11.2943575" />
      <trkpt lat="46.0172495" lon="11.2938798" />
      <trkpt lat="46.0173430" lon="11.2937574" />
      <trkpt lat="46.0173400" lon="11.2934407" />
      <trkpt lat="46.0172439" lon="11.2934307" />
      <trkpt lat="46.0171843" lon="11.2934062" />
      <trkpt lat="46.0171239" lon="11.2932250" />
      <trkpt lat="46.0171315" lon="11.2931271" />
      <trkpt lat="46.0170736" lon="11.2929912" />
      <trkpt lat="46.0171315" lon="11.2931271" />
      <trkpt lat="46.0171239" lon="11.2932250" />
      <trkpt lat="46.0171843" lon="11.2934062" />
      <trkpt lat="46.0172439" lon="11.2934307" />
      <trkpt lat="46.0173400" lon="11.2934407" />
      <trkpt lat="46.0173430" lon="11.2937574" />
      <trkpt lat="46.0172495" lon="11.2938798" />
      <trkpt lat="46.0170422" lon="11.2943575" />
      <trkpt lat="46.0169304" lon="11.2945945" />
      <trkpt lat="46.0170422" lon="11.2943575" />
      <trkpt lat="46.0172495" lon="11.2938798" />
      <trkpt lat="46.0173430" lon="11.2937574" />
      <trkpt lat="46.0173400" lon="11.2934407" />
      <trkpt lat="46.0172439" lon="11.2934307" />
      <trkpt lat="46.0171843" lon="11.2934062" />
      <trkpt lat="46.0171239" lon="11.2932250" />
      <trkpt lat="46.0171315" lon="11.2931271" />
      <trkpt lat="46.0170736" lon="11.2929912" />
      <trkpt lat="46.0171315" lon="11.2931271" />
      <trkpt lat="46.0171239" lon="11.2932250" />
      <trkpt lat="46.0171843" lon="11.2934062" />
      <trkpt lat="46.0172439" lon="11.2934307" />
      <trkpt lat="46.0173400" lon="11.2934407" />
      <trkpt lat="46.0173430" lon="11.2937574" />
      <trkpt lat="46.0173871" lon="11.2937052" />
      <trkpt lat="46.0173788" lon="11.2935240" />
      <trkpt lat="46.0174009" lon="11.2932173" />
      <trkpt lat="46.0174090" lon="11.2926705" />
      <trkpt lat="46.0174291" lon="11.2921034" />
      <trkpt lat="46.0174150" lon="11.2916260" />
      <trkpt lat="46.0174110" lon="11.2915161" />
      <trkpt lat="46.0174692" lon="11.2914958" />
      <trkpt lat="46.0175818" lon="11.2915045" />
      <trkpt lat="46.0176620" lon="11.2915180" />
      <trkpt lat="46.0178831" lon="11.2915479" />
      <trkpt lat="46.0180974" lon="11.2915761" />
      <trkpt lat="46.0181028" lon="11.2920184" />
      <trkpt lat="46.0180244" lon="11.2922908" />
      <trkpt lat="46.0180112" lon="11.2923515" />
      <trkpt lat="46.0179695" lon="11.2924714" />
      <trkpt lat="46.0178524" lon="11.2927823" />
      <trkpt lat="46.0176519" lon="11.2933103" />
      <trkpt lat="46.0175692" lon="11.2934869" />
      <trkpt lat="46.0174817" lon="11.2936170" />
      <trkpt lat="46.0173871" lon="11.2937052" />
      <trkpt lat="46.0173430" lon="11.2937574" />
      <trkpt lat="46.0172495" lon="11.2938798" />
      <trkpt lat="46.0170422" lon="11.2943575" />
      <trkpt lat="46.0169304" lon="11.2945945" />
      <trkpt lat="46.0168312" lon="11.2947578" />
      <trkpt lat="46.0167238" lon="11.2949244" />
      <trkpt lat="46.0165988" lon="11.2951123" />
      <trkpt lat="46.0163360" lon="11.2953323" />
      <trkpt lat="46.0161067" lon="11.2955120" />
      <trkpt lat="46.0157332" lon="11.2958155" />
      <trkpt lat="46.0152410" lon="11.2962611" />
      <trkpt lat="46.0147829" lon="11.2966885" />
      <trkpt lat="46.0149241" lon="11.2966919" />
      <trkpt lat="46.0151964" lon="11.2967112" />
      <trkpt lat="46.0155617" lon="11.2967634" />
      <trkpt lat="46.0158035" lon="11.2968203" />
      <trkpt lat="46.0159253" lon="11.2968559" />
      <trkpt lat="46.0163877" lon="11.2969577" />
      <trkpt lat="46.0165750" lon="11.2969819" />
      <trkpt lat="46.0166245" lon="11.2969918" />
      <trkpt lat="46.0168003" lon="11.2970142" />
      <trkpt lat="46.0169077" lon="11.2970181" />
      <trkpt lat="46.0170069" lon="11.2970027" />
      <trkpt lat="46.0171097" lon="11.2969616" />
      <trkpt lat="46.0172118" lon="11.2969045" />
      <trkpt lat="46.0172976" lon="11.2968324" />
      <trkpt lat="46.0173794" lon="11.2967420" />
      <trkpt lat="46.0174572" lon="11.2966266" />
      <trkpt lat="46.0175221" lon="11.2964985" />
      <trkpt lat="46.0175622" lon="11.2963864" />
      <trkpt lat="46.0176027" lon="11.2962317" />
      <trkpt lat="46.0176249" lon="11.2960966" />
      <trkpt lat="46.0176318" lon="11.2959793" />
      <trkpt lat="46.0176286" lon="11.2956881" />
      <trkpt lat="46.0176407" lon="11.2955777" />
      <trkpt lat="46.0176772" lon="11.2954732" />
      <trkpt lat="46.0177696" lon="11.2954227" />
      <trkpt lat="46.0178414" lon="11.2954379" />
      <trkpt lat="46.0178921" lon="11.2954790" />
      <trkpt lat="46.0179274" lon="11.2955489" />
      <trkpt lat="46.0180114" lon="11.2959467" />
      <trkpt lat="46.0182082" lon="11.2968926" />
      <trkpt lat="46.0182141" lon="11.2970149" />
      <trkpt lat="46.0182051" lon="11.2971507" />
      <trkpt lat="46.0181842" lon="11.2973144" />
      <trkpt lat="46.0181541" lon="11.2974720" />
      <trkpt lat="46.0181146" lon="11.2976118" />
      <trkpt lat="46.0180719" lon="11.2977251" />
      <trkpt lat="46.0179952" lon="11.2978773" />
      <trkpt lat="46.0179054" lon="11.2980103" />
      <trkpt lat="46.0177598" lon="11.2982008" />
      <trkpt lat="46.0174101" lon="11.2985660" />
      <trkpt lat="46.0172189" lon="11.2988241" />
      <trkpt lat="46.0170958" lon="11.2990856" />
      <trkpt lat="46.0169478" lon="11.2995977" />
      <trkpt lat="46.0169414" lon="11.2998931" />
      <trkpt lat="46.0170482" lon="11.3008359" />
      <trkpt lat="46.0170461" lon="11.3009812" />
      <trkpt lat="46.0170520" lon="11.3015792" />
      <trkpt lat="46.0170359" lon="11.3017269" />
      <trkpt lat="46.0169441" lon="11.3021369" />
      <trkpt lat="46.0167927" lon="11.3026196" />
      <trkpt lat="46.0170292" lon="11.3030996" />
      <trkpt lat="46.0169338" lon="11.3032080" />
      <trkpt lat="46.0168363" lon="11.3033181" />
      <trkpt lat="46.0167352" lon="11.3033805" />
      <trkpt lat="46.0167054" lon="11.3034663" />
      <trkpt lat="46.0167292" lon="11.3036036" />
      <trkpt lat="46.0168768" lon="11.3041644" />
      <trkpt lat="46.0169713" lon="11.3047150" />
      <trkpt lat="46.0169994" lon="11.3049075" />
      <trkpt lat="46.0170498" lon="11.3051086" />
      <trkpt lat="46.0171816" lon="11.3054649" />
      <trkpt lat="46.0174605" lon="11.3059445" />
      <trkpt lat="46.0175943" lon="11.3060763" />
      <trkpt lat="46.0177038" lon="11.3061079" />
      <trkpt lat="46.0178213" lon="11.3060850" />
      <trkpt lat="46.0179815" lon="11.3060313" />
      <trkpt lat="46.0183559" lon="11.3060340" />
      <trkpt lat="46.0184881" lon="11.3060099" />
      <trkpt lat="46.0185738" lon="11.3059992" />
      <trkpt lat="46.0186502" lon="11.3059348" />
      <trkpt lat="46.0186967" lon="11.3058463" />
      <trkpt lat="46.0188252" lon="11.3055512" />
      <trkpt lat="46.0191177" lon="11.3053125" />
      <trkpt lat="46.0193784" lon="11.3052428" />
      <trkpt lat="46.0196448" lon="11.3052240" />
      <trkpt lat="46.0198366" lon="11.3052160" />
      <trkpt lat="46.0201097" lon="11.3051109" />
      <trkpt lat="46.0203188" lon="11.3049647" />
      <trkpt lat="46.0204739" lon="11.3049117" />
      <trkpt lat="46.0206524" lon="11.3048270" />
      <trkpt lat="46.0209150" lon="11.3048270" />
      <trkpt lat="46.0211124" lon="11.3048297" />
      <trkpt lat="46.0212540" lon="11.3047868" />
      <trkpt lat="46.0213415" lon="11.3047224" />
      <trkpt lat="46.0214104" lon="11.3046312" />
      <trkpt lat="46.0214421" lon="11.3045213" />
      <trkpt lat="46.0214477" lon="11.3043818" />
      <trkpt lat="46.0214384" lon="11.3041565" />
      <trkpt lat="46.0214645" lon="11.3038453" />
      <trkpt lat="46.0214198" lon="11.3035154" />
      <trkpt lat="46.0214160" lon="11.3029093" />
      <trkpt lat="46.0213918" lon="11.3024184" />
      <trkpt lat="46.0213583" lon="11.3020831" />
      <trkpt lat="46.0213061" lon="11.3019276" />
      <trkpt lat="46.0212354" lon="11.3017666" />
      <trkpt lat="46.0211538" lon="11.3016688" />
      <trkpt lat="46.0211088" lon="11.3014813" />
      <trkpt lat="46.0210543" lon="11.3013930" />
      <trkpt lat="46.0209755" lon="11.3013780" />
      <trkpt lat="46.0209196" lon="11.3013163" />
      <trkpt lat="46.0209042" lon="11.3012260" />
      <trkpt lat="46.0208976" lon="11.3011399" />
      <trkpt lat="46.0209176" lon="11.3010762" />
      <trkpt lat="46.0209503" lon="11.3010138" />
      <trkpt lat="46.0211171" lon="11.3007253" />
      <trkpt lat="46.0212589" lon="11.3006941" />
      <trkpt lat="46.0212981" lon="11.3006100" />
      <trkpt lat="46.0214215" lon="11.3001833" />
      <trkpt lat="46.0214431" lon="11.2999440" />
      <trkpt lat="46.0215111" lon="11.2997824" />
      <trkpt lat="46.0215969" lon="11.2996598" />
      <trkpt lat="46.0217584" lon="11.2994544" />
      <trkpt lat="46.0221274" lon="11.2993664" />
      <trkpt lat="46.0223315" lon="11.2992522" />
      <trkpt lat="46.0225011" lon="11.2991285" />
      <trkpt lat="46.0225871" lon="11.2989931" />
      <trkpt lat="46.0227380" lon="11.2987001" />
      <trkpt lat="46.0228561" lon="11.2985495" />
      <trkpt lat="46.0231738" lon="11.2984416" />
      <trkpt lat="46.0233292" lon="11.2983139" />
      <trkpt lat="46.0233795" lon="11.2982144" />
      <trkpt lat="46.0233970" lon="11.2980643" />
      <trkpt lat="46.0233611" lon="11.2978971" />
      <trkpt lat="46.0230949" lon="11.2973403" />
      <trkpt lat="46.0230662" lon="11.2972632" />
      <trkpt lat="46.0230476" lon="11.2971318" />
      <trkpt lat="46.0229474" lon="11.2969248" />
      <trkpt lat="46.0226606" lon="11.2966244" />
      <trkpt lat="46.0224594" lon="11.2962167" />
      <trkpt lat="46.0223328" lon="11.2957769" />
      <trkpt lat="46.0222508" lon="11.2952941" />
      <trkpt lat="46.0220422" lon="11.2943499" />
      <trkpt lat="46.0219752" lon="11.2936096" />
      <trkpt lat="46.0218634" lon="11.2932663" />
      <trkpt lat="46.0217815" lon="11.2925260" />
      <trkpt lat="46.0216623" lon="11.2921934" />
      <trkpt lat="46.0215952" lon="11.2917857" />
      <trkpt lat="46.0215505" lon="11.2911527" />
      <trkpt lat="46.0215037" lon="11.2909127" />
      <trkpt lat="46.0215052" lon="11.2906662" />
      <trkpt lat="46.0214164" lon="11.2909167" />
      <trkpt lat="46.0213586" lon="11.2910262" />
      <trkpt lat="46.0212749" lon="11.2911849" />
      <trkpt lat="46.0211482" lon="11.2914961" />
      <trkpt lat="46.0210961" lon="11.2918072" />
      <trkpt lat="46.0211167" lon="11.2920006" />
      <trkpt lat="46.0212616" lon="11.2924325" />
      <trkpt lat="46.0212348" lon="11.2927672" />
      <trkpt lat="46.0210663" lon="11.2931912" />
      <trkpt lat="46.0210451" lon="11.2934787" />
      <trkpt lat="46.0209620" lon="11.2938564" />
      <trkpt lat="46.0209769" lon="11.2942319" />
      <trkpt lat="46.0210365" lon="11.2946396" />
      <trkpt lat="46.0211333" lon="11.2953799" />
      <trkpt lat="46.0211780" lon="11.2958734" />
      <trkpt lat="46.0212451" lon="11.2963777" />
      <trkpt lat="46.0213290" lon="11.2967750" />
      <trkpt lat="46.0213141" lon="11.2970115" />
      <trkpt lat="46.0211573" lon="11.2972304" />
      <trkpt lat="46.0208990" lon="11.2973497" />
      <trkpt lat="46.0206550" lon="11.2975458" />
      <trkpt lat="46.0203389" lon="11.2975694" />
      <trkpt lat="46.0201938" lon="11.2975981" />
      <trkpt lat="46.0201364" lon="11.2978419" />
      <trkpt lat="46.0200128" lon="11.2979768" />
      <trkpt lat="46.0196712" lon="11.2981895" />
      <trkpt lat="46.0197339" lon="11.2986912" />
      <trkpt lat="46.0196804" lon="11.2988522" />
      <trkpt lat="46.0194965" lon="11.2990097" />
      <trkpt lat="46.0194049" lon="11.2991020" />
      <trkpt lat="46.0192931" lon="11.2991779" />
      <trkpt lat="46.0191446" lon="11.2994668" />
      <trkpt lat="46.0189967" lon="11.2998144" />
      <trkpt lat="46.0188790" lon="11.3002543" />
      <trkpt lat="46.0186607" lon="11.3004420" />
      <trkpt lat="46.0184818" lon="11.3003986" />
      <trkpt lat="46.0183889" lon="11.3004442" />
      <trkpt lat="46.0183309" lon="11.3004489" />
      <trkpt lat="46.0182562" lon="11.3004932" />
      <trkpt lat="46.0183270" lon="11.3005785" />
      <trkpt lat="46.0183866" lon="11.3006763" />
      <trkpt lat="46.0185348" lon="11.3007207" />
      <trkpt lat="46.0185790" lon="11.3007397" />
      <trkpt lat="46.0185348" lon="11.3007207" />
      <trkpt lat="46.0183866" lon="11.3006763" />
      <trkpt lat="46.0183270" lon="11.3005785" />
      <trkpt lat="46.0182562" lon="11.3004932" />
      <trkpt lat="46.0182243" lon="11.3006096" />
      <trkpt lat="46.0182981" lon="11.3007682" />
      <trkpt lat="46.0184065" lon="11.3010201" />
      <trkpt lat="46.0184865" lon="11.3014571" />
      <trkpt lat="46.0184720" lon="11.3019026" />
      <trkpt lat="46.0184662" lon="11.3023644" />
      <trkpt lat="46.0185332" lon="11.3026862" />
      <trkpt lat="46.0187344" lon="11.3030510" />
      <trkpt lat="46.0189504" lon="11.3032441" />
      <trkpt lat="46.0190696" lon="11.3033943" />
      <trkpt lat="46.0191143" lon="11.3035767" />
      <trkpt lat="46.0189877" lon="11.3037055" />
      <trkpt lat="46.0187340" lon="11.3038181" />
      <trkpt lat="46.0184335" lon="11.3038276" />
      <trkpt lat="46.0183171" lon="11.3037913" />
      <trkpt lat="46.0180862" lon="11.3036518" />
      <trkpt lat="46.0177286" lon="11.3035016" />
      <trkpt lat="46.0173933" lon="11.3033836" />
      <trkpt lat="46.0171772" lon="11.3033407" />
      <trkpt lat="46.0169537" lon="11.3033729" />
      <trkpt lat="46.0167352" lon="11.3033805" />
      <trkpt lat="46.0168363" lon="11.3033181" />
      <trkpt lat="46.0169338" lon="11.3032080" />
      <trkpt lat="46.0170292" lon="11.3030996" />
      <trkpt lat="46.0167927" lon="11.3026196" />
      <trkpt lat="46.0169441" lon="11.3021369" />
      <trkpt lat="46.0170359" lon="11.3017269" />
      <trkpt lat="46.0170520" lon="11.3015792" />
      <trkpt lat="46.0170461" lon="11.3009812" />
      <trkpt lat="46.0170482" lon="11.3008359" />
      <trkpt lat="46.0170854" lon="11.3008268" />
      <trkpt lat="46.0171492" lon="11.3007972" />
      <trkpt lat="46.0171796" lon="11.3007078" />
      <trkpt lat="46.0172081" lon="11.3006243" />
      <trkpt lat="46.0172156" lon="11.3004086" />
      <trkpt lat="46.0172078" lon="11.3002483" />
      <trkpt lat="46.0171845" lon="11.3000081" />
      <trkpt lat="46.0172063" lon="11.2997754" />
      <trkpt lat="46.0172435" lon="11.2996112" />
      <trkpt lat="46.0173253" lon="11.2994310" />
      <trkpt lat="46.0174826" lon="11.2992199" />
      <trkpt lat="46.0176795" lon="11.2990835" />
      <trkpt lat="46.0177684" lon="11.2989472" />
      <trkpt lat="46.0176795" lon="11.2990835" />
      <trkpt lat="46.0174826" lon="11.2992199" />
      <trkpt lat="46.0173253" lon="11.2994310" />
      <trkpt lat="46.0172435" lon="11.2996112" />
      <trkpt lat="46.0172063" lon="11.2997754" />
      <trkpt lat="46.0171845" lon="11.3000081" />
      <trkpt lat="46.0172078" lon="11.3002483" />
      <trkpt lat="46.0172156" lon="11.3004086" />
      <trkpt lat="46.0172081" lon="11.3006243" />
      <trkpt lat="46.0171796" lon="11.3007078" />
      <trkpt lat="46.0171492" lon="11.3007972" />
      <trkpt lat="46.0170854" lon="11.3008268" />
      <trkpt lat="46.0170482" lon="11.3008359" />
      <trkpt lat="46.0170461" lon="11.3009812" />
      <trkpt lat="46.0170520" lon="11.3015792" />
      <trkpt lat="46.0170359" lon="11.3017269" />
      <trkpt lat="46.0169441" lon="11.3021369" />
      <trkpt lat="46.0167927" lon="11.3026196" />
      <trkpt lat="46.0170292" lon="11.3030996" />
      <trkpt lat="46.0169338" lon="11.3032080" />
      <trkpt lat="46.0168363" lon="11.3033181" />
      <trkpt lat="46.0167352" lon="11.3033805" />
      <trkpt lat="46.0169537" lon="11.3033729" />
      <trkpt lat="46.0171772" lon="11.3033407" />
      <trkpt lat="46.0173933" lon="11.3033836" />
      <trkpt lat="46.0177286" lon="11.3035016" />
      <trkpt lat="46.0180862" lon="11.3036518" />
      <trkpt lat="46.0183171" lon="11.3037913" />
      <trkpt lat="46.0184335" lon="11.3038276" />
      <trkpt lat="46.0187340" lon="11.3038181" />
      <trkpt lat="46.0189877" lon="11.3037055" />
      <trkpt lat="46.0191143" lon="11.3035767" />
      <trkpt lat="46.0190696" lon="11.3033943" />
      <trkpt lat="46.0189504" lon="11.3032441" />
      <trkpt lat="46.0187344" lon="11.3030510" />
      <trkpt lat="46.0185332" lon="11.3026862" />
      <trkpt lat="46.0184662" lon="11.3023644" />
      <trkpt lat="46.0184720" lon="11.3019026" />
      <trkpt lat="46.0184865" lon="11.3014571" />
      <trkpt lat="46.0184065" lon="11.3010201" />
      <trkpt lat="46.0182981" lon="11.3007682" />
      <trkpt lat="46.0182243" lon="11.3006096" />
      <trkpt lat="46.0182562" lon="11.3004932" />
      <trkpt lat="46.0183270" lon="11.3005785" />
      <trkpt lat="46.0183866" lon="11.3006763" />
      <trkpt lat="46.0185348" lon="11.3007207" />
      <trkpt lat="46.0185790" lon="11.3007397" />
      <trkpt lat="46.0185348" lon="11.3007207" />
      <trkpt lat="46.0183866" lon="11.3006763" />
      <trkpt lat="46.0183270" lon="11.3005785" />
      <trkpt lat="46.0182562" lon="11.3004932" />
      <trkpt lat="46.0182243" lon="11.3006096" />
      <trkpt lat="46.0182981" lon="11.3007682" />
      <trkpt lat="46.0184065" lon="11.3010201" />
      <trkpt lat="46.0184865" lon="11.3014571" />
      <trkpt lat="46.0184720" lon="11.3019026" />
      <trkpt lat="46.0184662" lon="11.3023644" />
      <trkpt lat="46.0185332" lon="11.3026862" />
      <trkpt lat="46.0187344" lon="11.3030510" />
      <trkpt lat="46.0189504" lon="11.3032441" />
      <trkpt lat="46.0190696" lon="11.3033943" />
      <trkpt lat="46.0191143" lon="11.3035767" />
      <trkpt lat="46.0189877" lon="11.3037055" />
      <trkpt lat="46.0187340" lon="11.3038181" />
      <trkpt lat="46.0184335" lon="11.3038276" />
      <trkpt lat="46.0183171" lon="11.3037913" />
      <trkpt lat="46.0180862" lon="11.3036518" />
      <trkpt lat="46.0177286" lon="11.3035016" />
      <trkpt lat="46.0173933" lon="11.3033836" />
      <trkpt lat="46.0171772" lon="11.3033407" />
      <trkpt lat="46.0169537" lon="11.3033729" />
      <trkpt lat="46.0167352" lon="11.3033805" />
      <trkpt lat="46.0168363" lon="11.3033181" />
      <trkpt lat="46.0169338" lon="11.3032080" />
      <trkpt lat="46.0170292" lon="11.3030996" />
      <trkpt lat="46.0167927" lon="11.3026196" />
      <trkpt lat="46.0166719" lon="11.3023249" />
      <trkpt lat="46.0166319" lon="11.3021868" />
      <trkpt lat="46.0166736" lon="11.3019590" />
      <trkpt lat="46.0167136" lon="11.3017241" />
      <trkpt lat="46.0168036" lon="11.3014512" />
      <trkpt lat="46.0168268" lon="11.3013808" />
      <trkpt lat="46.0168864" lon="11.3012349" />
      <trkpt lat="46.0169422" lon="11.3011398" />
      <trkpt lat="46.0170461" lon="11.3009812" />
      <trkpt lat="46.0170520" lon="11.3015792" />
      <trkpt lat="46.0170359" lon="11.3017269" />
      <trkpt lat="46.0169441" lon="11.3021369" />
      <trkpt lat="46.0167927" lon="11.3026196" />
      <trkpt lat="46.0164946" lon="11.3030559" />
      <trkpt lat="46.0163097" lon="11.3033545" />
      <trkpt lat="46.0162536" lon="11.3031305" />
      <trkpt lat="46.0161921" lon="11.3028596" />
      <trkpt lat="46.0161120" lon="11.3025324" />
      <trkpt lat="46.0160393" lon="11.3022480" />
      <trkpt lat="46.0159630" lon="11.3020147" />
      <trkpt lat="46.0158363" lon="11.3017116" />
      <trkpt lat="46.0156351" lon="11.3013334" />
      <trkpt lat="46.0154172" lon="11.3009633" />
      <trkpt lat="46.0151833" lon="11.3006314" />
      <trkpt lat="46.0144921" lon="11.3017492" />
      <trkpt lat="46.0142766" lon="11.3021027" />
      <trkpt lat="46.0140622" lon="11.3025070" />
      <trkpt lat="46.0139875" lon="11.3026424" />
      <trkpt lat="46.0137742" lon="11.3024673" />
      <trkpt lat="46.0135551" lon="11.3022875" />
      <trkpt lat="46.0130588" lon="11.3019822" />
      <trkpt lat="46.0129158" lon="11.3025677" />
      <trkpt lat="46.0127947" lon="11.3025923" />
      <trkpt lat="46.0127630" lon="11.3026041" />
      <trkpt lat="46.0127009" lon="11.3027026" />
      <trkpt lat="46.0126688" lon="11.3028118" />
      <trkpt lat="46.0126281" lon="11.3027985" />
      <trkpt lat="46.0125904" lon="11.3029184" />
      <trkpt lat="46.0126281" lon="11.3027985" />
      <trkpt lat="46.0126688" lon="11.3028118" />
      <trkpt lat="46.0127009" lon="11.3027026" />
      <trkpt lat="46.0127630" lon="11.3026041" />
      <trkpt lat="46.0127947" lon="11.3025923" />
      <trkpt lat="46.0129158" lon="11.3025677" />
      <trkpt lat="46.0130588" lon="11.3019822" />
      <trkpt lat="46.0126992" lon="11.3017516" />
      <trkpt lat="46.0124475" lon="11.3015655" />
      <trkpt lat="46.0122740" lon="11.3014141" />
      <trkpt lat="46.0122465" lon="11.3013586" />
      <trkpt lat="46.0121159" lon="11.3011788" />
      <trkpt lat="46.0120772" lon="11.3011040" />
      <trkpt lat="46.0120169" lon="11.3010306" />
      <trkpt lat="46.0119307" lon="11.3010390" />
      <trkpt lat="46.0119028" lon="11.3010497" />
      <trkpt lat="46.0118747" lon="11.3010806" />
      <trkpt lat="46.0118598" lon="11.3011056" />
      <trkpt lat="46.0116443" lon="11.3010386" />
      <trkpt lat="46.0118598" lon="11.3011056" />
      <trkpt lat="46.0118747" lon="11.3010806" />
      <trkpt lat="46.0119028" lon="11.3010497" />
      <trkpt lat="46.0119307" lon="11.3010390" />
      <trkpt lat="46.0120169" lon="11.3010306" />
      <trkpt lat="46.0119443" lon="11.3009640" />
      <trkpt lat="46.0118496" lon="11.3009037" />
      <trkpt lat="46.0118055" lon="11.3008842" />
      <trkpt lat="46.0118149" lon="11.3008633" />
      <trkpt lat="46.0116549" lon="11.3007415" />
      <trkpt lat="46.0117254" lon="11.3005770" />
      <trkpt lat="46.0119170" lon="11.3002454" />
      <trkpt lat="46.0121762" lon="11.2998590" />
      <trkpt lat="46.0123257" lon="11.2996448" />
      <trkpt lat="46.0124654" lon="11.2994100" />
      <trkpt lat="46.0126048" lon="11.2991203" />
      <trkpt lat="46.0127099" lon="11.2988315" />
      <trkpt lat="46.0123552" lon="11.2985082" />
    </trkseg>
  </trk>
</gpx>
