<?xml version="1.0" encoding="UTF-8"?>
<gpx xmlns="http://www.topografix.com/GPX/1/1" version="1.1" creator="ShapeRoute route-engine">
  <metadata>
    <name>circle 15 km · 2026-09-23</name>
    <author>
      <name>ShapeRoute route-engine</name>
    </author>
    <time>2026-09-23T05:39:04Z</time>
  </metadata>
  <trk>
    <name>circle 15 km · 2026-09-23</name>
    <trkseg>
      <trkpt lat="46.0123552" lon="11.2985082" />
      <trkpt lat="46.0122424" lon="11.2983394" />
      <trkpt lat="46.0122499" lon="11.2982214" />
      <trkpt lat="46.0122052" lon="11.2981248" />
      <trkpt lat="46.0120860" lon="11.2982428" />
      <trkpt lat="46.0118824" lon="11.2985225" />
      <trkpt lat="46.0115130" lon="11.2989377" />
      <trkpt lat="46.0114073" lon="11.2988065" />
      <trkpt lat="46.0113012" lon="11.2986379" />
      <trkpt lat="46.0111941" lon="11.2984770" />
      <trkpt lat="46.0115587" lon="11.2979934" />
      <trkpt lat="46.0115764" lon="11.2979707" />
      <trkpt lat="46.0116123" lon="11.2977853" />
      <trkpt lat="46.0112181" lon="11.2971112" />
      <trkpt lat="46.0111443" lon="11.2971898" />
      <trkpt lat="46.0109630" lon="11.2974406" />
      <trkpt lat="46.0107801" lon="11.2977017" />
      <trkpt lat="46.0106159" lon="11.2979879" />
      <trkpt lat="46.0105560" lon="11.2981004" />
      <trkpt lat="46.0104499" lon="11.2983154" />
      <trkpt lat="46.0103691" lon="11.2984793" />
      <trkpt lat="46.0102995" lon="11.2985799" />
      <trkpt lat="46.0102920" lon="11.2985647" />
      <trkpt lat="46.0102681" lon="11.2985392" />
      <trkpt lat="46.0102399" lon="11.2985256" />
      <trkpt lat="46.0102101" lon="11.2985252" />
      <trkpt lat="46.0101817" lon="11.2985380" />
      <trkpt lat="46.0101575" lon="11.2985629" />
      <trkpt lat="46.0100762" lon="11.2985089" />
      <trkpt lat="46.0100365" lon="11.2984927" />
      <trkpt lat="46.0099647" lon="11.2984635" />
      <trkpt lat="46.0099589" lon="11.2984611" />
      <trkpt lat="46.0098825" lon="11.2984367" />
      <trkpt lat="46.0098012" lon="11.2986955" />
      <trkpt lat="46.0099120" lon="11.2988591" />
      <trkpt lat="46.0099504" lon="11.2988854" />
      <trkpt lat="46.0100063" lon="11.2990362" />
      <trkpt lat="46.0100425" lon="11.2991474" />
      <trkpt lat="46.0100209" lon="11.2991942" />
      <trkpt lat="46.0096193" lon="11.2990766" />
      <trkpt lat="46.0093803" lon="11.2989948" />
      <trkpt lat="46.0091675" lon="11.2989813" />
      <trkpt lat="46.0090929" lon="11.2989837" />
      <trkpt lat="46.0090193" lon="11.2990345" />
      <trkpt lat="46.0088932" lon="11.2991920" />
      <trkpt lat="46.0087057" lon="11.2995460" />
      <trkpt lat="46.0086613" lon="11.2996130" />
      <trkpt lat="46.0085907" lon="11.2997702" />
      <trkpt lat="46.0083690" lon="11.3003535" />
      <trkpt lat="46.0081833" lon="11.3007954" />
      <trkpt lat="46.0081156" lon="11.3009486" />
      <trkpt lat="46.0080591" lon="11.3009543" />
      <trkpt lat="46.0080566" lon="11.3009546" />
      <trkpt lat="46.0078777" lon="11.3010371" />
      <trkpt lat="46.0077161" lon="11.3011122" />
      <trkpt lat="46.0072923" lon="11.3013556" />
      <trkpt lat="46.0072785" lon="11.3013637" />
      <trkpt lat="46.0071381" lon="11.3014736" />
      <trkpt lat="46.0071148" lon="11.3015190" />
      <trkpt lat="46.0071047" lon="11.3015080" />
      <trkpt lat="46.0070950" lon="11.3015015" />
      <trkpt lat="46.0070846" lon="11.3014978" />
      <trkpt lat="46.0070739" lon="11.3014971" />
      <trkpt lat="46.0070634" lon="11.3014994" />
      <trkpt lat="46.0070533" lon="11.3015047" />
      <trkpt lat="46.0070442" lon="11.3015127" />
      <trkpt lat="46.0070357" lon="11.3015240" />
      <trkpt lat="46.0070335" lon="11.3015234" />
      <trkpt lat="46.0069475" lon="11.3014781" />
      <trkpt lat="46.0067227" lon="11.3013157" />
      <trkpt lat="46.0062803" lon="11.3010351" />
      <trkpt lat="46.0062218" lon="11.3010002" />
      <trkpt lat="46.0061564" lon="11.3009611" />
      <trkpt lat="46.0061547" lon="11.3010629" />
      <trkpt lat="46.0059128" lon="11.3025278" />
      <trkpt lat="46.0058177" lon="11.3031713" />
      <trkpt lat="46.0056299" lon="11.3045910" />
      <trkpt lat="46.0055894" lon="11.3047845" />
      <trkpt lat="46.0055181" lon="11.3049080" />
      <trkpt lat="46.0053368" lon="11.3050013" />
      <trkpt lat="46.0050907" lon="11.3050992" />
      <trkpt lat="46.0049239" lon="11.3051248" />
      <trkpt lat="46.0047701" lon="11.3051574" />
      <trkpt lat="46.0045822" lon="11.3051714" />
      <trkpt lat="46.0043701" lon="11.3051598" />
      <trkpt lat="46.0041497" lon="11.3051920" />
      <trkpt lat="46.0039364" lon="11.3052022" />
      <trkpt lat="46.0034271" lon="11.3053307" />
      <trkpt lat="46.0031049" lon="11.3053543" />
      <trkpt lat="46.0030124" lon="11.3053495" />
      <trkpt lat="46.0028066" lon="11.3070843" />
      <trkpt lat="46.0025096" lon="11.3095835" />
      <trkpt lat="46.0024870" lon="11.3095672" />
      <trkpt lat="46.0023308" lon="11.3095327" />
      <trkpt lat="46.0023020" lon="11.3095370" />
      <trkpt lat="46.0022121" lon="11.3095586" />
      <trkpt lat="46.0021384" lon="11.3096200" />
      <trkpt lat="46.0019730" lon="11.3098498" />
      <trkpt lat="46.0018740" lon="11.3100033" />
      <trkpt lat="46.0018315" lon="11.3100471" />
      <trkpt lat="46.0018203" lon="11.3100657" />
      <trkpt lat="46.0018068" lon="11.3100809" />
      <trkpt lat="46.0017613" lon="11.3101737" />
      <trkpt lat="46.0015439" lon="11.3104514" />
      <trkpt lat="46.0015184" lon="11.3104875" />
      <trkpt lat="46.0013803" lon="11.3106827" />
      <trkpt lat="46.0010217" lon="11.3112045" />
      <trkpt lat="46.0008837" lon="11.3114122" />
      <trkpt lat="46.0005346" lon="11.3120139" />
      <trkpt lat="46.0003800" lon="11.3123160" />
      <trkpt lat="46.0003033" lon="11.3124623" />
      <trkpt lat="46.0002559" lon="11.3125435" />
      <trkpt lat="46.0001608" lon="11.3127726" />
      <trkpt lat="46.0000723" lon="11.3130579" />
      <trkpt lat="46.0000083" lon="11.3133229" />
      <trkpt lat="45.9999609" lon="11.3135460" />
      <trkpt lat="45.9998991" lon="11.3141877" />
      <trkpt lat="45.9998610" lon="11.3143888" />
      <trkpt lat="45.9998282" lon="11.3144833" />
      <trkpt lat="45.9997649" lon="11.3146024" />
      <trkpt lat="45.9996842" lon="11.3146954" />
      <trkpt lat="45.9996058" lon="11.3147709" />
      <trkpt lat="45.9994920" lon="11.3148602" />
      <trkpt lat="45.9993502" lon="11.3149265" />
      <trkpt lat="45.9992184" lon="11.3149794" />
      <trkpt lat="45.9990405" lon="11.3150234" />
      <trkpt lat="45.9990229" lon="11.3150948" />
      <trkpt lat="45.9988847" lon="11.3153194" />
      <trkpt lat="45.9988157" lon="11.3154627" />
      <trkpt lat="45.9988205" lon="11.3155534" />
      <trkpt lat="45.9988596" lon="11.3160611" />
      <trkpt lat="45.9989049" lon="11.3163351" />
      <trkpt lat="45.9990051" lon="11.3169218" />
      <trkpt lat="45.9990506" lon="11.3173004" />
      <trkpt lat="45.9990676" lon="11.3178487" />
      <trkpt lat="45.9992130" lon="11.3189021" />
      <trkpt lat="45.9992801" lon="11.3192177" />
      <trkpt lat="45.9994727" lon="11.3197416" />
      <trkpt lat="45.9995264" lon="11.3198562" />
      <trkpt lat="45.9996713" lon="11.3201651" />
      <trkpt lat="45.9998453" lon="11.3205635" />
      <trkpt lat="45.9999347" lon="11.3208327" />
      <trkpt lat="46.0000400" lon="11.3211310" />
      <trkpt lat="46.0001384" lon="11.3214213" />
      <trkpt lat="46.0001653" lon="11.3215557" />
      <trkpt lat="46.0001741" lon="11.3217121" />
      <trkpt lat="46.0001767" lon="11.3219826" />
      <trkpt lat="46.0001592" lon="11.3223213" />
      <trkpt lat="46.0001280" lon="11.3226214" />
      <trkpt lat="46.0001065" lon="11.3227167" />
      <trkpt lat="46.0000599" lon="11.3228165" />
      <trkpt lat="45.9999951" lon="11.3228923" />
      <trkpt lat="45.9999369" lon="11.3229493" />
      <trkpt lat="45.9998406" lon="11.3232733" />
      <trkpt lat="45.9997392" lon="11.3236477" />
      <trkpt lat="45.9995129" lon="11.3243139" />
      <trkpt lat="45.9994048" lon="11.3246276" />
      <trkpt lat="45.9993466" lon="11.3248650" />
      <trkpt lat="45.9993098" lon="11.3250871" />
      <trkpt lat="45.9992832" lon="11.3255369" />
      <trkpt lat="45.9991954" lon="11.3265629" />
      <trkpt lat="45.9991650" lon="11.3270687" />
      <trkpt lat="45.9991548" lon="11.3273045" />
      <trkpt lat="45.9991819" lon="11.3274115" />
      <trkpt lat="45.9992085" lon="11.3274355" />
      <trkpt lat="45.9992359" lon="11.3274601" />
      <trkpt lat="45.9993322" lon="11.3274723" />
      <trkpt lat="45.9995950" lon="11.3274421" />
      <trkpt lat="45.9998575" lon="11.3273215" />
      <trkpt lat="46.0000703" lon="11.3272510" />
      <trkpt lat="46.0002915" lon="11.3272291" />
      <trkpt lat="46.0004942" lon="11.3272486" />
      <trkpt lat="46.0005590" lon="11.3272068" />
      <trkpt lat="46.0006163" lon="11.3272411" />
      <trkpt lat="46.0006951" lon="11.3272824" />
      <trkpt lat="46.0007477" lon="11.3273684" />
      <trkpt lat="46.0007620" lon="11.3275128" />
      <trkpt lat="46.0007357" lon="11.3277397" />
      <trkpt lat="46.0007047" lon="11.3280148" />
      <trkpt lat="46.0006569" lon="11.3283071" />
      <trkpt lat="46.0005972" lon="11.3285650" />
      <trkpt lat="46.0005399" lon="11.3289191" />
      <trkpt lat="46.0005208" lon="11.3291839" />
      <trkpt lat="46.0005303" lon="11.3293489" />
      <trkpt lat="46.0005601" lon="11.3294806" />
      <trkpt lat="46.0006688" lon="11.3296034" />
      <trkpt lat="46.0008193" lon="11.3296928" />
      <trkpt lat="46.0008945" lon="11.3297456" />
      <trkpt lat="46.0009435" lon="11.3298040" />
      <trkpt lat="46.0009679" lon="11.3298816" />
      <trkpt lat="46.0010395" lon="11.3297872" />
      <trkpt lat="46.0012124" lon="11.3297014" />
      <trkpt lat="46.0013316" lon="11.3295812" />
      <trkpt lat="46.0013900" lon="11.3294035" />
      <trkpt lat="46.0013935" lon="11.3293586" />
      <trkpt lat="46.0014113" lon="11.3291314" />
      <trkpt lat="46.0014513" lon="11.3289819" />
      <trkpt lat="46.0015844" lon="11.3287865" />
      <trkpt lat="46.0018426" lon="11.3284953" />
      <trkpt lat="46.0020769" lon="11.3283195" />
      <trkpt lat="46.0025455" lon="11.3280112" />
      <trkpt lat="46.0031528" lon="11.3275954" />
      <trkpt lat="46.0036567" lon="11.3272660" />
      <trkpt lat="46.0038029" lon="11.3272272" />
      <trkpt lat="46.0041858" lon="11.3272118" />
      <trkpt lat="46.0044243" lon="11.3272320" />
      <trkpt lat="46.0046265" lon="11.3272824" />
      <trkpt lat="46.0047777" lon="11.3272930" />
      <trkpt lat="46.0048153" lon="11.3274966" />
      <trkpt lat="46.0048373" lon="11.3276157" />
      <trkpt lat="46.0049516" lon="11.3279294" />
      <trkpt lat="46.0056123" lon="11.3297958" />
      <trkpt lat="46.0056838" lon="11.3301048" />
      <trkpt lat="46.0057863" lon="11.3303121" />
      <trkpt lat="46.0058508" lon="11.3305940" />
      <trkpt lat="46.0059283" lon="11.3308172" />
      <trkpt lat="46.0060952" lon="11.3312206" />
      <trkpt lat="46.0061608" lon="11.3314609" />
      <trkpt lat="46.0062144" lon="11.3319416" />
      <trkpt lat="46.0062727" lon="11.3321505" />
      <trkpt lat="46.0063395" lon="11.3322813" />
      <trkpt lat="46.0065243" lon="11.3326433" />
      <trkpt lat="46.0066280" lon="11.3328407" />
      <trkpt lat="46.0067331" lon="11.3331861" />
      <trkpt lat="46.0068315" lon="11.3335101" />
      <trkpt lat="46.0068583" lon="11.3335981" />
      <trkpt lat="46.0069060" lon="11.3339843" />
      <trkpt lat="46.0068417" lon="11.3344298" />
      <trkpt lat="46.0069955" lon="11.3342913" />
      <trkpt lat="46.0071839" lon="11.3341004" />
      <trkpt lat="46.0073292" lon="11.3339061" />
      <trkpt lat="46.0074840" lon="11.3337386" />
      <trkpt lat="46.0076445" lon="11.3335797" />
      <trkpt lat="46.0077521" lon="11.3334645" />
      <trkpt lat="46.0079261" lon="11.3338410" />
      <trkpt lat="46.0079346" lon="11.3338593" />
      <trkpt lat="46.0079886" lon="11.3338432" />
      <trkpt lat="46.0080563" lon="11.3337954" />
      <trkpt lat="46.0082224" lon="11.3336782" />
      <trkpt lat="46.0080128" lon="11.3332056" />
      <trkpt lat="46.0081003" lon="11.3331187" />
      <trkpt lat="46.0084653" lon="11.3327329" />
      <trkpt lat="46.0086241" lon="11.3326340" />
      <trkpt lat="46.0086923" lon="11.3327389" />
      <trkpt lat="46.0089810" lon="11.3332668" />
      <trkpt lat="46.0092716" lon="11.3338249" />
      <trkpt lat="46.0095495" lon="11.3344549" />
      <trkpt lat="46.0097789" lon="11.3349755" />
      <trkpt lat="46.0098667" lon="11.3351246" />
      <trkpt lat="46.0100665" lon="11.3353744" />
      <trkpt lat="46.0101551" lon="11.3355505" />
      <trkpt lat="46.0103336" lon="11.3361142" />
      <trkpt lat="46.0104429" lon="11.3363725" />
      <trkpt lat="46.0106102" lon="11.3367251" />
      <trkpt lat="46.0108608" lon="11.3372971" />
      <trkpt lat="46.0113031" lon="11.3385509" />
      <trkpt lat="46.0120680" lon="11.3383567" />
      <trkpt lat="46.0122242" lon="11.3383387" />
      <trkpt lat="46.0124204" lon="11.3384091" />
      <trkpt lat="46.0125983" lon="11.3387005" />
      <trkpt lat="46.0127480" lon="11.3389580" />
      <trkpt lat="46.0128153" lon="11.3390459" />
      <trkpt lat="46.0132724" lon="11.3390279" />
      <trkpt lat="46.0134128" lon="11.3390011" />
      <trkpt lat="46.0134466" lon="11.3389893" />
      <trkpt lat="46.0136148" lon="11.3389132" />
      <trkpt lat="46.0136706" lon="11.3388773" />
      <trkpt lat="46.0141196" lon="11.3386424" />
      <trkpt lat="46.0145509" lon="11.3383773" />
      <trkpt lat="46.0149257" lon="11.3381059" />
      <trkpt lat="46.0148999" lon="11.3379851" />
      <trkpt lat="46.0149088" lon="11.3377022" />
      <trkpt lat="46.0149474" lon="11.3374525" />
      <trkpt lat="46.0151565" lon="11.3366520" />
      <trkpt lat="46.0152628" lon="11.3361492" />
      <trkpt lat="46.0157605" lon="11.3340140" />
      <trkpt lat="46.0159763" lon="11.3331674" />
      <trkpt lat="46.0161221" lon="11.3325495" />
      <trkpt lat="46.0161972" lon="11.3320353" />
      <trkpt lat="46.0162275" lon="11.3319548" />
      <trkpt lat="46.0162892" lon="11.3319136" />
      <trkpt lat="46.0163728" lon="11.3318692" />
      <trkpt lat="46.0164177" lon="11.3318713" />
      <trkpt lat="46.0164527" lon="11.3308865" />
      <trkpt lat="46.0165548" lon="11.3310113" />
      <trkpt lat="46.0166382" lon="11.3312259" />
      <trkpt lat="46.0168051" lon="11.3316979" />
      <trkpt lat="46.0169362" lon="11.3321614" />
      <trkpt lat="46.0171031" lon="11.3326936" />
      <trkpt lat="46.0171389" lon="11.3328395" />
      <trkpt lat="46.0174250" lon="11.3339295" />
      <trkpt lat="46.0174965" lon="11.3340926" />
      <trkpt lat="46.0175263" lon="11.3343158" />
      <trkpt lat="46.0175561" lon="11.3345990" />
      <trkpt lat="46.0176038" lon="11.3347793" />
      <trkpt lat="46.0176515" lon="11.3350282" />
      <trkpt lat="46.0177111" lon="11.3351655" />
      <trkpt lat="46.0178422" lon="11.3353801" />
      <trkpt lat="46.0179316" lon="11.3355947" />
      <trkpt lat="46.0179972" lon="11.3358693" />
      <trkpt lat="46.0180985" lon="11.3363500" />
      <trkpt lat="46.0181462" lon="11.3366847" />
      <trkpt lat="46.0181998" lon="11.3370881" />
      <trkpt lat="46.0182654" lon="11.3374143" />
      <trkpt lat="46.0183548" lon="11.3375945" />
      <trkpt lat="46.0184263" lon="11.3377147" />
      <trkpt lat="46.0185634" lon="11.3380408" />
      <trkpt lat="46.0186767" lon="11.3382983" />
      <trkpt lat="46.0187780" lon="11.3384786" />
      <trkpt lat="46.0188257" lon="11.3385472" />
      <trkpt lat="46.0188912" lon="11.3385730" />
      <trkpt lat="46.0190998" lon="11.3385901" />
      <trkpt lat="46.0193800" lon="11.3385816" />
      <trkpt lat="46.0194396" lon="11.3385644" />
      <trkpt lat="46.0195171" lon="11.3384786" />
      <trkpt lat="46.0195767" lon="11.3383842" />
      <trkpt lat="46.0196005" lon="11.3382211" />
      <trkpt lat="46.0196005" lon="11.3379893" />
      <trkpt lat="46.0196124" lon="11.3376889" />
      <trkpt lat="46.0196005" lon="11.3375173" />
      <trkpt lat="46.0195560" lon="11.3372932" />
      <trkpt lat="46.0195441" lon="11.3370958" />
      <trkpt lat="46.0195501" lon="11.3370271" />
      <trkpt lat="46.0195739" lon="11.3369842" />
      <trkpt lat="46.0196156" lon="11.3369584" />
      <trkpt lat="46.0198004" lon="11.3369670" />
      <trkpt lat="46.0199136" lon="11.3369842" />
      <trkpt lat="46.0199732" lon="11.3370614" />
      <trkpt lat="46.0200448" lon="11.3371473" />
      <trkpt lat="46.0201401" lon="11.3372073" />
      <trkpt lat="46.0202951" lon="11.3372846" />
      <trkpt lat="46.0203785" lon="11.3373790" />
      <trkpt lat="46.0204583" lon="11.3374259" />
      <trkpt lat="46.0204918" lon="11.3373876" />
      <trkpt lat="46.0204918" lon="11.3373103" />
      <trkpt lat="46.0204679" lon="11.3371473" />
      <trkpt lat="46.0204213" lon="11.3368865" />
      <trkpt lat="46.0204332" lon="11.3368178" />
      <trkpt lat="46.0204869" lon="11.3367835" />
      <trkpt lat="46.0205226" lon="11.3367835" />
      <trkpt lat="46.0205584" lon="11.3368350" />
      <trkpt lat="46.0206173" lon="11.3369706" />
      <trkpt lat="46.0206709" lon="11.3370136" />
      <trkpt lat="46.0207007" lon="11.3370136" />
      <trkpt lat="46.0207067" lon="11.3369535" />
      <trkpt lat="46.0206709" lon="11.3367990" />
      <trkpt lat="46.0206078" lon="11.3364444" />
      <trkpt lat="46.0205351" lon="11.3360703" />
      <trkpt lat="46.0205779" lon="11.3358414" />
      <trkpt lat="46.0206785" lon="11.3355571" />
      <trkpt lat="46.0208033" lon="11.3354283" />
      <trkpt lat="46.0210238" lon="11.3352740" />
      <trkpt lat="46.0211073" lon="11.3349735" />
      <trkpt lat="46.0211824" lon="11.3344927" />
      <trkpt lat="46.0212617" lon="11.3340419" />
      <trkpt lat="46.0213326" lon="11.3337053" />
      <trkpt lat="46.0213911" lon="11.3332365" />
      <trkpt lat="46.0215413" lon="11.3327677" />
      <trkpt lat="46.0216999" lon="11.3324372" />
      <trkpt lat="46.0218084" lon="11.3320826" />
      <trkpt lat="46.0218835" lon="11.3313854" />
      <trkpt lat="46.0220087" lon="11.3309947" />
      <trkpt lat="46.0221673" lon="11.3306341" />
      <trkpt lat="46.0223593" lon="11.3302374" />
      <trkpt lat="46.0225429" lon="11.3298407" />
      <trkpt lat="46.0227182" lon="11.3294621" />
      <trkpt lat="46.0228184" lon="11.3292938" />
      <trkpt lat="46.0229269" lon="11.3290173" />
      <trkpt lat="46.0229474" lon="11.3288969" />
      <trkpt lat="46.0230100" lon="11.3288248" />
      <trkpt lat="46.0230832" lon="11.3288197" />
      <trkpt lat="46.0231207" lon="11.3289097" />
      <trkpt lat="46.0231333" lon="11.3290307" />
      <trkpt lat="46.0231763" lon="11.3291011" />
      <trkpt lat="46.0231846" lon="11.3289428" />
      <trkpt lat="46.0231492" lon="11.3286826" />
      <trkpt lat="46.0230714" lon="11.3285682" />
      <trkpt lat="46.0230339" lon="11.3285696" />
      <trkpt lat="46.0229573" lon="11.3285726" />
      <trkpt lat="46.0228661" lon="11.3286075" />
      <trkpt lat="46.0226333" lon="11.3286155" />
      <trkpt lat="46.0224754" lon="11.3286325" />
      <trkpt lat="46.0223334" lon="11.3287443" />
      <trkpt lat="46.0222966" lon="11.3288900" />
      <trkpt lat="46.0221155" lon="11.3291171" />
      <trkpt lat="46.0219539" lon="11.3296196" />
      <trkpt lat="46.0217900" lon="11.3300058" />
      <trkpt lat="46.0215367" lon="11.3304564" />
      <trkpt lat="46.0213575" lon="11.3306594" />
      <trkpt lat="46.0211956" lon="11.3307549" />
      <trkpt lat="46.0210645" lon="11.3306862" />
      <trkpt lat="46.0209453" lon="11.3306519" />
      <trkpt lat="46.0206907" lon="11.3306621" />
      <trkpt lat="46.0206432" lon="11.3304148" />
      <trkpt lat="46.0206283" lon="11.3301358" />
      <trkpt lat="46.0206247" lon="11.3299778" />
      <trkpt lat="46.0206208" lon="11.3298032" />
      <trkpt lat="46.0205836" lon="11.3295135" />
      <trkpt lat="46.0206059" lon="11.3290522" />
      <trkpt lat="46.0206134" lon="11.3286767" />
      <trkpt lat="46.0206208" lon="11.3283870" />
      <trkpt lat="46.0206208" lon="11.3281295" />
      <trkpt lat="46.0206953" lon="11.3278720" />
      <trkpt lat="46.0207922" lon="11.3275502" />
      <trkpt lat="46.0208589" lon="11.3271725" />
      <trkpt lat="46.0208741" lon="11.3269601" />
      <trkpt lat="46.0208738" lon="11.3267541" />
      <trkpt lat="46.0209114" lon="11.3262949" />
      <trkpt lat="46.0209337" lon="11.3261018" />
      <trkpt lat="46.0209412" lon="11.3259623" />
      <trkpt lat="46.0209263" lon="11.3257799" />
      <trkpt lat="46.0209486" lon="11.3256082" />
      <trkpt lat="46.0209896" lon="11.3255964" />
      <trkpt lat="46.0210604" lon="11.3255761" />
      <trkpt lat="46.0211945" lon="11.3257692" />
      <trkpt lat="46.0212764" lon="11.3260267" />
      <trkpt lat="46.0214623" lon="11.3264537" />
      <trkpt lat="46.0216117" lon="11.3268957" />
      <trkpt lat="46.0217160" lon="11.3270566" />
      <trkpt lat="46.0218274" lon="11.3272369" />
      <trkpt lat="46.0219019" lon="11.3274085" />
      <trkpt lat="46.0219429" lon="11.3274569" />
      <trkpt lat="46.0219916" lon="11.3274536" />
      <trkpt lat="46.0220257" lon="11.3273883" />
      <trkpt lat="46.0220479" lon="11.3272299" />
      <trkpt lat="46.0221037" lon="11.3271118" />
      <trkpt lat="46.0221782" lon="11.3269938" />
      <trkpt lat="46.0223011" lon="11.3268651" />
      <trkpt lat="46.0223756" lon="11.3267685" />
      <trkpt lat="46.0224390" lon="11.3267149" />
      <trkpt lat="46.0225697" lon="11.3266443" />
      <trkpt lat="46.0227265" lon="11.3266140" />
      <trkpt lat="46.0228955" lon="11.3265545" />
      <trkpt lat="46.0230549" lon="11.3264204" />
      <trkpt lat="46.0232149" lon="11.3262117" />
      <trkpt lat="46.0234149" lon="11.3259156" />
      <trkpt lat="46.0235713" lon="11.3257815" />
      <trkpt lat="46.0236868" lon="11.3256795" />
      <trkpt lat="46.0238084" lon="11.3255912" />
      <trkpt lat="46.0240766" lon="11.3249689" />
      <trkpt lat="46.0241965" lon="11.3248080" />
      <trkpt lat="46.0242469" lon="11.3245917" />
      <trkpt lat="46.0243097" lon="11.3246376" />
      <trkpt lat="46.0244489" lon="11.3245185" />
      <trkpt lat="46.0246398" lon="11.3239183" />
      <trkpt lat="46.0249608" lon="11.3236433" />
      <trkpt lat="46.0250757" lon="11.3235053" />
      <trkpt lat="46.0250980" lon="11.3233952" />
      <trkpt lat="46.0251580" lon="11.3233168" />
      <trkpt lat="46.0253417" lon="11.3230668" />
      <trkpt lat="46.0255772" lon="11.3227706" />
      <trkpt lat="46.0256859" lon="11.3226326" />
      <trkpt lat="46.0257720" lon="11.3225050" />
      <trkpt lat="46.0257622" lon="11.3223396" />
      <trkpt lat="46.0256318" lon="11.3220182" />
      <trkpt lat="46.0255569" lon="11.3218835" />
      <trkpt lat="46.0254588" lon="11.3217593" />
      <trkpt lat="46.0253687" lon="11.3216886" />
      <trkpt lat="46.0252575" lon="11.3216496" />
      <trkpt lat="46.0251639" lon="11.3216220" />
      <trkpt lat="46.0250717" lon="11.3215697" />
      <trkpt lat="46.0247701" lon="11.3212782" />
      <trkpt lat="46.0246488" lon="11.3211773" />
      <trkpt lat="46.0245861" lon="11.3211084" />
      <trkpt lat="46.0245442" lon="11.3210414" />
      <trkpt lat="46.0244821" lon="11.3208088" />
      <trkpt lat="46.0244450" lon="11.3205779" />
      <trkpt lat="46.0244317" lon="11.3203036" />
      <trkpt lat="46.0244243" lon="11.3201929" />
      <trkpt lat="46.0243825" lon="11.3201336" />
      <trkpt lat="46.0242000" lon="11.3200443" />
      <trkpt lat="46.0239724" lon="11.3201140" />
      <trkpt lat="46.0237309" lon="11.3203166" />
      <trkpt lat="46.0236011" lon="11.3204462" />
      <trkpt lat="46.0233536" lon="11.3206711" />
      <trkpt lat="46.0232120" lon="11.3206711" />
      <trkpt lat="46.0231500" lon="11.3205143" />
      <trkpt lat="46.0230779" lon="11.3202454" />
      <trkpt lat="46.0230723" lon="11.3198748" />
      <trkpt lat="46.0229233" lon="11.3192149" />
      <trkpt lat="46.0228645" lon="11.3188993" />
      <trkpt lat="46.0228006" lon="11.3185451" />
      <trkpt lat="46.0227768" lon="11.3182881" />
      <trkpt lat="46.0228247" lon="11.3180684" />
      <trkpt lat="46.0229030" lon="11.3178304" />
      <trkpt lat="46.0229784" lon="11.3176171" />
      <trkpt lat="46.0229945" lon="11.3175108" />
      <trkpt lat="46.0229941" lon="11.3174294" />
      <trkpt lat="46.0229416" lon="11.3173467" />
      <trkpt lat="46.0228596" lon="11.3173221" />
      <trkpt lat="46.0226812" lon="11.3173072" />
      <trkpt lat="46.0224899" lon="11.3172851" />
      <trkpt lat="46.0222469" lon="11.3172493" />
      <trkpt lat="46.0221244" lon="11.3171755" />
      <trkpt lat="46.0220430" lon="11.3170351" />
      <trkpt lat="46.0219908" lon="11.3168463" />
      <trkpt lat="46.0219679" lon="11.3166483" />
      <trkpt lat="46.0219264" lon="11.3164772" />
      <trkpt lat="46.0218500" lon="11.3164236" />
      <trkpt lat="46.0217448" lon="11.3162170" />
      <trkpt lat="46.0216460" lon="11.3160159" />
      <trkpt lat="46.0215566" lon="11.3157959" />
      <trkpt lat="46.0215110" lon="11.3157329" />
      <trkpt lat="46.0214758" lon="11.3157203" />
      <trkpt lat="46.0213317" lon="11.3154401" />
      <trkpt lat="46.0212241" lon="11.3151829" />
      <trkpt lat="46.0212990" lon="11.3148758" />
      <trkpt lat="46.0214436" lon="11.3145894" />
      <trkpt lat="46.0214284" lon="11.3145657" />
      <trkpt lat="46.0214536" lon="11.3145050" />
      <trkpt lat="46.0215382" lon="11.3143415" />
      <trkpt lat="46.0215413" lon="11.3141578" />
      <trkpt lat="46.0215319" lon="11.3139359" />
      <trkpt lat="46.0215554" lon="11.3138069" />
      <trkpt lat="46.0216339" lon="11.3137358" />
      <trkpt lat="46.0217768" lon="11.3137028" />
      <trkpt lat="46.0219584" lon="11.3136642" />
      <trkpt lat="46.0222676" lon="11.3133995" />
      <trkpt lat="46.0226081" lon="11.3131418" />
      <trkpt lat="46.0228431" lon="11.3129360" />
      <trkpt lat="46.0230781" lon="11.3127927" />
      <trkpt lat="46.0233857" lon="11.3126803" />
      <trkpt lat="46.0236038" lon="11.3126031" />
      <trkpt lat="46.0237575" lon="11.3126382" />
      <trkpt lat="46.0238873" lon="11.3126327" />
      <trkpt lat="46.0240293" lon="11.3126240" />
      <trkpt lat="46.0241449" lon="11.3125413" />
      <trkpt lat="46.0242357" lon="11.3124520" />
      <trkpt lat="46.0243632" lon="11.3123080" />
      <trkpt lat="46.0245930" lon="11.3122144" />
      <trkpt lat="46.0248016" lon="11.3120473" />
      <trkpt lat="46.0249625" lon="11.3119775" />
      <trkpt lat="46.0252490" lon="11.3119406" />
      <trkpt lat="46.0254169" lon="11.3118560" />
      <trkpt lat="46.0255326" lon="11.3117134" />
      <trkpt lat="46.0255502" lon="11.3115846" />
      <trkpt lat="46.0255302" lon="11.3114808" />
      <trkpt lat="46.0254711" lon="11.3113888" />
      <trkpt lat="46.0254306" lon="11.3113869" />
      <trkpt lat="46.0253713" lon="11.3114089" />
      <trkpt lat="46.0252024" lon="11.3115288" />
      <trkpt lat="46.0250509" lon="11.3115717" />
      <trkpt lat="46.0249563" lon="11.3115148" />
      <trkpt lat="46.0249046" lon="11.3113848" />
      <trkpt lat="46.0248178" lon="11.3112549" />
      <trkpt lat="46.0247184" lon="11.3112306" />
      <trkpt lat="46.0246076" lon="11.3112794" />
      <trkpt lat="46.0243449" lon="11.3114341" />
      <trkpt lat="46.0242626" lon="11.3114339" />
      <trkpt lat="46.0242168" lon="11.3113615" />
      <trkpt lat="46.0241897" lon="11.3111888" />
      <trkpt lat="46.0241341" lon="11.3110803" />
      <trkpt lat="46.0240710" lon="11.3110548" />
      <trkpt lat="46.0239551" lon="11.3110672" />
      <trkpt lat="46.0236846" lon="11.3111099" />
      <trkpt lat="46.0236028" lon="11.3111404" />
      <trkpt lat="46.0234592" lon="11.3111570" />
      <trkpt lat="46.0232395" lon="11.3110944" />
      <trkpt lat="46.0228003" lon="11.3109497" />
      <trkpt lat="46.0223373" lon="11.3108410" />
      <trkpt lat="46.0220973" lon="11.3107382" />
      <trkpt lat="46.0220193" lon="11.3106946" />
      <trkpt lat="46.0218761" lon="11.3105710" />
      <trkpt lat="46.0218321" lon="11.3104724" />
      <trkpt lat="46.0221690" lon="11.3104234" />
      <trkpt lat="46.0224298" lon="11.3103655" />
      <trkpt lat="46.0226471" lon="11.3102652" />
      <trkpt lat="46.0227645" lon="11.3101754" />
      <trkpt lat="46.0228678" lon="11.3100412" />
      <trkpt lat="46.0229437" lon="11.3099076" />
      <trkpt lat="46.0229965" lon="11.3097289" />
      <trkpt lat="46.0229839" lon="11.3095497" />
      <trkpt lat="46.0229340" lon="11.3094575" />
      <trkpt lat="46.0227695" lon="11.3091599" />
      <trkpt lat="46.0226388" lon="11.3088677" />
      <trkpt lat="46.0225944" lon="11.3086939" />
      <trkpt lat="46.0225781" lon="11.3083747" />
      <trkpt lat="46.0225911" lon="11.3081384" />
      <trkpt lat="46.0225920" lon="11.3078804" />
      <trkpt lat="46.0225559" lon="11.3076516" />
      <trkpt lat="46.0224273" lon="11.3072775" />
      <trkpt lat="46.0222956" lon="11.3069165" />
      <trkpt lat="46.0220987" lon="11.3066305" />
      <trkpt lat="46.0217465" lon="11.3063612" />
      <trkpt lat="46.0215438" lon="11.3061877" />
      <trkpt lat="46.0213464" lon="11.3060161" />
      <trkpt lat="46.0210739" lon="11.3058154" />
      <trkpt lat="46.0209539" lon="11.3057653" />
      <trkpt lat="46.0208332" lon="11.3056805" />
      <trkpt lat="46.0208238" lon="11.3055445" />
      <trkpt lat="46.0208461" lon="11.3054708" />
      <trkpt lat="46.0208803" lon="11.3054417" />
      <trkpt lat="46.0209529" lon="11.3054032" />
      <trkpt lat="46.0210247" lon="11.3053840" />
      <trkpt lat="46.0211518" lon="11.3053285" />
      <trkpt lat="46.0213213" lon="11.3053093" />
      <trkpt lat="46.0217135" lon="11.3051985" />
      <trkpt lat="46.0218065" lon="11.3051605" />
      <trkpt lat="46.0219505" lon="11.3050087" />
      <trkpt lat="46.0219935" lon="11.3048956" />
      <trkpt lat="46.0220328" lon="11.3047921" />
      <trkpt lat="46.0220685" lon="11.3045769" />
      <trkpt lat="46.0220751" lon="11.3043851" />
      <trkpt lat="46.0220070" lon="11.3040124" />
      <trkpt lat="46.0217066" lon="11.3022514" />
      <trkpt lat="46.0216358" lon="11.3020024" />
      <trkpt lat="46.0214040" lon="11.3016335" />
      <trkpt lat="46.0212689" lon="11.3013563" />
      <trkpt lat="46.0212335" lon="11.3011765" />
      <trkpt lat="46.0212279" lon="11.3010424" />
      <trkpt lat="46.0212589" lon="11.3006941" />
      <trkpt lat="46.0211171" lon="11.3007253" />
      <trkpt lat="46.0209503" lon="11.3010138" />
      <trkpt lat="46.0209176" lon="11.3010762" />
      <trkpt lat="46.0208976" lon="11.3011399" />
      <trkpt lat="46.0209042" lon="11.3012260" />
      <trkpt lat="46.0209196" lon="11.3013163" />
      <trkpt lat="46.0209755" lon="11.3013780" />
      <trkpt lat="46.0210543" lon="11.3013930" />
      <trkpt lat="46.0211088" lon="11.3014813" />
      <trkpt lat="46.0211538" lon="11.3016688" />
      <trkpt lat="46.0212354" lon="11.3017666" />
      <trkpt lat="46.0213061" lon="11.3019276" />
      <trkpt lat="46.0213583" lon="11.3020831" />
      <trkpt lat="46.0213918" lon="11.3024184" />
      <trkpt lat="46.0214160" lon="11.3029093" />
      <trkpt lat="46.0214198" lon="11.3035154" />
      <trkpt lat="46.0214645" lon="11.3038453" />
      <trkpt lat="46.0214384" lon="11.3041565" />
      <trkpt lat="46.0214477" lon="11.3043818" />
      <trkpt lat="46.0214421" lon="11.3045213" />
      <trkpt lat="46.0214104" lon="11.3046312" />
      <trkpt lat="46.0213415" lon="11.3047224" />
      <trkpt lat="46.0212540" lon="11.3047868" />
      <trkpt lat="46.0211124" lon="11.3048297" />
      <trkpt lat="46.0209150" lon="11.3048270" />
      <trkpt lat="46.0206524" lon="11.3048270" />
      <trkpt lat="46.0204739" lon="11.3049117" />
      <trkpt lat="46.0203188" lon="11.3049647" />
      <trkpt lat="46.0201097" lon="11.3051109" />
      <trkpt lat="46.0198366" lon="11.3052160" />
      <trkpt lat="46.0196448" lon="11.3052240" />
      <trkpt lat="46.0193784" lon="11.3052428" />
      <trkpt lat="46.0191177" lon="11.3053125" />
      <trkpt lat="46.0188252" lon="11.3055512" />
      <trkpt lat="46.0186967" lon="11.3058463" />
      <trkpt lat="46.0186502" lon="11.3059348" />
      <trkpt lat="46.0185738" lon="11.3059992" />
      <trkpt lat="46.0184881" lon="11.3060099" />
      <trkpt lat="46.0183559" lon="11.3060340" />
      <trkpt lat="46.0179815" lon="11.3060313" />
      <trkpt lat="46.0178213" lon="11.3060850" />
      <trkpt lat="46.0177038" lon="11.3061079" />
      <trkpt lat="46.0175943" lon="11.3060763" />
      <trkpt lat="46.0174605" lon="11.3059445" />
      <trkpt lat="46.0171816" lon="11.3054649" />
      <trkpt lat="46.0170498" lon="11.3051086" />
      <trkpt lat="46.0169994" lon="11.3049075" />
      <trkpt lat="46.0169713" lon="11.3047150" />
      <trkpt lat="46.0168768" lon="11.3041644" />
      <trkpt lat="46.0167292" lon="11.3036036" />
      <trkpt lat="46.0167054" lon="11.3034663" />
      <trkpt lat="46.0167352" lon="11.3033805" />
      <trkpt lat="46.0168363" lon="11.3033181" />
      <trkpt lat="46.0169338" lon="11.3032080" />
      <trkpt lat="46.0170292" lon="11.3030996" />
      <trkpt lat="46.0167927" lon="11.3026196" />
      <trkpt lat="46.0169441" lon="11.3021369" />
      <trkpt lat="46.0170359" lon="11.3017269" />
      <trkpt lat="46.0170520" lon="11.3015792" />
      <trkpt lat="46.0170461" lon="11.3009812" />
      <trkpt lat="46.0169422" lon="11.3011398" />
      <trkpt lat="46.0168864" lon="11.3012349" />
      <trkpt lat="46.0168507" lon="11.3010289" />
      <trkpt lat="46.0167848" lon="11.3008219" />
      <trkpt lat="46.0167475" lon="11.3007453" />
      <trkpt lat="46.0166596" lon="11.3005644" />
      <trkpt lat="46.0165426" lon="11.3003874" />
      <trkpt lat="46.0163497" lon="11.3000924" />
      <trkpt lat="46.0162066" lon="11.2999207" />
      <trkpt lat="46.0160338" lon="11.2998263" />
      <trkpt lat="46.0157648" lon="11.2997010" />
      <trkpt lat="46.0156523" lon="11.2995860" />
      <trkpt lat="46.0155092" lon="11.2994658" />
      <trkpt lat="46.0153721" lon="11.2994057" />
      <trkpt lat="46.0152529" lon="11.2994057" />
      <trkpt lat="46.0151116" lon="11.2994017" />
      <trkpt lat="46.0149522" lon="11.2994952" />
      <trkpt lat="46.0147999" lon="11.2995516" />
      <trkpt lat="46.0146771" lon="11.2995241" />
      <trkpt lat="46.0145811" lon="11.2994220" />
      <trkpt lat="46.0145138" lon="11.2993285" />
      <trkpt lat="46.0144647" lon="11.2992432" />
      <trkpt lat="46.0143419" lon="11.2994850" />
      <trkpt lat="46.0143116" lon="11.2995475" />
      <trkpt lat="46.0136625" lon="11.2987799" />
      <trkpt lat="46.0129712" lon="11.2978899" />
      <trkpt lat="46.0128770" lon="11.2979586" />
      <trkpt lat="46.0128013" lon="11.2980024" />
      <trkpt lat="46.0127682" lon="11.2980215" />
      <trkpt lat="46.0125364" lon="11.2982718" />
      <trkpt lat="46.0123552" lon="11.2985082" />
    </trkseg>
  </trk>
</gpx>
