<?xml version="1.0" encoding="UTF-8"?>
<gpx xmlns="http://www.topografix.com/GPX/1/1" version="1.1" creator="ShapeRoute route-engine">
  <metadata>
    <name>heart 8 km · 2026-10-01</name>
    <author>
      <name>ShapeRoute route-engine</name>
    </author>
    <copyright author="OpenStreetMap contributors">
      <license>https://opendatacommons.org/licenses/odbl/1-0/</license>
    </copyright>
    <link href="https://www.openstreetmap.org/copyright">
      <text>© OpenStreetMap contributors</text>
    </link>
    <time>2026-10-01T18:00:00Z</time>
  </metadata>
  <trk>
    <name>heart 8 km · 2026-10-01</name>
    <trkseg>
      <trkpt lat="46.0125904" lon="11.3029184" />
      <trkpt lat="46.0126281" lon="11.3027985" />
      <trkpt lat="46.0126688" lon="11.3028118" />
      <trkpt lat="46.0127009" lon="11.3027026" />
      <trkpt lat="46.0127630" lon="11.3026041" />
      <trkpt lat="46.0127947" lon="11.3025923" />
      <trkpt lat="46.0129158" lon="11.3025677" />
      <trkpt lat="46.0130588" lon="11.3019822" />
      <trkpt lat="46.0135551" lon="11.3022875" />
      <trkpt lat="46.0137742" lon="11.3024673" />
      <trkpt lat="46.0139875" lon="11.3026424" />
      <trkpt lat="46.0144299" lon="11.3030043" />
      <trkpt lat="46.0146225" lon="11.3032314" />
      <trkpt lat="46.0146751" lon="11.3033359" />
      <trkpt lat="46.0146867" lon="11.3034741" />
      <trkpt lat="46.0147613" lon="11.3037166" />
      <trkpt lat="46.0148071" lon="11.3039585" />
      <trkpt lat="46.0148233" lon="11.3039722" />
      <trkpt lat="46.0148214" lon="11.3042111" />
      <trkpt lat="46.0148201" lon="11.3043045" />
      <trkpt lat="46.0148422" lon="11.3043504" />
      <trkpt lat="46.0150062" lon="11.3046932" />
      <trkpt lat="46.0151013" lon="11.3048752" />
      <trkpt lat="46.0151850" lon="11.3050411" />
      <trkpt lat="46.0152822" lon="11.3052221" />
      <trkpt lat="46.0151701" lon="11.3059497" />
      <trkpt lat="46.0151054" lon="11.3064354" />
      <trkpt lat="46.0150883" lon="11.3065385" />
      <trkpt lat="46.0150461" lon="11.3067929" />
      <trkpt lat="46.0150210" lon="11.3076074" />
      <trkpt lat="46.0149475" lon="11.3085481" />
      <trkpt lat="46.0148886" lon="11.3084980" />
      <trkpt lat="46.0147663" lon="11.3085009" />
      <trkpt lat="46.0145486" lon="11.3085446" />
      <trkpt lat="46.0143280" lon="11.3085730" />
      <trkpt lat="46.0141429" lon="11.3085671" />
      <trkpt lat="46.0137875" lon="11.3085719" />
      <trkpt lat="46.0137052" lon="11.3085868" />
      <trkpt lat="46.0136430" lon="11.3086202" />
      <trkpt lat="46.0136139" lon="11.3086583" />
      <trkpt lat="46.0135936" lon="11.3086788" />
      <trkpt lat="46.0135640" lon="11.3086957" />
      <trkpt lat="46.0135413" lon="11.3086948" />
      <trkpt lat="46.0135225" lon="11.3086854" />
      <trkpt lat="46.0134812" lon="11.3086513" />
      <trkpt lat="46.0134568" lon="11.3086278" />
      <trkpt lat="46.0134044" lon="11.3085949" />
      <trkpt lat="46.0133450" lon="11.3085849" />
      <trkpt lat="46.0132950" lon="11.3086265" />
      <trkpt lat="46.0132379" lon="11.3086679" />
      <trkpt lat="46.0131735" lon="11.3087524" />
      <trkpt lat="46.0131139" lon="11.3088596" />
      <trkpt lat="46.0130617" lon="11.3091225" />
      <trkpt lat="46.0130319" lon="11.3092083" />
      <trkpt lat="46.0129761" lon="11.3092566" />
      <trkpt lat="46.0128792" lon="11.3092834" />
      <trkpt lat="46.0124877" lon="11.3093217" />
      <trkpt lat="46.0125112" lon="11.3095719" />
      <trkpt lat="46.0125396" lon="11.3096631" />
      <trkpt lat="46.0126642" lon="11.3100298" />
      <trkpt lat="46.0130312" lon="11.3120209" />
      <trkpt lat="46.0131658" lon="11.3128957" />
      <trkpt lat="46.0133271" lon="11.3136518" />
      <trkpt lat="46.0130782" lon="11.3137293" />
      <trkpt lat="46.0129807" lon="11.3137517" />
      <trkpt lat="46.0128944" lon="11.3137494" />
      <trkpt lat="46.0128110" lon="11.3137171" />
      <trkpt lat="46.0126415" lon="11.3136326" />
      <trkpt lat="46.0123586" lon="11.3134967" />
      <trkpt lat="46.0122690" lon="11.3134494" />
      <trkpt lat="46.0121874" lon="11.3134327" />
      <trkpt lat="46.0120941" lon="11.3134365" />
      <trkpt lat="46.0119632" lon="11.3134631" />
      <trkpt lat="46.0117628" lon="11.3135423" />
      <trkpt lat="46.0115386" lon="11.3118246" />
      <trkpt lat="46.0114134" lon="11.3118904" />
      <trkpt lat="46.0113099" lon="11.3119234" />
      <trkpt lat="46.0111544" lon="11.3119172" />
      <trkpt lat="46.0109155" lon="11.3119592" />
      <trkpt lat="46.0108293" lon="11.3120168" />
      <trkpt lat="46.0106446" lon="11.3121399" />
      <trkpt lat="46.0103468" lon="11.3123058" />
      <trkpt lat="46.0102978" lon="11.3123331" />
      <trkpt lat="46.0102028" lon="11.3123793" />
      <trkpt lat="46.0100890" lon="11.3123661" />
      <trkpt lat="46.0100407" lon="11.3123551" />
      <trkpt lat="46.0100260" lon="11.3123266" />
      <trkpt lat="46.0100043" lon="11.3122845" />
      <trkpt lat="46.0098652" lon="11.3120149" />
      <trkpt lat="46.0098528" lon="11.3119847" />
      <trkpt lat="46.0097121" lon="11.3116421" />
      <trkpt lat="46.0095716" lon="11.3109346" />
      <trkpt lat="46.0094338" lon="11.3102144" />
      <trkpt lat="46.0093880" lon="11.3100457" />
      <trkpt lat="46.0093344" lon="11.3098344" />
      <trkpt lat="46.0092684" lon="11.3096785" />
      <trkpt lat="46.0092147" lon="11.3096070" />
      <trkpt lat="46.0091819" lon="11.3095621" />
      <trkpt lat="46.0091624" lon="11.3095765" />
      <trkpt lat="46.0091411" lon="11.3095837" />
      <trkpt lat="46.0091192" lon="11.3095834" />
      <trkpt lat="46.0090935" lon="11.3095728" />
      <trkpt lat="46.0090710" lon="11.3095518" />
      <trkpt lat="46.0090538" lon="11.3095224" />
      <trkpt lat="46.0090433" lon="11.3094869" />
      <trkpt lat="46.0090404" lon="11.3094486" />
      <trkpt lat="46.0090448" lon="11.3094131" />
      <trkpt lat="46.0090559" lon="11.3093807" />
      <trkpt lat="46.0090726" lon="11.3093539" />
      <trkpt lat="46.0090504" lon="11.3092722" />
      <trkpt lat="46.0090311" lon="11.3092009" />
      <trkpt lat="46.0089976" lon="11.3091176" />
      <trkpt lat="46.0089409" lon="11.3090544" />
      <trkpt lat="46.0088516" lon="11.3089000" />
      <trkpt lat="46.0088224" lon="11.3087871" />
      <trkpt lat="46.0088044" lon="11.3086422" />
      <trkpt lat="46.0088175" lon="11.3083890" />
      <trkpt lat="46.0088209" lon="11.3080963" />
      <trkpt lat="46.0088444" lon="11.3078784" />
      <trkpt lat="46.0088896" lon="11.3073866" />
      <trkpt lat="46.0082414" lon="11.3073453" />
      <trkpt lat="46.0083271" lon="11.3064780" />
      <trkpt lat="46.0082661" lon="11.3064320" />
      <trkpt lat="46.0079350" lon="11.3063275" />
      <trkpt lat="46.0076858" lon="11.3062259" />
      <trkpt lat="46.0073430" lon="11.3061002" />
      <trkpt lat="46.0074884" lon="11.3052053" />
      <trkpt lat="46.0071910" lon="11.3051534" />
      <trkpt lat="46.0067208" lon="11.3050712" />
      <trkpt lat="46.0066114" lon="11.3050095" />
      <trkpt lat="46.0065420" lon="11.3049351" />
      <trkpt lat="46.0065217" lon="11.3049002" />
      <trkpt lat="46.0064899" lon="11.3047936" />
      <trkpt lat="46.0063629" lon="11.3043361" />
      <trkpt lat="46.0063415" lon="11.3042747" />
      <trkpt lat="46.0063045" lon="11.3040481" />
      <trkpt lat="46.0062972" lon="11.3038449" />
      <trkpt lat="46.0063762" lon="11.3035226" />
      <trkpt lat="46.0063797" lon="11.3035108" />
      <trkpt lat="46.0064759" lon="11.3031605" />
      <trkpt lat="46.0065081" lon="11.3030335" />
      <trkpt lat="46.0066162" lon="11.3026200" />
      <trkpt lat="46.0067126" lon="11.3022732" />
      <trkpt lat="46.0067834" lon="11.3020980" />
      <trkpt lat="46.0068944" lon="11.3018899" />
      <trkpt lat="46.0070144" lon="11.3017272" />
      <trkpt lat="46.0070569" lon="11.3016486" />
      <trkpt lat="46.0070491" lon="11.3016431" />
      <trkpt lat="46.0070405" lon="11.3016340" />
      <trkpt lat="46.0070332" lon="11.3016226" />
      <trkpt lat="46.0070277" lon="11.3016094" />
      <trkpt lat="46.0070241" lon="11.3015950" />
      <trkpt lat="46.0070224" lon="11.3015798" />
      <trkpt lat="46.0070229" lon="11.3015644" />
      <trkpt lat="46.0070255" lon="11.3015494" />
      <trkpt lat="46.0070300" lon="11.3015355" />
      <trkpt lat="46.0070357" lon="11.3015240" />
      <trkpt lat="46.0070335" lon="11.3015234" />
      <trkpt lat="46.0069475" lon="11.3014781" />
      <trkpt lat="46.0067227" lon="11.3013157" />
      <trkpt lat="46.0062803" lon="11.3010351" />
      <trkpt lat="46.0062218" lon="11.3010002" />
      <trkpt lat="46.0061564" lon="11.3009611" />
      <trkpt lat="46.0059826" lon="11.3008654" />
      <trkpt lat="46.0056873" lon="11.3007432" />
      <trkpt lat="46.0052218" lon="11.3005311" />
      <trkpt lat="46.0051116" lon="11.3004891" />
      <trkpt lat="46.0050669" lon="11.3004815" />
      <trkpt lat="46.0050204" lon="11.3004752" />
      <trkpt lat="46.0049871" lon="11.3004752" />
      <trkpt lat="46.0049595" lon="11.3004802" />
      <trkpt lat="46.0049241" lon="11.3004925" />
      <trkpt lat="46.0048723" lon="11.3005080" />
      <trkpt lat="46.0048302" lon="11.3005295" />
      <trkpt lat="46.0047882" lon="11.3005522" />
      <trkpt lat="46.0047558" lon="11.3005886" />
      <trkpt lat="46.0047522" lon="11.3005926" />
      <trkpt lat="46.0047154" lon="11.3006481" />
      <trkpt lat="46.0046821" lon="11.3007137" />
      <trkpt lat="46.0046471" lon="11.3008058" />
      <trkpt lat="46.0046009" lon="11.3009327" />
      <trkpt lat="46.0045470" lon="11.3010045" />
      <trkpt lat="46.0044919" lon="11.3010619" />
      <trkpt lat="46.0043937" lon="11.3010913" />
      <trkpt lat="46.0042811" lon="11.3010908" />
      <trkpt lat="46.0041787" lon="11.3010425" />
      <trkpt lat="46.0041023" lon="11.3009486" />
      <trkpt lat="46.0040538" lon="11.3008252" />
      <trkpt lat="46.0040270" lon="11.3006842" />
      <trkpt lat="46.0040074" lon="11.3005814" />
      <trkpt lat="46.0040197" lon="11.3008614" />
      <trkpt lat="46.0040310" lon="11.3011243" />
      <trkpt lat="46.0040373" lon="11.3014404" />
      <trkpt lat="46.0040048" lon="11.3031704" />
      <trkpt lat="46.0039901" lon="11.3036123" />
      <trkpt lat="46.0039364" lon="11.3052022" />
      <trkpt lat="46.0041497" lon="11.3051920" />
      <trkpt lat="46.0043701" lon="11.3051598" />
      <trkpt lat="46.0045822" lon="11.3051714" />
      <trkpt lat="46.0047701" lon="11.3051574" />
      <trkpt lat="46.0049239" lon="11.3051248" />
      <trkpt lat="46.0050907" lon="11.3050992" />
      <trkpt lat="46.0053368" lon="11.3050013" />
      <trkpt lat="46.0055181" lon="11.3049080" />
      <trkpt lat="46.0055894" lon="11.3047845" />
      <trkpt lat="46.0056299" lon="11.3045910" />
      <trkpt lat="46.0058177" lon="11.3031713" />
      <trkpt lat="46.0059128" lon="11.3025278" />
      <trkpt lat="46.0061547" lon="11.3010629" />
      <trkpt lat="46.0061564" lon="11.3009611" />
      <trkpt lat="46.0062218" lon="11.3010002" />
      <trkpt lat="46.0062803" lon="11.3010351" />
      <trkpt lat="46.0067227" lon="11.3013157" />
      <trkpt lat="46.0069475" lon="11.3014781" />
      <trkpt lat="46.0070335" lon="11.3015234" />
      <trkpt lat="46.0070357" lon="11.3015240" />
      <trkpt lat="46.0070442" lon="11.3015127" />
      <trkpt lat="46.0070533" lon="11.3015047" />
      <trkpt lat="46.0070634" lon="11.3014994" />
      <trkpt lat="46.0070739" lon="11.3014971" />
      <trkpt lat="46.0070846" lon="11.3014978" />
      <trkpt lat="46.0070950" lon="11.3015015" />
      <trkpt lat="46.0071047" lon="11.3015080" />
      <trkpt lat="46.0071148" lon="11.3015190" />
      <trkpt lat="46.0071213" lon="11.3015131" />
      <trkpt lat="46.0071272" lon="11.3015076" />
      <trkpt lat="46.0072818" lon="11.3013815" />
      <trkpt lat="46.0078069" lon="11.3010941" />
      <trkpt lat="46.0080384" lon="11.3009880" />
      <trkpt lat="46.0080981" lon="11.3009575" />
      <trkpt lat="46.0081156" lon="11.3009486" />
      <trkpt lat="46.0081833" lon="11.3007954" />
      <trkpt lat="46.0083690" lon="11.3003535" />
      <trkpt lat="46.0085907" lon="11.2997702" />
      <trkpt lat="46.0086613" lon="11.2996130" />
      <trkpt lat="46.0083716" lon="11.2994631" />
      <trkpt lat="46.0087983" lon="11.2984184" />
      <trkpt lat="46.0086230" lon="11.2982644" />
      <trkpt lat="46.0089354" lon="11.2976279" />
      <trkpt lat="46.0089850" lon="11.2975267" />
      <trkpt lat="46.0088589" lon="11.2970393" />
      <trkpt lat="46.0087115" lon="11.2964700" />
      <trkpt lat="46.0086007" lon="11.2960421" />
      <trkpt lat="46.0085345" lon="11.2957863" />
      <trkpt lat="46.0085087" lon="11.2956866" />
      <trkpt lat="46.0086317" lon="11.2956996" />
      <trkpt lat="46.0087211" lon="11.2957519" />
      <trkpt lat="46.0088004" lon="11.2958202" />
      <trkpt lat="46.0088595" lon="11.2958710" />
      <trkpt lat="46.0089937" lon="11.2960212" />
      <trkpt lat="46.0091216" lon="11.2962500" />
      <trkpt lat="46.0092321" lon="11.2964879" />
      <trkpt lat="46.0092428" lon="11.2965144" />
      <trkpt lat="46.0093666" lon="11.2962829" />
      <trkpt lat="46.0093990" lon="11.2962716" />
      <trkpt lat="46.0096697" lon="11.2965853" />
      <trkpt lat="46.0099288" lon="11.2962024" />
      <trkpt lat="46.0099884" lon="11.2961112" />
      <trkpt lat="46.0100583" lon="11.2960911" />
      <trkpt lat="46.0101356" lon="11.2961689" />
      <trkpt lat="46.0102281" lon="11.2962543" />
      <trkpt lat="46.0104566" lon="11.2958391" />
      <trkpt lat="46.0105204" lon="11.2957234" />
      <trkpt lat="46.0105090" lon="11.2957082" />
      <trkpt lat="46.0103318" lon="11.2954721" />
      <trkpt lat="46.0102901" lon="11.2954163" />
      <trkpt lat="46.0102519" lon="11.2953652" />
      <trkpt lat="46.0101526" lon="11.2952325" />
      <trkpt lat="46.0099498" lon="11.2949615" />
      <trkpt lat="46.0099173" lon="11.2949136" />
      <trkpt lat="46.0098606" lon="11.2948293" />
      <trkpt lat="46.0096077" lon="11.2944514" />
      <trkpt lat="46.0095860" lon="11.2944225" />
      <trkpt lat="46.0093406" lon="11.2941340" />
      <trkpt lat="46.0091637" lon="11.2939748" />
      <trkpt lat="46.0091364" lon="11.2939444" />
      <trkpt lat="46.0090031" lon="11.2937964" />
      <trkpt lat="46.0089737" lon="11.2937248" />
      <trkpt lat="46.0089680" lon="11.2936565" />
      <trkpt lat="46.0090661" lon="11.2936744" />
      <trkpt lat="46.0098088" lon="11.2938097" />
      <trkpt lat="46.0102700" lon="11.2938982" />
      <trkpt lat="46.0104720" lon="11.2939495" />
      <trkpt lat="46.0106885" lon="11.2940373" />
      <trkpt lat="46.0107151" lon="11.2940549" />
      <trkpt lat="46.0107529" lon="11.2940801" />
      <trkpt lat="46.0108907" lon="11.2941611" />
      <trkpt lat="46.0111727" lon="11.2943826" />
      <trkpt lat="46.0112310" lon="11.2944284" />
      <trkpt lat="46.0116754" lon="11.2952125" />
      <trkpt lat="46.0117011" lon="11.2951731" />
      <trkpt lat="46.0117049" lon="11.2951673" />
      <trkpt lat="46.0117646" lon="11.2950807" />
      <trkpt lat="46.0118000" lon="11.2950276" />
      <trkpt lat="46.0118242" lon="11.2949915" />
      <trkpt lat="46.0118463" lon="11.2949585" />
      <trkpt lat="46.0117996" lon="11.2948382" />
      <trkpt lat="46.0116482" lon="11.2944860" />
      <trkpt lat="46.0115886" lon="11.2943573" />
      <trkpt lat="46.0115766" lon="11.2942114" />
      <trkpt lat="46.0116005" lon="11.2939711" />
      <trkpt lat="46.0116362" lon="11.2936106" />
      <trkpt lat="46.0116362" lon="11.2930784" />
      <trkpt lat="46.0116570" lon="11.2927546" />
      <trkpt lat="46.0115994" lon="11.2925910" />
      <trkpt lat="46.0115647" lon="11.2930441" />
      <trkpt lat="46.0115528" lon="11.2936792" />
      <trkpt lat="46.0115349" lon="11.2938251" />
      <trkpt lat="46.0114753" lon="11.2942715" />
      <trkpt lat="46.0115051" lon="11.2944431" />
      <trkpt lat="46.0115468" lon="11.2945461" />
      <trkpt lat="46.0116660" lon="11.2947435" />
      <trkpt lat="46.0117646" lon="11.2949525" />
      <trkpt lat="46.0118000" lon="11.2950276" />
      <trkpt lat="46.0118242" lon="11.2949915" />
      <trkpt lat="46.0118463" lon="11.2949585" />
      <trkpt lat="46.0117996" lon="11.2948382" />
      <trkpt lat="46.0121425" lon="11.2943986" />
      <trkpt lat="46.0125329" lon="11.2939461" />
      <trkpt lat="46.0129133" lon="11.2936275" />
      <trkpt lat="46.0131754" lon="11.2935322" />
      <trkpt lat="46.0132165" lon="11.2935172" />
      <trkpt lat="46.0139921" lon="11.2933736" />
      <trkpt lat="46.0140896" lon="11.2933702" />
      <trkpt lat="46.0145436" lon="11.2933744" />
      <trkpt lat="46.0146399" lon="11.2933881" />
      <trkpt lat="46.0147891" lon="11.2934507" />
      <trkpt lat="46.0150491" lon="11.2936096" />
      <trkpt lat="46.0150636" lon="11.2936208" />
      <trkpt lat="46.0151223" lon="11.2936662" />
      <trkpt lat="46.0153043" lon="11.2938070" />
      <trkpt lat="46.0154496" lon="11.2939212" />
      <trkpt lat="46.0154776" lon="11.2940381" />
      <trkpt lat="46.0154632" lon="11.2942013" />
      <trkpt lat="46.0154342" lon="11.2944115" />
      <trkpt lat="46.0154028" lon="11.2944370" />
      <trkpt lat="46.0154004" lon="11.2945721" />
      <trkpt lat="46.0152866" lon="11.2949696" />
      <trkpt lat="46.0151223" lon="11.2951830" />
      <trkpt lat="46.0149883" lon="11.2953797" />
      <trkpt lat="46.0148171" lon="11.2956264" />
      <trkpt lat="46.0146129" lon="11.2958593" />
      <trkpt lat="46.0144424" lon="11.2961166" />
      <trkpt lat="46.0141592" lon="11.2965634" />
      <trkpt lat="46.0141552" lon="11.2966227" />
      <trkpt lat="46.0141572" lon="11.2966653" />
      <trkpt lat="46.0141646" lon="11.2967071" />
      <trkpt lat="46.0140508" lon="11.2967979" />
      <trkpt lat="46.0140627" lon="11.2968161" />
      <trkpt lat="46.0140812" lon="11.2968272" />
      <trkpt lat="46.0141489" lon="11.2968261" />
      <trkpt lat="46.0143698" lon="11.2967863" />
      <trkpt lat="46.0144941" lon="11.2967329" />
      <trkpt lat="46.0147829" lon="11.2966885" />
      <trkpt lat="46.0149241" lon="11.2966919" />
      <trkpt lat="46.0151964" lon="11.2967112" />
      <trkpt lat="46.0155617" lon="11.2967634" />
      <trkpt lat="46.0155343" lon="11.2969473" />
      <trkpt lat="46.0153144" lon="11.2975461" />
      <trkpt lat="46.0151784" lon="11.2978177" />
      <trkpt lat="46.0150983" lon="11.2979778" />
      <trkpt lat="46.0147775" lon="11.2986185" />
      <trkpt lat="46.0144647" lon="11.2992432" />
      <trkpt lat="46.0143419" lon="11.2994850" />
      <trkpt lat="46.0143116" lon="11.2995475" />
      <trkpt lat="46.0144803" lon="11.2997321" />
      <trkpt lat="46.0146982" lon="11.3000057" />
      <trkpt lat="46.0150596" lon="11.3004563" />
      <trkpt lat="46.0151833" lon="11.3006314" />
      <trkpt lat="46.0144921" lon="11.3017492" />
      <trkpt lat="46.0142766" lon="11.3021027" />
      <trkpt lat="46.0140622" lon="11.3025070" />
      <trkpt lat="46.0139875" lon="11.3026424" />
      <trkpt lat="46.0138450" lon="11.3030331" />
      <trkpt lat="46.0137912" lon="11.3032090" />
      <trkpt lat="46.0137485" lon="11.3033721" />
      <trkpt lat="46.0136874" lon="11.3033397" />
      <trkpt lat="46.0134434" lon="11.3033458" />
      <trkpt lat="46.0132342" lon="11.3033603" />
      <trkpt lat="46.0129663" lon="11.3033746" />
      <trkpt lat="46.0128267" lon="11.3034075" />
      <trkpt lat="46.0127785" lon="11.3033938" />
      <trkpt lat="46.0128080" lon="11.3031323" />
      <trkpt lat="46.0128501" lon="11.3028052" />
      <trkpt lat="46.0129158" lon="11.3025677" />
      <trkpt lat="46.0127947" lon="11.3025923" />
      <trkpt lat="46.0127630" lon="11.3026041" />
      <trkpt lat="46.0127009" lon="11.3027026" />
      <trkpt lat="46.0126688" lon="11.3028118" />
      <trkpt lat="46.0126281" lon="11.3027985" />
      <trkpt lat="46.0125904" lon="11.3029184" />
    </trkseg>
  </trk>
</gpx>
