<?xml version="1.0" encoding="UTF-8"?>
<gpx xmlns="http://www.topografix.com/GPX/1/1" version="1.1" creator="ShapeRoute route-engine">
  <metadata>
    <name>star 20 km · 2026-10-03</name>
    <author>
      <name>ShapeRoute route-engine</name>
    </author>
    <copyright author="OpenStreetMap contributors">
      <license>https://opendatacommons.org/licenses/odbl/1-0/</license>
    </copyright>
    <link href="https://www.openstreetmap.org/copyright">
      <text>© OpenStreetMap contributors</text>
    </link>
    <time>2026-10-03T09:03:47Z</time>
  </metadata>
  <trk>
    <name>star 20 km · 2026-10-03</name>
    <trkseg>
      <trkpt lat="46.0667526" lon="11.1210542" />
      <trkpt lat="46.0666602" lon="11.1210169" />
      <trkpt lat="46.0666115" lon="11.1210169" />
      <trkpt lat="46.0665614" lon="11.1210220" />
      <trkpt lat="46.0664061" lon="11.1210506" />
      <trkpt lat="46.0661586" lon="11.1211285" />
      <trkpt lat="46.0661065" lon="11.1211467" />
      <trkpt lat="46.0657149" lon="11.1211459" />
      <trkpt lat="46.0655507" lon="11.1211539" />
      <trkpt lat="46.0655156" lon="11.1211513" />
      <trkpt lat="46.0654620" lon="11.1211474" />
      <trkpt lat="46.0654542" lon="11.1210596" />
      <trkpt lat="46.0652785" lon="11.1194480" />
      <trkpt lat="46.0652551" lon="11.1193171" />
      <trkpt lat="46.0652385" lon="11.1192116" />
      <trkpt lat="46.0652151" lon="11.1188117" />
      <trkpt lat="46.0651950" lon="11.1180758" />
      <trkpt lat="46.0651934" lon="11.1177089" />
      <trkpt lat="46.0652397" lon="11.1176989" />
      <trkpt lat="46.0656754" lon="11.1176028" />
      <trkpt lat="46.0661061" lon="11.1175142" />
      <trkpt lat="46.0664518" lon="11.1174437" />
      <trkpt lat="46.0664459" lon="11.1173714" />
      <trkpt lat="46.0664553" lon="11.1173406" />
      <trkpt lat="46.0664518" lon="11.1172941" />
      <trkpt lat="46.0664295" lon="11.1170349" />
      <trkpt lat="46.0664216" lon="11.1169920" />
      <trkpt lat="46.0664228" lon="11.1169318" />
      <trkpt lat="46.0664265" lon="11.1168526" />
      <trkpt lat="46.0664206" lon="11.1167830" />
      <trkpt lat="46.0663304" lon="11.1158787" />
      <trkpt lat="46.0662859" lon="11.1154964" />
      <trkpt lat="46.0662780" lon="11.1154225" />
      <trkpt lat="46.0662149" lon="11.1148160" />
      <trkpt lat="46.0662068" lon="11.1148053" />
      <trkpt lat="46.0661796" lon="11.1145362" />
      <trkpt lat="46.0661729" lon="11.1144963" />
      <trkpt lat="46.0661627" lon="11.1144610" />
      <trkpt lat="46.0661501" lon="11.1144347" />
      <trkpt lat="46.0661288" lon="11.1144043" />
      <trkpt lat="46.0660977" lon="11.1143770" />
      <trkpt lat="46.0660650" lon="11.1143519" />
      <trkpt lat="46.0660839" lon="11.1142791" />
      <trkpt lat="46.0660119" lon="11.1142367" />
      <trkpt lat="46.0657820" lon="11.1141137" />
      <trkpt lat="46.0655520" lon="11.1139922" />
      <trkpt lat="46.0652992" lon="11.1138709" />
      <trkpt lat="46.0651512" lon="11.1138029" />
      <trkpt lat="46.0651100" lon="11.1137803" />
      <trkpt lat="46.0648267" lon="11.1136510" />
      <trkpt lat="46.0647077" lon="11.1135928" />
      <trkpt lat="46.0645179" lon="11.1135136" />
      <trkpt lat="46.0643351" lon="11.1134453" />
      <trkpt lat="46.0641639" lon="11.1133819" />
      <trkpt lat="46.0639514" lon="11.1133045" />
      <trkpt lat="46.0637002" lon="11.1132247" />
      <trkpt lat="46.0634797" lon="11.1131527" />
      <trkpt lat="46.0633193" lon="11.1131060" />
      <trkpt lat="46.0631222" lon="11.1130525" />
      <trkpt lat="46.0628109" lon="11.1129723" />
      <trkpt lat="46.0625526" lon="11.1129237" />
      <trkpt lat="46.0624830" lon="11.1129005" />
      <trkpt lat="46.0623969" lon="11.1128608" />
      <trkpt lat="46.0623080" lon="11.1128204" />
      <trkpt lat="46.0622910" lon="11.1128077" />
      <trkpt lat="46.0622727" lon="11.1127999" />
      <trkpt lat="46.0622538" lon="11.1127971" />
      <trkpt lat="46.0622348" lon="11.1127996" />
      <trkpt lat="46.0622164" lon="11.1128071" />
      <trkpt lat="46.0621994" lon="11.1128195" />
      <trkpt lat="46.0621850" lon="11.1128353" />
      <trkpt lat="46.0621728" lon="11.1128546" />
      <trkpt lat="46.0621632" lon="11.1128766" />
      <trkpt lat="46.0621565" lon="11.1129008" />
      <trkpt lat="46.0621528" lon="11.1129263" />
      <trkpt lat="46.0621524" lon="11.1129524" />
      <trkpt lat="46.0621553" lon="11.1129782" />
      <trkpt lat="46.0621612" lon="11.1130028" />
      <trkpt lat="46.0621705" lon="11.1130261" />
      <trkpt lat="46.0621825" lon="11.1130466" />
      <trkpt lat="46.0621915" lon="11.1130579" />
      <trkpt lat="46.0622260" lon="11.1131862" />
      <trkpt lat="46.0622626" lon="11.1132770" />
      <trkpt lat="46.0622819" lon="11.1135872" />
      <trkpt lat="46.0623061" lon="11.1139333" />
      <trkpt lat="46.0622475" lon="11.1139712" />
      <trkpt lat="46.0617163" lon="11.1143786" />
      <trkpt lat="46.0614463" lon="11.1145601" />
      <trkpt lat="46.0611626" lon="11.1147379" />
      <trkpt lat="46.0611443" lon="11.1144779" />
      <trkpt lat="46.0611323" lon="11.1143095" />
      <trkpt lat="46.0611193" lon="11.1141245" />
      <trkpt lat="46.0611176" lon="11.1141009" />
      <trkpt lat="46.0610969" lon="11.1137934" />
      <trkpt lat="46.0610721" lon="11.1134257" />
      <trkpt lat="46.0610526" lon="11.1131823" />
      <trkpt lat="46.0610254" lon="11.1128130" />
      <trkpt lat="46.0610109" lon="11.1126279" />
      <trkpt lat="46.0609887" lon="11.1122398" />
      <trkpt lat="46.0604874" lon="11.1122210" />
      <trkpt lat="46.0599813" lon="11.1121852" />
      <trkpt lat="46.0595430" lon="11.1121682" />
      <trkpt lat="46.0594812" lon="11.1121658" />
      <trkpt lat="46.0594804" lon="11.1121372" />
      <trkpt lat="46.0593801" lon="11.1106811" />
      <trkpt lat="46.0593786" lon="11.1106518" />
      <trkpt lat="46.0600307" lon="11.1107022" />
      <trkpt lat="46.0606705" lon="11.1107908" />
      <trkpt lat="46.0611232" lon="11.1108706" />
      <trkpt lat="46.0614099" lon="11.1109141" />
      <trkpt lat="46.0616625" lon="11.1109625" />
      <trkpt lat="46.0618733" lon="11.1109959" />
      <trkpt lat="46.0619551" lon="11.1109905" />
      <trkpt lat="46.0620459" lon="11.1109974" />
      <trkpt lat="46.0623999" lon="11.1110614" />
      <trkpt lat="46.0625659" lon="11.1110885" />
      <trkpt lat="46.0627373" lon="11.1111248" />
      <trkpt lat="46.0632642" lon="11.1112501" />
      <trkpt lat="46.0637341" lon="11.1113826" />
      <trkpt lat="46.0645481" lon="11.1116363" />
      <trkpt lat="46.0650129" lon="11.1118153" />
      <trkpt lat="46.0654497" lon="11.1120193" />
      <trkpt lat="46.0657475" lon="11.1121655" />
      <trkpt lat="46.0659448" lon="11.1122803" />
      <trkpt lat="46.0660642" lon="11.1123444" />
      <trkpt lat="46.0665617" lon="11.1125893" />
      <trkpt lat="46.0669326" lon="11.1127701" />
      <trkpt lat="46.0673455" lon="11.1129810" />
      <trkpt lat="46.0673536" lon="11.1129461" />
      <trkpt lat="46.0673664" lon="11.1128912" />
      <trkpt lat="46.0673965" lon="11.1127666" />
      <trkpt lat="46.0674173" lon="11.1126773" />
      <trkpt lat="46.0677458" lon="11.1128518" />
      <trkpt lat="46.0681008" lon="11.1130216" />
      <trkpt lat="46.0681564" lon="11.1131184" />
      <trkpt lat="46.0683898" lon="11.1132111" />
      <trkpt lat="46.0685063" lon="11.1132629" />
      <trkpt lat="46.0685193" lon="11.1132700" />
      <trkpt lat="46.0686253" lon="11.1133238" />
      <trkpt lat="46.0687718" lon="11.1133981" />
      <trkpt lat="46.0688616" lon="11.1134384" />
      <trkpt lat="46.0689402" lon="11.1134705" />
      <trkpt lat="46.0691420" lon="11.1135756" />
      <trkpt lat="46.0691549" lon="11.1135817" />
      <trkpt lat="46.0693165" lon="11.1136571" />
      <trkpt lat="46.0693839" lon="11.1136877" />
      <trkpt lat="46.0698971" lon="11.1138947" />
      <trkpt lat="46.0701004" lon="11.1139878" />
      <trkpt lat="46.0701414" lon="11.1139943" />
      <trkpt lat="46.0701824" lon="11.1139941" />
      <trkpt lat="46.0702044" lon="11.1139869" />
      <trkpt lat="46.0702602" lon="11.1139812" />
      <trkpt lat="46.0703864" lon="11.1139142" />
      <trkpt lat="46.0704346" lon="11.1138697" />
      <trkpt lat="46.0704610" lon="11.1139177" />
      <trkpt lat="46.0704744" lon="11.1139442" />
      <trkpt lat="46.0705026" lon="11.1139640" />
      <trkpt lat="46.0705215" lon="11.1139755" />
      <trkpt lat="46.0705271" lon="11.1138726" />
      <trkpt lat="46.0707691" lon="11.1133875" />
      <trkpt lat="46.0708267" lon="11.1132749" />
      <trkpt lat="46.0708493" lon="11.1132085" />
      <trkpt lat="46.0708643" lon="11.1131264" />
      <trkpt lat="46.0708697" lon="11.1130726" />
      <trkpt lat="46.0708700" lon="11.1130173" />
      <trkpt lat="46.0708688" lon="11.1129668" />
      <trkpt lat="46.0708665" lon="11.1129383" />
      <trkpt lat="46.0708625" lon="11.1128898" />
      <trkpt lat="46.0708544" lon="11.1128305" />
      <trkpt lat="46.0708407" lon="11.1127570" />
      <trkpt lat="46.0708194" lon="11.1126616" />
      <trkpt lat="46.0708001" lon="11.1125921" />
      <trkpt lat="46.0706976" lon="11.1122423" />
      <trkpt lat="46.0706788" lon="11.1121810" />
      <trkpt lat="46.0706367" lon="11.1120201" />
      <trkpt lat="46.0706025" lon="11.1118700" />
      <trkpt lat="46.0705821" lon="11.1117451" />
      <trkpt lat="46.0705710" lon="11.1115077" />
      <trkpt lat="46.0705792" lon="11.1111217" />
      <trkpt lat="46.0706282" lon="11.1107785" />
      <trkpt lat="46.0706362" lon="11.1107149" />
      <trkpt lat="46.0706562" lon="11.1106262" />
      <trkpt lat="46.0706692" lon="11.1105778" />
      <trkpt lat="46.0707208" lon="11.1103771" />
      <trkpt lat="46.0708044" lon="11.1101298" />
      <trkpt lat="46.0708699" lon="11.1099676" />
      <trkpt lat="46.0708898" lon="11.1099156" />
      <trkpt lat="46.0709758" lon="11.1097204" />
      <trkpt lat="46.0710472" lon="11.1095792" />
      <trkpt lat="46.0710922" lon="11.1094943" />
      <trkpt lat="46.0713762" lon="11.1089573" />
      <trkpt lat="46.0714037" lon="11.1089823" />
      <trkpt lat="46.0714095" lon="11.1089883" />
      <trkpt lat="46.0714165" lon="11.1089957" />
      <trkpt lat="46.0714200" lon="11.1089993" />
      <trkpt lat="46.0714442" lon="11.1090129" />
      <trkpt lat="46.0714730" lon="11.1090157" />
      <trkpt lat="46.0714936" lon="11.1090119" />
      <trkpt lat="46.0715235" lon="11.1089966" />
      <trkpt lat="46.0715781" lon="11.1089572" />
      <trkpt lat="46.0719234" lon="11.1087240" />
      <trkpt lat="46.0719534" lon="11.1087121" />
      <trkpt lat="46.0720357" lon="11.1086793" />
      <trkpt lat="46.0721295" lon="11.1086345" />
      <trkpt lat="46.0721832" lon="11.1085918" />
      <trkpt lat="46.0722070" lon="11.1085728" />
      <trkpt lat="46.0722305" lon="11.1085482" />
      <trkpt lat="46.0722827" lon="11.1084936" />
      <trkpt lat="46.0723827" lon="11.1083766" />
      <trkpt lat="46.0724764" lon="11.1082474" />
      <trkpt lat="46.0724974" lon="11.1082185" />
      <trkpt lat="46.0725437" lon="11.1081547" />
      <trkpt lat="46.0726665" lon="11.1079740" />
      <trkpt lat="46.0726972" lon="11.1079194" />
      <trkpt lat="46.0727342" lon="11.1078492" />
      <trkpt lat="46.0728674" lon="11.1075960" />
      <trkpt lat="46.0728850" lon="11.1075829" />
      <trkpt lat="46.0729323" lon="11.1075476" />
      <trkpt lat="46.0730084" lon="11.1075045" />
      <trkpt lat="46.0732338" lon="11.1073935" />
      <trkpt lat="46.0734077" lon="11.1073276" />
      <trkpt lat="46.0735984" lon="11.1072671" />
      <trkpt lat="46.0738991" lon="11.1071802" />
      <trkpt lat="46.0743143" lon="11.1070669" />
      <trkpt lat="46.0743717" lon="11.1070660" />
      <trkpt lat="46.0744235" lon="11.1070799" />
      <trkpt lat="46.0744561" lon="11.1070973" />
      <trkpt lat="46.0744799" lon="11.1071213" />
      <trkpt lat="46.0745109" lon="11.1071559" />
      <trkpt lat="46.0746216" lon="11.1073637" />
      <trkpt lat="46.0746520" lon="11.1074333" />
      <trkpt lat="46.0747157" lon="11.1075790" />
      <trkpt lat="46.0748210" lon="11.1078489" />
      <trkpt lat="46.0748603" lon="11.1079893" />
      <trkpt lat="46.0748846" lon="11.1081081" />
      <trkpt lat="46.0748730" lon="11.1081650" />
      <trkpt lat="46.0748748" lon="11.1082242" />
      <trkpt lat="46.0748900" lon="11.1082794" />
      <trkpt lat="46.0749168" lon="11.1083244" />
      <trkpt lat="46.0749522" lon="11.1083543" />
      <trkpt lat="46.0749918" lon="11.1083660" />
      <trkpt lat="46.0750167" lon="11.1083615" />
      <trkpt lat="46.0750318" lon="11.1083588" />
      <trkpt lat="46.0750682" lon="11.1083335" />
      <trkpt lat="46.0750970" lon="11.1082928" />
      <trkpt lat="46.0751145" lon="11.1082444" />
      <trkpt lat="46.0751211" lon="11.1081906" />
      <trkpt lat="46.0751161" lon="11.1081366" />
      <trkpt lat="46.0751299" lon="11.1080656" />
      <trkpt lat="46.0751702" lon="11.1079154" />
      <trkpt lat="46.0752098" lon="11.1077728" />
      <trkpt lat="46.0752358" lon="11.1077233" />
      <trkpt lat="46.0753637" lon="11.1074805" />
      <trkpt lat="46.0754757" lon="11.1072992" />
      <trkpt lat="46.0755705" lon="11.1071218" />
      <trkpt lat="46.0755921" lon="11.1070670" />
      <trkpt lat="46.0756100" lon="11.1070029" />
      <trkpt lat="46.0756163" lon="11.1069420" />
      <trkpt lat="46.0756179" lon="11.1068772" />
      <trkpt lat="46.0756150" lon="11.1067014" />
      <trkpt lat="46.0755754" lon="11.1060665" />
      <trkpt lat="46.0755737" lon="11.1059754" />
      <trkpt lat="46.0755825" lon="11.1058923" />
      <trkpt lat="46.0755951" lon="11.1058352" />
      <trkpt lat="46.0756096" lon="11.1057795" />
      <trkpt lat="46.0756353" lon="11.1057107" />
      <trkpt lat="46.0756693" lon="11.1056513" />
      <trkpt lat="46.0757681" lon="11.1055552" />
      <trkpt lat="46.0758826" lon="11.1054640" />
      <trkpt lat="46.0759822" lon="11.1053733" />
      <trkpt lat="46.0760582" lon="11.1052926" />
      <trkpt lat="46.0761969" lon="11.1050832" />
      <trkpt lat="46.0763156" lon="11.1048676" />
      <trkpt lat="46.0763864" lon="11.1047390" />
      <trkpt lat="46.0767662" lon="11.1040288" />
      <trkpt lat="46.0768643" lon="11.1038718" />
      <trkpt lat="46.0769940" lon="11.1037274" />
      <trkpt lat="46.0771019" lon="11.1036381" />
      <trkpt lat="46.0772464" lon="11.1035556" />
      <trkpt lat="46.0773727" lon="11.1035147" />
      <trkpt lat="46.0775440" lon="11.1034939" />
      <trkpt lat="46.0775929" lon="11.1035000" />
      <trkpt lat="46.0776524" lon="11.1035111" />
      <trkpt lat="46.0777608" lon="11.1035680" />
      <trkpt lat="46.0779052" lon="11.1036908" />
      <trkpt lat="46.0780515" lon="11.1038105" />
      <trkpt lat="46.0780929" lon="11.1038352" />
      <trkpt lat="46.0781323" lon="11.1038518" />
      <trkpt lat="46.0781811" lon="11.1038577" />
      <trkpt lat="46.0782299" lon="11.1038528" />
      <trkpt lat="46.0782691" lon="11.1038476" />
      <trkpt lat="46.0783098" lon="11.1038380" />
      <trkpt lat="46.0783478" lon="11.1038274" />
      <trkpt lat="46.0783866" lon="11.1038101" />
      <trkpt lat="46.0786276" lon="11.1036847" />
      <trkpt lat="46.0786788" lon="11.1036609" />
      <trkpt lat="46.0786695" lon="11.1036088" />
      <trkpt lat="46.0786596" lon="11.1035515" />
      <trkpt lat="46.0787025" lon="11.1035265" />
      <trkpt lat="46.0788871" lon="11.1034441" />
      <trkpt lat="46.0788986" lon="11.1034280" />
      <trkpt lat="46.0789046" lon="11.1033932" />
      <trkpt lat="46.0789035" lon="11.1033665" />
      <trkpt lat="46.0788545" lon="11.1030458" />
      <trkpt lat="46.0787805" lon="11.1026368" />
      <trkpt lat="46.0787794" lon="11.1026123" />
      <trkpt lat="46.0787805" lon="11.1025960" />
      <trkpt lat="46.0787862" lon="11.1025764" />
      <trkpt lat="46.0788009" lon="11.1025519" />
      <trkpt lat="46.0790082" lon="11.1022629" />
      <trkpt lat="46.0790252" lon="11.1022351" />
      <trkpt lat="46.0790354" lon="11.1021992" />
      <trkpt lat="46.0790365" lon="11.1021633" />
      <trkpt lat="46.0789217" lon="11.1014438" />
      <trkpt lat="46.0789164" lon="11.1014169" />
      <trkpt lat="46.0789217" lon="11.1014438" />
      <trkpt lat="46.0790365" lon="11.1021633" />
      <trkpt lat="46.0790354" lon="11.1021992" />
      <trkpt lat="46.0790252" lon="11.1022351" />
      <trkpt lat="46.0790082" lon="11.1022629" />
      <trkpt lat="46.0788009" lon="11.1025519" />
      <trkpt lat="46.0787862" lon="11.1025764" />
      <trkpt lat="46.0787805" lon="11.1025960" />
      <trkpt lat="46.0787794" lon="11.1026123" />
      <trkpt lat="46.0787805" lon="11.1026368" />
      <trkpt lat="46.0788545" lon="11.1030458" />
      <trkpt lat="46.0789035" lon="11.1033665" />
      <trkpt lat="46.0789046" lon="11.1033932" />
      <trkpt lat="46.0788986" lon="11.1034280" />
      <trkpt lat="46.0788871" lon="11.1034441" />
      <trkpt lat="46.0787025" lon="11.1035265" />
      <trkpt lat="46.0786596" lon="11.1035515" />
      <trkpt lat="46.0786695" lon="11.1036088" />
      <trkpt lat="46.0786788" lon="11.1036609" />
      <trkpt lat="46.0788779" lon="11.1035711" />
      <trkpt lat="46.0790631" lon="11.1034980" />
      <trkpt lat="46.0792511" lon="11.1034387" />
      <trkpt lat="46.0793066" lon="11.1034186" />
      <trkpt lat="46.0795138" lon="11.1033421" />
      <trkpt lat="46.0796393" lon="11.1032970" />
      <trkpt lat="46.0798785" lon="11.1032090" />
      <trkpt lat="46.0800993" lon="11.1031320" />
      <trkpt lat="46.0801995" lon="11.1030946" />
      <trkpt lat="46.0803305" lon="11.1030483" />
      <trkpt lat="46.0803703" lon="11.1030355" />
      <trkpt lat="46.0804097" lon="11.1030205" />
      <trkpt lat="46.0804158" lon="11.1030182" />
      <trkpt lat="46.0806391" lon="11.1029329" />
      <trkpt lat="46.0806474" lon="11.1029297" />
      <trkpt lat="46.0807711" lon="11.1028774" />
      <trkpt lat="46.0809104" lon="11.1028209" />
      <trkpt lat="46.0809281" lon="11.1028129" />
      <trkpt lat="46.0809669" lon="11.1027960" />
      <trkpt lat="46.0809974" lon="11.1027828" />
      <trkpt lat="46.0810888" lon="11.1027417" />
      <trkpt lat="46.0814008" lon="11.1025732" />
      <trkpt lat="46.0814416" lon="11.1025511" />
      <trkpt lat="46.0814488" lon="11.1025476" />
      <trkpt lat="46.0817267" lon="11.1024219" />
      <trkpt lat="46.0817465" lon="11.1024130" />
      <trkpt lat="46.0817735" lon="11.1025245" />
      <trkpt lat="46.0817939" lon="11.1026090" />
      <trkpt lat="46.0818235" lon="11.1027313" />
      <trkpt lat="46.0818327" lon="11.1027691" />
      <trkpt lat="46.0818364" lon="11.1027839" />
      <trkpt lat="46.0818419" lon="11.1027986" />
      <trkpt lat="46.0818499" lon="11.1028087" />
      <trkpt lat="46.0818604" lon="11.1028129" />
      <trkpt lat="46.0818767" lon="11.1028147" />
      <trkpt lat="46.0819708" lon="11.1028263" />
      <trkpt lat="46.0819820" lon="11.1028333" />
      <trkpt lat="46.0819890" lon="11.1028436" />
      <trkpt lat="46.0819905" lon="11.1028499" />
      <trkpt lat="46.0819928" lon="11.1028601" />
      <trkpt lat="46.0819939" lon="11.1028908" />
      <trkpt lat="46.0819938" lon="11.1030145" />
      <trkpt lat="46.0819938" lon="11.1031098" />
      <trkpt lat="46.0819939" lon="11.1032222" />
      <trkpt lat="46.0819955" lon="11.1033318" />
      <trkpt lat="46.0819976" lon="11.1034770" />
      <trkpt lat="46.0819995" lon="11.1035247" />
      <trkpt lat="46.0820089" lon="11.1036955" />
      <trkpt lat="46.0820120" lon="11.1037513" />
      <trkpt lat="46.0820158" lon="11.1038258" />
      <trkpt lat="46.0820236" lon="11.1040148" />
      <trkpt lat="46.0820242" lon="11.1040576" />
      <trkpt lat="46.0820239" lon="11.1040911" />
      <trkpt lat="46.0820198" lon="11.1041870" />
      <trkpt lat="46.0820148" lon="11.1042857" />
      <trkpt lat="46.0820029" lon="11.1044990" />
      <trkpt lat="46.0819941" lon="11.1047691" />
      <trkpt lat="46.0819999" lon="11.1048636" />
      <trkpt lat="46.0820086" lon="11.1050051" />
      <trkpt lat="46.0819917" lon="11.1054152" />
      <trkpt lat="46.0819716" lon="11.1055323" />
      <trkpt lat="46.0819695" lon="11.1055407" />
      <trkpt lat="46.0819228" lon="11.1057297" />
      <trkpt lat="46.0819039" lon="11.1058064" />
      <trkpt lat="46.0818807" lon="11.1059427" />
      <trkpt lat="46.0818664" lon="11.1060751" />
      <trkpt lat="46.0818616" lon="11.1061929" />
      <trkpt lat="46.0818662" lon="11.1066240" />
      <trkpt lat="46.0818656" lon="11.1066718" />
      <trkpt lat="46.0818646" lon="11.1067556" />
      <trkpt lat="46.0818588" lon="11.1068143" />
      <trkpt lat="46.0818437" lon="11.1068786" />
      <trkpt lat="46.0818155" lon="11.1069529" />
      <trkpt lat="46.0817636" lon="11.1070624" />
      <trkpt lat="46.0817200" lon="11.1071584" />
      <trkpt lat="46.0817094" lon="11.1071817" />
      <trkpt lat="46.0816744" lon="11.1072599" />
      <trkpt lat="46.0816702" lon="11.1072706" />
      <trkpt lat="46.0816452" lon="11.1073353" />
      <trkpt lat="46.0816013" lon="11.1074713" />
      <trkpt lat="46.0815715" lon="11.1075636" />
      <trkpt lat="46.0815447" lon="11.1076187" />
      <trkpt lat="46.0815203" lon="11.1076507" />
      <trkpt lat="46.0814958" lon="11.1076771" />
      <trkpt lat="46.0814441" lon="11.1077201" />
      <trkpt lat="46.0811619" lon="11.1078566" />
      <trkpt lat="46.0809132" lon="11.1079716" />
      <trkpt lat="46.0805261" lon="11.1081505" />
      <trkpt lat="46.0804326" lon="11.1082053" />
      <trkpt lat="46.0802984" lon="11.1082912" />
      <trkpt lat="46.0801343" lon="11.1084240" />
      <trkpt lat="46.0797841" lon="11.1087631" />
      <trkpt lat="46.0796685" lon="11.1089048" />
      <trkpt lat="46.0793419" lon="11.1093927" />
      <trkpt lat="46.0792859" lon="11.1094707" />
      <trkpt lat="46.0792288" lon="11.1095334" />
      <trkpt lat="46.0791928" lon="11.1095643" />
      <trkpt lat="46.0791558" lon="11.1095897" />
      <trkpt lat="46.0791098" lon="11.1096211" />
      <trkpt lat="46.0790528" lon="11.1096634" />
      <trkpt lat="46.0790257" lon="11.1096779" />
      <trkpt lat="46.0789947" lon="11.1096945" />
      <trkpt lat="46.0789432" lon="11.1097132" />
      <trkpt lat="46.0788340" lon="11.1097379" />
      <trkpt lat="46.0786550" lon="11.1097371" />
      <trkpt lat="46.0785743" lon="11.1097328" />
      <trkpt lat="46.0785438" lon="11.1097353" />
      <trkpt lat="46.0784939" lon="11.1097526" />
      <trkpt lat="46.0784790" lon="11.1097604" />
      <trkpt lat="46.0784680" lon="11.1097709" />
      <trkpt lat="46.0783997" lon="11.1098690" />
      <trkpt lat="46.0783477" lon="11.1099583" />
      <trkpt lat="46.0782673" lon="11.1101237" />
      <trkpt lat="46.0781533" lon="11.1103683" />
      <trkpt lat="46.0780593" lon="11.1105298" />
      <trkpt lat="46.0779706" lon="11.1106713" />
      <trkpt lat="46.0779557" lon="11.1106928" />
      <trkpt lat="46.0777098" lon="11.1110493" />
      <trkpt lat="46.0777024" lon="11.1110600" />
      <trkpt lat="46.0776886" lon="11.1110824" />
      <trkpt lat="46.0776577" lon="11.1111387" />
      <trkpt lat="46.0777004" lon="11.1111737" />
      <trkpt lat="46.0780234" lon="11.1114197" />
      <trkpt lat="46.0783534" lon="11.1116707" />
      <trkpt lat="46.0783665" lon="11.1116760" />
      <trkpt lat="46.0783765" lon="11.1116760" />
      <trkpt lat="46.0783882" lon="11.1116760" />
      <trkpt lat="46.0783981" lon="11.1116813" />
      <trkpt lat="46.0785311" lon="11.1118233" />
      <trkpt lat="46.0785374" lon="11.1118326" />
      <trkpt lat="46.0785451" lon="11.1118571" />
      <trkpt lat="46.0785455" lon="11.1118777" />
      <trkpt lat="46.0785440" lon="11.1119031" />
      <trkpt lat="46.0785027" lon="11.1123799" />
      <trkpt lat="46.0784947" lon="11.1124171" />
      <trkpt lat="46.0784799" lon="11.1124506" />
      <trkpt lat="46.0784627" lon="11.1124727" />
      <trkpt lat="46.0784287" lon="11.1124841" />
      <trkpt lat="46.0783469" lon="11.1124828" />
      <trkpt lat="46.0781933" lon="11.1124747" />
      <trkpt lat="46.0781071" lon="11.1124740" />
      <trkpt lat="46.0780461" lon="11.1124857" />
      <trkpt lat="46.0779684" lon="11.1125125" />
      <trkpt lat="46.0778925" lon="11.1125433" />
      <trkpt lat="46.0778038" lon="11.1125881" />
      <trkpt lat="46.0776943" lon="11.1126669" />
      <trkpt lat="46.0776264" lon="11.1127125" />
      <trkpt lat="46.0775417" lon="11.1127809" />
      <trkpt lat="46.0774664" lon="11.1128534" />
      <trkpt lat="46.0774040" lon="11.1129097" />
      <trkpt lat="46.0773435" lon="11.1129660" />
      <trkpt lat="46.0772860" lon="11.1130255" />
      <trkpt lat="46.0772712" lon="11.1130683" />
      <trkpt lat="46.0772525" lon="11.1131920" />
      <trkpt lat="46.0772453" lon="11.1132361" />
      <trkpt lat="46.0772382" lon="11.1132781" />
      <trkpt lat="46.0772268" lon="11.1134369" />
      <trkpt lat="46.0772234" lon="11.1136099" />
      <trkpt lat="46.0772229" lon="11.1136230" />
      <trkpt lat="46.0772253" lon="11.1138609" />
      <trkpt lat="46.0772247" lon="11.1139149" />
      <trkpt lat="46.0772234" lon="11.1139375" />
      <trkpt lat="46.0772106" lon="11.1140944" />
      <trkpt lat="46.0771971" lon="11.1142363" />
      <trkpt lat="46.0771750" lon="11.1143915" />
      <trkpt lat="46.0771558" lon="11.1144764" />
      <trkpt lat="46.0772025" lon="11.1146393" />
      <trkpt lat="46.0772164" lon="11.1146916" />
      <trkpt lat="46.0772292" lon="11.1147373" />
      <trkpt lat="46.0775100" lon="11.1156413" />
      <trkpt lat="46.0775296" lon="11.1157096" />
      <trkpt lat="46.0775365" lon="11.1157304" />
      <trkpt lat="46.0775487" lon="11.1157669" />
      <trkpt lat="46.0775669" lon="11.1158228" />
      <trkpt lat="46.0775428" lon="11.1158405" />
      <trkpt lat="46.0775226" lon="11.1158667" />
      <trkpt lat="46.0775078" lon="11.1158994" />
      <trkpt lat="46.0774994" lon="11.1159365" />
      <trkpt lat="46.0774978" lon="11.1159755" />
      <trkpt lat="46.0775031" lon="11.1160134" />
      <trkpt lat="46.0775150" lon="11.1160480" />
      <trkpt lat="46.0775326" lon="11.1160772" />
      <trkpt lat="46.0775547" lon="11.1160990" />
      <trkpt lat="46.0775794" lon="11.1161117" />
      <trkpt lat="46.0776055" lon="11.1161152" />
      <trkpt lat="46.0776314" lon="11.1161092" />
      <trkpt lat="46.0776555" lon="11.1160940" />
      <trkpt lat="46.0776762" lon="11.1160708" />
      <trkpt lat="46.0776922" lon="11.1160408" />
      <trkpt lat="46.0777230" lon="11.1160665" />
      <trkpt lat="46.0777723" lon="11.1161069" />
      <trkpt lat="46.0777899" lon="11.1161214" />
      <trkpt lat="46.0778635" lon="11.1161759" />
      <trkpt lat="46.0781926" lon="11.1163565" />
      <trkpt lat="46.0782584" lon="11.1163914" />
      <trkpt lat="46.0787713" lon="11.1166739" />
      <trkpt lat="46.0789419" lon="11.1167674" />
      <trkpt lat="46.0791585" lon="11.1168869" />
      <trkpt lat="46.0792202" lon="11.1169207" />
      <trkpt lat="46.0795721" lon="11.1171139" />
      <trkpt lat="46.0796779" lon="11.1171868" />
      <trkpt lat="46.0797190" lon="11.1172413" />
      <trkpt lat="46.0797085" lon="11.1173179" />
      <trkpt lat="46.0797251" lon="11.1173827" />
      <trkpt lat="46.0797616" lon="11.1174274" />
      <trkpt lat="46.0797957" lon="11.1174404" />
      <trkpt lat="46.0798272" lon="11.1174360" />
      <trkpt lat="46.0798719" lon="11.1173968" />
      <trkpt lat="46.0799185" lon="11.1174483" />
      <trkpt lat="46.0799510" lon="11.1175096" />
      <trkpt lat="46.0799940" lon="11.1174727" />
      <trkpt lat="46.0800627" lon="11.1175734" />
      <trkpt lat="46.0801388" lon="11.1175991" />
      <trkpt lat="46.0802084" lon="11.1175477" />
      <trkpt lat="46.0813356" lon="11.1166106" />
      <trkpt lat="46.0813581" lon="11.1166546" />
      <trkpt lat="46.0813792" lon="11.1166957" />
      <trkpt lat="46.0814131" lon="11.1166852" />
      <trkpt lat="46.0817327" lon="11.1165860" />
      <trkpt lat="46.0819216" lon="11.1165927" />
      <trkpt lat="46.0818807" lon="11.1167656" />
      <trkpt lat="46.0821060" lon="11.1167066" />
      <trkpt lat="46.0823822" lon="11.1166342" />
      <trkpt lat="46.0825644" lon="11.1165864" />
      <trkpt lat="46.0827765" lon="11.1162630" />
      <trkpt lat="46.0828616" lon="11.1160784" />
      <trkpt lat="46.0829390" lon="11.1158257" />
      <trkpt lat="46.0829519" lon="11.1157392" />
      <trkpt lat="46.0829669" lon="11.1156391" />
      <trkpt lat="46.0829829" lon="11.1155320" />
      <trkpt lat="46.0830702" lon="11.1151229" />
      <trkpt lat="46.0830961" lon="11.1150017" />
      <trkpt lat="46.0831802" lon="11.1147561" />
      <trkpt lat="46.0831981" lon="11.1146922" />
      <trkpt lat="46.0832618" lon="11.1146586" />
      <trkpt lat="46.0833377" lon="11.1146228" />
      <trkpt lat="46.0834400" lon="11.1146128" />
      <trkpt lat="46.0835406" lon="11.1146373" />
      <trkpt lat="46.0837546" lon="11.1147215" />
      <trkpt lat="46.0837811" lon="11.1147317" />
      <trkpt lat="46.0838066" lon="11.1147398" />
      <trkpt lat="46.0838264" lon="11.1147454" />
      <trkpt lat="46.0838692" lon="11.1147594" />
      <trkpt lat="46.0839262" lon="11.1147777" />
      <trkpt lat="46.0840331" lon="11.1148494" />
      <trkpt lat="46.0840576" lon="11.1148743" />
      <trkpt lat="46.0840931" lon="11.1148158" />
      <trkpt lat="46.0841410" lon="11.1148701" />
      <trkpt lat="46.0841787" lon="11.1149208" />
      <trkpt lat="46.0842219" lon="11.1149987" />
      <trkpt lat="46.0842710" lon="11.1151047" />
      <trkpt lat="46.0843945" lon="11.1153801" />
      <trkpt lat="46.0848442" lon="11.1167009" />
      <trkpt lat="46.0850698" lon="11.1173196" />
      <trkpt lat="46.0853364" lon="11.1180592" />
      <trkpt lat="46.0853676" lon="11.1183419" />
      <trkpt lat="46.0853744" lon="11.1184635" />
      <trkpt lat="46.0853761" lon="11.1185215" />
      <trkpt lat="46.0853938" lon="11.1185980" />
      <trkpt lat="46.0853684" lon="11.1186483" />
      <trkpt lat="46.0853500" lon="11.1187032" />
      <trkpt lat="46.0853386" lon="11.1187619" />
      <trkpt lat="46.0853350" lon="11.1188459" />
      <trkpt lat="46.0853458" lon="11.1189288" />
      <trkpt lat="46.0853702" lon="11.1190053" />
      <trkpt lat="46.0854068" lon="11.1190710" />
      <trkpt lat="46.0854534" lon="11.1191218" />
      <trkpt lat="46.0855072" lon="11.1191547" />
      <trkpt lat="46.0855591" lon="11.1191674" />
      <trkpt lat="46.0856296" lon="11.1192762" />
      <trkpt lat="46.0857196" lon="11.1193732" />
      <trkpt lat="46.0857462" lon="11.1194713" />
      <trkpt lat="46.0857536" lon="11.1194985" />
      <trkpt lat="46.0859011" lon="11.1200420" />
      <trkpt lat="46.0859162" lon="11.1200976" />
      <trkpt lat="46.0859335" lon="11.1201613" />
      <trkpt lat="46.0859858" lon="11.1203541" />
      <trkpt lat="46.0859982" lon="11.1203891" />
      <trkpt lat="46.0860169" lon="11.1204182" />
      <trkpt lat="46.0860429" lon="11.1204405" />
      <trkpt lat="46.0860807" lon="11.1204512" />
      <trkpt lat="46.0861063" lon="11.1204465" />
      <trkpt lat="46.0861264" lon="11.1204354" />
      <trkpt lat="46.0861719" lon="11.1204122" />
      <trkpt lat="46.0864400" lon="11.1202500" />
      <trkpt lat="46.0865625" lon="11.1201794" />
      <trkpt lat="46.0867828" lon="11.1200524" />
      <trkpt lat="46.0870036" lon="11.1199296" />
      <trkpt lat="46.0870564" lon="11.1199006" />
      <trkpt lat="46.0871138" lon="11.1198691" />
      <trkpt lat="46.0873139" lon="11.1197689" />
      <trkpt lat="46.0874538" lon="11.1196929" />
      <trkpt lat="46.0875227" lon="11.1196540" />
      <trkpt lat="46.0878252" lon="11.1194909" />
      <trkpt lat="46.0879019" lon="11.1194500" />
      <trkpt lat="46.0880815" lon="11.1193735" />
      <trkpt lat="46.0881116" lon="11.1194395" />
      <trkpt lat="46.0879179" lon="11.1195213" />
      <trkpt lat="46.0878243" lon="11.1195701" />
      <trkpt lat="46.0874738" lon="11.1197610" />
      <trkpt lat="46.0873324" lon="11.1198395" />
      <trkpt lat="46.0870761" lon="11.1199854" />
      <trkpt lat="46.0865838" lon="11.1202561" />
      <trkpt lat="46.0865893" lon="11.1202765" />
      <trkpt lat="46.0866108" lon="11.1203566" />
      <trkpt lat="46.0865968" lon="11.1203663" />
      <trkpt lat="46.0866573" lon="11.1205539" />
      <trkpt lat="46.0867992" lon="11.1209937" />
      <trkpt lat="46.0868358" lon="11.1209701" />
      <trkpt lat="46.0869397" lon="11.1213260" />
      <trkpt lat="46.0869794" lon="11.1214670" />
      <trkpt lat="46.0869922" lon="11.1215223" />
      <trkpt lat="46.0868613" lon="11.1214889" />
      <trkpt lat="46.0867502" lon="11.1214569" />
      <trkpt lat="46.0866295" lon="11.1214567" />
      <trkpt lat="46.0866065" lon="11.1214566" />
      <trkpt lat="46.0864525" lon="11.1215145" />
      <trkpt lat="46.0863854" lon="11.1215555" />
      <trkpt lat="46.0862677" lon="11.1216660" />
      <trkpt lat="46.0861432" lon="11.1218054" />
      <trkpt lat="46.0861228" lon="11.1218296" />
      <trkpt lat="46.0860582" lon="11.1219192" />
      <trkpt lat="46.0857635" lon="11.1222940" />
      <trkpt lat="46.0856255" lon="11.1224124" />
      <trkpt lat="46.0854561" lon="11.1225546" />
      <trkpt lat="46.0853474" lon="11.1226310" />
      <trkpt lat="46.0850983" lon="11.1228278" />
      <trkpt lat="46.0849934" lon="11.1228788" />
      <trkpt lat="46.0848927" lon="11.1228921" />
      <trkpt lat="46.0847255" lon="11.1229009" />
      <trkpt lat="46.0846947" lon="11.1228871" />
      <trkpt lat="46.0846689" lon="11.1228707" />
      <trkpt lat="46.0846475" lon="11.1228995" />
      <trkpt lat="46.0846255" lon="11.1229251" />
      <trkpt lat="46.0845315" lon="11.1229500" />
      <trkpt lat="46.0839619" lon="11.1229326" />
      <trkpt lat="46.0839244" lon="11.1229300" />
      <trkpt lat="46.0837984" lon="11.1229212" />
      <trkpt lat="46.0836012" lon="11.1229182" />
      <trkpt lat="46.0835353" lon="11.1228845" />
      <trkpt lat="46.0834168" lon="11.1227627" />
      <trkpt lat="46.0832897" lon="11.1226458" />
      <trkpt lat="46.0832141" lon="11.1225974" />
      <trkpt lat="46.0831859" lon="11.1225876" />
      <trkpt lat="46.0831495" lon="11.1225750" />
      <trkpt lat="46.0830015" lon="11.1225548" />
      <trkpt lat="46.0829457" lon="11.1225460" />
      <trkpt lat="46.0828615" lon="11.1225314" />
      <trkpt lat="46.0828152" lon="11.1225251" />
      <trkpt lat="46.0826798" lon="11.1225065" />
      <trkpt lat="46.0826416" lon="11.1225013" />
      <trkpt lat="46.0825847" lon="11.1224935" />
      <trkpt lat="46.0825144" lon="11.1224944" />
      <trkpt lat="46.0824513" lon="11.1225011" />
      <trkpt lat="46.0822989" lon="11.1225154" />
      <trkpt lat="46.0821995" lon="11.1225242" />
      <trkpt lat="46.0820924" lon="11.1225341" />
      <trkpt lat="46.0819842" lon="11.1225440" />
      <trkpt lat="46.0819226" lon="11.1225688" />
      <trkpt lat="46.0818721" lon="11.1226027" />
      <trkpt lat="46.0817527" lon="11.1226828" />
      <trkpt lat="46.0815383" lon="11.1228595" />
      <trkpt lat="46.0815307" lon="11.1228658" />
      <trkpt lat="46.0814719" lon="11.1229229" />
      <trkpt lat="46.0810953" lon="11.1232874" />
      <trkpt lat="46.0810204" lon="11.1233609" />
      <trkpt lat="46.0807336" lon="11.1235938" />
      <trkpt lat="46.0805977" lon="11.1237042" />
      <trkpt lat="46.0805150" lon="11.1237571" />
      <trkpt lat="46.0804717" lon="11.1237813" />
      <trkpt lat="46.0804250" lon="11.1237986" />
      <trkpt lat="46.0801750" lon="11.1237986" />
      <trkpt lat="46.0799561" lon="11.1237752" />
      <trkpt lat="46.0798194" lon="11.1238054" />
      <trkpt lat="46.0796917" lon="11.1239513" />
      <trkpt lat="46.0795832" lon="11.1241388" />
      <trkpt lat="46.0795388" lon="11.1244860" />
      <trkpt lat="46.0795222" lon="11.1246144" />
      <trkpt lat="46.0794020" lon="11.1246682" />
      <trkpt lat="46.0792929" lon="11.1246439" />
      <trkpt lat="46.0791121" lon="11.1245884" />
      <trkpt lat="46.0789215" lon="11.1245280" />
      <trkpt lat="46.0787322" lon="11.1244902" />
      <trkpt lat="46.0786860" lon="11.1244818" />
      <trkpt lat="46.0786679" lon="11.1245942" />
      <trkpt lat="46.0786295" lon="11.1247290" />
      <trkpt lat="46.0785672" lon="11.1248890" />
      <trkpt lat="46.0785499" lon="11.1249317" />
      <trkpt lat="46.0784480" lon="11.1250675" />
      <trkpt lat="46.0782439" lon="11.1252306" />
      <trkpt lat="46.0780801" lon="11.1254054" />
      <trkpt lat="46.0778389" lon="11.1257179" />
      <trkpt lat="46.0776466" lon="11.1259896" />
      <trkpt lat="46.0775885" lon="11.1260716" />
      <trkpt lat="46.0775313" lon="11.1262105" />
      <trkpt lat="46.0775071" lon="11.1262879" />
      <trkpt lat="46.0774895" lon="11.1263747" />
      <trkpt lat="46.0774476" lon="11.1266083" />
      <trkpt lat="46.0774140" lon="11.1267203" />
      <trkpt lat="46.0773621" lon="11.1268230" />
      <trkpt lat="46.0772324" lon="11.1270697" />
      <trkpt lat="46.0769676" lon="11.1273889" />
      <trkpt lat="46.0768882" lon="11.1274744" />
      <trkpt lat="46.0768848" lon="11.1274787" />
      <trkpt lat="46.0768259" lon="11.1275549" />
      <trkpt lat="46.0766061" lon="11.1277146" />
      <trkpt lat="46.0762954" lon="11.1279100" />
      <trkpt lat="46.0761818" lon="11.1279798" />
      <trkpt lat="46.0761026" lon="11.1280285" />
      <trkpt lat="46.0760286" lon="11.1281419" />
      <trkpt lat="46.0759290" lon="11.1282301" />
      <trkpt lat="46.0759087" lon="11.1284264" />
      <trkpt lat="46.0759068" lon="11.1285458" />
      <trkpt lat="46.0758860" lon="11.1286618" />
      <trkpt lat="46.0759712" lon="11.1287291" />
      <trkpt lat="46.0761791" lon="11.1288718" />
      <trkpt lat="46.0763971" lon="11.1290343" />
      <trkpt lat="46.0766107" lon="11.1292268" />
      <trkpt lat="46.0768258" lon="11.1294256" />
      <trkpt lat="46.0770601" lon="11.1295496" />
      <trkpt lat="46.0771625" lon="11.1296480" />
      <trkpt lat="46.0772248" lon="11.1298661" />
      <trkpt lat="46.0772678" lon="11.1302466" />
      <trkpt lat="46.0772708" lon="11.1303001" />
      <trkpt lat="46.0772788" lon="11.1304450" />
      <trkpt lat="46.0772661" lon="11.1305162" />
      <trkpt lat="46.0772750" lon="11.1305407" />
      <trkpt lat="46.0772863" lon="11.1305915" />
      <trkpt lat="46.0772892" lon="11.1306599" />
      <trkpt lat="46.0772445" lon="11.1309859" />
      <trkpt lat="46.0772348" lon="11.1310984" />
      <trkpt lat="46.0772593" lon="11.1312332" />
      <trkpt lat="46.0773671" lon="11.1304666" />
      <trkpt lat="46.0774699" lon="11.1305183" />
      <trkpt lat="46.0775462" lon="11.1305548" />
      <trkpt lat="46.0776351" lon="11.1305890" />
      <trkpt lat="46.0776813" lon="11.1306004" />
      <trkpt lat="46.0779757" lon="11.1306368" />
      <trkpt lat="46.0780404" lon="11.1306618" />
      <trkpt lat="46.0781185" lon="11.1307095" />
      <trkpt lat="46.0782004" lon="11.1307831" />
      <trkpt lat="46.0782903" lon="11.1308929" />
      <trkpt lat="46.0783495" lon="11.1309923" />
      <trkpt lat="46.0783826" lon="11.1310924" />
      <trkpt lat="46.0783974" lon="11.1311663" />
      <trkpt lat="46.0783974" lon="11.1312138" />
      <trkpt lat="46.0783917" lon="11.1312810" />
      <trkpt lat="46.0783660" lon="11.1313499" />
      <trkpt lat="46.0783263" lon="11.1314152" />
      <trkpt lat="46.0781656" lon="11.1316469" />
      <trkpt lat="46.0778386" lon="11.1320741" />
      <trkpt lat="46.0775294" lon="11.1324748" />
      <trkpt lat="46.0771637" lon="11.1328149" />
      <trkpt lat="46.0770186" lon="11.1329397" />
      <trkpt lat="46.0769450" lon="11.1330030" />
      <trkpt lat="46.0767809" lon="11.1332183" />
      <trkpt lat="46.0766631" lon="11.1334795" />
      <trkpt lat="46.0765783" lon="11.1336710" />
      <trkpt lat="46.0764380" lon="11.1339313" />
      <trkpt lat="46.0759718" lon="11.1348107" />
      <trkpt lat="46.0758328" lon="11.1350534" />
      <trkpt lat="46.0758981" lon="11.1350668" />
      <trkpt lat="46.0760135" lon="11.1350906" />
      <trkpt lat="46.0762267" lon="11.1350233" />
      <trkpt lat="46.0763880" lon="11.1349902" />
      <trkpt lat="46.0765286" lon="11.1350298" />
      <trkpt lat="46.0765689" lon="11.1350411" />
      <trkpt lat="46.0766295" lon="11.1350505" />
      <trkpt lat="46.0768945" lon="11.1350918" />
      <trkpt lat="46.0770970" lon="11.1351193" />
      <trkpt lat="46.0775818" lon="11.1351995" />
      <trkpt lat="46.0776370" lon="11.1352503" />
      <trkpt lat="46.0778023" lon="11.1353775" />
      <trkpt lat="46.0780062" lon="11.1355196" />
      <trkpt lat="46.0781323" lon="11.1356685" />
      <trkpt lat="46.0782104" lon="11.1358902" />
      <trkpt lat="46.0781985" lon="11.1362501" />
      <trkpt lat="46.0781986" lon="11.1363628" />
      <trkpt lat="46.0782207" lon="11.1364565" />
      <trkpt lat="46.0782415" lon="11.1365172" />
      <trkpt lat="46.0783219" lon="11.1366039" />
      <trkpt lat="46.0783988" lon="11.1366256" />
      <trkpt lat="46.0785667" lon="11.1365832" />
      <trkpt lat="46.0786952" lon="11.1365705" />
      <trkpt lat="46.0787756" lon="11.1365790" />
      <trkpt lat="46.0788179" lon="11.1366839" />
      <trkpt lat="46.0788308" lon="11.1367243" />
      <trkpt lat="46.0788642" lon="11.1368286" />
      <trkpt lat="46.0789329" lon="11.1371044" />
      <trkpt lat="46.0790154" lon="11.1374476" />
      <trkpt lat="46.0790645" lon="11.1376666" />
      <trkpt lat="46.0792275" lon="11.1379074" />
      <trkpt lat="46.0795933" lon="11.1381380" />
      <trkpt lat="46.0796097" lon="11.1381458" />
      <trkpt lat="46.0798794" lon="11.1382735" />
      <trkpt lat="46.0800027" lon="11.1383319" />
      <trkpt lat="46.0800475" lon="11.1383772" />
      <trkpt lat="46.0800793" lon="11.1384250" />
      <trkpt lat="46.0801042" lon="11.1384762" />
      <trkpt lat="46.0801385" lon="11.1385452" />
      <trkpt lat="46.0800522" lon="11.1386736" />
      <trkpt lat="46.0799290" lon="11.1388811" />
      <trkpt lat="46.0798390" lon="11.1389072" />
      <trkpt lat="46.0797379" lon="11.1389325" />
      <trkpt lat="46.0795325" lon="11.1390357" />
      <trkpt lat="46.0792372" lon="11.1392240" />
      <trkpt lat="46.0790370" lon="11.1393544" />
      <trkpt lat="46.0787947" lon="11.1396041" />
      <trkpt lat="46.0784930" lon="11.1399748" />
      <trkpt lat="46.0784287" lon="11.1400438" />
      <trkpt lat="46.0782006" lon="11.1402881" />
      <trkpt lat="46.0784287" lon="11.1400438" />
      <trkpt lat="46.0784930" lon="11.1399748" />
      <trkpt lat="46.0787947" lon="11.1396041" />
      <trkpt lat="46.0790370" lon="11.1393544" />
      <trkpt lat="46.0792372" lon="11.1392240" />
      <trkpt lat="46.0795325" lon="11.1390357" />
      <trkpt lat="46.0797379" lon="11.1389325" />
      <trkpt lat="46.0798390" lon="11.1389072" />
      <trkpt lat="46.0799290" lon="11.1388811" />
      <trkpt lat="46.0796694" lon="11.1393568" />
      <trkpt lat="46.0793038" lon="11.1400175" />
      <trkpt lat="46.0792066" lon="11.1401541" />
      <trkpt lat="46.0790419" lon="11.1403062" />
      <trkpt lat="46.0788930" lon="11.1404289" />
      <trkpt lat="46.0786959" lon="11.1404996" />
      <trkpt lat="46.0780213" lon="11.1405424" />
      <trkpt lat="46.0779641" lon="11.1405458" />
      <trkpt lat="46.0774568" lon="11.1405791" />
      <trkpt lat="46.0773523" lon="11.1406027" />
      <trkpt lat="46.0772581" lon="11.1406463" />
      <trkpt lat="46.0771439" lon="11.1407195" />
      <trkpt lat="46.0768238" lon="11.1408990" />
      <trkpt lat="46.0768078" lon="11.1409079" />
      <trkpt lat="46.0767756" lon="11.1409259" />
      <trkpt lat="46.0767008" lon="11.1409676" />
      <trkpt lat="46.0766815" lon="11.1409384" />
      <trkpt lat="46.0766565" lon="11.1409205" />
      <trkpt lat="46.0766288" lon="11.1409158" />
      <trkpt lat="46.0766016" lon="11.1409250" />
      <trkpt lat="46.0765919" lon="11.1408123" />
      <trkpt lat="46.0766172" lon="11.1405509" />
      <trkpt lat="46.0766257" lon="11.1404017" />
      <trkpt lat="46.0766243" lon="11.1403096" />
      <trkpt lat="46.0766231" lon="11.1402312" />
      <trkpt lat="46.0765879" lon="11.1400742" />
      <trkpt lat="46.0764742" lon="11.1396651" />
      <trkpt lat="46.0764612" lon="11.1396150" />
      <trkpt lat="46.0764088" lon="11.1393960" />
      <trkpt lat="46.0763877" lon="11.1391951" />
      <trkpt lat="46.0763857" lon="11.1391369" />
      <trkpt lat="46.0763985" lon="11.1388959" />
      <trkpt lat="46.0764422" lon="11.1386605" />
      <trkpt lat="46.0765630" lon="11.1380309" />
      <trkpt lat="46.0766604" lon="11.1376447" />
      <trkpt lat="46.0766679" lon="11.1375110" />
      <trkpt lat="46.0766619" lon="11.1374243" />
      <trkpt lat="46.0766392" lon="11.1373485" />
      <trkpt lat="46.0766095" lon="11.1372973" />
      <trkpt lat="46.0765334" lon="11.1372001" />
      <trkpt lat="46.0762418" lon="11.1370653" />
      <trkpt lat="46.0761335" lon="11.1370152" />
      <trkpt lat="46.0759600" lon="11.1369474" />
      <trkpt lat="46.0755996" lon="11.1368463" />
      <trkpt lat="46.0755642" lon="11.1368397" />
      <trkpt lat="46.0752562" lon="11.1366969" />
      <trkpt lat="46.0751931" lon="11.1366396" />
      <trkpt lat="46.0751677" lon="11.1365868" />
      <trkpt lat="46.0751588" lon="11.1365343" />
      <trkpt lat="46.0751791" lon="11.1364057" />
      <trkpt lat="46.0753457" lon="11.1361392" />
      <trkpt lat="46.0757217" lon="11.1352906" />
      <trkpt lat="46.0758328" lon="11.1350534" />
      <trkpt lat="46.0759718" lon="11.1348107" />
      <trkpt lat="46.0764380" lon="11.1339313" />
      <trkpt lat="46.0765783" lon="11.1336710" />
      <trkpt lat="46.0766631" lon="11.1334795" />
      <trkpt lat="46.0767809" lon="11.1332183" />
      <trkpt lat="46.0769450" lon="11.1330030" />
      <trkpt lat="46.0770186" lon="11.1329397" />
      <trkpt lat="46.0771637" lon="11.1328149" />
      <trkpt lat="46.0775294" lon="11.1324748" />
      <trkpt lat="46.0778386" lon="11.1320741" />
      <trkpt lat="46.0781656" lon="11.1316469" />
      <trkpt lat="46.0783263" lon="11.1314152" />
      <trkpt lat="46.0783660" lon="11.1313499" />
      <trkpt lat="46.0783917" lon="11.1312810" />
      <trkpt lat="46.0783974" lon="11.1312138" />
      <trkpt lat="46.0783974" lon="11.1311663" />
      <trkpt lat="46.0783826" lon="11.1310924" />
      <trkpt lat="46.0783495" lon="11.1309923" />
      <trkpt lat="46.0782903" lon="11.1308929" />
      <trkpt lat="46.0782004" lon="11.1307831" />
      <trkpt lat="46.0781185" lon="11.1307095" />
      <trkpt lat="46.0780404" lon="11.1306618" />
      <trkpt lat="46.0779757" lon="11.1306368" />
      <trkpt lat="46.0776813" lon="11.1306004" />
      <trkpt lat="46.0776351" lon="11.1305890" />
      <trkpt lat="46.0775462" lon="11.1305548" />
      <trkpt lat="46.0774699" lon="11.1305183" />
      <trkpt lat="46.0773671" lon="11.1304666" />
      <trkpt lat="46.0773083" lon="11.1304503" />
      <trkpt lat="46.0772788" lon="11.1304450" />
      <trkpt lat="46.0771354" lon="11.1304578" />
      <trkpt lat="46.0770168" lon="11.1304446" />
      <trkpt lat="46.0767621" lon="11.1303772" />
      <trkpt lat="46.0766298" lon="11.1303343" />
      <trkpt lat="46.0764975" lon="11.1302832" />
      <trkpt lat="46.0761724" lon="11.1300875" />
      <trkpt lat="46.0760478" lon="11.1300123" />
      <trkpt lat="46.0760013" lon="11.1299493" />
      <trkpt lat="46.0759415" lon="11.1297726" />
      <trkpt lat="46.0758601" lon="11.1295688" />
      <trkpt lat="46.0758122" lon="11.1294045" />
      <trkpt lat="46.0757939" lon="11.1293083" />
      <trkpt lat="46.0757893" lon="11.1291059" />
      <trkpt lat="46.0758202" lon="11.1289142" />
      <trkpt lat="46.0758860" lon="11.1286618" />
      <trkpt lat="46.0759068" lon="11.1285458" />
      <trkpt lat="46.0759087" lon="11.1284264" />
      <trkpt lat="46.0759290" lon="11.1282301" />
      <trkpt lat="46.0758499" lon="11.1282191" />
      <trkpt lat="46.0757716" lon="11.1281967" />
      <trkpt lat="46.0757365" lon="11.1281867" />
      <trkpt lat="46.0756233" lon="11.1281540" />
      <trkpt lat="46.0752276" lon="11.1280388" />
      <trkpt lat="46.0751899" lon="11.1280282" />
      <trkpt lat="46.0748351" lon="11.1279289" />
      <trkpt lat="46.0746745" lon="11.1278750" />
      <trkpt lat="46.0745531" lon="11.1278791" />
      <trkpt lat="46.0744212" lon="11.1279428" />
      <trkpt lat="46.0743188" lon="11.1280689" />
      <trkpt lat="46.0742467" lon="11.1282269" />
      <trkpt lat="46.0741912" lon="11.1283750" />
      <trkpt lat="46.0741334" lon="11.1285292" />
      <trkpt lat="46.0741080" lon="11.1285762" />
      <trkpt lat="46.0740653" lon="11.1286278" />
      <trkpt lat="46.0740202" lon="11.1286762" />
      <trkpt lat="46.0739495" lon="11.1287020" />
      <trkpt lat="46.0737632" lon="11.1287122" />
      <trkpt lat="46.0736401" lon="11.1287062" />
      <trkpt lat="46.0735544" lon="11.1286400" />
      <trkpt lat="46.0734756" lon="11.1285202" />
      <trkpt lat="46.0734279" lon="11.1283958" />
      <trkpt lat="46.0733679" lon="11.1282639" />
      <trkpt lat="46.0732918" lon="11.1281359" />
      <trkpt lat="46.0732634" lon="11.1280957" />
      <trkpt lat="46.0732042" lon="11.1280437" />
      <trkpt lat="46.0731497" lon="11.1280235" />
      <trkpt lat="46.0727627" lon="11.1280423" />
      <trkpt lat="46.0725758" lon="11.1280600" />
      <trkpt lat="46.0725550" lon="11.1280620" />
      <trkpt lat="46.0724740" lon="11.1281028" />
      <trkpt lat="46.0722836" lon="11.1281963" />
      <trkpt lat="46.0722633" lon="11.1282079" />
      <trkpt lat="46.0722366" lon="11.1282249" />
      <trkpt lat="46.0721890" lon="11.1282519" />
      <trkpt lat="46.0718513" lon="11.1284736" />
      <trkpt lat="46.0718066" lon="11.1284987" />
      <trkpt lat="46.0717330" lon="11.1285479" />
      <trkpt lat="46.0716954" lon="11.1285600" />
      <trkpt lat="46.0716630" lon="11.1285586" />
      <trkpt lat="46.0716305" lon="11.1285518" />
      <trkpt lat="46.0715899" lon="11.1285292" />
      <trkpt lat="46.0715567" lon="11.1284892" />
      <trkpt lat="46.0715367" lon="11.1284263" />
      <trkpt lat="46.0715268" lon="11.1283565" />
      <trkpt lat="46.0715284" lon="11.1283006" />
      <trkpt lat="46.0715365" lon="11.1282489" />
      <trkpt lat="46.0715586" lon="11.1281942" />
      <trkpt lat="46.0715872" lon="11.1281519" />
      <trkpt lat="46.0716201" lon="11.1280942" />
      <trkpt lat="46.0716349" lon="11.1280470" />
      <trkpt lat="46.0716415" lon="11.1279987" />
      <trkpt lat="46.0716410" lon="11.1279404" />
      <trkpt lat="46.0716324" lon="11.1278956" />
      <trkpt lat="46.0716130" lon="11.1278268" />
      <trkpt lat="46.0715886" lon="11.1277871" />
      <trkpt lat="46.0715170" lon="11.1277430" />
      <trkpt lat="46.0713634" lon="11.1277755" />
      <trkpt lat="46.0712915" lon="11.1277908" />
      <trkpt lat="46.0710451" lon="11.1278597" />
      <trkpt lat="46.0706052" lon="11.1279827" />
      <trkpt lat="46.0704920" lon="11.1280102" />
      <trkpt lat="46.0703787" lon="11.1280233" />
      <trkpt lat="46.0703250" lon="11.1280228" />
      <trkpt lat="46.0702502" lon="11.1280220" />
      <trkpt lat="46.0700492" lon="11.1279925" />
      <trkpt lat="46.0699935" lon="11.1279812" />
      <trkpt lat="46.0699423" lon="11.1279639" />
      <trkpt lat="46.0698512" lon="11.1279635" />
      <trkpt lat="46.0698344" lon="11.1279076" />
      <trkpt lat="46.0696448" lon="11.1278469" />
      <trkpt lat="46.0694217" lon="11.1277691" />
      <trkpt lat="46.0691985" lon="11.1276913" />
      <trkpt lat="46.0691674" lon="11.1276847" />
      <trkpt lat="46.0691576" lon="11.1276634" />
      <trkpt lat="46.0690769" lon="11.1276122" />
      <trkpt lat="46.0690596" lon="11.1276035" />
      <trkpt lat="46.0690164" lon="11.1275628" />
      <trkpt lat="46.0689143" lon="11.1274631" />
      <trkpt lat="46.0687621" lon="11.1274524" />
      <trkpt lat="46.0684191" lon="11.1272552" />
      <trkpt lat="46.0676996" lon="11.1268344" />
      <trkpt lat="46.0676027" lon="11.1267858" />
      <trkpt lat="46.0675811" lon="11.1267608" />
      <trkpt lat="46.0675385" lon="11.1267116" />
      <trkpt lat="46.0675075" lon="11.1266758" />
      <trkpt lat="46.0674643" lon="11.1266259" />
      <trkpt lat="46.0674662" lon="11.1266008" />
      <trkpt lat="46.0674573" lon="11.1265476" />
      <trkpt lat="46.0674371" lon="11.1265012" />
      <trkpt lat="46.0674078" lon="11.1264664" />
      <trkpt lat="46.0673723" lon="11.1264470" />
      <trkpt lat="46.0673266" lon="11.1264337" />
      <trkpt lat="46.0672857" lon="11.1264299" />
      <trkpt lat="46.0672648" lon="11.1264375" />
      <trkpt lat="46.0672508" lon="11.1264455" />
      <trkpt lat="46.0671884" lon="11.1264175" />
      <trkpt lat="46.0671303" lon="11.1264120" />
      <trkpt lat="46.0671091" lon="11.1264080" />
      <trkpt lat="46.0670527" lon="11.1264071" />
      <trkpt lat="46.0670034" lon="11.1263813" />
      <trkpt lat="46.0668961" lon="11.1263252" />
      <trkpt lat="46.0665257" lon="11.1261125" />
      <trkpt lat="46.0663393" lon="11.1260053" />
      <trkpt lat="46.0661938" lon="11.1259253" />
      <trkpt lat="46.0660226" lon="11.1258313" />
      <trkpt lat="46.0659575" lon="11.1257955" />
      <trkpt lat="46.0657555" lon="11.1256845" />
      <trkpt lat="46.0656249" lon="11.1256127" />
      <trkpt lat="46.0655660" lon="11.1255803" />
      <trkpt lat="46.0655362" lon="11.1256947" />
      <trkpt lat="46.0649023" lon="11.1280954" />
      <trkpt lat="46.0648723" lon="11.1282038" />
      <trkpt lat="46.0645574" lon="11.1293963" />
      <trkpt lat="46.0645386" lon="11.1294681" />
      <trkpt lat="46.0645142" lon="11.1295623" />
      <trkpt lat="46.0644488" lon="11.1298205" />
      <trkpt lat="46.0643783" lon="11.1300945" />
      <trkpt lat="46.0643246" lon="11.1303383" />
      <trkpt lat="46.0643177" lon="11.1303894" />
      <trkpt lat="46.0643020" lon="11.1306109" />
      <trkpt lat="46.0642950" lon="11.1308341" />
      <trkpt lat="46.0642824" lon="11.1309845" />
      <trkpt lat="46.0642751" lon="11.1310378" />
      <trkpt lat="46.0642660" lon="11.1311712" />
      <trkpt lat="46.0640542" lon="11.1311967" />
      <trkpt lat="46.0638505" lon="11.1312711" />
      <trkpt lat="46.0638292" lon="11.1312810" />
      <trkpt lat="46.0638111" lon="11.1312911" />
      <trkpt lat="46.0637928" lon="11.1313256" />
      <trkpt lat="46.0636982" lon="11.1313977" />
      <trkpt lat="46.0635280" lon="11.1314968" />
      <trkpt lat="46.0635190" lon="11.1315044" />
      <trkpt lat="46.0633533" lon="11.1316443" />
      <trkpt lat="46.0631302" lon="11.1318327" />
      <trkpt lat="46.0630161" lon="11.1319521" />
      <trkpt lat="46.0628677" lon="11.1321075" />
      <trkpt lat="46.0627906" lon="11.1321275" />
      <trkpt lat="46.0627357" lon="11.1321396" />
      <trkpt lat="46.0626948" lon="11.1321424" />
      <trkpt lat="46.0626878" lon="11.1321316" />
      <trkpt lat="46.0626668" lon="11.1321108" />
      <trkpt lat="46.0626471" lon="11.1321025" />
      <trkpt lat="46.0626420" lon="11.1321016" />
      <trkpt lat="46.0626166" lon="11.1321051" />
      <trkpt lat="46.0625936" lon="11.1321210" />
      <trkpt lat="46.0625757" lon="11.1321473" />
      <trkpt lat="46.0625651" lon="11.1321808" />
      <trkpt lat="46.0625628" lon="11.1322040" />
      <trkpt lat="46.0625631" lon="11.1322175" />
      <trkpt lat="46.0625700" lon="11.1322529" />
      <trkpt lat="46.0625848" lon="11.1322829" />
      <trkpt lat="46.0625891" lon="11.1322896" />
      <trkpt lat="46.0625490" lon="11.1323468" />
      <trkpt lat="46.0625395" lon="11.1323605" />
      <trkpt lat="46.0623901" lon="11.1325725" />
      <trkpt lat="46.0623639" lon="11.1326076" />
      <trkpt lat="46.0623901" lon="11.1325725" />
      <trkpt lat="46.0625395" lon="11.1323605" />
      <trkpt lat="46.0625490" lon="11.1323468" />
      <trkpt lat="46.0625891" lon="11.1322896" />
      <trkpt lat="46.0626059" lon="11.1323037" />
      <trkpt lat="46.0626306" lon="11.1323129" />
      <trkpt lat="46.0626560" lon="11.1323093" />
      <trkpt lat="46.0626791" lon="11.1322935" />
      <trkpt lat="46.0626880" lon="11.1322823" />
      <trkpt lat="46.0626969" lon="11.1322672" />
      <trkpt lat="46.0627050" lon="11.1322446" />
      <trkpt lat="46.0627075" lon="11.1322337" />
      <trkpt lat="46.0627095" lon="11.1321970" />
      <trkpt lat="46.0627027" lon="11.1321616" />
      <trkpt lat="46.0626948" lon="11.1321424" />
      <trkpt lat="46.0626878" lon="11.1321316" />
      <trkpt lat="46.0626668" lon="11.1321108" />
      <trkpt lat="46.0626471" lon="11.1321025" />
      <trkpt lat="46.0626449" lon="11.1320628" />
      <trkpt lat="46.0626509" lon="11.1319813" />
      <trkpt lat="46.0626699" lon="11.1318863" />
      <trkpt lat="46.0626830" lon="11.1318353" />
      <trkpt lat="46.0628086" lon="11.1313352" />
      <trkpt lat="46.0628961" lon="11.1309224" />
      <trkpt lat="46.0629175" lon="11.1307925" />
      <trkpt lat="46.0630206" lon="11.1307328" />
      <trkpt lat="46.0632391" lon="11.1308112" />
      <trkpt lat="46.0636034" lon="11.1309419" />
      <trkpt lat="46.0637262" lon="11.1309860" />
      <trkpt lat="46.0638130" lon="11.1310138" />
      <trkpt lat="46.0638513" lon="11.1309772" />
      <trkpt lat="46.0638605" lon="11.1309083" />
      <trkpt lat="46.0638631" lon="11.1308888" />
      <trkpt lat="46.0639465" lon="11.1304405" />
      <trkpt lat="46.0639909" lon="11.1300632" />
      <trkpt lat="46.0641157" lon="11.1293371" />
      <trkpt lat="46.0642026" lon="11.1288436" />
      <trkpt lat="46.0642289" lon="11.1286915" />
      <trkpt lat="46.0643773" lon="11.1278908" />
      <trkpt lat="46.0643906" lon="11.1278101" />
      <trkpt lat="46.0648152" lon="11.1280463" />
      <trkpt lat="46.0649023" lon="11.1280954" />
      <trkpt lat="46.0650092" lon="11.1281598" />
      <trkpt lat="46.0650283" lon="11.1280830" />
      <trkpt lat="46.0655989" lon="11.1283923" />
      <trkpt lat="46.0656221" lon="11.1283866" />
      <trkpt lat="46.0656360" lon="11.1283556" />
      <trkpt lat="46.0657014" lon="11.1281023" />
      <trkpt lat="46.0659004" lon="11.1273426" />
      <trkpt lat="46.0659180" lon="11.1272752" />
      <trkpt lat="46.0659664" lon="11.1270981" />
      <trkpt lat="46.0660419" lon="11.1271369" />
      <trkpt lat="46.0660612" lon="11.1270636" />
      <trkpt lat="46.0662269" lon="11.1264329" />
      <trkpt lat="46.0662882" lon="11.1261998" />
      <trkpt lat="46.0663393" lon="11.1260053" />
      <trkpt lat="46.0661938" lon="11.1259253" />
      <trkpt lat="46.0660865" lon="11.1257664" />
      <trkpt lat="46.0660492" lon="11.1257377" />
      <trkpt lat="46.0659888" lon="11.1256911" />
      <trkpt lat="46.0657986" lon="11.1255218" />
      <trkpt lat="46.0657065" lon="11.1254149" />
      <trkpt lat="46.0656223" lon="11.1249238" />
      <trkpt lat="46.0656615" lon="11.1248850" />
      <trkpt lat="46.0656894" lon="11.1248307" />
      <trkpt lat="46.0657009" lon="11.1247688" />
      <trkpt lat="46.0656958" lon="11.1246657" />
      <trkpt lat="46.0656609" lon="11.1239761" />
      <trkpt lat="46.0658911" lon="11.1239464" />
      <trkpt lat="46.0659601" lon="11.1239522" />
      <trkpt lat="46.0660427" lon="11.1240327" />
      <trkpt lat="46.0662062" lon="11.1240774" />
      <trkpt lat="46.0664498" lon="11.1240203" />
      <trkpt lat="46.0663806" lon="11.1234542" />
      <trkpt lat="46.0663678" lon="11.1233580" />
      <trkpt lat="46.0662900" lon="11.1227714" />
      <trkpt lat="46.0662400" lon="11.1226907" />
      <trkpt lat="46.0662774" lon="11.1225941" />
      <trkpt lat="46.0663306" lon="11.1225479" />
      <trkpt lat="46.0663604" lon="11.1225220" />
      <trkpt lat="46.0665144" lon="11.1224055" />
      <trkpt lat="46.0664798" lon="11.1221149" />
      <trkpt lat="46.0665540" lon="11.1220838" />
      <trkpt lat="46.0665485" lon="11.1220283" />
      <trkpt lat="46.0665452" lon="11.1219954" />
      <trkpt lat="46.0665308" lon="11.1217471" />
      <trkpt lat="46.0665163" lon="11.1214025" />
      <trkpt lat="46.0665295" lon="11.1213821" />
      <trkpt lat="46.0665626" lon="11.1213706" />
      <trkpt lat="46.0666368" lon="11.1213644" />
      <trkpt lat="46.0667024" lon="11.1213629" />
      <trkpt lat="46.0667526" lon="11.1210542" />
    </trkseg>
  </trk>
</gpx>
