<?xml version="1.0" encoding="UTF-8"?>
<gpx xmlns="http://www.topografix.com/GPX/1/1" version="1.1" creator="ShapeRoute route-engine">
  <metadata>
    <name>snail 5 km · 2026-10-05</name>
    <author>
      <name>ShapeRoute route-engine</name>
    </author>
    <copyright author="OpenStreetMap contributors">
      <license>https://opendatacommons.org/licenses/odbl/1-0/</license>
    </copyright>
    <link href="https://www.openstreetmap.org/copyright">
      <text>© OpenStreetMap contributors</text>
    </link>
    <time>2026-10-05T11:12:45Z</time>
  </metadata>
  <trk>
    <name>snail 5 km · 2026-10-05</name>
    <trkseg>
      <trkpt lat="46.0668711" lon="11.1210492" />
      <trkpt lat="46.0667705" lon="11.1210629" />
      <trkpt lat="46.0667526" lon="11.1210542" />
      <trkpt lat="46.0667024" lon="11.1213629" />
      <trkpt lat="46.0666701" lon="11.1215352" />
      <trkpt lat="46.0666789" lon="11.1217092" />
      <trkpt lat="46.0667274" lon="11.1218448" />
      <trkpt lat="46.0667304" lon="11.1218751" />
      <trkpt lat="46.0667697" lon="11.1219637" />
      <trkpt lat="46.0668675" lon="11.1221842" />
      <trkpt lat="46.0668704" lon="11.1222043" />
      <trkpt lat="46.0668726" lon="11.1222251" />
      <trkpt lat="46.0670120" lon="11.1221757" />
      <trkpt lat="46.0670452" lon="11.1221695" />
      <trkpt lat="46.0670572" lon="11.1221851" />
      <trkpt lat="46.0670742" lon="11.1221944" />
      <trkpt lat="46.0671010" lon="11.1221944" />
      <trkpt lat="46.0671253" lon="11.1221839" />
      <trkpt lat="46.0671390" lon="11.1221652" />
      <trkpt lat="46.0671463" lon="11.1221419" />
      <trkpt lat="46.0671488" lon="11.1221244" />
      <trkpt lat="46.0674136" lon="11.1220567" />
      <trkpt lat="46.0671488" lon="11.1221244" />
      <trkpt lat="46.0671463" lon="11.1221419" />
      <trkpt lat="46.0671390" lon="11.1221652" />
      <trkpt lat="46.0671253" lon="11.1221839" />
      <trkpt lat="46.0671010" lon="11.1221944" />
      <trkpt lat="46.0670742" lon="11.1221944" />
      <trkpt lat="46.0670572" lon="11.1221851" />
      <trkpt lat="46.0670452" lon="11.1221695" />
      <trkpt lat="46.0670120" lon="11.1221757" />
      <trkpt lat="46.0668726" lon="11.1222251" />
      <trkpt lat="46.0668704" lon="11.1222043" />
      <trkpt lat="46.0668675" lon="11.1221842" />
      <trkpt lat="46.0667697" lon="11.1219637" />
      <trkpt lat="46.0667304" lon="11.1218751" />
      <trkpt lat="46.0667274" lon="11.1218448" />
      <trkpt lat="46.0666789" lon="11.1217092" />
      <trkpt lat="46.0666701" lon="11.1215352" />
      <trkpt lat="46.0667024" lon="11.1213629" />
      <trkpt lat="46.0667526" lon="11.1210542" />
      <trkpt lat="46.0666602" lon="11.1210169" />
      <trkpt lat="46.0666115" lon="11.1210169" />
      <trkpt lat="46.0665614" lon="11.1210220" />
      <trkpt lat="46.0664061" lon="11.1210506" />
      <trkpt lat="46.0661586" lon="11.1211285" />
      <trkpt lat="46.0661065" lon="11.1211467" />
      <trkpt lat="46.0657149" lon="11.1211459" />
      <trkpt lat="46.0655507" lon="11.1211539" />
      <trkpt lat="46.0655654" lon="11.1211047" />
      <trkpt lat="46.0657102" lon="11.1210940" />
      <trkpt lat="46.0659103" lon="11.1210967" />
      <trkpt lat="46.0660484" lon="11.1210934" />
      <trkpt lat="46.0660433" lon="11.1210563" />
      <trkpt lat="46.0658652" lon="11.1192840" />
      <trkpt lat="46.0659053" lon="11.1192886" />
      <trkpt lat="46.0658933" lon="11.1191867" />
      <trkpt lat="46.0658904" lon="11.1190853" />
      <trkpt lat="46.0659097" lon="11.1190706" />
      <trkpt lat="46.0659410" lon="11.1190629" />
      <trkpt lat="46.0662010" lon="11.1190100" />
      <trkpt lat="46.0665603" lon="11.1189419" />
      <trkpt lat="46.0666159" lon="11.1189281" />
      <trkpt lat="46.0664861" lon="11.1175884" />
      <trkpt lat="46.0664740" lon="11.1175211" />
      <trkpt lat="46.0664548" lon="11.1175120" />
      <trkpt lat="46.0664518" lon="11.1174437" />
      <trkpt lat="46.0664459" lon="11.1173714" />
      <trkpt lat="46.0664553" lon="11.1173406" />
      <trkpt lat="46.0664518" lon="11.1172941" />
      <trkpt lat="46.0664295" lon="11.1170349" />
      <trkpt lat="46.0664216" lon="11.1169920" />
      <trkpt lat="46.0664228" lon="11.1169318" />
      <trkpt lat="46.0664265" lon="11.1168526" />
      <trkpt lat="46.0664206" lon="11.1167830" />
      <trkpt lat="46.0663304" lon="11.1158787" />
      <trkpt lat="46.0662859" lon="11.1154964" />
      <trkpt lat="46.0662780" lon="11.1154225" />
      <trkpt lat="46.0662149" lon="11.1148160" />
      <trkpt lat="46.0662068" lon="11.1148053" />
      <trkpt lat="46.0661796" lon="11.1145362" />
      <trkpt lat="46.0662432" lon="11.1145505" />
      <trkpt lat="46.0663055" lon="11.1145612" />
      <trkpt lat="46.0663315" lon="11.1145516" />
      <trkpt lat="46.0663506" lon="11.1145446" />
      <trkpt lat="46.0663840" lon="11.1145473" />
      <trkpt lat="46.0664895" lon="11.1145858" />
      <trkpt lat="46.0668587" lon="11.1147689" />
      <trkpt lat="46.0669080" lon="11.1147934" />
      <trkpt lat="46.0669565" lon="11.1148188" />
      <trkpt lat="46.0669015" lon="11.1150438" />
      <trkpt lat="46.0676824" lon="11.1154491" />
      <trkpt lat="46.0676517" lon="11.1155683" />
      <trkpt lat="46.0676037" lon="11.1157611" />
      <trkpt lat="46.0676137" lon="11.1158063" />
      <trkpt lat="46.0676826" lon="11.1158392" />
      <trkpt lat="46.0679999" lon="11.1160196" />
      <trkpt lat="46.0680115" lon="11.1160261" />
      <trkpt lat="46.0680519" lon="11.1160474" />
      <trkpt lat="46.0680940" lon="11.1158801" />
      <trkpt lat="46.0680737" lon="11.1158721" />
      <trkpt lat="46.0680707" lon="11.1158822" />
      <trkpt lat="46.0680338" lon="11.1160199" />
      <trkpt lat="46.0679753" lon="11.1163254" />
      <trkpt lat="46.0679940" lon="11.1164565" />
      <trkpt lat="46.0680545" lon="11.1170328" />
      <trkpt lat="46.0680067" lon="11.1170296" />
      <trkpt lat="46.0673776" lon="11.1171703" />
      <trkpt lat="46.0671653" lon="11.1172178" />
      <trkpt lat="46.0671263" lon="11.1172257" />
      <trkpt lat="46.0671155" lon="11.1171062" />
      <trkpt lat="46.0670386" lon="11.1162620" />
      <trkpt lat="46.0670219" lon="11.1160782" />
      <trkpt lat="46.0670386" lon="11.1162620" />
      <trkpt lat="46.0671155" lon="11.1171062" />
      <trkpt lat="46.0671263" lon="11.1172257" />
      <trkpt lat="46.0671336" lon="11.1173057" />
      <trkpt lat="46.0673143" lon="11.1172705" />
      <trkpt lat="46.0673863" lon="11.1172558" />
      <trkpt lat="46.0680121" lon="11.1171283" />
      <trkpt lat="46.0680067" lon="11.1170296" />
      <trkpt lat="46.0680545" lon="11.1170328" />
      <trkpt lat="46.0679940" lon="11.1164565" />
      <trkpt lat="46.0679753" lon="11.1163254" />
      <trkpt lat="46.0680338" lon="11.1160199" />
      <trkpt lat="46.0680707" lon="11.1158822" />
      <trkpt lat="46.0680737" lon="11.1158721" />
      <trkpt lat="46.0680940" lon="11.1158801" />
      <trkpt lat="46.0682188" lon="11.1153837" />
      <trkpt lat="46.0681850" lon="11.1153880" />
      <trkpt lat="46.0681384" lon="11.1153939" />
      <trkpt lat="46.0681265" lon="11.1153883" />
      <trkpt lat="46.0680332" lon="11.1153684" />
      <trkpt lat="46.0679464" lon="11.1153270" />
      <trkpt lat="46.0677902" lon="11.1152526" />
      <trkpt lat="46.0677326" lon="11.1152266" />
      <trkpt lat="46.0677226" lon="11.1152814" />
      <trkpt lat="46.0676880" lon="11.1154272" />
      <trkpt lat="46.0676824" lon="11.1154491" />
      <trkpt lat="46.0676517" lon="11.1155683" />
      <trkpt lat="46.0676037" lon="11.1157611" />
      <trkpt lat="46.0676137" lon="11.1158063" />
      <trkpt lat="46.0676826" lon="11.1158392" />
      <trkpt lat="46.0679999" lon="11.1160196" />
      <trkpt lat="46.0680115" lon="11.1160261" />
      <trkpt lat="46.0680519" lon="11.1160474" />
      <trkpt lat="46.0680940" lon="11.1158801" />
      <trkpt lat="46.0680737" lon="11.1158721" />
      <trkpt lat="46.0680707" lon="11.1158822" />
      <trkpt lat="46.0680338" lon="11.1160199" />
      <trkpt lat="46.0679753" lon="11.1163254" />
      <trkpt lat="46.0679940" lon="11.1164565" />
      <trkpt lat="46.0680545" lon="11.1170328" />
      <trkpt lat="46.0681191" lon="11.1171294" />
      <trkpt lat="46.0681614" lon="11.1171908" />
      <trkpt lat="46.0681817" lon="11.1171773" />
      <trkpt lat="46.0681753" lon="11.1171523" />
      <trkpt lat="46.0684553" lon="11.1170131" />
      <trkpt lat="46.0688298" lon="11.1168496" />
      <trkpt lat="46.0689698" lon="11.1169128" />
      <trkpt lat="46.0690556" lon="11.1169660" />
      <trkpt lat="46.0690898" lon="11.1169530" />
      <trkpt lat="46.0689420" lon="11.1168633" />
      <trkpt lat="46.0688625" lon="11.1168212" />
      <trkpt lat="46.0688130" lon="11.1168193" />
      <trkpt lat="46.0686021" lon="11.1169041" />
      <trkpt lat="46.0681601" lon="11.1171031" />
      <trkpt lat="46.0681191" lon="11.1171294" />
      <trkpt lat="46.0681614" lon="11.1171908" />
      <trkpt lat="46.0681933" lon="11.1173361" />
      <trkpt lat="46.0682064" lon="11.1174220" />
      <trkpt lat="46.0682676" lon="11.1178159" />
      <trkpt lat="46.0682882" lon="11.1180511" />
      <trkpt lat="46.0683173" lon="11.1186358" />
      <trkpt lat="46.0683328" lon="11.1186343" />
      <trkpt lat="46.0683351" lon="11.1186769" />
      <trkpt lat="46.0684127" lon="11.1186739" />
      <trkpt lat="46.0684227" lon="11.1186725" />
      <trkpt lat="46.0684724" lon="11.1186651" />
      <trkpt lat="46.0686142" lon="11.1186552" />
      <trkpt lat="46.0686980" lon="11.1186286" />
      <trkpt lat="46.0687959" lon="11.1185979" />
      <trkpt lat="46.0688148" lon="11.1185920" />
      <trkpt lat="46.0689044" lon="11.1185614" />
      <trkpt lat="46.0689028" lon="11.1185479" />
      <trkpt lat="46.0688969" lon="11.1185026" />
      <trkpt lat="46.0689348" lon="11.1184936" />
      <trkpt lat="46.0689395" lon="11.1185380" />
      <trkpt lat="46.0689449" lon="11.1186015" />
      <trkpt lat="46.0688008" lon="11.1186481" />
      <trkpt lat="46.0688067" lon="11.1187029" />
      <trkpt lat="46.0686997" lon="11.1187364" />
      <trkpt lat="46.0686929" lon="11.1187385" />
      <trkpt lat="46.0686944" lon="11.1187480" />
      <trkpt lat="46.0687383" lon="11.1191654" />
      <trkpt lat="46.0687066" lon="11.1191764" />
      <trkpt lat="46.0684842" lon="11.1192388" />
      <trkpt lat="46.0684705" lon="11.1194031" />
      <trkpt lat="46.0684727" lon="11.1194502" />
      <trkpt lat="46.0684351" lon="11.1194617" />
      <trkpt lat="46.0684509" lon="11.1196680" />
      <trkpt lat="46.0684630" lon="11.1197517" />
      <trkpt lat="46.0684648" lon="11.1198296" />
      <trkpt lat="46.0684582" lon="11.1198973" />
      <trkpt lat="46.0684776" lon="11.1200039" />
      <trkpt lat="46.0684504" lon="11.1200865" />
      <trkpt lat="46.0683846" lon="11.1201435" />
      <trkpt lat="46.0682945" lon="11.1202664" />
      <trkpt lat="46.0681669" lon="11.1204445" />
      <trkpt lat="46.0681018" lon="11.1205393" />
      <trkpt lat="46.0679032" lon="11.1207116" />
      <trkpt lat="46.0678457" lon="11.1207672" />
      <trkpt lat="46.0678148" lon="11.1207864" />
      <trkpt lat="46.0677393" lon="11.1208327" />
      <trkpt lat="46.0677152" lon="11.1207186" />
      <trkpt lat="46.0676826" lon="11.1205043" />
      <trkpt lat="46.0676608" lon="11.1202339" />
      <trkpt lat="46.0676537" lon="11.1202092" />
      <trkpt lat="46.0676448" lon="11.1201891" />
      <trkpt lat="46.0676355" lon="11.1201677" />
      <trkpt lat="46.0676258" lon="11.1201368" />
      <trkpt lat="46.0676225" lon="11.1201073" />
      <trkpt lat="46.0676157" lon="11.1201320" />
      <trkpt lat="46.0675899" lon="11.1201529" />
      <trkpt lat="46.0675648" lon="11.1201851" />
      <trkpt lat="46.0675481" lon="11.1202039" />
      <trkpt lat="46.0675208" lon="11.1202206" />
      <trkpt lat="46.0673967" lon="11.1201946" />
      <trkpt lat="46.0672684" lon="11.1202069" />
      <trkpt lat="46.0670444" lon="11.1202327" />
      <trkpt lat="46.0670156" lon="11.1201566" />
      <trkpt lat="46.0668415" lon="11.1201785" />
      <trkpt lat="46.0667870" lon="11.1196244" />
      <trkpt lat="46.0667377" lon="11.1191227" />
      <trkpt lat="46.0667536" lon="11.1191108" />
      <trkpt lat="46.0667443" lon="11.1190130" />
      <trkpt lat="46.0667342" lon="11.1188998" />
      <trkpt lat="46.0669803" lon="11.1188542" />
      <trkpt lat="46.0674005" lon="11.1187747" />
      <trkpt lat="46.0674093" lon="11.1187503" />
      <trkpt lat="46.0674557" lon="11.1187456" />
      <trkpt lat="46.0674919" lon="11.1187364" />
      <trkpt lat="46.0675032" lon="11.1187574" />
      <trkpt lat="46.0675393" lon="11.1187487" />
      <trkpt lat="46.0675618" lon="11.1187115" />
      <trkpt lat="46.0679402" lon="11.1186298" />
      <trkpt lat="46.0679622" lon="11.1186402" />
      <trkpt lat="46.0679842" lon="11.1186414" />
      <trkpt lat="46.0680470" lon="11.1186253" />
      <trkpt lat="46.0681607" lon="11.1186015" />
      <trkpt lat="46.0681899" lon="11.1186247" />
      <trkpt lat="46.0681920" lon="11.1186465" />
      <trkpt lat="46.0682864" lon="11.1186372" />
      <trkpt lat="46.0683173" lon="11.1186358" />
      <trkpt lat="46.0682882" lon="11.1180511" />
      <trkpt lat="46.0682676" lon="11.1178159" />
      <trkpt lat="46.0682064" lon="11.1174220" />
      <trkpt lat="46.0681933" lon="11.1173361" />
      <trkpt lat="46.0681614" lon="11.1171908" />
      <trkpt lat="46.0681191" lon="11.1171294" />
      <trkpt lat="46.0680545" lon="11.1170328" />
      <trkpt lat="46.0680067" lon="11.1170296" />
      <trkpt lat="46.0673776" lon="11.1171703" />
      <trkpt lat="46.0673863" lon="11.1172558" />
      <trkpt lat="46.0673924" lon="11.1173160" />
      <trkpt lat="46.0673657" lon="11.1173220" />
      <trkpt lat="46.0673714" lon="11.1173666" />
      <trkpt lat="46.0673250" lon="11.1173773" />
      <trkpt lat="46.0672751" lon="11.1173904" />
      <trkpt lat="46.0673621" lon="11.1183044" />
      <trkpt lat="46.0672751" lon="11.1173904" />
      <trkpt lat="46.0672590" lon="11.1173435" />
      <trkpt lat="46.0668072" lon="11.1174293" />
      <trkpt lat="46.0667908" lon="11.1174322" />
      <trkpt lat="46.0667857" lon="11.1173756" />
      <trkpt lat="46.0670857" lon="11.1173151" />
      <trkpt lat="46.0671336" lon="11.1173057" />
      <trkpt lat="46.0673143" lon="11.1172705" />
      <trkpt lat="46.0673863" lon="11.1172558" />
      <trkpt lat="46.0680121" lon="11.1171283" />
      <trkpt lat="46.0681191" lon="11.1171294" />
      <trkpt lat="46.0681614" lon="11.1171908" />
      <trkpt lat="46.0681933" lon="11.1173361" />
      <trkpt lat="46.0682064" lon="11.1174220" />
      <trkpt lat="46.0682676" lon="11.1178159" />
      <trkpt lat="46.0682882" lon="11.1180511" />
      <trkpt lat="46.0683173" lon="11.1186358" />
      <trkpt lat="46.0682864" lon="11.1186372" />
      <trkpt lat="46.0681920" lon="11.1186465" />
      <trkpt lat="46.0681899" lon="11.1186247" />
      <trkpt lat="46.0681607" lon="11.1186015" />
      <trkpt lat="46.0680470" lon="11.1186253" />
      <trkpt lat="46.0679842" lon="11.1186414" />
      <trkpt lat="46.0679622" lon="11.1186402" />
      <trkpt lat="46.0679402" lon="11.1186298" />
      <trkpt lat="46.0675618" lon="11.1187115" />
      <trkpt lat="46.0675393" lon="11.1187487" />
      <trkpt lat="46.0675032" lon="11.1187574" />
      <trkpt lat="46.0674919" lon="11.1187364" />
      <trkpt lat="46.0674557" lon="11.1187456" />
      <trkpt lat="46.0674093" lon="11.1187503" />
      <trkpt lat="46.0674005" lon="11.1187747" />
      <trkpt lat="46.0669803" lon="11.1188542" />
      <trkpt lat="46.0667342" lon="11.1188998" />
      <trkpt lat="46.0666683" lon="11.1189188" />
      <trkpt lat="46.0666159" lon="11.1189281" />
      <trkpt lat="46.0665603" lon="11.1189419" />
      <trkpt lat="46.0665730" lon="11.1190499" />
      <trkpt lat="46.0665858" lon="11.1191592" />
      <trkpt lat="46.0666065" lon="11.1191557" />
      <trkpt lat="46.0666578" lon="11.1196518" />
      <trkpt lat="46.0667099" lon="11.1201551" />
      <trkpt lat="46.0667816" lon="11.1201952" />
      <trkpt lat="46.0668249" lon="11.1206182" />
      <trkpt lat="46.0670289" lon="11.1205458" />
      <trkpt lat="46.0670637" lon="11.1207156" />
      <trkpt lat="46.0670730" lon="11.1209842" />
      <trkpt lat="46.0670745" lon="11.1210291" />
      <trkpt lat="46.0673165" lon="11.1210193" />
      <trkpt lat="46.0674358" lon="11.1209903" />
      <trkpt lat="46.0675759" lon="11.1209222" />
      <trkpt lat="46.0676386" lon="11.1208917" />
      <trkpt lat="46.0677393" lon="11.1208327" />
      <trkpt lat="46.0676386" lon="11.1208917" />
      <trkpt lat="46.0675759" lon="11.1209222" />
      <trkpt lat="46.0674358" lon="11.1209903" />
      <trkpt lat="46.0673165" lon="11.1210193" />
      <trkpt lat="46.0670745" lon="11.1210291" />
      <trkpt lat="46.0670730" lon="11.1209842" />
      <trkpt lat="46.0670637" lon="11.1207156" />
      <trkpt lat="46.0670289" lon="11.1205458" />
      <trkpt lat="46.0668249" lon="11.1206182" />
      <trkpt lat="46.0668711" lon="11.1210492" />
    </trkseg>
  </trk>
</gpx>
