<?xml version="1.0" encoding="UTF-8"?>
<gpx xmlns="http://www.topografix.com/GPX/1/1" version="1.1" creator="ShapeRoute route-engine">
  <metadata>
    <name>star 15 km · 2026-09-23</name>
    <author>
      <name>ShapeRoute route-engine</name>
    </author>
    <copyright author="OpenStreetMap contributors">
      <license>https://opendatacommons.org/licenses/odbl/1-0/</license>
    </copyright>
    <link href="https://www.openstreetmap.org/copyright">
      <text>© OpenStreetMap contributors</text>
    </link>
    <time>2026-09-23T22:47:55Z</time>
  </metadata>
  <trk>
    <name>star 15 km · 2026-09-23</name>
    <trkseg>
      <trkpt lat="46.0668711" lon="11.1210492" />
      <trkpt lat="46.0668249" lon="11.1206182" />
      <trkpt lat="46.0667816" lon="11.1201952" />
      <trkpt lat="46.0667099" lon="11.1201551" />
      <trkpt lat="46.0666578" lon="11.1196518" />
      <trkpt lat="46.0666065" lon="11.1191557" />
      <trkpt lat="46.0665858" lon="11.1191592" />
      <trkpt lat="46.0665730" lon="11.1190499" />
      <trkpt lat="46.0665603" lon="11.1189419" />
      <trkpt lat="46.0666159" lon="11.1189281" />
      <trkpt lat="46.0664861" lon="11.1175884" />
      <trkpt lat="46.0664740" lon="11.1175211" />
      <trkpt lat="46.0664548" lon="11.1175120" />
      <trkpt lat="46.0664518" lon="11.1174437" />
      <trkpt lat="46.0661061" lon="11.1175142" />
      <trkpt lat="46.0656754" lon="11.1176028" />
      <trkpt lat="46.0652397" lon="11.1176989" />
      <trkpt lat="46.0651934" lon="11.1177089" />
      <trkpt lat="46.0651532" lon="11.1172758" />
      <trkpt lat="46.0651046" lon="11.1172245" />
      <trkpt lat="46.0650448" lon="11.1167071" />
      <trkpt lat="46.0650105" lon="11.1166051" />
      <trkpt lat="46.0649768" lon="11.1164589" />
      <trkpt lat="46.0648277" lon="11.1163932" />
      <trkpt lat="46.0646931" lon="11.1163053" />
      <trkpt lat="46.0646057" lon="11.1163224" />
      <trkpt lat="46.0645429" lon="11.1163936" />
      <trkpt lat="46.0645256" lon="11.1165274" />
      <trkpt lat="46.0645052" lon="11.1167422" />
      <trkpt lat="46.0644674" lon="11.1167469" />
      <trkpt lat="46.0641805" lon="11.1167941" />
      <trkpt lat="46.0635353" lon="11.1168949" />
      <trkpt lat="46.0634299" lon="11.1169932" />
      <trkpt lat="46.0633950" lon="11.1170509" />
      <trkpt lat="46.0633696" lon="11.1167056" />
      <trkpt lat="46.0633201" lon="11.1160412" />
      <trkpt lat="46.0632900" lon="11.1157231" />
      <trkpt lat="46.0632879" lon="11.1156921" />
      <trkpt lat="46.0632431" lon="11.1150335" />
      <trkpt lat="46.0631956" lon="11.1143358" />
      <trkpt lat="46.0628528" lon="11.1143739" />
      <trkpt lat="46.0628367" lon="11.1141601" />
      <trkpt lat="46.0628087" lon="11.1137879" />
      <trkpt lat="46.0627499" lon="11.1138055" />
      <trkpt lat="46.0627296" lon="11.1138256" />
      <trkpt lat="46.0626817" lon="11.1136839" />
      <trkpt lat="46.0626176" lon="11.1136671" />
      <trkpt lat="46.0623474" lon="11.1136024" />
      <trkpt lat="46.0623318" lon="11.1135988" />
      <trkpt lat="46.0622819" lon="11.1135872" />
      <trkpt lat="46.0622377" lon="11.1135805" />
      <trkpt lat="46.0622241" lon="11.1133294" />
      <trkpt lat="46.0621990" lon="11.1132050" />
      <trkpt lat="46.0621715" lon="11.1131360" />
      <trkpt lat="46.0621347" lon="11.1130679" />
      <trkpt lat="46.0621034" lon="11.1130154" />
      <trkpt lat="46.0620692" lon="11.1129745" />
      <trkpt lat="46.0620169" lon="11.1129246" />
      <trkpt lat="46.0619621" lon="11.1128956" />
      <trkpt lat="46.0618033" lon="11.1128686" />
      <trkpt lat="46.0614768" lon="11.1128432" />
      <trkpt lat="46.0610254" lon="11.1128130" />
      <trkpt lat="46.0610109" lon="11.1126279" />
      <trkpt lat="46.0610423" lon="11.1126297" />
      <trkpt lat="46.0613534" lon="11.1126473" />
      <trkpt lat="46.0619645" lon="11.1127245" />
      <trkpt lat="46.0620877" lon="11.1127329" />
      <trkpt lat="46.0621320" lon="11.1127376" />
      <trkpt lat="46.0622220" lon="11.1127150" />
      <trkpt lat="46.0622689" lon="11.1127093" />
      <trkpt lat="46.0623154" lon="11.1127240" />
      <trkpt lat="46.0623869" lon="11.1127798" />
      <trkpt lat="46.0625249" lon="11.1128273" />
      <trkpt lat="46.0627771" lon="11.1128789" />
      <trkpt lat="46.0629606" lon="11.1129202" />
      <trkpt lat="46.0633313" lon="11.1130252" />
      <trkpt lat="46.0633193" lon="11.1131060" />
      <trkpt lat="46.0634797" lon="11.1131527" />
      <trkpt lat="46.0637002" lon="11.1132247" />
      <trkpt lat="46.0639514" lon="11.1133045" />
      <trkpt lat="46.0641639" lon="11.1133819" />
      <trkpt lat="46.0643351" lon="11.1134453" />
      <trkpt lat="46.0645179" lon="11.1135136" />
      <trkpt lat="46.0647077" lon="11.1135928" />
      <trkpt lat="46.0648267" lon="11.1136510" />
      <trkpt lat="46.0651100" lon="11.1137803" />
      <trkpt lat="46.0651512" lon="11.1138029" />
      <trkpt lat="46.0652992" lon="11.1138709" />
      <trkpt lat="46.0655520" lon="11.1139922" />
      <trkpt lat="46.0655416" lon="11.1140592" />
      <trkpt lat="46.0659951" lon="11.1143098" />
      <trkpt lat="46.0660650" lon="11.1143519" />
      <trkpt lat="46.0660977" lon="11.1143770" />
      <trkpt lat="46.0661288" lon="11.1144043" />
      <trkpt lat="46.0661501" lon="11.1144347" />
      <trkpt lat="46.0661627" lon="11.1144610" />
      <trkpt lat="46.0661729" lon="11.1144963" />
      <trkpt lat="46.0661796" lon="11.1145362" />
      <trkpt lat="46.0662432" lon="11.1145505" />
      <trkpt lat="46.0663055" lon="11.1145612" />
      <trkpt lat="46.0663315" lon="11.1145516" />
      <trkpt lat="46.0663506" lon="11.1145446" />
      <trkpt lat="46.0663840" lon="11.1145473" />
      <trkpt lat="46.0664895" lon="11.1145858" />
      <trkpt lat="46.0668587" lon="11.1147689" />
      <trkpt lat="46.0669080" lon="11.1147934" />
      <trkpt lat="46.0669565" lon="11.1148188" />
      <trkpt lat="46.0677254" lon="11.1152228" />
      <trkpt lat="46.0677326" lon="11.1152266" />
      <trkpt lat="46.0677902" lon="11.1152526" />
      <trkpt lat="46.0679464" lon="11.1153270" />
      <trkpt lat="46.0679492" lon="11.1152645" />
      <trkpt lat="46.0679464" lon="11.1152036" />
      <trkpt lat="46.0679385" lon="11.1151351" />
      <trkpt lat="46.0679274" lon="11.1150878" />
      <trkpt lat="46.0679084" lon="11.1150043" />
      <trkpt lat="46.0679737" lon="11.1149448" />
      <trkpt lat="46.0680238" lon="11.1149118" />
      <trkpt lat="46.0680942" lon="11.1149057" />
      <trkpt lat="46.0682075" lon="11.1149285" />
      <trkpt lat="46.0682349" lon="11.1148330" />
      <trkpt lat="46.0684652" lon="11.1149557" />
      <trkpt lat="46.0693015" lon="11.1154028" />
      <trkpt lat="46.0695281" lon="11.1155240" />
      <trkpt lat="46.0698128" lon="11.1156739" />
      <trkpt lat="46.0698998" lon="11.1157127" />
      <trkpt lat="46.0699151" lon="11.1156990" />
      <trkpt lat="46.0702467" lon="11.1144529" />
      <trkpt lat="46.0702508" lon="11.1144356" />
      <trkpt lat="46.0702350" lon="11.1143612" />
      <trkpt lat="46.0702262" lon="11.1143187" />
      <trkpt lat="46.0702122" lon="11.1142749" />
      <trkpt lat="46.0701963" lon="11.1142414" />
      <trkpt lat="46.0701713" lon="11.1142018" />
      <trkpt lat="46.0701826" lon="11.1141474" />
      <trkpt lat="46.0701933" lon="11.1141300" />
      <trkpt lat="46.0702038" lon="11.1140736" />
      <trkpt lat="46.0702044" lon="11.1140479" />
      <trkpt lat="46.0702044" lon="11.1139869" />
      <trkpt lat="46.0702602" lon="11.1139812" />
      <trkpt lat="46.0703864" lon="11.1139142" />
      <trkpt lat="46.0704346" lon="11.1138697" />
      <trkpt lat="46.0704819" lon="11.1138341" />
      <trkpt lat="46.0705185" lon="11.1137821" />
      <trkpt lat="46.0705564" lon="11.1137069" />
      <trkpt lat="46.0707114" lon="11.1133647" />
      <trkpt lat="46.0707246" lon="11.1133446" />
      <trkpt lat="46.0707789" lon="11.1132401" />
      <trkpt lat="46.0708070" lon="11.1131605" />
      <trkpt lat="46.0708180" lon="11.1130716" />
      <trkpt lat="46.0708255" lon="11.1129959" />
      <trkpt lat="46.0708128" lon="11.1129679" />
      <trkpt lat="46.0708090" lon="11.1129404" />
      <trkpt lat="46.0708027" lon="11.1129052" />
      <trkpt lat="46.0707340" lon="11.1126350" />
      <trkpt lat="46.0707258" lon="11.1126025" />
      <trkpt lat="46.0706417" lon="11.1123099" />
      <trkpt lat="46.0705718" lon="11.1120551" />
      <trkpt lat="46.0705292" lon="11.1118991" />
      <trkpt lat="46.0706025" lon="11.1118700" />
      <trkpt lat="46.0706390" lon="11.1118595" />
      <trkpt lat="46.0706371" lon="11.1118408" />
      <trkpt lat="46.0706259" lon="11.1117047" />
      <trkpt lat="46.0706692" lon="11.1116933" />
      <trkpt lat="46.0707551" lon="11.1116742" />
      <trkpt lat="46.0707652" lon="11.1116704" />
      <trkpt lat="46.0707753" lon="11.1116652" />
      <trkpt lat="46.0707853" lon="11.1116534" />
      <trkpt lat="46.0708125" lon="11.1116088" />
      <trkpt lat="46.0708662" lon="11.1115122" />
      <trkpt lat="46.0709182" lon="11.1114140" />
      <trkpt lat="46.0709785" lon="11.1112871" />
      <trkpt lat="46.0710434" lon="11.1111486" />
      <trkpt lat="46.0710774" lon="11.1110492" />
      <trkpt lat="46.0711156" lon="11.1108963" />
      <trkpt lat="46.0711395" lon="11.1107560" />
      <trkpt lat="46.0712623" lon="11.1105396" />
      <trkpt lat="46.0713295" lon="11.1104178" />
      <trkpt lat="46.0713405" lon="11.1104227" />
      <trkpt lat="46.0713627" lon="11.1103530" />
      <trkpt lat="46.0713873" lon="11.1102859" />
      <trkpt lat="46.0714167" lon="11.1102030" />
      <trkpt lat="46.0714397" lon="11.1101094" />
      <trkpt lat="46.0714686" lon="11.1100618" />
      <trkpt lat="46.0714921" lon="11.1100592" />
      <trkpt lat="46.0715275" lon="11.1099978" />
      <trkpt lat="46.0715100" lon="11.1099822" />
      <trkpt lat="46.0714822" lon="11.1100221" />
      <trkpt lat="46.0714714" lon="11.1100101" />
      <trkpt lat="46.0714750" lon="11.1099654" />
      <trkpt lat="46.0714834" lon="11.1098639" />
      <trkpt lat="46.0714314" lon="11.1098654" />
      <trkpt lat="46.0713749" lon="11.1098781" />
      <trkpt lat="46.0713232" lon="11.1099632" />
      <trkpt lat="46.0713155" lon="11.1100308" />
      <trkpt lat="46.0712804" lon="11.1100276" />
      <trkpt lat="46.0712530" lon="11.1100360" />
      <trkpt lat="46.0712386" lon="11.1100758" />
      <trkpt lat="46.0712181" lon="11.1100599" />
      <trkpt lat="46.0712075" lon="11.1100506" />
      <trkpt lat="46.0709745" lon="11.1098705" />
      <trkpt lat="46.0709782" lon="11.1098558" />
      <trkpt lat="46.0709804" lon="11.1098152" />
      <trkpt lat="46.0709793" lon="11.1097840" />
      <trkpt lat="46.0709758" lon="11.1097204" />
      <trkpt lat="46.0710472" lon="11.1095792" />
      <trkpt lat="46.0710922" lon="11.1094943" />
      <trkpt lat="46.0713762" lon="11.1089573" />
      <trkpt lat="46.0714037" lon="11.1089823" />
      <trkpt lat="46.0714095" lon="11.1089883" />
      <trkpt lat="46.0714165" lon="11.1089957" />
      <trkpt lat="46.0714200" lon="11.1089993" />
      <trkpt lat="46.0714442" lon="11.1090129" />
      <trkpt lat="46.0714730" lon="11.1090157" />
      <trkpt lat="46.0714936" lon="11.1090119" />
      <trkpt lat="46.0715235" lon="11.1089966" />
      <trkpt lat="46.0715781" lon="11.1089572" />
      <trkpt lat="46.0719234" lon="11.1087240" />
      <trkpt lat="46.0719534" lon="11.1087121" />
      <trkpt lat="46.0720357" lon="11.1086793" />
      <trkpt lat="46.0721295" lon="11.1086345" />
      <trkpt lat="46.0721832" lon="11.1085918" />
      <trkpt lat="46.0722070" lon="11.1085728" />
      <trkpt lat="46.0722305" lon="11.1085482" />
      <trkpt lat="46.0722827" lon="11.1084936" />
      <trkpt lat="46.0723827" lon="11.1083766" />
      <trkpt lat="46.0724764" lon="11.1082474" />
      <trkpt lat="46.0724974" lon="11.1082185" />
      <trkpt lat="46.0725437" lon="11.1081547" />
      <trkpt lat="46.0726665" lon="11.1079740" />
      <trkpt lat="46.0726972" lon="11.1079194" />
      <trkpt lat="46.0727342" lon="11.1078492" />
      <trkpt lat="46.0728674" lon="11.1075960" />
      <trkpt lat="46.0728850" lon="11.1075829" />
      <trkpt lat="46.0729323" lon="11.1075476" />
      <trkpt lat="46.0730084" lon="11.1075045" />
      <trkpt lat="46.0732338" lon="11.1073935" />
      <trkpt lat="46.0734077" lon="11.1073276" />
      <trkpt lat="46.0735984" lon="11.1072671" />
      <trkpt lat="46.0738991" lon="11.1071802" />
      <trkpt lat="46.0743143" lon="11.1070669" />
      <trkpt lat="46.0743717" lon="11.1070660" />
      <trkpt lat="46.0744235" lon="11.1070799" />
      <trkpt lat="46.0744561" lon="11.1070973" />
      <trkpt lat="46.0744799" lon="11.1071213" />
      <trkpt lat="46.0745109" lon="11.1071559" />
      <trkpt lat="46.0746216" lon="11.1073637" />
      <trkpt lat="46.0746520" lon="11.1074333" />
      <trkpt lat="46.0747035" lon="11.1074149" />
      <trkpt lat="46.0747350" lon="11.1075129" />
      <trkpt lat="46.0747583" lon="11.1075879" />
      <trkpt lat="46.0747826" lon="11.1076670" />
      <trkpt lat="46.0748058" lon="11.1077167" />
      <trkpt lat="46.0748226" lon="11.1077543" />
      <trkpt lat="46.0748479" lon="11.1078192" />
      <trkpt lat="46.0748694" lon="11.1078579" />
      <trkpt lat="46.0748891" lon="11.1078796" />
      <trkpt lat="46.0749067" lon="11.1078969" />
      <trkpt lat="46.0749270" lon="11.1079124" />
      <trkpt lat="46.0749457" lon="11.1079211" />
      <trkpt lat="46.0749666" lon="11.1079263" />
      <trkpt lat="46.0749871" lon="11.1079302" />
      <trkpt lat="46.0750098" lon="11.1079301" />
      <trkpt lat="46.0750317" lon="11.1079174" />
      <trkpt lat="46.0750558" lon="11.1079055" />
      <trkpt lat="46.0750747" lon="11.1078803" />
      <trkpt lat="46.0750942" lon="11.1078562" />
      <trkpt lat="46.0751119" lon="11.1078280" />
      <trkpt lat="46.0751398" lon="11.1077864" />
      <trkpt lat="46.0751760" lon="11.1077230" />
      <trkpt lat="46.0752003" lon="11.1076805" />
      <trkpt lat="46.0752358" lon="11.1077233" />
      <trkpt lat="46.0753637" lon="11.1074805" />
      <trkpt lat="46.0754757" lon="11.1072992" />
      <trkpt lat="46.0755705" lon="11.1071218" />
      <trkpt lat="46.0755921" lon="11.1070670" />
      <trkpt lat="46.0756100" lon="11.1070029" />
      <trkpt lat="46.0756163" lon="11.1069420" />
      <trkpt lat="46.0756179" lon="11.1068772" />
      <trkpt lat="46.0756150" lon="11.1067014" />
      <trkpt lat="46.0755754" lon="11.1060665" />
      <trkpt lat="46.0755737" lon="11.1059754" />
      <trkpt lat="46.0755825" lon="11.1058923" />
      <trkpt lat="46.0755951" lon="11.1058352" />
      <trkpt lat="46.0756096" lon="11.1057795" />
      <trkpt lat="46.0756353" lon="11.1057107" />
      <trkpt lat="46.0756693" lon="11.1056513" />
      <trkpt lat="46.0757681" lon="11.1055552" />
      <trkpt lat="46.0758826" lon="11.1054640" />
      <trkpt lat="46.0759822" lon="11.1053733" />
      <trkpt lat="46.0760582" lon="11.1052926" />
      <trkpt lat="46.0761969" lon="11.1050832" />
      <trkpt lat="46.0763156" lon="11.1048676" />
      <trkpt lat="46.0762330" lon="11.1047705" />
      <trkpt lat="46.0761726" lon="11.1046999" />
      <trkpt lat="46.0762330" lon="11.1047705" />
      <trkpt lat="46.0763156" lon="11.1048676" />
      <trkpt lat="46.0761969" lon="11.1050832" />
      <trkpt lat="46.0762239" lon="11.1051163" />
      <trkpt lat="46.0761846" lon="11.1051837" />
      <trkpt lat="46.0761346" lon="11.1052549" />
      <trkpt lat="46.0760811" lon="11.1053251" />
      <trkpt lat="46.0760248" lon="11.1053864" />
      <trkpt lat="46.0759111" lon="11.1054869" />
      <trkpt lat="46.0758168" lon="11.1055615" />
      <trkpt lat="46.0757498" lon="11.1056256" />
      <trkpt lat="46.0756984" lon="11.1056879" />
      <trkpt lat="46.0756710" lon="11.1057314" />
      <trkpt lat="46.0756346" lon="11.1058194" />
      <trkpt lat="46.0756154" lon="11.1058895" />
      <trkpt lat="46.0756041" lon="11.1059634" />
      <trkpt lat="46.0756016" lon="11.1060672" />
      <trkpt lat="46.0756428" lon="11.1066940" />
      <trkpt lat="46.0756497" lon="11.1067832" />
      <trkpt lat="46.0756530" lon="11.1068497" />
      <trkpt lat="46.0756533" lon="11.1069164" />
      <trkpt lat="46.0756536" lon="11.1069579" />
      <trkpt lat="46.0756549" lon="11.1069987" />
      <trkpt lat="46.0756522" lon="11.1070446" />
      <trkpt lat="46.0755952" lon="11.1072167" />
      <trkpt lat="46.0755151" lon="11.1073143" />
      <trkpt lat="46.0754418" lon="11.1074264" />
      <trkpt lat="46.0754098" lon="11.1074843" />
      <trkpt lat="46.0753567" lon="11.1075771" />
      <trkpt lat="46.0752667" lon="11.1077605" />
      <trkpt lat="46.0752422" lon="11.1078244" />
      <trkpt lat="46.0754014" lon="11.1078394" />
      <trkpt lat="46.0754010" lon="11.1078515" />
      <trkpt lat="46.0754034" lon="11.1078631" />
      <trkpt lat="46.0754083" lon="11.1078729" />
      <trkpt lat="46.0754151" lon="11.1078801" />
      <trkpt lat="46.0754233" lon="11.1078837" />
      <trkpt lat="46.0754044" lon="11.1081966" />
      <trkpt lat="46.0754002" lon="11.1082665" />
      <trkpt lat="46.0755915" lon="11.1082840" />
      <trkpt lat="46.0755919" lon="11.1083175" />
      <trkpt lat="46.0755923" lon="11.1084073" />
      <trkpt lat="46.0755924" lon="11.1084454" />
      <trkpt lat="46.0755488" lon="11.1084435" />
      <trkpt lat="46.0755472" lon="11.1086090" />
      <trkpt lat="46.0755435" lon="11.1088402" />
      <trkpt lat="46.0755409" lon="11.1090352" />
      <trkpt lat="46.0755460" lon="11.1092295" />
      <trkpt lat="46.0755512" lon="11.1094277" />
      <trkpt lat="46.0755565" lon="11.1096322" />
      <trkpt lat="46.0755613" lon="11.1098166" />
      <trkpt lat="46.0755645" lon="11.1099396" />
      <trkpt lat="46.0755809" lon="11.1100225" />
      <trkpt lat="46.0756894" lon="11.1102086" />
      <trkpt lat="46.0758160" lon="11.1103974" />
      <trkpt lat="46.0759379" lon="11.1105811" />
      <trkpt lat="46.0760864" lon="11.1105794" />
      <trkpt lat="46.0760815" lon="11.1103711" />
      <trkpt lat="46.0760779" lon="11.1102366" />
      <trkpt lat="46.0760629" lon="11.1101924" />
      <trkpt lat="46.0760513" lon="11.1101583" />
      <trkpt lat="46.0760483" lon="11.1099914" />
      <trkpt lat="46.0755809" lon="11.1100225" />
      <trkpt lat="46.0755301" lon="11.1099736" />
      <trkpt lat="46.0753384" lon="11.1101631" />
      <trkpt lat="46.0752772" lon="11.1100536" />
      <trkpt lat="46.0752456" lon="11.1099897" />
      <trkpt lat="46.0751811" lon="11.1097800" />
      <trkpt lat="46.0751466" lon="11.1096704" />
      <trkpt lat="46.0750678" lon="11.1097455" />
      <trkpt lat="46.0750351" lon="11.1097998" />
      <trkpt lat="46.0750098" lon="11.1098648" />
      <trkpt lat="46.0749977" lon="11.1099065" />
      <trkpt lat="46.0749874" lon="11.1099670" />
      <trkpt lat="46.0749725" lon="11.1101647" />
      <trkpt lat="46.0749675" lon="11.1102344" />
      <trkpt lat="46.0749568" lon="11.1102786" />
      <trkpt lat="46.0749208" lon="11.1103402" />
      <trkpt lat="46.0749184" lon="11.1106646" />
      <trkpt lat="46.0749211" lon="11.1107384" />
      <trkpt lat="46.0749286" lon="11.1109429" />
      <trkpt lat="46.0749321" lon="11.1109999" />
      <trkpt lat="46.0749410" lon="11.1111442" />
      <trkpt lat="46.0749587" lon="11.1113894" />
      <trkpt lat="46.0749443" lon="11.1114020" />
      <trkpt lat="46.0749307" lon="11.1114222" />
      <trkpt lat="46.0749205" lon="11.1114510" />
      <trkpt lat="46.0749170" lon="11.1114829" />
      <trkpt lat="46.0749193" lon="11.1115082" />
      <trkpt lat="46.0749250" lon="11.1115297" />
      <trkpt lat="46.0748708" lon="11.1116491" />
      <trkpt lat="46.0749295" lon="11.1117293" />
      <trkpt lat="46.0749172" lon="11.1117461" />
      <trkpt lat="46.0748911" lon="11.1117864" />
      <trkpt lat="46.0748632" lon="11.1118588" />
      <trkpt lat="46.0748332" lon="11.1119514" />
      <trkpt lat="46.0748096" lon="11.1120926" />
      <trkpt lat="46.0747928" lon="11.1122425" />
      <trkpt lat="46.0747885" lon="11.1122830" />
      <trkpt lat="46.0747480" lon="11.1126639" />
      <trkpt lat="46.0746725" lon="11.1131282" />
      <trkpt lat="46.0746998" lon="11.1131588" />
      <trkpt lat="46.0747319" lon="11.1131600" />
      <trkpt lat="46.0748088" lon="11.1131452" />
      <trkpt lat="46.0749209" lon="11.1131183" />
      <trkpt lat="46.0750689" lon="11.1130862" />
      <trkpt lat="46.0752477" lon="11.1130565" />
      <trkpt lat="46.0753572" lon="11.1130455" />
      <trkpt lat="46.0755113" lon="11.1130377" />
      <trkpt lat="46.0762296" lon="11.1131030" />
      <trkpt lat="46.0762809" lon="11.1131056" />
      <trkpt lat="46.0763032" lon="11.1131127" />
      <trkpt lat="46.0763256" lon="11.1131251" />
      <trkpt lat="46.0763516" lon="11.1131554" />
      <trkpt lat="46.0763766" lon="11.1132015" />
      <trkpt lat="46.0763990" lon="11.1132474" />
      <trkpt lat="46.0764130" lon="11.1132642" />
      <trkpt lat="46.0764396" lon="11.1132784" />
      <trkpt lat="46.0764889" lon="11.1132882" />
      <trkpt lat="46.0765256" lon="11.1132925" />
      <trkpt lat="46.0765562" lon="11.1133326" />
      <trkpt lat="46.0765883" lon="11.1133726" />
      <trkpt lat="46.0766174" lon="11.1134123" />
      <trkpt lat="46.0767577" lon="11.1136323" />
      <trkpt lat="46.0767892" lon="11.1136848" />
      <trkpt lat="46.0768942" lon="11.1139022" />
      <trkpt lat="46.0769316" lon="11.1139349" />
      <trkpt lat="46.0769641" lon="11.1140137" />
      <trkpt lat="46.0769980" lon="11.1141030" />
      <trkpt lat="46.0770269" lon="11.1141922" />
      <trkpt lat="46.0771195" lon="11.1145004" />
      <trkpt lat="46.0771376" lon="11.1145605" />
      <trkpt lat="46.0771627" lon="11.1146598" />
      <trkpt lat="46.0771758" lon="11.1147002" />
      <trkpt lat="46.0771931" lon="11.1147609" />
      <trkpt lat="46.0774758" lon="11.1156612" />
      <trkpt lat="46.0775100" lon="11.1156413" />
      <trkpt lat="46.0775432" lon="11.1156220" />
      <trkpt lat="46.0775678" lon="11.1156968" />
      <trkpt lat="46.0775785" lon="11.1157040" />
      <trkpt lat="46.0776299" lon="11.1157382" />
      <trkpt lat="46.0776913" lon="11.1157565" />
      <trkpt lat="46.0777591" lon="11.1157269" />
      <trkpt lat="46.0778322" lon="11.1156835" />
      <trkpt lat="46.0778496" lon="11.1157269" />
      <trkpt lat="46.0778685" lon="11.1157737" />
      <trkpt lat="46.0778802" lon="11.1158059" />
      <trkpt lat="46.0778874" lon="11.1158414" />
      <trkpt lat="46.0778870" lon="11.1158833" />
      <trkpt lat="46.0778820" lon="11.1159237" />
      <trkpt lat="46.0778653" lon="11.1160045" />
      <trkpt lat="46.0778557" lon="11.1160512" />
      <trkpt lat="46.0778537" lon="11.1160816" />
      <trkpt lat="46.0778624" lon="11.1161021" />
      <trkpt lat="46.0782053" lon="11.1162907" />
      <trkpt lat="46.0788709" lon="11.1166530" />
      <trkpt lat="46.0789591" lon="11.1167023" />
      <trkpt lat="46.0791557" lon="11.1168073" />
      <trkpt lat="46.0791580" lon="11.1168085" />
      <trkpt lat="46.0791762" lon="11.1168183" />
      <trkpt lat="46.0791585" lon="11.1168869" />
      <trkpt lat="46.0792202" lon="11.1169207" />
      <trkpt lat="46.0795721" lon="11.1171139" />
      <trkpt lat="46.0796779" lon="11.1171868" />
      <trkpt lat="46.0797190" lon="11.1172413" />
      <trkpt lat="46.0797085" lon="11.1173179" />
      <trkpt lat="46.0797251" lon="11.1173827" />
      <trkpt lat="46.0797616" lon="11.1174274" />
      <trkpt lat="46.0797957" lon="11.1174404" />
      <trkpt lat="46.0798272" lon="11.1174360" />
      <trkpt lat="46.0798719" lon="11.1173968" />
      <trkpt lat="46.0799185" lon="11.1174483" />
      <trkpt lat="46.0799510" lon="11.1175096" />
      <trkpt lat="46.0800132" lon="11.1176193" />
      <trkpt lat="46.0802242" lon="11.1177499" />
      <trkpt lat="46.0802809" lon="11.1179016" />
      <trkpt lat="46.0805869" lon="11.1176642" />
      <trkpt lat="46.0806598" lon="11.1178485" />
      <trkpt lat="46.0806908" lon="11.1178254" />
      <trkpt lat="46.0812311" lon="11.1191818" />
      <trkpt lat="46.0815096" lon="11.1189513" />
      <trkpt lat="46.0821692" lon="11.1184192" />
      <trkpt lat="46.0824385" lon="11.1182626" />
      <trkpt lat="46.0829662" lon="11.1179822" />
      <trkpt lat="46.0833124" lon="11.1177983" />
      <trkpt lat="46.0834321" lon="11.1177347" />
      <trkpt lat="46.0835002" lon="11.1176803" />
      <trkpt lat="46.0835509" lon="11.1175969" />
      <trkpt lat="46.0837007" lon="11.1172115" />
      <trkpt lat="46.0837126" lon="11.1171859" />
      <trkpt lat="46.0840270" lon="11.1165063" />
      <trkpt lat="46.0841379" lon="11.1163123" />
      <trkpt lat="46.0843121" lon="11.1160386" />
      <trkpt lat="46.0844480" lon="11.1158513" />
      <trkpt lat="46.0845656" lon="11.1156903" />
      <trkpt lat="46.0846218" lon="11.1156100" />
      <trkpt lat="46.0844661" lon="11.1153409" />
      <trkpt lat="46.0843249" lon="11.1149775" />
      <trkpt lat="46.0842968" lon="11.1148860" />
      <trkpt lat="46.0842569" lon="11.1147557" />
      <trkpt lat="46.0842313" lon="11.1146503" />
      <trkpt lat="46.0841842" lon="11.1146727" />
      <trkpt lat="46.0841490" lon="11.1147201" />
      <trkpt lat="46.0840931" lon="11.1148158" />
      <trkpt lat="46.0840576" lon="11.1148743" />
      <trkpt lat="46.0841393" lon="11.1149666" />
      <trkpt lat="46.0841830" lon="11.1150383" />
      <trkpt lat="46.0842266" lon="11.1151344" />
      <trkpt lat="46.0844886" lon="11.1158987" />
      <trkpt lat="46.0847878" lon="11.1167436" />
      <trkpt lat="46.0850112" lon="11.1173660" />
      <trkpt lat="46.0851439" lon="11.1177360" />
      <trkpt lat="46.0852910" lon="11.1182061" />
      <trkpt lat="46.0853213" lon="11.1183426" />
      <trkpt lat="46.0853299" lon="11.1184360" />
      <trkpt lat="46.0853209" lon="11.1185107" />
      <trkpt lat="46.0853098" lon="11.1185565" />
      <trkpt lat="46.0852925" lon="11.1185915" />
      <trkpt lat="46.0852699" lon="11.1186213" />
      <trkpt lat="46.0852382" lon="11.1186407" />
      <trkpt lat="46.0852187" lon="11.1186508" />
      <trkpt lat="46.0852260" lon="11.1186997" />
      <trkpt lat="46.0852259" lon="11.1187352" />
      <trkpt lat="46.0852151" lon="11.1187980" />
      <trkpt lat="46.0852043" lon="11.1188418" />
      <trkpt lat="46.0851839" lon="11.1188792" />
      <trkpt lat="46.0851612" lon="11.1188957" />
      <trkpt lat="46.0851763" lon="11.1190136" />
      <trkpt lat="46.0850578" lon="11.1190980" />
      <trkpt lat="46.0850190" lon="11.1191204" />
      <trkpt lat="46.0849471" lon="11.1191621" />
      <trkpt lat="46.0849684" lon="11.1192479" />
      <trkpt lat="46.0849858" lon="11.1193179" />
      <trkpt lat="46.0851413" lon="11.1192301" />
      <trkpt lat="46.0852404" lon="11.1191810" />
      <trkpt lat="46.0853430" lon="11.1191706" />
      <trkpt lat="46.0854442" lon="11.1191882" />
      <trkpt lat="46.0855274" lon="11.1192342" />
      <trkpt lat="46.0855849" lon="11.1192780" />
      <trkpt lat="46.0856298" lon="11.1193359" />
      <trkpt lat="46.0857040" lon="11.1194962" />
      <trkpt lat="46.0856268" lon="11.1195355" />
      <trkpt lat="46.0855995" lon="11.1195494" />
      <trkpt lat="46.0855335" lon="11.1193107" />
      <trkpt lat="46.0853623" lon="11.1192463" />
      <trkpt lat="46.0848796" lon="11.1195157" />
      <trkpt lat="46.0848201" lon="11.1195484" />
      <trkpt lat="46.0847880" lon="11.1194237" />
      <trkpt lat="46.0847403" lon="11.1194504" />
      <trkpt lat="46.0843588" lon="11.1196595" />
      <trkpt lat="46.0843102" lon="11.1197258" />
      <trkpt lat="46.0842957" lon="11.1198142" />
      <trkpt lat="46.0843853" lon="11.1205646" />
      <trkpt lat="46.0844007" lon="11.1206934" />
      <trkpt lat="46.0846019" lon="11.1223782" />
      <trkpt lat="46.0845736" lon="11.1223851" />
      <trkpt lat="46.0845901" lon="11.1225199" />
      <trkpt lat="46.0845592" lon="11.1225229" />
      <trkpt lat="46.0845654" lon="11.1225794" />
      <trkpt lat="46.0845264" lon="11.1225886" />
      <trkpt lat="46.0845202" lon="11.1225330" />
      <trkpt lat="46.0843320" lon="11.1224840" />
      <trkpt lat="46.0835670" lon="11.1224202" />
      <trkpt lat="46.0834540" lon="11.1224199" />
      <trkpt lat="46.0834186" lon="11.1224090" />
      <trkpt lat="46.0834025" lon="11.1224040" />
      <trkpt lat="46.0832706" lon="11.1225269" />
      <trkpt lat="46.0832475" lon="11.1225485" />
      <trkpt lat="46.0832141" lon="11.1225974" />
      <trkpt lat="46.0831859" lon="11.1225876" />
      <trkpt lat="46.0831495" lon="11.1225750" />
      <trkpt lat="46.0830015" lon="11.1225548" />
      <trkpt lat="46.0829457" lon="11.1225460" />
      <trkpt lat="46.0828615" lon="11.1225314" />
      <trkpt lat="46.0828152" lon="11.1225251" />
      <trkpt lat="46.0826798" lon="11.1225065" />
      <trkpt lat="46.0826416" lon="11.1225013" />
      <trkpt lat="46.0825847" lon="11.1224935" />
      <trkpt lat="46.0825144" lon="11.1224944" />
      <trkpt lat="46.0824513" lon="11.1225011" />
      <trkpt lat="46.0822989" lon="11.1225154" />
      <trkpt lat="46.0821995" lon="11.1225242" />
      <trkpt lat="46.0820924" lon="11.1225341" />
      <trkpt lat="46.0819842" lon="11.1225440" />
      <trkpt lat="46.0819226" lon="11.1225688" />
      <trkpt lat="46.0818721" lon="11.1226027" />
      <trkpt lat="46.0817527" lon="11.1226828" />
      <trkpt lat="46.0815383" lon="11.1228595" />
      <trkpt lat="46.0815307" lon="11.1228658" />
      <trkpt lat="46.0814719" lon="11.1229229" />
      <trkpt lat="46.0810953" lon="11.1232874" />
      <trkpt lat="46.0810204" lon="11.1233609" />
      <trkpt lat="46.0807336" lon="11.1235938" />
      <trkpt lat="46.0805977" lon="11.1237042" />
      <trkpt lat="46.0805150" lon="11.1237571" />
      <trkpt lat="46.0804717" lon="11.1237813" />
      <trkpt lat="46.0804250" lon="11.1237986" />
      <trkpt lat="46.0801750" lon="11.1237986" />
      <trkpt lat="46.0799561" lon="11.1237752" />
      <trkpt lat="46.0798194" lon="11.1238054" />
      <trkpt lat="46.0796917" lon="11.1239513" />
      <trkpt lat="46.0795832" lon="11.1241388" />
      <trkpt lat="46.0795388" lon="11.1244860" />
      <trkpt lat="46.0795222" lon="11.1246144" />
      <trkpt lat="46.0794020" lon="11.1246682" />
      <trkpt lat="46.0792929" lon="11.1246439" />
      <trkpt lat="46.0791121" lon="11.1245884" />
      <trkpt lat="46.0789215" lon="11.1245280" />
      <trkpt lat="46.0787322" lon="11.1244902" />
      <trkpt lat="46.0786860" lon="11.1244818" />
      <trkpt lat="46.0786679" lon="11.1245942" />
      <trkpt lat="46.0786295" lon="11.1247290" />
      <trkpt lat="46.0785672" lon="11.1248890" />
      <trkpt lat="46.0785499" lon="11.1249317" />
      <trkpt lat="46.0784480" lon="11.1250675" />
      <trkpt lat="46.0782439" lon="11.1252306" />
      <trkpt lat="46.0780801" lon="11.1254054" />
      <trkpt lat="46.0778389" lon="11.1257179" />
      <trkpt lat="46.0776466" lon="11.1259896" />
      <trkpt lat="46.0775885" lon="11.1260716" />
      <trkpt lat="46.0775313" lon="11.1262105" />
      <trkpt lat="46.0775071" lon="11.1262879" />
      <trkpt lat="46.0774895" lon="11.1263747" />
      <trkpt lat="46.0774476" lon="11.1266083" />
      <trkpt lat="46.0774140" lon="11.1267203" />
      <trkpt lat="46.0773621" lon="11.1268230" />
      <trkpt lat="46.0772324" lon="11.1270697" />
      <trkpt lat="46.0769676" lon="11.1273889" />
      <trkpt lat="46.0768882" lon="11.1274744" />
      <trkpt lat="46.0768848" lon="11.1274787" />
      <trkpt lat="46.0768259" lon="11.1275549" />
      <trkpt lat="46.0766061" lon="11.1277146" />
      <trkpt lat="46.0762954" lon="11.1279100" />
      <trkpt lat="46.0761818" lon="11.1279798" />
      <trkpt lat="46.0761026" lon="11.1280285" />
      <trkpt lat="46.0760286" lon="11.1281419" />
      <trkpt lat="46.0759290" lon="11.1282301" />
      <trkpt lat="46.0759087" lon="11.1284264" />
      <trkpt lat="46.0759068" lon="11.1285458" />
      <trkpt lat="46.0758860" lon="11.1286618" />
      <trkpt lat="46.0758202" lon="11.1289142" />
      <trkpt lat="46.0757893" lon="11.1291059" />
      <trkpt lat="46.0757939" lon="11.1293083" />
      <trkpt lat="46.0758122" lon="11.1294045" />
      <trkpt lat="46.0758601" lon="11.1295688" />
      <trkpt lat="46.0759415" lon="11.1297726" />
      <trkpt lat="46.0760013" lon="11.1299493" />
      <trkpt lat="46.0760478" lon="11.1300123" />
      <trkpt lat="46.0761724" lon="11.1300875" />
      <trkpt lat="46.0764975" lon="11.1302832" />
      <trkpt lat="46.0766298" lon="11.1303343" />
      <trkpt lat="46.0767621" lon="11.1303772" />
      <trkpt lat="46.0770168" lon="11.1304446" />
      <trkpt lat="46.0771354" lon="11.1304578" />
      <trkpt lat="46.0772788" lon="11.1304450" />
      <trkpt lat="46.0772661" lon="11.1305162" />
      <trkpt lat="46.0772528" lon="11.1305902" />
      <trkpt lat="46.0772467" lon="11.1307100" />
      <trkpt lat="46.0771814" lon="11.1311854" />
      <trkpt lat="46.0771268" lon="11.1316045" />
      <trkpt lat="46.0771004" lon="11.1317526" />
      <trkpt lat="46.0770901" lon="11.1317798" />
      <trkpt lat="46.0770754" lon="11.1318003" />
      <trkpt lat="46.0770549" lon="11.1318176" />
      <trkpt lat="46.0770427" lon="11.1318742" />
      <trkpt lat="46.0770161" lon="11.1319878" />
      <trkpt lat="46.0770354" lon="11.1320010" />
      <trkpt lat="46.0770442" lon="11.1320247" />
      <trkpt lat="46.0770434" lon="11.1320669" />
      <trkpt lat="46.0770143" lon="11.1321916" />
      <trkpt lat="46.0769636" lon="11.1323468" />
      <trkpt lat="46.0769153" lon="11.1324783" />
      <trkpt lat="46.0768684" lon="11.1325898" />
      <trkpt lat="46.0767867" lon="11.1327649" />
      <trkpt lat="46.0766733" lon="11.1329902" />
      <trkpt lat="46.0762758" lon="11.1337879" />
      <trkpt lat="46.0761969" lon="11.1339476" />
      <trkpt lat="46.0761494" lon="11.1340216" />
      <trkpt lat="46.0761049" lon="11.1340658" />
      <trkpt lat="46.0760642" lon="11.1340847" />
      <trkpt lat="46.0760129" lon="11.1340992" />
      <trkpt lat="46.0759773" lon="11.1340965" />
      <trkpt lat="46.0759050" lon="11.1340844" />
      <trkpt lat="46.0758616" lon="11.1340378" />
      <trkpt lat="46.0757541" lon="11.1339736" />
      <trkpt lat="46.0756662" lon="11.1340106" />
      <trkpt lat="46.0754573" lon="11.1341588" />
      <trkpt lat="46.0752879" lon="11.1342721" />
      <trkpt lat="46.0751455" lon="11.1344115" />
      <trkpt lat="46.0756583" lon="11.1351939" />
      <trkpt lat="46.0757217" lon="11.1352906" />
      <trkpt lat="46.0753457" lon="11.1361392" />
      <trkpt lat="46.0751791" lon="11.1364057" />
      <trkpt lat="46.0751588" lon="11.1365343" />
      <trkpt lat="46.0752087" lon="11.1364914" />
      <trkpt lat="46.0752131" lon="11.1365437" />
      <trkpt lat="46.0752196" lon="11.1365866" />
      <trkpt lat="46.0752414" lon="11.1366169" />
      <trkpt lat="46.0752804" lon="11.1366465" />
      <trkpt lat="46.0755589" lon="11.1367809" />
      <trkpt lat="46.0756060" lon="11.1367910" />
      <trkpt lat="46.0758829" lon="11.1368819" />
      <trkpt lat="46.0760330" lon="11.1369124" />
      <trkpt lat="46.0763502" lon="11.1370508" />
      <trkpt lat="46.0764423" lon="11.1370969" />
      <trkpt lat="46.0765580" lon="11.1371513" />
      <trkpt lat="46.0766725" lon="11.1372785" />
      <trkpt lat="46.0766935" lon="11.1373498" />
      <trkpt lat="46.0767083" lon="11.1374124" />
      <trkpt lat="46.0766619" lon="11.1374243" />
      <trkpt lat="46.0766679" lon="11.1375110" />
      <trkpt lat="46.0766604" lon="11.1376447" />
      <trkpt lat="46.0765630" lon="11.1380309" />
      <trkpt lat="46.0766604" lon="11.1376447" />
      <trkpt lat="46.0766679" lon="11.1375110" />
      <trkpt lat="46.0766619" lon="11.1374243" />
      <trkpt lat="46.0766392" lon="11.1373485" />
      <trkpt lat="46.0766095" lon="11.1372973" />
      <trkpt lat="46.0765334" lon="11.1372001" />
      <trkpt lat="46.0762418" lon="11.1370653" />
      <trkpt lat="46.0761335" lon="11.1370152" />
      <trkpt lat="46.0759600" lon="11.1369474" />
      <trkpt lat="46.0755996" lon="11.1368463" />
      <trkpt lat="46.0755642" lon="11.1368397" />
      <trkpt lat="46.0752562" lon="11.1366969" />
      <trkpt lat="46.0751931" lon="11.1366396" />
      <trkpt lat="46.0751677" lon="11.1365868" />
      <trkpt lat="46.0751588" lon="11.1365343" />
      <trkpt lat="46.0751011" lon="11.1365647" />
      <trkpt lat="46.0750804" lon="11.1366130" />
      <trkpt lat="46.0750752" lon="11.1366973" />
      <trkpt lat="46.0750581" lon="11.1366994" />
      <trkpt lat="46.0749711" lon="11.1367069" />
      <trkpt lat="46.0746562" lon="11.1366373" />
      <trkpt lat="46.0742594" lon="11.1359867" />
      <trkpt lat="46.0741170" lon="11.1356810" />
      <trkpt lat="46.0741071" lon="11.1355693" />
      <trkpt lat="46.0740773" lon="11.1355314" />
      <trkpt lat="46.0740719" lon="11.1354885" />
      <trkpt lat="46.0740631" lon="11.1354619" />
      <trkpt lat="46.0740257" lon="11.1353705" />
      <trkpt lat="46.0740044" lon="11.1353224" />
      <trkpt lat="46.0738322" lon="11.1348449" />
      <trkpt lat="46.0737202" lon="11.1345342" />
      <trkpt lat="46.0736965" lon="11.1344537" />
      <trkpt lat="46.0736425" lon="11.1342824" />
      <trkpt lat="46.0736234" lon="11.1342253" />
      <trkpt lat="46.0735886" lon="11.1342095" />
      <trkpt lat="46.0735600" lon="11.1342044" />
      <trkpt lat="46.0734812" lon="11.1341873" />
      <trkpt lat="46.0734399" lon="11.1341453" />
      <trkpt lat="46.0734265" lon="11.1340567" />
      <trkpt lat="46.0734454" lon="11.1339440" />
      <trkpt lat="46.0734770" lon="11.1338546" />
      <trkpt lat="46.0734764" lon="11.1337422" />
      <trkpt lat="46.0734982" lon="11.1335950" />
      <trkpt lat="46.0735131" lon="11.1335207" />
      <trkpt lat="46.0735236" lon="11.1334541" />
      <trkpt lat="46.0734590" lon="11.1333377" />
      <trkpt lat="46.0733897" lon="11.1332421" />
      <trkpt lat="46.0732693" lon="11.1331222" />
      <trkpt lat="46.0730510" lon="11.1329627" />
      <trkpt lat="46.0725054" lon="11.1326608" />
      <trkpt lat="46.0722926" lon="11.1326168" />
      <trkpt lat="46.0721274" lon="11.1325173" />
      <trkpt lat="46.0720491" lon="11.1324688" />
      <trkpt lat="46.0720101" lon="11.1324277" />
      <trkpt lat="46.0719807" lon="11.1323818" />
      <trkpt lat="46.0719448" lon="11.1322604" />
      <trkpt lat="46.0719147" lon="11.1321316" />
      <trkpt lat="46.0719145" lon="11.1320862" />
      <trkpt lat="46.0719258" lon="11.1320398" />
      <trkpt lat="46.0719643" lon="11.1319913" />
      <trkpt lat="46.0720421" lon="11.1319164" />
      <trkpt lat="46.0720797" lon="11.1318641" />
      <trkpt lat="46.0721008" lon="11.1318201" />
      <trkpt lat="46.0721144" lon="11.1317686" />
      <trkpt lat="46.0721139" lon="11.1317196" />
      <trkpt lat="46.0720836" lon="11.1316390" />
      <trkpt lat="46.0720435" lon="11.1315664" />
      <trkpt lat="46.0719930" lon="11.1315096" />
      <trkpt lat="46.0718788" lon="11.1314021" />
      <trkpt lat="46.0717819" lon="11.1313280" />
      <trkpt lat="46.0716374" lon="11.1312149" />
      <trkpt lat="46.0715978" lon="11.1311574" />
      <trkpt lat="46.0715708" lon="11.1311038" />
      <trkpt lat="46.0715578" lon="11.1310635" />
      <trkpt lat="46.0715544" lon="11.1310345" />
      <trkpt lat="46.0715149" lon="11.1309888" />
      <trkpt lat="46.0715519" lon="11.1307148" />
      <trkpt lat="46.0714800" lon="11.1307652" />
      <trkpt lat="46.0714554" lon="11.1306923" />
      <trkpt lat="46.0713914" lon="11.1307395" />
      <trkpt lat="46.0710716" lon="11.1309562" />
      <trkpt lat="46.0704851" lon="11.1313149" />
      <trkpt lat="46.0699389" lon="11.1315107" />
      <trkpt lat="46.0699373" lon="11.1312290" />
      <trkpt lat="46.0699265" lon="11.1311006" />
      <trkpt lat="46.0699131" lon="11.1310501" />
      <trkpt lat="46.0698741" lon="11.1310057" />
      <trkpt lat="46.0697492" lon="11.1309664" />
      <trkpt lat="46.0696951" lon="11.1309460" />
      <trkpt lat="46.0696442" lon="11.1308806" />
      <trkpt lat="46.0695958" lon="11.1307982" />
      <trkpt lat="46.0695872" lon="11.1307844" />
      <trkpt lat="46.0695768" lon="11.1307677" />
      <trkpt lat="46.0695602" lon="11.1307409" />
      <trkpt lat="46.0695333" lon="11.1306929" />
      <trkpt lat="46.0694735" lon="11.1305691" />
      <trkpt lat="46.0694647" lon="11.1305620" />
      <trkpt lat="46.0694521" lon="11.1305519" />
      <trkpt lat="46.0694048" lon="11.1305328" />
      <trkpt lat="46.0692162" lon="11.1305197" />
      <trkpt lat="46.0691380" lon="11.1305057" />
      <trkpt lat="46.0689787" lon="11.1304282" />
      <trkpt lat="46.0688754" lon="11.1303507" />
      <trkpt lat="46.0688370" lon="11.1303213" />
      <trkpt lat="46.0686387" lon="11.1301774" />
      <trkpt lat="46.0685374" lon="11.1301279" />
      <trkpt lat="46.0683367" lon="11.1300526" />
      <trkpt lat="46.0682755" lon="11.1300116" />
      <trkpt lat="46.0682354" lon="11.1299454" />
      <trkpt lat="46.0682000" lon="11.1298692" />
      <trkpt lat="46.0682152" lon="11.1298106" />
      <trkpt lat="46.0682635" lon="11.1296235" />
      <trkpt lat="46.0683048" lon="11.1295341" />
      <trkpt lat="46.0683669" lon="11.1294680" />
      <trkpt lat="46.0684046" lon="11.1294416" />
      <trkpt lat="46.0683501" lon="11.1293914" />
      <trkpt lat="46.0683302" lon="11.1294010" />
      <trkpt lat="46.0683123" lon="11.1294097" />
      <trkpt lat="46.0682925" lon="11.1293320" />
      <trkpt lat="46.0682679" lon="11.1293437" />
      <trkpt lat="46.0682805" lon="11.1293978" />
      <trkpt lat="46.0682864" lon="11.1294242" />
      <trkpt lat="46.0683023" lon="11.1294154" />
      <trkpt lat="46.0682952" lon="11.1293883" />
      <trkpt lat="46.0682492" lon="11.1291994" />
      <trkpt lat="46.0682011" lon="11.1290129" />
      <trkpt lat="46.0681793" lon="11.1290225" />
      <trkpt lat="46.0682030" lon="11.1291172" />
      <trkpt lat="46.0682264" lon="11.1292093" />
      <trkpt lat="46.0682327" lon="11.1292333" />
      <trkpt lat="46.0680149" lon="11.1293389" />
      <trkpt lat="46.0679083" lon="11.1294018" />
      <trkpt lat="46.0677778" lon="11.1295168" />
      <trkpt lat="46.0676633" lon="11.1296383" />
      <trkpt lat="46.0676406" lon="11.1296624" />
      <trkpt lat="46.0674516" lon="11.1299333" />
      <trkpt lat="46.0671833" lon="11.1302975" />
      <trkpt lat="46.0670726" lon="11.1304665" />
      <trkpt lat="46.0670063" lon="11.1305799" />
      <trkpt lat="46.0669014" lon="11.1308307" />
      <trkpt lat="46.0668870" lon="11.1308644" />
      <trkpt lat="46.0666369" lon="11.1314965" />
      <trkpt lat="46.0666075" lon="11.1315738" />
      <trkpt lat="46.0665623" lon="11.1316769" />
      <trkpt lat="46.0665124" lon="11.1318051" />
      <trkpt lat="46.0663615" lon="11.1321930" />
      <trkpt lat="46.0663428" lon="11.1324085" />
      <trkpt lat="46.0663610" lon="11.1327108" />
      <trkpt lat="46.0663643" lon="11.1327481" />
      <trkpt lat="46.0663806" lon="11.1329312" />
      <trkpt lat="46.0663697" lon="11.1330520" />
      <trkpt lat="46.0663238" lon="11.1332178" />
      <trkpt lat="46.0662619" lon="11.1333280" />
      <trkpt lat="46.0662051" lon="11.1334131" />
      <trkpt lat="46.0661184" lon="11.1334666" />
      <trkpt lat="46.0659961" lon="11.1335364" />
      <trkpt lat="46.0659064" lon="11.1335917" />
      <trkpt lat="46.0658182" lon="11.1337106" />
      <trkpt lat="46.0657813" lon="11.1338316" />
      <trkpt lat="46.0657571" lon="11.1340079" />
      <trkpt lat="46.0657486" lon="11.1341604" />
      <trkpt lat="46.0656665" lon="11.1342993" />
      <trkpt lat="46.0654969" lon="11.1344635" />
      <trkpt lat="46.0653728" lon="11.1345987" />
      <trkpt lat="46.0653116" lon="11.1347093" />
      <trkpt lat="46.0653027" lon="11.1347458" />
      <trkpt lat="46.0652661" lon="11.1347473" />
      <trkpt lat="46.0652515" lon="11.1347479" />
      <trkpt lat="46.0652528" lon="11.1348082" />
      <trkpt lat="46.0652582" lon="11.1349182" />
      <trkpt lat="46.0652307" lon="11.1351489" />
      <trkpt lat="46.0652257" lon="11.1353185" />
      <trkpt lat="46.0652294" lon="11.1353876" />
      <trkpt lat="46.0651993" lon="11.1354464" />
      <trkpt lat="46.0651878" lon="11.1353888" />
      <trkpt lat="46.0651805" lon="11.1351790" />
      <trkpt lat="46.0651793" lon="11.1349244" />
      <trkpt lat="46.0651779" lon="11.1346935" />
      <trkpt lat="46.0651541" lon="11.1346961" />
      <trkpt lat="46.0651259" lon="11.1346992" />
      <trkpt lat="46.0650863" lon="11.1347048" />
      <trkpt lat="46.0650787" lon="11.1345968" />
      <trkpt lat="46.0649928" lon="11.1338613" />
      <trkpt lat="46.0649573" lon="11.1338573" />
      <trkpt lat="46.0648815" lon="11.1338440" />
      <trkpt lat="46.0647915" lon="11.1338006" />
      <trkpt lat="46.0647735" lon="11.1337899" />
      <trkpt lat="46.0647207" lon="11.1337725" />
      <trkpt lat="46.0646162" lon="11.1337512" />
      <trkpt lat="46.0645540" lon="11.1337317" />
      <trkpt lat="46.0644972" lon="11.1337084" />
      <trkpt lat="46.0644548" lon="11.1336712" />
      <trkpt lat="46.0644188" lon="11.1336395" />
      <trkpt lat="46.0644123" lon="11.1336305" />
      <trkpt lat="46.0643988" lon="11.1336052" />
      <trkpt lat="46.0643777" lon="11.1335543" />
      <trkpt lat="46.0643544" lon="11.1334844" />
      <trkpt lat="46.0643496" lon="11.1334569" />
      <trkpt lat="46.0642828" lon="11.1330338" />
      <trkpt lat="46.0642733" lon="11.1329744" />
      <trkpt lat="46.0642100" lon="11.1325354" />
      <trkpt lat="46.0642082" lon="11.1324880" />
      <trkpt lat="46.0642098" lon="11.1324359" />
      <trkpt lat="46.0638901" lon="11.1324306" />
      <trkpt lat="46.0638382" lon="11.1324298" />
      <trkpt lat="46.0638626" lon="11.1320031" />
      <trkpt lat="46.0638484" lon="11.1320139" />
      <trkpt lat="46.0637975" lon="11.1320525" />
      <trkpt lat="46.0634693" lon="11.1323461" />
      <trkpt lat="46.0634218" lon="11.1323743" />
      <trkpt lat="46.0633844" lon="11.1324021" />
      <trkpt lat="46.0631751" lon="11.1326091" />
      <trkpt lat="46.0633844" lon="11.1324021" />
      <trkpt lat="46.0632685" lon="11.1321426" />
      <trkpt lat="46.0631892" lon="11.1319648" />
      <trkpt lat="46.0631528" lon="11.1318831" />
      <trkpt lat="46.0631450" lon="11.1318657" />
      <trkpt lat="46.0631302" lon="11.1318327" />
      <trkpt lat="46.0633533" lon="11.1316443" />
      <trkpt lat="46.0635190" lon="11.1315044" />
      <trkpt lat="46.0635280" lon="11.1314968" />
      <trkpt lat="46.0636982" lon="11.1313977" />
      <trkpt lat="46.0637928" lon="11.1313256" />
      <trkpt lat="46.0637741" lon="11.1312812" />
      <trkpt lat="46.0638145" lon="11.1312393" />
      <trkpt lat="46.0638291" lon="11.1312199" />
      <trkpt lat="46.0637854" lon="11.1311271" />
      <trkpt lat="46.0637366" lon="11.1310416" />
      <trkpt lat="46.0637179" lon="11.1310366" />
      <trkpt lat="46.0637262" lon="11.1309860" />
      <trkpt lat="46.0637326" lon="11.1309525" />
      <trkpt lat="46.0637757" lon="11.1309684" />
      <trkpt lat="46.0638167" lon="11.1309821" />
      <trkpt lat="46.0638357" lon="11.1309654" />
      <trkpt lat="46.0638482" lon="11.1308834" />
      <trkpt lat="46.0639347" lon="11.1304085" />
      <trkpt lat="46.0639763" lon="11.1300593" />
      <trkpt lat="46.0641614" lon="11.1289482" />
      <trkpt lat="46.0641733" lon="11.1288744" />
      <trkpt lat="46.0641796" lon="11.1288366" />
      <trkpt lat="46.0641830" lon="11.1288156" />
      <trkpt lat="46.0641991" lon="11.1287220" />
      <trkpt lat="46.0642053" lon="11.1286852" />
      <trkpt lat="46.0642108" lon="11.1286521" />
      <trkpt lat="46.0643429" lon="11.1278623" />
      <trkpt lat="46.0643297" lon="11.1278550" />
      <trkpt lat="46.0643459" lon="11.1277844" />
      <trkpt lat="46.0643624" lon="11.1277123" />
      <trkpt lat="46.0644047" lon="11.1277363" />
      <trkpt lat="46.0644241" lon="11.1277455" />
      <trkpt lat="46.0648757" lon="11.1251200" />
      <trkpt lat="46.0648337" lon="11.1251071" />
      <trkpt lat="46.0648934" lon="11.1247616" />
      <trkpt lat="46.0648439" lon="11.1247453" />
      <trkpt lat="46.0648536" lon="11.1246620" />
      <trkpt lat="46.0648789" lon="11.1242760" />
      <trkpt lat="46.0648838" lon="11.1242128" />
      <trkpt lat="46.0649514" lon="11.1233356" />
      <trkpt lat="46.0649624" lon="11.1233329" />
      <trkpt lat="46.0651569" lon="11.1233035" />
      <trkpt lat="46.0651561" lon="11.1232838" />
      <trkpt lat="46.0651559" lon="11.1232583" />
      <trkpt lat="46.0651514" lon="11.1231779" />
      <trkpt lat="46.0651994" lon="11.1231586" />
      <trkpt lat="46.0652342" lon="11.1231340" />
      <trkpt lat="46.0653655" lon="11.1230951" />
      <trkpt lat="46.0654001" lon="11.1231014" />
      <trkpt lat="46.0655279" lon="11.1230558" />
      <trkpt lat="46.0657344" lon="11.1229534" />
      <trkpt lat="46.0660796" lon="11.1227720" />
      <trkpt lat="46.0662400" lon="11.1226907" />
      <trkpt lat="46.0662774" lon="11.1225941" />
      <trkpt lat="46.0663306" lon="11.1225479" />
      <trkpt lat="46.0663604" lon="11.1225220" />
      <trkpt lat="46.0665144" lon="11.1224055" />
      <trkpt lat="46.0665753" lon="11.1223823" />
      <trkpt lat="46.0667414" lon="11.1223091" />
      <trkpt lat="46.0667357" lon="11.1222747" />
      <trkpt lat="46.0667350" lon="11.1222603" />
      <trkpt lat="46.0667287" lon="11.1221612" />
      <trkpt lat="46.0667249" lon="11.1220591" />
      <trkpt lat="46.0667229" lon="11.1219913" />
      <trkpt lat="46.0667210" lon="11.1219626" />
      <trkpt lat="46.0667304" lon="11.1218751" />
      <trkpt lat="46.0667274" lon="11.1218448" />
      <trkpt lat="46.0666789" lon="11.1217092" />
      <trkpt lat="46.0666701" lon="11.1215352" />
      <trkpt lat="46.0667024" lon="11.1213629" />
      <trkpt lat="46.0667526" lon="11.1210542" />
      <trkpt lat="46.0667705" lon="11.1210629" />
      <trkpt lat="46.0668711" lon="11.1210492" />
    </trkseg>
  </trk>
</gpx>
