<?xml version="1.0" encoding="UTF-8"?>
<gpx xmlns="http://www.topografix.com/GPX/1/1" version="1.1" creator="ShapeRoute route-engine">
  <metadata>
    <name>heart 5 km · 2026-09-22</name>
    <author>
      <name>ShapeRoute route-engine</name>
    </author>
    <time>2026-09-22T22:35:26Z</time>
  </metadata>
  <trk>
    <name>heart 5 km · 2026-09-22</name>
    <trkseg>
      <trkpt lat="46.0123552" lon="11.2985082" />
      <trkpt lat="46.0125364" lon="11.2982718" />
      <trkpt lat="46.0127682" lon="11.2980215" />
      <trkpt lat="46.0128013" lon="11.2980024" />
      <trkpt lat="46.0128770" lon="11.2979586" />
      <trkpt lat="46.0129712" lon="11.2978899" />
      <trkpt lat="46.0130468" lon="11.2977714" />
      <trkpt lat="46.0131199" lon="11.2976603" />
      <trkpt lat="46.0131919" lon="11.2975460" />
      <trkpt lat="46.0132320" lon="11.2976177" />
      <trkpt lat="46.0133454" lon="11.2977970" />
      <trkpt lat="46.0134865" lon="11.2979792" />
      <trkpt lat="46.0136470" lon="11.2981837" />
      <trkpt lat="46.0139231" lon="11.2985434" />
      <trkpt lat="46.0141584" lon="11.2988474" />
      <trkpt lat="46.0141849" lon="11.2988817" />
      <trkpt lat="46.0142859" lon="11.2987840" />
      <trkpt lat="46.0145020" lon="11.2986284" />
      <trkpt lat="46.0145657" lon="11.2985826" />
      <trkpt lat="46.0146356" lon="11.2986752" />
      <trkpt lat="46.0146840" lon="11.2986430" />
      <trkpt lat="46.0147200" lon="11.2986038" />
      <trkpt lat="46.0147775" lon="11.2986185" />
      <trkpt lat="46.0144647" lon="11.2992432" />
      <trkpt lat="46.0143419" lon="11.2994850" />
      <trkpt lat="46.0143116" lon="11.2995475" />
      <trkpt lat="46.0144803" lon="11.2997321" />
      <trkpt lat="46.0146982" lon="11.3000057" />
      <trkpt lat="46.0150596" lon="11.3004563" />
      <trkpt lat="46.0151833" lon="11.3006314" />
      <trkpt lat="46.0154172" lon="11.3009633" />
      <trkpt lat="46.0156351" lon="11.3013334" />
      <trkpt lat="46.0158363" lon="11.3017116" />
      <trkpt lat="46.0159630" lon="11.3020147" />
      <trkpt lat="46.0160393" lon="11.3022480" />
      <trkpt lat="46.0161120" lon="11.3025324" />
      <trkpt lat="46.0161921" lon="11.3028596" />
      <trkpt lat="46.0162536" lon="11.3031305" />
      <trkpt lat="46.0163097" lon="11.3033545" />
      <trkpt lat="46.0162802" lon="11.3033173" />
      <trkpt lat="46.0162630" lon="11.3032955" />
      <trkpt lat="46.0162165" lon="11.3032687" />
      <trkpt lat="46.0160398" lon="11.3031618" />
      <trkpt lat="46.0158332" lon="11.3031276" />
      <trkpt lat="46.0157140" lon="11.3031534" />
      <trkpt lat="46.0155054" lon="11.3032306" />
      <trkpt lat="46.0153087" lon="11.3033422" />
      <trkpt lat="46.0150419" lon="11.3034274" />
      <trkpt lat="46.0149052" lon="11.3033735" />
      <trkpt lat="46.0146867" lon="11.3034741" />
      <trkpt lat="46.0147613" lon="11.3037166" />
      <trkpt lat="46.0148071" lon="11.3039585" />
      <trkpt lat="46.0148233" lon="11.3039722" />
      <trkpt lat="46.0149907" lon="11.3040148" />
      <trkpt lat="46.0151560" lon="11.3041575" />
      <trkpt lat="46.0152046" lon="11.3041889" />
      <trkpt lat="46.0152792" lon="11.3042107" />
      <trkpt lat="46.0153095" lon="11.3042188" />
      <trkpt lat="46.0154524" lon="11.3042572" />
      <trkpt lat="46.0156100" lon="11.3043753" />
      <trkpt lat="46.0157278" lon="11.3045000" />
      <trkpt lat="46.0158599" lon="11.3046138" />
      <trkpt lat="46.0158616" lon="11.3043088" />
      <trkpt lat="46.0159521" lon="11.3039994" />
      <trkpt lat="46.0162763" lon="11.3033833" />
      <trkpt lat="46.0163277" lon="11.3035821" />
      <trkpt lat="46.0164478" lon="11.3036153" />
      <trkpt lat="46.0164968" lon="11.3036036" />
      <trkpt lat="46.0165981" lon="11.3035436" />
      <trkpt lat="46.0167054" lon="11.3034663" />
      <trkpt lat="46.0167352" lon="11.3033805" />
      <trkpt lat="46.0168363" lon="11.3033181" />
      <trkpt lat="46.0169338" lon="11.3032080" />
      <trkpt lat="46.0170292" lon="11.3030996" />
      <trkpt lat="46.0167927" lon="11.3026196" />
      <trkpt lat="46.0164946" lon="11.3030559" />
      <trkpt lat="46.0163097" lon="11.3033545" />
      <trkpt lat="46.0162763" lon="11.3033833" />
      <trkpt lat="46.0159521" lon="11.3039994" />
      <trkpt lat="46.0158616" lon="11.3043088" />
      <trkpt lat="46.0158599" lon="11.3046138" />
      <trkpt lat="46.0158816" lon="11.3050492" />
      <trkpt lat="46.0158840" lon="11.3050997" />
      <trkpt lat="46.0159255" lon="11.3059359" />
      <trkpt lat="46.0159769" lon="11.3059862" />
      <trkpt lat="46.0162817" lon="11.3062193" />
      <trkpt lat="46.0168513" lon="11.3065339" />
      <trkpt lat="46.0176425" lon="11.3072598" />
      <trkpt lat="46.0179405" lon="11.3075602" />
      <trkpt lat="46.0181975" lon="11.3077936" />
      <trkpt lat="46.0184676" lon="11.3079679" />
      <trkpt lat="46.0187638" lon="11.3081261" />
      <trkpt lat="46.0187221" lon="11.3082708" />
      <trkpt lat="46.0186954" lon="11.3085270" />
      <trkpt lat="46.0187132" lon="11.3086551" />
      <trkpt lat="46.0187932" lon="11.3087576" />
      <trkpt lat="46.0188614" lon="11.3088516" />
      <trkpt lat="46.0188703" lon="11.3089839" />
      <trkpt lat="46.0188585" lon="11.3091761" />
      <trkpt lat="46.0188288" lon="11.3092615" />
      <trkpt lat="46.0186064" lon="11.3092487" />
      <trkpt lat="46.0184048" lon="11.3092060" />
      <trkpt lat="46.0181883" lon="11.3091206" />
      <trkpt lat="46.0178828" lon="11.3090608" />
      <trkpt lat="46.0175655" lon="11.3090822" />
      <trkpt lat="46.0172038" lon="11.3091206" />
      <trkpt lat="46.0167619" lon="11.3091889" />
      <trkpt lat="46.0166818" lon="11.3092274" />
      <trkpt lat="46.0166492" lon="11.3093469" />
      <trkpt lat="46.0166700" lon="11.3095391" />
      <trkpt lat="46.0166100" lon="11.3096126" />
      <trkpt lat="46.0167447" lon="11.3099256" />
      <trkpt lat="46.0168531" lon="11.3101777" />
      <trkpt lat="46.0164436" lon="11.3101138" />
      <trkpt lat="46.0161098" lon="11.3099253" />
      <trkpt lat="46.0158237" lon="11.3097536" />
      <trkpt lat="46.0155435" lon="11.3096935" />
      <trkpt lat="46.0151755" lon="11.3095997" />
      <trkpt lat="46.0150426" lon="11.3094836" />
      <trkpt lat="46.0149739" lon="11.3093695" />
      <trkpt lat="46.0149467" lon="11.3092691" />
      <trkpt lat="46.0149346" lon="11.3091044" />
      <trkpt lat="46.0149375" lon="11.3089053" />
      <trkpt lat="46.0149682" lon="11.3086612" />
      <trkpt lat="46.0149475" lon="11.3085481" />
      <trkpt lat="46.0148886" lon="11.3084980" />
      <trkpt lat="46.0147663" lon="11.3085009" />
      <trkpt lat="46.0145486" lon="11.3085446" />
      <trkpt lat="46.0143280" lon="11.3085730" />
      <trkpt lat="46.0141429" lon="11.3085671" />
      <trkpt lat="46.0137875" lon="11.3085719" />
      <trkpt lat="46.0137052" lon="11.3085868" />
      <trkpt lat="46.0136430" lon="11.3086202" />
      <trkpt lat="46.0136139" lon="11.3086583" />
      <trkpt lat="46.0135936" lon="11.3086788" />
      <trkpt lat="46.0135640" lon="11.3086957" />
      <trkpt lat="46.0135413" lon="11.3086948" />
      <trkpt lat="46.0135225" lon="11.3086854" />
      <trkpt lat="46.0134812" lon="11.3086513" />
      <trkpt lat="46.0134568" lon="11.3086278" />
      <trkpt lat="46.0134044" lon="11.3085949" />
      <trkpt lat="46.0133450" lon="11.3085849" />
      <trkpt lat="46.0132950" lon="11.3086265" />
      <trkpt lat="46.0132379" lon="11.3086679" />
      <trkpt lat="46.0131735" lon="11.3087524" />
      <trkpt lat="46.0131139" lon="11.3088596" />
      <trkpt lat="46.0130617" lon="11.3091225" />
      <trkpt lat="46.0130319" lon="11.3092083" />
      <trkpt lat="46.0129761" lon="11.3092566" />
      <trkpt lat="46.0128792" lon="11.3092834" />
      <trkpt lat="46.0124877" lon="11.3093217" />
      <trkpt lat="46.0125018" lon="11.3092123" />
      <trkpt lat="46.0125287" lon="11.3087845" />
      <trkpt lat="46.0126690" lon="11.3068184" />
      <trkpt lat="46.0126749" lon="11.3067415" />
      <trkpt lat="46.0127983" lon="11.3050318" />
      <trkpt lat="46.0127990" lon="11.3049468" />
      <trkpt lat="46.0127931" lon="11.3047943" />
      <trkpt lat="46.0127644" lon="11.3045046" />
      <trkpt lat="46.0127044" lon="11.3040536" />
      <trkpt lat="46.0126021" lon="11.3041601" />
      <trkpt lat="46.0123670" lon="11.3045484" />
      <trkpt lat="46.0122985" lon="11.3046550" />
      <trkpt lat="46.0122399" lon="11.3047086" />
      <trkpt lat="46.0121644" lon="11.3047010" />
      <trkpt lat="46.0121026" lon="11.3046545" />
      <trkpt lat="46.0120540" lon="11.3046312" />
      <trkpt lat="46.0119919" lon="11.3046366" />
      <trkpt lat="46.0119477" lon="11.3046725" />
      <trkpt lat="46.0118767" lon="11.3048065" />
      <trkpt lat="46.0118147" lon="11.3049397" />
      <trkpt lat="46.0117020" lon="11.3051613" />
      <trkpt lat="46.0116508" lon="11.3052644" />
      <trkpt lat="46.0115684" lon="11.3054490" />
      <trkpt lat="46.0115371" lon="11.3055262" />
      <trkpt lat="46.0114849" lon="11.3055945" />
      <trkpt lat="46.0114258" lon="11.3056108" />
      <trkpt lat="46.0113750" lon="11.3055987" />
      <trkpt lat="46.0113311" lon="11.3061571" />
      <trkpt lat="46.0112066" lon="11.3074709" />
      <trkpt lat="46.0113098" lon="11.3073616" />
      <trkpt lat="46.0113694" lon="11.3073073" />
      <trkpt lat="46.0114219" lon="11.3072770" />
      <trkpt lat="46.0114745" lon="11.3072748" />
      <trkpt lat="46.0115345" lon="11.3072898" />
      <trkpt lat="46.0115811" lon="11.3073261" />
      <trkpt lat="46.0116557" lon="11.3073958" />
      <trkpt lat="46.0117047" lon="11.3074784" />
      <trkpt lat="46.0117942" lon="11.3076753" />
      <trkpt lat="46.0119271" lon="11.3078131" />
      <trkpt lat="46.0120110" lon="11.3079183" />
      <trkpt lat="46.0121088" lon="11.3080148" />
      <trkpt lat="46.0122542" lon="11.3081624" />
      <trkpt lat="46.0123433" lon="11.3083077" />
      <trkpt lat="46.0123997" lon="11.3084274" />
      <trkpt lat="46.0124366" lon="11.3085145" />
      <trkpt lat="46.0124484" lon="11.3085583" />
      <trkpt lat="46.0124512" lon="11.3086002" />
      <trkpt lat="46.0124374" lon="11.3088474" />
      <trkpt lat="46.0124284" lon="11.3088704" />
      <trkpt lat="46.0123965" lon="11.3090037" />
      <trkpt lat="46.0123356" lon="11.3091251" />
      <trkpt lat="46.0122688" lon="11.3092009" />
      <trkpt lat="46.0122012" lon="11.3092270" />
      <trkpt lat="46.0120034" lon="11.3092128" />
      <trkpt lat="46.0117768" lon="11.3091977" />
      <trkpt lat="46.0115740" lon="11.3091767" />
      <trkpt lat="46.0116328" lon="11.3083521" />
      <trkpt lat="46.0117047" lon="11.3074784" />
      <trkpt lat="46.0116557" lon="11.3073958" />
      <trkpt lat="46.0115811" lon="11.3073261" />
      <trkpt lat="46.0115345" lon="11.3072898" />
      <trkpt lat="46.0114745" lon="11.3072748" />
      <trkpt lat="46.0114219" lon="11.3072770" />
      <trkpt lat="46.0113694" lon="11.3073073" />
      <trkpt lat="46.0113098" lon="11.3073616" />
      <trkpt lat="46.0112066" lon="11.3074709" />
      <trkpt lat="46.0111166" lon="11.3075756" />
      <trkpt lat="46.0110422" lon="11.3076673" />
      <trkpt lat="46.0109644" lon="11.3077709" />
      <trkpt lat="46.0109208" lon="11.3078354" />
      <trkpt lat="46.0108513" lon="11.3079084" />
      <trkpt lat="46.0107806" lon="11.3079584" />
      <trkpt lat="46.0106989" lon="11.3079891" />
      <trkpt lat="46.0106233" lon="11.3079786" />
      <trkpt lat="46.0104900" lon="11.3079707" />
      <trkpt lat="46.0104234" lon="11.3079874" />
      <trkpt lat="46.0105301" lon="11.3068092" />
      <trkpt lat="46.0105677" lon="11.3064149" />
      <trkpt lat="46.0106331" lon="11.3064053" />
      <trkpt lat="46.0106952" lon="11.3063601" />
      <trkpt lat="46.0107531" lon="11.3062424" />
      <trkpt lat="46.0108325" lon="11.3060187" />
      <trkpt lat="46.0109869" lon="11.3055846" />
      <trkpt lat="46.0110426" lon="11.3054683" />
      <trkpt lat="46.0111206" lon="11.3054196" />
      <trkpt lat="46.0111741" lon="11.3054104" />
      <trkpt lat="46.0112147" lon="11.3054262" />
      <trkpt lat="46.0112731" lon="11.3054781" />
      <trkpt lat="46.0113253" lon="11.3055475" />
      <trkpt lat="46.0113750" lon="11.3055987" />
      <trkpt lat="46.0113940" lon="11.3054812" />
      <trkpt lat="46.0114116" lon="11.3054030" />
      <trkpt lat="46.0114398" lon="11.3053175" />
      <trkpt lat="46.0114566" lon="11.3052800" />
      <trkpt lat="46.0114749" lon="11.3052485" />
      <trkpt lat="46.0115062" lon="11.3052066" />
      <trkpt lat="46.0115480" lon="11.3051604" />
      <trkpt lat="46.0115812" lon="11.3052092" />
      <trkpt lat="46.0116508" lon="11.3052644" />
      <trkpt lat="46.0117020" lon="11.3051613" />
      <trkpt lat="46.0117353" lon="11.3052622" />
      <trkpt lat="46.0117819" lon="11.3053851" />
      <trkpt lat="46.0118513" lon="11.3055427" />
      <trkpt lat="46.0118815" lon="11.3055227" />
      <trkpt lat="46.0119182" lon="11.3054963" />
      <trkpt lat="46.0120210" lon="11.3054505" />
      <trkpt lat="46.0121364" lon="11.3054437" />
      <trkpt lat="46.0121464" lon="11.3052965" />
      <trkpt lat="46.0121525" lon="11.3052186" />
      <trkpt lat="46.0121789" lon="11.3048653" />
      <trkpt lat="46.0122150" lon="11.3047684" />
      <trkpt lat="46.0122399" lon="11.3047086" />
      <trkpt lat="46.0122985" lon="11.3046550" />
      <trkpt lat="46.0123670" lon="11.3045484" />
      <trkpt lat="46.0126021" lon="11.3041601" />
      <trkpt lat="46.0127044" lon="11.3040536" />
      <trkpt lat="46.0127396" lon="11.3036685" />
      <trkpt lat="46.0127603" lon="11.3035217" />
      <trkpt lat="46.0127143" lon="11.3035197" />
      <trkpt lat="46.0125647" lon="11.3035184" />
      <trkpt lat="46.0124641" lon="11.3035155" />
      <trkpt lat="46.0123698" lon="11.3034913" />
      <trkpt lat="46.0122138" lon="11.3034024" />
      <trkpt lat="46.0120643" lon="11.3033270" />
      <trkpt lat="46.0120087" lon="11.3032976" />
      <trkpt lat="46.0119908" lon="11.3032882" />
      <trkpt lat="46.0119735" lon="11.3032791" />
      <trkpt lat="46.0118052" lon="11.3032175" />
      <trkpt lat="46.0117371" lon="11.3032074" />
      <trkpt lat="46.0117136" lon="11.3032249" />
      <trkpt lat="46.0116328" lon="11.3033272" />
      <trkpt lat="46.0115685" lon="11.3033874" />
      <trkpt lat="46.0113727" lon="11.3034152" />
      <trkpt lat="46.0112763" lon="11.3034178" />
      <trkpt lat="46.0110488" lon="11.3033779" />
      <trkpt lat="46.0110614" lon="11.3033514" />
      <trkpt lat="46.0112129" lon="11.3030813" />
      <trkpt lat="46.0112553" lon="11.3030656" />
      <trkpt lat="46.0112153" lon="11.3028160" />
      <trkpt lat="46.0112386" lon="11.3025816" />
      <trkpt lat="46.0111961" lon="11.3024347" />
      <trkpt lat="46.0112494" lon="11.3023706" />
      <trkpt lat="46.0113220" lon="11.3022145" />
      <trkpt lat="46.0113673" lon="11.3021042" />
      <trkpt lat="46.0114407" lon="11.3019130" />
      <trkpt lat="46.0115298" lon="11.3016640" />
      <trkpt lat="46.0115558" lon="11.3014758" />
      <trkpt lat="46.0115621" lon="11.3014064" />
      <trkpt lat="46.0115644" lon="11.3012354" />
      <trkpt lat="46.0115646" lon="11.3012218" />
      <trkpt lat="46.0115785" lon="11.3010636" />
      <trkpt lat="46.0115191" lon="11.3009521" />
      <trkpt lat="46.0114434" lon="11.3007649" />
      <trkpt lat="46.0113854" lon="11.3006619" />
      <trkpt lat="46.0113758" lon="11.3005772" />
      <trkpt lat="46.0113555" lon="11.3004664" />
      <trkpt lat="46.0112962" lon="11.3002246" />
      <trkpt lat="46.0116723" lon="11.2996863" />
      <trkpt lat="46.0118498" lon="11.2994411" />
      <trkpt lat="46.0119829" lon="11.2992330" />
      <trkpt lat="46.0121122" lon="11.2989819" />
      <trkpt lat="46.0122721" lon="11.2986350" />
      <trkpt lat="46.0123552" lon="11.2985082" />
    </trkseg>
  </trk>
</gpx>
