<?xml version="1.0" encoding="UTF-8"?>
<gpx xmlns="http://www.topografix.com/GPX/1/1" version="1.1" creator="ShapeRoute route-engine">
  <metadata>
    <name>pear 15 km · 2026-09-25</name>
    <author>
      <name>ShapeRoute route-engine</name>
    </author>
    <copyright author="OpenStreetMap contributors">
      <license>https://opendatacommons.org/licenses/odbl/1-0/</license>
    </copyright>
    <link href="https://www.openstreetmap.org/copyright">
      <text>© OpenStreetMap contributors</text>
    </link>
    <time>2026-09-25T17:17:19Z</time>
  </metadata>
  <trk>
    <name>pear 15 km · 2026-09-25</name>
    <trkseg>
      <trkpt lat="46.0668711" lon="11.1210492" />
      <trkpt lat="46.0668249" lon="11.1206182" />
      <trkpt lat="46.0667816" lon="11.1201952" />
      <trkpt lat="46.0667099" lon="11.1201551" />
      <trkpt lat="46.0666578" lon="11.1196518" />
      <trkpt lat="46.0666065" lon="11.1191557" />
      <trkpt lat="46.0665858" lon="11.1191592" />
      <trkpt lat="46.0665730" lon="11.1190499" />
      <trkpt lat="46.0665603" lon="11.1189419" />
      <trkpt lat="46.0662010" lon="11.1190100" />
      <trkpt lat="46.0659410" lon="11.1190629" />
      <trkpt lat="46.0659097" lon="11.1190706" />
      <trkpt lat="46.0658904" lon="11.1190853" />
      <trkpt lat="46.0658645" lon="11.1190903" />
      <trkpt lat="46.0653169" lon="11.1192084" />
      <trkpt lat="46.0652869" lon="11.1191976" />
      <trkpt lat="46.0652385" lon="11.1192116" />
      <trkpt lat="46.0652034" lon="11.1192260" />
      <trkpt lat="46.0651907" lon="11.1192425" />
      <trkpt lat="46.0649945" lon="11.1192726" />
      <trkpt lat="46.0649924" lon="11.1192729" />
      <trkpt lat="46.0649545" lon="11.1192807" />
      <trkpt lat="46.0649181" lon="11.1192900" />
      <trkpt lat="46.0649277" lon="11.1190183" />
      <trkpt lat="46.0649697" lon="11.1190123" />
      <trkpt lat="46.0650475" lon="11.1174509" />
      <trkpt lat="46.0650668" lon="11.1173069" />
      <trkpt lat="46.0651046" lon="11.1172245" />
      <trkpt lat="46.0650448" lon="11.1167071" />
      <trkpt lat="46.0649438" lon="11.1166932" />
      <trkpt lat="46.0648460" lon="11.1166995" />
      <trkpt lat="46.0645821" lon="11.1167575" />
      <trkpt lat="46.0645336" lon="11.1167401" />
      <trkpt lat="46.0645052" lon="11.1167422" />
      <trkpt lat="46.0644674" lon="11.1167469" />
      <trkpt lat="46.0641805" lon="11.1167941" />
      <trkpt lat="46.0635353" lon="11.1168949" />
      <trkpt lat="46.0634299" lon="11.1169932" />
      <trkpt lat="46.0633950" lon="11.1170509" />
      <trkpt lat="46.0634638" lon="11.1179318" />
      <trkpt lat="46.0633965" lon="11.1179432" />
      <trkpt lat="46.0632585" lon="11.1179655" />
      <trkpt lat="46.0627561" lon="11.1180476" />
      <trkpt lat="46.0626978" lon="11.1173313" />
      <trkpt lat="46.0626678" lon="11.1169643" />
      <trkpt lat="46.0621757" lon="11.1170371" />
      <trkpt lat="46.0621527" lon="11.1167167" />
      <trkpt lat="46.0618330" lon="11.1167644" />
      <trkpt lat="46.0618143" lon="11.1167407" />
      <trkpt lat="46.0617513" lon="11.1167507" />
      <trkpt lat="46.0614958" lon="11.1167926" />
      <trkpt lat="46.0613498" lon="11.1168295" />
      <trkpt lat="46.0613082" lon="11.1168400" />
      <trkpt lat="46.0612985" lon="11.1169094" />
      <trkpt lat="46.0613057" lon="11.1170753" />
      <trkpt lat="46.0612750" lon="11.1170808" />
      <trkpt lat="46.0611270" lon="11.1171073" />
      <trkpt lat="46.0610720" lon="11.1171165" />
      <trkpt lat="46.0610477" lon="11.1168106" />
      <trkpt lat="46.0605071" lon="11.1168996" />
      <trkpt lat="46.0604896" lon="11.1167702" />
      <trkpt lat="46.0604386" lon="11.1167736" />
      <trkpt lat="46.0604188" lon="11.1167716" />
      <trkpt lat="46.0604250" lon="11.1168438" />
      <trkpt lat="46.0604523" lon="11.1168833" />
      <trkpt lat="46.0604811" lon="11.1171676" />
      <trkpt lat="46.0605278" lon="11.1172113" />
      <trkpt lat="46.0610720" lon="11.1171165" />
      <trkpt lat="46.0611270" lon="11.1171073" />
      <trkpt lat="46.0612750" lon="11.1170808" />
      <trkpt lat="46.0613057" lon="11.1170753" />
      <trkpt lat="46.0612985" lon="11.1169094" />
      <trkpt lat="46.0613082" lon="11.1168400" />
      <trkpt lat="46.0613042" lon="11.1167878" />
      <trkpt lat="46.0612742" lon="11.1163432" />
      <trkpt lat="46.0612549" lon="11.1160629" />
      <trkpt lat="46.0612441" lon="11.1158990" />
      <trkpt lat="46.0612400" lon="11.1158378" />
      <trkpt lat="46.0612359" lon="11.1157778" />
      <trkpt lat="46.0612313" lon="11.1157114" />
      <trkpt lat="46.0612266" lon="11.1156451" />
      <trkpt lat="46.0612120" lon="11.1154287" />
      <trkpt lat="46.0611985" lon="11.1154306" />
      <trkpt lat="46.0611849" lon="11.1154325" />
      <trkpt lat="46.0611823" lon="11.1153970" />
      <trkpt lat="46.0611786" lon="11.1153803" />
      <trkpt lat="46.0611712" lon="11.1153727" />
      <trkpt lat="46.0611599" lon="11.1153697" />
      <trkpt lat="46.0609725" lon="11.1153961" />
      <trkpt lat="46.0607199" lon="11.1154316" />
      <trkpt lat="46.0602243" lon="11.1155012" />
      <trkpt lat="46.0599281" lon="11.1155413" />
      <trkpt lat="46.0597717" lon="11.1155625" />
      <trkpt lat="46.0597599" lon="11.1155692" />
      <trkpt lat="46.0597513" lon="11.1155809" />
      <trkpt lat="46.0597478" lon="11.1156023" />
      <trkpt lat="46.0597491" lon="11.1156197" />
      <trkpt lat="46.0597511" lon="11.1156473" />
      <trkpt lat="46.0597348" lon="11.1156499" />
      <trkpt lat="46.0597185" lon="11.1156524" />
      <trkpt lat="46.0597038" lon="11.1156548" />
      <trkpt lat="46.0596890" lon="11.1156571" />
      <trkpt lat="46.0596992" lon="11.1157980" />
      <trkpt lat="46.0596981" lon="11.1158315" />
      <trkpt lat="46.0596930" lon="11.1158502" />
      <trkpt lat="46.0596820" lon="11.1158647" />
      <trkpt lat="46.0596380" lon="11.1158637" />
      <trkpt lat="46.0596356" lon="11.1158808" />
      <trkpt lat="46.0596283" lon="11.1159318" />
      <trkpt lat="46.0596232" lon="11.1159672" />
      <trkpt lat="46.0596214" lon="11.1159799" />
      <trkpt lat="46.0594035" lon="11.1159070" />
      <trkpt lat="46.0592462" lon="11.1157930" />
      <trkpt lat="46.0591141" lon="11.1156763" />
      <trkpt lat="46.0590480" lon="11.1156575" />
      <trkpt lat="46.0588386" lon="11.1155073" />
      <trkpt lat="46.0588293" lon="11.1154658" />
      <trkpt lat="46.0583836" lon="11.1151144" />
      <trkpt lat="46.0583221" lon="11.1151063" />
      <trkpt lat="46.0582241" lon="11.1151208" />
      <trkpt lat="46.0574124" lon="11.1152374" />
      <trkpt lat="46.0574084" lon="11.1151807" />
      <trkpt lat="46.0573628" lon="11.1151863" />
      <trkpt lat="46.0573570" lon="11.1151119" />
      <trkpt lat="46.0573522" lon="11.1150513" />
      <trkpt lat="46.0573176" lon="11.1150518" />
      <trkpt lat="46.0572825" lon="11.1150448" />
      <trkpt lat="46.0572590" lon="11.1150231" />
      <trkpt lat="46.0572387" lon="11.1149953" />
      <trkpt lat="46.0572287" lon="11.1149243" />
      <trkpt lat="46.0571890" lon="11.1145845" />
      <trkpt lat="46.0571785" lon="11.1144963" />
      <trkpt lat="46.0571767" lon="11.1144822" />
      <trkpt lat="46.0571772" lon="11.1144654" />
      <trkpt lat="46.0571385" lon="11.1141464" />
      <trkpt lat="46.0571161" lon="11.1139461" />
      <trkpt lat="46.0571351" lon="11.1138756" />
      <trkpt lat="46.0570962" lon="11.1135596" />
      <trkpt lat="46.0570950" lon="11.1135488" />
      <trkpt lat="46.0570620" lon="11.1135132" />
      <trkpt lat="46.0570419" lon="11.1133376" />
      <trkpt lat="46.0569868" lon="11.1128929" />
      <trkpt lat="46.0569726" lon="11.1127784" />
      <trkpt lat="46.0569723" lon="11.1127049" />
      <trkpt lat="46.0569236" lon="11.1127116" />
      <trkpt lat="46.0568799" lon="11.1127190" />
      <trkpt lat="46.0568711" lon="11.1126825" />
      <trkpt lat="46.0568480" lon="11.1126295" />
      <trkpt lat="46.0568160" lon="11.1125909" />
      <trkpt lat="46.0567840" lon="11.1125592" />
      <trkpt lat="46.0567505" lon="11.1125442" />
      <trkpt lat="46.0567084" lon="11.1125329" />
      <trkpt lat="46.0560629" lon="11.1124910" />
      <trkpt lat="46.0560655" lon="11.1124271" />
      <trkpt lat="46.0560691" lon="11.1122985" />
      <trkpt lat="46.0565143" lon="11.1123293" />
      <trkpt lat="46.0565153" lon="11.1123045" />
      <trkpt lat="46.0565230" lon="11.1119917" />
      <trkpt lat="46.0565239" lon="11.1119557" />
      <trkpt lat="46.0531881" lon="11.1117176" />
      <trkpt lat="46.0529133" lon="11.1117299" />
      <trkpt lat="46.0526609" lon="11.1116835" />
      <trkpt lat="46.0525690" lon="11.1116104" />
      <trkpt lat="46.0525304" lon="11.1115891" />
      <trkpt lat="46.0524853" lon="11.1115736" />
      <trkpt lat="46.0523848" lon="11.1115484" />
      <trkpt lat="46.0519761" lon="11.1114391" />
      <trkpt lat="46.0518477" lon="11.1114067" />
      <trkpt lat="46.0517061" lon="11.1113769" />
      <trkpt lat="46.0515507" lon="11.1113518" />
      <trkpt lat="46.0513744" lon="11.1113342" />
      <trkpt lat="46.0512163" lon="11.1113271" />
      <trkpt lat="46.0510487" lon="11.1113284" />
      <trkpt lat="46.0508706" lon="11.1113332" />
      <trkpt lat="46.0505662" lon="11.1113592" />
      <trkpt lat="46.0504848" lon="11.1113743" />
      <trkpt lat="46.0503693" lon="11.1114034" />
      <trkpt lat="46.0501612" lon="11.1114615" />
      <trkpt lat="46.0499556" lon="11.1115299" />
      <trkpt lat="46.0498440" lon="11.1115711" />
      <trkpt lat="46.0497388" lon="11.1116147" />
      <trkpt lat="46.0494430" lon="11.1117640" />
      <trkpt lat="46.0492911" lon="11.1118579" />
      <trkpt lat="46.0491310" lon="11.1119553" />
      <trkpt lat="46.0490393" lon="11.1120119" />
      <trkpt lat="46.0489282" lon="11.1120906" />
      <trkpt lat="46.0487156" lon="11.1122597" />
      <trkpt lat="46.0482717" lon="11.1126498" />
      <trkpt lat="46.0482136" lon="11.1127078" />
      <trkpt lat="46.0479760" lon="11.1129677" />
      <trkpt lat="46.0475041" lon="11.1134355" />
      <trkpt lat="46.0473730" lon="11.1135677" />
      <trkpt lat="46.0469893" lon="11.1139707" />
      <trkpt lat="46.0467822" lon="11.1141883" />
      <trkpt lat="46.0463607" lon="11.1146905" />
      <trkpt lat="46.0463446" lon="11.1147097" />
      <trkpt lat="46.0463256" lon="11.1147284" />
      <trkpt lat="46.0463033" lon="11.1147440" />
      <trkpt lat="46.0462829" lon="11.1147436" />
      <trkpt lat="46.0462609" lon="11.1147376" />
      <trkpt lat="46.0462358" lon="11.1147210" />
      <trkpt lat="46.0461974" lon="11.1146628" />
      <trkpt lat="46.0457181" lon="11.1137721" />
      <trkpt lat="46.0457021" lon="11.1137444" />
      <trkpt lat="46.0456563" lon="11.1137944" />
      <trkpt lat="46.0456212" lon="11.1138356" />
      <trkpt lat="46.0455472" lon="11.1139149" />
      <trkpt lat="46.0442469" lon="11.1153379" />
      <trkpt lat="46.0433181" lon="11.1163811" />
      <trkpt lat="46.0432297" lon="11.1164676" />
      <trkpt lat="46.0432798" lon="11.1163641" />
      <trkpt lat="46.0433036" lon="11.1163030" />
      <trkpt lat="46.0433503" lon="11.1161863" />
      <trkpt lat="46.0435372" lon="11.1156241" />
      <trkpt lat="46.0436197" lon="11.1154450" />
      <trkpt lat="46.0437175" lon="11.1152728" />
      <trkpt lat="46.0438922" lon="11.1149788" />
      <trkpt lat="46.0442645" lon="11.1144933" />
      <trkpt lat="46.0443389" lon="11.1144149" />
      <trkpt lat="46.0449057" lon="11.1138181" />
      <trkpt lat="46.0452384" lon="11.1134644" />
      <trkpt lat="46.0453265" lon="11.1134636" />
      <trkpt lat="46.0453593" lon="11.1134848" />
      <trkpt lat="46.0454586" lon="11.1135491" />
      <trkpt lat="46.0455450" lon="11.1135955" />
      <trkpt lat="46.0456200" lon="11.1137326" />
      <trkpt lat="46.0456686" lon="11.1136832" />
      <trkpt lat="46.0456760" lon="11.1136973" />
      <trkpt lat="46.0457021" lon="11.1137444" />
      <trkpt lat="46.0457181" lon="11.1137721" />
      <trkpt lat="46.0461974" lon="11.1146628" />
      <trkpt lat="46.0462358" lon="11.1147210" />
      <trkpt lat="46.0462609" lon="11.1147376" />
      <trkpt lat="46.0462829" lon="11.1147436" />
      <trkpt lat="46.0463033" lon="11.1147440" />
      <trkpt lat="46.0463256" lon="11.1147284" />
      <trkpt lat="46.0463446" lon="11.1147097" />
      <trkpt lat="46.0463607" lon="11.1146905" />
      <trkpt lat="46.0467822" lon="11.1141883" />
      <trkpt lat="46.0469893" lon="11.1139707" />
      <trkpt lat="46.0473730" lon="11.1135677" />
      <trkpt lat="46.0475041" lon="11.1134355" />
      <trkpt lat="46.0479760" lon="11.1129677" />
      <trkpt lat="46.0482136" lon="11.1127078" />
      <trkpt lat="46.0482717" lon="11.1126498" />
      <trkpt lat="46.0487156" lon="11.1122597" />
      <trkpt lat="46.0489282" lon="11.1120906" />
      <trkpt lat="46.0490393" lon="11.1120119" />
      <trkpt lat="46.0491310" lon="11.1119553" />
      <trkpt lat="46.0492911" lon="11.1118579" />
      <trkpt lat="46.0494430" lon="11.1117640" />
      <trkpt lat="46.0497388" lon="11.1116147" />
      <trkpt lat="46.0498440" lon="11.1115711" />
      <trkpt lat="46.0499556" lon="11.1115299" />
      <trkpt lat="46.0501612" lon="11.1114615" />
      <trkpt lat="46.0503693" lon="11.1114034" />
      <trkpt lat="46.0504848" lon="11.1113743" />
      <trkpt lat="46.0505662" lon="11.1113592" />
      <trkpt lat="46.0508706" lon="11.1113332" />
      <trkpt lat="46.0510487" lon="11.1113284" />
      <trkpt lat="46.0512163" lon="11.1113271" />
      <trkpt lat="46.0513744" lon="11.1113342" />
      <trkpt lat="46.0515507" lon="11.1113518" />
      <trkpt lat="46.0517061" lon="11.1113769" />
      <trkpt lat="46.0518477" lon="11.1114067" />
      <trkpt lat="46.0519761" lon="11.1114391" />
      <trkpt lat="46.0523848" lon="11.1115484" />
      <trkpt lat="46.0524853" lon="11.1115736" />
      <trkpt lat="46.0525304" lon="11.1115891" />
      <trkpt lat="46.0525690" lon="11.1116104" />
      <trkpt lat="46.0526609" lon="11.1116835" />
      <trkpt lat="46.0529133" lon="11.1117299" />
      <trkpt lat="46.0531881" lon="11.1117176" />
      <trkpt lat="46.0565239" lon="11.1119557" />
      <trkpt lat="46.0565230" lon="11.1119917" />
      <trkpt lat="46.0565153" lon="11.1123045" />
      <trkpt lat="46.0565143" lon="11.1123293" />
      <trkpt lat="46.0560691" lon="11.1122985" />
      <trkpt lat="46.0560655" lon="11.1124271" />
      <trkpt lat="46.0559674" lon="11.1124240" />
      <trkpt lat="46.0540789" lon="11.1123119" />
      <trkpt lat="46.0535783" lon="11.1122738" />
      <trkpt lat="46.0533484" lon="11.1122291" />
      <trkpt lat="46.0530891" lon="11.1121620" />
      <trkpt lat="46.0529160" lon="11.1121163" />
      <trkpt lat="46.0529289" lon="11.1120208" />
      <trkpt lat="46.0522691" lon="11.1118462" />
      <trkpt lat="46.0520620" lon="11.1117862" />
      <trkpt lat="46.0518752" lon="11.1117325" />
      <trkpt lat="46.0517082" lon="11.1116911" />
      <trkpt lat="46.0515490" lon="11.1116633" />
      <trkpt lat="46.0513542" lon="11.1116453" />
      <trkpt lat="46.0512144" lon="11.1116429" />
      <trkpt lat="46.0512236" lon="11.1117426" />
      <trkpt lat="46.0513276" lon="11.1117503" />
      <trkpt lat="46.0513564" lon="11.1118338" />
      <trkpt lat="46.0513768" lon="11.1119000" />
      <trkpt lat="46.0513916" lon="11.1119803" />
      <trkpt lat="46.0514128" lon="11.1120788" />
      <trkpt lat="46.0514114" lon="11.1123014" />
      <trkpt lat="46.0514042" lon="11.1125886" />
      <trkpt lat="46.0513602" lon="11.1125832" />
      <trkpt lat="46.0513560" lon="11.1126565" />
      <trkpt lat="46.0513405" lon="11.1127533" />
      <trkpt lat="46.0513107" lon="11.1129183" />
      <trkpt lat="46.0512660" lon="11.1130638" />
      <trkpt lat="46.0512457" lon="11.1130923" />
      <trkpt lat="46.0512160" lon="11.1131181" />
      <trkpt lat="46.0511623" lon="11.1131463" />
      <trkpt lat="46.0510864" lon="11.1131821" />
      <trkpt lat="46.0510157" lon="11.1132100" />
      <trkpt lat="46.0509836" lon="11.1132479" />
      <trkpt lat="46.0509562" lon="11.1132808" />
      <trkpt lat="46.0509281" lon="11.1132453" />
      <trkpt lat="46.0508972" lon="11.1132200" />
      <trkpt lat="46.0508785" lon="11.1132097" />
      <trkpt lat="46.0508470" lon="11.1131973" />
      <trkpt lat="46.0507997" lon="11.1131828" />
      <trkpt lat="46.0507341" lon="11.1131680" />
      <trkpt lat="46.0506505" lon="11.1131451" />
      <trkpt lat="46.0505839" lon="11.1131181" />
      <trkpt lat="46.0505001" lon="11.1130798" />
      <trkpt lat="46.0504220" lon="11.1130345" />
      <trkpt lat="46.0503455" lon="11.1129874" />
      <trkpt lat="46.0502752" lon="11.1129303" />
      <trkpt lat="46.0502269" lon="11.1128975" />
      <trkpt lat="46.0501700" lon="11.1128817" />
      <trkpt lat="46.0501384" lon="11.1128689" />
      <trkpt lat="46.0500937" lon="11.1128394" />
      <trkpt lat="46.0500475" lon="11.1128144" />
      <trkpt lat="46.0499969" lon="11.1128179" />
      <trkpt lat="46.0499718" lon="11.1128140" />
      <trkpt lat="46.0499368" lon="11.1127916" />
      <trkpt lat="46.0499032" lon="11.1127589" />
      <trkpt lat="46.0498922" lon="11.1127138" />
      <trkpt lat="46.0498640" lon="11.1126597" />
      <trkpt lat="46.0498155" lon="11.1126349" />
      <trkpt lat="46.0496715" lon="11.1126123" />
      <trkpt lat="46.0494962" lon="11.1126033" />
      <trkpt lat="46.0492817" lon="11.1126258" />
      <trkpt lat="46.0491377" lon="11.1126552" />
      <trkpt lat="46.0490512" lon="11.1126745" />
      <trkpt lat="46.0488198" lon="11.1127659" />
      <trkpt lat="46.0486626" lon="11.1128894" />
      <trkpt lat="46.0483939" lon="11.1130943" />
      <trkpt lat="46.0480746" lon="11.1133285" />
      <trkpt lat="46.0480106" lon="11.1133777" />
      <trkpt lat="46.0480158" lon="11.1133909" />
      <trkpt lat="46.0481032" lon="11.1136142" />
      <trkpt lat="46.0480213" lon="11.1136778" />
      <trkpt lat="46.0479638" lon="11.1137225" />
      <trkpt lat="46.0478701" lon="11.1137952" />
      <trkpt lat="46.0476658" lon="11.1136676" />
      <trkpt lat="46.0476539" lon="11.1136602" />
      <trkpt lat="46.0476152" lon="11.1136151" />
      <trkpt lat="46.0475771" lon="11.1136519" />
      <trkpt lat="46.0474514" lon="11.1138146" />
      <trkpt lat="46.0473903" lon="11.1139030" />
      <trkpt lat="46.0473255" lon="11.1140069" />
      <trkpt lat="46.0472840" lon="11.1141003" />
      <trkpt lat="46.0471893" lon="11.1143676" />
      <trkpt lat="46.0471086" lon="11.1146412" />
      <trkpt lat="46.0470439" lon="11.1149241" />
      <trkpt lat="46.0469689" lon="11.1151836" />
      <trkpt lat="46.0467643" lon="11.1156055" />
      <trkpt lat="46.0465276" lon="11.1159256" />
      <trkpt lat="46.0463543" lon="11.1160808" />
      <trkpt lat="46.0462417" lon="11.1161932" />
      <trkpt lat="46.0460500" lon="11.1163831" />
      <trkpt lat="46.0460249" lon="11.1164080" />
      <trkpt lat="46.0458566" lon="11.1165445" />
      <trkpt lat="46.0457336" lon="11.1166323" />
      <trkpt lat="46.0455543" lon="11.1167537" />
      <trkpt lat="46.0453067" lon="11.1168820" />
      <trkpt lat="46.0450349" lon="11.1169732" />
      <trkpt lat="46.0448542" lon="11.1170258" />
      <trkpt lat="46.0445228" lon="11.1171788" />
      <trkpt lat="46.0444290" lon="11.1172242" />
      <trkpt lat="46.0442362" lon="11.1173594" />
      <trkpt lat="46.0441981" lon="11.1173889" />
      <trkpt lat="46.0439706" lon="11.1175655" />
      <trkpt lat="46.0437128" lon="11.1178452" />
      <trkpt lat="46.0434987" lon="11.1180778" />
      <trkpt lat="46.0434776" lon="11.1181060" />
      <trkpt lat="46.0428308" lon="11.1188267" />
      <trkpt lat="46.0429383" lon="11.1188010" />
      <trkpt lat="46.0427455" lon="11.1190317" />
      <trkpt lat="46.0427335" lon="11.1191163" />
      <trkpt lat="46.0427326" lon="11.1192116" />
      <trkpt lat="46.0427598" lon="11.1192070" />
      <trkpt lat="46.0427895" lon="11.1192594" />
      <trkpt lat="46.0430663" lon="11.1197483" />
      <trkpt lat="46.0433519" lon="11.1202525" />
      <trkpt lat="46.0433985" lon="11.1203370" />
      <trkpt lat="46.0434866" lon="11.1204969" />
      <trkpt lat="46.0434176" lon="11.1226528" />
      <trkpt lat="46.0434357" lon="11.1227243" />
      <trkpt lat="46.0434956" lon="11.1226858" />
      <trkpt lat="46.0445266" lon="11.1218796" />
      <trkpt lat="46.0445864" lon="11.1218361" />
      <trkpt lat="46.0446772" lon="11.1218092" />
      <trkpt lat="46.0446748" lon="11.1218941" />
      <trkpt lat="46.0447145" lon="11.1219096" />
      <trkpt lat="46.0447510" lon="11.1219310" />
      <trkpt lat="46.0447933" lon="11.1219919" />
      <trkpt lat="46.0448787" lon="11.1224321" />
      <trkpt lat="46.0449348" lon="11.1228901" />
      <trkpt lat="46.0450144" lon="11.1236177" />
      <trkpt lat="46.0451703" lon="11.1250238" />
      <trkpt lat="46.0451834" lon="11.1251311" />
      <trkpt lat="46.0452136" lon="11.1252592" />
      <trkpt lat="46.0452529" lon="11.1253548" />
      <trkpt lat="46.0452748" lon="11.1253812" />
      <trkpt lat="46.0452926" lon="11.1253462" />
      <trkpt lat="46.0453715" lon="11.1254044" />
      <trkpt lat="46.0454361" lon="11.1254219" />
      <trkpt lat="46.0455470" lon="11.1253988" />
      <trkpt lat="46.0456218" lon="11.1253537" />
      <trkpt lat="46.0457735" lon="11.1252464" />
      <trkpt lat="46.0461804" lon="11.1249499" />
      <trkpt lat="46.0462766" lon="11.1248857" />
      <trkpt lat="46.0463578" lon="11.1248466" />
      <trkpt lat="46.0464395" lon="11.1248609" />
      <trkpt lat="46.0464899" lon="11.1248852" />
      <trkpt lat="46.0465589" lon="11.1249408" />
      <trkpt lat="46.0466025" lon="11.1249906" />
      <trkpt lat="46.0467129" lon="11.1251980" />
      <trkpt lat="46.0467991" lon="11.1253753" />
      <trkpt lat="46.0468087" lon="11.1253951" />
      <trkpt lat="46.0468542" lon="11.1254845" />
      <trkpt lat="46.0468934" lon="11.1255825" />
      <trkpt lat="46.0469231" lon="11.1256836" />
      <trkpt lat="46.0469337" lon="11.1258014" />
      <trkpt lat="46.0469356" lon="11.1262241" />
      <trkpt lat="46.0469375" lon="11.1266500" />
      <trkpt lat="46.0469424" lon="11.1267390" />
      <trkpt lat="46.0469672" lon="11.1268054" />
      <trkpt lat="46.0470164" lon="11.1268904" />
      <trkpt lat="46.0470836" lon="11.1269791" />
      <trkpt lat="46.0472371" lon="11.1271715" />
      <trkpt lat="46.0472063" lon="11.1272175" />
      <trkpt lat="46.0472225" lon="11.1272432" />
      <trkpt lat="46.0472364" lon="11.1272727" />
      <trkpt lat="46.0472429" lon="11.1273111" />
      <trkpt lat="46.0472388" lon="11.1273630" />
      <trkpt lat="46.0472253" lon="11.1274113" />
      <trkpt lat="46.0472053" lon="11.1274479" />
      <trkpt lat="46.0471860" lon="11.1274733" />
      <trkpt lat="46.0471757" lon="11.1274824" />
      <trkpt lat="46.0470876" lon="11.1275281" />
      <trkpt lat="46.0469827" lon="11.1275712" />
      <trkpt lat="46.0468331" lon="11.1276222" />
      <trkpt lat="46.0467447" lon="11.1276490" />
      <trkpt lat="46.0466007" lon="11.1276772" />
      <trkpt lat="46.0463733" lon="11.1277245" />
      <trkpt lat="46.0460584" lon="11.1277777" />
      <trkpt lat="46.0458108" lon="11.1278260" />
      <trkpt lat="46.0455520" lon="11.1278685" />
      <trkpt lat="46.0455610" lon="11.1279621" />
      <trkpt lat="46.0455702" lon="11.1280472" />
      <trkpt lat="46.0451060" lon="11.1281523" />
      <trkpt lat="46.0449220" lon="11.1281721" />
      <trkpt lat="46.0447231" lon="11.1282492" />
      <trkpt lat="46.0446668" lon="11.1282686" />
      <trkpt lat="46.0445890" lon="11.1282987" />
      <trkpt lat="46.0445768" lon="11.1283029" />
      <trkpt lat="46.0444878" lon="11.1283514" />
      <trkpt lat="46.0444877" lon="11.1284550" />
      <trkpt lat="46.0444876" lon="11.1285021" />
      <trkpt lat="46.0444862" lon="11.1287080" />
      <trkpt lat="46.0444707" lon="11.1287080" />
      <trkpt lat="46.0444689" lon="11.1294234" />
      <trkpt lat="46.0444450" lon="11.1294490" />
      <trkpt lat="46.0444446" lon="11.1300521" />
      <trkpt lat="46.0444459" lon="11.1301526" />
      <trkpt lat="46.0444531" lon="11.1301943" />
      <trkpt lat="46.0444615" lon="11.1302152" />
      <trkpt lat="46.0444722" lon="11.1302332" />
      <trkpt lat="46.0445012" lon="11.1302645" />
      <trkpt lat="46.0445644" lon="11.1302873" />
      <trkpt lat="46.0446605" lon="11.1302873" />
      <trkpt lat="46.0447046" lon="11.1302711" />
      <trkpt lat="46.0447561" lon="11.1302339" />
      <trkpt lat="46.0447990" lon="11.1302346" />
      <trkpt lat="46.0448607" lon="11.1302408" />
      <trkpt lat="46.0449034" lon="11.1302656" />
      <trkpt lat="46.0449404" lon="11.1303124" />
      <trkpt lat="46.0449947" lon="11.1303979" />
      <trkpt lat="46.0450613" lon="11.1304105" />
      <trkpt lat="46.0450958" lon="11.1304311" />
      <trkpt lat="46.0451303" lon="11.1304789" />
      <trkpt lat="46.0451514" lon="11.1305471" />
      <trkpt lat="46.0451634" lon="11.1306685" />
      <trkpt lat="46.0451699" lon="11.1307322" />
      <trkpt lat="46.0451793" lon="11.1307906" />
      <trkpt lat="46.0452281" lon="11.1309088" />
      <trkpt lat="46.0452495" lon="11.1309552" />
      <trkpt lat="46.0453453" lon="11.1309492" />
      <trkpt lat="46.0454804" lon="11.1309507" />
      <trkpt lat="46.0455286" lon="11.1309445" />
      <trkpt lat="46.0456986" lon="11.1309225" />
      <trkpt lat="46.0459489" lon="11.1309254" />
      <trkpt lat="46.0463261" lon="11.1309639" />
      <trkpt lat="46.0464609" lon="11.1309777" />
      <trkpt lat="46.0464590" lon="11.1310253" />
      <trkpt lat="46.0464570" lon="11.1310756" />
      <trkpt lat="46.0478330" lon="11.1311836" />
      <trkpt lat="46.0478542" lon="11.1311924" />
      <trkpt lat="46.0479764" lon="11.1312022" />
      <trkpt lat="46.0480135" lon="11.1312049" />
      <trkpt lat="46.0480198" lon="11.1312054" />
      <trkpt lat="46.0480343" lon="11.1312064" />
      <trkpt lat="46.0480333" lon="11.1312385" />
      <trkpt lat="46.0480328" lon="11.1312564" />
      <trkpt lat="46.0485563" lon="11.1312850" />
      <trkpt lat="46.0485666" lon="11.1312716" />
      <trkpt lat="46.0486569" lon="11.1312755" />
      <trkpt lat="46.0488080" lon="11.1312819" />
      <trkpt lat="46.0488476" lon="11.1312836" />
      <trkpt lat="46.0489393" lon="11.1312960" />
      <trkpt lat="46.0489779" lon="11.1313020" />
      <trkpt lat="46.0490097" lon="11.1313078" />
      <trkpt lat="46.0493784" lon="11.1313403" />
      <trkpt lat="46.0495718" lon="11.1313315" />
      <trkpt lat="46.0496982" lon="11.1312948" />
      <trkpt lat="46.0499368" lon="11.1311997" />
      <trkpt lat="46.0499652" lon="11.1312091" />
      <trkpt lat="46.0499822" lon="11.1312320" />
      <trkpt lat="46.0499847" lon="11.1312371" />
      <trkpt lat="46.0499941" lon="11.1312565" />
      <trkpt lat="46.0500113" lon="11.1312909" />
      <trkpt lat="46.0500575" lon="11.1312880" />
      <trkpt lat="46.0501033" lon="11.1312707" />
      <trkpt lat="46.0501205" lon="11.1313217" />
      <trkpt lat="46.0507402" lon="11.1308803" />
      <trkpt lat="46.0507372" lon="11.1309145" />
      <trkpt lat="46.0507393" lon="11.1309963" />
      <trkpt lat="46.0507491" lon="11.1312071" />
      <trkpt lat="46.0507498" lon="11.1312380" />
      <trkpt lat="46.0507516" lon="11.1313008" />
      <trkpt lat="46.0507599" lon="11.1314683" />
      <trkpt lat="46.0507614" lon="11.1314928" />
      <trkpt lat="46.0507971" lon="11.1314888" />
      <trkpt lat="46.0507999" lon="11.1315682" />
      <trkpt lat="46.0508110" lon="11.1318207" />
      <trkpt lat="46.0508702" lon="11.1318119" />
      <trkpt lat="46.0508755" lon="11.1319209" />
      <trkpt lat="46.0509354" lon="11.1319129" />
      <trkpt lat="46.0510905" lon="11.1318930" />
      <trkpt lat="46.0511018" lon="11.1321005" />
      <trkpt lat="46.0511163" lon="11.1323681" />
      <trkpt lat="46.0511243" lon="11.1325151" />
      <trkpt lat="46.0511338" lon="11.1326916" />
      <trkpt lat="46.0512095" lon="11.1326809" />
      <trkpt lat="46.0512223" lon="11.1329339" />
      <trkpt lat="46.0512332" lon="11.1331502" />
      <trkpt lat="46.0512639" lon="11.1331481" />
      <trkpt lat="46.0512672" lon="11.1332077" />
      <trkpt lat="46.0515487" lon="11.1331698" />
      <trkpt lat="46.0516379" lon="11.1331578" />
      <trkpt lat="46.0517955" lon="11.1331366" />
      <trkpt lat="46.0517667" lon="11.1326819" />
      <trkpt lat="46.0521483" lon="11.1326638" />
      <trkpt lat="46.0521408" lon="11.1324653" />
      <trkpt lat="46.0523797" lon="11.1324502" />
      <trkpt lat="46.0526937" lon="11.1324304" />
      <trkpt lat="46.0533123" lon="11.1323914" />
      <trkpt lat="46.0533163" lon="11.1324654" />
      <trkpt lat="46.0533394" lon="11.1324632" />
      <trkpt lat="46.0540805" lon="11.1323426" />
      <trkpt lat="46.0543302" lon="11.1323020" />
      <trkpt lat="46.0543652" lon="11.1322973" />
      <trkpt lat="46.0544192" lon="11.1322901" />
      <trkpt lat="46.0544589" lon="11.1323204" />
      <trkpt lat="46.0544789" lon="11.1324064" />
      <trkpt lat="46.0544743" lon="11.1326167" />
      <trkpt lat="46.0544229" lon="11.1329596" />
      <trkpt lat="46.0543023" lon="11.1333240" />
      <trkpt lat="46.0542928" lon="11.1333758" />
      <trkpt lat="46.0543459" lon="11.1333520" />
      <trkpt lat="46.0545693" lon="11.1332471" />
      <trkpt lat="46.0546337" lon="11.1332129" />
      <trkpt lat="46.0546989" lon="11.1331766" />
      <trkpt lat="46.0547293" lon="11.1331597" />
      <trkpt lat="46.0547461" lon="11.1331503" />
      <trkpt lat="46.0548477" lon="11.1331214" />
      <trkpt lat="46.0548688" lon="11.1331159" />
      <trkpt lat="46.0549502" lon="11.1330947" />
      <trkpt lat="46.0549925" lon="11.1330776" />
      <trkpt lat="46.0550633" lon="11.1330460" />
      <trkpt lat="46.0551282" lon="11.1329950" />
      <trkpt lat="46.0551952" lon="11.1329224" />
      <trkpt lat="46.0552519" lon="11.1328407" />
      <trkpt lat="46.0553380" lon="11.1326984" />
      <trkpt lat="46.0554786" lon="11.1324660" />
      <trkpt lat="46.0556683" lon="11.1321347" />
      <trkpt lat="46.0557914" lon="11.1319272" />
      <trkpt lat="46.0560734" lon="11.1314594" />
      <trkpt lat="46.0561267" lon="11.1313711" />
      <trkpt lat="46.0561768" lon="11.1312824" />
      <trkpt lat="46.0562235" lon="11.1311931" />
      <trkpt lat="46.0562417" lon="11.1311387" />
      <trkpt lat="46.0562457" lon="11.1310769" />
      <trkpt lat="46.0562418" lon="11.1310576" />
      <trkpt lat="46.0563309" lon="11.1310273" />
      <trkpt lat="46.0563370" lon="11.1310154" />
      <trkpt lat="46.0563500" lon="11.1310002" />
      <trkpt lat="46.0563647" lon="11.1309862" />
      <trkpt lat="46.0563783" lon="11.1309791" />
      <trkpt lat="46.0564027" lon="11.1309732" />
      <trkpt lat="46.0564346" lon="11.1309840" />
      <trkpt lat="46.0565266" lon="11.1307749" />
      <trkpt lat="46.0566386" lon="11.1305901" />
      <trkpt lat="46.0568032" lon="11.1303082" />
      <trkpt lat="46.0570046" lon="11.1299631" />
      <trkpt lat="46.0570681" lon="11.1298544" />
      <trkpt lat="46.0571077" lon="11.1297875" />
      <trkpt lat="46.0571459" lon="11.1297230" />
      <trkpt lat="46.0571856" lon="11.1296561" />
      <trkpt lat="46.0572890" lon="11.1294820" />
      <trkpt lat="46.0573632" lon="11.1293571" />
      <trkpt lat="46.0575784" lon="11.1289973" />
      <trkpt lat="46.0576899" lon="11.1288087" />
      <trkpt lat="46.0577046" lon="11.1287822" />
      <trkpt lat="46.0578879" lon="11.1284808" />
      <trkpt lat="46.0579522" lon="11.1283750" />
      <trkpt lat="46.0579873" lon="11.1283174" />
      <trkpt lat="46.0580131" lon="11.1283510" />
      <trkpt lat="46.0581570" lon="11.1281106" />
      <trkpt lat="46.0582588" lon="11.1279454" />
      <trkpt lat="46.0582812" lon="11.1279055" />
      <trkpt lat="46.0583104" lon="11.1278553" />
      <trkpt lat="46.0583989" lon="11.1277106" />
      <trkpt lat="46.0584963" lon="11.1275867" />
      <trkpt lat="46.0585513" lon="11.1275167" />
      <trkpt lat="46.0586910" lon="11.1273390" />
      <trkpt lat="46.0587038" lon="11.1273300" />
      <trkpt lat="46.0587177" lon="11.1273350" />
      <trkpt lat="46.0587263" lon="11.1273404" />
      <trkpt lat="46.0587374" lon="11.1273493" />
      <trkpt lat="46.0587476" lon="11.1273363" />
      <trkpt lat="46.0587553" lon="11.1273261" />
      <trkpt lat="46.0587940" lon="11.1273741" />
      <trkpt lat="46.0588957" lon="11.1275222" />
      <trkpt lat="46.0588715" lon="11.1275629" />
      <trkpt lat="46.0587754" lon="11.1274216" />
      <trkpt lat="46.0587527" lon="11.1273783" />
      <trkpt lat="46.0587374" lon="11.1273493" />
      <trkpt lat="46.0587476" lon="11.1273363" />
      <trkpt lat="46.0587553" lon="11.1273261" />
      <trkpt lat="46.0587722" lon="11.1273023" />
      <trkpt lat="46.0587537" lon="11.1272716" />
      <trkpt lat="46.0587512" lon="11.1272621" />
      <trkpt lat="46.0587541" lon="11.1272559" />
      <trkpt lat="46.0588891" lon="11.1270924" />
      <trkpt lat="46.0589008" lon="11.1270798" />
      <trkpt lat="46.0589212" lon="11.1270694" />
      <trkpt lat="46.0589412" lon="11.1270785" />
      <trkpt lat="46.0589724" lon="11.1271099" />
      <trkpt lat="46.0589748" lon="11.1271079" />
      <trkpt lat="46.0589783" lon="11.1271051" />
      <trkpt lat="46.0590008" lon="11.1270867" />
      <trkpt lat="46.0590244" lon="11.1271318" />
      <trkpt lat="46.0590349" lon="11.1271380" />
      <trkpt lat="46.0590732" lon="11.1271445" />
      <trkpt lat="46.0591635" lon="11.1273036" />
      <trkpt lat="46.0597850" lon="11.1282180" />
      <trkpt lat="46.0598125" lon="11.1281676" />
      <trkpt lat="46.0598474" lon="11.1281528" />
      <trkpt lat="46.0598806" lon="11.1282058" />
      <trkpt lat="46.0599133" lon="11.1282635" />
      <trkpt lat="46.0603073" lon="11.1278602" />
      <trkpt lat="46.0605869" lon="11.1275984" />
      <trkpt lat="46.0606028" lon="11.1275829" />
      <trkpt lat="46.0606141" lon="11.1275764" />
      <trkpt lat="46.0606250" lon="11.1275754" />
      <trkpt lat="46.0606420" lon="11.1275852" />
      <trkpt lat="46.0606654" lon="11.1276290" />
      <trkpt lat="46.0607787" lon="11.1278523" />
      <trkpt lat="46.0607998" lon="11.1278896" />
      <trkpt lat="46.0608114" lon="11.1279065" />
      <trkpt lat="46.0608183" lon="11.1279172" />
      <trkpt lat="46.0609318" lon="11.1280947" />
      <trkpt lat="46.0610073" lon="11.1281956" />
      <trkpt lat="46.0610219" lon="11.1282159" />
      <trkpt lat="46.0611114" lon="11.1283449" />
      <trkpt lat="46.0611383" lon="11.1283061" />
      <trkpt lat="46.0612460" lon="11.1284667" />
      <trkpt lat="46.0616147" lon="11.1290083" />
      <trkpt lat="46.0616687" lon="11.1289398" />
      <trkpt lat="46.0616992" lon="11.1289956" />
      <trkpt lat="46.0617153" lon="11.1289806" />
      <trkpt lat="46.0617400" lon="11.1289420" />
      <trkpt lat="46.0621856" lon="11.1282792" />
      <trkpt lat="46.0622030" lon="11.1283010" />
      <trkpt lat="46.0622315" lon="11.1283417" />
      <trkpt lat="46.0622724" lon="11.1282722" />
      <trkpt lat="46.0624512" lon="11.1279835" />
      <trkpt lat="46.0625781" lon="11.1278127" />
      <trkpt lat="46.0627420" lon="11.1276271" />
      <trkpt lat="46.0629498" lon="11.1274281" />
      <trkpt lat="46.0630704" lon="11.1273253" />
      <trkpt lat="46.0630826" lon="11.1274160" />
      <trkpt lat="46.0631147" lon="11.1273922" />
      <trkpt lat="46.0631350" lon="11.1273812" />
      <trkpt lat="46.0631828" lon="11.1273634" />
      <trkpt lat="46.0632162" lon="11.1273455" />
      <trkpt lat="46.0632440" lon="11.1273260" />
      <trkpt lat="46.0632780" lon="11.1273019" />
      <trkpt lat="46.0633086" lon="11.1273001" />
      <trkpt lat="46.0633401" lon="11.1273160" />
      <trkpt lat="46.0640806" lon="11.1277168" />
      <trkpt lat="46.0643297" lon="11.1278550" />
      <trkpt lat="46.0643459" lon="11.1277844" />
      <trkpt lat="46.0643624" lon="11.1277123" />
      <trkpt lat="46.0644047" lon="11.1277363" />
      <trkpt lat="46.0647134" lon="11.1258264" />
      <trkpt lat="46.0647192" lon="11.1257905" />
      <trkpt lat="46.0648337" lon="11.1251071" />
      <trkpt lat="46.0648934" lon="11.1247616" />
      <trkpt lat="46.0649069" lon="11.1246865" />
      <trkpt lat="46.0649462" lon="11.1246980" />
      <trkpt lat="46.0653241" lon="11.1248073" />
      <trkpt lat="46.0653182" lon="11.1248697" />
      <trkpt lat="46.0653773" lon="11.1248850" />
      <trkpt lat="46.0654415" lon="11.1249032" />
      <trkpt lat="46.0655194" lon="11.1248566" />
      <trkpt lat="46.0655574" lon="11.1248374" />
      <trkpt lat="46.0656350" lon="11.1248287" />
      <trkpt lat="46.0656446" lon="11.1248534" />
      <trkpt lat="46.0656615" lon="11.1248850" />
      <trkpt lat="46.0656894" lon="11.1248307" />
      <trkpt lat="46.0657009" lon="11.1247688" />
      <trkpt lat="46.0656958" lon="11.1246657" />
      <trkpt lat="46.0656609" lon="11.1239761" />
      <trkpt lat="46.0658911" lon="11.1239464" />
      <trkpt lat="46.0659601" lon="11.1239522" />
      <trkpt lat="46.0660427" lon="11.1240327" />
      <trkpt lat="46.0662062" lon="11.1240774" />
      <trkpt lat="46.0664498" lon="11.1240203" />
      <trkpt lat="46.0663806" lon="11.1234542" />
      <trkpt lat="46.0666735" lon="11.1233841" />
      <trkpt lat="46.0668835" lon="11.1233350" />
      <trkpt lat="46.0668905" lon="11.1233334" />
      <trkpt lat="46.0668986" lon="11.1233290" />
      <trkpt lat="46.0669188" lon="11.1233181" />
      <trkpt lat="46.0669670" lon="11.1232923" />
      <trkpt lat="46.0672635" lon="11.1232024" />
      <trkpt lat="46.0672653" lon="11.1232368" />
      <trkpt lat="46.0672686" lon="11.1232351" />
      <trkpt lat="46.0672810" lon="11.1232291" />
      <trkpt lat="46.0672821" lon="11.1232581" />
      <trkpt lat="46.0672873" lon="11.1232576" />
      <trkpt lat="46.0673011" lon="11.1232564" />
      <trkpt lat="46.0673146" lon="11.1232553" />
      <trkpt lat="46.0673183" lon="11.1232550" />
      <trkpt lat="46.0673371" lon="11.1232534" />
      <trkpt lat="46.0674008" lon="11.1232483" />
      <trkpt lat="46.0674156" lon="11.1232472" />
      <trkpt lat="46.0676659" lon="11.1232331" />
      <trkpt lat="46.0677631" lon="11.1232283" />
      <trkpt lat="46.0678077" lon="11.1232267" />
      <trkpt lat="46.0678084" lon="11.1230699" />
      <trkpt lat="46.0678154" lon="11.1230007" />
      <trkpt lat="46.0679498" lon="11.1229741" />
      <trkpt lat="46.0681832" lon="11.1229244" />
      <trkpt lat="46.0682031" lon="11.1229202" />
      <trkpt lat="46.0681489" lon="11.1225470" />
      <trkpt lat="46.0685802" lon="11.1225918" />
      <trkpt lat="46.0688087" lon="11.1225689" />
      <trkpt lat="46.0690210" lon="11.1225351" />
      <trkpt lat="46.0693306" lon="11.1224874" />
      <trkpt lat="46.0695838" lon="11.1225012" />
      <trkpt lat="46.0698051" lon="11.1225938" />
      <trkpt lat="46.0697220" lon="11.1217857" />
      <trkpt lat="46.0696940" lon="11.1215142" />
      <trkpt lat="46.0696745" lon="11.1212388" />
      <trkpt lat="46.0695156" lon="11.1212370" />
      <trkpt lat="46.0690418" lon="11.1212454" />
      <trkpt lat="46.0688448" lon="11.1212725" />
      <trkpt lat="46.0686466" lon="11.1213081" />
      <trkpt lat="46.0685283" lon="11.1213313" />
      <trkpt lat="46.0680428" lon="11.1214370" />
      <trkpt lat="46.0677939" lon="11.1215354" />
      <trkpt lat="46.0677545" lon="11.1215437" />
      <trkpt lat="46.0677939" lon="11.1215354" />
      <trkpt lat="46.0680428" lon="11.1214370" />
      <trkpt lat="46.0685283" lon="11.1213313" />
      <trkpt lat="46.0686466" lon="11.1213081" />
      <trkpt lat="46.0688448" lon="11.1212725" />
      <trkpt lat="46.0688409" lon="11.1212316" />
      <trkpt lat="46.0688387" lon="11.1211858" />
      <trkpt lat="46.0688365" lon="11.1211527" />
      <trkpt lat="46.0687499" lon="11.1204587" />
      <trkpt lat="46.0687388" lon="11.1203760" />
      <trkpt lat="46.0687020" lon="11.1201725" />
      <trkpt lat="46.0686963" lon="11.1201124" />
      <trkpt lat="46.0686941" lon="11.1200894" />
      <trkpt lat="46.0686922" lon="11.1200685" />
      <trkpt lat="46.0686910" lon="11.1200385" />
      <trkpt lat="46.0685313" lon="11.1200706" />
      <trkpt lat="46.0685273" lon="11.1200042" />
      <trkpt lat="46.0684776" lon="11.1200039" />
      <trkpt lat="46.0684504" lon="11.1200865" />
      <trkpt lat="46.0683846" lon="11.1201435" />
      <trkpt lat="46.0682945" lon="11.1202664" />
      <trkpt lat="46.0681669" lon="11.1204445" />
      <trkpt lat="46.0681018" lon="11.1205393" />
      <trkpt lat="46.0679032" lon="11.1207116" />
      <trkpt lat="46.0678457" lon="11.1207672" />
      <trkpt lat="46.0678148" lon="11.1207864" />
      <trkpt lat="46.0677393" lon="11.1208327" />
      <trkpt lat="46.0676386" lon="11.1208917" />
      <trkpt lat="46.0675759" lon="11.1209222" />
      <trkpt lat="46.0674358" lon="11.1209903" />
      <trkpt lat="46.0673165" lon="11.1210193" />
      <trkpt lat="46.0670745" lon="11.1210291" />
      <trkpt lat="46.0670730" lon="11.1209842" />
      <trkpt lat="46.0670637" lon="11.1207156" />
      <trkpt lat="46.0670289" lon="11.1205458" />
      <trkpt lat="46.0668249" lon="11.1206182" />
      <trkpt lat="46.0668711" lon="11.1210492" />
    </trkseg>
  </trk>
</gpx>
