<?xml version="1.0" encoding="UTF-8"?>
<gpx xmlns="http://www.topografix.com/GPX/1/1" version="1.1" creator="ShapeRoute route-engine">
  <metadata>
    <name>butterfly 15 km · 2026-09-25</name>
    <author>
      <name>ShapeRoute route-engine</name>
    </author>
    <copyright author="OpenStreetMap contributors">
      <license>https://opendatacommons.org/licenses/odbl/1-0/</license>
    </copyright>
    <link href="https://www.openstreetmap.org/copyright">
      <text>© OpenStreetMap contributors</text>
    </link>
    <time>2026-09-25T11:58:12Z</time>
  </metadata>
  <trk>
    <name>butterfly 15 km · 2026-09-25</name>
    <trkseg>
      <trkpt lat="45.4643695" lon="9.1897716" />
      <trkpt lat="45.4644313" lon="9.1898582" />
      <trkpt lat="45.4644741" lon="9.1898729" />
      <trkpt lat="45.4645046" lon="9.1898833" />
      <trkpt lat="45.4645446" lon="9.1898970" />
      <trkpt lat="45.4645546" lon="9.1899005" />
      <trkpt lat="45.4645542" lon="9.1899580" />
      <trkpt lat="45.4645591" lon="9.1899581" />
      <trkpt lat="45.4645591" lon="9.1899739" />
      <trkpt lat="45.4645579" lon="9.1902970" />
      <trkpt lat="45.4645713" lon="9.1903119" />
      <trkpt lat="45.4645796" lon="9.1903211" />
      <trkpt lat="45.4645915" lon="9.1903344" />
      <trkpt lat="45.4645901" lon="9.1904077" />
      <trkpt lat="45.4646642" lon="9.1904112" />
      <trkpt lat="45.4646621" lon="9.1904786" />
      <trkpt lat="45.4647559" lon="9.1906084" />
      <trkpt lat="45.4647643" lon="9.1907699" />
      <trkpt lat="45.4647675" lon="9.1909566" />
      <trkpt lat="45.4647675" lon="9.1909702" />
      <trkpt lat="45.4647676" lon="9.1910589" />
      <trkpt lat="45.4647676" lon="9.1910957" />
      <trkpt lat="45.4647796" lon="9.1910960" />
      <trkpt lat="45.4648194" lon="9.1910982" />
      <trkpt lat="45.4648202" lon="9.1913259" />
      <trkpt lat="45.4648216" lon="9.1913504" />
      <trkpt lat="45.4648223" lon="9.1913551" />
      <trkpt lat="45.4648216" lon="9.1913957" />
      <trkpt lat="45.4649054" lon="9.1913941" />
      <trkpt lat="45.4655513" lon="9.1913005" />
      <trkpt lat="45.4656082" lon="9.1912922" />
      <trkpt lat="45.4658246" lon="9.1912642" />
      <trkpt lat="45.4658327" lon="9.1912632" />
      <trkpt lat="45.4658602" lon="9.1912975" />
      <trkpt lat="45.4658799" lon="9.1913229" />
      <trkpt lat="45.4660943" lon="9.1915975" />
      <trkpt lat="45.4661229" lon="9.1916342" />
      <trkpt lat="45.4661436" lon="9.1916595" />
      <trkpt lat="45.4661492" lon="9.1916663" />
      <trkpt lat="45.4662547" lon="9.1918083" />
      <trkpt lat="45.4663540" lon="9.1919322" />
      <trkpt lat="45.4664660" lon="9.1920669" />
      <trkpt lat="45.4664881" lon="9.1920935" />
      <trkpt lat="45.4663621" lon="9.1923288" />
      <trkpt lat="45.4663518" lon="9.1923467" />
      <trkpt lat="45.4664003" lon="9.1924053" />
      <trkpt lat="45.4666277" lon="9.1926821" />
      <trkpt lat="45.4666641" lon="9.1927099" />
      <trkpt lat="45.4666886" lon="9.1927204" />
      <trkpt lat="45.4667136" lon="9.1927298" />
      <trkpt lat="45.4667404" lon="9.1927311" />
      <trkpt lat="45.4667671" lon="9.1927284" />
      <trkpt lat="45.4667754" lon="9.1927526" />
      <trkpt lat="45.4667960" lon="9.1928131" />
      <trkpt lat="45.4668192" lon="9.1928814" />
      <trkpt lat="45.4668283" lon="9.1929081" />
      <trkpt lat="45.4668332" lon="9.1929110" />
      <trkpt lat="45.4668438" lon="9.1929172" />
      <trkpt lat="45.4668639" lon="9.1929290" />
      <trkpt lat="45.4668653" lon="9.1929260" />
      <trkpt lat="45.4668843" lon="9.1929383" />
      <trkpt lat="45.4670703" lon="9.1930051" />
      <trkpt lat="45.4671843" lon="9.1934572" />
      <trkpt lat="45.4672009" lon="9.1935221" />
      <trkpt lat="45.4672092" lon="9.1935549" />
      <trkpt lat="45.4672134" lon="9.1935712" />
      <trkpt lat="45.4672476" lon="9.1936785" />
      <trkpt lat="45.4672540" lon="9.1936987" />
      <trkpt lat="45.4677025" lon="9.1944664" />
      <trkpt lat="45.4677211" lon="9.1944801" />
      <trkpt lat="45.4677401" lon="9.1944722" />
      <trkpt lat="45.4677436" lon="9.1944771" />
      <trkpt lat="45.4677474" lon="9.1944842" />
      <trkpt lat="45.4677550" lon="9.1945010" />
      <trkpt lat="45.4677559" lon="9.1945177" />
      <trkpt lat="45.4677528" lon="9.1945304" />
      <trkpt lat="45.4677551" lon="9.1945502" />
      <trkpt lat="45.4679060" lon="9.1948023" />
      <trkpt lat="45.4681513" lon="9.1952327" />
      <trkpt lat="45.4679060" lon="9.1948023" />
      <trkpt lat="45.4677551" lon="9.1945502" />
      <trkpt lat="45.4677528" lon="9.1945304" />
      <trkpt lat="45.4677559" lon="9.1945177" />
      <trkpt lat="45.4677550" lon="9.1945010" />
      <trkpt lat="45.4677474" lon="9.1944842" />
      <trkpt lat="45.4677436" lon="9.1944771" />
      <trkpt lat="45.4677401" lon="9.1944722" />
      <trkpt lat="45.4677211" lon="9.1944801" />
      <trkpt lat="45.4677025" lon="9.1944664" />
      <trkpt lat="45.4672540" lon="9.1936987" />
      <trkpt lat="45.4672476" lon="9.1936785" />
      <trkpt lat="45.4672134" lon="9.1935712" />
      <trkpt lat="45.4672092" lon="9.1935549" />
      <trkpt lat="45.4672009" lon="9.1935221" />
      <trkpt lat="45.4671843" lon="9.1934572" />
      <trkpt lat="45.4670703" lon="9.1930051" />
      <trkpt lat="45.4668843" lon="9.1929383" />
      <trkpt lat="45.4668653" lon="9.1929260" />
      <trkpt lat="45.4668639" lon="9.1929290" />
      <trkpt lat="45.4668438" lon="9.1929172" />
      <trkpt lat="45.4668332" lon="9.1929110" />
      <trkpt lat="45.4668283" lon="9.1929081" />
      <trkpt lat="45.4668192" lon="9.1928814" />
      <trkpt lat="45.4667960" lon="9.1928131" />
      <trkpt lat="45.4667754" lon="9.1927526" />
      <trkpt lat="45.4667671" lon="9.1927284" />
      <trkpt lat="45.4667404" lon="9.1927311" />
      <trkpt lat="45.4667136" lon="9.1927298" />
      <trkpt lat="45.4666886" lon="9.1927204" />
      <trkpt lat="45.4666641" lon="9.1927099" />
      <trkpt lat="45.4666277" lon="9.1926821" />
      <trkpt lat="45.4664003" lon="9.1924053" />
      <trkpt lat="45.4663518" lon="9.1923467" />
      <trkpt lat="45.4663621" lon="9.1923288" />
      <trkpt lat="45.4664881" lon="9.1920935" />
      <trkpt lat="45.4664660" lon="9.1920669" />
      <trkpt lat="45.4663540" lon="9.1919322" />
      <trkpt lat="45.4662547" lon="9.1918083" />
      <trkpt lat="45.4661492" lon="9.1916663" />
      <trkpt lat="45.4661436" lon="9.1916595" />
      <trkpt lat="45.4661229" lon="9.1916342" />
      <trkpt lat="45.4660943" lon="9.1915975" />
      <trkpt lat="45.4658799" lon="9.1913229" />
      <trkpt lat="45.4658602" lon="9.1912975" />
      <trkpt lat="45.4658327" lon="9.1912632" />
      <trkpt lat="45.4658246" lon="9.1912642" />
      <trkpt lat="45.4656082" lon="9.1912922" />
      <trkpt lat="45.4655513" lon="9.1913005" />
      <trkpt lat="45.4649054" lon="9.1913941" />
      <trkpt lat="45.4648216" lon="9.1913957" />
      <trkpt lat="45.4647801" lon="9.1913975" />
      <trkpt lat="45.4646793" lon="9.1914006" />
      <trkpt lat="45.4646783" lon="9.1907524" />
      <trkpt lat="45.4646780" lon="9.1905443" />
      <trkpt lat="45.4646839" lon="9.1900289" />
      <trkpt lat="45.4646838" lon="9.1900001" />
      <trkpt lat="45.4646403" lon="9.1899929" />
      <trkpt lat="45.4645483" lon="9.1899914" />
      <trkpt lat="45.4645262" lon="9.1899918" />
      <trkpt lat="45.4644913" lon="9.1900241" />
      <trkpt lat="45.4644264" lon="9.1900245" />
      <trkpt lat="45.4638736" lon="9.1900090" />
      <trkpt lat="45.4638731" lon="9.1900740" />
      <trkpt lat="45.4638729" lon="9.1901285" />
      <trkpt lat="45.4639022" lon="9.1901304" />
      <trkpt lat="45.4639110" lon="9.1901309" />
      <trkpt lat="45.4639105" lon="9.1901614" />
      <trkpt lat="45.4638623" lon="9.1901606" />
      <trkpt lat="45.4638381" lon="9.1901611" />
      <trkpt lat="45.4638372" lon="9.1902606" />
      <trkpt lat="45.4640136" lon="9.1902632" />
      <trkpt lat="45.4643428" lon="9.1902682" />
      <trkpt lat="45.4644591" lon="9.1902695" />
      <trkpt lat="45.4645511" lon="9.1902713" />
      <trkpt lat="45.4646418" lon="9.1902726" />
      <trkpt lat="45.4646465" lon="9.1911206" />
      <trkpt lat="45.4646515" lon="9.1916688" />
      <trkpt lat="45.4646511" lon="9.1923052" />
      <trkpt lat="45.4646508" lon="9.1925911" />
      <trkpt lat="45.4646507" lon="9.1927403" />
      <trkpt lat="45.4645351" lon="9.1927354" />
      <trkpt lat="45.4645357" lon="9.1927628" />
      <trkpt lat="45.4646721" lon="9.1927654" />
      <trkpt lat="45.4647161" lon="9.1929137" />
      <trkpt lat="45.4648346" lon="9.1933799" />
      <trkpt lat="45.4648401" lon="9.1934008" />
      <trkpt lat="45.4648615" lon="9.1934817" />
      <trkpt lat="45.4650079" lon="9.1940222" />
      <trkpt lat="45.4650350" lon="9.1941188" />
      <trkpt lat="45.4651569" lon="9.1945855" />
      <trkpt lat="45.4651731" lon="9.1946401" />
      <trkpt lat="45.4653060" lon="9.1950883" />
      <trkpt lat="45.4654030" lon="9.1954196" />
      <trkpt lat="45.4655249" lon="9.1958359" />
      <trkpt lat="45.4655529" lon="9.1959281" />
      <trkpt lat="45.4655755" lon="9.1960025" />
      <trkpt lat="45.4656181" lon="9.1961466" />
      <trkpt lat="45.4656934" lon="9.1963617" />
      <trkpt lat="45.4657596" lon="9.1965459" />
      <trkpt lat="45.4657694" lon="9.1965733" />
      <trkpt lat="45.4658268" lon="9.1967437" />
      <trkpt lat="45.4658937" lon="9.1969149" />
      <trkpt lat="45.4659713" lon="9.1970729" />
      <trkpt lat="45.4660153" lon="9.1971505" />
      <trkpt lat="45.4660600" lon="9.1972000" />
      <trkpt lat="45.4661097" lon="9.1972278" />
      <trkpt lat="45.4661121" lon="9.1972281" />
      <trkpt lat="45.4661560" lon="9.1972343" />
      <trkpt lat="45.4661716" lon="9.1972365" />
      <trkpt lat="45.4661887" lon="9.1972385" />
      <trkpt lat="45.4662469" lon="9.1972428" />
      <trkpt lat="45.4662561" lon="9.1972435" />
      <trkpt lat="45.4662770" lon="9.1972452" />
      <trkpt lat="45.4665043" lon="9.1972639" />
      <trkpt lat="45.4665018" lon="9.1973077" />
      <trkpt lat="45.4664876" lon="9.1975515" />
      <trkpt lat="45.4664724" lon="9.1978047" />
      <trkpt lat="45.4665073" lon="9.1978089" />
      <trkpt lat="45.4665185" lon="9.1978630" />
      <trkpt lat="45.4665446" lon="9.1978687" />
      <trkpt lat="45.4665723" lon="9.1978715" />
      <trkpt lat="45.4665851" lon="9.1978737" />
      <trkpt lat="45.4666448" lon="9.1978790" />
      <trkpt lat="45.4666661" lon="9.1978801" />
      <trkpt lat="45.4666662" lon="9.1979227" />
      <trkpt lat="45.4666921" lon="9.1979246" />
      <trkpt lat="45.4666979" lon="9.1979251" />
      <trkpt lat="45.4667375" lon="9.1979302" />
      <trkpt lat="45.4667452" lon="9.1979455" />
      <trkpt lat="45.4667587" lon="9.1979475" />
      <trkpt lat="45.4667588" lon="9.1979586" />
      <trkpt lat="45.4667688" lon="9.1990137" />
      <trkpt lat="45.4667707" lon="9.1990714" />
      <trkpt lat="45.4667732" lon="9.1991447" />
      <trkpt lat="45.4667771" lon="9.1991720" />
      <trkpt lat="45.4669188" lon="9.2001636" />
      <trkpt lat="45.4669578" lon="9.2004360" />
      <trkpt lat="45.4669506" lon="9.2004373" />
      <trkpt lat="45.4669343" lon="9.2004338" />
      <trkpt lat="45.4669269" lon="9.2004545" />
      <trkpt lat="45.4669283" lon="9.2004890" />
      <trkpt lat="45.4669304" lon="9.2005031" />
      <trkpt lat="45.4669360" lon="9.2005398" />
      <trkpt lat="45.4669455" lon="9.2006065" />
      <trkpt lat="45.4669494" lon="9.2006286" />
      <trkpt lat="45.4669637" lon="9.2006484" />
      <trkpt lat="45.4669922" lon="9.2006856" />
      <trkpt lat="45.4670361" lon="9.2011309" />
      <trkpt lat="45.4670551" lon="9.2013452" />
      <trkpt lat="45.4670945" lon="9.2017691" />
      <trkpt lat="45.4671241" lon="9.2021394" />
      <trkpt lat="45.4671186" lon="9.2021645" />
      <trkpt lat="45.4671232" lon="9.2021798" />
      <trkpt lat="45.4671319" lon="9.2022175" />
      <trkpt lat="45.4671409" lon="9.2022568" />
      <trkpt lat="45.4671435" lon="9.2022678" />
      <trkpt lat="45.4672857" lon="9.2029638" />
      <trkpt lat="45.4672937" lon="9.2029588" />
      <trkpt lat="45.4673080" lon="9.2029486" />
      <trkpt lat="45.4673334" lon="9.2029343" />
      <trkpt lat="45.4673366" lon="9.2029324" />
      <trkpt lat="45.4675288" lon="9.2040615" />
      <trkpt lat="45.4675730" lon="9.2043086" />
      <trkpt lat="45.4675848" lon="9.2043386" />
      <trkpt lat="45.4675720" lon="9.2043416" />
      <trkpt lat="45.4675677" lon="9.2043434" />
      <trkpt lat="45.4675568" lon="9.2043470" />
      <trkpt lat="45.4675087" lon="9.2043638" />
      <trkpt lat="45.4674520" lon="9.2043836" />
      <trkpt lat="45.4671270" lon="9.2044886" />
      <trkpt lat="45.4665402" lon="9.2046035" />
      <trkpt lat="45.4665423" lon="9.2046361" />
      <trkpt lat="45.4665452" lon="9.2046815" />
      <trkpt lat="45.4665461" lon="9.2046962" />
      <trkpt lat="45.4665516" lon="9.2047834" />
      <trkpt lat="45.4665518" lon="9.2047867" />
      <trkpt lat="45.4665359" lon="9.2047889" />
      <trkpt lat="45.4665664" lon="9.2053016" />
      <trkpt lat="45.4665852" lon="9.2056910" />
      <trkpt lat="45.4665334" lon="9.2056955" />
      <trkpt lat="45.4664964" lon="9.2056987" />
      <trkpt lat="45.4664674" lon="9.2057012" />
      <trkpt lat="45.4664484" lon="9.2057028" />
      <trkpt lat="45.4664516" lon="9.2057462" />
      <trkpt lat="45.4664388" lon="9.2057631" />
      <trkpt lat="45.4657577" lon="9.2058436" />
      <trkpt lat="45.4657209" lon="9.2058488" />
      <trkpt lat="45.4657138" lon="9.2058498" />
      <trkpt lat="45.4656861" lon="9.2058538" />
      <trkpt lat="45.4656583" lon="9.2058578" />
      <trkpt lat="45.4656449" lon="9.2058598" />
      <trkpt lat="45.4656138" lon="9.2058644" />
      <trkpt lat="45.4643283" lon="9.2060649" />
      <trkpt lat="45.4639238" lon="9.2061279" />
      <trkpt lat="45.4638895" lon="9.2061335" />
      <trkpt lat="45.4638750" lon="9.2060899" />
      <trkpt lat="45.4638562" lon="9.2060935" />
      <trkpt lat="45.4638276" lon="9.2060984" />
      <trkpt lat="45.4638134" lon="9.2061007" />
      <trkpt lat="45.4637998" lon="9.2060978" />
      <trkpt lat="45.4633288" lon="9.2061708" />
      <trkpt lat="45.4631379" lon="9.2062067" />
      <trkpt lat="45.4631399" lon="9.2062191" />
      <trkpt lat="45.4631006" lon="9.2062212" />
      <trkpt lat="45.4630791" lon="9.2062224" />
      <trkpt lat="45.4630657" lon="9.2062214" />
      <trkpt lat="45.4630774" lon="9.2063674" />
      <trkpt lat="45.4630717" lon="9.2063866" />
      <trkpt lat="45.4624395" lon="9.2064905" />
      <trkpt lat="45.4624092" lon="9.2064697" />
      <trkpt lat="45.4623826" lon="9.2064750" />
      <trkpt lat="45.4623468" lon="9.2064822" />
      <trkpt lat="45.4623134" lon="9.2064890" />
      <trkpt lat="45.4623062" lon="9.2064904" />
      <trkpt lat="45.4622943" lon="9.2064928" />
      <trkpt lat="45.4622695" lon="9.2064978" />
      <trkpt lat="45.4622533" lon="9.2065010" />
      <trkpt lat="45.4622515" lon="9.2065014" />
      <trkpt lat="45.4622452" lon="9.2065027" />
      <trkpt lat="45.4622136" lon="9.2065090" />
      <trkpt lat="45.4621713" lon="9.2065175" />
      <trkpt lat="45.4621639" lon="9.2065190" />
      <trkpt lat="45.4621911" lon="9.2048160" />
      <trkpt lat="45.4621627" lon="9.2048097" />
      <trkpt lat="45.4620529" lon="9.2047873" />
      <trkpt lat="45.4618059" lon="9.2047448" />
      <trkpt lat="45.4617514" lon="9.2047371" />
      <trkpt lat="45.4617129" lon="9.2047276" />
      <trkpt lat="45.4616683" lon="9.2047023" />
      <trkpt lat="45.4620077" lon="9.2034444" />
      <trkpt lat="45.4619591" lon="9.2033375" />
      <trkpt lat="45.4618945" lon="9.2032567" />
      <trkpt lat="45.4615316" lon="9.2033616" />
      <trkpt lat="45.4614858" lon="9.2033748" />
      <trkpt lat="45.4610455" lon="9.2034645" />
      <trkpt lat="45.4608777" lon="9.2034870" />
      <trkpt lat="45.4601327" lon="9.2035868" />
      <trkpt lat="45.4601268" lon="9.2035059" />
      <trkpt lat="45.4601263" lon="9.2034985" />
      <trkpt lat="45.4601061" lon="9.2035013" />
      <trkpt lat="45.4600586" lon="9.2028075" />
      <trkpt lat="45.4600452" lon="9.2028097" />
      <trkpt lat="45.4600286" lon="9.2028125" />
      <trkpt lat="45.4600218" lon="9.2027056" />
      <trkpt lat="45.4600343" lon="9.2025997" />
      <trkpt lat="45.4600252" lon="9.2023302" />
      <trkpt lat="45.4600110" lon="9.2019276" />
      <trkpt lat="45.4599990" lon="9.2017868" />
      <trkpt lat="45.4599603" lon="9.2013631" />
      <trkpt lat="45.4599408" lon="9.2011647" />
      <trkpt lat="45.4598904" lon="9.2006580" />
      <trkpt lat="45.4598818" lon="9.2005711" />
      <trkpt lat="45.4598574" lon="9.2001459" />
      <trkpt lat="45.4598512" lon="9.2000686" />
      <trkpt lat="45.4598434" lon="9.1999473" />
      <trkpt lat="45.4598190" lon="9.1999498" />
      <trkpt lat="45.4598127" lon="9.1999504" />
      <trkpt lat="45.4597974" lon="9.1996851" />
      <trkpt lat="45.4597487" lon="9.1990536" />
      <trkpt lat="45.4597491" lon="9.1988801" />
      <trkpt lat="45.4597365" lon="9.1987795" />
      <trkpt lat="45.4597110" lon="9.1987494" />
      <trkpt lat="45.4597069" lon="9.1987391" />
      <trkpt lat="45.4597014" lon="9.1987172" />
      <trkpt lat="45.4595559" lon="9.1987407" />
      <trkpt lat="45.4592504" lon="9.1987901" />
      <trkpt lat="45.4591702" lon="9.1988033" />
      <trkpt lat="45.4590463" lon="9.1988206" />
      <trkpt lat="45.4590431" lon="9.1987590" />
      <trkpt lat="45.4590499" lon="9.1987376" />
      <trkpt lat="45.4590416" lon="9.1986257" />
      <trkpt lat="45.4589224" lon="9.1970311" />
      <trkpt lat="45.4589043" lon="9.1968048" />
      <trkpt lat="45.4586074" lon="9.1968475" />
      <trkpt lat="45.4585675" lon="9.1968099" />
      <trkpt lat="45.4585571" lon="9.1966621" />
      <trkpt lat="45.4584837" lon="9.1965882" />
      <trkpt lat="45.4583629" lon="9.1964323" />
      <trkpt lat="45.4582396" lon="9.1963501" />
      <trkpt lat="45.4583141" lon="9.1962803" />
      <trkpt lat="45.4583464" lon="9.1962487" />
      <trkpt lat="45.4583834" lon="9.1961895" />
      <trkpt lat="45.4586292" lon="9.1957045" />
      <trkpt lat="45.4586622" lon="9.1956333" />
      <trkpt lat="45.4589919" lon="9.1949211" />
      <trkpt lat="45.4588002" lon="9.1947347" />
      <trkpt lat="45.4587767" lon="9.1947119" />
      <trkpt lat="45.4587482" lon="9.1946843" />
      <trkpt lat="45.4587201" lon="9.1946571" />
      <trkpt lat="45.4587337" lon="9.1946260" />
      <trkpt lat="45.4585885" lon="9.1944882" />
      <trkpt lat="45.4581021" lon="9.1940228" />
      <trkpt lat="45.4580857" lon="9.1940063" />
      <trkpt lat="45.4578804" lon="9.1937987" />
      <trkpt lat="45.4576896" lon="9.1935977" />
      <trkpt lat="45.4576095" lon="9.1935054" />
      <trkpt lat="45.4575834" lon="9.1934956" />
      <trkpt lat="45.4575620" lon="9.1935233" />
      <trkpt lat="45.4575031" lon="9.1936171" />
      <trkpt lat="45.4570327" lon="9.1943466" />
      <trkpt lat="45.4562855" lon="9.1956213" />
      <trkpt lat="45.4562678" lon="9.1956513" />
      <trkpt lat="45.4562609" lon="9.1956641" />
      <trkpt lat="45.4561505" lon="9.1958823" />
      <trkpt lat="45.4561364" lon="9.1959540" />
      <trkpt lat="45.4561285" lon="9.1959785" />
      <trkpt lat="45.4561188" lon="9.1959975" />
      <trkpt lat="45.4561098" lon="9.1960140" />
      <trkpt lat="45.4561013" lon="9.1960296" />
      <trkpt lat="45.4560744" lon="9.1960790" />
      <trkpt lat="45.4560587" lon="9.1961118" />
      <trkpt lat="45.4560994" lon="9.1961392" />
      <trkpt lat="45.4561405" lon="9.1964001" />
      <trkpt lat="45.4562049" lon="9.1968080" />
      <trkpt lat="45.4563168" lon="9.1975166" />
      <trkpt lat="45.4565299" lon="9.1988653" />
      <trkpt lat="45.4565729" lon="9.1991178" />
      <trkpt lat="45.4565507" lon="9.1991377" />
      <trkpt lat="45.4565171" lon="9.1991468" />
      <trkpt lat="45.4564899" lon="9.1991335" />
      <trkpt lat="45.4562126" lon="9.1992123" />
      <trkpt lat="45.4558602" lon="9.1993091" />
      <trkpt lat="45.4550054" lon="9.1995364" />
      <trkpt lat="45.4549909" lon="9.1995225" />
      <trkpt lat="45.4548883" lon="9.1988002" />
      <trkpt lat="45.4548762" lon="9.1987154" />
      <trkpt lat="45.4547781" lon="9.1980849" />
      <trkpt lat="45.4547210" lon="9.1981751" />
      <trkpt lat="45.4546890" lon="9.1982255" />
      <trkpt lat="45.4546625" lon="9.1982673" />
      <trkpt lat="45.4546535" lon="9.1982816" />
      <trkpt lat="45.4546485" lon="9.1982894" />
      <trkpt lat="45.4540533" lon="9.1992584" />
      <trkpt lat="45.4540418" lon="9.1992782" />
      <trkpt lat="45.4540309" lon="9.1992650" />
      <trkpt lat="45.4540175" lon="9.1992488" />
      <trkpt lat="45.4540101" lon="9.1992399" />
      <trkpt lat="45.4539977" lon="9.1992249" />
      <trkpt lat="45.4539635" lon="9.1991838" />
      <trkpt lat="45.4539576" lon="9.1991768" />
      <trkpt lat="45.4539918" lon="9.1991246" />
      <trkpt lat="45.4540707" lon="9.1989921" />
      <trkpt lat="45.4543253" lon="9.1985653" />
      <trkpt lat="45.4543653" lon="9.1984940" />
      <trkpt lat="45.4544782" lon="9.1983081" />
      <trkpt lat="45.4545606" lon="9.1981726" />
      <trkpt lat="45.4545660" lon="9.1981798" />
      <trkpt lat="45.4546088" lon="9.1982365" />
      <trkpt lat="45.4546199" lon="9.1982511" />
      <trkpt lat="45.4546281" lon="9.1982622" />
      <trkpt lat="45.4546395" lon="9.1982774" />
      <trkpt lat="45.4546485" lon="9.1982894" />
      <trkpt lat="45.4546535" lon="9.1982816" />
      <trkpt lat="45.4546853" lon="9.1982937" />
      <trkpt lat="45.4547385" lon="9.1984149" />
      <trkpt lat="45.4548476" lon="9.1987855" />
      <trkpt lat="45.4549507" lon="9.1995342" />
      <trkpt lat="45.4549874" lon="9.1998009" />
      <trkpt lat="45.4550223" lon="9.2000468" />
      <trkpt lat="45.4550711" lon="9.2003897" />
      <trkpt lat="45.4551520" lon="9.2009492" />
      <trkpt lat="45.4551925" lon="9.2012453" />
      <trkpt lat="45.4552288" lon="9.2015136" />
      <trkpt lat="45.4552797" lon="9.2018619" />
      <trkpt lat="45.4552846" lon="9.2018954" />
      <trkpt lat="45.4552907" lon="9.2019312" />
      <trkpt lat="45.4553232" lon="9.2021978" />
      <trkpt lat="45.4553272" lon="9.2022171" />
      <trkpt lat="45.4553857" lon="9.2026320" />
      <trkpt lat="45.4553782" lon="9.2026418" />
      <trkpt lat="45.4548633" lon="9.2028021" />
      <trkpt lat="45.4548346" lon="9.2027970" />
      <trkpt lat="45.4544151" lon="9.2025524" />
      <trkpt lat="45.4541215" lon="9.2023812" />
      <trkpt lat="45.4540475" lon="9.2023380" />
      <trkpt lat="45.4540202" lon="9.2023252" />
      <trkpt lat="45.4539692" lon="9.2023012" />
      <trkpt lat="45.4538981" lon="9.2022678" />
      <trkpt lat="45.4538728" lon="9.2022559" />
      <trkpt lat="45.4537127" lon="9.2022103" />
      <trkpt lat="45.4528926" lon="9.2020271" />
      <trkpt lat="45.4527917" lon="9.2019887" />
      <trkpt lat="45.4526678" lon="9.2019173" />
      <trkpt lat="45.4525892" lon="9.2018280" />
      <trkpt lat="45.4525494" lon="9.2017712" />
      <trkpt lat="45.4525406" lon="9.2017362" />
      <trkpt lat="45.4525320" lon="9.2017246" />
      <trkpt lat="45.4525104" lon="9.2016955" />
      <trkpt lat="45.4525023" lon="9.2016846" />
      <trkpt lat="45.4524913" lon="9.2016698" />
      <trkpt lat="45.4524610" lon="9.2016290" />
      <trkpt lat="45.4524492" lon="9.2016131" />
      <trkpt lat="45.4524268" lon="9.2016445" />
      <trkpt lat="45.4523947" lon="9.2016123" />
      <trkpt lat="45.4523687" lon="9.2016244" />
      <trkpt lat="45.4523250" lon="9.2016450" />
      <trkpt lat="45.4522883" lon="9.2016625" />
      <trkpt lat="45.4522399" lon="9.2017029" />
      <trkpt lat="45.4522028" lon="9.2017306" />
      <trkpt lat="45.4521794" lon="9.2017526" />
      <trkpt lat="45.4521503" lon="9.2017765" />
      <trkpt lat="45.4521294" lon="9.2017937" />
      <trkpt lat="45.4520981" lon="9.2018194" />
      <trkpt lat="45.4520865" lon="9.2018276" />
      <trkpt lat="45.4520752" lon="9.2018807" />
      <trkpt lat="45.4520442" lon="9.2019940" />
      <trkpt lat="45.4519473" lon="9.2023370" />
      <trkpt lat="45.4518884" lon="9.2023872" />
      <trkpt lat="45.4512852" lon="9.2022621" />
      <trkpt lat="45.4512041" lon="9.2022350" />
      <trkpt lat="45.4511818" lon="9.2022215" />
      <trkpt lat="45.4511244" lon="9.2021438" />
      <trkpt lat="45.4511133" lon="9.2021516" />
      <trkpt lat="45.4510796" lon="9.2021879" />
      <trkpt lat="45.4510716" lon="9.2021954" />
      <trkpt lat="45.4510579" lon="9.2022082" />
      <trkpt lat="45.4510062" lon="9.2022535" />
      <trkpt lat="45.4509962" lon="9.2022656" />
      <trkpt lat="45.4509940" lon="9.2023594" />
      <trkpt lat="45.4502366" lon="9.2024369" />
      <trkpt lat="45.4502289" lon="9.2024373" />
      <trkpt lat="45.4501885" lon="9.2024396" />
      <trkpt lat="45.4501268" lon="9.2024431" />
      <trkpt lat="45.4501101" lon="9.2024436" />
      <trkpt lat="45.4500976" lon="9.2024700" />
      <trkpt lat="45.4498436" lon="9.2024900" />
      <trkpt lat="45.4495454" lon="9.2025135" />
      <trkpt lat="45.4489869" lon="9.2025575" />
      <trkpt lat="45.4489249" lon="9.2025640" />
      <trkpt lat="45.4489238" lon="9.2025369" />
      <trkpt lat="45.4488680" lon="9.2025222" />
      <trkpt lat="45.4488523" lon="9.2025105" />
      <trkpt lat="45.4487957" lon="9.2024683" />
      <trkpt lat="45.4487478" lon="9.2024327" />
      <trkpt lat="45.4487222" lon="9.2024136" />
      <trkpt lat="45.4486793" lon="9.2023906" />
      <trkpt lat="45.4486524" lon="9.2016952" />
      <trkpt lat="45.4486269" lon="9.2009277" />
      <trkpt lat="45.4486054" lon="9.2002832" />
      <trkpt lat="45.4486002" lon="9.2001257" />
      <trkpt lat="45.4478599" lon="9.2001742" />
      <trkpt lat="45.4478595" lon="9.2001639" />
      <trkpt lat="45.4478570" lon="9.2001080" />
      <trkpt lat="45.4478554" lon="9.2000698" />
      <trkpt lat="45.4478548" lon="9.2000558" />
      <trkpt lat="45.4478490" lon="9.1998938" />
      <trkpt lat="45.4478500" lon="9.1998093" />
      <trkpt lat="45.4478669" lon="9.1997235" />
      <trkpt lat="45.4480861" lon="9.1992119" />
      <trkpt lat="45.4480513" lon="9.1991818" />
      <trkpt lat="45.4480065" lon="9.1991430" />
      <trkpt lat="45.4479523" lon="9.1990962" />
      <trkpt lat="45.4479229" lon="9.1990708" />
      <trkpt lat="45.4479108" lon="9.1990922" />
      <trkpt lat="45.4478149" lon="9.1990400" />
      <trkpt lat="45.4477527" lon="9.1979432" />
      <trkpt lat="45.4478154" lon="9.1978219" />
      <trkpt lat="45.4477774" lon="9.1977846" />
      <trkpt lat="45.4478214" lon="9.1977119" />
      <trkpt lat="45.4478360" lon="9.1976878" />
      <trkpt lat="45.4478501" lon="9.1976644" />
      <trkpt lat="45.4478329" lon="9.1976524" />
      <trkpt lat="45.4477359" lon="9.1975845" />
      <trkpt lat="45.4476867" lon="9.1975500" />
      <trkpt lat="45.4476836" lon="9.1974874" />
      <trkpt lat="45.4476485" lon="9.1967855" />
      <trkpt lat="45.4476208" lon="9.1961077" />
      <trkpt lat="45.4475919" lon="9.1961094" />
      <trkpt lat="45.4475783" lon="9.1961102" />
      <trkpt lat="45.4475682" lon="9.1960881" />
      <trkpt lat="45.4475674" lon="9.1960699" />
      <trkpt lat="45.4475645" lon="9.1959958" />
      <trkpt lat="45.4475626" lon="9.1959506" />
      <trkpt lat="45.4475618" lon="9.1959298" />
      <trkpt lat="45.4475702" lon="9.1959099" />
      <trkpt lat="45.4475821" lon="9.1959091" />
      <trkpt lat="45.4476125" lon="9.1959072" />
      <trkpt lat="45.4476573" lon="9.1959044" />
      <trkpt lat="45.4476754" lon="9.1959033" />
      <trkpt lat="45.4476159" lon="9.1945495" />
      <trkpt lat="45.4476520" lon="9.1945459" />
      <trkpt lat="45.4476498" lon="9.1945159" />
      <trkpt lat="45.4476460" lon="9.1944720" />
      <trkpt lat="45.4476432" lon="9.1944260" />
      <trkpt lat="45.4476392" lon="9.1943708" />
      <trkpt lat="45.4476346" lon="9.1943074" />
      <trkpt lat="45.4476316" lon="9.1942624" />
      <trkpt lat="45.4476286" lon="9.1942246" />
      <trkpt lat="45.4476265" lon="9.1941960" />
      <trkpt lat="45.4475523" lon="9.1942023" />
      <trkpt lat="45.4475655" lon="9.1940844" />
      <trkpt lat="45.4475969" lon="9.1938292" />
      <trkpt lat="45.4476435" lon="9.1935534" />
      <trkpt lat="45.4476761" lon="9.1933484" />
      <trkpt lat="45.4477145" lon="9.1931087" />
      <trkpt lat="45.4477418" lon="9.1929170" />
      <trkpt lat="45.4477526" lon="9.1927754" />
      <trkpt lat="45.4477511" lon="9.1926229" />
      <trkpt lat="45.4477461" lon="9.1924335" />
      <trkpt lat="45.4477241" lon="9.1922617" />
      <trkpt lat="45.4478341" lon="9.1921688" />
      <trkpt lat="45.4481130" lon="9.1919853" />
      <trkpt lat="45.4483332" lon="9.1918816" />
      <trkpt lat="45.4483267" lon="9.1916501" />
      <trkpt lat="45.4484208" lon="9.1916391" />
      <trkpt lat="45.4484008" lon="9.1907380" />
      <trkpt lat="45.4484974" lon="9.1907328" />
      <trkpt lat="45.4490213" lon="9.1906931" />
      <trkpt lat="45.4490440" lon="9.1906914" />
      <trkpt lat="45.4490674" lon="9.1906895" />
      <trkpt lat="45.4491032" lon="9.1906870" />
      <trkpt lat="45.4491201" lon="9.1906857" />
      <trkpt lat="45.4491032" lon="9.1906870" />
      <trkpt lat="45.4490674" lon="9.1906895" />
      <trkpt lat="45.4490440" lon="9.1906914" />
      <trkpt lat="45.4490213" lon="9.1906931" />
      <trkpt lat="45.4484974" lon="9.1907328" />
      <trkpt lat="45.4484961" lon="9.1906921" />
      <trkpt lat="45.4484933" lon="9.1906009" />
      <trkpt lat="45.4485327" lon="9.1905986" />
      <trkpt lat="45.4485612" lon="9.1905970" />
      <trkpt lat="45.4490400" lon="9.1905568" />
      <trkpt lat="45.4490615" lon="9.1905550" />
      <trkpt lat="45.4494788" lon="9.1905164" />
      <trkpt lat="45.4494712" lon="9.1903746" />
      <trkpt lat="45.4494696" lon="9.1903256" />
      <trkpt lat="45.4494678" lon="9.1902883" />
      <trkpt lat="45.4494615" lon="9.1901621" />
      <trkpt lat="45.4494078" lon="9.1890628" />
      <trkpt lat="45.4493915" lon="9.1890763" />
      <trkpt lat="45.4493535" lon="9.1891079" />
      <trkpt lat="45.4493207" lon="9.1891132" />
      <trkpt lat="45.4493051" lon="9.1891158" />
      <trkpt lat="45.4492828" lon="9.1891194" />
      <trkpt lat="45.4492220" lon="9.1891054" />
      <trkpt lat="45.4491739" lon="9.1890322" />
      <trkpt lat="45.4491483" lon="9.1889584" />
      <trkpt lat="45.4491413" lon="9.1889096" />
      <trkpt lat="45.4491294" lon="9.1887659" />
      <trkpt lat="45.4490824" lon="9.1881981" />
      <trkpt lat="45.4490659" lon="9.1879982" />
      <trkpt lat="45.4490629" lon="9.1879685" />
      <trkpt lat="45.4490578" lon="9.1879171" />
      <trkpt lat="45.4490425" lon="9.1877456" />
      <trkpt lat="45.4490020" lon="9.1877532" />
      <trkpt lat="45.4489135" lon="9.1867845" />
      <trkpt lat="45.4489103" lon="9.1867496" />
      <trkpt lat="45.4488615" lon="9.1866618" />
      <trkpt lat="45.4487599" lon="9.1865525" />
      <trkpt lat="45.4486823" lon="9.1865026" />
      <trkpt lat="45.4486427" lon="9.1864989" />
      <trkpt lat="45.4486331" lon="9.1864532" />
      <trkpt lat="45.4486156" lon="9.1863701" />
      <trkpt lat="45.4486041" lon="9.1863154" />
      <trkpt lat="45.4485812" lon="9.1862066" />
      <trkpt lat="45.4485665" lon="9.1861368" />
      <trkpt lat="45.4485535" lon="9.1860750" />
      <trkpt lat="45.4485361" lon="9.1859921" />
      <trkpt lat="45.4481583" lon="9.1861398" />
      <trkpt lat="45.4480507" lon="9.1861819" />
      <trkpt lat="45.4480091" lon="9.1861981" />
      <trkpt lat="45.4479704" lon="9.1861103" />
      <trkpt lat="45.4479646" lon="9.1860347" />
      <trkpt lat="45.4479384" lon="9.1856945" />
      <trkpt lat="45.4479324" lon="9.1856182" />
      <trkpt lat="45.4479263" lon="9.1855400" />
      <trkpt lat="45.4479243" lon="9.1855117" />
      <trkpt lat="45.4479179" lon="9.1854267" />
      <trkpt lat="45.4479095" lon="9.1853378" />
      <trkpt lat="45.4479057" lon="9.1852969" />
      <trkpt lat="45.4479002" lon="9.1852382" />
      <trkpt lat="45.4478958" lon="9.1851982" />
      <trkpt lat="45.4476780" lon="9.1829921" />
      <trkpt lat="45.4476687" lon="9.1828966" />
      <trkpt lat="45.4475864" lon="9.1820379" />
      <trkpt lat="45.4475759" lon="9.1819258" />
      <trkpt lat="45.4475689" lon="9.1818532" />
      <trkpt lat="45.4476583" lon="9.1818352" />
      <trkpt lat="45.4476792" lon="9.1818167" />
      <trkpt lat="45.4474711" lon="9.1796501" />
      <trkpt lat="45.4474902" lon="9.1796125" />
      <trkpt lat="45.4474908" lon="9.1795971" />
      <trkpt lat="45.4474923" lon="9.1795736" />
      <trkpt lat="45.4474937" lon="9.1795542" />
      <trkpt lat="45.4475318" lon="9.1795583" />
      <trkpt lat="45.4486148" lon="9.1796738" />
      <trkpt lat="45.4487754" lon="9.1796909" />
      <trkpt lat="45.4488334" lon="9.1796970" />
      <trkpt lat="45.4489188" lon="9.1797108" />
      <trkpt lat="45.4489197" lon="9.1796916" />
      <trkpt lat="45.4489216" lon="9.1796536" />
      <trkpt lat="45.4489225" lon="9.1796343" />
      <trkpt lat="45.4491270" lon="9.1796628" />
      <trkpt lat="45.4494522" lon="9.1797162" />
      <trkpt lat="45.4494986" lon="9.1797251" />
      <trkpt lat="45.4497406" lon="9.1797712" />
      <trkpt lat="45.4499698" lon="9.1797997" />
      <trkpt lat="45.4501299" lon="9.1798177" />
      <trkpt lat="45.4501979" lon="9.1798258" />
      <trkpt lat="45.4503016" lon="9.1798382" />
      <trkpt lat="45.4504545" lon="9.1798584" />
      <trkpt lat="45.4506296" lon="9.1798812" />
      <trkpt lat="45.4510704" lon="9.1799301" />
      <trkpt lat="45.4515701" lon="9.1799918" />
      <trkpt lat="45.4519364" lon="9.1800370" />
      <trkpt lat="45.4519769" lon="9.1800146" />
      <trkpt lat="45.4519854" lon="9.1800142" />
      <trkpt lat="45.4520214" lon="9.1800127" />
      <trkpt lat="45.4520490" lon="9.1800118" />
      <trkpt lat="45.4520686" lon="9.1800106" />
      <trkpt lat="45.4520900" lon="9.1800099" />
      <trkpt lat="45.4521120" lon="9.1800101" />
      <trkpt lat="45.4521170" lon="9.1800087" />
      <trkpt lat="45.4521167" lon="9.1800604" />
      <trkpt lat="45.4521557" lon="9.1800688" />
      <trkpt lat="45.4521881" lon="9.1800546" />
      <trkpt lat="45.4522090" lon="9.1800378" />
      <trkpt lat="45.4522318" lon="9.1800176" />
      <trkpt lat="45.4522598" lon="9.1799960" />
      <trkpt lat="45.4522837" lon="9.1799650" />
      <trkpt lat="45.4522960" lon="9.1799596" />
      <trkpt lat="45.4523143" lon="9.1799625" />
      <trkpt lat="45.4523240" lon="9.1799629" />
      <trkpt lat="45.4523306" lon="9.1799625" />
      <trkpt lat="45.4523387" lon="9.1799621" />
      <trkpt lat="45.4523444" lon="9.1799621" />
      <trkpt lat="45.4523586" lon="9.1799610" />
      <trkpt lat="45.4523651" lon="9.1799600" />
      <trkpt lat="45.4523700" lon="9.1799595" />
      <trkpt lat="45.4523854" lon="9.1799606" />
      <trkpt lat="45.4523975" lon="9.1799616" />
      <trkpt lat="45.4524081" lon="9.1799653" />
      <trkpt lat="45.4524271" lon="9.1799683" />
      <trkpt lat="45.4524263" lon="9.1799803" />
      <trkpt lat="45.4524256" lon="9.1799929" />
      <trkpt lat="45.4525965" lon="9.1800195" />
      <trkpt lat="45.4526242" lon="9.1800290" />
      <trkpt lat="45.4526627" lon="9.1800662" />
      <trkpt lat="45.4527131" lon="9.1801199" />
      <trkpt lat="45.4527674" lon="9.1801667" />
      <trkpt lat="45.4528024" lon="9.1801836" />
      <trkpt lat="45.4528744" lon="9.1802144" />
      <trkpt lat="45.4529319" lon="9.1802288" />
      <trkpt lat="45.4529417" lon="9.1802312" />
      <trkpt lat="45.4529727" lon="9.1802695" />
      <trkpt lat="45.4529881" lon="9.1802886" />
      <trkpt lat="45.4530678" lon="9.1802998" />
      <trkpt lat="45.4531496" lon="9.1803114" />
      <trkpt lat="45.4532851" lon="9.1803318" />
      <trkpt lat="45.4532898" lon="9.1803519" />
      <trkpt lat="45.4532978" lon="9.1803863" />
      <trkpt lat="45.4533104" lon="9.1804415" />
      <trkpt lat="45.4533293" lon="9.1805104" />
      <trkpt lat="45.4534828" lon="9.1811021" />
      <trkpt lat="45.4534945" lon="9.1811412" />
      <trkpt lat="45.4535265" lon="9.1812578" />
      <trkpt lat="45.4536751" lon="9.1817634" />
      <trkpt lat="45.4537704" lon="9.1819223" />
      <trkpt lat="45.4538620" lon="9.1820751" />
      <trkpt lat="45.4541199" lon="9.1825050" />
      <trkpt lat="45.4543489" lon="9.1827078" />
      <trkpt lat="45.4548868" lon="9.1831837" />
      <trkpt lat="45.4549860" lon="9.1832593" />
      <trkpt lat="45.4554052" lon="9.1835786" />
      <trkpt lat="45.4554175" lon="9.1835914" />
      <trkpt lat="45.4554748" lon="9.1835995" />
      <trkpt lat="45.4554740" lon="9.1835701" />
      <trkpt lat="45.4555007" lon="9.1835931" />
      <trkpt lat="45.4555194" lon="9.1836272" />
      <trkpt lat="45.4555245" lon="9.1836455" />
      <trkpt lat="45.4555423" lon="9.1836702" />
      <trkpt lat="45.4555377" lon="9.1837378" />
      <trkpt lat="45.4555350" lon="9.1837917" />
      <trkpt lat="45.4555343" lon="9.1838052" />
      <trkpt lat="45.4555109" lon="9.1841186" />
      <trkpt lat="45.4555088" lon="9.1841419" />
      <trkpt lat="45.4555059" lon="9.1841745" />
      <trkpt lat="45.4554999" lon="9.1842411" />
      <trkpt lat="45.4554994" lon="9.1842463" />
      <trkpt lat="45.4556111" lon="9.1842479" />
      <trkpt lat="45.4556416" lon="9.1842711" />
      <trkpt lat="45.4558733" lon="9.1844668" />
      <trkpt lat="45.4563831" lon="9.1848734" />
      <trkpt lat="45.4563881" lon="9.1848774" />
      <trkpt lat="45.4562919" lon="9.1854876" />
      <trkpt lat="45.4563095" lon="9.1854939" />
      <trkpt lat="45.4563590" lon="9.1855124" />
      <trkpt lat="45.4563931" lon="9.1855241" />
      <trkpt lat="45.4564068" lon="9.1855290" />
      <trkpt lat="45.4564148" lon="9.1855319" />
      <trkpt lat="45.4562187" lon="9.1866656" />
      <trkpt lat="45.4564148" lon="9.1855319" />
      <trkpt lat="45.4564068" lon="9.1855290" />
      <trkpt lat="45.4563931" lon="9.1855241" />
      <trkpt lat="45.4563590" lon="9.1855124" />
      <trkpt lat="45.4563095" lon="9.1854939" />
      <trkpt lat="45.4562919" lon="9.1854876" />
      <trkpt lat="45.4563881" lon="9.1848774" />
      <trkpt lat="45.4563831" lon="9.1848734" />
      <trkpt lat="45.4563984" lon="9.1848099" />
      <trkpt lat="45.4564051" lon="9.1847814" />
      <trkpt lat="45.4564217" lon="9.1847107" />
      <trkpt lat="45.4564223" lon="9.1847080" />
      <trkpt lat="45.4564307" lon="9.1846725" />
      <trkpt lat="45.4565368" lon="9.1841775" />
      <trkpt lat="45.4565583" lon="9.1841887" />
      <trkpt lat="45.4566202" lon="9.1842211" />
      <trkpt lat="45.4567642" lon="9.1836177" />
      <trkpt lat="45.4567873" lon="9.1835159" />
      <trkpt lat="45.4568668" lon="9.1831239" />
      <trkpt lat="45.4568772" lon="9.1830756" />
      <trkpt lat="45.4568926" lon="9.1829915" />
      <trkpt lat="45.4569232" lon="9.1828010" />
      <trkpt lat="45.4569312" lon="9.1827666" />
      <trkpt lat="45.4569375" lon="9.1827420" />
      <trkpt lat="45.4570875" lon="9.1821113" />
      <trkpt lat="45.4571343" lon="9.1819118" />
      <trkpt lat="45.4572906" lon="9.1813461" />
      <trkpt lat="45.4573446" lon="9.1811358" />
      <trkpt lat="45.4573770" lon="9.1810213" />
      <trkpt lat="45.4573964" lon="9.1809470" />
      <trkpt lat="45.4573996" lon="9.1809352" />
      <trkpt lat="45.4574259" lon="9.1808375" />
      <trkpt lat="45.4574458" lon="9.1807560" />
      <trkpt lat="45.4574816" lon="9.1806425" />
      <trkpt lat="45.4575147" lon="9.1805376" />
      <trkpt lat="45.4575587" lon="9.1803981" />
      <trkpt lat="45.4578943" lon="9.1796695" />
      <trkpt lat="45.4579489" lon="9.1795525" />
      <trkpt lat="45.4580060" lon="9.1794464" />
      <trkpt lat="45.4584494" lon="9.1784443" />
      <trkpt lat="45.4585071" lon="9.1783094" />
      <trkpt lat="45.4585311" lon="9.1782599" />
      <trkpt lat="45.4586150" lon="9.1780976" />
      <trkpt lat="45.4586278" lon="9.1780729" />
      <trkpt lat="45.4586988" lon="9.1779189" />
      <trkpt lat="45.4587596" lon="9.1778074" />
      <trkpt lat="45.4587716" lon="9.1777841" />
      <trkpt lat="45.4587760" lon="9.1777758" />
      <trkpt lat="45.4588107" lon="9.1776896" />
      <trkpt lat="45.4589222" lon="9.1774876" />
      <trkpt lat="45.4590100" lon="9.1773370" />
      <trkpt lat="45.4592874" lon="9.1768643" />
      <trkpt lat="45.4594351" lon="9.1766134" />
      <trkpt lat="45.4596893" lon="9.1761816" />
      <trkpt lat="45.4597335" lon="9.1761113" />
      <trkpt lat="45.4603443" lon="9.1751278" />
      <trkpt lat="45.4603875" lon="9.1750674" />
      <trkpt lat="45.4605267" lon="9.1748675" />
      <trkpt lat="45.4608960" lon="9.1743407" />
      <trkpt lat="45.4610033" lon="9.1741877" />
      <trkpt lat="45.4610476" lon="9.1741238" />
      <trkpt lat="45.4611827" lon="9.1739444" />
      <trkpt lat="45.4614679" lon="9.1735657" />
      <trkpt lat="45.4615221" lon="9.1734982" />
      <trkpt lat="45.4615583" lon="9.1735525" />
      <trkpt lat="45.4615725" lon="9.1735761" />
      <trkpt lat="45.4616269" lon="9.1735401" />
      <trkpt lat="45.4617496" lon="9.1735616" />
      <trkpt lat="45.4617427" lon="9.1735370" />
      <trkpt lat="45.4617257" lon="9.1735353" />
      <trkpt lat="45.4616657" lon="9.1735274" />
      <trkpt lat="45.4616438" lon="9.1735248" />
      <trkpt lat="45.4616231" lon="9.1735227" />
      <trkpt lat="45.4615967" lon="9.1735208" />
      <trkpt lat="45.4616064" lon="9.1732435" />
      <trkpt lat="45.4616429" lon="9.1731717" />
      <trkpt lat="45.4616898" lon="9.1730792" />
      <trkpt lat="45.4617069" lon="9.1730968" />
      <trkpt lat="45.4617644" lon="9.1731561" />
      <trkpt lat="45.4617749" lon="9.1731678" />
      <trkpt lat="45.4618304" lon="9.1732286" />
      <trkpt lat="45.4618487" lon="9.1732479" />
      <trkpt lat="45.4618418" lon="9.1732619" />
      <trkpt lat="45.4618312" lon="9.1732823" />
      <trkpt lat="45.4619130" lon="9.1733742" />
      <trkpt lat="45.4619476" lon="9.1733995" />
      <trkpt lat="45.4620874" lon="9.1734392" />
      <trkpt lat="45.4623276" lon="9.1735057" />
      <trkpt lat="45.4623865" lon="9.1735392" />
      <trkpt lat="45.4624144" lon="9.1735538" />
      <trkpt lat="45.4624455" lon="9.1735710" />
      <trkpt lat="45.4627739" lon="9.1724918" />
      <trkpt lat="45.4628014" lon="9.1723976" />
      <trkpt lat="45.4642511" lon="9.1732456" />
      <trkpt lat="45.4642623" lon="9.1732520" />
      <trkpt lat="45.4642958" lon="9.1732714" />
      <trkpt lat="45.4643299" lon="9.1732824" />
      <trkpt lat="45.4643393" lon="9.1732887" />
      <trkpt lat="45.4647940" lon="9.1735552" />
      <trkpt lat="45.4648205" lon="9.1735712" />
      <trkpt lat="45.4648376" lon="9.1735815" />
      <trkpt lat="45.4648732" lon="9.1736030" />
      <trkpt lat="45.4648834" lon="9.1736061" />
      <trkpt lat="45.4651630" lon="9.1737722" />
      <trkpt lat="45.4651793" lon="9.1737896" />
      <trkpt lat="45.4652195" lon="9.1738137" />
      <trkpt lat="45.4652337" lon="9.1738199" />
      <trkpt lat="45.4652524" lon="9.1738267" />
      <trkpt lat="45.4654058" lon="9.1739125" />
      <trkpt lat="45.4656622" lon="9.1740593" />
      <trkpt lat="45.4657351" lon="9.1747065" />
      <trkpt lat="45.4658112" lon="9.1753065" />
      <trkpt lat="45.4657848" lon="9.1753374" />
      <trkpt lat="45.4658156" lon="9.1753688" />
      <trkpt lat="45.4658409" lon="9.1753946" />
      <trkpt lat="45.4658581" lon="9.1754121" />
      <trkpt lat="45.4658684" lon="9.1754136" />
      <trkpt lat="45.4658793" lon="9.1754136" />
      <trkpt lat="45.4658816" lon="9.1754126" />
      <trkpt lat="45.4658827" lon="9.1754121" />
      <trkpt lat="45.4658913" lon="9.1754082" />
      <trkpt lat="45.4659083" lon="9.1754006" />
      <trkpt lat="45.4659419" lon="9.1753855" />
      <trkpt lat="45.4659896" lon="9.1753642" />
      <trkpt lat="45.4660771" lon="9.1754096" />
      <trkpt lat="45.4660992" lon="9.1753804" />
      <trkpt lat="45.4661127" lon="9.1754018" />
      <trkpt lat="45.4661425" lon="9.1754493" />
      <trkpt lat="45.4661514" lon="9.1754635" />
      <trkpt lat="45.4661621" lon="9.1754806" />
      <trkpt lat="45.4661918" lon="9.1755278" />
      <trkpt lat="45.4662138" lon="9.1755628" />
      <trkpt lat="45.4661889" lon="9.1755960" />
      <trkpt lat="45.4662060" lon="9.1756918" />
      <trkpt lat="45.4662406" lon="9.1757126" />
      <trkpt lat="45.4663899" lon="9.1758025" />
      <trkpt lat="45.4668786" lon="9.1760965" />
      <trkpt lat="45.4668908" lon="9.1760809" />
      <trkpt lat="45.4669072" lon="9.1760929" />
      <trkpt lat="45.4669404" lon="9.1761172" />
      <trkpt lat="45.4669986" lon="9.1761597" />
      <trkpt lat="45.4670051" lon="9.1761645" />
      <trkpt lat="45.4670070" lon="9.1761913" />
      <trkpt lat="45.4673557" lon="9.1764257" />
      <trkpt lat="45.4675811" lon="9.1765999" />
      <trkpt lat="45.4676503" lon="9.1766434" />
      <trkpt lat="45.4676877" lon="9.1766673" />
      <trkpt lat="45.4676984" lon="9.1766752" />
      <trkpt lat="45.4677104" lon="9.1766832" />
      <trkpt lat="45.4677339" lon="9.1766987" />
      <trkpt lat="45.4677611" lon="9.1766753" />
      <trkpt lat="45.4677676" lon="9.1766917" />
      <trkpt lat="45.4677671" lon="9.1767963" />
      <trkpt lat="45.4677669" lon="9.1768267" />
      <trkpt lat="45.4677668" lon="9.1768368" />
      <trkpt lat="45.4677663" lon="9.1769475" />
      <trkpt lat="45.4677662" lon="9.1769697" />
      <trkpt lat="45.4678186" lon="9.1770491" />
      <trkpt lat="45.4678494" lon="9.1777593" />
      <trkpt lat="45.4678520" lon="9.1777913" />
      <trkpt lat="45.4678569" lon="9.1778338" />
      <trkpt lat="45.4677364" lon="9.1782085" />
      <trkpt lat="45.4674047" lon="9.1792273" />
      <trkpt lat="45.4674422" lon="9.1792405" />
      <trkpt lat="45.4674767" lon="9.1792546" />
      <trkpt lat="45.4674991" lon="9.1792714" />
      <trkpt lat="45.4675055" lon="9.1792761" />
      <trkpt lat="45.4674851" lon="9.1793382" />
      <trkpt lat="45.4674822" lon="9.1793714" />
      <trkpt lat="45.4674781" lon="9.1794168" />
      <trkpt lat="45.4674760" lon="9.1794404" />
      <trkpt lat="45.4674732" lon="9.1794725" />
      <trkpt lat="45.4674688" lon="9.1795234" />
      <trkpt lat="45.4674651" lon="9.1795651" />
      <trkpt lat="45.4674826" lon="9.1797369" />
      <trkpt lat="45.4675504" lon="9.1802865" />
      <trkpt lat="45.4675708" lon="9.1805372" />
      <trkpt lat="45.4676598" lon="9.1810091" />
      <trkpt lat="45.4677025" lon="9.1811988" />
      <trkpt lat="45.4677262" lon="9.1813052" />
      <trkpt lat="45.4677352" lon="9.1813371" />
      <trkpt lat="45.4677416" lon="9.1813596" />
      <trkpt lat="45.4677499" lon="9.1813890" />
      <trkpt lat="45.4677536" lon="9.1814024" />
      <trkpt lat="45.4677646" lon="9.1814412" />
      <trkpt lat="45.4677789" lon="9.1814917" />
      <trkpt lat="45.4678256" lon="9.1816872" />
      <trkpt lat="45.4678572" lon="9.1818223" />
      <trkpt lat="45.4677840" lon="9.1818855" />
      <trkpt lat="45.4677821" lon="9.1819006" />
      <trkpt lat="45.4677816" lon="9.1819337" />
      <trkpt lat="45.4677822" lon="9.1819613" />
      <trkpt lat="45.4677825" lon="9.1819998" />
      <trkpt lat="45.4677847" lon="9.1820901" />
      <trkpt lat="45.4678406" lon="9.1823139" />
      <trkpt lat="45.4678173" lon="9.1823272" />
      <trkpt lat="45.4678121" lon="9.1823303" />
      <trkpt lat="45.4678024" lon="9.1823358" />
      <trkpt lat="45.4677930" lon="9.1823402" />
      <trkpt lat="45.4678006" lon="9.1823645" />
      <trkpt lat="45.4677020" lon="9.1824585" />
      <trkpt lat="45.4677043" lon="9.1824632" />
      <trkpt lat="45.4677142" lon="9.1824952" />
      <trkpt lat="45.4677232" lon="9.1825238" />
      <trkpt lat="45.4677271" lon="9.1825364" />
      <trkpt lat="45.4677829" lon="9.1826182" />
      <trkpt lat="45.4678052" lon="9.1826562" />
      <trkpt lat="45.4677574" lon="9.1827200" />
      <trkpt lat="45.4669592" lon="9.1837835" />
      <trkpt lat="45.4669310" lon="9.1838209" />
      <trkpt lat="45.4669016" lon="9.1838606" />
      <trkpt lat="45.4664612" lon="9.1844341" />
      <trkpt lat="45.4660309" lon="9.1849943" />
      <trkpt lat="45.4660241" lon="9.1850012" />
      <trkpt lat="45.4660161" lon="9.1850093" />
      <trkpt lat="45.4659960" lon="9.1850297" />
      <trkpt lat="45.4659889" lon="9.1850369" />
      <trkpt lat="45.4659712" lon="9.1850548" />
      <trkpt lat="45.4659462" lon="9.1850801" />
      <trkpt lat="45.4659403" lon="9.1850861" />
      <trkpt lat="45.4659387" lon="9.1851033" />
      <trkpt lat="45.4655888" lon="9.1855745" />
      <trkpt lat="45.4655718" lon="9.1855981" />
      <trkpt lat="45.4655480" lon="9.1856311" />
      <trkpt lat="45.4653575" lon="9.1858954" />
      <trkpt lat="45.4653356" lon="9.1859216" />
      <trkpt lat="45.4653080" lon="9.1859548" />
      <trkpt lat="45.4652610" lon="9.1860108" />
      <trkpt lat="45.4651796" lon="9.1860562" />
      <trkpt lat="45.4651745" lon="9.1860634" />
      <trkpt lat="45.4651736" lon="9.1860646" />
      <trkpt lat="45.4651506" lon="9.1860965" />
      <trkpt lat="45.4651236" lon="9.1861341" />
      <trkpt lat="45.4651107" lon="9.1861522" />
      <trkpt lat="45.4650844" lon="9.1862544" />
      <trkpt lat="45.4650378" lon="9.1863297" />
      <trkpt lat="45.4649967" lon="9.1863962" />
      <trkpt lat="45.4647949" lon="9.1866582" />
      <trkpt lat="45.4647808" lon="9.1866746" />
      <trkpt lat="45.4647616" lon="9.1866989" />
      <trkpt lat="45.4645054" lon="9.1870296" />
      <trkpt lat="45.4644905" lon="9.1870241" />
      <trkpt lat="45.4644695" lon="9.1870516" />
      <trkpt lat="45.4644590" lon="9.1870653" />
      <trkpt lat="45.4644441" lon="9.1870847" />
      <trkpt lat="45.4644390" lon="9.1870914" />
      <trkpt lat="45.4644249" lon="9.1871098" />
      <trkpt lat="45.4643960" lon="9.1871475" />
      <trkpt lat="45.4643957" lon="9.1871721" />
      <trkpt lat="45.4643507" lon="9.1872304" />
      <trkpt lat="45.4642176" lon="9.1874028" />
      <trkpt lat="45.4641254" lon="9.1875222" />
      <trkpt lat="45.4641065" lon="9.1875249" />
      <trkpt lat="45.4640993" lon="9.1875364" />
      <trkpt lat="45.4640786" lon="9.1875692" />
      <trkpt lat="45.4640568" lon="9.1876040" />
      <trkpt lat="45.4640503" lon="9.1876143" />
      <trkpt lat="45.4640568" lon="9.1876040" />
      <trkpt lat="45.4640786" lon="9.1875692" />
      <trkpt lat="45.4640993" lon="9.1875364" />
      <trkpt lat="45.4641065" lon="9.1875249" />
      <trkpt lat="45.4641254" lon="9.1875222" />
      <trkpt lat="45.4642176" lon="9.1874028" />
      <trkpt lat="45.4643507" lon="9.1872304" />
      <trkpt lat="45.4643957" lon="9.1871721" />
      <trkpt lat="45.4643960" lon="9.1871475" />
      <trkpt lat="45.4644249" lon="9.1871098" />
      <trkpt lat="45.4644390" lon="9.1870914" />
      <trkpt lat="45.4644441" lon="9.1870847" />
      <trkpt lat="45.4644590" lon="9.1870653" />
      <trkpt lat="45.4644695" lon="9.1870516" />
      <trkpt lat="45.4644905" lon="9.1870241" />
      <trkpt lat="45.4645054" lon="9.1870296" />
      <trkpt lat="45.4645117" lon="9.1870391" />
      <trkpt lat="45.4645329" lon="9.1870709" />
      <trkpt lat="45.4645470" lon="9.1870921" />
      <trkpt lat="45.4645626" lon="9.1871155" />
      <trkpt lat="45.4645714" lon="9.1871288" />
      <trkpt lat="45.4645807" lon="9.1871436" />
      <trkpt lat="45.4645949" lon="9.1871662" />
      <trkpt lat="45.4646000" lon="9.1871726" />
      <trkpt lat="45.4646056" lon="9.1871799" />
      <trkpt lat="45.4647017" lon="9.1873002" />
      <trkpt lat="45.4647607" lon="9.1873469" />
      <trkpt lat="45.4648533" lon="9.1874203" />
      <trkpt lat="45.4648989" lon="9.1874239" />
      <trkpt lat="45.4650010" lon="9.1875085" />
      <trkpt lat="45.4650311" lon="9.1875312" />
      <trkpt lat="45.4650397" lon="9.1875098" />
      <trkpt lat="45.4651062" lon="9.1873431" />
      <trkpt lat="45.4653152" lon="9.1868203" />
      <trkpt lat="45.4653243" lon="9.1867945" />
      <trkpt lat="45.4654399" lon="9.1868401" />
      <trkpt lat="45.4655412" lon="9.1868491" />
      <trkpt lat="45.4655639" lon="9.1868511" />
      <trkpt lat="45.4655648" lon="9.1867634" />
      <trkpt lat="45.4655859" lon="9.1867581" />
      <trkpt lat="45.4655994" lon="9.1867541" />
      <trkpt lat="45.4656142" lon="9.1867496" />
      <trkpt lat="45.4656204" lon="9.1867478" />
      <trkpt lat="45.4656462" lon="9.1867400" />
      <trkpt lat="45.4656471" lon="9.1867397" />
      <trkpt lat="45.4656502" lon="9.1867389" />
      <trkpt lat="45.4657038" lon="9.1866691" />
      <trkpt lat="45.4657389" lon="9.1864988" />
      <trkpt lat="45.4657513" lon="9.1864918" />
      <trkpt lat="45.4660280" lon="9.1863725" />
      <trkpt lat="45.4660491" lon="9.1863758" />
      <trkpt lat="45.4660581" lon="9.1863682" />
      <trkpt lat="45.4660758" lon="9.1863653" />
      <trkpt lat="45.4660857" lon="9.1863596" />
      <trkpt lat="45.4660973" lon="9.1863457" />
      <trkpt lat="45.4672918" lon="9.1858420" />
      <trkpt lat="45.4673306" lon="9.1858263" />
      <trkpt lat="45.4673427" lon="9.1858437" />
      <trkpt lat="45.4673526" lon="9.1858526" />
      <trkpt lat="45.4673623" lon="9.1858535" />
      <trkpt lat="45.4673746" lon="9.1858462" />
      <trkpt lat="45.4673786" lon="9.1858444" />
      <trkpt lat="45.4676090" lon="9.1857553" />
      <trkpt lat="45.4685150" lon="9.1855150" />
      <trkpt lat="45.4685482" lon="9.1855683" />
      <trkpt lat="45.4685150" lon="9.1855150" />
      <trkpt lat="45.4676090" lon="9.1857553" />
      <trkpt lat="45.4673786" lon="9.1858444" />
      <trkpt lat="45.4673746" lon="9.1858462" />
      <trkpt lat="45.4673623" lon="9.1858535" />
      <trkpt lat="45.4673637" lon="9.1858865" />
      <trkpt lat="45.4674613" lon="9.1863036" />
      <trkpt lat="45.4675853" lon="9.1867324" />
      <trkpt lat="45.4675740" lon="9.1867420" />
      <trkpt lat="45.4668522" lon="9.1873161" />
      <trkpt lat="45.4666011" lon="9.1875234" />
      <trkpt lat="45.4664813" lon="9.1876060" />
      <trkpt lat="45.4664756" lon="9.1876098" />
      <trkpt lat="45.4663081" lon="9.1877266" />
      <trkpt lat="45.4663022" lon="9.1877621" />
      <trkpt lat="45.4663011" lon="9.1877689" />
      <trkpt lat="45.4661970" lon="9.1877552" />
      <trkpt lat="45.4660583" lon="9.1879960" />
      <trkpt lat="45.4659090" lon="9.1882607" />
      <trkpt lat="45.4659024" lon="9.1882533" />
      <trkpt lat="45.4658801" lon="9.1882285" />
      <trkpt lat="45.4658603" lon="9.1882633" />
      <trkpt lat="45.4658295" lon="9.1883174" />
      <trkpt lat="45.4658189" lon="9.1883360" />
      <trkpt lat="45.4658146" lon="9.1883308" />
      <trkpt lat="45.4658145" lon="9.1883513" />
      <trkpt lat="45.4658143" lon="9.1883719" />
      <trkpt lat="45.4658140" lon="9.1883979" />
      <trkpt lat="45.4658279" lon="9.1884148" />
      <trkpt lat="45.4658320" lon="9.1884282" />
      <trkpt lat="45.4658325" lon="9.1884379" />
      <trkpt lat="45.4658486" lon="9.1884642" />
      <trkpt lat="45.4658485" lon="9.1885484" />
      <trkpt lat="45.4656716" lon="9.1885469" />
      <trkpt lat="45.4655566" lon="9.1885445" />
      <trkpt lat="45.4651429" lon="9.1885409" />
      <trkpt lat="45.4649516" lon="9.1885434" />
      <trkpt lat="45.4648234" lon="9.1885464" />
      <trkpt lat="45.4648243" lon="9.1885985" />
      <trkpt lat="45.4648244" lon="9.1886045" />
      <trkpt lat="45.4648240" lon="9.1886223" />
      <trkpt lat="45.4648219" lon="9.1887820" />
      <trkpt lat="45.4648231" lon="9.1890382" />
      <trkpt lat="45.4647852" lon="9.1890432" />
      <trkpt lat="45.4647694" lon="9.1890380" />
      <trkpt lat="45.4647691" lon="9.1890685" />
      <trkpt lat="45.4647697" lon="9.1891591" />
      <trkpt lat="45.4647696" lon="9.1892209" />
      <trkpt lat="45.4647267" lon="9.1892186" />
      <trkpt lat="45.4646537" lon="9.1891261" />
      <trkpt lat="45.4646499" lon="9.1893273" />
      <trkpt lat="45.4646497" lon="9.1893463" />
      <trkpt lat="45.4645594" lon="9.1894058" />
      <trkpt lat="45.4645554" lon="9.1894275" />
      <trkpt lat="45.4645550" lon="9.1894735" />
      <trkpt lat="45.4645550" lon="9.1894793" />
      <trkpt lat="45.4645546" lon="9.1895206" />
      <trkpt lat="45.4645546" lon="9.1895295" />
      <trkpt lat="45.4645542" lon="9.1895730" />
      <trkpt lat="45.4645579" lon="9.1895821" />
      <trkpt lat="45.4645576" lon="9.1896132" />
      <trkpt lat="45.4645553" lon="9.1897951" />
      <trkpt lat="45.4645547" lon="9.1898439" />
      <trkpt lat="45.4645471" lon="9.1898437" />
      <trkpt lat="45.4645044" lon="9.1898425" />
      <trkpt lat="45.4644741" lon="9.1898729" />
      <trkpt lat="45.4644313" lon="9.1898582" />
      <trkpt lat="45.4643695" lon="9.1897716" />
    </trkseg>
  </trk>
</gpx>
