<?xml version="1.0" encoding="UTF-8"?>
<gpx xmlns="http://www.topografix.com/GPX/1/1" version="1.1" creator="ShapeRoute route-engine">
  <metadata>
    <name>heart 5 km · 2026-09-22</name>
    <author>
      <name>ShapeRoute route-engine</name>
    </author>
    <time>2026-09-22T19:08:06Z</time>
  </metadata>
  <trk>
    <name>heart 5 km · 2026-09-22</name>
    <trkseg>
      <trkpt lat="46.0533000" lon="11.4483000" />
      <trkpt lat="46.0539827" lon="11.4485289" />
      <trkpt lat="46.0546147" lon="11.4489706" />
      <trkpt lat="46.0551790" lon="11.4495733" />
      <trkpt lat="46.0556553" lon="11.4503171" />
      <trkpt lat="46.0560211" lon="11.4511809" />
      <trkpt lat="46.0562566" lon="11.4521341" />
      <trkpt lat="46.0563494" lon="11.4531371" />
      <trkpt lat="46.0562977" lon="11.4541462" />
      <trkpt lat="46.0561085" lon="11.4551208" />
      <trkpt lat="46.0557939" lon="11.4560258" />
      <trkpt lat="46.0553678" lon="11.4568304" />
      <trkpt lat="46.0548444" lon="11.4575054" />
      <trkpt lat="46.0542399" lon="11.4580203" />
      <trkpt lat="46.0535750" lon="11.4583455" />
      <trkpt lat="46.0528774" lon="11.4584594" />
      <trkpt lat="46.0521785" lon="11.4583601" />
      <trkpt lat="46.0515055" lon="11.4580697" />
      <trkpt lat="46.0508737" lon="11.4576260" />
      <trkpt lat="46.0502867" lon="11.4570684" />
      <trkpt lat="46.0497405" lon="11.4564301" />
      <trkpt lat="46.0492279" lon="11.4557362" />
      <trkpt lat="46.0487408" lon="11.4550050" />
      <trkpt lat="46.0482712" lon="11.4542503" />
      <trkpt lat="46.0478118" lon="11.4534826" />
      <trkpt lat="46.0473555" lon="11.4527112" />
      <trkpt lat="46.0468955" lon="11.4519444" />
      <trkpt lat="46.0464247" lon="11.4511912" />
      <trkpt lat="46.0459358" lon="11.4504625" />
      <trkpt lat="46.0454206" lon="11.4497726" />
      <trkpt lat="46.0448693" lon="11.4491436" />
      <trkpt lat="46.0442697" lon="11.4486154" />
      <trkpt lat="46.0436055" lon="11.4483000" />
      <trkpt lat="46.0442697" lon="11.4479846" />
      <trkpt lat="46.0448693" lon="11.4474564" />
      <trkpt lat="46.0454206" lon="11.4468274" />
      <trkpt lat="46.0459358" lon="11.4461375" />
      <trkpt lat="46.0464247" lon="11.4454088" />
      <trkpt lat="46.0468955" lon="11.4446556" />
      <trkpt lat="46.0473555" lon="11.4438888" />
      <trkpt lat="46.0478118" lon="11.4431174" />
      <trkpt lat="46.0482712" lon="11.4423497" />
      <trkpt lat="46.0487408" lon="11.4415950" />
      <trkpt lat="46.0492279" lon="11.4408638" />
      <trkpt lat="46.0497405" lon="11.4401699" />
      <trkpt lat="46.0502867" lon="11.4395316" />
      <trkpt lat="46.0508737" lon="11.4389740" />
      <trkpt lat="46.0515055" lon="11.4385303" />
      <trkpt lat="46.0521785" lon="11.4382399" />
      <trkpt lat="46.0528774" lon="11.4381406" />
      <trkpt lat="46.0535750" lon="11.4382545" />
      <trkpt lat="46.0542399" lon="11.4385797" />
      <trkpt lat="46.0548444" lon="11.4390946" />
      <trkpt lat="46.0553678" lon="11.4397696" />
      <trkpt lat="46.0557939" lon="11.4405742" />
      <trkpt lat="46.0561085" lon="11.4414792" />
      <trkpt lat="46.0562977" lon="11.4424538" />
      <trkpt lat="46.0563494" lon="11.4434629" />
      <trkpt lat="46.0562566" lon="11.4444659" />
      <trkpt lat="46.0560211" lon="11.4454191" />
      <trkpt lat="46.0556553" lon="11.4462829" />
      <trkpt lat="46.0551790" lon="11.4470267" />
      <trkpt lat="46.0546147" lon="11.4476294" />
      <trkpt lat="46.0539827" lon="11.4480711" />
      <trkpt lat="46.0533000" lon="11.4483000" />
    </trkseg>
  </trk>
</gpx>
