<?xml version="1.0" encoding="UTF-8"?>
<gpx xmlns="http://www.topografix.com/GPX/1/1" version="1.1" creator="ShapeRoute route-engine">
  <metadata>
    <name>heart 10 km · 2026-09-26</name>
    <author>
      <name>ShapeRoute route-engine</name>
    </author>
    <copyright author="OpenStreetMap contributors">
      <license>https://opendatacommons.org/licenses/odbl/1-0/</license>
    </copyright>
    <link href="https://www.openstreetmap.org/copyright">
      <text>© OpenStreetMap contributors</text>
    </link>
    <time>2026-09-26T00:00:00Z</time>
  </metadata>
  <trk>
    <name>heart 10 km · 2026-09-26</name>
    <trkseg>
      <trkpt lat="45.9960666" lon="11.2577591" />
      <trkpt lat="45.9961338" lon="11.2580156" />
      <trkpt lat="45.9963537" lon="11.2588530" />
      <trkpt lat="45.9965679" lon="11.2596945" />
      <trkpt lat="45.9966065" lon="11.2596727" />
      <trkpt lat="45.9966481" lon="11.2596303" />
      <trkpt lat="45.9967250" lon="11.2595253" />
      <trkpt lat="45.9968452" lon="11.2593401" />
      <trkpt lat="45.9969795" lon="11.2591170" />
      <trkpt lat="45.9970310" lon="11.2590354" />
      <trkpt lat="45.9972267" lon="11.2587177" />
      <trkpt lat="45.9972584" lon="11.2586843" />
      <trkpt lat="45.9974439" lon="11.2583935" />
      <trkpt lat="45.9974689" lon="11.2583658" />
      <trkpt lat="45.9975043" lon="11.2583490" />
      <trkpt lat="45.9975784" lon="11.2583392" />
      <trkpt lat="45.9977923" lon="11.2583069" />
      <trkpt lat="45.9980081" lon="11.2582689" />
      <trkpt lat="45.9981966" lon="11.2582069" />
      <trkpt lat="45.9984079" lon="11.2580753" />
      <trkpt lat="45.9992488" lon="11.2575880" />
      <trkpt lat="45.9996829" lon="11.2572983" />
      <trkpt lat="46.0001632" lon="11.2569784" />
      <trkpt lat="46.0004948" lon="11.2567236" />
      <trkpt lat="46.0006080" lon="11.2566425" />
      <trkpt lat="46.0006644" lon="11.2566157" />
      <trkpt lat="46.0007007" lon="11.2566123" />
      <trkpt lat="46.0007287" lon="11.2566291" />
      <trkpt lat="46.0007776" lon="11.2567169" />
      <trkpt lat="46.0008139" lon="11.2568121" />
      <trkpt lat="46.0008437" lon="11.2567931" />
      <trkpt lat="46.0008665" lon="11.2568769" />
      <trkpt lat="46.0009602" lon="11.2572218" />
      <trkpt lat="46.0010316" lon="11.2575778" />
      <trkpt lat="46.0010643" lon="11.2577865" />
      <trkpt lat="46.0011325" lon="11.2582039" />
      <trkpt lat="46.0012446" lon="11.2587955" />
      <trkpt lat="46.0013821" lon="11.2593949" />
      <trkpt lat="46.0015105" lon="11.2599979" />
      <trkpt lat="46.0015358" lon="11.2601168" />
      <trkpt lat="46.0016597" lon="11.2606985" />
      <trkpt lat="46.0018496" lon="11.2615662" />
      <trkpt lat="46.0018805" lon="11.2616891" />
      <trkpt lat="46.0018958" lon="11.2617773" />
      <trkpt lat="46.0020847" lon="11.2628175" />
      <trkpt lat="46.0021249" lon="11.2632962" />
      <trkpt lat="46.0021248" lon="11.2636132" />
      <trkpt lat="46.0021248" lon="11.2636792" />
      <trkpt lat="46.0021215" lon="11.2637545" />
      <trkpt lat="46.0021088" lon="11.2638965" />
      <trkpt lat="46.0020951" lon="11.2639667" />
      <trkpt lat="46.0021083" lon="11.2640622" />
      <trkpt lat="46.0020861" lon="11.2644764" />
      <trkpt lat="46.0020998" lon="11.2647285" />
      <trkpt lat="46.0021412" lon="11.2649755" />
      <trkpt lat="46.0026666" lon="11.2663832" />
      <trkpt lat="46.0027197" lon="11.2666536" />
      <trkpt lat="46.0024956" lon="11.2666606" />
      <trkpt lat="46.0022617" lon="11.2667706" />
      <trkpt lat="46.0019233" lon="11.2668896" />
      <trkpt lat="46.0015346" lon="11.2670058" />
      <trkpt lat="46.0013027" lon="11.2670618" />
      <trkpt lat="46.0012399" lon="11.2670046" />
      <trkpt lat="46.0010446" lon="11.2668669" />
      <trkpt lat="46.0010119" lon="11.2668438" />
      <trkpt lat="46.0007112" lon="11.2666550" />
      <trkpt lat="46.0005275" lon="11.2665517" />
      <trkpt lat="46.0003084" lon="11.2664779" />
      <trkpt lat="46.0002763" lon="11.2664694" />
      <trkpt lat="46.0000293" lon="11.2664040" />
      <trkpt lat="45.9997876" lon="11.2663318" />
      <trkpt lat="45.9996052" lon="11.2662826" />
      <trkpt lat="45.9994333" lon="11.2662649" />
      <trkpt lat="45.9993973" lon="11.2662612" />
      <trkpt lat="45.9993499" lon="11.2662563" />
      <trkpt lat="45.9991842" lon="11.2662039" />
      <trkpt lat="45.9991424" lon="11.2661907" />
      <trkpt lat="45.9989481" lon="11.2660778" />
      <trkpt lat="45.9988338" lon="11.2664149" />
      <trkpt lat="45.9987887" lon="11.2665505" />
      <trkpt lat="45.9986605" lon="11.2669147" />
      <trkpt lat="45.9986245" lon="11.2670229" />
      <trkpt lat="45.9985855" lon="11.2671380" />
      <trkpt lat="45.9985443" lon="11.2672536" />
      <trkpt lat="45.9985091" lon="11.2673593" />
      <trkpt lat="45.9984287" lon="11.2675943" />
      <trkpt lat="45.9984114" lon="11.2676455" />
      <trkpt lat="45.9987523" lon="11.2678995" />
      <trkpt lat="45.9993976" lon="11.2683959" />
      <trkpt lat="45.9994670" lon="11.2684493" />
      <trkpt lat="45.9995711" lon="11.2685294" />
      <trkpt lat="45.9995991" lon="11.2685509" />
      <trkpt lat="45.9999421" lon="11.2688466" />
      <trkpt lat="46.0001214" lon="11.2689997" />
      <trkpt lat="46.0003427" lon="11.2691921" />
      <trkpt lat="46.0004033" lon="11.2690309" />
      <trkpt lat="46.0002490" lon="11.2689286" />
      <trkpt lat="46.0001912" lon="11.2688210" />
      <trkpt lat="46.0002490" lon="11.2689286" />
      <trkpt lat="46.0004033" lon="11.2690309" />
      <trkpt lat="46.0003427" lon="11.2691921" />
      <trkpt lat="46.0005379" lon="11.2693604" />
      <trkpt lat="46.0006571" lon="11.2694670" />
      <trkpt lat="46.0008104" lon="11.2695954" />
      <trkpt lat="46.0011013" lon="11.2698462" />
      <trkpt lat="46.0018766" lon="11.2702152" />
      <trkpt lat="46.0019082" lon="11.2702290" />
      <trkpt lat="46.0019331" lon="11.2702398" />
      <trkpt lat="46.0020196" lon="11.2702775" />
      <trkpt lat="46.0024563" lon="11.2704675" />
      <trkpt lat="46.0028216" lon="11.2706265" />
      <trkpt lat="46.0033404" lon="11.2708940" />
      <trkpt lat="46.0035371" lon="11.2710124" />
      <trkpt lat="46.0035107" lon="11.2711800" />
      <trkpt lat="46.0035333" lon="11.2713987" />
      <trkpt lat="46.0035463" lon="11.2715246" />
      <trkpt lat="46.0036948" lon="11.2728100" />
      <trkpt lat="46.0037185" lon="11.2729610" />
      <trkpt lat="46.0037564" lon="11.2731119" />
      <trkpt lat="46.0038333" lon="11.2732608" />
      <trkpt lat="46.0038815" lon="11.2733381" />
      <trkpt lat="46.0039706" lon="11.2734632" />
      <trkpt lat="46.0041138" lon="11.2735840" />
      <trkpt lat="46.0043029" lon="11.2737075" />
      <trkpt lat="46.0047207" lon="11.2739657" />
      <trkpt lat="46.0048251" lon="11.2740289" />
      <trkpt lat="46.0048624" lon="11.2740549" />
      <trkpt lat="46.0048916" lon="11.2740752" />
      <trkpt lat="46.0050303" lon="11.2741741" />
      <trkpt lat="46.0051549" lon="11.2742578" />
      <trkpt lat="46.0052364" lon="11.2743218" />
      <trkpt lat="46.0052252" lon="11.2743822" />
      <trkpt lat="46.0052099" lon="11.2744291" />
      <trkpt lat="46.0051551" lon="11.2745608" />
      <trkpt lat="46.0051264" lon="11.2746299" />
      <trkpt lat="46.0050135" lon="11.2748427" />
      <trkpt lat="46.0048600" lon="11.2751019" />
      <trkpt lat="46.0047930" lon="11.2752367" />
      <trkpt lat="46.0047147" lon="11.2754087" />
      <trkpt lat="46.0046253" lon="11.2756236" />
      <trkpt lat="46.0045070" lon="11.2759211" />
      <trkpt lat="46.0043416" lon="11.2763349" />
      <trkpt lat="46.0040981" lon="11.2768964" />
      <trkpt lat="46.0046681" lon="11.2750060" />
      <trkpt lat="46.0049695" lon="11.2740069" />
      <trkpt lat="46.0049288" lon="11.2739874" />
      <trkpt lat="46.0050784" lon="11.2735235" />
      <trkpt lat="46.0050396" lon="11.2734976" />
      <trkpt lat="46.0049065" lon="11.2739140" />
      <trkpt lat="46.0048624" lon="11.2740549" />
      <trkpt lat="46.0048251" lon="11.2740289" />
      <trkpt lat="46.0047207" lon="11.2739657" />
      <trkpt lat="46.0043029" lon="11.2737075" />
      <trkpt lat="46.0041138" lon="11.2735840" />
      <trkpt lat="46.0039706" lon="11.2734632" />
      <trkpt lat="46.0038815" lon="11.2733381" />
      <trkpt lat="46.0038333" lon="11.2732608" />
      <trkpt lat="46.0037564" lon="11.2731119" />
      <trkpt lat="46.0037288" lon="11.2731408" />
      <trkpt lat="46.0037111" lon="11.2731743" />
      <trkpt lat="46.0036817" lon="11.2733406" />
      <trkpt lat="46.0036143" lon="11.2736745" />
      <trkpt lat="46.0035472" lon="11.2738841" />
      <trkpt lat="46.0034774" lon="11.2740965" />
      <trkpt lat="46.0033274" lon="11.2744010" />
      <trkpt lat="46.0031912" lon="11.2747070" />
      <trkpt lat="46.0030041" lon="11.2751238" />
      <trkpt lat="46.0028531" lon="11.2755346" />
      <trkpt lat="46.0027628" lon="11.2757653" />
      <trkpt lat="46.0026790" lon="11.2759459" />
      <trkpt lat="46.0024887" lon="11.2763615" />
      <trkpt lat="46.0023618" lon="11.2765818" />
      <trkpt lat="46.0022654" lon="11.2768579" />
      <trkpt lat="46.0021832" lon="11.2773949" />
      <trkpt lat="46.0020447" lon="11.2780983" />
      <trkpt lat="46.0019776" lon="11.2783747" />
      <trkpt lat="46.0017645" lon="11.2792269" />
      <trkpt lat="46.0017308" lon="11.2794697" />
      <trkpt lat="46.0015127" lon="11.2790135" />
      <trkpt lat="46.0013506" lon="11.2784661" />
      <trkpt lat="46.0012886" lon="11.2783328" />
      <trkpt lat="46.0012485" lon="11.2783469" />
      <trkpt lat="46.0011567" lon="11.2784526" />
      <trkpt lat="46.0009571" lon="11.2787955" />
      <trkpt lat="46.0005915" lon="11.2794810" />
      <trkpt lat="46.0002741" lon="11.2801357" />
      <trkpt lat="45.9999791" lon="11.2807880" />
      <trkpt lat="45.9998643" lon="11.2810420" />
      <trkpt lat="45.9994845" lon="11.2817793" />
      <trkpt lat="45.9998946" lon="11.2826533" />
      <trkpt lat="45.9999503" lon="11.2828479" />
      <trkpt lat="45.9999854" lon="11.2830300" />
      <trkpt lat="46.0001076" lon="11.2832762" />
      <trkpt lat="46.0001646" lon="11.2834157" />
      <trkpt lat="46.0001817" lon="11.2835085" />
      <trkpt lat="45.9992456" lon="11.2848314" />
      <trkpt lat="45.9986043" lon="11.2857091" />
      <trkpt lat="45.9984503" lon="11.2854158" />
      <trkpt lat="45.9981371" lon="11.2848681" />
      <trkpt lat="45.9974214" lon="11.2836187" />
      <trkpt lat="45.9971838" lon="11.2832416" />
      <trkpt lat="45.9967680" lon="11.2825244" />
      <trkpt lat="45.9960084" lon="11.2811986" />
      <trkpt lat="45.9952415" lon="11.2799067" />
      <trkpt lat="45.9942470" lon="11.2781962" />
      <trkpt lat="45.9939057" lon="11.2775897" />
      <trkpt lat="45.9935518" lon="11.2769589" />
      <trkpt lat="45.9934127" lon="11.2766374" />
      <trkpt lat="45.9931514" lon="11.2762007" />
      <trkpt lat="45.9930409" lon="11.2760862" />
      <trkpt lat="45.9929649" lon="11.2764537" />
      <trkpt lat="45.9928960" lon="11.2769309" />
      <trkpt lat="45.9928175" lon="11.2775764" />
      <trkpt lat="45.9904503" lon="11.2740791" />
      <trkpt lat="45.9889220" lon="11.2718388" />
      <trkpt lat="45.9886943" lon="11.2721363" />
      <trkpt lat="45.9882695" lon="11.2727040" />
      <trkpt lat="45.9878986" lon="11.2731714" />
      <trkpt lat="45.9883570" lon="11.2744495" />
      <trkpt lat="45.9878986" lon="11.2731714" />
      <trkpt lat="45.9882695" lon="11.2727040" />
      <trkpt lat="45.9886943" lon="11.2721363" />
      <trkpt lat="45.9889220" lon="11.2718388" />
      <trkpt lat="45.9894521" lon="11.2711794" />
      <trkpt lat="45.9896913" lon="11.2707797" />
      <trkpt lat="45.9897137" lon="11.2707423" />
      <trkpt lat="45.9897431" lon="11.2706931" />
      <trkpt lat="45.9898803" lon="11.2704232" />
      <trkpt lat="45.9898924" lon="11.2703889" />
      <trkpt lat="45.9899607" lon="11.2701958" />
      <trkpt lat="45.9899871" lon="11.2701188" />
      <trkpt lat="45.9901895" lon="11.2695293" />
      <trkpt lat="45.9902057" lon="11.2694846" />
      <trkpt lat="45.9902672" lon="11.2693553" />
      <trkpt lat="45.9904110" lon="11.2691394" />
      <trkpt lat="45.9904499" lon="11.2690811" />
      <trkpt lat="45.9906532" lon="11.2687872" />
      <trkpt lat="45.9906985" lon="11.2687266" />
      <trkpt lat="45.9909993" lon="11.2683812" />
      <trkpt lat="45.9910779" lon="11.2683095" />
      <trkpt lat="45.9915249" lon="11.2677960" />
      <trkpt lat="45.9917144" lon="11.2675070" />
      <trkpt lat="45.9917275" lon="11.2674840" />
      <trkpt lat="45.9918150" lon="11.2673308" />
      <trkpt lat="45.9923877" lon="11.2663269" />
      <trkpt lat="45.9924356" lon="11.2662429" />
      <trkpt lat="45.9923427" lon="11.2662959" />
      <trkpt lat="45.9922217" lon="11.2662780" />
      <trkpt lat="45.9922060" lon="11.2662757" />
      <trkpt lat="45.9920659" lon="11.2662437" />
      <trkpt lat="45.9920246" lon="11.2662343" />
      <trkpt lat="45.9917890" lon="11.2661805" />
      <trkpt lat="45.9918739" lon="11.2659712" />
      <trkpt lat="45.9919226" lon="11.2658510" />
      <trkpt lat="45.9924545" lon="11.2650650" />
      <trkpt lat="45.9924892" lon="11.2650428" />
      <trkpt lat="45.9925296" lon="11.2650041" />
      <trkpt lat="45.9926307" lon="11.2648859" />
      <trkpt lat="45.9926957" lon="11.2647469" />
      <trkpt lat="45.9926641" lon="11.2645137" />
      <trkpt lat="45.9926170" lon="11.2643685" />
      <trkpt lat="45.9926029" lon="11.2642709" />
      <trkpt lat="45.9928435" lon="11.2635259" />
      <trkpt lat="45.9929710" lon="11.2634328" />
      <trkpt lat="45.9929600" lon="11.2633452" />
      <trkpt lat="45.9929321" lon="11.2631216" />
      <trkpt lat="45.9929263" lon="11.2629536" />
      <trkpt lat="45.9929231" lon="11.2628603" />
      <trkpt lat="45.9929735" lon="11.2628659" />
      <trkpt lat="45.9929019" lon="11.2626025" />
      <trkpt lat="45.9928624" lon="11.2624569" />
      <trkpt lat="45.9930746" lon="11.2622295" />
      <trkpt lat="45.9931105" lon="11.2621796" />
      <trkpt lat="45.9931844" lon="11.2621012" />
      <trkpt lat="45.9932054" lon="11.2620710" />
      <trkpt lat="45.9932128" lon="11.2620073" />
      <trkpt lat="45.9932727" lon="11.2619343" />
      <trkpt lat="45.9937140" lon="11.2613964" />
      <trkpt lat="45.9939914" lon="11.2610179" />
      <trkpt lat="45.9939923" lon="11.2609269" />
      <trkpt lat="45.9939939" lon="11.2608653" />
      <trkpt lat="45.9939238" lon="11.2607970" />
      <trkpt lat="45.9938115" lon="11.2606250" />
      <trkpt lat="45.9936846" lon="11.2603568" />
      <trkpt lat="45.9937340" lon="11.2602669" />
      <trkpt lat="45.9937465" lon="11.2602442" />
      <trkpt lat="45.9937967" lon="11.2600750" />
      <trkpt lat="45.9938430" lon="11.2598795" />
      <trkpt lat="45.9938654" lon="11.2597799" />
      <trkpt lat="45.9939259" lon="11.2594721" />
      <trkpt lat="45.9939504" lon="11.2593594" />
      <trkpt lat="45.9940725" lon="11.2587979" />
      <trkpt lat="45.9940950" lon="11.2586944" />
      <trkpt lat="45.9941523" lon="11.2584678" />
      <trkpt lat="45.9942064" lon="11.2582410" />
      <trkpt lat="45.9942523" lon="11.2580413" />
      <trkpt lat="45.9942625" lon="11.2580010" />
      <trkpt lat="45.9942761" lon="11.2579473" />
      <trkpt lat="45.9942875" lon="11.2579022" />
      <trkpt lat="45.9943234" lon="11.2577640" />
      <trkpt lat="45.9944068" lon="11.2575077" />
      <trkpt lat="45.9944428" lon="11.2574150" />
      <trkpt lat="45.9944922" lon="11.2573305" />
      <trkpt lat="45.9945572" lon="11.2572233" />
      <trkpt lat="45.9946334" lon="11.2571068" />
      <trkpt lat="45.9947470" lon="11.2569670" />
      <trkpt lat="45.9948786" lon="11.2568442" />
      <trkpt lat="45.9953312" lon="11.2565025" />
      <trkpt lat="45.9953693" lon="11.2565724" />
      <trkpt lat="45.9960666" lon="11.2577591" />
    </trkseg>
  </trk>
</gpx>
