<?xml version="1.0" encoding="UTF-8"?>
<gpx xmlns="http://www.topografix.com/GPX/1/1" version="1.1" creator="ShapeRoute route-engine">
  <metadata>
    <name>donut 5 km · 2026-10-05</name>
    <author>
      <name>ShapeRoute route-engine</name>
    </author>
    <copyright author="OpenStreetMap contributors">
      <license>https://opendatacommons.org/licenses/odbl/1-0/</license>
    </copyright>
    <link href="https://www.openstreetmap.org/copyright">
      <text>© OpenStreetMap contributors</text>
    </link>
    <time>2026-10-05T11:12:45Z</time>
  </metadata>
  <trk>
    <name>donut 5 km · 2026-10-05</name>
    <trkseg>
      <trkpt lat="46.0668711" lon="11.1210492" />
      <trkpt lat="46.0668249" lon="11.1206182" />
      <trkpt lat="46.0670289" lon="11.1205458" />
      <trkpt lat="46.0670637" lon="11.1207156" />
      <trkpt lat="46.0670730" lon="11.1209842" />
      <trkpt lat="46.0670745" lon="11.1210291" />
      <trkpt lat="46.0673165" lon="11.1210193" />
      <trkpt lat="46.0674358" lon="11.1209903" />
      <trkpt lat="46.0675759" lon="11.1209222" />
      <trkpt lat="46.0676386" lon="11.1208917" />
      <trkpt lat="46.0677393" lon="11.1208327" />
      <trkpt lat="46.0678148" lon="11.1207864" />
      <trkpt lat="46.0678457" lon="11.1207672" />
      <trkpt lat="46.0679032" lon="11.1207116" />
      <trkpt lat="46.0681018" lon="11.1205393" />
      <trkpt lat="46.0681669" lon="11.1204445" />
      <trkpt lat="46.0682945" lon="11.1202664" />
      <trkpt lat="46.0683846" lon="11.1201435" />
      <trkpt lat="46.0684504" lon="11.1200865" />
      <trkpt lat="46.0684776" lon="11.1200039" />
      <trkpt lat="46.0685273" lon="11.1200042" />
      <trkpt lat="46.0686285" lon="11.1199921" />
      <trkpt lat="46.0687055" lon="11.1199855" />
      <trkpt lat="46.0687688" lon="11.1199699" />
      <trkpt lat="46.0687784" lon="11.1199700" />
      <trkpt lat="46.0688097" lon="11.1199685" />
      <trkpt lat="46.0688503" lon="11.1199666" />
      <trkpt lat="46.0688785" lon="11.1199652" />
      <trkpt lat="46.0688928" lon="11.1199633" />
      <trkpt lat="46.0689900" lon="11.1199487" />
      <trkpt lat="46.0690484" lon="11.1199429" />
      <trkpt lat="46.0691086" lon="11.1199380" />
      <trkpt lat="46.0691667" lon="11.1199367" />
      <trkpt lat="46.0692352" lon="11.1199271" />
      <trkpt lat="46.0693982" lon="11.1198734" />
      <trkpt lat="46.0694763" lon="11.1198434" />
      <trkpt lat="46.0695220" lon="11.1198116" />
      <trkpt lat="46.0695223" lon="11.1198626" />
      <trkpt lat="46.0697429" lon="11.1198297" />
      <trkpt lat="46.0700021" lon="11.1197557" />
      <trkpt lat="46.0700053" lon="11.1197976" />
      <trkpt lat="46.0700337" lon="11.1198021" />
      <trkpt lat="46.0700585" lon="11.1200224" />
      <trkpt lat="46.0701087" lon="11.1200099" />
      <trkpt lat="46.0701965" lon="11.1199880" />
      <trkpt lat="46.0702609" lon="11.1206156" />
      <trkpt lat="46.0703911" lon="11.1205907" />
      <trkpt lat="46.0704219" lon="11.1206145" />
      <trkpt lat="46.0704688" lon="11.1207212" />
      <trkpt lat="46.0704977" lon="11.1208011" />
      <trkpt lat="46.0705556" lon="11.1207774" />
      <trkpt lat="46.0707008" lon="11.1207313" />
      <trkpt lat="46.0707490" lon="11.1207293" />
      <trkpt lat="46.0707671" lon="11.1208993" />
      <trkpt lat="46.0707785" lon="11.1208967" />
      <trkpt lat="46.0707917" lon="11.1208932" />
      <trkpt lat="46.0707971" lon="11.1209330" />
      <trkpt lat="46.0708222" lon="11.1211463" />
      <trkpt lat="46.0708261" lon="11.1211782" />
      <trkpt lat="46.0708428" lon="11.1213207" />
      <trkpt lat="46.0708739" lon="11.1212929" />
      <trkpt lat="46.0708837" lon="11.1213170" />
      <trkpt lat="46.0708909" lon="11.1213662" />
      <trkpt lat="46.0709035" lon="11.1214665" />
      <trkpt lat="46.0709216" lon="11.1214617" />
      <trkpt lat="46.0709363" lon="11.1214577" />
      <trkpt lat="46.0711422" lon="11.1213960" />
      <trkpt lat="46.0711605" lon="11.1213904" />
      <trkpt lat="46.0711768" lon="11.1213854" />
      <trkpt lat="46.0713755" lon="11.1213164" />
      <trkpt lat="46.0715435" lon="11.1213417" />
      <trkpt lat="46.0717179" lon="11.1214143" />
      <trkpt lat="46.0718879" lon="11.1215118" />
      <trkpt lat="46.0719784" lon="11.1215603" />
      <trkpt lat="46.0719684" lon="11.1215845" />
      <trkpt lat="46.0715891" lon="11.1227660" />
      <trkpt lat="46.0716210" lon="11.1227893" />
      <trkpt lat="46.0716714" lon="11.1228236" />
      <trkpt lat="46.0716413" lon="11.1229209" />
      <trkpt lat="46.0716439" lon="11.1229978" />
      <trkpt lat="46.0716222" lon="11.1230596" />
      <trkpt lat="46.0716061" lon="11.1231052" />
      <trkpt lat="46.0715836" lon="11.1230897" />
      <trkpt lat="46.0714768" lon="11.1233966" />
      <trkpt lat="46.0714695" lon="11.1234250" />
      <trkpt lat="46.0714629" lon="11.1234503" />
      <trkpt lat="46.0713852" lon="11.1236407" />
      <trkpt lat="46.0713794" lon="11.1236748" />
      <trkpt lat="46.0713714" lon="11.1237224" />
      <trkpt lat="46.0712973" lon="11.1239242" />
      <trkpt lat="46.0715715" lon="11.1242588" />
      <trkpt lat="46.0716139" lon="11.1243025" />
      <trkpt lat="46.0715715" lon="11.1242588" />
      <trkpt lat="46.0712973" lon="11.1239242" />
      <trkpt lat="46.0712690" lon="11.1238582" />
      <trkpt lat="46.0712168" lon="11.1237386" />
      <trkpt lat="46.0712056" lon="11.1237453" />
      <trkpt lat="46.0711887" lon="11.1237117" />
      <trkpt lat="46.0711314" lon="11.1237796" />
      <trkpt lat="46.0710768" lon="11.1238303" />
      <trkpt lat="46.0710686" lon="11.1238108" />
      <trkpt lat="46.0710576" lon="11.1237843" />
      <trkpt lat="46.0709533" lon="11.1235349" />
      <trkpt lat="46.0709425" lon="11.1235101" />
      <trkpt lat="46.0707453" lon="11.1235051" />
      <trkpt lat="46.0703971" lon="11.1235179" />
      <trkpt lat="46.0702886" lon="11.1235205" />
      <trkpt lat="46.0702420" lon="11.1235267" />
      <trkpt lat="46.0701985" lon="11.1235320" />
      <trkpt lat="46.0699226" lon="11.1235571" />
      <trkpt lat="46.0699035" lon="11.1235579" />
      <trkpt lat="46.0699053" lon="11.1235990" />
      <trkpt lat="46.0699161" lon="11.1238382" />
      <trkpt lat="46.0699810" lon="11.1241234" />
      <trkpt lat="46.0700063" lon="11.1241142" />
      <trkpt lat="46.0701341" lon="11.1240829" />
      <trkpt lat="46.0702928" lon="11.1240441" />
      <trkpt lat="46.0704018" lon="11.1240232" />
      <trkpt lat="46.0705860" lon="11.1240028" />
      <trkpt lat="46.0707489" lon="11.1239848" />
      <trkpt lat="46.0708615" lon="11.1239751" />
      <trkpt lat="46.0709517" lon="11.1239651" />
      <trkpt lat="46.0710943" lon="11.1238719" />
      <trkpt lat="46.0711143" lon="11.1239193" />
      <trkpt lat="46.0712766" lon="11.1241810" />
      <trkpt lat="46.0713980" lon="11.1243293" />
      <trkpt lat="46.0715020" lon="11.1244182" />
      <trkpt lat="46.0715341" lon="11.1244451" />
      <trkpt lat="46.0715775" lon="11.1245299" />
      <trkpt lat="46.0720435" lon="11.1247973" />
      <trkpt lat="46.0720544" lon="11.1248036" />
      <trkpt lat="46.0720510" lon="11.1248611" />
      <trkpt lat="46.0720054" lon="11.1250308" />
      <trkpt lat="46.0719940" lon="11.1250990" />
      <trkpt lat="46.0719870" lon="11.1251285" />
      <trkpt lat="46.0719774" lon="11.1251717" />
      <trkpt lat="46.0717134" lon="11.1250315" />
      <trkpt lat="46.0715766" lon="11.1249853" />
      <trkpt lat="46.0714387" lon="11.1249729" />
      <trkpt lat="46.0712859" lon="11.1249406" />
      <trkpt lat="46.0711398" lon="11.1248895" />
      <trkpt lat="46.0710700" lon="11.1248651" />
      <trkpt lat="46.0709261" lon="11.1248436" />
      <trkpt lat="46.0709262" lon="11.1248649" />
      <trkpt lat="46.0709289" lon="11.1251320" />
      <trkpt lat="46.0709291" lon="11.1251531" />
      <trkpt lat="46.0708777" lon="11.1251584" />
      <trkpt lat="46.0708131" lon="11.1252027" />
      <trkpt lat="46.0708358" lon="11.1254815" />
      <trkpt lat="46.0708604" lon="11.1258875" />
      <trkpt lat="46.0708619" lon="11.1259013" />
      <trkpt lat="46.0708679" lon="11.1259562" />
      <trkpt lat="46.0708465" lon="11.1259592" />
      <trkpt lat="46.0708260" lon="11.1259603" />
      <trkpt lat="46.0706554" lon="11.1259825" />
      <trkpt lat="46.0704251" lon="11.1260668" />
      <trkpt lat="46.0704310" lon="11.1260912" />
      <trkpt lat="46.0704854" lon="11.1263179" />
      <trkpt lat="46.0705253" lon="11.1265592" />
      <trkpt lat="46.0705378" lon="11.1266280" />
      <trkpt lat="46.0705083" lon="11.1266443" />
      <trkpt lat="46.0704804" lon="11.1266564" />
      <trkpt lat="46.0704611" lon="11.1265307" />
      <trkpt lat="46.0704496" lon="11.1264614" />
      <trkpt lat="46.0703744" lon="11.1261142" />
      <trkpt lat="46.0703104" lon="11.1258937" />
      <trkpt lat="46.0701951" lon="11.1255251" />
      <trkpt lat="46.0701757" lon="11.1254398" />
      <trkpt lat="46.0701636" lon="11.1253748" />
      <trkpt lat="46.0701360" lon="11.1251878" />
      <trkpt lat="46.0701202" lon="11.1250443" />
      <trkpt lat="46.0701090" lon="11.1248579" />
      <trkpt lat="46.0701056" lon="11.1246991" />
      <trkpt lat="46.0700921" lon="11.1245372" />
      <trkpt lat="46.0700749" lon="11.1244576" />
      <trkpt lat="46.0700639" lon="11.1244390" />
      <trkpt lat="46.0700381" lon="11.1244249" />
      <trkpt lat="46.0695598" lon="11.1244935" />
      <trkpt lat="46.0694052" lon="11.1245238" />
      <trkpt lat="46.0692481" lon="11.1245332" />
      <trkpt lat="46.0691965" lon="11.1246012" />
      <trkpt lat="46.0691707" lon="11.1246269" />
      <trkpt lat="46.0690475" lon="11.1246554" />
      <trkpt lat="46.0689190" lon="11.1246745" />
      <trkpt lat="46.0686416" lon="11.1247367" />
      <trkpt lat="46.0684074" lon="11.1247738" />
      <trkpt lat="46.0683737" lon="11.1247791" />
      <trkpt lat="46.0683518" lon="11.1247826" />
      <trkpt lat="46.0683684" lon="11.1245203" />
      <trkpt lat="46.0683766" lon="11.1242292" />
      <trkpt lat="46.0683541" lon="11.1239478" />
      <trkpt lat="46.0683250" lon="11.1239053" />
      <trkpt lat="46.0682835" lon="11.1238873" />
      <trkpt lat="46.0682827" lon="11.1238602" />
      <trkpt lat="46.0682805" lon="11.1238337" />
      <trkpt lat="46.0682565" lon="11.1234891" />
      <trkpt lat="46.0682323" lon="11.1232256" />
      <trkpt lat="46.0682031" lon="11.1229202" />
      <trkpt lat="46.0681489" lon="11.1225470" />
      <trkpt lat="46.0685802" lon="11.1225918" />
      <trkpt lat="46.0688087" lon="11.1225689" />
      <trkpt lat="46.0690210" lon="11.1225351" />
      <trkpt lat="46.0689171" lon="11.1220222" />
      <trkpt lat="46.0688448" lon="11.1212725" />
      <trkpt lat="46.0688409" lon="11.1212316" />
      <trkpt lat="46.0688387" lon="11.1211858" />
      <trkpt lat="46.0688365" lon="11.1211527" />
      <trkpt lat="46.0687499" lon="11.1204587" />
      <trkpt lat="46.0687388" lon="11.1203760" />
      <trkpt lat="46.0687020" lon="11.1201725" />
      <trkpt lat="46.0686963" lon="11.1201124" />
      <trkpt lat="46.0686941" lon="11.1200894" />
      <trkpt lat="46.0686922" lon="11.1200685" />
      <trkpt lat="46.0686910" lon="11.1200385" />
      <trkpt lat="46.0685313" lon="11.1200706" />
      <trkpt lat="46.0685273" lon="11.1200042" />
      <trkpt lat="46.0686285" lon="11.1199921" />
      <trkpt lat="46.0687055" lon="11.1199855" />
      <trkpt lat="46.0687688" lon="11.1199699" />
      <trkpt lat="46.0687784" lon="11.1199700" />
      <trkpt lat="46.0688097" lon="11.1199685" />
      <trkpt lat="46.0688503" lon="11.1199666" />
      <trkpt lat="46.0688785" lon="11.1199652" />
      <trkpt lat="46.0688928" lon="11.1199633" />
      <trkpt lat="46.0689900" lon="11.1199487" />
      <trkpt lat="46.0690484" lon="11.1199429" />
      <trkpt lat="46.0691086" lon="11.1199380" />
      <trkpt lat="46.0691667" lon="11.1199367" />
      <trkpt lat="46.0692352" lon="11.1199271" />
      <trkpt lat="46.0693982" lon="11.1198734" />
      <trkpt lat="46.0694763" lon="11.1198434" />
      <trkpt lat="46.0695220" lon="11.1198116" />
      <trkpt lat="46.0695493" lon="11.1198090" />
      <trkpt lat="46.0695787" lon="11.1198028" />
      <trkpt lat="46.0699049" lon="11.1197056" />
      <trkpt lat="46.0699981" lon="11.1197027" />
      <trkpt lat="46.0700021" lon="11.1197557" />
      <trkpt lat="46.0700053" lon="11.1197976" />
      <trkpt lat="46.0700337" lon="11.1198021" />
      <trkpt lat="46.0700585" lon="11.1200224" />
      <trkpt lat="46.0700263" lon="11.1200442" />
      <trkpt lat="46.0700207" lon="11.1200066" />
      <trkpt lat="46.0700006" lon="11.1198492" />
      <trkpt lat="46.0695910" lon="11.1199578" />
      <trkpt lat="46.0695999" lon="11.1200276" />
      <trkpt lat="46.0695764" lon="11.1200339" />
      <trkpt lat="46.0695637" lon="11.1200373" />
      <trkpt lat="46.0695765" lon="11.1201320" />
      <trkpt lat="46.0695981" lon="11.1203176" />
      <trkpt lat="46.0696978" lon="11.1211735" />
      <trkpt lat="46.0696996" lon="11.1211886" />
      <trkpt lat="46.0697328" lon="11.1214737" />
      <trkpt lat="46.0697506" lon="11.1216266" />
      <trkpt lat="46.0698030" lon="11.1216129" />
      <trkpt lat="46.0698046" lon="11.1216260" />
      <trkpt lat="46.0698102" lon="11.1216732" />
      <trkpt lat="46.0698142" lon="11.1217071" />
      <trkpt lat="46.0698160" lon="11.1217222" />
      <trkpt lat="46.0697616" lon="11.1217383" />
      <trkpt lat="46.0698008" lon="11.1221091" />
      <trkpt lat="46.0698451" lon="11.1225277" />
      <trkpt lat="46.0699005" lon="11.1231801" />
      <trkpt lat="46.0699035" lon="11.1235579" />
      <trkpt lat="46.0699053" lon="11.1235990" />
      <trkpt lat="46.0699161" lon="11.1238382" />
      <trkpt lat="46.0699810" lon="11.1241234" />
      <trkpt lat="46.0700063" lon="11.1241142" />
      <trkpt lat="46.0701341" lon="11.1240829" />
      <trkpt lat="46.0702928" lon="11.1240441" />
      <trkpt lat="46.0704018" lon="11.1240232" />
      <trkpt lat="46.0705860" lon="11.1240028" />
      <trkpt lat="46.0707489" lon="11.1239848" />
      <trkpt lat="46.0708615" lon="11.1239751" />
      <trkpt lat="46.0709517" lon="11.1239651" />
      <trkpt lat="46.0710943" lon="11.1238719" />
      <trkpt lat="46.0711143" lon="11.1239193" />
      <trkpt lat="46.0712766" lon="11.1241810" />
      <trkpt lat="46.0713980" lon="11.1243293" />
      <trkpt lat="46.0715020" lon="11.1244182" />
      <trkpt lat="46.0715341" lon="11.1244451" />
      <trkpt lat="46.0715775" lon="11.1245299" />
      <trkpt lat="46.0720435" lon="11.1247973" />
      <trkpt lat="46.0720544" lon="11.1248036" />
      <trkpt lat="46.0720510" lon="11.1248611" />
      <trkpt lat="46.0720054" lon="11.1250308" />
      <trkpt lat="46.0719940" lon="11.1250990" />
      <trkpt lat="46.0719870" lon="11.1251285" />
      <trkpt lat="46.0719774" lon="11.1251717" />
      <trkpt lat="46.0717134" lon="11.1250315" />
      <trkpt lat="46.0715766" lon="11.1249853" />
      <trkpt lat="46.0714387" lon="11.1249729" />
      <trkpt lat="46.0712859" lon="11.1249406" />
      <trkpt lat="46.0711398" lon="11.1248895" />
      <trkpt lat="46.0710700" lon="11.1248651" />
      <trkpt lat="46.0709261" lon="11.1248436" />
      <trkpt lat="46.0709262" lon="11.1248649" />
      <trkpt lat="46.0709289" lon="11.1251320" />
      <trkpt lat="46.0709291" lon="11.1251531" />
      <trkpt lat="46.0708777" lon="11.1251584" />
      <trkpt lat="46.0708131" lon="11.1252027" />
      <trkpt lat="46.0708358" lon="11.1254815" />
      <trkpt lat="46.0708604" lon="11.1258875" />
      <trkpt lat="46.0708619" lon="11.1259013" />
      <trkpt lat="46.0708679" lon="11.1259562" />
      <trkpt lat="46.0708465" lon="11.1259592" />
      <trkpt lat="46.0708260" lon="11.1259603" />
      <trkpt lat="46.0706554" lon="11.1259825" />
      <trkpt lat="46.0704251" lon="11.1260668" />
      <trkpt lat="46.0704310" lon="11.1260912" />
      <trkpt lat="46.0704854" lon="11.1263179" />
      <trkpt lat="46.0705253" lon="11.1265592" />
      <trkpt lat="46.0705378" lon="11.1266280" />
      <trkpt lat="46.0705083" lon="11.1266443" />
      <trkpt lat="46.0704804" lon="11.1266564" />
      <trkpt lat="46.0704667" lon="11.1267264" />
      <trkpt lat="46.0703267" lon="11.1268739" />
      <trkpt lat="46.0702530" lon="11.1269621" />
      <trkpt lat="46.0700418" lon="11.1271952" />
      <trkpt lat="46.0699625" lon="11.1272466" />
      <trkpt lat="46.0699820" lon="11.1273093" />
      <trkpt lat="46.0700069" lon="11.1273936" />
      <trkpt lat="46.0699719" lon="11.1274335" />
      <trkpt lat="46.0699578" lon="11.1274338" />
      <trkpt lat="46.0699232" lon="11.1274344" />
      <trkpt lat="46.0698926" lon="11.1274261" />
      <trkpt lat="46.0698063" lon="11.1273526" />
      <trkpt lat="46.0696463" lon="11.1273383" />
      <trkpt lat="46.0696063" lon="11.1273552" />
      <trkpt lat="46.0695235" lon="11.1274062" />
      <trkpt lat="46.0694686" lon="11.1274491" />
      <trkpt lat="46.0694193" lon="11.1274531" />
      <trkpt lat="46.0693663" lon="11.1274464" />
      <trkpt lat="46.0693272" lon="11.1274236" />
      <trkpt lat="46.0692890" lon="11.1273941" />
      <trkpt lat="46.0692285" lon="11.1273740" />
      <trkpt lat="46.0691985" lon="11.1273747" />
      <trkpt lat="46.0691635" lon="11.1273946" />
      <trkpt lat="46.0691395" lon="11.1274461" />
      <trkpt lat="46.0691298" lon="11.1275184" />
      <trkpt lat="46.0691062" lon="11.1275184" />
      <trkpt lat="46.0690840" lon="11.1275180" />
      <trkpt lat="46.0690747" lon="11.1275186" />
      <trkpt lat="46.0690689" lon="11.1275111" />
      <trkpt lat="46.0690389" lon="11.1274728" />
      <trkpt lat="46.0690084" lon="11.1274366" />
      <trkpt lat="46.0689932" lon="11.1274221" />
      <trkpt lat="46.0689714" lon="11.1274003" />
      <trkpt lat="46.0689301" lon="11.1273622" />
      <trkpt lat="46.0689909" lon="11.1271350" />
      <trkpt lat="46.0689982" lon="11.1270959" />
      <trkpt lat="46.0679303" lon="11.1265300" />
      <trkpt lat="46.0676896" lon="11.1264254" />
      <trkpt lat="46.0676062" lon="11.1263480" />
      <trkpt lat="46.0675929" lon="11.1263359" />
      <trkpt lat="46.0675748" lon="11.1263186" />
      <trkpt lat="46.0675175" lon="11.1264316" />
      <trkpt lat="46.0674893" lon="11.1264071" />
      <trkpt lat="46.0674093" lon="11.1263325" />
      <trkpt lat="46.0673540" lon="11.1263081" />
      <trkpt lat="46.0672814" lon="11.1262921" />
      <trkpt lat="46.0672440" lon="11.1256701" />
      <trkpt lat="46.0672098" lon="11.1255545" />
      <trkpt lat="46.0672112" lon="11.1253651" />
      <trkpt lat="46.0671801" lon="11.1253736" />
      <trkpt lat="46.0671686" lon="11.1253767" />
      <trkpt lat="46.0671402" lon="11.1251507" />
      <trkpt lat="46.0671376" lon="11.1251295" />
      <trkpt lat="46.0671361" lon="11.1251006" />
      <trkpt lat="46.0671157" lon="11.1249286" />
      <trkpt lat="46.0670655" lon="11.1246097" />
      <trkpt lat="46.0670364" lon="11.1244833" />
      <trkpt lat="46.0670340" lon="11.1244675" />
      <trkpt lat="46.0670305" lon="11.1244447" />
      <trkpt lat="46.0670012" lon="11.1242659" />
      <trkpt lat="46.0669974" lon="11.1242205" />
      <trkpt lat="46.0670336" lon="11.1242105" />
      <trkpt lat="46.0670242" lon="11.1241418" />
      <trkpt lat="46.0669731" lon="11.1237689" />
      <trkpt lat="46.0669662" lon="11.1237185" />
      <trkpt lat="46.0669188" lon="11.1233181" />
      <trkpt lat="46.0668986" lon="11.1233290" />
      <trkpt lat="46.0668905" lon="11.1233334" />
      <trkpt lat="46.0668872" lon="11.1232848" />
      <trkpt lat="46.0668548" lon="11.1230552" />
      <trkpt lat="46.0667810" lon="11.1225726" />
      <trkpt lat="46.0667729" lon="11.1225194" />
      <trkpt lat="46.0667715" lon="11.1225101" />
      <trkpt lat="46.0667532" lon="11.1223909" />
      <trkpt lat="46.0667414" lon="11.1223091" />
      <trkpt lat="46.0667357" lon="11.1222747" />
      <trkpt lat="46.0667787" lon="11.1222601" />
      <trkpt lat="46.0667963" lon="11.1222541" />
      <trkpt lat="46.0668726" lon="11.1222251" />
      <trkpt lat="46.0668704" lon="11.1222043" />
      <trkpt lat="46.0668675" lon="11.1221842" />
      <trkpt lat="46.0667697" lon="11.1219637" />
      <trkpt lat="46.0667304" lon="11.1218751" />
      <trkpt lat="46.0667274" lon="11.1218448" />
      <trkpt lat="46.0666789" lon="11.1217092" />
      <trkpt lat="46.0666701" lon="11.1215352" />
      <trkpt lat="46.0667024" lon="11.1213629" />
      <trkpt lat="46.0667526" lon="11.1210542" />
      <trkpt lat="46.0667705" lon="11.1210629" />
      <trkpt lat="46.0668711" lon="11.1210492" />
    </trkseg>
  </trk>
</gpx>
