<?xml version="1.0" encoding="UTF-8"?>
<gpx xmlns="http://www.topografix.com/GPX/1/1" version="1.1" creator="ShapeRoute route-engine">
  <metadata>
    <name>circle 10 km · 2026-10-03</name>
    <author>
      <name>ShapeRoute route-engine</name>
    </author>
    <copyright author="OpenStreetMap contributors">
      <license>https://opendatacommons.org/licenses/odbl/1-0/</license>
    </copyright>
    <link href="https://www.openstreetmap.org/copyright">
      <text>© OpenStreetMap contributors</text>
    </link>
    <time>2026-10-03T10:59:01Z</time>
  </metadata>
  <trk>
    <name>circle 10 km · 2026-10-03</name>
    <trkseg>
      <trkpt lat="46.0668711" lon="11.1210492" />
      <trkpt lat="46.0668249" lon="11.1206182" />
      <trkpt lat="46.0670289" lon="11.1205458" />
      <trkpt lat="46.0668249" lon="11.1206182" />
      <trkpt lat="46.0667816" lon="11.1201952" />
      <trkpt lat="46.0666874" lon="11.1191354" />
      <trkpt lat="46.0666799" lon="11.1190252" />
      <trkpt lat="46.0665730" lon="11.1190499" />
      <trkpt lat="46.0665352" lon="11.1190595" />
      <trkpt lat="46.0665001" lon="11.1190664" />
      <trkpt lat="46.0662061" lon="11.1191266" />
      <trkpt lat="46.0660569" lon="11.1191543" />
      <trkpt lat="46.0659193" lon="11.1191816" />
      <trkpt lat="46.0658933" lon="11.1191867" />
      <trkpt lat="46.0653255" lon="11.1193045" />
      <trkpt lat="46.0652551" lon="11.1193171" />
      <trkpt lat="46.0652385" lon="11.1192116" />
      <trkpt lat="46.0652151" lon="11.1188117" />
      <trkpt lat="46.0651950" lon="11.1180758" />
      <trkpt lat="46.0651934" lon="11.1177089" />
      <trkpt lat="46.0651532" lon="11.1172758" />
      <trkpt lat="46.0651046" lon="11.1172245" />
      <trkpt lat="46.0650448" lon="11.1167071" />
      <trkpt lat="46.0650105" lon="11.1166051" />
      <trkpt lat="46.0649768" lon="11.1164589" />
      <trkpt lat="46.0648277" lon="11.1163932" />
      <trkpt lat="46.0646931" lon="11.1163053" />
      <trkpt lat="46.0646057" lon="11.1163224" />
      <trkpt lat="46.0645429" lon="11.1163936" />
      <trkpt lat="46.0645256" lon="11.1165274" />
      <trkpt lat="46.0645052" lon="11.1167422" />
      <trkpt lat="46.0644674" lon="11.1167469" />
      <trkpt lat="46.0641805" lon="11.1167941" />
      <trkpt lat="46.0635353" lon="11.1168949" />
      <trkpt lat="46.0634299" lon="11.1169932" />
      <trkpt lat="46.0633950" lon="11.1170509" />
      <trkpt lat="46.0633696" lon="11.1167056" />
      <trkpt lat="46.0633201" lon="11.1160412" />
      <trkpt lat="46.0632900" lon="11.1157231" />
      <trkpt lat="46.0632164" lon="11.1156132" />
      <trkpt lat="46.0631258" lon="11.1154721" />
      <trkpt lat="46.0630948" lon="11.1154337" />
      <trkpt lat="46.0630686" lon="11.1154094" />
      <trkpt lat="46.0630418" lon="11.1153936" />
      <trkpt lat="46.0630226" lon="11.1153925" />
      <trkpt lat="46.0628905" lon="11.1154105" />
      <trkpt lat="46.0628553" lon="11.1154153" />
      <trkpt lat="46.0627135" lon="11.1154394" />
      <trkpt lat="46.0625755" lon="11.1154629" />
      <trkpt lat="46.0624877" lon="11.1154771" />
      <trkpt lat="46.0624710" lon="11.1154798" />
      <trkpt lat="46.0624732" lon="11.1155191" />
      <trkpt lat="46.0624718" lon="11.1155261" />
      <trkpt lat="46.0624578" lon="11.1155604" />
      <trkpt lat="46.0624022" lon="11.1155076" />
      <trkpt lat="46.0624081" lon="11.1154810" />
      <trkpt lat="46.0624114" lon="11.1154572" />
      <trkpt lat="46.0624098" lon="11.1154242" />
      <trkpt lat="46.0624082" lon="11.1153912" />
      <trkpt lat="46.0623980" lon="11.1152361" />
      <trkpt lat="46.0623912" lon="11.1151395" />
      <trkpt lat="46.0623203" lon="11.1151508" />
      <trkpt lat="46.0621908" lon="11.1151687" />
      <trkpt lat="46.0617767" lon="11.1152259" />
      <trkpt lat="46.0614109" lon="11.1152761" />
      <trkpt lat="46.0612035" lon="11.1153045" />
      <trkpt lat="46.0609684" lon="11.1153406" />
      <trkpt lat="46.0607247" lon="11.1153780" />
      <trkpt lat="46.0607156" lon="11.1153792" />
      <trkpt lat="46.0606629" lon="11.1153865" />
      <trkpt lat="46.0602209" lon="11.1154487" />
      <trkpt lat="46.0602022" lon="11.1154515" />
      <trkpt lat="46.0597326" lon="11.1155234" />
      <trkpt lat="46.0597100" lon="11.1155269" />
      <trkpt lat="46.0597002" lon="11.1153866" />
      <trkpt lat="46.0596572" lon="11.1147945" />
      <trkpt lat="46.0596559" lon="11.1147777" />
      <trkpt lat="46.0596530" lon="11.1147354" />
      <trkpt lat="46.0594891" lon="11.1147610" />
      <trkpt lat="46.0592891" lon="11.1147921" />
      <trkpt lat="46.0591472" lon="11.1148142" />
      <trkpt lat="46.0591061" lon="11.1148199" />
      <trkpt lat="46.0591070" lon="11.1148572" />
      <trkpt lat="46.0591085" lon="11.1148873" />
      <trkpt lat="46.0591155" lon="11.1152755" />
      <trkpt lat="46.0591217" lon="11.1156325" />
      <trkpt lat="46.0587806" lon="11.1153874" />
      <trkpt lat="46.0584324" lon="11.1150938" />
      <trkpt lat="46.0583790" lon="11.1150491" />
      <trkpt lat="46.0583493" lon="11.1150280" />
      <trkpt lat="46.0583165" lon="11.1150084" />
      <trkpt lat="46.0582868" lon="11.1149975" />
      <trkpt lat="46.0582507" lon="11.1149918" />
      <trkpt lat="46.0582154" lon="11.1149928" />
      <trkpt lat="46.0581561" lon="11.1150009" />
      <trkpt lat="46.0573570" lon="11.1151119" />
      <trkpt lat="46.0572541" lon="11.1151310" />
      <trkpt lat="46.0572132" lon="11.1151379" />
      <trkpt lat="46.0572360" lon="11.1153223" />
      <trkpt lat="46.0572916" lon="11.1157724" />
      <trkpt lat="46.0573209" lon="11.1160069" />
      <trkpt lat="46.0572869" lon="11.1160147" />
      <trkpt lat="46.0572289" lon="11.1160278" />
      <trkpt lat="46.0571742" lon="11.1160341" />
      <trkpt lat="46.0569145" lon="11.1160769" />
      <trkpt lat="46.0561956" lon="11.1161794" />
      <trkpt lat="46.0559355" lon="11.1162139" />
      <trkpt lat="46.0555115" lon="11.1162741" />
      <trkpt lat="46.0551639" lon="11.1163218" />
      <trkpt lat="46.0550688" lon="11.1163289" />
      <trkpt lat="46.0546197" lon="11.1163964" />
      <trkpt lat="46.0545052" lon="11.1164223" />
      <trkpt lat="46.0539046" lon="11.1165510" />
      <trkpt lat="46.0533575" lon="11.1167489" />
      <trkpt lat="46.0532885" lon="11.1167806" />
      <trkpt lat="46.0526588" lon="11.1170695" />
      <trkpt lat="46.0525103" lon="11.1171376" />
      <trkpt lat="46.0525257" lon="11.1172123" />
      <trkpt lat="46.0524776" lon="11.1172396" />
      <trkpt lat="46.0524191" lon="11.1172810" />
      <trkpt lat="46.0523944" lon="11.1173175" />
      <trkpt lat="46.0523753" lon="11.1173580" />
      <trkpt lat="46.0523628" lon="11.1173906" />
      <trkpt lat="46.0523521" lon="11.1174324" />
      <trkpt lat="46.0523436" lon="11.1174741" />
      <trkpt lat="46.0523321" lon="11.1175108" />
      <trkpt lat="46.0523139" lon="11.1175538" />
      <trkpt lat="46.0522943" lon="11.1175921" />
      <trkpt lat="46.0522857" lon="11.1176170" />
      <trkpt lat="46.0522785" lon="11.1176501" />
      <trkpt lat="46.0522767" lon="11.1176948" />
      <trkpt lat="46.0522793" lon="11.1177410" />
      <trkpt lat="46.0522869" lon="11.1177825" />
      <trkpt lat="46.0523434" lon="11.1179502" />
      <trkpt lat="46.0524992" lon="11.1184129" />
      <trkpt lat="46.0525711" lon="11.1186266" />
      <trkpt lat="46.0525906" lon="11.1186851" />
      <trkpt lat="46.0526132" lon="11.1187372" />
      <trkpt lat="46.0526469" lon="11.1187695" />
      <trkpt lat="46.0526819" lon="11.1187920" />
      <trkpt lat="46.0526730" lon="11.1188443" />
      <trkpt lat="46.0526660" lon="11.1188859" />
      <trkpt lat="46.0526628" lon="11.1189188" />
      <trkpt lat="46.0526617" lon="11.1189482" />
      <trkpt lat="46.0526652" lon="11.1189887" />
      <trkpt lat="46.0526733" lon="11.1190099" />
      <trkpt lat="46.0526710" lon="11.1190213" />
      <trkpt lat="46.0526873" lon="11.1190835" />
      <trkpt lat="46.0526998" lon="11.1191375" />
      <trkpt lat="46.0527070" lon="11.1191789" />
      <trkpt lat="46.0527114" lon="11.1192307" />
      <trkpt lat="46.0527962" lon="11.1202378" />
      <trkpt lat="46.0528086" lon="11.1203455" />
      <trkpt lat="46.0528156" lon="11.1204424" />
      <trkpt lat="46.0528256" lon="11.1205494" />
      <trkpt lat="46.0528342" lon="11.1207970" />
      <trkpt lat="46.0528388" lon="11.1209198" />
      <trkpt lat="46.0528373" lon="11.1210849" />
      <trkpt lat="46.0528263" lon="11.1211766" />
      <trkpt lat="46.0528103" lon="11.1212554" />
      <trkpt lat="46.0527848" lon="11.1213421" />
      <trkpt lat="46.0527316" lon="11.1213074" />
      <trkpt lat="46.0527195" lon="11.1213438" />
      <trkpt lat="46.0527114" lon="11.1213683" />
      <trkpt lat="46.0526289" lon="11.1215908" />
      <trkpt lat="46.0526132" lon="11.1216248" />
      <trkpt lat="46.0525653" lon="11.1217037" />
      <trkpt lat="46.0525163" lon="11.1217581" />
      <trkpt lat="46.0524196" lon="11.1218212" />
      <trkpt lat="46.0523145" lon="11.1218399" />
      <trkpt lat="46.0522078" lon="11.1218481" />
      <trkpt lat="46.0520696" lon="11.1218641" />
      <trkpt lat="46.0520016" lon="11.1218793" />
      <trkpt lat="46.0519461" lon="11.1218996" />
      <trkpt lat="46.0518789" lon="11.1219322" />
      <trkpt lat="46.0518123" lon="11.1219785" />
      <trkpt lat="46.0517295" lon="11.1220597" />
      <trkpt lat="46.0516542" lon="11.1221517" />
      <trkpt lat="46.0515191" lon="11.1223363" />
      <trkpt lat="46.0510238" lon="11.1230089" />
      <trkpt lat="46.0509407" lon="11.1231300" />
      <trkpt lat="46.0508721" lon="11.1232364" />
      <trkpt lat="46.0508341" lon="11.1233320" />
      <trkpt lat="46.0508218" lon="11.1233630" />
      <trkpt lat="46.0508022" lon="11.1233502" />
      <trkpt lat="46.0507816" lon="11.1233421" />
      <trkpt lat="46.0507603" lon="11.1233387" />
      <trkpt lat="46.0507389" lon="11.1233403" />
      <trkpt lat="46.0507179" lon="11.1233467" />
      <trkpt lat="46.0506979" lon="11.1233578" />
      <trkpt lat="46.0506794" lon="11.1233734" />
      <trkpt lat="46.0506629" lon="11.1233930" />
      <trkpt lat="46.0506486" lon="11.1234161" />
      <trkpt lat="46.0506372" lon="11.1234421" />
      <trkpt lat="46.0506287" lon="11.1234705" />
      <trkpt lat="46.0506234" lon="11.1235004" />
      <trkpt lat="46.0506216" lon="11.1235277" />
      <trkpt lat="46.0506224" lon="11.1235550" />
      <trkpt lat="46.0506259" lon="11.1235819" />
      <trkpt lat="46.0506320" lon="11.1236078" />
      <trkpt lat="46.0506402" lon="11.1236316" />
      <trkpt lat="46.0506507" lon="11.1236535" />
      <trkpt lat="46.0506631" lon="11.1236732" />
      <trkpt lat="46.0506773" lon="11.1236903" />
      <trkpt lat="46.0506929" lon="11.1237044" />
      <trkpt lat="46.0507098" lon="11.1237153" />
      <trkpt lat="46.0507275" lon="11.1237227" />
      <trkpt lat="46.0507458" lon="11.1237266" />
      <trkpt lat="46.0507643" lon="11.1237269" />
      <trkpt lat="46.0507844" lon="11.1237230" />
      <trkpt lat="46.0508039" lon="11.1237147" />
      <trkpt lat="46.0508224" lon="11.1237024" />
      <trkpt lat="46.0508393" lon="11.1236861" />
      <trkpt lat="46.0508544" lon="11.1236664" />
      <trkpt lat="46.0508672" lon="11.1236437" />
      <trkpt lat="46.0508768" lon="11.1236204" />
      <trkpt lat="46.0508986" lon="11.1236571" />
      <trkpt lat="46.0509533" lon="11.1237080" />
      <trkpt lat="46.0509384" lon="11.1237465" />
      <trkpt lat="46.0509170" lon="11.1237911" />
      <trkpt lat="46.0508861" lon="11.1238325" />
      <trkpt lat="46.0508437" lon="11.1238663" />
      <trkpt lat="46.0508081" lon="11.1238807" />
      <trkpt lat="46.0507797" lon="11.1238847" />
      <trkpt lat="46.0507518" lon="11.1238776" />
      <trkpt lat="46.0507124" lon="11.1238660" />
      <trkpt lat="46.0507099" lon="11.1238590" />
      <trkpt lat="46.0507062" lon="11.1238431" />
      <trkpt lat="46.0507036" lon="11.1238289" />
      <trkpt lat="46.0507002" lon="11.1238189" />
      <trkpt lat="46.0506957" lon="11.1238061" />
      <trkpt lat="46.0506885" lon="11.1237917" />
      <trkpt lat="46.0506721" lon="11.1237745" />
      <trkpt lat="46.0506535" lon="11.1237561" />
      <trkpt lat="46.0506341" lon="11.1237477" />
      <trkpt lat="46.0506068" lon="11.1237499" />
      <trkpt lat="46.0505476" lon="11.1238248" />
      <trkpt lat="46.0504858" lon="11.1239080" />
      <trkpt lat="46.0502186" lon="11.1242776" />
      <trkpt lat="46.0501209" lon="11.1244111" />
      <trkpt lat="46.0500880" lon="11.1244619" />
      <trkpt lat="46.0500461" lon="11.1245264" />
      <trkpt lat="46.0499483" lon="11.1246625" />
      <trkpt lat="46.0496502" lon="11.1250775" />
      <trkpt lat="46.0496187" lon="11.1251268" />
      <trkpt lat="46.0501330" lon="11.1250867" />
      <trkpt lat="46.0501780" lon="11.1258289" />
      <trkpt lat="46.0502250" lon="11.1269032" />
      <trkpt lat="46.0502277" lon="11.1269639" />
      <trkpt lat="46.0509269" lon="11.1269329" />
      <trkpt lat="46.0509921" lon="11.1268926" />
      <trkpt lat="46.0509605" lon="11.1267659" />
      <trkpt lat="46.0509459" lon="11.1267073" />
      <trkpt lat="46.0509263" lon="11.1265690" />
      <trkpt lat="46.0508991" lon="11.1262884" />
      <trkpt lat="46.0508671" lon="11.1259786" />
      <trkpt lat="46.0508484" lon="11.1257710" />
      <trkpt lat="46.0508284" lon="11.1255701" />
      <trkpt lat="46.0507881" lon="11.1251023" />
      <trkpt lat="46.0507784" lon="11.1250048" />
      <trkpt lat="46.0507456" lon="11.1246569" />
      <trkpt lat="46.0507034" lon="11.1242413" />
      <trkpt lat="46.0507122" lon="11.1240971" />
      <trkpt lat="46.0507518" lon="11.1238776" />
      <trkpt lat="46.0507797" lon="11.1238847" />
      <trkpt lat="46.0508081" lon="11.1238807" />
      <trkpt lat="46.0508437" lon="11.1238663" />
      <trkpt lat="46.0508861" lon="11.1238325" />
      <trkpt lat="46.0509170" lon="11.1237911" />
      <trkpt lat="46.0509384" lon="11.1237465" />
      <trkpt lat="46.0509533" lon="11.1237080" />
      <trkpt lat="46.0509966" lon="11.1237414" />
      <trkpt lat="46.0510242" lon="11.1237698" />
      <trkpt lat="46.0510500" lon="11.1237992" />
      <trkpt lat="46.0512412" lon="11.1240869" />
      <trkpt lat="46.0512669" lon="11.1240422" />
      <trkpt lat="46.0512854" lon="11.1240100" />
      <trkpt lat="46.0514041" lon="11.1241441" />
      <trkpt lat="46.0514975" lon="11.1241800" />
      <trkpt lat="46.0516192" lon="11.1241813" />
      <trkpt lat="46.0516197" lon="11.1242845" />
      <trkpt lat="46.0516200" lon="11.1243422" />
      <trkpt lat="46.0516595" lon="11.1243397" />
      <trkpt lat="46.0518446" lon="11.1243239" />
      <trkpt lat="46.0523297" lon="11.1242814" />
      <trkpt lat="46.0523791" lon="11.1242805" />
      <trkpt lat="46.0523973" lon="11.1242851" />
      <trkpt lat="46.0524133" lon="11.1242937" />
      <trkpt lat="46.0524334" lon="11.1243108" />
      <trkpt lat="46.0524461" lon="11.1243317" />
      <trkpt lat="46.0524561" lon="11.1243588" />
      <trkpt lat="46.0524612" lon="11.1243832" />
      <trkpt lat="46.0524632" lon="11.1244101" />
      <trkpt lat="46.0524641" lon="11.1244450" />
      <trkpt lat="46.0524596" lon="11.1246454" />
      <trkpt lat="46.0524583" lon="11.1247094" />
      <trkpt lat="46.0524574" lon="11.1247486" />
      <trkpt lat="46.0524520" lon="11.1250273" />
      <trkpt lat="46.0524501" lon="11.1251090" />
      <trkpt lat="46.0524440" lon="11.1254065" />
      <trkpt lat="46.0524381" lon="11.1256248" />
      <trkpt lat="46.0524360" lon="11.1256419" />
      <trkpt lat="46.0524213" lon="11.1257589" />
      <trkpt lat="46.0523878" lon="11.1258962" />
      <trkpt lat="46.0522690" lon="11.1262184" />
      <trkpt lat="46.0522568" lon="11.1262586" />
      <trkpt lat="46.0522334" lon="11.1263357" />
      <trkpt lat="46.0522065" lon="11.1264613" />
      <trkpt lat="46.0521965" lon="11.1265500" />
      <trkpt lat="46.0521841" lon="11.1267022" />
      <trkpt lat="46.0521870" lon="11.1268935" />
      <trkpt lat="46.0522044" lon="11.1270871" />
      <trkpt lat="46.0522320" lon="11.1274535" />
      <trkpt lat="46.0522814" lon="11.1280379" />
      <trkpt lat="46.0523304" lon="11.1282847" />
      <trkpt lat="46.0523800" lon="11.1284333" />
      <trkpt lat="46.0524495" lon="11.1285953" />
      <trkpt lat="46.0525999" lon="11.1288272" />
      <trkpt lat="46.0526408" lon="11.1289268" />
      <trkpt lat="46.0526709" lon="11.1290453" />
      <trkpt lat="46.0527180" lon="11.1293917" />
      <trkpt lat="46.0527370" lon="11.1296329" />
      <trkpt lat="46.0527396" lon="11.1297846" />
      <trkpt lat="46.0526113" lon="11.1297885" />
      <trkpt lat="46.0524964" lon="11.1297930" />
      <trkpt lat="46.0523876" lon="11.1298038" />
      <trkpt lat="46.0522765" lon="11.1298206" />
      <trkpt lat="46.0521642" lon="11.1298412" />
      <trkpt lat="46.0520318" lon="11.1298749" />
      <trkpt lat="46.0520350" lon="11.1299335" />
      <trkpt lat="46.0519742" lon="11.1299511" />
      <trkpt lat="46.0518833" lon="11.1299803" />
      <trkpt lat="46.0516820" lon="11.1300567" />
      <trkpt lat="46.0516724" lon="11.1300613" />
      <trkpt lat="46.0513707" lon="11.1302048" />
      <trkpt lat="46.0513264" lon="11.1303878" />
      <trkpt lat="46.0513061" lon="11.1304728" />
      <trkpt lat="46.0511476" lon="11.1304360" />
      <trkpt lat="46.0511472" lon="11.1305448" />
      <trkpt lat="46.0511493" lon="11.1306363" />
      <trkpt lat="46.0511562" lon="11.1307604" />
      <trkpt lat="46.0511619" lon="11.1308677" />
      <trkpt lat="46.0511768" lon="11.1311219" />
      <trkpt lat="46.0511815" lon="11.1311739" />
      <trkpt lat="46.0512049" lon="11.1317119" />
      <trkpt lat="46.0512097" lon="11.1321710" />
      <trkpt lat="46.0514894" lon="11.1321332" />
      <trkpt lat="46.0515487" lon="11.1331698" />
      <trkpt lat="46.0516379" lon="11.1331578" />
      <trkpt lat="46.0517955" lon="11.1331366" />
      <trkpt lat="46.0517667" lon="11.1326819" />
      <trkpt lat="46.0521483" lon="11.1326638" />
      <trkpt lat="46.0521408" lon="11.1324653" />
      <trkpt lat="46.0523797" lon="11.1324502" />
      <trkpt lat="46.0526937" lon="11.1324304" />
      <trkpt lat="46.0533123" lon="11.1323914" />
      <trkpt lat="46.0533163" lon="11.1324654" />
      <trkpt lat="46.0533213" lon="11.1326102" />
      <trkpt lat="46.0533401" lon="11.1329688" />
      <trkpt lat="46.0533411" lon="11.1330833" />
      <trkpt lat="46.0533376" lon="11.1332233" />
      <trkpt lat="46.0533264" lon="11.1333021" />
      <trkpt lat="46.0533190" lon="11.1333545" />
      <trkpt lat="46.0533096" lon="11.1334206" />
      <trkpt lat="46.0532950" lon="11.1335122" />
      <trkpt lat="46.0532841" lon="11.1335893" />
      <trkpt lat="46.0532889" lon="11.1336562" />
      <trkpt lat="46.0533160" lon="11.1337172" />
      <trkpt lat="46.0533497" lon="11.1337597" />
      <trkpt lat="46.0533761" lon="11.1337706" />
      <trkpt lat="46.0534082" lon="11.1337839" />
      <trkpt lat="46.0534802" lon="11.1337773" />
      <trkpt lat="46.0536825" lon="11.1337267" />
      <trkpt lat="46.0537942" lon="11.1336770" />
      <trkpt lat="46.0538221" lon="11.1336644" />
      <trkpt lat="46.0539121" lon="11.1336267" />
      <trkpt lat="46.0540198" lon="11.1335708" />
      <trkpt lat="46.0541730" lon="11.1334900" />
      <trkpt lat="46.0542652" lon="11.1334405" />
      <trkpt lat="46.0542917" lon="11.1334330" />
      <trkpt lat="46.0543174" lon="11.1334314" />
      <trkpt lat="46.0543731" lon="11.1334267" />
      <trkpt lat="46.0543331" lon="11.1335195" />
      <trkpt lat="46.0543209" lon="11.1336048" />
      <trkpt lat="46.0543063" lon="11.1337103" />
      <trkpt lat="46.0543056" lon="11.1338207" />
      <trkpt lat="46.0543113" lon="11.1339582" />
      <trkpt lat="46.0543365" lon="11.1343377" />
      <trkpt lat="46.0543718" lon="11.1348996" />
      <trkpt lat="46.0543644" lon="11.1349989" />
      <trkpt lat="46.0543417" lon="11.1350875" />
      <trkpt lat="46.0543112" lon="11.1351434" />
      <trkpt lat="46.0543380" lon="11.1351867" />
      <trkpt lat="46.0543558" lon="11.1352154" />
      <trkpt lat="46.0545075" lon="11.1354742" />
      <trkpt lat="46.0547537" lon="11.1359125" />
      <trkpt lat="46.0548012" lon="11.1360005" />
      <trkpt lat="46.0550517" lon="11.1364096" />
      <trkpt lat="46.0552645" lon="11.1368122" />
      <trkpt lat="46.0554616" lon="11.1371952" />
      <trkpt lat="46.0555321" lon="11.1376620" />
      <trkpt lat="46.0558443" lon="11.1379891" />
      <trkpt lat="46.0559631" lon="11.1381078" />
      <trkpt lat="46.0561442" lon="11.1383584" />
      <trkpt lat="46.0562135" lon="11.1384027" />
      <trkpt lat="46.0562854" lon="11.1384077" />
      <trkpt lat="46.0563189" lon="11.1383570" />
      <trkpt lat="46.0563263" lon="11.1381598" />
      <trkpt lat="46.0563175" lon="11.1379628" />
      <trkpt lat="46.0562729" lon="11.1377426" />
      <trkpt lat="46.0562250" lon="11.1376390" />
      <trkpt lat="46.0561671" lon="11.1375747" />
      <trkpt lat="46.0561019" lon="11.1375298" />
      <trkpt lat="46.0560703" lon="11.1374569" />
      <trkpt lat="46.0560784" lon="11.1373700" />
      <trkpt lat="46.0561242" lon="11.1373182" />
      <trkpt lat="46.0561842" lon="11.1373245" />
      <trkpt lat="46.0562444" lon="11.1373975" />
      <trkpt lat="46.0564498" lon="11.1376186" />
      <trkpt lat="46.0565516" lon="11.1376798" />
      <trkpt lat="46.0566899" lon="11.1377208" />
      <trkpt lat="46.0567383" lon="11.1377357" />
      <trkpt lat="46.0567950" lon="11.1377509" />
      <trkpt lat="46.0568753" lon="11.1377659" />
      <trkpt lat="46.0570906" lon="11.1378118" />
      <trkpt lat="46.0576736" lon="11.1378802" />
      <trkpt lat="46.0579406" lon="11.1378875" />
      <trkpt lat="46.0579889" lon="11.1379352" />
      <trkpt lat="46.0580189" lon="11.1379723" />
      <trkpt lat="46.0581896" lon="11.1381703" />
      <trkpt lat="46.0582782" lon="11.1382624" />
      <trkpt lat="46.0583143" lon="11.1382999" />
      <trkpt lat="46.0583542" lon="11.1384048" />
      <trkpt lat="46.0583861" lon="11.1384599" />
      <trkpt lat="46.0584096" lon="11.1385006" />
      <trkpt lat="46.0584599" lon="11.1385489" />
      <trkpt lat="46.0585413" lon="11.1385931" />
      <trkpt lat="46.0587176" lon="11.1386400" />
      <trkpt lat="46.0588422" lon="11.1386697" />
      <trkpt lat="46.0588973" lon="11.1386695" />
      <trkpt lat="46.0590787" lon="11.1386749" />
      <trkpt lat="46.0594166" lon="11.1386989" />
      <trkpt lat="46.0593663" lon="11.1386441" />
      <trkpt lat="46.0592211" lon="11.1384134" />
      <trkpt lat="46.0590271" lon="11.1381067" />
      <trkpt lat="46.0588770" lon="11.1378790" />
      <trkpt lat="46.0589703" lon="11.1378355" />
      <trkpt lat="46.0591153" lon="11.1378001" />
      <trkpt lat="46.0592231" lon="11.1378223" />
      <trkpt lat="46.0594564" lon="11.1379254" />
      <trkpt lat="46.0595928" lon="11.1380522" />
      <trkpt lat="46.0599676" lon="11.1383921" />
      <trkpt lat="46.0601005" lon="11.1384377" />
      <trkpt lat="46.0602050" lon="11.1384560" />
      <trkpt lat="46.0602715" lon="11.1384195" />
      <trkpt lat="46.0604235" lon="11.1383328" />
      <trkpt lat="46.0605754" lon="11.1382871" />
      <trkpt lat="46.0606145" lon="11.1382739" />
      <trkpt lat="46.0607369" lon="11.1382324" />
      <trkpt lat="46.0608952" lon="11.1381229" />
      <trkpt lat="46.0609680" lon="11.1380773" />
      <trkpt lat="46.0610960" lon="11.1380057" />
      <trkpt lat="46.0611945" lon="11.1379657" />
      <trkpt lat="46.0612251" lon="11.1379199" />
      <trkpt lat="46.0612249" lon="11.1378990" />
      <trkpt lat="46.0612243" lon="11.1378490" />
      <trkpt lat="46.0612032" lon="11.1377984" />
      <trkpt lat="46.0611324" lon="11.1377762" />
      <trkpt lat="46.0611079" lon="11.1377738" />
      <trkpt lat="46.0610471" lon="11.1377625" />
      <trkpt lat="46.0609268" lon="11.1377328" />
      <trkpt lat="46.0607495" lon="11.1377054" />
      <trkpt lat="46.0605912" lon="11.1376781" />
      <trkpt lat="46.0604331" lon="11.1376590" />
      <trkpt lat="46.0604078" lon="11.1376391" />
      <trkpt lat="46.0603942" lon="11.1376034" />
      <trkpt lat="46.0603984" lon="11.1375821" />
      <trkpt lat="46.0604100" lon="11.1375609" />
      <trkpt lat="46.0604626" lon="11.1375336" />
      <trkpt lat="46.0608002" lon="11.1374043" />
      <trkpt lat="46.0609712" lon="11.1373131" />
      <trkpt lat="46.0611738" lon="11.1372161" />
      <trkpt lat="46.0612307" lon="11.1371853" />
      <trkpt lat="46.0613574" lon="11.1370576" />
      <trkpt lat="46.0615290" lon="11.1369905" />
      <trkpt lat="46.0615403" lon="11.1369863" />
      <trkpt lat="46.0616005" lon="11.1369625" />
      <trkpt lat="46.0617253" lon="11.1369144" />
      <trkpt lat="46.0617682" lon="11.1368963" />
      <trkpt lat="46.0617786" lon="11.1368905" />
      <trkpt lat="46.0617867" lon="11.1368699" />
      <trkpt lat="46.0617942" lon="11.1368406" />
      <trkpt lat="46.0617927" lon="11.1368040" />
      <trkpt lat="46.0617741" lon="11.1367771" />
      <trkpt lat="46.0617524" lon="11.1367326" />
      <trkpt lat="46.0617325" lon="11.1366438" />
      <trkpt lat="46.0617241" lon="11.1365907" />
      <trkpt lat="46.0617183" lon="11.1365075" />
      <trkpt lat="46.0617213" lon="11.1364198" />
      <trkpt lat="46.0617225" lon="11.1357159" />
      <trkpt lat="46.0617233" lon="11.1353284" />
      <trkpt lat="46.0617665" lon="11.1353283" />
      <trkpt lat="46.0617787" lon="11.1353272" />
      <trkpt lat="46.0618708" lon="11.1353331" />
      <trkpt lat="46.0619745" lon="11.1353477" />
      <trkpt lat="46.0620572" lon="11.1353731" />
      <trkpt lat="46.0621333" lon="11.1353982" />
      <trkpt lat="46.0622242" lon="11.1354383" />
      <trkpt lat="46.0623069" lon="11.1354787" />
      <trkpt lat="46.0623809" lon="11.1355288" />
      <trkpt lat="46.0625085" lon="11.1356185" />
      <trkpt lat="46.0626167" lon="11.1357201" />
      <trkpt lat="46.0627726" lon="11.1359084" />
      <trkpt lat="46.0628416" lon="11.1358957" />
      <trkpt lat="46.0628263" lon="11.1358533" />
      <trkpt lat="46.0627778" lon="11.1358520" />
      <trkpt lat="46.0626246" lon="11.1356817" />
      <trkpt lat="46.0625595" lon="11.1356153" />
      <trkpt lat="46.0624443" lon="11.1355183" />
      <trkpt lat="46.0623426" lon="11.1354487" />
      <trkpt lat="46.0623180" lon="11.1354315" />
      <trkpt lat="46.0624754" lon="11.1348748" />
      <trkpt lat="46.0625081" lon="11.1348081" />
      <trkpt lat="46.0627322" lon="11.1344744" />
      <trkpt lat="46.0627428" lon="11.1344594" />
      <trkpt lat="46.0627630" lon="11.1344324" />
      <trkpt lat="46.0629520" lon="11.1347179" />
      <trkpt lat="46.0629823" lon="11.1347616" />
      <trkpt lat="46.0631653" lon="11.1350261" />
      <trkpt lat="46.0631931" lon="11.1350282" />
      <trkpt lat="46.0632217" lon="11.1350092" />
      <trkpt lat="46.0635831" lon="11.1344688" />
      <trkpt lat="46.0636097" lon="11.1344291" />
      <trkpt lat="46.0641230" lon="11.1351879" />
      <trkpt lat="46.0643430" lon="11.1355222" />
      <trkpt lat="46.0644714" lon="11.1357258" />
      <trkpt lat="46.0645097" lon="11.1358120" />
      <trkpt lat="46.0645368" lon="11.1358857" />
      <trkpt lat="46.0645587" lon="11.1359610" />
      <trkpt lat="46.0645403" lon="11.1359831" />
      <trkpt lat="46.0645278" lon="11.1360126" />
      <trkpt lat="46.0645226" lon="11.1360463" />
      <trkpt lat="46.0645252" lon="11.1360807" />
      <trkpt lat="46.0645353" lon="11.1361120" />
      <trkpt lat="46.0645518" lon="11.1361369" />
      <trkpt lat="46.0645731" lon="11.1361529" />
      <trkpt lat="46.0645964" lon="11.1361581" />
      <trkpt lat="46.0646196" lon="11.1361525" />
      <trkpt lat="46.0646404" lon="11.1361365" />
      <trkpt lat="46.0646566" lon="11.1361118" />
      <trkpt lat="46.0646666" lon="11.1360810" />
      <trkpt lat="46.0646688" lon="11.1360651" />
      <trkpt lat="46.0647387" lon="11.1360504" />
      <trkpt lat="46.0647484" lon="11.1360380" />
      <trkpt lat="46.0649149" lon="11.1358081" />
      <trkpt lat="46.0649292" lon="11.1357846" />
      <trkpt lat="46.0649644" lon="11.1357256" />
      <trkpt lat="46.0651249" lon="11.1354976" />
      <trkpt lat="46.0651491" lon="11.1354441" />
      <trkpt lat="46.0651792" lon="11.1354971" />
      <trkpt lat="46.0652385" lon="11.1356027" />
      <trkpt lat="46.0653233" lon="11.1356535" />
      <trkpt lat="46.0654566" lon="11.1357405" />
      <trkpt lat="46.0655347" lon="11.1357705" />
      <trkpt lat="46.0657114" lon="11.1358023" />
      <trkpt lat="46.0659518" lon="11.1360367" />
      <trkpt lat="46.0662916" lon="11.1362363" />
      <trkpt lat="46.0662977" lon="11.1362126" />
      <trkpt lat="46.0663128" lon="11.1362211" />
      <trkpt lat="46.0663071" lon="11.1362447" />
      <trkpt lat="46.0663281" lon="11.1362580" />
      <trkpt lat="46.0663426" lon="11.1361849" />
      <trkpt lat="46.0662574" lon="11.1360370" />
      <trkpt lat="46.0661257" lon="11.1358238" />
      <trkpt lat="46.0660265" lon="11.1356395" />
      <trkpt lat="46.0659865" lon="11.1355516" />
      <trkpt lat="46.0659547" lon="11.1354532" />
      <trkpt lat="46.0658105" lon="11.1347412" />
      <trkpt lat="46.0658057" lon="11.1347176" />
      <trkpt lat="46.0657741" lon="11.1344539" />
      <trkpt lat="46.0657771" lon="11.1342867" />
      <trkpt lat="46.0657826" lon="11.1341633" />
      <trkpt lat="46.0658180" lon="11.1338865" />
      <trkpt lat="46.0658531" lon="11.1337510" />
      <trkpt lat="46.0658909" lon="11.1336844" />
      <trkpt lat="46.0659539" lon="11.1336233" />
      <trkpt lat="46.0661913" lon="11.1334955" />
      <trkpt lat="46.0662462" lon="11.1334632" />
      <trkpt lat="46.0663033" lon="11.1334010" />
      <trkpt lat="46.0663721" lon="11.1332750" />
      <trkpt lat="46.0664230" lon="11.1330833" />
      <trkpt lat="46.0664278" lon="11.1328854" />
      <trkpt lat="46.0664177" lon="11.1327423" />
      <trkpt lat="46.0663973" lon="11.1324220" />
      <trkpt lat="46.0663981" lon="11.1322700" />
      <trkpt lat="46.0664271" lon="11.1321202" />
      <trkpt lat="46.0665417" lon="11.1318344" />
      <trkpt lat="46.0669291" lon="11.1308955" />
      <trkpt lat="46.0669499" lon="11.1308480" />
      <trkpt lat="46.0670662" lon="11.1305822" />
      <trkpt lat="46.0671709" lon="11.1304027" />
      <trkpt lat="46.0676316" lon="11.1297529" />
      <trkpt lat="46.0676905" lon="11.1296887" />
      <trkpt lat="46.0677627" lon="11.1296102" />
      <trkpt lat="46.0679193" lon="11.1294608" />
      <trkpt lat="46.0681974" lon="11.1293038" />
      <trkpt lat="46.0682281" lon="11.1292878" />
      <trkpt lat="46.0682844" lon="11.1292584" />
      <trkpt lat="46.0686535" lon="11.1290659" />
      <trkpt lat="46.0689565" lon="11.1288966" />
      <trkpt lat="46.0692759" lon="11.1287364" />
      <trkpt lat="46.0696123" lon="11.1285533" />
      <trkpt lat="46.0696505" lon="11.1285222" />
      <trkpt lat="46.0696984" lon="11.1284847" />
      <trkpt lat="46.0697343" lon="11.1284455" />
      <trkpt lat="46.0697639" lon="11.1283937" />
      <trkpt lat="46.0697906" lon="11.1283403" />
      <trkpt lat="46.0698108" lon="11.1282698" />
      <trkpt lat="46.0698273" lon="11.1281843" />
      <trkpt lat="46.0698343" lon="11.1280929" />
      <trkpt lat="46.0698512" lon="11.1279635" />
      <trkpt lat="46.0698344" lon="11.1279076" />
      <trkpt lat="46.0696448" lon="11.1278469" />
      <trkpt lat="46.0694217" lon="11.1277691" />
      <trkpt lat="46.0691985" lon="11.1276913" />
      <trkpt lat="46.0691674" lon="11.1276847" />
      <trkpt lat="46.0691576" lon="11.1276634" />
      <trkpt lat="46.0690769" lon="11.1276122" />
      <trkpt lat="46.0690596" lon="11.1276035" />
      <trkpt lat="46.0690164" lon="11.1275628" />
      <trkpt lat="46.0689143" lon="11.1274631" />
      <trkpt lat="46.0687621" lon="11.1274524" />
      <trkpt lat="46.0687905" lon="11.1275073" />
      <trkpt lat="46.0688458" lon="11.1275497" />
      <trkpt lat="46.0689070" lon="11.1275700" />
      <trkpt lat="46.0689502" lon="11.1275672" />
      <trkpt lat="46.0690164" lon="11.1275628" />
      <trkpt lat="46.0690389" lon="11.1274728" />
      <trkpt lat="46.0690894" lon="11.1273809" />
      <trkpt lat="46.0690976" lon="11.1273725" />
      <trkpt lat="46.0691351" lon="11.1273337" />
      <trkpt lat="46.0691688" lon="11.1273031" />
      <trkpt lat="46.0691967" lon="11.1272882" />
      <trkpt lat="46.0691491" lon="11.1272668" />
      <trkpt lat="46.0690954" lon="11.1272562" />
      <trkpt lat="46.0690555" lon="11.1272619" />
      <trkpt lat="46.0690274" lon="11.1272821" />
      <trkpt lat="46.0690336" lon="11.1272085" />
      <trkpt lat="46.0690444" lon="11.1271120" />
      <trkpt lat="46.0690316" lon="11.1270314" />
      <trkpt lat="46.0689471" lon="11.1265183" />
      <trkpt lat="46.0688267" lon="11.1260444" />
      <trkpt lat="46.0687920" lon="11.1259214" />
      <trkpt lat="46.0685395" lon="11.1255528" />
      <trkpt lat="46.0683943" lon="11.1252914" />
      <trkpt lat="46.0683737" lon="11.1252392" />
      <trkpt lat="46.0683518" lon="11.1247826" />
      <trkpt lat="46.0683684" lon="11.1245203" />
      <trkpt lat="46.0683766" lon="11.1242292" />
      <trkpt lat="46.0683541" lon="11.1239478" />
      <trkpt lat="46.0683250" lon="11.1239053" />
      <trkpt lat="46.0682835" lon="11.1238873" />
      <trkpt lat="46.0682827" lon="11.1238602" />
      <trkpt lat="46.0682805" lon="11.1238337" />
      <trkpt lat="46.0682565" lon="11.1234891" />
      <trkpt lat="46.0682323" lon="11.1232256" />
      <trkpt lat="46.0682031" lon="11.1229202" />
      <trkpt lat="46.0681489" lon="11.1225470" />
      <trkpt lat="46.0681369" lon="11.1224940" />
      <trkpt lat="46.0680379" lon="11.1224549" />
      <trkpt lat="46.0679214" lon="11.1224272" />
      <trkpt lat="46.0678251" lon="11.1224117" />
      <trkpt lat="46.0677412" lon="11.1221070" />
      <trkpt lat="46.0676370" lon="11.1221176" />
      <trkpt lat="46.0676015" lon="11.1221212" />
      <trkpt lat="46.0676012" lon="11.1219639" />
      <trkpt lat="46.0676556" lon="11.1215705" />
      <trkpt lat="46.0676623" lon="11.1214867" />
      <trkpt lat="46.0676530" lon="11.1212477" />
      <trkpt lat="46.0675238" lon="11.1212683" />
      <trkpt lat="46.0673001" lon="11.1213049" />
      <trkpt lat="46.0670542" lon="11.1211241" />
      <trkpt lat="46.0670408" lon="11.1210278" />
      <trkpt lat="46.0669975" lon="11.1210365" />
      <trkpt lat="46.0668711" lon="11.1210492" />
      <trkpt lat="46.0668249" lon="11.1206182" />
      <trkpt lat="46.0670289" lon="11.1205458" />
      <trkpt lat="46.0668249" lon="11.1206182" />
      <trkpt lat="46.0668711" lon="11.1210492" />
    </trkseg>
  </trk>
</gpx>
