<?xml version="1.0" encoding="UTF-8"?>
<gpx xmlns="http://www.topografix.com/GPX/1/1" version="1.1" creator="ShapeRoute route-engine">
  <metadata>
    <name>cat 15 km · 2026-09-24</name>
    <author>
      <name>ShapeRoute route-engine</name>
    </author>
    <copyright author="OpenStreetMap contributors">
      <license>https://opendatacommons.org/licenses/odbl/1-0/</license>
    </copyright>
    <link href="https://www.openstreetmap.org/copyright">
      <text>© OpenStreetMap contributors</text>
    </link>
    <time>2026-09-24T07:49:49Z</time>
  </metadata>
  <trk>
    <name>cat 15 km · 2026-09-24</name>
    <trkseg>
      <trkpt lat="45.4643695" lon="9.1897716" />
      <trkpt lat="45.4644313" lon="9.1898582" />
      <trkpt lat="45.4644741" lon="9.1898729" />
      <trkpt lat="45.4645046" lon="9.1898833" />
      <trkpt lat="45.4645446" lon="9.1898970" />
      <trkpt lat="45.4645546" lon="9.1899005" />
      <trkpt lat="45.4645542" lon="9.1899580" />
      <trkpt lat="45.4645591" lon="9.1899581" />
      <trkpt lat="45.4645591" lon="9.1899739" />
      <trkpt lat="45.4645579" lon="9.1902970" />
      <trkpt lat="45.4645713" lon="9.1903119" />
      <trkpt lat="45.4645796" lon="9.1903211" />
      <trkpt lat="45.4645915" lon="9.1903344" />
      <trkpt lat="45.4645901" lon="9.1904077" />
      <trkpt lat="45.4646642" lon="9.1904112" />
      <trkpt lat="45.4646621" lon="9.1904786" />
      <trkpt lat="45.4645935" lon="9.1906061" />
      <trkpt lat="45.4646000" lon="9.1909552" />
      <trkpt lat="45.4646003" lon="9.1909797" />
      <trkpt lat="45.4646007" lon="9.1910693" />
      <trkpt lat="45.4646012" lon="9.1911209" />
      <trkpt lat="45.4646465" lon="9.1911206" />
      <trkpt lat="45.4646515" lon="9.1916688" />
      <trkpt lat="45.4646511" lon="9.1923052" />
      <trkpt lat="45.4646734" lon="9.1923054" />
      <trkpt lat="45.4646721" lon="9.1927654" />
      <trkpt lat="45.4647161" lon="9.1929137" />
      <trkpt lat="45.4648346" lon="9.1933799" />
      <trkpt lat="45.4648401" lon="9.1934008" />
      <trkpt lat="45.4648615" lon="9.1934817" />
      <trkpt lat="45.4650079" lon="9.1940222" />
      <trkpt lat="45.4650350" lon="9.1941188" />
      <trkpt lat="45.4651569" lon="9.1945855" />
      <trkpt lat="45.4651731" lon="9.1946401" />
      <trkpt lat="45.4653060" lon="9.1950883" />
      <trkpt lat="45.4654030" lon="9.1954196" />
      <trkpt lat="45.4655249" lon="9.1958359" />
      <trkpt lat="45.4655529" lon="9.1959281" />
      <trkpt lat="45.4655755" lon="9.1960025" />
      <trkpt lat="45.4656181" lon="9.1961466" />
      <trkpt lat="45.4656934" lon="9.1963617" />
      <trkpt lat="45.4657596" lon="9.1965459" />
      <trkpt lat="45.4657694" lon="9.1965733" />
      <trkpt lat="45.4658268" lon="9.1967437" />
      <trkpt lat="45.4658937" lon="9.1969149" />
      <trkpt lat="45.4659713" lon="9.1970729" />
      <trkpt lat="45.4660153" lon="9.1971505" />
      <trkpt lat="45.4660600" lon="9.1972000" />
      <trkpt lat="45.4661097" lon="9.1972278" />
      <trkpt lat="45.4661121" lon="9.1972281" />
      <trkpt lat="45.4661503" lon="9.1972880" />
      <trkpt lat="45.4661742" lon="9.1973149" />
      <trkpt lat="45.4663306" lon="9.1975147" />
      <trkpt lat="45.4663885" lon="9.1975716" />
      <trkpt lat="45.4667595" lon="9.1975998" />
      <trkpt lat="45.4667746" lon="9.1975995" />
      <trkpt lat="45.4668213" lon="9.1976068" />
      <trkpt lat="45.4668534" lon="9.1976118" />
      <trkpt lat="45.4668753" lon="9.1976137" />
      <trkpt lat="45.4669578" lon="9.1976280" />
      <trkpt lat="45.4669681" lon="9.1976606" />
      <trkpt lat="45.4670168" lon="9.1976916" />
      <trkpt lat="45.4670758" lon="9.1977334" />
      <trkpt lat="45.4671054" lon="9.1977550" />
      <trkpt lat="45.4676822" lon="9.1981426" />
      <trkpt lat="45.4678973" lon="9.1983264" />
      <trkpt lat="45.4680917" lon="9.1984924" />
      <trkpt lat="45.4684410" lon="9.1987908" />
      <trkpt lat="45.4684551" lon="9.1988022" />
      <trkpt lat="45.4684803" lon="9.1988285" />
      <trkpt lat="45.4687710" lon="9.1991082" />
      <trkpt lat="45.4687637" lon="9.1991167" />
      <trkpt lat="45.4687104" lon="9.1991793" />
      <trkpt lat="45.4686591" lon="9.1992395" />
      <trkpt lat="45.4686458" lon="9.1992551" />
      <trkpt lat="45.4686627" lon="9.1992717" />
      <trkpt lat="45.4686702" lon="9.1992791" />
      <trkpt lat="45.4686961" lon="9.1993049" />
      <trkpt lat="45.4687226" lon="9.1993313" />
      <trkpt lat="45.4687797" lon="9.1993878" />
      <trkpt lat="45.4687907" lon="9.1993987" />
      <trkpt lat="45.4682897" lon="9.1998300" />
      <trkpt lat="45.4685087" lon="9.2007947" />
      <trkpt lat="45.4685931" lon="9.2010686" />
      <trkpt lat="45.4686611" lon="9.2012431" />
      <trkpt lat="45.4685931" lon="9.2010686" />
      <trkpt lat="45.4685087" lon="9.2007947" />
      <trkpt lat="45.4682897" lon="9.1998300" />
      <trkpt lat="45.4682758" lon="9.1998419" />
      <trkpt lat="45.4682306" lon="9.1998802" />
      <trkpt lat="45.4681885" lon="9.1999161" />
      <trkpt lat="45.4681840" lon="9.1999199" />
      <trkpt lat="45.4681428" lon="9.1999156" />
      <trkpt lat="45.4678790" lon="9.2001161" />
      <trkpt lat="45.4675994" lon="9.2003169" />
      <trkpt lat="45.4673986" lon="9.2004510" />
      <trkpt lat="45.4672320" lon="9.2005515" />
      <trkpt lat="45.4670987" lon="9.2006253" />
      <trkpt lat="45.4670500" lon="9.2006738" />
      <trkpt lat="45.4670396" lon="9.2006792" />
      <trkpt lat="45.4670086" lon="9.2006845" />
      <trkpt lat="45.4669977" lon="9.2006858" />
      <trkpt lat="45.4669922" lon="9.2006856" />
      <trkpt lat="45.4669637" lon="9.2006484" />
      <trkpt lat="45.4662640" lon="9.2005901" />
      <trkpt lat="45.4658986" lon="9.2005660" />
      <trkpt lat="45.4658881" lon="9.2006128" />
      <trkpt lat="45.4658721" lon="9.2006064" />
      <trkpt lat="45.4657987" lon="9.2005998" />
      <trkpt lat="45.4657665" lon="9.2005974" />
      <trkpt lat="45.4657230" lon="9.2005944" />
      <trkpt lat="45.4657089" lon="9.2005501" />
      <trkpt lat="45.4654438" lon="9.2004636" />
      <trkpt lat="45.4652958" lon="9.2003823" />
      <trkpt lat="45.4652075" lon="9.2003388" />
      <trkpt lat="45.4651252" lon="9.2003011" />
      <trkpt lat="45.4650451" lon="9.2002602" />
      <trkpt lat="45.4648871" lon="9.2001710" />
      <trkpt lat="45.4648672" lon="9.2001903" />
      <trkpt lat="45.4648529" lon="9.2001823" />
      <trkpt lat="45.4648138" lon="9.2001604" />
      <trkpt lat="45.4647828" lon="9.2001430" />
      <trkpt lat="45.4647781" lon="9.2001404" />
      <trkpt lat="45.4647751" lon="9.2001135" />
      <trkpt lat="45.4647495" lon="9.2000972" />
      <trkpt lat="45.4645298" lon="9.1999717" />
      <trkpt lat="45.4642965" lon="9.1998406" />
      <trkpt lat="45.4642558" lon="9.1998178" />
      <trkpt lat="45.4642480" lon="9.1998223" />
      <trkpt lat="45.4642154" lon="9.1999324" />
      <trkpt lat="45.4642337" lon="9.2000555" />
      <trkpt lat="45.4642708" lon="9.2003191" />
      <trkpt lat="45.4642839" lon="9.2004317" />
      <trkpt lat="45.4643004" lon="9.2005458" />
      <trkpt lat="45.4643644" lon="9.2009157" />
      <trkpt lat="45.4642689" lon="9.2009541" />
      <trkpt lat="45.4634692" lon="9.2012495" />
      <trkpt lat="45.4634548" lon="9.2012580" />
      <trkpt lat="45.4634477" lon="9.2013233" />
      <trkpt lat="45.4634343" lon="9.2013269" />
      <trkpt lat="45.4634162" lon="9.2013288" />
      <trkpt lat="45.4634076" lon="9.2013301" />
      <trkpt lat="45.4633979" lon="9.2013272" />
      <trkpt lat="45.4633958" lon="9.2013002" />
      <trkpt lat="45.4633816" lon="9.2012921" />
      <trkpt lat="45.4633804" lon="9.2012835" />
      <trkpt lat="45.4633807" lon="9.2012687" />
      <trkpt lat="45.4633803" lon="9.2012337" />
      <trkpt lat="45.4633802" lon="9.2012238" />
      <trkpt lat="45.4633721" lon="9.2012375" />
      <trkpt lat="45.4629538" lon="9.2012105" />
      <trkpt lat="45.4626617" lon="9.2011777" />
      <trkpt lat="45.4626516" lon="9.2011350" />
      <trkpt lat="45.4626418" lon="9.2011301" />
      <trkpt lat="45.4625749" lon="9.2010968" />
      <trkpt lat="45.4625275" lon="9.2010758" />
      <trkpt lat="45.4625219" lon="9.2010704" />
      <trkpt lat="45.4623889" lon="9.2009995" />
      <trkpt lat="45.4623935" lon="9.2009935" />
      <trkpt lat="45.4623930" lon="9.2009397" />
      <trkpt lat="45.4623922" lon="9.2008614" />
      <trkpt lat="45.4623920" lon="9.2008389" />
      <trkpt lat="45.4623927" lon="9.2008201" />
      <trkpt lat="45.4623738" lon="9.2008195" />
      <trkpt lat="45.4623438" lon="9.2008184" />
      <trkpt lat="45.4623147" lon="9.2008174" />
      <trkpt lat="45.4623120" lon="9.2008173" />
      <trkpt lat="45.4622988" lon="9.2008169" />
      <trkpt lat="45.4622503" lon="9.2008155" />
      <trkpt lat="45.4622111" lon="9.2008139" />
      <trkpt lat="45.4621873" lon="9.2008131" />
      <trkpt lat="45.4621744" lon="9.2005560" />
      <trkpt lat="45.4614532" lon="9.2004597" />
      <trkpt lat="45.4609024" lon="9.2003542" />
      <trkpt lat="45.4609097" lon="9.2003223" />
      <trkpt lat="45.4609251" lon="9.2002558" />
      <trkpt lat="45.4608773" lon="9.2002477" />
      <trkpt lat="45.4608583" lon="9.2002437" />
      <trkpt lat="45.4608194" lon="9.2002355" />
      <trkpt lat="45.4606306" lon="9.2001959" />
      <trkpt lat="45.4600803" lon="9.2000953" />
      <trkpt lat="45.4599099" lon="9.2000757" />
      <trkpt lat="45.4599118" lon="9.2001632" />
      <trkpt lat="45.4599133" lon="9.2002317" />
      <trkpt lat="45.4599295" lon="9.2006498" />
      <trkpt lat="45.4599204" lon="9.2006517" />
      <trkpt lat="45.4598904" lon="9.2006580" />
      <trkpt lat="45.4598624" lon="9.2006639" />
      <trkpt lat="45.4598328" lon="9.2006702" />
      <trkpt lat="45.4598309" lon="9.2006501" />
      <trkpt lat="45.4595421" lon="9.2007126" />
      <trkpt lat="45.4588831" lon="9.2008851" />
      <trkpt lat="45.4581359" lon="9.2010808" />
      <trkpt lat="45.4581341" lon="9.2010643" />
      <trkpt lat="45.4581294" lon="9.2010209" />
      <trkpt lat="45.4581281" lon="9.2010093" />
      <trkpt lat="45.4581261" lon="9.2009909" />
      <trkpt lat="45.4580988" lon="9.2009711" />
      <trkpt lat="45.4580477" lon="9.2007506" />
      <trkpt lat="45.4580442" lon="9.2007065" />
      <trkpt lat="45.4580644" lon="9.2006517" />
      <trkpt lat="45.4580633" lon="9.2006444" />
      <trkpt lat="45.4580568" lon="9.2005993" />
      <trkpt lat="45.4580514" lon="9.2005617" />
      <trkpt lat="45.4580499" lon="9.2005533" />
      <trkpt lat="45.4580063" lon="9.2005353" />
      <trkpt lat="45.4578356" lon="9.1990571" />
      <trkpt lat="45.4584774" lon="9.1989649" />
      <trkpt lat="45.4584908" lon="9.1989626" />
      <trkpt lat="45.4584878" lon="9.1989148" />
      <trkpt lat="45.4585186" lon="9.1989100" />
      <trkpt lat="45.4585185" lon="9.1988411" />
      <trkpt lat="45.4585569" lon="9.1988351" />
      <trkpt lat="45.4587703" lon="9.1988016" />
      <trkpt lat="45.4590431" lon="9.1987590" />
      <trkpt lat="45.4590499" lon="9.1987376" />
      <trkpt lat="45.4590416" lon="9.1986257" />
      <trkpt lat="45.4589224" lon="9.1970311" />
      <trkpt lat="45.4589043" lon="9.1968048" />
      <trkpt lat="45.4586074" lon="9.1968475" />
      <trkpt lat="45.4585675" lon="9.1968099" />
      <trkpt lat="45.4585571" lon="9.1966621" />
      <trkpt lat="45.4584837" lon="9.1965882" />
      <trkpt lat="45.4583629" lon="9.1964323" />
      <trkpt lat="45.4582396" lon="9.1963501" />
      <trkpt lat="45.4583141" lon="9.1962803" />
      <trkpt lat="45.4583464" lon="9.1962487" />
      <trkpt lat="45.4583834" lon="9.1961895" />
      <trkpt lat="45.4586292" lon="9.1957045" />
      <trkpt lat="45.4586622" lon="9.1956333" />
      <trkpt lat="45.4589919" lon="9.1949211" />
      <trkpt lat="45.4588002" lon="9.1947347" />
      <trkpt lat="45.4587767" lon="9.1947119" />
      <trkpt lat="45.4587482" lon="9.1946843" />
      <trkpt lat="45.4587201" lon="9.1946571" />
      <trkpt lat="45.4587337" lon="9.1946260" />
      <trkpt lat="45.4585885" lon="9.1944882" />
      <trkpt lat="45.4581021" lon="9.1940228" />
      <trkpt lat="45.4580857" lon="9.1940063" />
      <trkpt lat="45.4578804" lon="9.1937987" />
      <trkpt lat="45.4576896" lon="9.1935977" />
      <trkpt lat="45.4576095" lon="9.1935054" />
      <trkpt lat="45.4575834" lon="9.1934956" />
      <trkpt lat="45.4575780" lon="9.1934896" />
      <trkpt lat="45.4575598" lon="9.1934625" />
      <trkpt lat="45.4575320" lon="9.1934228" />
      <trkpt lat="45.4575248" lon="9.1934125" />
      <trkpt lat="45.4573706" lon="9.1936721" />
      <trkpt lat="45.4573557" lon="9.1936929" />
      <trkpt lat="45.4570088" lon="9.1942208" />
      <trkpt lat="45.4569639" lon="9.1942381" />
      <trkpt lat="45.4568323" lon="9.1944558" />
      <trkpt lat="45.4566435" lon="9.1946957" />
      <trkpt lat="45.4564970" lon="9.1948643" />
      <trkpt lat="45.4564705" lon="9.1948970" />
      <trkpt lat="45.4564815" lon="9.1949166" />
      <trkpt lat="45.4564715" lon="9.1949287" />
      <trkpt lat="45.4564272" lon="9.1949848" />
      <trkpt lat="45.4564223" lon="9.1949924" />
      <trkpt lat="45.4564201" lon="9.1949997" />
      <trkpt lat="45.4564175" lon="9.1950146" />
      <trkpt lat="45.4564155" lon="9.1950253" />
      <trkpt lat="45.4564133" lon="9.1950445" />
      <trkpt lat="45.4564123" lon="9.1950781" />
      <trkpt lat="45.4564116" lon="9.1951170" />
      <trkpt lat="45.4564106" lon="9.1951683" />
      <trkpt lat="45.4563646" lon="9.1952305" />
      <trkpt lat="45.4563006" lon="9.1953170" />
      <trkpt lat="45.4562989" lon="9.1954069" />
      <trkpt lat="45.4562993" lon="9.1954246" />
      <trkpt lat="45.4562693" lon="9.1954487" />
      <trkpt lat="45.4561743" lon="9.1955253" />
      <trkpt lat="45.4560541" lon="9.1956579" />
      <trkpt lat="45.4560436" lon="9.1956408" />
      <trkpt lat="45.4560090" lon="9.1956780" />
      <trkpt lat="45.4559992" lon="9.1956893" />
      <trkpt lat="45.4560040" lon="9.1956966" />
      <trkpt lat="45.4559749" lon="9.1957347" />
      <trkpt lat="45.4559558" lon="9.1957621" />
      <trkpt lat="45.4560201" lon="9.1958707" />
      <trkpt lat="45.4560284" lon="9.1959041" />
      <trkpt lat="45.4560396" lon="9.1959483" />
      <trkpt lat="45.4560744" lon="9.1960790" />
      <trkpt lat="45.4560587" lon="9.1961118" />
      <trkpt lat="45.4560994" lon="9.1961392" />
      <trkpt lat="45.4561405" lon="9.1964001" />
      <trkpt lat="45.4562049" lon="9.1968080" />
      <trkpt lat="45.4563168" lon="9.1975166" />
      <trkpt lat="45.4565299" lon="9.1988653" />
      <trkpt lat="45.4565729" lon="9.1991178" />
      <trkpt lat="45.4565507" lon="9.1991377" />
      <trkpt lat="45.4565550" lon="9.1991672" />
      <trkpt lat="45.4565605" lon="9.1992046" />
      <trkpt lat="45.4565638" lon="9.1992170" />
      <trkpt lat="45.4565661" lon="9.1992427" />
      <trkpt lat="45.4565867" lon="9.1992653" />
      <trkpt lat="45.4566000" lon="9.1992764" />
      <trkpt lat="45.4566203" lon="9.1992735" />
      <trkpt lat="45.4566323" lon="9.1992718" />
      <trkpt lat="45.4566460" lon="9.1993584" />
      <trkpt lat="45.4568641" lon="9.2007417" />
      <trkpt lat="45.4568801" lon="9.2008401" />
      <trkpt lat="45.4569679" lon="9.2013745" />
      <trkpt lat="45.4569740" lon="9.2014255" />
      <trkpt lat="45.4569773" lon="9.2014815" />
      <trkpt lat="45.4569778" lon="9.2015291" />
      <trkpt lat="45.4569780" lon="9.2015917" />
      <trkpt lat="45.4569644" lon="9.2015900" />
      <trkpt lat="45.4569346" lon="9.2015861" />
      <trkpt lat="45.4568926" lon="9.2015682" />
      <trkpt lat="45.4569751" lon="9.2020878" />
      <trkpt lat="45.4569737" lon="9.2020986" />
      <trkpt lat="45.4569703" lon="9.2021054" />
      <trkpt lat="45.4569656" lon="9.2021088" />
      <trkpt lat="45.4563122" lon="9.2023268" />
      <trkpt lat="45.4554481" lon="9.2026115" />
      <trkpt lat="45.4554292" lon="9.2026180" />
      <trkpt lat="45.4554157" lon="9.2026215" />
      <trkpt lat="45.4553938" lon="9.2026293" />
      <trkpt lat="45.4553857" lon="9.2026320" />
      <trkpt lat="45.4553782" lon="9.2026418" />
      <trkpt lat="45.4548633" lon="9.2028021" />
      <trkpt lat="45.4548346" lon="9.2027970" />
      <trkpt lat="45.4544151" lon="9.2025524" />
      <trkpt lat="45.4541215" lon="9.2023812" />
      <trkpt lat="45.4540475" lon="9.2023380" />
      <trkpt lat="45.4540202" lon="9.2023252" />
      <trkpt lat="45.4539692" lon="9.2023012" />
      <trkpt lat="45.4538981" lon="9.2022678" />
      <trkpt lat="45.4538728" lon="9.2022559" />
      <trkpt lat="45.4537127" lon="9.2022103" />
      <trkpt lat="45.4528926" lon="9.2020271" />
      <trkpt lat="45.4527917" lon="9.2019887" />
      <trkpt lat="45.4526678" lon="9.2019173" />
      <trkpt lat="45.4525892" lon="9.2018280" />
      <trkpt lat="45.4525494" lon="9.2017712" />
      <trkpt lat="45.4525406" lon="9.2017362" />
      <trkpt lat="45.4525320" lon="9.2017246" />
      <trkpt lat="45.4525104" lon="9.2016955" />
      <trkpt lat="45.4525023" lon="9.2016846" />
      <trkpt lat="45.4524913" lon="9.2016698" />
      <trkpt lat="45.4524610" lon="9.2016290" />
      <trkpt lat="45.4524492" lon="9.2016131" />
      <trkpt lat="45.4524268" lon="9.2016445" />
      <trkpt lat="45.4523947" lon="9.2016123" />
      <trkpt lat="45.4523687" lon="9.2016244" />
      <trkpt lat="45.4523250" lon="9.2016450" />
      <trkpt lat="45.4522883" lon="9.2016625" />
      <trkpt lat="45.4522399" lon="9.2017029" />
      <trkpt lat="45.4522028" lon="9.2017306" />
      <trkpt lat="45.4521794" lon="9.2017526" />
      <trkpt lat="45.4521503" lon="9.2017765" />
      <trkpt lat="45.4521294" lon="9.2017937" />
      <trkpt lat="45.4520981" lon="9.2018194" />
      <trkpt lat="45.4520865" lon="9.2018276" />
      <trkpt lat="45.4520752" lon="9.2018807" />
      <trkpt lat="45.4520442" lon="9.2019940" />
      <trkpt lat="45.4519473" lon="9.2023370" />
      <trkpt lat="45.4518884" lon="9.2023872" />
      <trkpt lat="45.4512852" lon="9.2022621" />
      <trkpt lat="45.4512041" lon="9.2022350" />
      <trkpt lat="45.4511818" lon="9.2022215" />
      <trkpt lat="45.4511244" lon="9.2021438" />
      <trkpt lat="45.4510883" lon="9.2020646" />
      <trkpt lat="45.4510212" lon="9.2017433" />
      <trkpt lat="45.4509951" lon="9.2014356" />
      <trkpt lat="45.4509961" lon="9.2011086" />
      <trkpt lat="45.4510112" lon="9.2010710" />
      <trkpt lat="45.4510115" lon="9.2010496" />
      <trkpt lat="45.4510119" lon="9.2010130" />
      <trkpt lat="45.4510123" lon="9.2009831" />
      <trkpt lat="45.4510114" lon="9.2009660" />
      <trkpt lat="45.4509921" lon="9.2009224" />
      <trkpt lat="45.4509926" lon="9.2006332" />
      <trkpt lat="45.4509790" lon="9.2006330" />
      <trkpt lat="45.4509468" lon="9.2006322" />
      <trkpt lat="45.4509332" lon="9.2006324" />
      <trkpt lat="45.4508791" lon="9.2006320" />
      <trkpt lat="45.4508578" lon="9.2006317" />
      <trkpt lat="45.4508576" lon="9.2006840" />
      <trkpt lat="45.4498638" lon="9.2014530" />
      <trkpt lat="45.4498493" lon="9.2014424" />
      <trkpt lat="45.4493627" lon="9.2001670" />
      <trkpt lat="45.4493600" lon="9.2001643" />
      <trkpt lat="45.4493073" lon="9.2001294" />
      <trkpt lat="45.4492601" lon="9.2000982" />
      <trkpt lat="45.4492542" lon="9.2000943" />
      <trkpt lat="45.4492410" lon="9.2000822" />
      <trkpt lat="45.4488929" lon="9.2001073" />
      <trkpt lat="45.4488379" lon="9.2001104" />
      <trkpt lat="45.4488377" lon="9.2001037" />
      <trkpt lat="45.4488367" lon="9.2000542" />
      <trkpt lat="45.4488358" lon="9.2000101" />
      <trkpt lat="45.4488355" lon="9.1999964" />
      <trkpt lat="45.4488215" lon="9.1999565" />
      <trkpt lat="45.4487924" lon="9.1999593" />
      <trkpt lat="45.4487705" lon="9.1999614" />
      <trkpt lat="45.4487110" lon="9.1999671" />
      <trkpt lat="45.4486611" lon="9.1999719" />
      <trkpt lat="45.4486399" lon="9.1999739" />
      <trkpt lat="45.4485956" lon="9.1999782" />
      <trkpt lat="45.4485890" lon="9.1997456" />
      <trkpt lat="45.4485589" lon="9.1984353" />
      <trkpt lat="45.4485125" lon="9.1983696" />
      <trkpt lat="45.4485115" lon="9.1983176" />
      <trkpt lat="45.4485103" lon="9.1982283" />
      <trkpt lat="45.4485081" lon="9.1981359" />
      <trkpt lat="45.4485077" lon="9.1981176" />
      <trkpt lat="45.4485327" lon="9.1981055" />
      <trkpt lat="45.4485629" lon="9.1980198" />
      <trkpt lat="45.4485544" lon="9.1978327" />
      <trkpt lat="45.4485504" lon="9.1977266" />
      <trkpt lat="45.4485312" lon="9.1976248" />
      <trkpt lat="45.4484600" lon="9.1975526" />
      <trkpt lat="45.4484586" lon="9.1975414" />
      <trkpt lat="45.4484555" lon="9.1975169" />
      <trkpt lat="45.4484535" lon="9.1975007" />
      <trkpt lat="45.4484511" lon="9.1974818" />
      <trkpt lat="45.4484462" lon="9.1974419" />
      <trkpt lat="45.4484444" lon="9.1974279" />
      <trkpt lat="45.4484135" lon="9.1974451" />
      <trkpt lat="45.4477583" lon="9.1974942" />
      <trkpt lat="45.4477406" lon="9.1974808" />
      <trkpt lat="45.4477140" lon="9.1968817" />
      <trkpt lat="45.4477130" lon="9.1968581" />
      <trkpt lat="45.4477099" lon="9.1967807" />
      <trkpt lat="45.4477082" lon="9.1967315" />
      <trkpt lat="45.4477021" lon="9.1967149" />
      <trkpt lat="45.4476780" lon="9.1961045" />
      <trkpt lat="45.4476646" lon="9.1961052" />
      <trkpt lat="45.4476208" lon="9.1961077" />
      <trkpt lat="45.4475919" lon="9.1961094" />
      <trkpt lat="45.4475783" lon="9.1961102" />
      <trkpt lat="45.4475682" lon="9.1960881" />
      <trkpt lat="45.4475674" lon="9.1960699" />
      <trkpt lat="45.4475645" lon="9.1959958" />
      <trkpt lat="45.4475626" lon="9.1959506" />
      <trkpt lat="45.4475618" lon="9.1959298" />
      <trkpt lat="45.4475702" lon="9.1959099" />
      <trkpt lat="45.4475115" lon="9.1945510" />
      <trkpt lat="45.4474789" lon="9.1945539" />
      <trkpt lat="45.4474763" lon="9.1945336" />
      <trkpt lat="45.4474705" lon="9.1944880" />
      <trkpt lat="45.4474646" lon="9.1944416" />
      <trkpt lat="45.4474594" lon="9.1943821" />
      <trkpt lat="45.4474547" lon="9.1943287" />
      <trkpt lat="45.4474526" lon="9.1942798" />
      <trkpt lat="45.4474508" lon="9.1942377" />
      <trkpt lat="45.4474496" lon="9.1942109" />
      <trkpt lat="45.4475523" lon="9.1942023" />
      <trkpt lat="45.4475655" lon="9.1940844" />
      <trkpt lat="45.4473917" lon="9.1938877" />
      <trkpt lat="45.4470822" lon="9.1935984" />
      <trkpt lat="45.4469548" lon="9.1934816" />
      <trkpt lat="45.4465882" lon="9.1930400" />
      <trkpt lat="45.4465530" lon="9.1929856" />
      <trkpt lat="45.4465347" lon="9.1929294" />
      <trkpt lat="45.4465040" lon="9.1927911" />
      <trkpt lat="45.4464924" lon="9.1926556" />
      <trkpt lat="45.4464944" lon="9.1925447" />
      <trkpt lat="45.4465001" lon="9.1924269" />
      <trkpt lat="45.4465222" lon="9.1923078" />
      <trkpt lat="45.4465726" lon="9.1921439" />
      <trkpt lat="45.4464932" lon="9.1921427" />
      <trkpt lat="45.4464120" lon="9.1921393" />
      <trkpt lat="45.4463976" lon="9.1921317" />
      <trkpt lat="45.4463605" lon="9.1912973" />
      <trkpt lat="45.4463655" lon="9.1912235" />
      <trkpt lat="45.4463646" lon="9.1911790" />
      <trkpt lat="45.4463636" lon="9.1911186" />
      <trkpt lat="45.4463621" lon="9.1910847" />
      <trkpt lat="45.4463590" lon="9.1910236" />
      <trkpt lat="45.4463558" lon="9.1909856" />
      <trkpt lat="45.4463536" lon="9.1909312" />
      <trkpt lat="45.4463517" lon="9.1909053" />
      <trkpt lat="45.4463405" lon="9.1908721" />
      <trkpt lat="45.4463293" lon="9.1903948" />
      <trkpt lat="45.4463141" lon="9.1900810" />
      <trkpt lat="45.4463011" lon="9.1898029" />
      <trkpt lat="45.4462828" lon="9.1894766" />
      <trkpt lat="45.4462570" lon="9.1893738" />
      <trkpt lat="45.4462401" lon="9.1891555" />
      <trkpt lat="45.4461286" lon="9.1884421" />
      <trkpt lat="45.4460871" lon="9.1882625" />
      <trkpt lat="45.4459916" lon="9.1878494" />
      <trkpt lat="45.4459797" lon="9.1877980" />
      <trkpt lat="45.4459857" lon="9.1877571" />
      <trkpt lat="45.4459793" lon="9.1877392" />
      <trkpt lat="45.4459501" lon="9.1876584" />
      <trkpt lat="45.4459310" lon="9.1875932" />
      <trkpt lat="45.4458746" lon="9.1874008" />
      <trkpt lat="45.4458570" lon="9.1873411" />
      <trkpt lat="45.4458423" lon="9.1872909" />
      <trkpt lat="45.4458384" lon="9.1872773" />
      <trkpt lat="45.4460938" lon="9.1871547" />
      <trkpt lat="45.4461046" lon="9.1871505" />
      <trkpt lat="45.4461532" lon="9.1871190" />
      <trkpt lat="45.4461845" lon="9.1871024" />
      <trkpt lat="45.4461942" lon="9.1870973" />
      <trkpt lat="45.4462159" lon="9.1870953" />
      <trkpt lat="45.4465261" lon="9.1869494" />
      <trkpt lat="45.4465290" lon="9.1869298" />
      <trkpt lat="45.4465397" lon="9.1869252" />
      <trkpt lat="45.4465847" lon="9.1869057" />
      <trkpt lat="45.4466273" lon="9.1868873" />
      <trkpt lat="45.4466386" lon="9.1868824" />
      <trkpt lat="45.4466593" lon="9.1868830" />
      <trkpt lat="45.4468540" lon="9.1867952" />
      <trkpt lat="45.4470241" lon="9.1867199" />
      <trkpt lat="45.4470361" lon="9.1866859" />
      <trkpt lat="45.4470510" lon="9.1866791" />
      <trkpt lat="45.4470869" lon="9.1866628" />
      <trkpt lat="45.4470150" lon="9.1860317" />
      <trkpt lat="45.4469490" lon="9.1854210" />
      <trkpt lat="45.4469255" lon="9.1853363" />
      <trkpt lat="45.4469001" lon="9.1852867" />
      <trkpt lat="45.4468751" lon="9.1852553" />
      <trkpt lat="45.4468466" lon="9.1852356" />
      <trkpt lat="45.4468151" lon="9.1852158" />
      <trkpt lat="45.4468110" lon="9.1851673" />
      <trkpt lat="45.4467872" lon="9.1851071" />
      <trkpt lat="45.4467579" lon="9.1850660" />
      <trkpt lat="45.4467308" lon="9.1850555" />
      <trkpt lat="45.4467364" lon="9.1850223" />
      <trkpt lat="45.4467378" lon="9.1850115" />
      <trkpt lat="45.4467138" lon="9.1850055" />
      <trkpt lat="45.4467169" lon="9.1849891" />
      <trkpt lat="45.4467196" lon="9.1849655" />
      <trkpt lat="45.4467253" lon="9.1849296" />
      <trkpt lat="45.4467280" lon="9.1849122" />
      <trkpt lat="45.4467315" lon="9.1848880" />
      <trkpt lat="45.4468415" lon="9.1849180" />
      <trkpt lat="45.4468451" lon="9.1847181" />
      <trkpt lat="45.4473189" lon="9.1846323" />
      <trkpt lat="45.4472655" lon="9.1841291" />
      <trkpt lat="45.4473138" lon="9.1841209" />
      <trkpt lat="45.4474724" lon="9.1840937" />
      <trkpt lat="45.4475977" lon="9.1838741" />
      <trkpt lat="45.4476486" lon="9.1838648" />
      <trkpt lat="45.4475734" lon="9.1830580" />
      <trkpt lat="45.4475603" lon="9.1829172" />
      <trkpt lat="45.4474994" lon="9.1822641" />
      <trkpt lat="45.4474795" lon="9.1820651" />
      <trkpt lat="45.4474940" lon="9.1820614" />
      <trkpt lat="45.4475864" lon="9.1820379" />
      <trkpt lat="45.4476635" lon="9.1820183" />
      <trkpt lat="45.4476942" lon="9.1820105" />
      <trkpt lat="45.4477122" lon="9.1819923" />
      <trkpt lat="45.4490241" lon="9.1816950" />
      <trkpt lat="45.4490222" lon="9.1816767" />
      <trkpt lat="45.4490146" lon="9.1816056" />
      <trkpt lat="45.4490106" lon="9.1815682" />
      <trkpt lat="45.4490086" lon="9.1815495" />
      <trkpt lat="45.4490223" lon="9.1815220" />
      <trkpt lat="45.4489760" lon="9.1811518" />
      <trkpt lat="45.4489155" lon="9.1806819" />
      <trkpt lat="45.4489568" lon="9.1806743" />
      <trkpt lat="45.4489199" lon="9.1803657" />
      <trkpt lat="45.4489656" lon="9.1803617" />
      <trkpt lat="45.4489420" lon="9.1801419" />
      <trkpt lat="45.4489187" lon="9.1799461" />
      <trkpt lat="45.4488958" lon="9.1797870" />
      <trkpt lat="45.4489150" lon="9.1797899" />
      <trkpt lat="45.4496307" lon="9.1799095" />
      <trkpt lat="45.4497404" lon="9.1799272" />
      <trkpt lat="45.4501908" lon="9.1799858" />
      <trkpt lat="45.4501925" lon="9.1799481" />
      <trkpt lat="45.4501939" lon="9.1799162" />
      <trkpt lat="45.4501943" lon="9.1799000" />
      <trkpt lat="45.4501951" lon="9.1798838" />
      <trkpt lat="45.4501974" lon="9.1798376" />
      <trkpt lat="45.4501979" lon="9.1798258" />
      <trkpt lat="45.4503016" lon="9.1798382" />
      <trkpt lat="45.4504545" lon="9.1798584" />
      <trkpt lat="45.4506296" lon="9.1798812" />
      <trkpt lat="45.4510704" lon="9.1799301" />
      <trkpt lat="45.4515701" lon="9.1799918" />
      <trkpt lat="45.4519364" lon="9.1800370" />
      <trkpt lat="45.4519769" lon="9.1800146" />
      <trkpt lat="45.4519854" lon="9.1800142" />
      <trkpt lat="45.4520214" lon="9.1800127" />
      <trkpt lat="45.4520490" lon="9.1800118" />
      <trkpt lat="45.4520686" lon="9.1800106" />
      <trkpt lat="45.4520900" lon="9.1800099" />
      <trkpt lat="45.4521120" lon="9.1800101" />
      <trkpt lat="45.4521170" lon="9.1800087" />
      <trkpt lat="45.4521185" lon="9.1797514" />
      <trkpt lat="45.4521194" lon="9.1797449" />
      <trkpt lat="45.4521232" lon="9.1797174" />
      <trkpt lat="45.4521263" lon="9.1796954" />
      <trkpt lat="45.4521293" lon="9.1796021" />
      <trkpt lat="45.4521772" lon="9.1795683" />
      <trkpt lat="45.4521951" lon="9.1795372" />
      <trkpt lat="45.4522186" lon="9.1795093" />
      <trkpt lat="45.4522465" lon="9.1794865" />
      <trkpt lat="45.4522791" lon="9.1794705" />
      <trkpt lat="45.4523094" lon="9.1794599" />
      <trkpt lat="45.4523123" lon="9.1794448" />
      <trkpt lat="45.4523189" lon="9.1794459" />
      <trkpt lat="45.4523276" lon="9.1794475" />
      <trkpt lat="45.4523334" lon="9.1793163" />
      <trkpt lat="45.4523340" lon="9.1792425" />
      <trkpt lat="45.4523343" lon="9.1791685" />
      <trkpt lat="45.4523303" lon="9.1790887" />
      <trkpt lat="45.4523291" lon="9.1790740" />
      <trkpt lat="45.4523453" lon="9.1790696" />
      <trkpt lat="45.4523501" lon="9.1790680" />
      <trkpt lat="45.4523542" lon="9.1790667" />
      <trkpt lat="45.4523732" lon="9.1790614" />
      <trkpt lat="45.4523866" lon="9.1790576" />
      <trkpt lat="45.4523996" lon="9.1790539" />
      <trkpt lat="45.4524152" lon="9.1790494" />
      <trkpt lat="45.4524244" lon="9.1790468" />
      <trkpt lat="45.4524337" lon="9.1793517" />
      <trkpt lat="45.4524296" lon="9.1794168" />
      <trkpt lat="45.4524155" lon="9.1796334" />
      <trkpt lat="45.4524359" lon="9.1796386" />
      <trkpt lat="45.4524444" lon="9.1796407" />
      <trkpt lat="45.4525029" lon="9.1796600" />
      <trkpt lat="45.4526127" lon="9.1796964" />
      <trkpt lat="45.4526378" lon="9.1797047" />
      <trkpt lat="45.4529262" lon="9.1797873" />
      <trkpt lat="45.4529650" lon="9.1797949" />
      <trkpt lat="45.4529756" lon="9.1797995" />
      <trkpt lat="45.4529831" lon="9.1796978" />
      <trkpt lat="45.4529907" lon="9.1795959" />
      <trkpt lat="45.4529982" lon="9.1794940" />
      <trkpt lat="45.4529850" lon="9.1793160" />
      <trkpt lat="45.4529791" lon="9.1792366" />
      <trkpt lat="45.4529288" lon="9.1785597" />
      <trkpt lat="45.4529502" lon="9.1785544" />
      <trkpt lat="45.4529696" lon="9.1785496" />
      <trkpt lat="45.4529934" lon="9.1785433" />
      <trkpt lat="45.4530186" lon="9.1785367" />
      <trkpt lat="45.4530472" lon="9.1785292" />
      <trkpt lat="45.4530473" lon="9.1785149" />
      <trkpt lat="45.4530483" lon="9.1785006" />
      <trkpt lat="45.4530511" lon="9.1784871" />
      <trkpt lat="45.4530559" lon="9.1784753" />
      <trkpt lat="45.4530632" lon="9.1784658" />
      <trkpt lat="45.4530717" lon="9.1784593" />
      <trkpt lat="45.4530807" lon="9.1784539" />
      <trkpt lat="45.4530900" lon="9.1784487" />
      <trkpt lat="45.4535144" lon="9.1782564" />
      <trkpt lat="45.4541118" lon="9.1778688" />
      <trkpt lat="45.4541840" lon="9.1778287" />
      <trkpt lat="45.4542089" lon="9.1778018" />
      <trkpt lat="45.4542562" lon="9.1777386" />
      <trkpt lat="45.4542709" lon="9.1777079" />
      <trkpt lat="45.4542931" lon="9.1776598" />
      <trkpt lat="45.4543209" lon="9.1776098" />
      <trkpt lat="45.4543573" lon="9.1775497" />
      <trkpt lat="45.4545153" lon="9.1773022" />
      <trkpt lat="45.4547278" lon="9.1769963" />
      <trkpt lat="45.4547544" lon="9.1770350" />
      <trkpt lat="45.4547631" lon="9.1770477" />
      <trkpt lat="45.4547716" lon="9.1770601" />
      <trkpt lat="45.4548440" lon="9.1769530" />
      <trkpt lat="45.4548546" lon="9.1769633" />
      <trkpt lat="45.4549836" lon="9.1770795" />
      <trkpt lat="45.4553325" lon="9.1774043" />
      <trkpt lat="45.4554214" lon="9.1772096" />
      <trkpt lat="45.4554291" lon="9.1771928" />
      <trkpt lat="45.4557971" lon="9.1774811" />
      <trkpt lat="45.4558106" lon="9.1774479" />
      <trkpt lat="45.4558226" lon="9.1774185" />
      <trkpt lat="45.4558507" lon="9.1774379" />
      <trkpt lat="45.4558753" lon="9.1774558" />
      <trkpt lat="45.4558611" lon="9.1774816" />
      <trkpt lat="45.4561354" lon="9.1774299" />
      <trkpt lat="45.4561694" lon="9.1774247" />
      <trkpt lat="45.4564526" lon="9.1774013" />
      <trkpt lat="45.4569159" lon="9.1773566" />
      <trkpt lat="45.4572597" lon="9.1773259" />
      <trkpt lat="45.4574101" lon="9.1773419" />
      <trkpt lat="45.4574139" lon="9.1775371" />
      <trkpt lat="45.4575678" lon="9.1775791" />
      <trkpt lat="45.4575617" lon="9.1776286" />
      <trkpt lat="45.4575520" lon="9.1777030" />
      <trkpt lat="45.4575026" lon="9.1780977" />
      <trkpt lat="45.4575399" lon="9.1781050" />
      <trkpt lat="45.4575932" lon="9.1777142" />
      <trkpt lat="45.4576216" lon="9.1777022" />
      <trkpt lat="45.4576493" lon="9.1777131" />
      <trkpt lat="45.4577451" lon="9.1777483" />
      <trkpt lat="45.4584363" lon="9.1782515" />
      <trkpt lat="45.4584443" lon="9.1782322" />
      <trkpt lat="45.4584570" lon="9.1782012" />
      <trkpt lat="45.4584773" lon="9.1782144" />
      <trkpt lat="45.4585311" lon="9.1782599" />
      <trkpt lat="45.4585071" lon="9.1783094" />
      <trkpt lat="45.4584494" lon="9.1784443" />
      <trkpt lat="45.4580060" lon="9.1794464" />
      <trkpt lat="45.4579489" lon="9.1795525" />
      <trkpt lat="45.4578943" lon="9.1796695" />
      <trkpt lat="45.4575587" lon="9.1803981" />
      <trkpt lat="45.4575147" lon="9.1805376" />
      <trkpt lat="45.4574816" lon="9.1806425" />
      <trkpt lat="45.4574458" lon="9.1807560" />
      <trkpt lat="45.4574259" lon="9.1808375" />
      <trkpt lat="45.4573996" lon="9.1809352" />
      <trkpt lat="45.4573964" lon="9.1809470" />
      <trkpt lat="45.4573770" lon="9.1810213" />
      <trkpt lat="45.4573446" lon="9.1811358" />
      <trkpt lat="45.4572906" lon="9.1813461" />
      <trkpt lat="45.4571343" lon="9.1819118" />
      <trkpt lat="45.4571511" lon="9.1819170" />
      <trkpt lat="45.4571630" lon="9.1819210" />
      <trkpt lat="45.4572308" lon="9.1819439" />
      <trkpt lat="45.4572629" lon="9.1819547" />
      <trkpt lat="45.4574469" lon="9.1820246" />
      <trkpt lat="45.4574738" lon="9.1819089" />
      <trkpt lat="45.4574812" lon="9.1819290" />
      <trkpt lat="45.4574822" lon="9.1819753" />
      <trkpt lat="45.4575800" lon="9.1820987" />
      <trkpt lat="45.4575971" lon="9.1825564" />
      <trkpt lat="45.4576054" lon="9.1827799" />
      <trkpt lat="45.4576387" lon="9.1828670" />
      <trkpt lat="45.4576290" lon="9.1829315" />
      <trkpt lat="45.4576033" lon="9.1831022" />
      <trkpt lat="45.4575955" lon="9.1831538" />
      <trkpt lat="45.4576772" lon="9.1831934" />
      <trkpt lat="45.4578551" lon="9.1833300" />
      <trkpt lat="45.4579585" lon="9.1833425" />
      <trkpt lat="45.4579578" lon="9.1833762" />
      <trkpt lat="45.4579488" lon="9.1835565" />
      <trkpt lat="45.4579355" lon="9.1838587" />
      <trkpt lat="45.4579890" lon="9.1838654" />
      <trkpt lat="45.4582496" lon="9.1842848" />
      <trkpt lat="45.4584841" lon="9.1842947" />
      <trkpt lat="45.4584789" lon="9.1843451" />
      <trkpt lat="45.4584758" lon="9.1843971" />
      <trkpt lat="45.4584748" lon="9.1844591" />
      <trkpt lat="45.4584739" lon="9.1844848" />
      <trkpt lat="45.4582376" lon="9.1844619" />
      <trkpt lat="45.4582102" lon="9.1844591" />
      <trkpt lat="45.4581905" lon="9.1844570" />
      <trkpt lat="45.4581643" lon="9.1844543" />
      <trkpt lat="45.4581505" lon="9.1844529" />
      <trkpt lat="45.4581348" lon="9.1844305" />
      <trkpt lat="45.4579846" lon="9.1844212" />
      <trkpt lat="45.4578898" lon="9.1844233" />
      <trkpt lat="45.4576865" lon="9.1844414" />
      <trkpt lat="45.4574433" lon="9.1844754" />
      <trkpt lat="45.4572492" lon="9.1844937" />
      <trkpt lat="45.4572226" lon="9.1845239" />
      <trkpt lat="45.4571449" lon="9.1853494" />
      <trkpt lat="45.4570840" lon="9.1857399" />
      <trkpt lat="45.4570632" lon="9.1859649" />
      <trkpt lat="45.4570587" lon="9.1859639" />
      <trkpt lat="45.4570328" lon="9.1859604" />
      <trkpt lat="45.4570231" lon="9.1859585" />
      <trkpt lat="45.4570199" lon="9.1859579" />
      <trkpt lat="45.4570433" lon="9.1856419" />
      <trkpt lat="45.4571197" lon="9.1850008" />
      <trkpt lat="45.4571148" lon="9.1849793" />
      <trkpt lat="45.4571155" lon="9.1849712" />
      <trkpt lat="45.4571227" lon="9.1848872" />
      <trkpt lat="45.4571340" lon="9.1847563" />
      <trkpt lat="45.4571358" lon="9.1847355" />
      <trkpt lat="45.4571422" lon="9.1847189" />
      <trkpt lat="45.4571609" lon="9.1845219" />
      <trkpt lat="45.4571562" lon="9.1844906" />
      <trkpt lat="45.4571577" lon="9.1844597" />
      <trkpt lat="45.4571583" lon="9.1844403" />
      <trkpt lat="45.4569354" lon="9.1844667" />
      <trkpt lat="45.4568652" lon="9.1844399" />
      <trkpt lat="45.4567934" lon="9.1843993" />
      <trkpt lat="45.4567787" lon="9.1843912" />
      <trkpt lat="45.4567384" lon="9.1843683" />
      <trkpt lat="45.4566461" lon="9.1843259" />
      <trkpt lat="45.4566390" lon="9.1843226" />
      <trkpt lat="45.4566017" lon="9.1843021" />
      <trkpt lat="45.4566202" lon="9.1842211" />
      <trkpt lat="45.4567642" lon="9.1836177" />
      <trkpt lat="45.4567873" lon="9.1835159" />
      <trkpt lat="45.4568668" lon="9.1831239" />
      <trkpt lat="45.4568772" lon="9.1830756" />
      <trkpt lat="45.4568926" lon="9.1829915" />
      <trkpt lat="45.4569232" lon="9.1828010" />
      <trkpt lat="45.4569312" lon="9.1827666" />
      <trkpt lat="45.4569375" lon="9.1827420" />
      <trkpt lat="45.4570875" lon="9.1821113" />
      <trkpt lat="45.4571343" lon="9.1819118" />
      <trkpt lat="45.4572906" lon="9.1813461" />
      <trkpt lat="45.4573446" lon="9.1811358" />
      <trkpt lat="45.4573770" lon="9.1810213" />
      <trkpt lat="45.4573964" lon="9.1809470" />
      <trkpt lat="45.4573996" lon="9.1809352" />
      <trkpt lat="45.4574259" lon="9.1808375" />
      <trkpt lat="45.4574458" lon="9.1807560" />
      <trkpt lat="45.4574083" lon="9.1806717" />
      <trkpt lat="45.4574075" lon="9.1806667" />
      <trkpt lat="45.4573928" lon="9.1806119" />
      <trkpt lat="45.4574003" lon="9.1806102" />
      <trkpt lat="45.4574278" lon="9.1806058" />
      <trkpt lat="45.4574423" lon="9.1805696" />
      <trkpt lat="45.4574900" lon="9.1804362" />
      <trkpt lat="45.4574929" lon="9.1804277" />
      <trkpt lat="45.4575063" lon="9.1803881" />
      <trkpt lat="45.4575142" lon="9.1803648" />
      <trkpt lat="45.4575198" lon="9.1803481" />
      <trkpt lat="45.4575396" lon="9.1803567" />
      <trkpt lat="45.4579267" lon="9.1794883" />
      <trkpt lat="45.4579167" lon="9.1794787" />
      <trkpt lat="45.4578787" lon="9.1794435" />
      <trkpt lat="45.4578145" lon="9.1794257" />
      <trkpt lat="45.4578531" lon="9.1791349" />
      <trkpt lat="45.4578145" lon="9.1794257" />
      <trkpt lat="45.4578787" lon="9.1794435" />
      <trkpt lat="45.4579167" lon="9.1794787" />
      <trkpt lat="45.4579267" lon="9.1794883" />
      <trkpt lat="45.4575396" lon="9.1803567" />
      <trkpt lat="45.4575198" lon="9.1803481" />
      <trkpt lat="45.4575142" lon="9.1803648" />
      <trkpt lat="45.4575063" lon="9.1803881" />
      <trkpt lat="45.4575330" lon="9.1803926" />
      <trkpt lat="45.4575587" lon="9.1803981" />
      <trkpt lat="45.4578943" lon="9.1796695" />
      <trkpt lat="45.4579489" lon="9.1795525" />
      <trkpt lat="45.4580060" lon="9.1794464" />
      <trkpt lat="45.4580434" lon="9.1794791" />
      <trkpt lat="45.4580581" lon="9.1794947" />
      <trkpt lat="45.4580666" lon="9.1794710" />
      <trkpt lat="45.4580759" lon="9.1794506" />
      <trkpt lat="45.4585077" lon="9.1784874" />
      <trkpt lat="45.4586841" lon="9.1781262" />
      <trkpt lat="45.4587297" lon="9.1780388" />
      <trkpt lat="45.4587673" lon="9.1780147" />
      <trkpt lat="45.4587621" lon="9.1780068" />
      <trkpt lat="45.4588263" lon="9.1779905" />
      <trkpt lat="45.4589443" lon="9.1781295" />
      <trkpt lat="45.4589580" lon="9.1781511" />
      <trkpt lat="45.4589678" lon="9.1781645" />
      <trkpt lat="45.4589988" lon="9.1782073" />
      <trkpt lat="45.4590255" lon="9.1782442" />
      <trkpt lat="45.4590522" lon="9.1782799" />
      <trkpt lat="45.4590772" lon="9.1783157" />
      <trkpt lat="45.4590932" lon="9.1782994" />
      <trkpt lat="45.4591050" lon="9.1782874" />
      <trkpt lat="45.4591198" lon="9.1783127" />
      <trkpt lat="45.4591291" lon="9.1783293" />
      <trkpt lat="45.4591399" lon="9.1783194" />
      <trkpt lat="45.4591639" lon="9.1782974" />
      <trkpt lat="45.4591952" lon="9.1782688" />
      <trkpt lat="45.4592016" lon="9.1782629" />
      <trkpt lat="45.4591820" lon="9.1782111" />
      <trkpt lat="45.4591831" lon="9.1781704" />
      <trkpt lat="45.4592024" lon="9.1781409" />
      <trkpt lat="45.4594933" lon="9.1778660" />
      <trkpt lat="45.4596038" lon="9.1777588" />
      <trkpt lat="45.4598155" lon="9.1777267" />
      <trkpt lat="45.4602288" lon="9.1776573" />
      <trkpt lat="45.4602962" lon="9.1776465" />
      <trkpt lat="45.4603418" lon="9.1776936" />
      <trkpt lat="45.4603801" lon="9.1779380" />
      <trkpt lat="45.4607136" lon="9.1795612" />
      <trkpt lat="45.4607191" lon="9.1795593" />
      <trkpt lat="45.4607321" lon="9.1795549" />
      <trkpt lat="45.4607577" lon="9.1795486" />
      <trkpt lat="45.4607634" lon="9.1795442" />
      <trkpt lat="45.4607923" lon="9.1795828" />
      <trkpt lat="45.4610039" lon="9.1797154" />
      <trkpt lat="45.4612589" lon="9.1798470" />
      <trkpt lat="45.4614695" lon="9.1798524" />
      <trkpt lat="45.4614841" lon="9.1799530" />
      <trkpt lat="45.4615295" lon="9.1799445" />
      <trkpt lat="45.4617001" lon="9.1799122" />
      <trkpt lat="45.4624682" lon="9.1797517" />
      <trkpt lat="45.4627048" lon="9.1795887" />
      <trkpt lat="45.4629946" lon="9.1794295" />
      <trkpt lat="45.4629888" lon="9.1793871" />
      <trkpt lat="45.4630661" lon="9.1793563" />
      <trkpt lat="45.4635027" lon="9.1793163" />
      <trkpt lat="45.4635250" lon="9.1793489" />
      <trkpt lat="45.4635518" lon="9.1793446" />
      <trkpt lat="45.4639227" lon="9.1792943" />
      <trkpt lat="45.4639226" lon="9.1792991" />
      <trkpt lat="45.4639220" lon="9.1793219" />
      <trkpt lat="45.4639609" lon="9.1793179" />
      <trkpt lat="45.4640476" lon="9.1793108" />
      <trkpt lat="45.4647459" lon="9.1791953" />
      <trkpt lat="45.4647830" lon="9.1791809" />
      <trkpt lat="45.4649209" lon="9.1791654" />
      <trkpt lat="45.4653314" lon="9.1791220" />
      <trkpt lat="45.4656679" lon="9.1790830" />
      <trkpt lat="45.4657156" lon="9.1790764" />
      <trkpt lat="45.4657284" lon="9.1790726" />
      <trkpt lat="45.4657320" lon="9.1789886" />
      <trkpt lat="45.4657551" lon="9.1784279" />
      <trkpt lat="45.4657627" lon="9.1783184" />
      <trkpt lat="45.4658186" lon="9.1783425" />
      <trkpt lat="45.4658380" lon="9.1783513" />
      <trkpt lat="45.4658442" lon="9.1783100" />
      <trkpt lat="45.4659155" lon="9.1779828" />
      <trkpt lat="45.4660416" lon="9.1773813" />
      <trkpt lat="45.4661543" lon="9.1772245" />
      <trkpt lat="45.4661898" lon="9.1771546" />
      <trkpt lat="45.4662167" lon="9.1771081" />
      <trkpt lat="45.4663576" lon="9.1769714" />
      <trkpt lat="45.4664552" lon="9.1768990" />
      <trkpt lat="45.4665129" lon="9.1768760" />
      <trkpt lat="45.4665564" lon="9.1768909" />
      <trkpt lat="45.4665975" lon="9.1769266" />
      <trkpt lat="45.4666874" lon="9.1770179" />
      <trkpt lat="45.4673511" lon="9.1774836" />
      <trkpt lat="45.4673557" lon="9.1774703" />
      <trkpt lat="45.4673621" lon="9.1774520" />
      <trkpt lat="45.4673736" lon="9.1774189" />
      <trkpt lat="45.4673785" lon="9.1774048" />
      <trkpt lat="45.4675509" lon="9.1769197" />
      <trkpt lat="45.4675791" lon="9.1769382" />
      <trkpt lat="45.4675854" lon="9.1769419" />
      <trkpt lat="45.4676241" lon="9.1769669" />
      <trkpt lat="45.4676443" lon="9.1769799" />
      <trkpt lat="45.4676682" lon="9.1769257" />
      <trkpt lat="45.4677388" lon="9.1769571" />
      <trkpt lat="45.4677662" lon="9.1769697" />
      <trkpt lat="45.4677663" lon="9.1769475" />
      <trkpt lat="45.4677668" lon="9.1768368" />
      <trkpt lat="45.4677669" lon="9.1768267" />
      <trkpt lat="45.4677671" lon="9.1767963" />
      <trkpt lat="45.4677676" lon="9.1766917" />
      <trkpt lat="45.4677611" lon="9.1766753" />
      <trkpt lat="45.4677983" lon="9.1766063" />
      <trkpt lat="45.4678148" lon="9.1766044" />
      <trkpt lat="45.4678563" lon="9.1766012" />
      <trkpt lat="45.4678764" lon="9.1765994" />
      <trkpt lat="45.4678938" lon="9.1765978" />
      <trkpt lat="45.4679075" lon="9.1765966" />
      <trkpt lat="45.4679459" lon="9.1765932" />
      <trkpt lat="45.4679675" lon="9.1765913" />
      <trkpt lat="45.4679812" lon="9.1765901" />
      <trkpt lat="45.4679926" lon="9.1765891" />
      <trkpt lat="45.4680205" lon="9.1765866" />
      <trkpt lat="45.4680257" lon="9.1765861" />
      <trkpt lat="45.4680461" lon="9.1765843" />
      <trkpt lat="45.4680516" lon="9.1766410" />
      <trkpt lat="45.4681219" lon="9.1766482" />
      <trkpt lat="45.4682001" lon="9.1766807" />
      <trkpt lat="45.4683158" lon="9.1767861" />
      <trkpt lat="45.4684435" lon="9.1769616" />
      <trkpt lat="45.4684643" lon="9.1770065" />
      <trkpt lat="45.4684944" lon="9.1770561" />
      <trkpt lat="45.4685210" lon="9.1770985" />
      <trkpt lat="45.4685344" lon="9.1771186" />
      <trkpt lat="45.4685491" lon="9.1771400" />
      <trkpt lat="45.4685966" lon="9.1772106" />
      <trkpt lat="45.4686205" lon="9.1772438" />
      <trkpt lat="45.4686225" lon="9.1772576" />
      <trkpt lat="45.4686057" lon="9.1772812" />
      <trkpt lat="45.4685640" lon="9.1773398" />
      <trkpt lat="45.4685044" lon="9.1774235" />
      <trkpt lat="45.4684904" lon="9.1774432" />
      <trkpt lat="45.4684701" lon="9.1774412" />
      <trkpt lat="45.4682542" lon="9.1777394" />
      <trkpt lat="45.4681350" lon="9.1779499" />
      <trkpt lat="45.4680194" lon="9.1782179" />
      <trkpt lat="45.4679451" lon="9.1784062" />
      <trkpt lat="45.4678791" lon="9.1786232" />
      <trkpt lat="45.4678040" lon="9.1789620" />
      <trkpt lat="45.4677386" lon="9.1793165" />
      <trkpt lat="45.4676757" lon="9.1793278" />
      <trkpt lat="45.4676652" lon="9.1793295" />
      <trkpt lat="45.4676361" lon="9.1793297" />
      <trkpt lat="45.4676078" lon="9.1793285" />
      <trkpt lat="45.4675926" lon="9.1793280" />
      <trkpt lat="45.4675777" lon="9.1793255" />
      <trkpt lat="45.4675703" lon="9.1793233" />
      <trkpt lat="45.4675595" lon="9.1793157" />
      <trkpt lat="45.4675396" lon="9.1793017" />
      <trkpt lat="45.4675164" lon="9.1792843" />
      <trkpt lat="45.4675055" lon="9.1792761" />
      <trkpt lat="45.4674851" lon="9.1793382" />
      <trkpt lat="45.4674822" lon="9.1793714" />
      <trkpt lat="45.4674781" lon="9.1794168" />
      <trkpt lat="45.4674760" lon="9.1794404" />
      <trkpt lat="45.4674732" lon="9.1794725" />
      <trkpt lat="45.4674688" lon="9.1795234" />
      <trkpt lat="45.4674651" lon="9.1795651" />
      <trkpt lat="45.4672438" lon="9.1802497" />
      <trkpt lat="45.4668807" lon="9.1813475" />
      <trkpt lat="45.4668571" lon="9.1813256" />
      <trkpt lat="45.4668545" lon="9.1813322" />
      <trkpt lat="45.4668357" lon="9.1813788" />
      <trkpt lat="45.4668288" lon="9.1813960" />
      <trkpt lat="45.4668037" lon="9.1814586" />
      <trkpt lat="45.4667985" lon="9.1814715" />
      <trkpt lat="45.4667456" lon="9.1814294" />
      <trkpt lat="45.4667402" lon="9.1814254" />
      <trkpt lat="45.4667216" lon="9.1814114" />
      <trkpt lat="45.4666944" lon="9.1813910" />
      <trkpt lat="45.4666855" lon="9.1813845" />
      <trkpt lat="45.4666827" lon="9.1813921" />
      <trkpt lat="45.4666127" lon="9.1815886" />
      <trkpt lat="45.4666088" lon="9.1815997" />
      <trkpt lat="45.4665097" lon="9.1815225" />
      <trkpt lat="45.4664551" lon="9.1816214" />
      <trkpt lat="45.4664294" lon="9.1816454" />
      <trkpt lat="45.4664072" lon="9.1816646" />
      <trkpt lat="45.4663505" lon="9.1822144" />
      <trkpt lat="45.4663512" lon="9.1822294" />
      <trkpt lat="45.4663546" lon="9.1823038" />
      <trkpt lat="45.4663578" lon="9.1823752" />
      <trkpt lat="45.4663472" lon="9.1825037" />
      <trkpt lat="45.4663841" lon="9.1827377" />
      <trkpt lat="45.4664884" lon="9.1831721" />
      <trkpt lat="45.4664920" lon="9.1831871" />
      <trkpt lat="45.4664857" lon="9.1831969" />
      <trkpt lat="45.4660282" lon="9.1835210" />
      <trkpt lat="45.4659855" lon="9.1835554" />
      <trkpt lat="45.4659479" lon="9.1835603" />
      <trkpt lat="45.4659093" lon="9.1835643" />
      <trkpt lat="45.4659100" lon="9.1835717" />
      <trkpt lat="45.4659135" lon="9.1836104" />
      <trkpt lat="45.4659164" lon="9.1836429" />
      <trkpt lat="45.4659185" lon="9.1836423" />
      <trkpt lat="45.4658994" lon="9.1836511" />
      <trkpt lat="45.4659007" lon="9.1836760" />
      <trkpt lat="45.4659030" lon="9.1837088" />
      <trkpt lat="45.4658912" lon="9.1837122" />
      <trkpt lat="45.4658812" lon="9.1837141" />
      <trkpt lat="45.4658729" lon="9.1837161" />
      <trkpt lat="45.4658550" lon="9.1837199" />
      <trkpt lat="45.4658317" lon="9.1837248" />
      <trkpt lat="45.4658225" lon="9.1837268" />
      <trkpt lat="45.4658664" lon="9.1842387" />
      <trkpt lat="45.4659140" lon="9.1847693" />
      <trkpt lat="45.4658997" lon="9.1848110" />
      <trkpt lat="45.4653916" lon="9.1850791" />
      <trkpt lat="45.4653948" lon="9.1851011" />
      <trkpt lat="45.4654035" lon="9.1851620" />
      <trkpt lat="45.4653397" lon="9.1851872" />
      <trkpt lat="45.4652892" lon="9.1852146" />
      <trkpt lat="45.4653010" lon="9.1852577" />
      <trkpt lat="45.4653031" lon="9.1852634" />
      <trkpt lat="45.4649921" lon="9.1854128" />
      <trkpt lat="45.4648735" lon="9.1854721" />
      <trkpt lat="45.4648632" lon="9.1855157" />
      <trkpt lat="45.4648606" lon="9.1855621" />
      <trkpt lat="45.4648515" lon="9.1855705" />
      <trkpt lat="45.4648217" lon="9.1855980" />
      <trkpt lat="45.4647831" lon="9.1856335" />
      <trkpt lat="45.4647804" lon="9.1856360" />
      <trkpt lat="45.4647081" lon="9.1855320" />
      <trkpt lat="45.4646483" lon="9.1855219" />
      <trkpt lat="45.4645867" lon="9.1855413" />
      <trkpt lat="45.4645713" lon="9.1855714" />
      <trkpt lat="45.4644654" lon="9.1857791" />
      <trkpt lat="45.4643241" lon="9.1860559" />
      <trkpt lat="45.4640959" lon="9.1865034" />
      <trkpt lat="45.4641068" lon="9.1865370" />
      <trkpt lat="45.4640886" lon="9.1865669" />
      <trkpt lat="45.4640723" lon="9.1865927" />
      <trkpt lat="45.4640573" lon="9.1866178" />
      <trkpt lat="45.4640477" lon="9.1866330" />
      <trkpt lat="45.4640364" lon="9.1866526" />
      <trkpt lat="45.4640490" lon="9.1866652" />
      <trkpt lat="45.4642282" lon="9.1869129" />
      <trkpt lat="45.4643960" lon="9.1871475" />
      <trkpt lat="45.4643957" lon="9.1871721" />
      <trkpt lat="45.4643507" lon="9.1872304" />
      <trkpt lat="45.4642176" lon="9.1874028" />
      <trkpt lat="45.4641254" lon="9.1875222" />
      <trkpt lat="45.4641065" lon="9.1875249" />
      <trkpt lat="45.4640993" lon="9.1875364" />
      <trkpt lat="45.4640786" lon="9.1875692" />
      <trkpt lat="45.4640568" lon="9.1876040" />
      <trkpt lat="45.4640503" lon="9.1876143" />
      <trkpt lat="45.4640458" lon="9.1876546" />
      <trkpt lat="45.4638534" lon="9.1879133" />
      <trkpt lat="45.4638410" lon="9.1879824" />
      <trkpt lat="45.4638130" lon="9.1880219" />
      <trkpt lat="45.4637869" lon="9.1880588" />
      <trkpt lat="45.4637155" lon="9.1881595" />
      <trkpt lat="45.4636687" lon="9.1883914" />
      <trkpt lat="45.4636976" lon="9.1884988" />
      <trkpt lat="45.4637017" lon="9.1885182" />
      <trkpt lat="45.4637368" lon="9.1886597" />
      <trkpt lat="45.4637362" lon="9.1887051" />
      <trkpt lat="45.4637344" lon="9.1888372" />
      <trkpt lat="45.4637338" lon="9.1888841" />
      <trkpt lat="45.4637335" lon="9.1889066" />
      <trkpt lat="45.4637332" lon="9.1889265" />
      <trkpt lat="45.4637329" lon="9.1889492" />
      <trkpt lat="45.4637319" lon="9.1890225" />
      <trkpt lat="45.4637982" lon="9.1890213" />
      <trkpt lat="45.4637998" lon="9.1889533" />
      <trkpt lat="45.4638000" lon="9.1889344" />
      <trkpt lat="45.4638002" lon="9.1889146" />
      <trkpt lat="45.4638167" lon="9.1889146" />
      <trkpt lat="45.4640993" lon="9.1889147" />
      <trkpt lat="45.4641127" lon="9.1889147" />
      <trkpt lat="45.4641126" lon="9.1889477" />
      <trkpt lat="45.4641115" lon="9.1890703" />
      <trkpt lat="45.4641046" lon="9.1895113" />
      <trkpt lat="45.4641536" lon="9.1896431" />
      <trkpt lat="45.4643695" lon="9.1897716" />
    </trkseg>
  </trk>
</gpx>
