<?xml version="1.0" encoding="UTF-8"?>
<gpx xmlns="http://www.topografix.com/GPX/1/1" version="1.1" creator="ShapeRoute route-engine">
  <metadata>
    <name>smiley 5 km · 2026-10-05</name>
    <author>
      <name>ShapeRoute route-engine</name>
    </author>
    <copyright author="OpenStreetMap contributors">
      <license>https://opendatacommons.org/licenses/odbl/1-0/</license>
    </copyright>
    <link href="https://www.openstreetmap.org/copyright">
      <text>© OpenStreetMap contributors</text>
    </link>
    <time>2026-10-05T11:12:45Z</time>
  </metadata>
  <trk>
    <name>smiley 5 km · 2026-10-05</name>
    <trkseg>
      <trkpt lat="46.0123552" lon="11.2985082" />
      <trkpt lat="46.0127099" lon="11.2988315" />
      <trkpt lat="46.0126048" lon="11.2991203" />
      <trkpt lat="46.0124654" lon="11.2994100" />
      <trkpt lat="46.0123257" lon="11.2996448" />
      <trkpt lat="46.0124897" lon="11.2998568" />
      <trkpt lat="46.0123170" lon="11.3001389" />
      <trkpt lat="46.0122204" lon="11.3002805" />
      <trkpt lat="46.0121758" lon="11.3003503" />
      <trkpt lat="46.0119953" lon="11.3005993" />
      <trkpt lat="46.0119565" lon="11.3006223" />
      <trkpt lat="46.0118615" lon="11.3007597" />
      <trkpt lat="46.0118149" lon="11.3008633" />
      <trkpt lat="46.0118055" lon="11.3008842" />
      <trkpt lat="46.0118496" lon="11.3009037" />
      <trkpt lat="46.0119443" lon="11.3009640" />
      <trkpt lat="46.0120169" lon="11.3010306" />
      <trkpt lat="46.0120772" lon="11.3011040" />
      <trkpt lat="46.0122597" lon="11.3008714" />
      <trkpt lat="46.0120772" lon="11.3011040" />
      <trkpt lat="46.0120169" lon="11.3010306" />
      <trkpt lat="46.0119443" lon="11.3009640" />
      <trkpt lat="46.0118496" lon="11.3009037" />
      <trkpt lat="46.0118055" lon="11.3008842" />
      <trkpt lat="46.0118149" lon="11.3008633" />
      <trkpt lat="46.0116549" lon="11.3007415" />
      <trkpt lat="46.0116446" lon="11.3007677" />
      <trkpt lat="46.0115962" lon="11.3009243" />
      <trkpt lat="46.0115915" lon="11.3009636" />
      <trkpt lat="46.0115785" lon="11.3010636" />
      <trkpt lat="46.0115191" lon="11.3009521" />
      <trkpt lat="46.0114434" lon="11.3007649" />
      <trkpt lat="46.0113854" lon="11.3006619" />
      <trkpt lat="46.0112862" lon="11.3006678" />
      <trkpt lat="46.0110267" lon="11.3005965" />
      <trkpt lat="46.0108718" lon="11.3005844" />
      <trkpt lat="46.0107851" lon="11.3005647" />
      <trkpt lat="46.0108341" lon="11.3004232" />
      <trkpt lat="46.0109687" lon="11.3002118" />
      <trkpt lat="46.0110641" lon="11.3001073" />
      <trkpt lat="46.0111478" lon="11.3000732" />
      <trkpt lat="46.0111699" lon="11.3001210" />
      <trkpt lat="46.0112603" lon="11.3002166" />
      <trkpt lat="46.0112962" lon="11.3002246" />
      <trkpt lat="46.0113555" lon="11.3004664" />
      <trkpt lat="46.0113758" lon="11.3005772" />
      <trkpt lat="46.0113854" lon="11.3006619" />
      <trkpt lat="46.0114434" lon="11.3007649" />
      <trkpt lat="46.0115191" lon="11.3009521" />
      <trkpt lat="46.0115785" lon="11.3010636" />
      <trkpt lat="46.0115915" lon="11.3009636" />
      <trkpt lat="46.0115962" lon="11.3009243" />
      <trkpt lat="46.0116446" lon="11.3007677" />
      <trkpt lat="46.0116549" lon="11.3007415" />
      <trkpt lat="46.0118149" lon="11.3008633" />
      <trkpt lat="46.0118055" lon="11.3008842" />
      <trkpt lat="46.0118496" lon="11.3009037" />
      <trkpt lat="46.0119443" lon="11.3009640" />
      <trkpt lat="46.0120169" lon="11.3010306" />
      <trkpt lat="46.0120772" lon="11.3011040" />
      <trkpt lat="46.0122597" lon="11.3008714" />
      <trkpt lat="46.0120772" lon="11.3011040" />
      <trkpt lat="46.0121159" lon="11.3011788" />
      <trkpt lat="46.0120588" lon="11.3019657" />
      <trkpt lat="46.0120540" lon="11.3021616" />
      <trkpt lat="46.0119217" lon="11.3021360" />
      <trkpt lat="46.0118576" lon="11.3021269" />
      <trkpt lat="46.0118428" lon="11.3022500" />
      <trkpt lat="46.0117395" lon="11.3027278" />
      <trkpt lat="46.0117195" lon="11.3027829" />
      <trkpt lat="46.0115724" lon="11.3026949" />
      <trkpt lat="46.0113093" lon="11.3025375" />
      <trkpt lat="46.0111961" lon="11.3024347" />
      <trkpt lat="46.0111195" lon="11.3024808" />
      <trkpt lat="46.0109980" lon="11.3026461" />
      <trkpt lat="46.0107514" lon="11.3031831" />
      <trkpt lat="46.0106617" lon="11.3033547" />
      <trkpt lat="46.0105931" lon="11.3034706" />
      <trkpt lat="46.0104574" lon="11.3033467" />
      <trkpt lat="46.0103653" lon="11.3033064" />
      <trkpt lat="46.0101244" lon="11.3031866" />
      <trkpt lat="46.0100840" lon="11.3031553" />
      <trkpt lat="46.0100490" lon="11.3031043" />
      <trkpt lat="46.0100029" lon="11.3029118" />
      <trkpt lat="46.0099654" lon="11.3027323" />
      <trkpt lat="46.0099138" lon="11.3026079" />
      <trkpt lat="46.0099002" lon="11.3026136" />
      <trkpt lat="46.0095734" lon="11.3027502" />
      <trkpt lat="46.0094482" lon="11.3027916" />
      <trkpt lat="46.0093379" lon="11.3028040" />
      <trkpt lat="46.0087503" lon="11.3023826" />
      <trkpt lat="46.0085220" lon="11.3022333" />
      <trkpt lat="46.0082414" lon="11.3021044" />
      <trkpt lat="46.0080991" lon="11.3020391" />
      <trkpt lat="46.0080662" lon="11.3019871" />
      <trkpt lat="46.0079858" lon="11.3018595" />
      <trkpt lat="46.0079589" lon="11.3017630" />
      <trkpt lat="46.0079344" lon="11.3016165" />
      <trkpt lat="46.0079388" lon="11.3013912" />
      <trkpt lat="46.0080384" lon="11.3009880" />
      <trkpt lat="46.0080981" lon="11.3009575" />
      <trkpt lat="46.0081156" lon="11.3009486" />
      <trkpt lat="46.0081833" lon="11.3007954" />
      <trkpt lat="46.0083690" lon="11.3003535" />
      <trkpt lat="46.0085907" lon="11.2997702" />
      <trkpt lat="46.0086613" lon="11.2996130" />
      <trkpt lat="46.0083716" lon="11.2994631" />
      <trkpt lat="46.0087983" lon="11.2984184" />
      <trkpt lat="46.0086230" lon="11.2982644" />
      <trkpt lat="46.0089354" lon="11.2976279" />
      <trkpt lat="46.0089850" lon="11.2975267" />
      <trkpt lat="46.0090480" lon="11.2977699" />
      <trkpt lat="46.0091039" lon="11.2979094" />
      <trkpt lat="46.0091656" lon="11.2980281" />
      <trkpt lat="46.0092317" lon="11.2981169" />
      <trkpt lat="46.0092880" lon="11.2981822" />
      <trkpt lat="46.0094346" lon="11.2983049" />
      <trkpt lat="46.0095394" lon="11.2983507" />
      <trkpt lat="46.0096438" lon="11.2983759" />
      <trkpt lat="46.0098825" lon="11.2984367" />
      <trkpt lat="46.0099589" lon="11.2984611" />
      <trkpt lat="46.0099647" lon="11.2984635" />
      <trkpt lat="46.0100365" lon="11.2984927" />
      <trkpt lat="46.0100762" lon="11.2985089" />
      <trkpt lat="46.0101575" lon="11.2985629" />
      <trkpt lat="46.0101817" lon="11.2985380" />
      <trkpt lat="46.0102101" lon="11.2985252" />
      <trkpt lat="46.0102411" lon="11.2984343" />
      <trkpt lat="46.0102422" lon="11.2983790" />
      <trkpt lat="46.0101955" lon="11.2983987" />
      <trkpt lat="46.0101622" lon="11.2983686" />
      <trkpt lat="46.0101204" lon="11.2982296" />
      <trkpt lat="46.0100973" lon="11.2981290" />
      <trkpt lat="46.0100622" lon="11.2980408" />
      <trkpt lat="46.0099901" lon="11.2978608" />
      <trkpt lat="46.0096919" lon="11.2974025" />
      <trkpt lat="46.0095239" lon="11.2971002" />
      <trkpt lat="46.0093778" lon="11.2968502" />
      <trkpt lat="46.0092428" lon="11.2965144" />
      <trkpt lat="46.0093666" lon="11.2962829" />
      <trkpt lat="46.0093990" lon="11.2962716" />
      <trkpt lat="46.0096697" lon="11.2965853" />
      <trkpt lat="46.0099288" lon="11.2962024" />
      <trkpt lat="46.0099884" lon="11.2961112" />
      <trkpt lat="46.0100583" lon="11.2960911" />
      <trkpt lat="46.0101356" lon="11.2961689" />
      <trkpt lat="46.0102281" lon="11.2962543" />
      <trkpt lat="46.0103349" lon="11.2963016" />
      <trkpt lat="46.0103862" lon="11.2963030" />
      <trkpt lat="46.0104569" lon="11.2962426" />
      <trkpt lat="46.0106659" lon="11.2959174" />
      <trkpt lat="46.0107266" lon="11.2959983" />
      <trkpt lat="46.0107605" lon="11.2960435" />
      <trkpt lat="46.0109276" lon="11.2962659" />
      <trkpt lat="46.0110369" lon="11.2964115" />
      <trkpt lat="46.0111280" lon="11.2964899" />
      <trkpt lat="46.0112072" lon="11.2965500" />
      <trkpt lat="46.0111781" lon="11.2968399" />
      <trkpt lat="46.0112568" lon="11.2970649" />
      <trkpt lat="46.0112181" lon="11.2971112" />
      <trkpt lat="46.0111443" lon="11.2971898" />
      <trkpt lat="46.0109630" lon="11.2974406" />
      <trkpt lat="46.0107801" lon="11.2977017" />
      <trkpt lat="46.0106159" lon="11.2979879" />
      <trkpt lat="46.0106756" lon="11.2980691" />
      <trkpt lat="46.0106159" lon="11.2979879" />
      <trkpt lat="46.0107801" lon="11.2977017" />
      <trkpt lat="46.0109630" lon="11.2974406" />
      <trkpt lat="46.0111443" lon="11.2971898" />
      <trkpt lat="46.0112181" lon="11.2971112" />
      <trkpt lat="46.0116123" lon="11.2977853" />
      <trkpt lat="46.0115764" lon="11.2979707" />
      <trkpt lat="46.0115587" lon="11.2979934" />
      <trkpt lat="46.0111941" lon="11.2984770" />
      <trkpt lat="46.0113012" lon="11.2986379" />
      <trkpt lat="46.0114073" lon="11.2988065" />
      <trkpt lat="46.0115130" lon="11.2989377" />
      <trkpt lat="46.0117397" lon="11.2992656" />
      <trkpt lat="46.0118373" lon="11.2994164" />
      <trkpt lat="46.0118498" lon="11.2994411" />
      <trkpt lat="46.0116723" lon="11.2996863" />
      <trkpt lat="46.0112962" lon="11.3002246" />
      <trkpt lat="46.0112603" lon="11.3002166" />
      <trkpt lat="46.0111699" lon="11.3001210" />
      <trkpt lat="46.0111478" lon="11.3000732" />
      <trkpt lat="46.0111085" lon="11.2999988" />
      <trkpt lat="46.0110438" lon="11.2998653" />
      <trkpt lat="46.0109808" lon="11.2997521" />
      <trkpt lat="46.0109092" lon="11.2996421" />
      <trkpt lat="46.0108075" lon="11.2995628" />
      <trkpt lat="46.0106519" lon="11.2994633" />
      <trkpt lat="46.0105637" lon="11.2993974" />
      <trkpt lat="46.0104322" lon="11.2993405" />
      <trkpt lat="46.0102671" lon="11.2993336" />
      <trkpt lat="46.0102603" lon="11.2993252" />
      <trkpt lat="46.0102028" lon="11.2992541" />
      <trkpt lat="46.0101500" lon="11.2991720" />
      <trkpt lat="46.0101155" lon="11.2990539" />
      <trkpt lat="46.0100425" lon="11.2991474" />
      <trkpt lat="46.0100209" lon="11.2991942" />
      <trkpt lat="46.0096193" lon="11.2990766" />
      <trkpt lat="46.0092735" lon="11.3000264" />
      <trkpt lat="46.0095258" lon="11.3002254" />
      <trkpt lat="46.0096170" lon="11.3003095" />
      <trkpt lat="46.0097259" lon="11.3004099" />
      <trkpt lat="46.0099081" lon="11.3007120" />
      <trkpt lat="46.0099204" lon="11.3007309" />
      <trkpt lat="46.0099449" lon="11.3007687" />
      <trkpt lat="46.0099866" lon="11.3008330" />
      <trkpt lat="46.0100554" lon="11.3009318" />
      <trkpt lat="46.0100785" lon="11.3009629" />
      <trkpt lat="46.0101640" lon="11.3010780" />
      <trkpt lat="46.0104112" lon="11.3014153" />
      <trkpt lat="46.0107475" lon="11.3017254" />
      <trkpt lat="46.0104112" lon="11.3014153" />
      <trkpt lat="46.0101640" lon="11.3010780" />
      <trkpt lat="46.0100785" lon="11.3009629" />
      <trkpt lat="46.0100554" lon="11.3009318" />
      <trkpt lat="46.0099866" lon="11.3008330" />
      <trkpt lat="46.0099449" lon="11.3007687" />
      <trkpt lat="46.0099204" lon="11.3007309" />
      <trkpt lat="46.0099081" lon="11.3007120" />
      <trkpt lat="46.0097259" lon="11.3004099" />
      <trkpt lat="46.0096170" lon="11.3003095" />
      <trkpt lat="46.0095258" lon="11.3002254" />
      <trkpt lat="46.0092735" lon="11.3000264" />
      <trkpt lat="46.0096193" lon="11.2990766" />
      <trkpt lat="46.0100209" lon="11.2991942" />
      <trkpt lat="46.0100425" lon="11.2991474" />
      <trkpt lat="46.0100999" lon="11.2990123" />
      <trkpt lat="46.0101893" lon="11.2987865" />
      <trkpt lat="46.0102083" lon="11.2987957" />
      <trkpt lat="46.0102311" lon="11.2987960" />
      <trkpt lat="46.0102381" lon="11.2987961" />
      <trkpt lat="46.0102664" lon="11.2987832" />
      <trkpt lat="46.0102907" lon="11.2987584" />
      <trkpt lat="46.0103084" lon="11.2987240" />
      <trkpt lat="46.0103179" lon="11.2986834" />
      <trkpt lat="46.0103182" lon="11.2986405" />
      <trkpt lat="46.0103092" lon="11.2985996" />
      <trkpt lat="46.0102995" lon="11.2985799" />
      <trkpt lat="46.0103691" lon="11.2984793" />
      <trkpt lat="46.0104499" lon="11.2983154" />
      <trkpt lat="46.0105560" lon="11.2981004" />
      <trkpt lat="46.0106159" lon="11.2979879" />
      <trkpt lat="46.0106756" lon="11.2980691" />
      <trkpt lat="46.0106159" lon="11.2979879" />
      <trkpt lat="46.0107801" lon="11.2977017" />
      <trkpt lat="46.0109630" lon="11.2974406" />
      <trkpt lat="46.0111443" lon="11.2971898" />
      <trkpt lat="46.0112181" lon="11.2971112" />
      <trkpt lat="46.0116123" lon="11.2977853" />
      <trkpt lat="46.0115764" lon="11.2979707" />
      <trkpt lat="46.0115587" lon="11.2979934" />
      <trkpt lat="46.0116728" lon="11.2981556" />
      <trkpt lat="46.0118028" lon="11.2983483" />
      <trkpt lat="46.0118824" lon="11.2985225" />
      <trkpt lat="46.0120860" lon="11.2982428" />
      <trkpt lat="46.0122052" lon="11.2981248" />
      <trkpt lat="46.0122499" lon="11.2982214" />
      <trkpt lat="46.0122424" lon="11.2983394" />
      <trkpt lat="46.0123552" lon="11.2985082" />
    </trkseg>
  </trk>
</gpx>
