<?xml version="1.0" encoding="UTF-8"?>
<gpx xmlns="http://www.topografix.com/GPX/1/1" version="1.1" creator="ShapeRoute route-engine">
  <metadata>
    <name>cat 15 km · 2026-09-24</name>
    <author>
      <name>ShapeRoute route-engine</name>
    </author>
    <copyright author="OpenStreetMap contributors">
      <license>https://opendatacommons.org/licenses/odbl/1-0/</license>
    </copyright>
    <link href="https://www.openstreetmap.org/copyright">
      <text>© OpenStreetMap contributors</text>
    </link>
    <time>2026-09-24T05:13:30Z</time>
  </metadata>
  <trk>
    <name>cat 15 km · 2026-09-24</name>
    <trkseg>
      <trkpt lat="45.4643695" lon="9.1897716" />
      <trkpt lat="45.4644313" lon="9.1898582" />
      <trkpt lat="45.4644741" lon="9.1898729" />
      <trkpt lat="45.4645046" lon="9.1898833" />
      <trkpt lat="45.4645446" lon="9.1898970" />
      <trkpt lat="45.4645546" lon="9.1899005" />
      <trkpt lat="45.4645542" lon="9.1899580" />
      <trkpt lat="45.4645591" lon="9.1899581" />
      <trkpt lat="45.4645591" lon="9.1899739" />
      <trkpt lat="45.4645579" lon="9.1902970" />
      <trkpt lat="45.4645713" lon="9.1903119" />
      <trkpt lat="45.4645796" lon="9.1903211" />
      <trkpt lat="45.4645915" lon="9.1903344" />
      <trkpt lat="45.4645901" lon="9.1904077" />
      <trkpt lat="45.4646642" lon="9.1904112" />
      <trkpt lat="45.4646621" lon="9.1904786" />
      <trkpt lat="45.4645935" lon="9.1906061" />
      <trkpt lat="45.4646000" lon="9.1909552" />
      <trkpt lat="45.4646003" lon="9.1909797" />
      <trkpt lat="45.4646007" lon="9.1910693" />
      <trkpt lat="45.4646012" lon="9.1911209" />
      <trkpt lat="45.4646465" lon="9.1911206" />
      <trkpt lat="45.4646515" lon="9.1916688" />
      <trkpt lat="45.4646511" lon="9.1923052" />
      <trkpt lat="45.4646734" lon="9.1923054" />
      <trkpt lat="45.4646721" lon="9.1927654" />
      <trkpt lat="45.4647161" lon="9.1929137" />
      <trkpt lat="45.4648346" lon="9.1933799" />
      <trkpt lat="45.4648401" lon="9.1934008" />
      <trkpt lat="45.4648615" lon="9.1934817" />
      <trkpt lat="45.4650079" lon="9.1940222" />
      <trkpt lat="45.4650350" lon="9.1941188" />
      <trkpt lat="45.4651569" lon="9.1945855" />
      <trkpt lat="45.4651731" lon="9.1946401" />
      <trkpt lat="45.4653060" lon="9.1950883" />
      <trkpt lat="45.4654030" lon="9.1954196" />
      <trkpt lat="45.4655249" lon="9.1958359" />
      <trkpt lat="45.4655529" lon="9.1959281" />
      <trkpt lat="45.4655755" lon="9.1960025" />
      <trkpt lat="45.4656181" lon="9.1961466" />
      <trkpt lat="45.4656934" lon="9.1963617" />
      <trkpt lat="45.4657596" lon="9.1965459" />
      <trkpt lat="45.4657694" lon="9.1965733" />
      <trkpt lat="45.4658268" lon="9.1967437" />
      <trkpt lat="45.4658937" lon="9.1969149" />
      <trkpt lat="45.4659713" lon="9.1970729" />
      <trkpt lat="45.4660153" lon="9.1971505" />
      <trkpt lat="45.4660600" lon="9.1972000" />
      <trkpt lat="45.4661097" lon="9.1972278" />
      <trkpt lat="45.4661121" lon="9.1972281" />
      <trkpt lat="45.4661560" lon="9.1972343" />
      <trkpt lat="45.4661716" lon="9.1972365" />
      <trkpt lat="45.4661887" lon="9.1972385" />
      <trkpt lat="45.4662469" lon="9.1972428" />
      <trkpt lat="45.4662561" lon="9.1972435" />
      <trkpt lat="45.4662770" lon="9.1972452" />
      <trkpt lat="45.4665043" lon="9.1972639" />
      <trkpt lat="45.4665018" lon="9.1973077" />
      <trkpt lat="45.4664876" lon="9.1975515" />
      <trkpt lat="45.4664724" lon="9.1978047" />
      <trkpt lat="45.4665073" lon="9.1978089" />
      <trkpt lat="45.4665185" lon="9.1978630" />
      <trkpt lat="45.4665446" lon="9.1978687" />
      <trkpt lat="45.4665723" lon="9.1978715" />
      <trkpt lat="45.4665851" lon="9.1978737" />
      <trkpt lat="45.4666448" lon="9.1978790" />
      <trkpt lat="45.4666661" lon="9.1978801" />
      <trkpt lat="45.4666662" lon="9.1979227" />
      <trkpt lat="45.4666921" lon="9.1979246" />
      <trkpt lat="45.4666979" lon="9.1979251" />
      <trkpt lat="45.4667375" lon="9.1979302" />
      <trkpt lat="45.4667452" lon="9.1979455" />
      <trkpt lat="45.4667587" lon="9.1979475" />
      <trkpt lat="45.4667588" lon="9.1979586" />
      <trkpt lat="45.4667688" lon="9.1990137" />
      <trkpt lat="45.4667707" lon="9.1990714" />
      <trkpt lat="45.4667732" lon="9.1991447" />
      <trkpt lat="45.4667771" lon="9.1991720" />
      <trkpt lat="45.4669188" lon="9.2001636" />
      <trkpt lat="45.4669578" lon="9.2004360" />
      <trkpt lat="45.4669882" lon="9.2004276" />
      <trkpt lat="45.4670039" lon="9.2004235" />
      <trkpt lat="45.4670144" lon="9.2004208" />
      <trkpt lat="45.4670537" lon="9.2004376" />
      <trkpt lat="45.4671872" lon="9.2004020" />
      <trkpt lat="45.4672598" lon="9.2003687" />
      <trkpt lat="45.4674083" lon="9.2002661" />
      <trkpt lat="45.4680870" lon="9.1997594" />
      <trkpt lat="45.4680905" lon="9.1997691" />
      <trkpt lat="45.4680993" lon="9.1997938" />
      <trkpt lat="45.4681128" lon="9.1998324" />
      <trkpt lat="45.4681400" lon="9.1999077" />
      <trkpt lat="45.4681428" lon="9.1999156" />
      <trkpt lat="45.4681840" lon="9.1999199" />
      <trkpt lat="45.4682366" lon="9.2001151" />
      <trkpt lat="45.4684670" lon="9.2010717" />
      <trkpt lat="45.4685573" lon="9.2013177" />
      <trkpt lat="45.4685851" lon="9.2013871" />
      <trkpt lat="45.4686730" lon="9.2015983" />
      <trkpt lat="45.4687853" lon="9.2017936" />
      <trkpt lat="45.4689706" lon="9.2021159" />
      <trkpt lat="45.4689850" lon="9.2020962" />
      <trkpt lat="45.4690109" lon="9.2020607" />
      <trkpt lat="45.4690645" lon="9.2021468" />
      <trkpt lat="45.4690677" lon="9.2021518" />
      <trkpt lat="45.4691037" lon="9.2022445" />
      <trkpt lat="45.4692252" lon="9.2030385" />
      <trkpt lat="45.4693503" lon="9.2038120" />
      <trkpt lat="45.4693599" lon="9.2038818" />
      <trkpt lat="45.4693457" lon="9.2039333" />
      <trkpt lat="45.4693304" lon="9.2039830" />
      <trkpt lat="45.4693383" lon="9.2040847" />
      <trkpt lat="45.4694408" lon="9.2050785" />
      <trkpt lat="45.4694745" lon="9.2054122" />
      <trkpt lat="45.4695086" lon="9.2054083" />
      <trkpt lat="45.4695206" lon="9.2054070" />
      <trkpt lat="45.4695833" lon="9.2054264" />
      <trkpt lat="45.4695838" lon="9.2054812" />
      <trkpt lat="45.4695843" lon="9.2055316" />
      <trkpt lat="45.4694933" lon="9.2055387" />
      <trkpt lat="45.4690229" lon="9.2055934" />
      <trkpt lat="45.4684224" lon="9.2056641" />
      <trkpt lat="45.4681817" lon="9.2056986" />
      <trkpt lat="45.4680082" lon="9.2057266" />
      <trkpt lat="45.4679806" lon="9.2057307" />
      <trkpt lat="45.4679663" lon="9.2056588" />
      <trkpt lat="45.4679656" lon="9.2056108" />
      <trkpt lat="45.4679569" lon="9.2056117" />
      <trkpt lat="45.4679051" lon="9.2056144" />
      <trkpt lat="45.4678922" lon="9.2056158" />
      <trkpt lat="45.4677889" lon="9.2056259" />
      <trkpt lat="45.4677845" lon="9.2056267" />
      <trkpt lat="45.4677526" lon="9.2056312" />
      <trkpt lat="45.4677236" lon="9.2056353" />
      <trkpt lat="45.4676647" lon="9.2056438" />
      <trkpt lat="45.4676450" lon="9.2056467" />
      <trkpt lat="45.4676215" lon="9.2056601" />
      <trkpt lat="45.4675742" lon="9.2056669" />
      <trkpt lat="45.4672015" lon="9.2057207" />
      <trkpt lat="45.4671796" lon="9.2057113" />
      <trkpt lat="45.4671744" lon="9.2056833" />
      <trkpt lat="45.4671692" lon="9.2056837" />
      <trkpt lat="45.4671300" lon="9.2056867" />
      <trkpt lat="45.4670983" lon="9.2056891" />
      <trkpt lat="45.4670910" lon="9.2056897" />
      <trkpt lat="45.4670719" lon="9.2057293" />
      <trkpt lat="45.4666272" lon="9.2057798" />
      <trkpt lat="45.4666057" lon="9.2057818" />
      <trkpt lat="45.4665889" lon="9.2057591" />
      <trkpt lat="45.4665852" lon="9.2056910" />
      <trkpt lat="45.4665334" lon="9.2056955" />
      <trkpt lat="45.4664964" lon="9.2056987" />
      <trkpt lat="45.4664674" lon="9.2057012" />
      <trkpt lat="45.4664484" lon="9.2057028" />
      <trkpt lat="45.4664516" lon="9.2057462" />
      <trkpt lat="45.4664388" lon="9.2057631" />
      <trkpt lat="45.4657577" lon="9.2058436" />
      <trkpt lat="45.4657209" lon="9.2058488" />
      <trkpt lat="45.4657138" lon="9.2058498" />
      <trkpt lat="45.4656861" lon="9.2058538" />
      <trkpt lat="45.4656583" lon="9.2058578" />
      <trkpt lat="45.4656449" lon="9.2058598" />
      <trkpt lat="45.4656138" lon="9.2058644" />
      <trkpt lat="45.4643283" lon="9.2060649" />
      <trkpt lat="45.4639238" lon="9.2061279" />
      <trkpt lat="45.4638895" lon="9.2061335" />
      <trkpt lat="45.4638750" lon="9.2060899" />
      <trkpt lat="45.4638562" lon="9.2060935" />
      <trkpt lat="45.4638276" lon="9.2060984" />
      <trkpt lat="45.4638134" lon="9.2061007" />
      <trkpt lat="45.4637998" lon="9.2060978" />
      <trkpt lat="45.4633288" lon="9.2061708" />
      <trkpt lat="45.4631379" lon="9.2062067" />
      <trkpt lat="45.4631399" lon="9.2062191" />
      <trkpt lat="45.4631006" lon="9.2062212" />
      <trkpt lat="45.4630791" lon="9.2062224" />
      <trkpt lat="45.4630657" lon="9.2062214" />
      <trkpt lat="45.4630774" lon="9.2063674" />
      <trkpt lat="45.4630717" lon="9.2063866" />
      <trkpt lat="45.4624395" lon="9.2064905" />
      <trkpt lat="45.4624092" lon="9.2064697" />
      <trkpt lat="45.4623826" lon="9.2064750" />
      <trkpt lat="45.4623468" lon="9.2064822" />
      <trkpt lat="45.4623134" lon="9.2064890" />
      <trkpt lat="45.4623062" lon="9.2064904" />
      <trkpt lat="45.4622943" lon="9.2064928" />
      <trkpt lat="45.4622695" lon="9.2064978" />
      <trkpt lat="45.4622533" lon="9.2065010" />
      <trkpt lat="45.4622515" lon="9.2065014" />
      <trkpt lat="45.4622452" lon="9.2065027" />
      <trkpt lat="45.4622136" lon="9.2065090" />
      <trkpt lat="45.4621713" lon="9.2065175" />
      <trkpt lat="45.4621639" lon="9.2065190" />
      <trkpt lat="45.4621505" lon="9.2065531" />
      <trkpt lat="45.4620867" lon="9.2065617" />
      <trkpt lat="45.4612892" lon="9.2066603" />
      <trkpt lat="45.4612556" lon="9.2066562" />
      <trkpt lat="45.4611890" lon="9.2066401" />
      <trkpt lat="45.4611817" lon="9.2066495" />
      <trkpt lat="45.4611518" lon="9.2066464" />
      <trkpt lat="45.4610988" lon="9.2066410" />
      <trkpt lat="45.4610845" lon="9.2066395" />
      <trkpt lat="45.4610214" lon="9.2066865" />
      <trkpt lat="45.4608989" lon="9.2066583" />
      <trkpt lat="45.4608833" lon="9.2066514" />
      <trkpt lat="45.4608593" lon="9.2066380" />
      <trkpt lat="45.4608444" lon="9.2066297" />
      <trkpt lat="45.4608203" lon="9.2066223" />
      <trkpt lat="45.4604942" lon="9.2064951" />
      <trkpt lat="45.4601744" lon="9.2063388" />
      <trkpt lat="45.4601370" lon="9.2063057" />
      <trkpt lat="45.4601035" lon="9.2063417" />
      <trkpt lat="45.4600852" lon="9.2063318" />
      <trkpt lat="45.4600602" lon="9.2064268" />
      <trkpt lat="45.4599967" lon="9.2063892" />
      <trkpt lat="45.4599288" lon="9.2063486" />
      <trkpt lat="45.4598519" lon="9.2062963" />
      <trkpt lat="45.4596316" lon="9.2061074" />
      <trkpt lat="45.4589214" lon="9.2054983" />
      <trkpt lat="45.4588725" lon="9.2056286" />
      <trkpt lat="45.4588460" lon="9.2056908" />
      <trkpt lat="45.4588205" lon="9.2056682" />
      <trkpt lat="45.4587955" lon="9.2056460" />
      <trkpt lat="45.4588036" lon="9.2056906" />
      <trkpt lat="45.4587422" lon="9.2058448" />
      <trkpt lat="45.4587324" lon="9.2058364" />
      <trkpt lat="45.4586989" lon="9.2058020" />
      <trkpt lat="45.4586604" lon="9.2058007" />
      <trkpt lat="45.4586293" lon="9.2058101" />
      <trkpt lat="45.4585701" lon="9.2057752" />
      <trkpt lat="45.4584499" lon="9.2056992" />
      <trkpt lat="45.4584395" lon="9.2057343" />
      <trkpt lat="45.4583239" lon="9.2057958" />
      <trkpt lat="45.4583157" lon="9.2058220" />
      <trkpt lat="45.4581983" lon="9.2057426" />
      <trkpt lat="45.4579772" lon="9.2056217" />
      <trkpt lat="45.4579750" lon="9.2056252" />
      <trkpt lat="45.4579483" lon="9.2056681" />
      <trkpt lat="45.4579374" lon="9.2056619" />
      <trkpt lat="45.4578865" lon="9.2056332" />
      <trkpt lat="45.4578771" lon="9.2056279" />
      <trkpt lat="45.4578736" lon="9.2056260" />
      <trkpt lat="45.4578307" lon="9.2056839" />
      <trkpt lat="45.4578097" lon="9.2057120" />
      <trkpt lat="45.4577860" lon="9.2057462" />
      <trkpt lat="45.4577527" lon="9.2058029" />
      <trkpt lat="45.4577336" lon="9.2058392" />
      <trkpt lat="45.4577111" lon="9.2058919" />
      <trkpt lat="45.4577005" lon="9.2058842" />
      <trkpt lat="45.4576864" lon="9.2058740" />
      <trkpt lat="45.4576707" lon="9.2058626" />
      <trkpt lat="45.4576619" lon="9.2058562" />
      <trkpt lat="45.4574813" lon="9.2063860" />
      <trkpt lat="45.4573338" lon="9.2067390" />
      <trkpt lat="45.4572788" lon="9.2068735" />
      <trkpt lat="45.4572551" lon="9.2068927" />
      <trkpt lat="45.4572481" lon="9.2069096" />
      <trkpt lat="45.4572333" lon="9.2069455" />
      <trkpt lat="45.4572178" lon="9.2069829" />
      <trkpt lat="45.4572131" lon="9.2069942" />
      <trkpt lat="45.4569765" lon="9.2068166" />
      <trkpt lat="45.4562588" lon="9.2062265" />
      <trkpt lat="45.4561976" lon="9.2062546" />
      <trkpt lat="45.4560645" lon="9.2065832" />
      <trkpt lat="45.4560516" lon="9.2065730" />
      <trkpt lat="45.4560209" lon="9.2065489" />
      <trkpt lat="45.4559945" lon="9.2065281" />
      <trkpt lat="45.4559785" lon="9.2065154" />
      <trkpt lat="45.4559614" lon="9.2065180" />
      <trkpt lat="45.4558769" lon="9.2064478" />
      <trkpt lat="45.4557699" lon="9.2063589" />
      <trkpt lat="45.4557781" lon="9.2063379" />
      <trkpt lat="45.4557722" lon="9.2063327" />
      <trkpt lat="45.4557434" lon="9.2063074" />
      <trkpt lat="45.4557207" lon="9.2062874" />
      <trkpt lat="45.4557062" lon="9.2062747" />
      <trkpt lat="45.4556953" lon="9.2063018" />
      <trkpt lat="45.4556899" lon="9.2063156" />
      <trkpt lat="45.4556720" lon="9.2063609" />
      <trkpt lat="45.4556464" lon="9.2064257" />
      <trkpt lat="45.4556348" lon="9.2064552" />
      <trkpt lat="45.4550617" lon="9.2078727" />
      <trkpt lat="45.4550361" lon="9.2078770" />
      <trkpt lat="45.4540669" lon="9.2070854" />
      <trkpt lat="45.4540594" lon="9.2071024" />
      <trkpt lat="45.4540303" lon="9.2071683" />
      <trkpt lat="45.4540061" lon="9.2072234" />
      <trkpt lat="45.4539930" lon="9.2072531" />
      <trkpt lat="45.4539793" lon="9.2072625" />
      <trkpt lat="45.4539671" lon="9.2072525" />
      <trkpt lat="45.4539304" lon="9.2072225" />
      <trkpt lat="45.4539011" lon="9.2071985" />
      <trkpt lat="45.4538834" lon="9.2071840" />
      <trkpt lat="45.4532051" lon="9.2088812" />
      <trkpt lat="45.4531882" lon="9.2088912" />
      <trkpt lat="45.4531663" lon="9.2089225" />
      <trkpt lat="45.4531350" lon="9.2089674" />
      <trkpt lat="45.4531075" lon="9.2090069" />
      <trkpt lat="45.4530978" lon="9.2090207" />
      <trkpt lat="45.4529205" lon="9.2088691" />
      <trkpt lat="45.4527446" lon="9.2087275" />
      <trkpt lat="45.4525570" lon="9.2087949" />
      <trkpt lat="45.4530367" lon="9.2091849" />
      <trkpt lat="45.4530278" lon="9.2092075" />
      <trkpt lat="45.4530128" lon="9.2092452" />
      <trkpt lat="45.4529926" lon="9.2092964" />
      <trkpt lat="45.4529704" lon="9.2093526" />
      <trkpt lat="45.4523166" lon="9.2088177" />
      <trkpt lat="45.4521373" lon="9.2086707" />
      <trkpt lat="45.4518541" lon="9.2084393" />
      <trkpt lat="45.4518377" lon="9.2084359" />
      <trkpt lat="45.4518204" lon="9.2083913" />
      <trkpt lat="45.4517904" lon="9.2083440" />
      <trkpt lat="45.4517621" lon="9.2083022" />
      <trkpt lat="45.4517406" lon="9.2082692" />
      <trkpt lat="45.4517137" lon="9.2082219" />
      <trkpt lat="45.4516798" lon="9.2081762" />
      <trkpt lat="45.4516646" lon="9.2081530" />
      <trkpt lat="45.4516471" lon="9.2081107" />
      <trkpt lat="45.4507195" lon="9.2073597" />
      <trkpt lat="45.4506838" lon="9.2073580" />
      <trkpt lat="45.4506729" lon="9.2073497" />
      <trkpt lat="45.4506407" lon="9.2073251" />
      <trkpt lat="45.4505961" lon="9.2072910" />
      <trkpt lat="45.4505859" lon="9.2072833" />
      <trkpt lat="45.4505751" lon="9.2072551" />
      <trkpt lat="45.4504358" lon="9.2071442" />
      <trkpt lat="45.4502696" lon="9.2070119" />
      <trkpt lat="45.4501522" lon="9.2069185" />
      <trkpt lat="45.4498370" lon="9.2066603" />
      <trkpt lat="45.4497582" lon="9.2065983" />
      <trkpt lat="45.4496943" lon="9.2066996" />
      <trkpt lat="45.4496563" lon="9.2066645" />
      <trkpt lat="45.4496429" lon="9.2066527" />
      <trkpt lat="45.4496269" lon="9.2066373" />
      <trkpt lat="45.4496197" lon="9.2066322" />
      <trkpt lat="45.4495773" lon="9.2066040" />
      <trkpt lat="45.4495194" lon="9.2067012" />
      <trkpt lat="45.4494893" lon="9.2066858" />
      <trkpt lat="45.4494679" lon="9.2066749" />
      <trkpt lat="45.4494601" lon="9.2066708" />
      <trkpt lat="45.4494475" lon="9.2066644" />
      <trkpt lat="45.4494366" lon="9.2066621" />
      <trkpt lat="45.4493737" lon="9.2066267" />
      <trkpt lat="45.4493473" lon="9.2066132" />
      <trkpt lat="45.4493344" lon="9.2066063" />
      <trkpt lat="45.4493159" lon="9.2066177" />
      <trkpt lat="45.4492946" lon="9.2066305" />
      <trkpt lat="45.4492649" lon="9.2066318" />
      <trkpt lat="45.4492487" lon="9.2066325" />
      <trkpt lat="45.4492316" lon="9.2066332" />
      <trkpt lat="45.4492113" lon="9.2066280" />
      <trkpt lat="45.4492335" lon="9.2065920" />
      <trkpt lat="45.4491523" lon="9.2064189" />
      <trkpt lat="45.4487856" lon="9.2065812" />
      <trkpt lat="45.4487814" lon="9.2065550" />
      <trkpt lat="45.4486751" lon="9.2065973" />
      <trkpt lat="45.4486803" lon="9.2066221" />
      <trkpt lat="45.4472486" lon="9.2072870" />
      <trkpt lat="45.4472393" lon="9.2074391" />
      <trkpt lat="45.4472337" lon="9.2074545" />
      <trkpt lat="45.4472137" lon="9.2075090" />
      <trkpt lat="45.4471845" lon="9.2075888" />
      <trkpt lat="45.4471719" lon="9.2076233" />
      <trkpt lat="45.4470832" lon="9.2076369" />
      <trkpt lat="45.4471109" lon="9.2082737" />
      <trkpt lat="45.4471527" lon="9.2093481" />
      <trkpt lat="45.4471815" lon="9.2094062" />
      <trkpt lat="45.4472082" lon="9.2094128" />
      <trkpt lat="45.4472032" lon="9.2094534" />
      <trkpt lat="45.4472012" lon="9.2094699" />
      <trkpt lat="45.4471946" lon="9.2094779" />
      <trkpt lat="45.4471575" lon="9.2095230" />
      <trkpt lat="45.4471227" lon="9.2095652" />
      <trkpt lat="45.4470954" lon="9.2095983" />
      <trkpt lat="45.4470754" lon="9.2096226" />
      <trkpt lat="45.4470207" lon="9.2096890" />
      <trkpt lat="45.4470061" lon="9.2097067" />
      <trkpt lat="45.4470268" lon="9.2097831" />
      <trkpt lat="45.4469919" lon="9.2098714" />
      <trkpt lat="45.4469807" lon="9.2098825" />
      <trkpt lat="45.4469402" lon="9.2099223" />
      <trkpt lat="45.4468951" lon="9.2099666" />
      <trkpt lat="45.4468753" lon="9.2099861" />
      <trkpt lat="45.4468486" lon="9.2100181" />
      <trkpt lat="45.4468577" lon="9.2105373" />
      <trkpt lat="45.4468608" lon="9.2107121" />
      <trkpt lat="45.4468505" lon="9.2107377" />
      <trkpt lat="45.4467950" lon="9.2108324" />
      <trkpt lat="45.4467769" lon="9.2108633" />
      <trkpt lat="45.4466735" lon="9.2110381" />
      <trkpt lat="45.4465009" lon="9.2113132" />
      <trkpt lat="45.4459964" lon="9.2121340" />
      <trkpt lat="45.4459376" lon="9.2122277" />
      <trkpt lat="45.4457559" lon="9.2125206" />
      <trkpt lat="45.4457473" lon="9.2125090" />
      <trkpt lat="45.4450524" lon="9.2116157" />
      <trkpt lat="45.4449319" lon="9.2114193" />
      <trkpt lat="45.4448965" lon="9.2114459" />
      <trkpt lat="45.4448719" lon="9.2114644" />
      <trkpt lat="45.4447940" lon="9.2112683" />
      <trkpt lat="45.4447224" lon="9.2097140" />
      <trkpt lat="45.4446311" lon="9.2097260" />
      <trkpt lat="45.4446263" lon="9.2096339" />
      <trkpt lat="45.4446260" lon="9.2096275" />
      <trkpt lat="45.4445757" lon="9.2085482" />
      <trkpt lat="45.4445740" lon="9.2085179" />
      <trkpt lat="45.4445680" lon="9.2084073" />
      <trkpt lat="45.4445644" lon="9.2083414" />
      <trkpt lat="45.4445630" lon="9.2083159" />
      <trkpt lat="45.4445818" lon="9.2082831" />
      <trkpt lat="45.4444953" lon="9.2066001" />
      <trkpt lat="45.4444831" lon="9.2063088" />
      <trkpt lat="45.4444659" lon="9.2058984" />
      <trkpt lat="45.4444529" lon="9.2058618" />
      <trkpt lat="45.4442832" lon="9.2057271" />
      <trkpt lat="45.4441290" lon="9.2056071" />
      <trkpt lat="45.4440014" lon="9.2055384" />
      <trkpt lat="45.4437430" lon="9.2055623" />
      <trkpt lat="45.4433510" lon="9.2055903" />
      <trkpt lat="45.4431991" lon="9.2056082" />
      <trkpt lat="45.4426630" lon="9.2056461" />
      <trkpt lat="45.4422031" lon="9.2056873" />
      <trkpt lat="45.4416663" lon="9.2057242" />
      <trkpt lat="45.4416650" lon="9.2056956" />
      <trkpt lat="45.4416622" lon="9.2056530" />
      <trkpt lat="45.4416585" lon="9.2055982" />
      <trkpt lat="45.4416566" lon="9.2055635" />
      <trkpt lat="45.4414911" lon="9.2055111" />
      <trkpt lat="45.4414933" lon="9.2053467" />
      <trkpt lat="45.4415039" lon="9.2046146" />
      <trkpt lat="45.4415090" lon="9.2042676" />
      <trkpt lat="45.4415106" lon="9.2041506" />
      <trkpt lat="45.4415157" lon="9.2037977" />
      <trkpt lat="45.4415167" lon="9.2034886" />
      <trkpt lat="45.4414957" lon="9.2034898" />
      <trkpt lat="45.4414557" lon="9.2034918" />
      <trkpt lat="45.4414563" lon="9.2034506" />
      <trkpt lat="45.4414578" lon="9.2033316" />
      <trkpt lat="45.4414556" lon="9.2032102" />
      <trkpt lat="45.4414549" lon="9.2031693" />
      <trkpt lat="45.4414754" lon="9.2018822" />
      <trkpt lat="45.4414742" lon="9.2017890" />
      <trkpt lat="45.4414853" lon="9.2012152" />
      <trkpt lat="45.4414879" lon="9.2010645" />
      <trkpt lat="45.4415041" lon="9.1998412" />
      <trkpt lat="45.4414684" lon="9.1998386" />
      <trkpt lat="45.4414571" lon="9.1998378" />
      <trkpt lat="45.4410546" lon="9.1997999" />
      <trkpt lat="45.4408514" lon="9.1997798" />
      <trkpt lat="45.4405399" lon="9.1998372" />
      <trkpt lat="45.4404805" lon="9.1998469" />
      <trkpt lat="45.4401525" lon="9.1999126" />
      <trkpt lat="45.4401041" lon="9.1999220" />
      <trkpt lat="45.4400324" lon="9.1999360" />
      <trkpt lat="45.4400305" lon="9.1999176" />
      <trkpt lat="45.4400249" lon="9.1998637" />
      <trkpt lat="45.4400229" lon="9.1998450" />
      <trkpt lat="45.4400212" lon="9.1998280" />
      <trkpt lat="45.4400168" lon="9.1997839" />
      <trkpt lat="45.4400138" lon="9.1997550" />
      <trkpt lat="45.4400407" lon="9.1997235" />
      <trkpt lat="45.4400459" lon="9.1995042" />
      <trkpt lat="45.4400544" lon="9.1987270" />
      <trkpt lat="45.4400562" lon="9.1986439" />
      <trkpt lat="45.4400556" lon="9.1986046" />
      <trkpt lat="45.4400551" lon="9.1985682" />
      <trkpt lat="45.4400547" lon="9.1985399" />
      <trkpt lat="45.4400544" lon="9.1985205" />
      <trkpt lat="45.4400732" lon="9.1984836" />
      <trkpt lat="45.4400737" lon="9.1981101" />
      <trkpt lat="45.4400943" lon="9.1971350" />
      <trkpt lat="45.4400952" lon="9.1970916" />
      <trkpt lat="45.4401099" lon="9.1963969" />
      <trkpt lat="45.4401273" lon="9.1955774" />
      <trkpt lat="45.4401151" lon="9.1955573" />
      <trkpt lat="45.4401152" lon="9.1955446" />
      <trkpt lat="45.4401162" lon="9.1954724" />
      <trkpt lat="45.4392967" lon="9.1954615" />
      <trkpt lat="45.4392340" lon="9.1954126" />
      <trkpt lat="45.4391928" lon="9.1953675" />
      <trkpt lat="45.4391708" lon="9.1953123" />
      <trkpt lat="45.4391566" lon="9.1952463" />
      <trkpt lat="45.4391540" lon="9.1951746" />
      <trkpt lat="45.4392169" lon="9.1949631" />
      <trkpt lat="45.4393616" lon="9.1944847" />
      <trkpt lat="45.4394254" lon="9.1943304" />
      <trkpt lat="45.4395575" lon="9.1940466" />
      <trkpt lat="45.4397184" lon="9.1937245" />
      <trkpt lat="45.4396919" lon="9.1937001" />
      <trkpt lat="45.4396859" lon="9.1936989" />
      <trkpt lat="45.4396766" lon="9.1936569" />
      <trkpt lat="45.4390077" lon="9.1927722" />
      <trkpt lat="45.4388285" lon="9.1925329" />
      <trkpt lat="45.4385994" lon="9.1922272" />
      <trkpt lat="45.4386184" lon="9.1921952" />
      <trkpt lat="45.4386407" lon="9.1921579" />
      <trkpt lat="45.4386589" lon="9.1921272" />
      <trkpt lat="45.4386650" lon="9.1921170" />
      <trkpt lat="45.4387023" lon="9.1920658" />
      <trkpt lat="45.4386999" lon="9.1919545" />
      <trkpt lat="45.4387087" lon="9.1919169" />
      <trkpt lat="45.4390939" lon="9.1912834" />
      <trkpt lat="45.4390275" lon="9.1912000" />
      <trkpt lat="45.4390971" lon="9.1910858" />
      <trkpt lat="45.4391879" lon="9.1909497" />
      <trkpt lat="45.4391813" lon="9.1909388" />
      <trkpt lat="45.4391777" lon="9.1909331" />
      <trkpt lat="45.4391726" lon="9.1909227" />
      <trkpt lat="45.4391322" lon="9.1908538" />
      <trkpt lat="45.4391266" lon="9.1908216" />
      <trkpt lat="45.4392714" lon="9.1906490" />
      <trkpt lat="45.4394545" lon="9.1904307" />
      <trkpt lat="45.4395659" lon="9.1902978" />
      <trkpt lat="45.4396566" lon="9.1901897" />
      <trkpt lat="45.4398738" lon="9.1899311" />
      <trkpt lat="45.4399302" lon="9.1898319" />
      <trkpt lat="45.4399603" lon="9.1897541" />
      <trkpt lat="45.4399773" lon="9.1896710" />
      <trkpt lat="45.4399810" lon="9.1896066" />
      <trkpt lat="45.4399797" lon="9.1892123" />
      <trkpt lat="45.4399781" lon="9.1889307" />
      <trkpt lat="45.4399785" lon="9.1887178" />
      <trkpt lat="45.4399773" lon="9.1884877" />
      <trkpt lat="45.4399771" lon="9.1884802" />
      <trkpt lat="45.4400497" lon="9.1884810" />
      <trkpt lat="45.4400495" lon="9.1884713" />
      <trkpt lat="45.4400486" lon="9.1883972" />
      <trkpt lat="45.4400480" lon="9.1883556" />
      <trkpt lat="45.4400418" lon="9.1883496" />
      <trkpt lat="45.4400718" lon="9.1883127" />
      <trkpt lat="45.4400732" lon="9.1880203" />
      <trkpt lat="45.4400511" lon="9.1879680" />
      <trkpt lat="45.4400257" lon="9.1879605" />
      <trkpt lat="45.4400234" lon="9.1879385" />
      <trkpt lat="45.4400235" lon="9.1878744" />
      <trkpt lat="45.4400240" lon="9.1878100" />
      <trkpt lat="45.4400241" lon="9.1877772" />
      <trkpt lat="45.4400245" lon="9.1877075" />
      <trkpt lat="45.4397513" lon="9.1877016" />
      <trkpt lat="45.4392120" lon="9.1876900" />
      <trkpt lat="45.4392105" lon="9.1876317" />
      <trkpt lat="45.4391957" lon="9.1870426" />
      <trkpt lat="45.4391954" lon="9.1870325" />
      <trkpt lat="45.4391795" lon="9.1867069" />
      <trkpt lat="45.4391600" lon="9.1862568" />
      <trkpt lat="45.4391564" lon="9.1861773" />
      <trkpt lat="45.4391905" lon="9.1861724" />
      <trkpt lat="45.4391868" lon="9.1861062" />
      <trkpt lat="45.4391865" lon="9.1860894" />
      <trkpt lat="45.4393998" lon="9.1857692" />
      <trkpt lat="45.4393624" lon="9.1854567" />
      <trkpt lat="45.4393590" lon="9.1853831" />
      <trkpt lat="45.4392999" lon="9.1853940" />
      <trkpt lat="45.4392976" lon="9.1853620" />
      <trkpt lat="45.4392937" lon="9.1852924" />
      <trkpt lat="45.4392896" lon="9.1852198" />
      <trkpt lat="45.4392877" lon="9.1851859" />
      <trkpt lat="45.4393062" lon="9.1851576" />
      <trkpt lat="45.4393157" lon="9.1851573" />
      <trkpt lat="45.4393522" lon="9.1851562" />
      <trkpt lat="45.4392925" lon="9.1836657" />
      <trkpt lat="45.4392864" lon="9.1835128" />
      <trkpt lat="45.4392821" lon="9.1834077" />
      <trkpt lat="45.4392814" lon="9.1833241" />
      <trkpt lat="45.4392809" lon="9.1832862" />
      <trkpt lat="45.4392798" lon="9.1831988" />
      <trkpt lat="45.4392815" lon="9.1830970" />
      <trkpt lat="45.4393046" lon="9.1824870" />
      <trkpt lat="45.4393243" lon="9.1819357" />
      <trkpt lat="45.4393286" lon="9.1818312" />
      <trkpt lat="45.4393314" lon="9.1817513" />
      <trkpt lat="45.4393537" lon="9.1811081" />
      <trkpt lat="45.4393565" lon="9.1810286" />
      <trkpt lat="45.4393894" lon="9.1801263" />
      <trkpt lat="45.4393922" lon="9.1800051" />
      <trkpt lat="45.4394386" lon="9.1786465" />
      <trkpt lat="45.4394420" lon="9.1785448" />
      <trkpt lat="45.4394427" lon="9.1785276" />
      <trkpt lat="45.4394436" lon="9.1785075" />
      <trkpt lat="45.4394455" lon="9.1784462" />
      <trkpt lat="45.4394463" lon="9.1784210" />
      <trkpt lat="45.4394995" lon="9.1784302" />
      <trkpt lat="45.4395105" lon="9.1784321" />
      <trkpt lat="45.4399104" lon="9.1784817" />
      <trkpt lat="45.4404919" lon="9.1785461" />
      <trkpt lat="45.4405560" lon="9.1784689" />
      <trkpt lat="45.4405715" lon="9.1784702" />
      <trkpt lat="45.4405846" lon="9.1784713" />
      <trkpt lat="45.4406281" lon="9.1784749" />
      <trkpt lat="45.4406693" lon="9.1784783" />
      <trkpt lat="45.4407000" lon="9.1784820" />
      <trkpt lat="45.4407093" lon="9.1779292" />
      <trkpt lat="45.4407270" lon="9.1768125" />
      <trkpt lat="45.4407390" lon="9.1760547" />
      <trkpt lat="45.4407354" lon="9.1756710" />
      <trkpt lat="45.4407664" lon="9.1756435" />
      <trkpt lat="45.4409855" lon="9.1756989" />
      <trkpt lat="45.4417449" lon="9.1758781" />
      <trkpt lat="45.4417812" lon="9.1758832" />
      <trkpt lat="45.4417832" lon="9.1758673" />
      <trkpt lat="45.4417906" lon="9.1758076" />
      <trkpt lat="45.4417973" lon="9.1757484" />
      <trkpt lat="45.4417989" lon="9.1757342" />
      <trkpt lat="45.4418423" lon="9.1757431" />
      <trkpt lat="45.4418515" lon="9.1756573" />
      <trkpt lat="45.4418603" lon="9.1755756" />
      <trkpt lat="45.4418947" lon="9.1755838" />
      <trkpt lat="45.4418968" lon="9.1755667" />
      <trkpt lat="45.4418981" lon="9.1755495" />
      <trkpt lat="45.4419978" lon="9.1755800" />
      <trkpt lat="45.4428134" lon="9.1757745" />
      <trkpt lat="45.4429757" lon="9.1758097" />
      <trkpt lat="45.4429986" lon="9.1758140" />
      <trkpt lat="45.4430177" lon="9.1758113" />
      <trkpt lat="45.4430802" lon="9.1758053" />
      <trkpt lat="45.4430859" lon="9.1757517" />
      <trkpt lat="45.4430881" lon="9.1757304" />
      <trkpt lat="45.4430895" lon="9.1757173" />
      <trkpt lat="45.4431092" lon="9.1757172" />
      <trkpt lat="45.4431592" lon="9.1757288" />
      <trkpt lat="45.4433412" lon="9.1757744" />
      <trkpt lat="45.4435192" lon="9.1758179" />
      <trkpt lat="45.4435281" lon="9.1757416" />
      <trkpt lat="45.4435376" lon="9.1757431" />
      <trkpt lat="45.4435429" lon="9.1757440" />
      <trkpt lat="45.4435852" lon="9.1757507" />
      <trkpt lat="45.4436269" lon="9.1757575" />
      <trkpt lat="45.4436359" lon="9.1757589" />
      <trkpt lat="45.4436537" lon="9.1757618" />
      <trkpt lat="45.4436935" lon="9.1757682" />
      <trkpt lat="45.4437274" lon="9.1757736" />
      <trkpt lat="45.4437403" lon="9.1757757" />
      <trkpt lat="45.4437615" lon="9.1757791" />
      <trkpt lat="45.4437900" lon="9.1757837" />
      <trkpt lat="45.4438280" lon="9.1757898" />
      <trkpt lat="45.4438439" lon="9.1757924" />
      <trkpt lat="45.4438567" lon="9.1757945" />
      <trkpt lat="45.4438576" lon="9.1758427" />
      <trkpt lat="45.4438874" lon="9.1758577" />
      <trkpt lat="45.4439866" lon="9.1758733" />
      <trkpt lat="45.4444044" lon="9.1759591" />
      <trkpt lat="45.4447648" lon="9.1760491" />
      <trkpt lat="45.4449374" lon="9.1760792" />
      <trkpt lat="45.4453665" lon="9.1761878" />
      <trkpt lat="45.4453767" lon="9.1761721" />
      <trkpt lat="45.4453959" lon="9.1761793" />
      <trkpt lat="45.4454686" lon="9.1762046" />
      <trkpt lat="45.4454690" lon="9.1761600" />
      <trkpt lat="45.4454690" lon="9.1761192" />
      <trkpt lat="45.4454691" lon="9.1758504" />
      <trkpt lat="45.4454691" lon="9.1757134" />
      <trkpt lat="45.4454693" lon="9.1750083" />
      <trkpt lat="45.4454705" lon="9.1744764" />
      <trkpt lat="45.4454696" lon="9.1744020" />
      <trkpt lat="45.4454707" lon="9.1742673" />
      <trkpt lat="45.4455133" lon="9.1742673" />
      <trkpt lat="45.4455300" lon="9.1742673" />
      <trkpt lat="45.4455326" lon="9.1737100" />
      <trkpt lat="45.4455334" lon="9.1729791" />
      <trkpt lat="45.4455335" lon="9.1729215" />
      <trkpt lat="45.4455490" lon="9.1728993" />
      <trkpt lat="45.4455497" lon="9.1728778" />
      <trkpt lat="45.4455515" lon="9.1728206" />
      <trkpt lat="45.4465892" lon="9.1728883" />
      <trkpt lat="45.4465916" lon="9.1727975" />
      <trkpt lat="45.4473778" lon="9.1728424" />
      <trkpt lat="45.4474435" lon="9.1728456" />
      <trkpt lat="45.4474780" lon="9.1728474" />
      <trkpt lat="45.4476960" lon="9.1728598" />
      <trkpt lat="45.4480547" lon="9.1728771" />
      <trkpt lat="45.4480541" lon="9.1729009" />
      <trkpt lat="45.4480536" lon="9.1729812" />
      <trkpt lat="45.4485877" lon="9.1730028" />
      <trkpt lat="45.4487045" lon="9.1730101" />
      <trkpt lat="45.4488087" lon="9.1730141" />
      <trkpt lat="45.4488467" lon="9.1730155" />
      <trkpt lat="45.4488545" lon="9.1729502" />
      <trkpt lat="45.4488571" lon="9.1729232" />
      <trkpt lat="45.4489739" lon="9.1729296" />
      <trkpt lat="45.4493299" lon="9.1729490" />
      <trkpt lat="45.4495225" lon="9.1729602" />
      <trkpt lat="45.4495788" lon="9.1729577" />
      <trkpt lat="45.4496020" lon="9.1729491" />
      <trkpt lat="45.4496291" lon="9.1729254" />
      <trkpt lat="45.4496541" lon="9.1728875" />
      <trkpt lat="45.4496660" lon="9.1728555" />
      <trkpt lat="45.4496742" lon="9.1728248" />
      <trkpt lat="45.4496820" lon="9.1727780" />
      <trkpt lat="45.4496916" lon="9.1727702" />
      <trkpt lat="45.4497296" lon="9.1727737" />
      <trkpt lat="45.4497665" lon="9.1727761" />
      <trkpt lat="45.4497759" lon="9.1727761" />
      <trkpt lat="45.4497801" lon="9.1727239" />
      <trkpt lat="45.4497916" lon="9.1726855" />
      <trkpt lat="45.4498139" lon="9.1726688" />
      <trkpt lat="45.4498424" lon="9.1726686" />
      <trkpt lat="45.4499222" lon="9.1726806" />
      <trkpt lat="45.4499565" lon="9.1726962" />
      <trkpt lat="45.4500384" lon="9.1728095" />
      <trkpt lat="45.4500900" lon="9.1728659" />
      <trkpt lat="45.4502525" lon="9.1730481" />
      <trkpt lat="45.4502628" lon="9.1730301" />
      <trkpt lat="45.4501091" lon="9.1728387" />
      <trkpt lat="45.4500900" lon="9.1728659" />
      <trkpt lat="45.4500384" lon="9.1728095" />
      <trkpt lat="45.4500457" lon="9.1727986" />
      <trkpt lat="45.4500629" lon="9.1727734" />
      <trkpt lat="45.4500796" lon="9.1727482" />
      <trkpt lat="45.4500845" lon="9.1727410" />
      <trkpt lat="45.4500823" lon="9.1726976" />
      <trkpt lat="45.4500778" lon="9.1723193" />
      <trkpt lat="45.4500951" lon="9.1723025" />
      <trkpt lat="45.4509333" lon="9.1714923" />
      <trkpt lat="45.4509354" lon="9.1715023" />
      <trkpt lat="45.4509648" lon="9.1714758" />
      <trkpt lat="45.4509982" lon="9.1714485" />
      <trkpt lat="45.4509919" lon="9.1714168" />
      <trkpt lat="45.4509824" lon="9.1713703" />
      <trkpt lat="45.4509781" lon="9.1713491" />
      <trkpt lat="45.4511057" lon="9.1712264" />
      <trkpt lat="45.4511099" lon="9.1712478" />
      <trkpt lat="45.4511175" lon="9.1712847" />
      <trkpt lat="45.4511375" lon="9.1712736" />
      <trkpt lat="45.4511561" lon="9.1712552" />
      <trkpt lat="45.4523151" lon="9.1701344" />
      <trkpt lat="45.4523231" lon="9.1701259" />
      <trkpt lat="45.4523728" lon="9.1700764" />
      <trkpt lat="45.4524017" lon="9.1700615" />
      <trkpt lat="45.4524439" lon="9.1700703" />
      <trkpt lat="45.4525023" lon="9.1700941" />
      <trkpt lat="45.4525183" lon="9.1700991" />
      <trkpt lat="45.4525254" lon="9.1700655" />
      <trkpt lat="45.4527011" lon="9.1701127" />
      <trkpt lat="45.4527053" lon="9.1700851" />
      <trkpt lat="45.4527088" lon="9.1700645" />
      <trkpt lat="45.4527121" lon="9.1700449" />
      <trkpt lat="45.4528166" lon="9.1700810" />
      <trkpt lat="45.4529505" lon="9.1701298" />
      <trkpt lat="45.4530089" lon="9.1701517" />
      <trkpt lat="45.4530754" lon="9.1701762" />
      <trkpt lat="45.4531013" lon="9.1701869" />
      <trkpt lat="45.4531457" lon="9.1702026" />
      <trkpt lat="45.4531430" lon="9.1702241" />
      <trkpt lat="45.4531364" lon="9.1702752" />
      <trkpt lat="45.4531336" lon="9.1702971" />
      <trkpt lat="45.4531459" lon="9.1703286" />
      <trkpt lat="45.4531629" lon="9.1703347" />
      <trkpt lat="45.4532008" lon="9.1703485" />
      <trkpt lat="45.4532063" lon="9.1703504" />
      <trkpt lat="45.4532094" lon="9.1703516" />
      <trkpt lat="45.4532596" lon="9.1703697" />
      <trkpt lat="45.4532983" lon="9.1703837" />
      <trkpt lat="45.4533259" lon="9.1703937" />
      <trkpt lat="45.4533354" lon="9.1703971" />
      <trkpt lat="45.4533386" lon="9.1703931" />
      <trkpt lat="45.4533692" lon="9.1703782" />
      <trkpt lat="45.4533948" lon="9.1703787" />
      <trkpt lat="45.4537095" lon="9.1705153" />
      <trkpt lat="45.4537256" lon="9.1705285" />
      <trkpt lat="45.4543599" lon="9.1714925" />
      <trkpt lat="45.4543623" lon="9.1714969" />
      <trkpt lat="45.4543789" lon="9.1715283" />
      <trkpt lat="45.4543930" lon="9.1715548" />
      <trkpt lat="45.4543961" lon="9.1715607" />
      <trkpt lat="45.4544224" lon="9.1715634" />
      <trkpt lat="45.4549296" lon="9.1723203" />
      <trkpt lat="45.4549336" lon="9.1723148" />
      <trkpt lat="45.4549436" lon="9.1723011" />
      <trkpt lat="45.4549847" lon="9.1723426" />
      <trkpt lat="45.4550546" lon="9.1723701" />
      <trkpt lat="45.4550882" lon="9.1724021" />
      <trkpt lat="45.4551248" lon="9.1724555" />
      <trkpt lat="45.4551895" lon="9.1725484" />
      <trkpt lat="45.4552064" lon="9.1725235" />
      <trkpt lat="45.4552365" lon="9.1724793" />
      <trkpt lat="45.4552445" lon="9.1724675" />
      <trkpt lat="45.4553020" lon="9.1725538" />
      <trkpt lat="45.4555267" lon="9.1728911" />
      <trkpt lat="45.4555461" lon="9.1728918" />
      <trkpt lat="45.4555676" lon="9.1729257" />
      <trkpt lat="45.4555818" lon="9.1729476" />
      <trkpt lat="45.4555984" lon="9.1729743" />
      <trkpt lat="45.4556178" lon="9.1730046" />
      <trkpt lat="45.4556205" lon="9.1730237" />
      <trkpt lat="45.4557075" lon="9.1731512" />
      <trkpt lat="45.4557267" lon="9.1731574" />
      <trkpt lat="45.4557336" lon="9.1731673" />
      <trkpt lat="45.4557550" lon="9.1731990" />
      <trkpt lat="45.4557709" lon="9.1732228" />
      <trkpt lat="45.4557853" lon="9.1732442" />
      <trkpt lat="45.4558039" lon="9.1732188" />
      <trkpt lat="45.4558255" lon="9.1732440" />
      <trkpt lat="45.4558265" lon="9.1732455" />
      <trkpt lat="45.4558387" lon="9.1732643" />
      <trkpt lat="45.4558536" lon="9.1732872" />
      <trkpt lat="45.4559114" lon="9.1733762" />
      <trkpt lat="45.4559444" lon="9.1734270" />
      <trkpt lat="45.4559698" lon="9.1734662" />
      <trkpt lat="45.4560004" lon="9.1735132" />
      <trkpt lat="45.4560146" lon="9.1735336" />
      <trkpt lat="45.4560068" lon="9.1735444" />
      <trkpt lat="45.4560077" lon="9.1735798" />
      <trkpt lat="45.4560714" lon="9.1736713" />
      <trkpt lat="45.4560940" lon="9.1736710" />
      <trkpt lat="45.4560960" lon="9.1736859" />
      <trkpt lat="45.4561093" lon="9.1737057" />
      <trkpt lat="45.4561231" lon="9.1737257" />
      <trkpt lat="45.4561363" lon="9.1737473" />
      <trkpt lat="45.4561295" lon="9.1737903" />
      <trkpt lat="45.4565092" lon="9.1743329" />
      <trkpt lat="45.4565306" lon="9.1743291" />
      <trkpt lat="45.4565400" lon="9.1743430" />
      <trkpt lat="45.4565494" lon="9.1743569" />
      <trkpt lat="45.4565643" lon="9.1743793" />
      <trkpt lat="45.4565853" lon="9.1744088" />
      <trkpt lat="45.4565861" lon="9.1744553" />
      <trkpt lat="45.4572391" lon="9.1753912" />
      <trkpt lat="45.4572658" lon="9.1753858" />
      <trkpt lat="45.4576672" lon="9.1748152" />
      <trkpt lat="45.4576741" lon="9.1748246" />
      <trkpt lat="45.4576878" lon="9.1748436" />
      <trkpt lat="45.4577340" lon="9.1747825" />
      <trkpt lat="45.4577639" lon="9.1747429" />
      <trkpt lat="45.4577756" lon="9.1747622" />
      <trkpt lat="45.4577947" lon="9.1747934" />
      <trkpt lat="45.4580286" lon="9.1744576" />
      <trkpt lat="45.4580418" lon="9.1744433" />
      <trkpt lat="45.4580589" lon="9.1744435" />
      <trkpt lat="45.4580631" lon="9.1744367" />
      <trkpt lat="45.4580879" lon="9.1743961" />
      <trkpt lat="45.4581028" lon="9.1743716" />
      <trkpt lat="45.4581212" lon="9.1743415" />
      <trkpt lat="45.4581259" lon="9.1743164" />
      <trkpt lat="45.4581659" lon="9.1742522" />
      <trkpt lat="45.4583542" lon="9.1739897" />
      <trkpt lat="45.4583869" lon="9.1739900" />
      <trkpt lat="45.4584013" lon="9.1739757" />
      <trkpt lat="45.4584073" lon="9.1739697" />
      <trkpt lat="45.4584185" lon="9.1739585" />
      <trkpt lat="45.4584284" lon="9.1739487" />
      <trkpt lat="45.4584485" lon="9.1738409" />
      <trkpt lat="45.4588411" lon="9.1732807" />
      <trkpt lat="45.4588738" lon="9.1732344" />
      <trkpt lat="45.4589450" lon="9.1732477" />
      <trkpt lat="45.4589652" lon="9.1732758" />
      <trkpt lat="45.4589770" lon="9.1732576" />
      <trkpt lat="45.4589812" lon="9.1732511" />
      <trkpt lat="45.4589913" lon="9.1732356" />
      <trkpt lat="45.4594018" lon="9.1738215" />
      <trkpt lat="45.4594625" lon="9.1738125" />
      <trkpt lat="45.4594689" lon="9.1738104" />
      <trkpt lat="45.4594862" lon="9.1738045" />
      <trkpt lat="45.4602058" lon="9.1737988" />
      <trkpt lat="45.4602959" lon="9.1738063" />
      <trkpt lat="45.4603550" lon="9.1738146" />
      <trkpt lat="45.4604875" lon="9.1738519" />
      <trkpt lat="45.4606644" lon="9.1739133" />
      <trkpt lat="45.4606873" lon="9.1739212" />
      <trkpt lat="45.4607308" lon="9.1739306" />
      <trkpt lat="45.4607689" lon="9.1739295" />
      <trkpt lat="45.4607967" lon="9.1739272" />
      <trkpt lat="45.4608797" lon="9.1739215" />
      <trkpt lat="45.4609872" lon="9.1740489" />
      <trkpt lat="45.4610049" lon="9.1740689" />
      <trkpt lat="45.4610476" lon="9.1741238" />
      <trkpt lat="45.4611827" lon="9.1739444" />
      <trkpt lat="45.4614679" lon="9.1735657" />
      <trkpt lat="45.4615221" lon="9.1734982" />
      <trkpt lat="45.4616541" lon="9.1733565" />
      <trkpt lat="45.4616885" lon="9.1733889" />
      <trkpt lat="45.4617733" lon="9.1734403" />
      <trkpt lat="45.4618420" lon="9.1734627" />
      <trkpt lat="45.4619890" lon="9.1735005" />
      <trkpt lat="45.4622698" lon="9.1736309" />
      <trkpt lat="45.4623498" lon="9.1736667" />
      <trkpt lat="45.4623777" lon="9.1736797" />
      <trkpt lat="45.4624735" lon="9.1736875" />
      <trkpt lat="45.4625378" lon="9.1737215" />
      <trkpt lat="45.4625427" lon="9.1737241" />
      <trkpt lat="45.4626187" lon="9.1737700" />
      <trkpt lat="45.4626744" lon="9.1737992" />
      <trkpt lat="45.4628570" lon="9.1739051" />
      <trkpt lat="45.4630041" lon="9.1739830" />
      <trkpt lat="45.4631516" lon="9.1740646" />
      <trkpt lat="45.4633685" lon="9.1741851" />
      <trkpt lat="45.4637523" lon="9.1744036" />
      <trkpt lat="45.4639588" lon="9.1745138" />
      <trkpt lat="45.4640169" lon="9.1745454" />
      <trkpt lat="45.4645017" lon="9.1748093" />
      <trkpt lat="45.4648831" lon="9.1750201" />
      <trkpt lat="45.4649161" lon="9.1748892" />
      <trkpt lat="45.4652195" lon="9.1738137" />
      <trkpt lat="45.4652337" lon="9.1738199" />
      <trkpt lat="45.4652524" lon="9.1738267" />
      <trkpt lat="45.4654058" lon="9.1739125" />
      <trkpt lat="45.4656622" lon="9.1740593" />
      <trkpt lat="45.4657351" lon="9.1747065" />
      <trkpt lat="45.4658112" lon="9.1753065" />
      <trkpt lat="45.4657848" lon="9.1753374" />
      <trkpt lat="45.4658156" lon="9.1753688" />
      <trkpt lat="45.4658409" lon="9.1753946" />
      <trkpt lat="45.4658581" lon="9.1754121" />
      <trkpt lat="45.4658684" lon="9.1754136" />
      <trkpt lat="45.4658793" lon="9.1754136" />
      <trkpt lat="45.4658816" lon="9.1754126" />
      <trkpt lat="45.4658827" lon="9.1754121" />
      <trkpt lat="45.4658913" lon="9.1754082" />
      <trkpt lat="45.4659083" lon="9.1754006" />
      <trkpt lat="45.4659419" lon="9.1753855" />
      <trkpt lat="45.4659896" lon="9.1753642" />
      <trkpt lat="45.4660771" lon="9.1754096" />
      <trkpt lat="45.4660992" lon="9.1753804" />
      <trkpt lat="45.4661127" lon="9.1754018" />
      <trkpt lat="45.4661425" lon="9.1754493" />
      <trkpt lat="45.4661514" lon="9.1754635" />
      <trkpt lat="45.4661621" lon="9.1754806" />
      <trkpt lat="45.4661918" lon="9.1755278" />
      <trkpt lat="45.4662138" lon="9.1755628" />
      <trkpt lat="45.4661889" lon="9.1755960" />
      <trkpt lat="45.4662060" lon="9.1756918" />
      <trkpt lat="45.4662406" lon="9.1757126" />
      <trkpt lat="45.4663899" lon="9.1758025" />
      <trkpt lat="45.4668786" lon="9.1760965" />
      <trkpt lat="45.4668908" lon="9.1760809" />
      <trkpt lat="45.4673098" lon="9.1755474" />
      <trkpt lat="45.4675186" lon="9.1752785" />
      <trkpt lat="45.4677395" lon="9.1750118" />
      <trkpt lat="45.4677421" lon="9.1750583" />
      <trkpt lat="45.4677435" lon="9.1750839" />
      <trkpt lat="45.4678057" lon="9.1749883" />
      <trkpt lat="45.4678210" lon="9.1749668" />
      <trkpt lat="45.4678330" lon="9.1749503" />
      <trkpt lat="45.4679135" lon="9.1748566" />
      <trkpt lat="45.4679121" lon="9.1749023" />
      <trkpt lat="45.4679116" lon="9.1749210" />
      <trkpt lat="45.4683477" lon="9.1743735" />
      <trkpt lat="45.4683825" lon="9.1743297" />
      <trkpt lat="45.4684235" lon="9.1742741" />
      <trkpt lat="45.4684571" lon="9.1742284" />
      <trkpt lat="45.4684780" lon="9.1742000" />
      <trkpt lat="45.4684773" lon="9.1741802" />
      <trkpt lat="45.4685037" lon="9.1741459" />
      <trkpt lat="45.4696580" lon="9.1726505" />
      <trkpt lat="45.4696459" lon="9.1726340" />
      <trkpt lat="45.4696084" lon="9.1725828" />
      <trkpt lat="45.4688361" lon="9.1736070" />
      <trkpt lat="45.4684720" lon="9.1741000" />
      <trkpt lat="45.4684943" lon="9.1741322" />
      <trkpt lat="45.4685037" lon="9.1741459" />
      <trkpt lat="45.4684773" lon="9.1741802" />
      <trkpt lat="45.4684780" lon="9.1742000" />
      <trkpt lat="45.4684571" lon="9.1742284" />
      <trkpt lat="45.4684235" lon="9.1742741" />
      <trkpt lat="45.4684305" lon="9.1742847" />
      <trkpt lat="45.4685706" lon="9.1745006" />
      <trkpt lat="45.4686477" lon="9.1746194" />
      <trkpt lat="45.4686614" lon="9.1746392" />
      <trkpt lat="45.4683758" lon="9.1750013" />
      <trkpt lat="45.4683758" lon="9.1751907" />
      <trkpt lat="45.4683758" lon="9.1752374" />
      <trkpt lat="45.4683928" lon="9.1752617" />
      <trkpt lat="45.4684721" lon="9.1753752" />
      <trkpt lat="45.4685112" lon="9.1754310" />
      <trkpt lat="45.4683998" lon="9.1755975" />
      <trkpt lat="45.4682343" lon="9.1758440" />
      <trkpt lat="45.4682328" lon="9.1758462" />
      <trkpt lat="45.4682301" lon="9.1758502" />
      <trkpt lat="45.4682219" lon="9.1758621" />
      <trkpt lat="45.4682054" lon="9.1758868" />
      <trkpt lat="45.4681955" lon="9.1759023" />
      <trkpt lat="45.4681905" lon="9.1759101" />
      <trkpt lat="45.4681538" lon="9.1759676" />
      <trkpt lat="45.4681087" lon="9.1760369" />
      <trkpt lat="45.4680943" lon="9.1760598" />
      <trkpt lat="45.4681169" lon="9.1761154" />
      <trkpt lat="45.4681021" lon="9.1761381" />
      <trkpt lat="45.4680835" lon="9.1761637" />
      <trkpt lat="45.4679435" lon="9.1763546" />
      <trkpt lat="45.4678981" lon="9.1764171" />
      <trkpt lat="45.4678553" lon="9.1765274" />
      <trkpt lat="45.4677933" lon="9.1765228" />
      <trkpt lat="45.4677743" lon="9.1765138" />
      <trkpt lat="45.4677631" lon="9.1765448" />
      <trkpt lat="45.4677208" lon="9.1766521" />
      <trkpt lat="45.4677104" lon="9.1766832" />
      <trkpt lat="45.4677339" lon="9.1766987" />
      <trkpt lat="45.4677611" lon="9.1766753" />
      <trkpt lat="45.4677676" lon="9.1766917" />
      <trkpt lat="45.4677671" lon="9.1767963" />
      <trkpt lat="45.4677669" lon="9.1768267" />
      <trkpt lat="45.4677668" lon="9.1768368" />
      <trkpt lat="45.4677663" lon="9.1769475" />
      <trkpt lat="45.4677662" lon="9.1769697" />
      <trkpt lat="45.4678186" lon="9.1770491" />
      <trkpt lat="45.4678494" lon="9.1777593" />
      <trkpt lat="45.4678520" lon="9.1777913" />
      <trkpt lat="45.4678569" lon="9.1778338" />
      <trkpt lat="45.4677364" lon="9.1782085" />
      <trkpt lat="45.4674047" lon="9.1792273" />
      <trkpt lat="45.4673702" lon="9.1793319" />
      <trkpt lat="45.4673659" lon="9.1793452" />
      <trkpt lat="45.4673626" lon="9.1793555" />
      <trkpt lat="45.4673415" lon="9.1794206" />
      <trkpt lat="45.4673276" lon="9.1794636" />
      <trkpt lat="45.4673191" lon="9.1794898" />
      <trkpt lat="45.4671044" lon="9.1801527" />
      <trkpt lat="45.4667462" lon="9.1812225" />
      <trkpt lat="45.4667413" lon="9.1812355" />
      <trkpt lat="45.4667232" lon="9.1812839" />
      <trkpt lat="45.4667176" lon="9.1812988" />
      <trkpt lat="45.4666921" lon="9.1813668" />
      <trkpt lat="45.4666855" lon="9.1813845" />
      <trkpt lat="45.4666827" lon="9.1813921" />
      <trkpt lat="45.4666127" lon="9.1815886" />
      <trkpt lat="45.4666088" lon="9.1815997" />
      <trkpt lat="45.4665097" lon="9.1815225" />
      <trkpt lat="45.4664551" lon="9.1816214" />
      <trkpt lat="45.4664294" lon="9.1816454" />
      <trkpt lat="45.4664072" lon="9.1816646" />
      <trkpt lat="45.4663505" lon="9.1822144" />
      <trkpt lat="45.4662237" lon="9.1822235" />
      <trkpt lat="45.4662241" lon="9.1822349" />
      <trkpt lat="45.4660346" lon="9.1822455" />
      <trkpt lat="45.4659613" lon="9.1822527" />
      <trkpt lat="45.4658029" lon="9.1822681" />
      <trkpt lat="45.4657835" lon="9.1822703" />
      <trkpt lat="45.4657867" lon="9.1823753" />
      <trkpt lat="45.4657830" lon="9.1823755" />
      <trkpt lat="45.4657655" lon="9.1823765" />
      <trkpt lat="45.4657568" lon="9.1823770" />
      <trkpt lat="45.4657400" lon="9.1823780" />
      <trkpt lat="45.4657133" lon="9.1823796" />
      <trkpt lat="45.4657081" lon="9.1823799" />
      <trkpt lat="45.4656998" lon="9.1823278" />
      <trkpt lat="45.4656424" lon="9.1823133" />
      <trkpt lat="45.4653427" lon="9.1822200" />
      <trkpt lat="45.4653115" lon="9.1822191" />
      <trkpt lat="45.4652803" lon="9.1822622" />
      <trkpt lat="45.4652256" lon="9.1824767" />
      <trkpt lat="45.4649857" lon="9.1829047" />
      <trkpt lat="45.4649689" lon="9.1829664" />
      <trkpt lat="45.4649612" lon="9.1829938" />
      <trkpt lat="45.4649527" lon="9.1830562" />
      <trkpt lat="45.4649664" lon="9.1832422" />
      <trkpt lat="45.4649682" lon="9.1832663" />
      <trkpt lat="45.4649889" lon="9.1834304" />
      <trkpt lat="45.4650257" lon="9.1835500" />
      <trkpt lat="45.4650501" lon="9.1835678" />
      <trkpt lat="45.4650792" lon="9.1835993" />
      <trkpt lat="45.4652304" lon="9.1843705" />
      <trkpt lat="45.4653785" lon="9.1850727" />
      <trkpt lat="45.4653916" lon="9.1850791" />
      <trkpt lat="45.4653948" lon="9.1851011" />
      <trkpt lat="45.4654035" lon="9.1851620" />
      <trkpt lat="45.4654087" lon="9.1851983" />
      <trkpt lat="45.4654108" lon="9.1852130" />
      <trkpt lat="45.4653764" lon="9.1852504" />
      <trkpt lat="45.4655888" lon="9.1855745" />
      <trkpt lat="45.4655718" lon="9.1855981" />
      <trkpt lat="45.4655480" lon="9.1856311" />
      <trkpt lat="45.4653575" lon="9.1858954" />
      <trkpt lat="45.4653356" lon="9.1859216" />
      <trkpt lat="45.4653080" lon="9.1859548" />
      <trkpt lat="45.4652610" lon="9.1860108" />
      <trkpt lat="45.4651796" lon="9.1860562" />
      <trkpt lat="45.4651745" lon="9.1860634" />
      <trkpt lat="45.4651736" lon="9.1860646" />
      <trkpt lat="45.4651506" lon="9.1860965" />
      <trkpt lat="45.4651236" lon="9.1861341" />
      <trkpt lat="45.4651107" lon="9.1861522" />
      <trkpt lat="45.4650844" lon="9.1862544" />
      <trkpt lat="45.4650978" lon="9.1862834" />
      <trkpt lat="45.4651074" lon="9.1863040" />
      <trkpt lat="45.4651400" lon="9.1863743" />
      <trkpt lat="45.4651659" lon="9.1864300" />
      <trkpt lat="45.4651740" lon="9.1864476" />
      <trkpt lat="45.4651412" lon="9.1864760" />
      <trkpt lat="45.4651553" lon="9.1864973" />
      <trkpt lat="45.4652005" lon="9.1865509" />
      <trkpt lat="45.4652533" lon="9.1866095" />
      <trkpt lat="45.4652325" lon="9.1866621" />
      <trkpt lat="45.4654066" lon="9.1867618" />
      <trkpt lat="45.4647739" lon="9.1883495" />
      <trkpt lat="45.4647199" lon="9.1884860" />
      <trkpt lat="45.4647019" lon="9.1885788" />
      <trkpt lat="45.4646514" lon="9.1889880" />
      <trkpt lat="45.4646537" lon="9.1891261" />
      <trkpt lat="45.4646499" lon="9.1893273" />
      <trkpt lat="45.4646497" lon="9.1893463" />
      <trkpt lat="45.4645594" lon="9.1894058" />
      <trkpt lat="45.4645554" lon="9.1894275" />
      <trkpt lat="45.4645550" lon="9.1894735" />
      <trkpt lat="45.4645550" lon="9.1894793" />
      <trkpt lat="45.4645546" lon="9.1895206" />
      <trkpt lat="45.4645546" lon="9.1895295" />
      <trkpt lat="45.4645542" lon="9.1895730" />
      <trkpt lat="45.4645579" lon="9.1895821" />
      <trkpt lat="45.4645576" lon="9.1896132" />
      <trkpt lat="45.4645553" lon="9.1897951" />
      <trkpt lat="45.4645547" lon="9.1898439" />
      <trkpt lat="45.4645471" lon="9.1898437" />
      <trkpt lat="45.4645044" lon="9.1898425" />
      <trkpt lat="45.4644741" lon="9.1898729" />
      <trkpt lat="45.4644313" lon="9.1898582" />
      <trkpt lat="45.4643695" lon="9.1897716" />
    </trkseg>
  </trk>
</gpx>
