<?xml version="1.0" encoding="UTF-8"?>
<gpx xmlns="http://www.topografix.com/GPX/1/1" version="1.1" creator="ShapeRoute route-engine">
  <metadata>
    <name>house 10 km · 2026-09-23</name>
    <author>
      <name>ShapeRoute route-engine</name>
    </author>
    <copyright author="OpenStreetMap contributors">
      <license>https://opendatacommons.org/licenses/odbl/1-0/</license>
    </copyright>
    <link href="https://www.openstreetmap.org/copyright">
      <text>© OpenStreetMap contributors</text>
    </link>
    <time>2026-09-23T22:52:02Z</time>
  </metadata>
  <trk>
    <name>house 10 km · 2026-09-23</name>
    <trkseg>
      <trkpt lat="45.4643695" lon="9.1897716" />
      <trkpt lat="45.4644313" lon="9.1898582" />
      <trkpt lat="45.4644741" lon="9.1898729" />
      <trkpt lat="45.4645046" lon="9.1898833" />
      <trkpt lat="45.4645446" lon="9.1898970" />
      <trkpt lat="45.4645546" lon="9.1899005" />
      <trkpt lat="45.4645542" lon="9.1899580" />
      <trkpt lat="45.4645497" lon="9.1899580" />
      <trkpt lat="45.4645497" lon="9.1899743" />
      <trkpt lat="45.4645490" lon="9.1902933" />
      <trkpt lat="45.4645233" lon="9.1902840" />
      <trkpt lat="45.4645236" lon="9.1902631" />
      <trkpt lat="45.4645242" lon="9.1902105" />
      <trkpt lat="45.4644926" lon="9.1902113" />
      <trkpt lat="45.4644924" lon="9.1901827" />
      <trkpt lat="45.4644913" lon="9.1900241" />
      <trkpt lat="45.4644264" lon="9.1900245" />
      <trkpt lat="45.4638736" lon="9.1900090" />
      <trkpt lat="45.4638731" lon="9.1900740" />
      <trkpt lat="45.4638729" lon="9.1901285" />
      <trkpt lat="45.4639022" lon="9.1901304" />
      <trkpt lat="45.4639110" lon="9.1901309" />
      <trkpt lat="45.4639105" lon="9.1901614" />
      <trkpt lat="45.4638623" lon="9.1901606" />
      <trkpt lat="45.4638381" lon="9.1901611" />
      <trkpt lat="45.4638372" lon="9.1902606" />
      <trkpt lat="45.4637484" lon="9.1902593" />
      <trkpt lat="45.4636960" lon="9.1902610" />
      <trkpt lat="45.4636927" lon="9.1905209" />
      <trkpt lat="45.4636917" lon="9.1905498" />
      <trkpt lat="45.4636889" lon="9.1913345" />
      <trkpt lat="45.4636891" lon="9.1913495" />
      <trkpt lat="45.4636995" lon="9.1921135" />
      <trkpt lat="45.4636519" lon="9.1921174" />
      <trkpt lat="45.4636525" lon="9.1921553" />
      <trkpt lat="45.4636255" lon="9.1921428" />
      <trkpt lat="45.4630144" lon="9.1921985" />
      <trkpt lat="45.4627750" lon="9.1923263" />
      <trkpt lat="45.4627743" lon="9.1923398" />
      <trkpt lat="45.4627723" lon="9.1923347" />
      <trkpt lat="45.4627624" lon="9.1922734" />
      <trkpt lat="45.4627073" lon="9.1923080" />
      <trkpt lat="45.4626454" lon="9.1923662" />
      <trkpt lat="45.4626372" lon="9.1923751" />
      <trkpt lat="45.4625569" lon="9.1924313" />
      <trkpt lat="45.4620932" lon="9.1927599" />
      <trkpt lat="45.4621256" lon="9.1928319" />
      <trkpt lat="45.4621325" lon="9.1928471" />
      <trkpt lat="45.4621488" lon="9.1929040" />
      <trkpt lat="45.4623754" lon="9.1933839" />
      <trkpt lat="45.4624950" lon="9.1936292" />
      <trkpt lat="45.4624808" lon="9.1936427" />
      <trkpt lat="45.4624603" lon="9.1936619" />
      <trkpt lat="45.4624586" lon="9.1936637" />
      <trkpt lat="45.4624534" lon="9.1936686" />
      <trkpt lat="45.4624773" lon="9.1937174" />
      <trkpt lat="45.4625412" lon="9.1938474" />
      <trkpt lat="45.4625434" lon="9.1938518" />
      <trkpt lat="45.4625377" lon="9.1938944" />
      <trkpt lat="45.4625354" lon="9.1939545" />
      <trkpt lat="45.4625418" lon="9.1940033" />
      <trkpt lat="45.4625557" lon="9.1940340" />
      <trkpt lat="45.4625485" lon="9.1940405" />
      <trkpt lat="45.4625407" lon="9.1940476" />
      <trkpt lat="45.4625378" lon="9.1940502" />
      <trkpt lat="45.4625248" lon="9.1940621" />
      <trkpt lat="45.4625116" lon="9.1940741" />
      <trkpt lat="45.4624918" lon="9.1940922" />
      <trkpt lat="45.4624660" lon="9.1941156" />
      <trkpt lat="45.4624435" lon="9.1941361" />
      <trkpt lat="45.4621288" lon="9.1944618" />
      <trkpt lat="45.4620850" lon="9.1945305" />
      <trkpt lat="45.4619207" lon="9.1948811" />
      <trkpt lat="45.4619072" lon="9.1949200" />
      <trkpt lat="45.4618883" lon="9.1949199" />
      <trkpt lat="45.4618293" lon="9.1948889" />
      <trkpt lat="45.4618267" lon="9.1948968" />
      <trkpt lat="45.4618124" lon="9.1949397" />
      <trkpt lat="45.4618017" lon="9.1949720" />
      <trkpt lat="45.4618004" lon="9.1949760" />
      <trkpt lat="45.4617996" lon="9.1949936" />
      <trkpt lat="45.4617255" lon="9.1952110" />
      <trkpt lat="45.4616910" lon="9.1953031" />
      <trkpt lat="45.4615889" lon="9.1954801" />
      <trkpt lat="45.4615612" lon="9.1955059" />
      <trkpt lat="45.4614410" lon="9.1955664" />
      <trkpt lat="45.4614237" lon="9.1955636" />
      <trkpt lat="45.4613913" lon="9.1955788" />
      <trkpt lat="45.4613561" lon="9.1955953" />
      <trkpt lat="45.4613601" lon="9.1956287" />
      <trkpt lat="45.4613608" lon="9.1956416" />
      <trkpt lat="45.4613576" lon="9.1956637" />
      <trkpt lat="45.4613456" lon="9.1956856" />
      <trkpt lat="45.4611009" lon="9.1959758" />
      <trkpt lat="45.4608010" lon="9.1963368" />
      <trkpt lat="45.4607844" lon="9.1963347" />
      <trkpt lat="45.4607772" lon="9.1963500" />
      <trkpt lat="45.4607719" lon="9.1963614" />
      <trkpt lat="45.4607420" lon="9.1964253" />
      <trkpt lat="45.4607178" lon="9.1964772" />
      <trkpt lat="45.4607113" lon="9.1964968" />
      <trkpt lat="45.4604792" lon="9.1962689" />
      <trkpt lat="45.4603430" lon="9.1961476" />
      <trkpt lat="45.4600397" lon="9.1958612" />
      <trkpt lat="45.4600272" lon="9.1958906" />
      <trkpt lat="45.4600242" lon="9.1959060" />
      <trkpt lat="45.4600224" lon="9.1959164" />
      <trkpt lat="45.4600207" lon="9.1959251" />
      <trkpt lat="45.4600130" lon="9.1959661" />
      <trkpt lat="45.4600161" lon="9.1961605" />
      <trkpt lat="45.4598417" lon="9.1961677" />
      <trkpt lat="45.4597101" lon="9.1963063" />
      <trkpt lat="45.4597148" lon="9.1963831" />
      <trkpt lat="45.4597392" lon="9.1967831" />
      <trkpt lat="45.4597832" lon="9.1975275" />
      <trkpt lat="45.4597132" lon="9.1975348" />
      <trkpt lat="45.4597058" lon="9.1975358" />
      <trkpt lat="45.4597044" lon="9.1975360" />
      <trkpt lat="45.4596822" lon="9.1975387" />
      <trkpt lat="45.4596569" lon="9.1975418" />
      <trkpt lat="45.4596382" lon="9.1975441" />
      <trkpt lat="45.4595964" lon="9.1975495" />
      <trkpt lat="45.4595837" lon="9.1975511" />
      <trkpt lat="45.4594703" lon="9.1975654" />
      <trkpt lat="45.4593438" lon="9.1981879" />
      <trkpt lat="45.4592930" lon="9.1984368" />
      <trkpt lat="45.4592824" lon="9.1984642" />
      <trkpt lat="45.4592663" lon="9.1984848" />
      <trkpt lat="45.4592469" lon="9.1984986" />
      <trkpt lat="45.4592257" lon="9.1985045" />
      <trkpt lat="45.4592320" lon="9.1986399" />
      <trkpt lat="45.4592332" lon="9.1986536" />
      <trkpt lat="45.4591930" lon="9.1987345" />
      <trkpt lat="45.4591848" lon="9.1987356" />
      <trkpt lat="45.4591659" lon="9.1987388" />
      <trkpt lat="45.4591421" lon="9.1987428" />
      <trkpt lat="45.4590431" lon="9.1987590" />
      <trkpt lat="45.4590463" lon="9.1988206" />
      <trkpt lat="45.4588539" lon="9.1988534" />
      <trkpt lat="45.4588442" lon="9.1989048" />
      <trkpt lat="45.4585626" lon="9.1989503" />
      <trkpt lat="45.4584908" lon="9.1989626" />
      <trkpt lat="45.4584774" lon="9.1989649" />
      <trkpt lat="45.4578356" lon="9.1990571" />
      <trkpt lat="45.4578197" lon="9.1990901" />
      <trkpt lat="45.4577810" lon="9.1990983" />
      <trkpt lat="45.4579436" lon="9.2004170" />
      <trkpt lat="45.4579693" lon="9.2006218" />
      <trkpt lat="45.4580220" lon="9.2010425" />
      <trkpt lat="45.4580323" lon="9.2011296" />
      <trkpt lat="45.4580055" lon="9.2011350" />
      <trkpt lat="45.4579942" lon="9.2011373" />
      <trkpt lat="45.4582464" lon="9.2031950" />
      <trkpt lat="45.4573705" lon="9.2035012" />
      <trkpt lat="45.4573466" lon="9.2034936" />
      <trkpt lat="45.4573401" lon="9.2034508" />
      <trkpt lat="45.4573291" lon="9.2034550" />
      <trkpt lat="45.4573172" lon="9.2034596" />
      <trkpt lat="45.4573059" lon="9.2034640" />
      <trkpt lat="45.4572917" lon="9.2034695" />
      <trkpt lat="45.4572712" lon="9.2034774" />
      <trkpt lat="45.4572637" lon="9.2034802" />
      <trkpt lat="45.4572088" lon="9.2031502" />
      <trkpt lat="45.4571694" lon="9.2029080" />
      <trkpt lat="45.4571064" lon="9.2028731" />
      <trkpt lat="45.4570100" lon="9.2022792" />
      <trkpt lat="45.4570059" lon="9.2022705" />
      <trkpt lat="45.4570015" lon="9.2022660" />
      <trkpt lat="45.4569946" lon="9.2022651" />
      <trkpt lat="45.4569881" lon="9.2022663" />
      <trkpt lat="45.4569852" lon="9.2022456" />
      <trkpt lat="45.4569788" lon="9.2022012" />
      <trkpt lat="45.4569732" lon="9.2021618" />
      <trkpt lat="45.4569656" lon="9.2021088" />
      <trkpt lat="45.4563122" lon="9.2023268" />
      <trkpt lat="45.4554481" lon="9.2026115" />
      <trkpt lat="45.4554292" lon="9.2026180" />
      <trkpt lat="45.4554157" lon="9.2026215" />
      <trkpt lat="45.4553938" lon="9.2026293" />
      <trkpt lat="45.4553857" lon="9.2026320" />
      <trkpt lat="45.4553782" lon="9.2026418" />
      <trkpt lat="45.4548633" lon="9.2028021" />
      <trkpt lat="45.4548346" lon="9.2027970" />
      <trkpt lat="45.4544151" lon="9.2025524" />
      <trkpt lat="45.4541215" lon="9.2023812" />
      <trkpt lat="45.4540475" lon="9.2023380" />
      <trkpt lat="45.4540292" lon="9.2024087" />
      <trkpt lat="45.4540157" lon="9.2024614" />
      <trkpt lat="45.4540028" lon="9.2025112" />
      <trkpt lat="45.4539939" lon="9.2025458" />
      <trkpt lat="45.4539824" lon="9.2025902" />
      <trkpt lat="45.4539684" lon="9.2026445" />
      <trkpt lat="45.4539625" lon="9.2026672" />
      <trkpt lat="45.4539110" lon="9.2026454" />
      <trkpt lat="45.4538757" lon="9.2026296" />
      <trkpt lat="45.4538562" lon="9.2026213" />
      <trkpt lat="45.4538501" lon="9.2026636" />
      <trkpt lat="45.4538341" lon="9.2027688" />
      <trkpt lat="45.4537025" lon="9.2032897" />
      <trkpt lat="45.4536853" lon="9.2032979" />
      <trkpt lat="45.4527181" lon="9.2027711" />
      <trkpt lat="45.4527157" lon="9.2027353" />
      <trkpt lat="45.4527074" lon="9.2027305" />
      <trkpt lat="45.4526859" lon="9.2027179" />
      <trkpt lat="45.4526604" lon="9.2027031" />
      <trkpt lat="45.4526485" lon="9.2026962" />
      <trkpt lat="45.4526267" lon="9.2027132" />
      <trkpt lat="45.4522955" lon="9.2025285" />
      <trkpt lat="45.4522910" lon="9.2025448" />
      <trkpt lat="45.4522787" lon="9.2025895" />
      <trkpt lat="45.4522659" lon="9.2026359" />
      <trkpt lat="45.4522588" lon="9.2026618" />
      <trkpt lat="45.4522545" lon="9.2026771" />
      <trkpt lat="45.4522526" lon="9.2026843" />
      <trkpt lat="45.4522443" lon="9.2027143" />
      <trkpt lat="45.4522409" lon="9.2027264" />
      <trkpt lat="45.4522395" lon="9.2027316" />
      <trkpt lat="45.4522310" lon="9.2027624" />
      <trkpt lat="45.4522183" lon="9.2028084" />
      <trkpt lat="45.4522113" lon="9.2028340" />
      <trkpt lat="45.4522043" lon="9.2028593" />
      <trkpt lat="45.4521082" lon="9.2028849" />
      <trkpt lat="45.4521031" lon="9.2028861" />
      <trkpt lat="45.4520821" lon="9.2028913" />
      <trkpt lat="45.4520586" lon="9.2028972" />
      <trkpt lat="45.4520484" lon="9.2029008" />
      <trkpt lat="45.4520312" lon="9.2028994" />
      <trkpt lat="45.4519400" lon="9.2028429" />
      <trkpt lat="45.4519206" lon="9.2028316" />
      <trkpt lat="45.4519193" lon="9.2028308" />
      <trkpt lat="45.4518488" lon="9.2028126" />
      <trkpt lat="45.4518420" lon="9.2028108" />
      <trkpt lat="45.4518204" lon="9.2028052" />
      <trkpt lat="45.4518095" lon="9.2028024" />
      <trkpt lat="45.4517308" lon="9.2027821" />
      <trkpt lat="45.4516967" lon="9.2027712" />
      <trkpt lat="45.4516643" lon="9.2028000" />
      <trkpt lat="45.4516367" lon="9.2028242" />
      <trkpt lat="45.4516115" lon="9.2028469" />
      <trkpt lat="45.4516038" lon="9.2028537" />
      <trkpt lat="45.4515809" lon="9.2028074" />
      <trkpt lat="45.4515493" lon="9.2027825" />
      <trkpt lat="45.4511888" lon="9.2025999" />
      <trkpt lat="45.4511585" lon="9.2026029" />
      <trkpt lat="45.4504491" lon="9.2026772" />
      <trkpt lat="45.4504333" lon="9.2026787" />
      <trkpt lat="45.4503560" lon="9.2026857" />
      <trkpt lat="45.4503272" lon="9.2026883" />
      <trkpt lat="45.4502688" lon="9.2026935" />
      <trkpt lat="45.4502221" lon="9.2026977" />
      <trkpt lat="45.4501496" lon="9.2027043" />
      <trkpt lat="45.4501374" lon="9.2027054" />
      <trkpt lat="45.4501070" lon="9.2027074" />
      <trkpt lat="45.4493000" lon="9.2027724" />
      <trkpt lat="45.4491252" lon="9.2027903" />
      <trkpt lat="45.4489305" lon="9.2028067" />
      <trkpt lat="45.4489146" lon="9.2028279" />
      <trkpt lat="45.4488804" lon="9.2028542" />
      <trkpt lat="45.4488631" lon="9.2028675" />
      <trkpt lat="45.4488130" lon="9.2029087" />
      <trkpt lat="45.4487646" lon="9.2029433" />
      <trkpt lat="45.4487214" lon="9.2029766" />
      <trkpt lat="45.4486983" lon="9.2029943" />
      <trkpt lat="45.4486765" lon="9.2029716" />
      <trkpt lat="45.4479859" lon="9.2030236" />
      <trkpt lat="45.4479787" lon="9.2030375" />
      <trkpt lat="45.4479661" lon="9.2030385" />
      <trkpt lat="45.4479228" lon="9.2030417" />
      <trkpt lat="45.4478927" lon="9.2030440" />
      <trkpt lat="45.4478834" lon="9.2030447" />
      <trkpt lat="45.4478681" lon="9.2030378" />
      <trkpt lat="45.4471685" lon="9.2031010" />
      <trkpt lat="45.4471707" lon="9.2031509" />
      <trkpt lat="45.4471263" lon="9.2031552" />
      <trkpt lat="45.4470992" lon="9.2031578" />
      <trkpt lat="45.4470708" lon="9.2031605" />
      <trkpt lat="45.4470671" lon="9.2031602" />
      <trkpt lat="45.4470508" lon="9.2031663" />
      <trkpt lat="45.4468879" lon="9.2032744" />
      <trkpt lat="45.4468569" lon="9.2026091" />
      <trkpt lat="45.4468075" lon="9.2016148" />
      <trkpt lat="45.4468171" lon="9.2015688" />
      <trkpt lat="45.4468129" lon="9.2014763" />
      <trkpt lat="45.4467479" lon="9.2014821" />
      <trkpt lat="45.4466459" lon="9.2014911" />
      <trkpt lat="45.4465364" lon="9.2015009" />
      <trkpt lat="45.4465317" lon="9.2013969" />
      <trkpt lat="45.4465052" lon="9.2013995" />
      <trkpt lat="45.4464802" lon="9.2014019" />
      <trkpt lat="45.4463363" lon="9.1983252" />
      <trkpt lat="45.4463279" lon="9.1983171" />
      <trkpt lat="45.4463259" lon="9.1982939" />
      <trkpt lat="45.4463187" lon="9.1982122" />
      <trkpt lat="45.4463134" lon="9.1981297" />
      <trkpt lat="45.4463122" lon="9.1981105" />
      <trkpt lat="45.4463100" lon="9.1980738" />
      <trkpt lat="45.4463081" lon="9.1980432" />
      <trkpt lat="45.4463050" lon="9.1979768" />
      <trkpt lat="45.4462998" lon="9.1979066" />
      <trkpt lat="45.4462981" lon="9.1978784" />
      <trkpt lat="45.4463204" lon="9.1978339" />
      <trkpt lat="45.4462729" lon="9.1967147" />
      <trkpt lat="45.4461874" lon="9.1947030" />
      <trkpt lat="45.4461533" lon="9.1946772" />
      <trkpt lat="45.4461522" lon="9.1946534" />
      <trkpt lat="45.4461503" lon="9.1946122" />
      <trkpt lat="45.4461494" lon="9.1945935" />
      <trkpt lat="45.4461417" lon="9.1944273" />
      <trkpt lat="45.4461406" lon="9.1944037" />
      <trkpt lat="45.4461390" lon="9.1943685" />
      <trkpt lat="45.4461380" lon="9.1943470" />
      <trkpt lat="45.4461644" lon="9.1942977" />
      <trkpt lat="45.4461785" lon="9.1942962" />
      <trkpt lat="45.4462133" lon="9.1942924" />
      <trkpt lat="45.4462607" lon="9.1942873" />
      <trkpt lat="45.4462716" lon="9.1942861" />
      <trkpt lat="45.4462919" lon="9.1942840" />
      <trkpt lat="45.4463212" lon="9.1942809" />
      <trkpt lat="45.4463648" lon="9.1942762" />
      <trkpt lat="45.4464006" lon="9.1942723" />
      <trkpt lat="45.4464304" lon="9.1942691" />
      <trkpt lat="45.4464711" lon="9.1942647" />
      <trkpt lat="45.4464918" lon="9.1942625" />
      <trkpt lat="45.4464443" lon="9.1931309" />
      <trkpt lat="45.4463976" lon="9.1921317" />
      <trkpt lat="45.4463605" lon="9.1912973" />
      <trkpt lat="45.4463655" lon="9.1912235" />
      <trkpt lat="45.4463646" lon="9.1911790" />
      <trkpt lat="45.4463636" lon="9.1911186" />
      <trkpt lat="45.4463621" lon="9.1910847" />
      <trkpt lat="45.4463590" lon="9.1910236" />
      <trkpt lat="45.4463558" lon="9.1909856" />
      <trkpt lat="45.4463536" lon="9.1909312" />
      <trkpt lat="45.4463517" lon="9.1909053" />
      <trkpt lat="45.4463405" lon="9.1908721" />
      <trkpt lat="45.4463293" lon="9.1903948" />
      <trkpt lat="45.4463141" lon="9.1900810" />
      <trkpt lat="45.4463011" lon="9.1898029" />
      <trkpt lat="45.4462828" lon="9.1894766" />
      <trkpt lat="45.4462570" lon="9.1893738" />
      <trkpt lat="45.4462401" lon="9.1891555" />
      <trkpt lat="45.4461286" lon="9.1884421" />
      <trkpt lat="45.4460871" lon="9.1882625" />
      <trkpt lat="45.4459916" lon="9.1878494" />
      <trkpt lat="45.4459797" lon="9.1877980" />
      <trkpt lat="45.4459857" lon="9.1877571" />
      <trkpt lat="45.4459793" lon="9.1877392" />
      <trkpt lat="45.4459501" lon="9.1876584" />
      <trkpt lat="45.4459310" lon="9.1875932" />
      <trkpt lat="45.4458746" lon="9.1874008" />
      <trkpt lat="45.4458570" lon="9.1873411" />
      <trkpt lat="45.4458423" lon="9.1872909" />
      <trkpt lat="45.4458384" lon="9.1872773" />
      <trkpt lat="45.4458238" lon="9.1872679" />
      <trkpt lat="45.4457367" lon="9.1870017" />
      <trkpt lat="45.4455561" lon="9.1864001" />
      <trkpt lat="45.4455517" lon="9.1863764" />
      <trkpt lat="45.4455434" lon="9.1863479" />
      <trkpt lat="45.4455327" lon="9.1863208" />
      <trkpt lat="45.4455274" lon="9.1863061" />
      <trkpt lat="45.4454582" lon="9.1860757" />
      <trkpt lat="45.4452569" lon="9.1854554" />
      <trkpt lat="45.4452700" lon="9.1854273" />
      <trkpt lat="45.4452573" lon="9.1853901" />
      <trkpt lat="45.4452458" lon="9.1853568" />
      <trkpt lat="45.4453015" lon="9.1852404" />
      <trkpt lat="45.4453296" lon="9.1851849" />
      <trkpt lat="45.4455059" lon="9.1848591" />
      <trkpt lat="45.4455545" lon="9.1847761" />
      <trkpt lat="45.4455393" lon="9.1847504" />
      <trkpt lat="45.4455290" lon="9.1847331" />
      <trkpt lat="45.4454896" lon="9.1846332" />
      <trkpt lat="45.4454816" lon="9.1846175" />
      <trkpt lat="45.4454791" lon="9.1846025" />
      <trkpt lat="45.4454758" lon="9.1845825" />
      <trkpt lat="45.4454687" lon="9.1845400" />
      <trkpt lat="45.4454653" lon="9.1845195" />
      <trkpt lat="45.4454621" lon="9.1845002" />
      <trkpt lat="45.4455454" lon="9.1844942" />
      <trkpt lat="45.4455346" lon="9.1843936" />
      <trkpt lat="45.4454459" lon="9.1836243" />
      <trkpt lat="45.4454449" lon="9.1835703" />
      <trkpt lat="45.4453735" lon="9.1829195" />
      <trkpt lat="45.4453326" lon="9.1825464" />
      <trkpt lat="45.4453312" lon="9.1825308" />
      <trkpt lat="45.4453310" lon="9.1825144" />
      <trkpt lat="45.4453868" lon="9.1825017" />
      <trkpt lat="45.4453836" lon="9.1824756" />
      <trkpt lat="45.4453778" lon="9.1824309" />
      <trkpt lat="45.4453729" lon="9.1823882" />
      <trkpt lat="45.4453670" lon="9.1823401" />
      <trkpt lat="45.4452691" lon="9.1814294" />
      <trkpt lat="45.4452094" lon="9.1808950" />
      <trkpt lat="45.4452174" lon="9.1808783" />
      <trkpt lat="45.4452108" lon="9.1808178" />
      <trkpt lat="45.4452078" lon="9.1807902" />
      <trkpt lat="45.4452042" lon="9.1807570" />
      <trkpt lat="45.4452018" lon="9.1807348" />
      <trkpt lat="45.4451877" lon="9.1807213" />
      <trkpt lat="45.4450715" lon="9.1796069" />
      <trkpt lat="45.4450409" lon="9.1793239" />
      <trkpt lat="45.4450406" lon="9.1792947" />
      <trkpt lat="45.4450378" lon="9.1792228" />
      <trkpt lat="45.4450388" lon="9.1791422" />
      <trkpt lat="45.4450386" lon="9.1791310" />
      <trkpt lat="45.4450127" lon="9.1791261" />
      <trkpt lat="45.4450035" lon="9.1790181" />
      <trkpt lat="45.4449864" lon="9.1788277" />
      <trkpt lat="45.4448532" lon="9.1776301" />
      <trkpt lat="45.4449713" lon="9.1774450" />
      <trkpt lat="45.4449761" lon="9.1774511" />
      <trkpt lat="45.4449904" lon="9.1774278" />
      <trkpt lat="45.4450121" lon="9.1773924" />
      <trkpt lat="45.4451460" lon="9.1775535" />
      <trkpt lat="45.4452886" lon="9.1777368" />
      <trkpt lat="45.4453265" lon="9.1777033" />
      <trkpt lat="45.4453813" lon="9.1776616" />
      <trkpt lat="45.4454337" lon="9.1776397" />
      <trkpt lat="45.4454846" lon="9.1776376" />
      <trkpt lat="45.4455383" lon="9.1776510" />
      <trkpt lat="45.4457125" lon="9.1776956" />
      <trkpt lat="45.4458714" lon="9.1777173" />
      <trkpt lat="45.4459532" lon="9.1777119" />
      <trkpt lat="45.4459791" lon="9.1777058" />
      <trkpt lat="45.4460117" lon="9.1776909" />
      <trkpt lat="45.4460339" lon="9.1777374" />
      <trkpt lat="45.4460421" lon="9.1777546" />
      <trkpt lat="45.4460504" lon="9.1777719" />
      <trkpt lat="45.4460587" lon="9.1777640" />
      <trkpt lat="45.4460818" lon="9.1777421" />
      <trkpt lat="45.4461036" lon="9.1777215" />
      <trkpt lat="45.4461119" lon="9.1777137" />
      <trkpt lat="45.4461196" lon="9.1777263" />
      <trkpt lat="45.4463565" lon="9.1777707" />
      <trkpt lat="45.4463830" lon="9.1778438" />
      <trkpt lat="45.4464943" lon="9.1778625" />
      <trkpt lat="45.4472729" lon="9.1779966" />
      <trkpt lat="45.4473404" lon="9.1780083" />
      <trkpt lat="45.4473805" lon="9.1772116" />
      <trkpt lat="45.4474044" lon="9.1772156" />
      <trkpt lat="45.4474377" lon="9.1772212" />
      <trkpt lat="45.4475118" lon="9.1772337" />
      <trkpt lat="45.4475550" lon="9.1772409" />
      <trkpt lat="45.4475875" lon="9.1772464" />
      <trkpt lat="45.4476082" lon="9.1771875" />
      <trkpt lat="45.4483289" lon="9.1773585" />
      <trkpt lat="45.4484733" lon="9.1773952" />
      <trkpt lat="45.4485021" lon="9.1774021" />
      <trkpt lat="45.4487435" lon="9.1774601" />
      <trkpt lat="45.4488487" lon="9.1774853" />
      <trkpt lat="45.4488640" lon="9.1775131" />
      <trkpt lat="45.4488711" lon="9.1775143" />
      <trkpt lat="45.4488971" lon="9.1775186" />
      <trkpt lat="45.4489351" lon="9.1775250" />
      <trkpt lat="45.4489478" lon="9.1775272" />
      <trkpt lat="45.4489583" lon="9.1775074" />
      <trkpt lat="45.4489699" lon="9.1775099" />
      <trkpt lat="45.4491003" lon="9.1775376" />
      <trkpt lat="45.4494093" lon="9.1776149" />
      <trkpt lat="45.4495607" lon="9.1776509" />
      <trkpt lat="45.4497950" lon="9.1777073" />
      <trkpt lat="45.4500171" lon="9.1777536" />
      <trkpt lat="45.4501815" lon="9.1777924" />
      <trkpt lat="45.4511612" lon="9.1780271" />
      <trkpt lat="45.4511716" lon="9.1780532" />
      <trkpt lat="45.4511804" lon="9.1780552" />
      <trkpt lat="45.4512212" lon="9.1780644" />
      <trkpt lat="45.4512694" lon="9.1780753" />
      <trkpt lat="45.4512755" lon="9.1780767" />
      <trkpt lat="45.4512892" lon="9.1780566" />
      <trkpt lat="45.4515742" lon="9.1781268" />
      <trkpt lat="45.4515882" lon="9.1781308" />
      <trkpt lat="45.4516658" lon="9.1781529" />
      <trkpt lat="45.4517183" lon="9.1781679" />
      <trkpt lat="45.4517533" lon="9.1781779" />
      <trkpt lat="45.4520214" lon="9.1782463" />
      <trkpt lat="45.4521156" lon="9.1782689" />
      <trkpt lat="45.4522307" lon="9.1782887" />
      <trkpt lat="45.4522198" lon="9.1781612" />
      <trkpt lat="45.4522055" lon="9.1780170" />
      <trkpt lat="45.4522004" lon="9.1779647" />
      <trkpt lat="45.4521989" lon="9.1779392" />
      <trkpt lat="45.4521973" lon="9.1779121" />
      <trkpt lat="45.4521954" lon="9.1778803" />
      <trkpt lat="45.4521933" lon="9.1778453" />
      <trkpt lat="45.4521870" lon="9.1777512" />
      <trkpt lat="45.4522350" lon="9.1777479" />
      <trkpt lat="45.4522478" lon="9.1777458" />
      <trkpt lat="45.4522581" lon="9.1777442" />
      <trkpt lat="45.4522746" lon="9.1777416" />
      <trkpt lat="45.4522950" lon="9.1777383" />
      <trkpt lat="45.4523089" lon="9.1777360" />
      <trkpt lat="45.4523197" lon="9.1777343" />
      <trkpt lat="45.4523100" lon="9.1776695" />
      <trkpt lat="45.4523096" lon="9.1775402" />
      <trkpt lat="45.4523141" lon="9.1774695" />
      <trkpt lat="45.4523226" lon="9.1774128" />
      <trkpt lat="45.4523462" lon="9.1772814" />
      <trkpt lat="45.4523638" lon="9.1772033" />
      <trkpt lat="45.4524335" lon="9.1768736" />
      <trkpt lat="45.4524614" lon="9.1767875" />
      <trkpt lat="45.4524686" lon="9.1768133" />
      <trkpt lat="45.4524475" lon="9.1768974" />
      <trkpt lat="45.4524742" lon="9.1769116" />
      <trkpt lat="45.4524876" lon="9.1768904" />
      <trkpt lat="45.4525174" lon="9.1768245" />
      <trkpt lat="45.4526039" lon="9.1765875" />
      <trkpt lat="45.4526807" lon="9.1764227" />
      <trkpt lat="45.4527471" lon="9.1763196" />
      <trkpt lat="45.4527799" lon="9.1763632" />
      <trkpt lat="45.4531296" lon="9.1757839" />
      <trkpt lat="45.4534915" lon="9.1752454" />
      <trkpt lat="45.4537220" lon="9.1748969" />
      <trkpt lat="45.4539479" lon="9.1745520" />
      <trkpt lat="45.4540487" lon="9.1745316" />
      <trkpt lat="45.4541310" lon="9.1746415" />
      <trkpt lat="45.4541609" lon="9.1746840" />
      <trkpt lat="45.4543901" lon="9.1750146" />
      <trkpt lat="45.4544124" lon="9.1750488" />
      <trkpt lat="45.4544333" lon="9.1750759" />
      <trkpt lat="45.4539499" lon="9.1757130" />
      <trkpt lat="45.4539789" lon="9.1757621" />
      <trkpt lat="45.4540401" lon="9.1756907" />
      <trkpt lat="45.4540453" lon="9.1756849" />
      <trkpt lat="45.4540690" lon="9.1757292" />
      <trkpt lat="45.4537466" lon="9.1761259" />
      <trkpt lat="45.4537287" lon="9.1761480" />
      <trkpt lat="45.4532300" lon="9.1767476" />
      <trkpt lat="45.4530754" lon="9.1769335" />
      <trkpt lat="45.4529163" lon="9.1771248" />
      <trkpt lat="45.4528644" lon="9.1772245" />
      <trkpt lat="45.4528424" lon="9.1773668" />
      <trkpt lat="45.4528491" lon="9.1774798" />
      <trkpt lat="45.4528565" lon="9.1775793" />
      <trkpt lat="45.4528792" lon="9.1778860" />
      <trkpt lat="45.4529288" lon="9.1785597" />
      <trkpt lat="45.4529502" lon="9.1785544" />
      <trkpt lat="45.4529696" lon="9.1785496" />
      <trkpt lat="45.4529934" lon="9.1785433" />
      <trkpt lat="45.4530186" lon="9.1785367" />
      <trkpt lat="45.4530472" lon="9.1785292" />
      <trkpt lat="45.4530742" lon="9.1785219" />
      <trkpt lat="45.4530844" lon="9.1785192" />
      <trkpt lat="45.4530829" lon="9.1784967" />
      <trkpt lat="45.4530913" lon="9.1784799" />
      <trkpt lat="45.4532032" lon="9.1784424" />
      <trkpt lat="45.4535178" lon="9.1783042" />
      <trkpt lat="45.4543058" lon="9.1777971" />
      <trkpt lat="45.4543346" lon="9.1778199" />
      <trkpt lat="45.4543464" lon="9.1777969" />
      <trkpt lat="45.4543692" lon="9.1777527" />
      <trkpt lat="45.4543974" lon="9.1776984" />
      <trkpt lat="45.4544217" lon="9.1776506" />
      <trkpt lat="45.4544182" lon="9.1776146" />
      <trkpt lat="45.4544246" lon="9.1775717" />
      <trkpt lat="45.4545635" lon="9.1773683" />
      <trkpt lat="45.4547716" lon="9.1770601" />
      <trkpt lat="45.4548440" lon="9.1769530" />
      <trkpt lat="45.4549379" lon="9.1768159" />
      <trkpt lat="45.4549622" lon="9.1768090" />
      <trkpt lat="45.4554291" lon="9.1771928" />
      <trkpt lat="45.4557971" lon="9.1774811" />
      <trkpt lat="45.4558106" lon="9.1774479" />
      <trkpt lat="45.4558226" lon="9.1774185" />
      <trkpt lat="45.4558507" lon="9.1774379" />
      <trkpt lat="45.4558753" lon="9.1774558" />
      <trkpt lat="45.4558611" lon="9.1774816" />
      <trkpt lat="45.4561354" lon="9.1774299" />
      <trkpt lat="45.4561694" lon="9.1774247" />
      <trkpt lat="45.4564526" lon="9.1774013" />
      <trkpt lat="45.4569159" lon="9.1773566" />
      <trkpt lat="45.4572597" lon="9.1773259" />
      <trkpt lat="45.4574101" lon="9.1773419" />
      <trkpt lat="45.4574139" lon="9.1775371" />
      <trkpt lat="45.4575678" lon="9.1775791" />
      <trkpt lat="45.4576496" lon="9.1776059" />
      <trkpt lat="45.4577060" lon="9.1776393" />
      <trkpt lat="45.4583136" lon="9.1780794" />
      <trkpt lat="45.4584570" lon="9.1782012" />
      <trkpt lat="45.4584773" lon="9.1782144" />
      <trkpt lat="45.4585311" lon="9.1782599" />
      <trkpt lat="45.4586150" lon="9.1780976" />
      <trkpt lat="45.4586278" lon="9.1780729" />
      <trkpt lat="45.4586988" lon="9.1779189" />
      <trkpt lat="45.4587295" lon="9.1779623" />
      <trkpt lat="45.4587527" lon="9.1779939" />
      <trkpt lat="45.4587621" lon="9.1780068" />
      <trkpt lat="45.4587673" lon="9.1780147" />
      <trkpt lat="45.4588047" lon="9.1780056" />
      <trkpt lat="45.4589191" lon="9.1781496" />
      <trkpt lat="45.4589273" lon="9.1781592" />
      <trkpt lat="45.4589294" lon="9.1781617" />
      <trkpt lat="45.4589427" lon="9.1781769" />
      <trkpt lat="45.4589504" lon="9.1781847" />
      <trkpt lat="45.4589576" lon="9.1781815" />
      <trkpt lat="45.4590028" lon="9.1782236" />
      <trkpt lat="45.4590045" lon="9.1782307" />
      <trkpt lat="45.4589955" lon="9.1782766" />
      <trkpt lat="45.4590049" lon="9.1782970" />
      <trkpt lat="45.4590175" lon="9.1783242" />
      <trkpt lat="45.4589948" lon="9.1783677" />
      <trkpt lat="45.4589256" lon="9.1787179" />
      <trkpt lat="45.4589107" lon="9.1787939" />
      <trkpt lat="45.4588787" lon="9.1791690" />
      <trkpt lat="45.4588877" lon="9.1793700" />
      <trkpt lat="45.4588923" lon="9.1794722" />
      <trkpt lat="45.4588971" lon="9.1795789" />
      <trkpt lat="45.4588881" lon="9.1798963" />
      <trkpt lat="45.4588945" lon="9.1800322" />
      <trkpt lat="45.4590052" lon="9.1806521" />
      <trkpt lat="45.4590138" lon="9.1807281" />
      <trkpt lat="45.4590298" lon="9.1810627" />
      <trkpt lat="45.4590293" lon="9.1811077" />
      <trkpt lat="45.4590290" lon="9.1811286" />
      <trkpt lat="45.4590999" lon="9.1811313" />
      <trkpt lat="45.4590998" lon="9.1811442" />
      <trkpt lat="45.4590991" lon="9.1812033" />
      <trkpt lat="45.4590965" lon="9.1812579" />
      <trkpt lat="45.4591282" lon="9.1812635" />
      <trkpt lat="45.4591318" lon="9.1812641" />
      <trkpt lat="45.4591205" lon="9.1814035" />
      <trkpt lat="45.4590852" lon="9.1818414" />
      <trkpt lat="45.4590950" lon="9.1818883" />
      <trkpt lat="45.4591151" lon="9.1819171" />
      <trkpt lat="45.4591118" lon="9.1819543" />
      <trkpt lat="45.4591073" lon="9.1820072" />
      <trkpt lat="45.4591017" lon="9.1820738" />
      <trkpt lat="45.4591003" lon="9.1820899" />
      <trkpt lat="45.4597355" lon="9.1820750" />
      <trkpt lat="45.4597775" lon="9.1821604" />
      <trkpt lat="45.4597842" lon="9.1821447" />
      <trkpt lat="45.4598430" lon="9.1820067" />
      <trkpt lat="45.4598804" lon="9.1820434" />
      <trkpt lat="45.4595617" lon="9.1827802" />
      <trkpt lat="45.4595827" lon="9.1827987" />
      <trkpt lat="45.4596158" lon="9.1828277" />
      <trkpt lat="45.4597742" lon="9.1829611" />
      <trkpt lat="45.4598677" lon="9.1827639" />
      <trkpt lat="45.4598788" lon="9.1827745" />
      <trkpt lat="45.4599414" lon="9.1828341" />
      <trkpt lat="45.4600081" lon="9.1829232" />
      <trkpt lat="45.4600438" lon="9.1829940" />
      <trkpt lat="45.4601020" lon="9.1830759" />
      <trkpt lat="45.4602247" lon="9.1835445" />
      <trkpt lat="45.4602877" lon="9.1837844" />
      <trkpt lat="45.4603120" lon="9.1839089" />
      <trkpt lat="45.4603189" lon="9.1839432" />
      <trkpt lat="45.4604223" lon="9.1839348" />
      <trkpt lat="45.4607504" lon="9.1839176" />
      <trkpt lat="45.4607529" lon="9.1839573" />
      <trkpt lat="45.4607532" lon="9.1839622" />
      <trkpt lat="45.4607641" lon="9.1839965" />
      <trkpt lat="45.4609409" lon="9.1846089" />
      <trkpt lat="45.4611084" lon="9.1849421" />
      <trkpt lat="45.4611102" lon="9.1849518" />
      <trkpt lat="45.4611147" lon="9.1849611" />
      <trkpt lat="45.4611221" lon="9.1849756" />
      <trkpt lat="45.4611284" lon="9.1849892" />
      <trkpt lat="45.4611313" lon="9.1849951" />
      <trkpt lat="45.4611692" lon="9.1850597" />
      <trkpt lat="45.4611918" lon="9.1850310" />
      <trkpt lat="45.4612019" lon="9.1850183" />
      <trkpt lat="45.4612117" lon="9.1850058" />
      <trkpt lat="45.4612837" lon="9.1851213" />
      <trkpt lat="45.4613929" lon="9.1852808" />
      <trkpt lat="45.4615077" lon="9.1854471" />
      <trkpt lat="45.4615911" lon="9.1855672" />
      <trkpt lat="45.4615993" lon="9.1855547" />
      <trkpt lat="45.4616085" lon="9.1855408" />
      <trkpt lat="45.4616168" lon="9.1855282" />
      <trkpt lat="45.4617310" lon="9.1856796" />
      <trkpt lat="45.4617923" lon="9.1857612" />
      <trkpt lat="45.4618047" lon="9.1857788" />
      <trkpt lat="45.4618124" lon="9.1857896" />
      <trkpt lat="45.4620003" lon="9.1860531" />
      <trkpt lat="45.4621998" lon="9.1862953" />
      <trkpt lat="45.4625728" lon="9.1867508" />
      <trkpt lat="45.4626144" lon="9.1867803" />
      <trkpt lat="45.4626263" lon="9.1867960" />
      <trkpt lat="45.4626441" lon="9.1868196" />
      <trkpt lat="45.4626642" lon="9.1868462" />
      <trkpt lat="45.4626697" lon="9.1868535" />
      <trkpt lat="45.4626711" lon="9.1869075" />
      <trkpt lat="45.4627629" lon="9.1870086" />
      <trkpt lat="45.4631684" lon="9.1874892" />
      <trkpt lat="45.4631804" lon="9.1874984" />
      <trkpt lat="45.4632002" lon="9.1875002" />
      <trkpt lat="45.4632199" lon="9.1874954" />
      <trkpt lat="45.4632396" lon="9.1874853" />
      <trkpt lat="45.4634995" lon="9.1871194" />
      <trkpt lat="45.4636087" lon="9.1869786" />
      <trkpt lat="45.4636160" lon="9.1869693" />
      <trkpt lat="45.4636189" lon="9.1869739" />
      <trkpt lat="45.4636356" lon="9.1869996" />
      <trkpt lat="45.4636540" lon="9.1870283" />
      <trkpt lat="45.4636711" lon="9.1870547" />
      <trkpt lat="45.4636940" lon="9.1870276" />
      <trkpt lat="45.4637096" lon="9.1870552" />
      <trkpt lat="45.4637986" lon="9.1871957" />
      <trkpt lat="45.4640503" lon="9.1876143" />
      <trkpt lat="45.4640458" lon="9.1876546" />
      <trkpt lat="45.4638534" lon="9.1879133" />
      <trkpt lat="45.4638410" lon="9.1879824" />
      <trkpt lat="45.4638130" lon="9.1880219" />
      <trkpt lat="45.4637869" lon="9.1880588" />
      <trkpt lat="45.4637155" lon="9.1881595" />
      <trkpt lat="45.4636687" lon="9.1883914" />
      <trkpt lat="45.4636976" lon="9.1884988" />
      <trkpt lat="45.4637017" lon="9.1885182" />
      <trkpt lat="45.4637368" lon="9.1886597" />
      <trkpt lat="45.4637362" lon="9.1887051" />
      <trkpt lat="45.4637344" lon="9.1888372" />
      <trkpt lat="45.4637338" lon="9.1888841" />
      <trkpt lat="45.4637335" lon="9.1889066" />
      <trkpt lat="45.4637332" lon="9.1889265" />
      <trkpt lat="45.4637329" lon="9.1889492" />
      <trkpt lat="45.4637319" lon="9.1890225" />
      <trkpt lat="45.4637982" lon="9.1890213" />
      <trkpt lat="45.4637998" lon="9.1889533" />
      <trkpt lat="45.4638000" lon="9.1889344" />
      <trkpt lat="45.4638002" lon="9.1889146" />
      <trkpt lat="45.4638167" lon="9.1889146" />
      <trkpt lat="45.4640993" lon="9.1889147" />
      <trkpt lat="45.4641127" lon="9.1889147" />
      <trkpt lat="45.4641126" lon="9.1889477" />
      <trkpt lat="45.4641115" lon="9.1890703" />
      <trkpt lat="45.4641046" lon="9.1895113" />
      <trkpt lat="45.4641536" lon="9.1896431" />
      <trkpt lat="45.4643695" lon="9.1897716" />
    </trkseg>
  </trk>
</gpx>
