<?xml version="1.0" encoding="UTF-8"?>
<gpx xmlns="http://www.topografix.com/GPX/1/1" version="1.1" creator="ShapeRoute route-engine">
  <metadata>
    <name>circle 5 km · 2026-09-22</name>
    <author>
      <name>ShapeRoute route-engine</name>
    </author>
    <time>2026-09-22T19:29:38Z</time>
  </metadata>
  <trk>
    <name>circle 5 km · 2026-09-22</name>
    <trkseg>
      <trkpt lat="46.0123552" lon="11.2985082" />
      <trkpt lat="46.0127099" lon="11.2988315" />
      <trkpt lat="46.0127193" lon="11.2987950" />
      <trkpt lat="46.0127604" lon="11.2986362" />
      <trkpt lat="46.0129128" lon="11.2980852" />
      <trkpt lat="46.0129712" lon="11.2978899" />
      <trkpt lat="46.0130468" lon="11.2977714" />
      <trkpt lat="46.0131199" lon="11.2976603" />
      <trkpt lat="46.0131919" lon="11.2975460" />
      <trkpt lat="46.0132320" lon="11.2976177" />
      <trkpt lat="46.0133454" lon="11.2977970" />
      <trkpt lat="46.0134865" lon="11.2979792" />
      <trkpt lat="46.0136470" lon="11.2981837" />
      <trkpt lat="46.0139231" lon="11.2985434" />
      <trkpt lat="46.0141584" lon="11.2988474" />
      <trkpt lat="46.0141849" lon="11.2988817" />
      <trkpt lat="46.0142859" lon="11.2987840" />
      <trkpt lat="46.0145020" lon="11.2986284" />
      <trkpt lat="46.0145657" lon="11.2985826" />
      <trkpt lat="46.0146356" lon="11.2986752" />
      <trkpt lat="46.0146840" lon="11.2986430" />
      <trkpt lat="46.0147200" lon="11.2986038" />
      <trkpt lat="46.0147775" lon="11.2986185" />
      <trkpt lat="46.0150983" lon="11.2979778" />
      <trkpt lat="46.0149696" lon="11.2980531" />
      <trkpt lat="46.0149379" lon="11.2980665" />
      <trkpt lat="46.0149062" lon="11.2980384" />
      <trkpt lat="46.0148801" lon="11.2979794" />
      <trkpt lat="46.0148494" lon="11.2979271" />
      <trkpt lat="46.0148280" lon="11.2979311" />
      <trkpt lat="46.0145296" lon="11.2981435" />
      <trkpt lat="46.0143781" lon="11.2982006" />
      <trkpt lat="46.0145296" lon="11.2981435" />
      <trkpt lat="46.0148280" lon="11.2979311" />
      <trkpt lat="46.0148494" lon="11.2979271" />
      <trkpt lat="46.0148801" lon="11.2979794" />
      <trkpt lat="46.0149062" lon="11.2980384" />
      <trkpt lat="46.0149379" lon="11.2980665" />
      <trkpt lat="46.0149696" lon="11.2980531" />
      <trkpt lat="46.0150983" lon="11.2979778" />
      <trkpt lat="46.0151784" lon="11.2978177" />
      <trkpt lat="46.0151627" lon="11.2977913" />
      <trkpt lat="46.0151223" lon="11.2977232" />
      <trkpt lat="46.0149910" lon="11.2977701" />
      <trkpt lat="46.0151223" lon="11.2977232" />
      <trkpt lat="46.0151627" lon="11.2977913" />
      <trkpt lat="46.0151784" lon="11.2978177" />
      <trkpt lat="46.0153144" lon="11.2975461" />
      <trkpt lat="46.0155343" lon="11.2969473" />
      <trkpt lat="46.0155617" lon="11.2967634" />
      <trkpt lat="46.0158035" lon="11.2968203" />
      <trkpt lat="46.0159253" lon="11.2968559" />
      <trkpt lat="46.0163877" lon="11.2969577" />
      <trkpt lat="46.0159253" lon="11.2968559" />
      <trkpt lat="46.0158035" lon="11.2968203" />
      <trkpt lat="46.0161658" lon="11.2966599" />
      <trkpt lat="46.0163236" lon="11.2965963" />
      <trkpt lat="46.0170021" lon="11.2963171" />
      <trkpt lat="46.0163236" lon="11.2965963" />
      <trkpt lat="46.0161658" lon="11.2966599" />
      <trkpt lat="46.0158035" lon="11.2968203" />
      <trkpt lat="46.0159253" lon="11.2968559" />
      <trkpt lat="46.0163877" lon="11.2969577" />
      <trkpt lat="46.0165762" lon="11.2968909" />
      <trkpt lat="46.0168206" lon="11.2967879" />
      <trkpt lat="46.0171703" lon="11.2965792" />
      <trkpt lat="46.0172556" lon="11.2965291" />
      <trkpt lat="46.0173212" lon="11.2964906" />
      <trkpt lat="46.0174657" lon="11.2963958" />
      <trkpt lat="46.0175170" lon="11.2962205" />
      <trkpt lat="46.0175505" lon="11.2958628" />
      <trkpt lat="46.0175818" lon="11.2954320" />
      <trkpt lat="46.0176763" lon="11.2949891" />
      <trkpt lat="46.0176735" lon="11.2947587" />
      <trkpt lat="46.0176638" lon="11.2943960" />
      <trkpt lat="46.0176600" lon="11.2940744" />
      <trkpt lat="46.0176903" lon="11.2939088" />
      <trkpt lat="46.0177405" lon="11.2937352" />
      <trkpt lat="46.0177692" lon="11.2936073" />
      <trkpt lat="46.0177405" lon="11.2937352" />
      <trkpt lat="46.0176903" lon="11.2939088" />
      <trkpt lat="46.0176600" lon="11.2940744" />
      <trkpt lat="46.0176638" lon="11.2943960" />
      <trkpt lat="46.0176735" lon="11.2947587" />
      <trkpt lat="46.0176763" lon="11.2949891" />
      <trkpt lat="46.0175818" lon="11.2954320" />
      <trkpt lat="46.0175505" lon="11.2958628" />
      <trkpt lat="46.0175170" lon="11.2962205" />
      <trkpt lat="46.0174657" lon="11.2963958" />
      <trkpt lat="46.0173212" lon="11.2964906" />
      <trkpt lat="46.0172556" lon="11.2965291" />
      <trkpt lat="46.0171703" lon="11.2965792" />
      <trkpt lat="46.0168206" lon="11.2967879" />
      <trkpt lat="46.0165762" lon="11.2968909" />
      <trkpt lat="46.0163877" lon="11.2969577" />
      <trkpt lat="46.0159253" lon="11.2968559" />
      <trkpt lat="46.0158035" lon="11.2968203" />
      <trkpt lat="46.0155617" lon="11.2967634" />
      <trkpt lat="46.0151964" lon="11.2967112" />
      <trkpt lat="46.0149241" lon="11.2966919" />
      <trkpt lat="46.0147829" lon="11.2966885" />
      <trkpt lat="46.0152410" lon="11.2962611" />
      <trkpt lat="46.0157332" lon="11.2958155" />
      <trkpt lat="46.0161067" lon="11.2955120" />
      <trkpt lat="46.0163360" lon="11.2953323" />
      <trkpt lat="46.0165988" lon="11.2951123" />
      <trkpt lat="46.0167238" lon="11.2949244" />
      <trkpt lat="46.0168312" lon="11.2947578" />
      <trkpt lat="46.0169304" lon="11.2945945" />
      <trkpt lat="46.0170422" lon="11.2943575" />
      <trkpt lat="46.0172495" lon="11.2938798" />
      <trkpt lat="46.0173430" lon="11.2937574" />
      <trkpt lat="46.0173871" lon="11.2937052" />
      <trkpt lat="46.0174817" lon="11.2936170" />
      <trkpt lat="46.0175692" lon="11.2934869" />
      <trkpt lat="46.0176519" lon="11.2933103" />
      <trkpt lat="46.0178524" lon="11.2927823" />
      <trkpt lat="46.0179695" lon="11.2924714" />
      <trkpt lat="46.0180112" lon="11.2923515" />
      <trkpt lat="46.0180244" lon="11.2922908" />
      <trkpt lat="46.0181028" lon="11.2920184" />
      <trkpt lat="46.0180974" lon="11.2915761" />
      <trkpt lat="46.0181028" lon="11.2920184" />
      <trkpt lat="46.0182577" lon="11.2916150" />
      <trkpt lat="46.0184187" lon="11.2912889" />
      <trkpt lat="46.0185324" lon="11.2910393" />
      <trkpt lat="46.0186486" lon="11.2906827" />
      <trkpt lat="46.0188478" lon="11.2897353" />
      <trkpt lat="46.0189193" lon="11.2893491" />
      <trkpt lat="46.0190873" lon="11.2886086" />
      <trkpt lat="46.0191188" lon="11.2882517" />
      <trkpt lat="46.0191665" lon="11.2879921" />
      <trkpt lat="46.0192412" lon="11.2878041" />
      <trkpt lat="46.0194599" lon="11.2875791" />
      <trkpt lat="46.0194029" lon="11.2882020" />
      <trkpt lat="46.0194016" lon="11.2883582" />
      <trkpt lat="46.0194163" lon="11.2884379" />
      <trkpt lat="46.0194329" lon="11.2886030" />
      <trkpt lat="46.0194745" lon="11.2887959" />
      <trkpt lat="46.0195080" lon="11.2889362" />
      <trkpt lat="46.0195201" lon="11.2891101" />
      <trkpt lat="46.0195323" lon="11.2893103" />
      <trkpt lat="46.0195526" lon="11.2894901" />
      <trkpt lat="46.0195567" lon="11.2896508" />
      <trkpt lat="46.0195983" lon="11.2898496" />
      <trkpt lat="46.0195567" lon="11.2896508" />
      <trkpt lat="46.0195526" lon="11.2894901" />
      <trkpt lat="46.0195323" lon="11.2893103" />
      <trkpt lat="46.0195201" lon="11.2891101" />
      <trkpt lat="46.0195080" lon="11.2889362" />
      <trkpt lat="46.0194745" lon="11.2887959" />
      <trkpt lat="46.0194329" lon="11.2886030" />
      <trkpt lat="46.0194163" lon="11.2884379" />
      <trkpt lat="46.0194016" lon="11.2883582" />
      <trkpt lat="46.0194029" lon="11.2882020" />
      <trkpt lat="46.0194599" lon="11.2875791" />
      <trkpt lat="46.0192412" lon="11.2878041" />
      <trkpt lat="46.0191665" lon="11.2879921" />
      <trkpt lat="46.0191188" lon="11.2882517" />
      <trkpt lat="46.0190873" lon="11.2886086" />
      <trkpt lat="46.0189193" lon="11.2893491" />
      <trkpt lat="46.0188478" lon="11.2897353" />
      <trkpt lat="46.0186486" lon="11.2906827" />
      <trkpt lat="46.0185324" lon="11.2910393" />
      <trkpt lat="46.0184187" lon="11.2912889" />
      <trkpt lat="46.0182577" lon="11.2916150" />
      <trkpt lat="46.0181028" lon="11.2920184" />
      <trkpt lat="46.0180974" lon="11.2915761" />
      <trkpt lat="46.0181158" lon="11.2913897" />
      <trkpt lat="46.0182657" lon="11.2903066" />
      <trkpt lat="46.0181945" lon="11.2898624" />
      <trkpt lat="46.0181736" lon="11.2897240" />
      <trkpt lat="46.0181915" lon="11.2895524" />
      <trkpt lat="46.0183881" lon="11.2888743" />
      <trkpt lat="46.0186087" lon="11.2875868" />
      <trkpt lat="46.0186223" lon="11.2874793" />
      <trkpt lat="46.0186683" lon="11.2871148" />
      <trkpt lat="46.0186862" lon="11.2865912" />
      <trkpt lat="46.0186504" lon="11.2863509" />
      <trkpt lat="46.0185372" lon="11.2859303" />
      <trkpt lat="46.0183285" lon="11.2855355" />
      <trkpt lat="46.0181617" lon="11.2852437" />
      <trkpt lat="46.0179232" lon="11.2848231" />
      <trkpt lat="46.0178338" lon="11.2844540" />
      <trkpt lat="46.0176610" lon="11.2840850" />
      <trkpt lat="46.0175179" lon="11.2838103" />
      <trkpt lat="46.0173212" lon="11.2833983" />
      <trkpt lat="46.0172199" lon="11.2831923" />
      <trkpt lat="46.0171893" lon="11.2831073" />
      <trkpt lat="46.0171365" lon="11.2829606" />
      <trkpt lat="46.0169457" lon="11.2827288" />
      <trkpt lat="46.0168762" lon="11.2825786" />
      <trkpt lat="46.0167788" lon="11.2824885" />
      <trkpt lat="46.0167013" lon="11.2825228" />
      <trkpt lat="46.0166093" lon="11.2825540" />
      <trkpt lat="46.0165018" lon="11.2829690" />
      <trkpt lat="46.0163787" lon="11.2834892" />
      <trkpt lat="46.0162295" lon="11.2841408" />
      <trkpt lat="46.0159971" lon="11.2854553" />
      <trkpt lat="46.0159216" lon="11.2859575" />
      <trkpt lat="46.0158657" lon="11.2864646" />
      <trkpt lat="46.0158334" lon="11.2870063" />
      <trkpt lat="46.0158386" lon="11.2874900" />
      <trkpt lat="46.0158619" lon="11.2884052" />
      <trkpt lat="46.0158664" lon="11.2901404" />
      <trkpt lat="46.0158857" lon="11.2905580" />
      <trkpt lat="46.0159314" lon="11.2909838" />
      <trkpt lat="46.0160891" lon="11.2918113" />
      <trkpt lat="46.0161829" lon="11.2923767" />
      <trkpt lat="46.0161963" lon="11.2926800" />
      <trkpt lat="46.0161773" lon="11.2929628" />
      <trkpt lat="46.0161232" lon="11.2932305" />
      <trkpt lat="46.0160048" lon="11.2935632" />
      <trkpt lat="46.0158657" lon="11.2938677" />
      <trkpt lat="46.0157556" lon="11.2940659" />
      <trkpt lat="46.0156549" lon="11.2942128" />
      <trkpt lat="46.0155379" lon="11.2943323" />
      <trkpt lat="46.0154342" lon="11.2944115" />
      <trkpt lat="46.0154632" lon="11.2942013" />
      <trkpt lat="46.0154776" lon="11.2940381" />
      <trkpt lat="46.0154496" lon="11.2939212" />
      <trkpt lat="46.0153043" lon="11.2938070" />
      <trkpt lat="46.0151223" lon="11.2936662" />
      <trkpt lat="46.0150636" lon="11.2936208" />
      <trkpt lat="46.0150491" lon="11.2936096" />
      <trkpt lat="46.0147891" lon="11.2934507" />
      <trkpt lat="46.0146399" lon="11.2933881" />
      <trkpt lat="46.0145436" lon="11.2933744" />
      <trkpt lat="46.0140896" lon="11.2933702" />
      <trkpt lat="46.0139921" lon="11.2933736" />
      <trkpt lat="46.0132165" lon="11.2935172" />
      <trkpt lat="46.0131754" lon="11.2935322" />
      <trkpt lat="46.0129133" lon="11.2936275" />
      <trkpt lat="46.0125329" lon="11.2939461" />
      <trkpt lat="46.0121425" lon="11.2943986" />
      <trkpt lat="46.0117996" lon="11.2948382" />
      <trkpt lat="46.0118463" lon="11.2949585" />
      <trkpt lat="46.0118242" lon="11.2949915" />
      <trkpt lat="46.0118000" lon="11.2950276" />
      <trkpt lat="46.0117646" lon="11.2950807" />
      <trkpt lat="46.0117049" lon="11.2951673" />
      <trkpt lat="46.0117011" lon="11.2951731" />
      <trkpt lat="46.0116754" lon="11.2952125" />
      <trkpt lat="46.0112310" lon="11.2944284" />
      <trkpt lat="46.0111727" lon="11.2943826" />
      <trkpt lat="46.0108907" lon="11.2941611" />
      <trkpt lat="46.0107529" lon="11.2940801" />
      <trkpt lat="46.0107151" lon="11.2940549" />
      <trkpt lat="46.0106885" lon="11.2940373" />
      <trkpt lat="46.0104720" lon="11.2939495" />
      <trkpt lat="46.0102700" lon="11.2938982" />
      <trkpt lat="46.0098088" lon="11.2938097" />
      <trkpt lat="46.0090661" lon="11.2936744" />
      <trkpt lat="46.0089680" lon="11.2936565" />
      <trkpt lat="46.0088694" lon="11.2936467" />
      <trkpt lat="46.0086759" lon="11.2935596" />
      <trkpt lat="46.0086200" lon="11.2935258" />
      <trkpt lat="46.0084383" lon="11.2934159" />
      <trkpt lat="46.0082721" lon="11.2933149" />
      <trkpt lat="46.0081086" lon="11.2932391" />
      <trkpt lat="46.0078961" lon="11.2931425" />
      <trkpt lat="46.0076801" lon="11.2930443" />
      <trkpt lat="46.0075804" lon="11.2929896" />
      <trkpt lat="46.0075628" lon="11.2930394" />
      <trkpt lat="46.0075365" lon="11.2930804" />
      <trkpt lat="46.0075033" lon="11.2931094" />
      <trkpt lat="46.0074595" lon="11.2931252" />
      <trkpt lat="46.0074144" lon="11.2931202" />
      <trkpt lat="46.0073728" lon="11.2930947" />
      <trkpt lat="46.0073492" lon="11.2931457" />
      <trkpt lat="46.0072582" lon="11.2929831" />
      <trkpt lat="46.0072143" lon="11.2929119" />
      <trkpt lat="46.0071569" lon="11.2928501" />
      <trkpt lat="46.0070436" lon="11.2927249" />
      <trkpt lat="46.0067496" lon="11.2923820" />
      <trkpt lat="46.0063120" lon="11.2918505" />
      <trkpt lat="46.0061265" lon="11.2916198" />
      <trkpt lat="46.0061187" lon="11.2916103" />
      <trkpt lat="46.0061136" lon="11.2916040" />
      <trkpt lat="46.0060721" lon="11.2915522" />
      <trkpt lat="46.0060023" lon="11.2914652" />
      <trkpt lat="46.0059831" lon="11.2914413" />
      <trkpt lat="46.0059617" lon="11.2914159" />
      <trkpt lat="46.0056345" lon="11.2910289" />
      <trkpt lat="46.0056137" lon="11.2910038" />
      <trkpt lat="46.0056287" lon="11.2909373" />
      <trkpt lat="46.0056664" lon="11.2908929" />
      <trkpt lat="46.0056710" lon="11.2908528" />
      <trkpt lat="46.0056833" lon="11.2907267" />
      <trkpt lat="46.0057102" lon="11.2903954" />
      <trkpt lat="46.0057476" lon="11.2899830" />
      <trkpt lat="46.0057875" lon="11.2898952" />
      <trkpt lat="46.0057931" lon="11.2897772" />
      <trkpt lat="46.0058080" lon="11.2894231" />
      <trkpt lat="46.0058229" lon="11.2891334" />
      <trkpt lat="46.0058639" lon="11.2881115" />
      <trkpt lat="46.0058788" lon="11.2875697" />
      <trkpt lat="46.0059011" lon="11.2870574" />
      <trkpt lat="46.0059309" lon="11.2865236" />
      <trkpt lat="46.0059371" lon="11.2863030" />
      <trkpt lat="46.0059421" lon="11.2861240" />
      <trkpt lat="46.0059663" lon="11.2855232" />
      <trkpt lat="46.0059887" lon="11.2850457" />
      <trkpt lat="46.0060089" lon="11.2849039" />
      <trkpt lat="46.0060791" lon="11.2845651" />
      <trkpt lat="46.0061883" lon="11.2841360" />
      <trkpt lat="46.0062306" lon="11.2838999" />
      <trkpt lat="46.0062551" lon="11.2836161" />
      <trkpt lat="46.0062737" lon="11.2833720" />
      <trkpt lat="46.0062849" lon="11.2831011" />
      <trkpt lat="46.0062905" lon="11.2828007" />
      <trkpt lat="46.0062878" lon="11.2825911" />
      <trkpt lat="46.0062965" lon="11.2823360" />
      <trkpt lat="46.0063325" lon="11.2822117" />
      <trkpt lat="46.0063865" lon="11.2820400" />
      <trkpt lat="46.0064266" lon="11.2819649" />
      <trkpt lat="46.0064927" lon="11.2818751" />
      <trkpt lat="46.0066358" lon="11.2817202" />
      <trkpt lat="46.0066697" lon="11.2816511" />
      <trkpt lat="46.0067495" lon="11.2815329" />
      <trkpt lat="46.0068299" lon="11.2813802" />
      <trkpt lat="46.0068718" lon="11.2811737" />
      <trkpt lat="46.0069319" lon="11.2810520" />
      <trkpt lat="46.0070463" lon="11.2808203" />
      <trkpt lat="46.0070935" lon="11.2807070" />
      <trkpt lat="46.0071233" lon="11.2805501" />
      <trkpt lat="46.0071801" lon="11.2804415" />
      <trkpt lat="46.0073553" lon="11.2801679" />
      <trkpt lat="46.0074046" lon="11.2800659" />
      <trkpt lat="46.0074791" lon="11.2799680" />
      <trkpt lat="46.0076090" lon="11.2798100" />
      <trkpt lat="46.0076794" lon="11.2796291" />
      <trkpt lat="46.0077288" lon="11.2795295" />
      <trkpt lat="46.0077623" lon="11.2794477" />
      <trkpt lat="46.0078061" lon="11.2793578" />
      <trkpt lat="46.0078247" lon="11.2793216" />
      <trkpt lat="46.0078461" lon="11.2792921" />
      <trkpt lat="46.0078769" lon="11.2792519" />
      <trkpt lat="46.0079352" lon="11.2791632" />
      <trkpt lat="46.0081242" lon="11.2788767" />
      <trkpt lat="46.0086331" lon="11.2782968" />
      <trkpt lat="46.0089337" lon="11.2777636" />
      <trkpt lat="46.0092314" lon="11.2775224" />
      <trkpt lat="46.0093092" lon="11.2774523" />
      <trkpt lat="46.0093949" lon="11.2773772" />
      <trkpt lat="46.0095458" lon="11.2771872" />
      <trkpt lat="46.0096185" lon="11.2771090" />
      <trkpt lat="46.0096689" lon="11.2769898" />
      <trkpt lat="46.0097205" lon="11.2768734" />
      <trkpt lat="46.0098052" lon="11.2766871" />
      <trkpt lat="46.0098595" lon="11.2765939" />
      <trkpt lat="46.0099780" lon="11.2764845" />
      <trkpt lat="46.0100861" lon="11.2764679" />
      <trkpt lat="46.0102012" lon="11.2764859" />
      <trkpt lat="46.0103456" lon="11.2764959" />
      <trkpt lat="46.0104825" lon="11.2764635" />
      <trkpt lat="46.0105276" lon="11.2764250" />
      <trkpt lat="46.0105868" lon="11.2763753" />
      <trkpt lat="46.0106781" lon="11.2763030" />
      <trkpt lat="46.0107553" lon="11.2762552" />
      <trkpt lat="46.0108206" lon="11.2762622" />
      <trkpt lat="46.0110922" lon="11.2763136" />
      <trkpt lat="46.0113281" lon="11.2761980" />
      <trkpt lat="46.0114038" lon="11.2761609" />
      <trkpt lat="46.0116791" lon="11.2759344" />
      <trkpt lat="46.0119740" lon="11.2757645" />
      <trkpt lat="46.0123182" lon="11.2756654" />
      <trkpt lat="46.0124460" lon="11.2756229" />
      <trkpt lat="46.0123182" lon="11.2756654" />
      <trkpt lat="46.0119740" lon="11.2757645" />
      <trkpt lat="46.0116791" lon="11.2759344" />
      <trkpt lat="46.0114038" lon="11.2761609" />
      <trkpt lat="46.0113281" lon="11.2761980" />
      <trkpt lat="46.0110922" lon="11.2763136" />
      <trkpt lat="46.0108206" lon="11.2762622" />
      <trkpt lat="46.0107553" lon="11.2762552" />
      <trkpt lat="46.0106781" lon="11.2763030" />
      <trkpt lat="46.0105868" lon="11.2763753" />
      <trkpt lat="46.0105276" lon="11.2764250" />
      <trkpt lat="46.0104825" lon="11.2764635" />
      <trkpt lat="46.0103456" lon="11.2764959" />
      <trkpt lat="46.0102012" lon="11.2764859" />
      <trkpt lat="46.0100861" lon="11.2764679" />
      <trkpt lat="46.0099780" lon="11.2764845" />
      <trkpt lat="46.0098595" lon="11.2765939" />
      <trkpt lat="46.0098052" lon="11.2766871" />
      <trkpt lat="46.0097205" lon="11.2768734" />
      <trkpt lat="46.0096689" lon="11.2769898" />
      <trkpt lat="46.0096185" lon="11.2771090" />
      <trkpt lat="46.0095458" lon="11.2771872" />
      <trkpt lat="46.0093949" lon="11.2773772" />
      <trkpt lat="46.0093092" lon="11.2774523" />
      <trkpt lat="46.0092314" lon="11.2775224" />
      <trkpt lat="46.0089337" lon="11.2777636" />
      <trkpt lat="46.0086331" lon="11.2782968" />
      <trkpt lat="46.0081242" lon="11.2788767" />
      <trkpt lat="46.0079352" lon="11.2791632" />
      <trkpt lat="46.0078769" lon="11.2792519" />
      <trkpt lat="46.0078461" lon="11.2792921" />
      <trkpt lat="46.0078247" lon="11.2793216" />
      <trkpt lat="46.0078061" lon="11.2793578" />
      <trkpt lat="46.0077623" lon="11.2794477" />
      <trkpt lat="46.0077288" lon="11.2795295" />
      <trkpt lat="46.0076794" lon="11.2796291" />
      <trkpt lat="46.0076090" lon="11.2798100" />
      <trkpt lat="46.0074791" lon="11.2799680" />
      <trkpt lat="46.0074046" lon="11.2800659" />
      <trkpt lat="46.0073553" lon="11.2801679" />
      <trkpt lat="46.0071801" lon="11.2804415" />
      <trkpt lat="46.0071233" lon="11.2805501" />
      <trkpt lat="46.0070935" lon="11.2807070" />
      <trkpt lat="46.0070463" lon="11.2808203" />
      <trkpt lat="46.0069319" lon="11.2810520" />
      <trkpt lat="46.0068718" lon="11.2811737" />
      <trkpt lat="46.0068299" lon="11.2813802" />
      <trkpt lat="46.0067495" lon="11.2815329" />
      <trkpt lat="46.0066697" lon="11.2816511" />
      <trkpt lat="46.0066358" lon="11.2817202" />
      <trkpt lat="46.0064927" lon="11.2818751" />
      <trkpt lat="46.0064266" lon="11.2819649" />
      <trkpt lat="46.0063865" lon="11.2820400" />
      <trkpt lat="46.0064173" lon="11.2822292" />
      <trkpt lat="46.0064120" lon="11.2823573" />
      <trkpt lat="46.0065193" lon="11.2825268" />
      <trkpt lat="46.0065272" lon="11.2826662" />
      <trkpt lat="46.0064670" lon="11.2827717" />
      <trkpt lat="46.0065612" lon="11.2831597" />
      <trkpt lat="46.0065376" lon="11.2834046" />
      <trkpt lat="46.0063440" lon="11.2835741" />
      <trkpt lat="46.0063466" lon="11.2834950" />
      <trkpt lat="46.0062551" lon="11.2836161" />
      <trkpt lat="46.0062306" lon="11.2838999" />
      <trkpt lat="46.0061883" lon="11.2841360" />
      <trkpt lat="46.0060791" lon="11.2845651" />
      <trkpt lat="46.0060089" lon="11.2849039" />
      <trkpt lat="46.0059721" lon="11.2849308" />
      <trkpt lat="46.0062180" lon="11.2838113" />
      <trkpt lat="46.0062572" lon="11.2830732" />
      <trkpt lat="46.0062530" lon="11.2826210" />
      <trkpt lat="46.0062378" lon="11.2823980" />
      <trkpt lat="46.0061273" lon="11.2824079" />
      <trkpt lat="46.0060352" lon="11.2824938" />
      <trkpt lat="46.0059011" lon="11.2827835" />
      <trkpt lat="46.0058188" lon="11.2831220" />
      <trkpt lat="46.0057968" lon="11.2832126" />
      <trkpt lat="46.0057642" lon="11.2832787" />
      <trkpt lat="46.0057297" lon="11.2833092" />
      <trkpt lat="46.0056403" lon="11.2837383" />
      <trkpt lat="46.0056030" lon="11.2838993" />
      <trkpt lat="46.0055583" lon="11.2839315" />
      <trkpt lat="46.0055230" lon="11.2838559" />
      <trkpt lat="46.0055176" lon="11.2837513" />
      <trkpt lat="46.0054906" lon="11.2832967" />
      <trkpt lat="46.0054763" lon="11.2831482" />
      <trkpt lat="46.0054316" lon="11.2827084" />
      <trkpt lat="46.0053839" lon="11.2826550" />
      <trkpt lat="46.0053337" lon="11.2825619" />
      <trkpt lat="46.0053304" lon="11.2824696" />
      <trkpt lat="46.0054936" lon="11.2816637" />
      <trkpt lat="46.0058320" lon="11.2802823" />
      <trkpt lat="46.0059825" lon="11.2794733" />
      <trkpt lat="46.0061626" lon="11.2788646" />
      <trkpt lat="46.0062817" lon="11.2784164" />
      <trkpt lat="46.0062819" lon="11.2781809" />
      <trkpt lat="46.0061945" lon="11.2780580" />
      <trkpt lat="46.0062230" lon="11.2780375" />
      <trkpt lat="46.0062040" lon="11.2779582" />
      <trkpt lat="46.0062341" lon="11.2778503" />
      <trkpt lat="46.0062797" lon="11.2777181" />
      <trkpt lat="46.0063413" lon="11.2776162" />
      <trkpt lat="46.0063876" lon="11.2775395" />
      <trkpt lat="46.0063413" lon="11.2776162" />
      <trkpt lat="46.0062797" lon="11.2777181" />
      <trkpt lat="46.0062341" lon="11.2778503" />
      <trkpt lat="46.0062040" lon="11.2779582" />
      <trkpt lat="46.0062230" lon="11.2780375" />
      <trkpt lat="46.0061945" lon="11.2780580" />
      <trkpt lat="46.0061649" lon="11.2780867" />
      <trkpt lat="46.0061139" lon="11.2781491" />
      <trkpt lat="46.0060129" lon="11.2785885" />
      <trkpt lat="46.0058788" lon="11.2788460" />
      <trkpt lat="46.0056999" lon="11.2794361" />
      <trkpt lat="46.0055732" lon="11.2796936" />
      <trkpt lat="46.0053496" lon="11.2800691" />
      <trkpt lat="46.0052155" lon="11.2805090" />
      <trkpt lat="46.0050590" lon="11.2812600" />
      <trkpt lat="46.0049994" lon="11.2815711" />
      <trkpt lat="46.0048449" lon="11.2818736" />
      <trkpt lat="46.0047833" lon="11.2821076" />
      <trkpt lat="46.0046640" lon="11.2823221" />
      <trkpt lat="46.0045374" lon="11.2825367" />
      <trkpt lat="46.0044628" lon="11.2828049" />
      <trkpt lat="46.0045075" lon="11.2828693" />
      <trkpt lat="46.0045970" lon="11.2828693" />
      <trkpt lat="46.0047460" lon="11.2826333" />
      <trkpt lat="46.0048429" lon="11.2824723" />
      <trkpt lat="46.0049770" lon="11.2822363" />
      <trkpt lat="46.0050516" lon="11.2821076" />
      <trkpt lat="46.0050963" lon="11.2821183" />
      <trkpt lat="46.0051112" lon="11.2822041" />
      <trkpt lat="46.0050590" lon="11.2823114" />
      <trkpt lat="46.0050292" lon="11.2825367" />
      <trkpt lat="46.0050292" lon="11.2828478" />
      <trkpt lat="46.0050665" lon="11.2830517" />
      <trkpt lat="46.0051261" lon="11.2830839" />
      <trkpt lat="46.0051627" lon="11.2831360" />
      <trkpt lat="46.0051692" lon="11.2833117" />
      <trkpt lat="46.0052042" lon="11.2834311" />
      <trkpt lat="46.0052209" lon="11.2837422" />
      <trkpt lat="46.0051408" lon="11.2839702" />
      <trkpt lat="46.0050142" lon="11.2840855" />
      <trkpt lat="46.0049545" lon="11.2842143" />
      <trkpt lat="46.0047310" lon="11.2841124" />
      <trkpt lat="46.0044850" lon="11.2843296" />
      <trkpt lat="46.0044944" lon="11.2844047" />
      <trkpt lat="46.0044198" lon="11.2844128" />
      <trkpt lat="46.0042838" lon="11.2845254" />
      <trkpt lat="46.0040742" lon="11.2846005" />
      <trkpt lat="46.0040183" lon="11.2847306" />
      <trkpt lat="46.0039820" lon="11.2847816" />
      <trkpt lat="46.0039028" lon="11.2847776" />
      <trkpt lat="46.0037733" lon="11.2847802" />
      <trkpt lat="46.0035013" lon="11.2848406" />
      <trkpt lat="46.0033905" lon="11.2848822" />
      <trkpt lat="46.0033011" lon="11.2849653" />
      <trkpt lat="46.0032638" lon="11.2850538" />
      <trkpt lat="46.0032321" lon="11.2850417" />
      <trkpt lat="46.0030151" lon="11.2849640" />
      <trkpt lat="46.0030057" lon="11.2849908" />
      <trkpt lat="46.0030989" lon="11.2850713" />
      <trkpt lat="46.0032498" lon="11.2851034" />
      <trkpt lat="46.0032899" lon="11.2851396" />
      <trkpt lat="46.0033663" lon="11.2850458" />
      <trkpt lat="46.0034827" lon="11.2850350" />
      <trkpt lat="46.0035619" lon="11.2850458" />
      <trkpt lat="46.0035572" lon="11.2850887" />
      <trkpt lat="46.0034995" lon="11.2851504" />
      <trkpt lat="46.0034007" lon="11.2851785" />
      <trkpt lat="46.0033066" lon="11.2854213" />
      <trkpt lat="46.0032941" lon="11.2855889" />
      <trkpt lat="46.0033743" lon="11.2856782" />
      <trkpt lat="46.0034020" lon="11.2856932" />
      <trkpt lat="46.0034787" lon="11.2857578" />
      <trkpt lat="46.0039481" lon="11.2856247" />
      <trkpt lat="46.0044030" lon="11.2854571" />
      <trkpt lat="46.0045091" lon="11.2854610" />
      <trkpt lat="46.0047775" lon="11.2854555" />
      <trkpt lat="46.0049591" lon="11.2854546" />
      <trkpt lat="46.0050567" lon="11.2853509" />
      <trkpt lat="46.0052009" lon="11.2852077" />
      <trkpt lat="46.0057821" lon="11.2849801" />
      <trkpt lat="46.0059721" lon="11.2849308" />
      <trkpt lat="46.0060089" lon="11.2849039" />
      <trkpt lat="46.0060791" lon="11.2845651" />
      <trkpt lat="46.0061883" lon="11.2841360" />
      <trkpt lat="46.0062306" lon="11.2838999" />
      <trkpt lat="46.0062551" lon="11.2836161" />
      <trkpt lat="46.0062737" lon="11.2833720" />
      <trkpt lat="46.0062849" lon="11.2831011" />
      <trkpt lat="46.0062905" lon="11.2828007" />
      <trkpt lat="46.0062878" lon="11.2825911" />
      <trkpt lat="46.0062965" lon="11.2823360" />
      <trkpt lat="46.0063325" lon="11.2822117" />
      <trkpt lat="46.0063865" lon="11.2820400" />
      <trkpt lat="46.0064266" lon="11.2819649" />
      <trkpt lat="46.0064927" lon="11.2818751" />
      <trkpt lat="46.0066358" lon="11.2817202" />
      <trkpt lat="46.0064927" lon="11.2818751" />
      <trkpt lat="46.0064266" lon="11.2819649" />
      <trkpt lat="46.0063865" lon="11.2820400" />
      <trkpt lat="46.0063325" lon="11.2822117" />
      <trkpt lat="46.0062965" lon="11.2823360" />
      <trkpt lat="46.0062878" lon="11.2825911" />
      <trkpt lat="46.0062905" lon="11.2828007" />
      <trkpt lat="46.0062849" lon="11.2831011" />
      <trkpt lat="46.0062737" lon="11.2833720" />
      <trkpt lat="46.0062551" lon="11.2836161" />
      <trkpt lat="46.0062306" lon="11.2838999" />
      <trkpt lat="46.0061883" lon="11.2841360" />
      <trkpt lat="46.0060791" lon="11.2845651" />
      <trkpt lat="46.0060089" lon="11.2849039" />
      <trkpt lat="46.0059721" lon="11.2849308" />
      <trkpt lat="46.0062180" lon="11.2838113" />
      <trkpt lat="46.0062572" lon="11.2830732" />
      <trkpt lat="46.0062530" lon="11.2826210" />
      <trkpt lat="46.0062378" lon="11.2823980" />
      <trkpt lat="46.0062530" lon="11.2826210" />
      <trkpt lat="46.0062572" lon="11.2830732" />
      <trkpt lat="46.0062180" lon="11.2838113" />
      <trkpt lat="46.0059721" lon="11.2849308" />
      <trkpt lat="46.0060089" lon="11.2849039" />
      <trkpt lat="46.0060791" lon="11.2845651" />
      <trkpt lat="46.0061883" lon="11.2841360" />
      <trkpt lat="46.0062306" lon="11.2838999" />
      <trkpt lat="46.0062551" lon="11.2836161" />
      <trkpt lat="46.0062306" lon="11.2838999" />
      <trkpt lat="46.0061883" lon="11.2841360" />
      <trkpt lat="46.0060791" lon="11.2845651" />
      <trkpt lat="46.0060089" lon="11.2849039" />
      <trkpt lat="46.0059721" lon="11.2849308" />
      <trkpt lat="46.0057821" lon="11.2849801" />
      <trkpt lat="46.0052009" lon="11.2852077" />
      <trkpt lat="46.0050567" lon="11.2853509" />
      <trkpt lat="46.0049591" lon="11.2854546" />
      <trkpt lat="46.0049934" lon="11.2856460" />
      <trkpt lat="46.0050192" lon="11.2859102" />
      <trkpt lat="46.0049979" lon="11.2863394" />
      <trkpt lat="46.0050760" lon="11.2868197" />
      <trkpt lat="46.0052029" lon="11.2871711" />
      <trkpt lat="46.0054629" lon="11.2879337" />
      <trkpt lat="46.0055694" lon="11.2884907" />
      <trkpt lat="46.0056368" lon="11.2889199" />
      <trkpt lat="46.0055694" lon="11.2884907" />
      <trkpt lat="46.0054629" lon="11.2879337" />
      <trkpt lat="46.0052029" lon="11.2871711" />
      <trkpt lat="46.0050958" lon="11.2873389" />
      <trkpt lat="46.0044746" lon="11.2882791" />
      <trkpt lat="46.0043784" lon="11.2884364" />
      <trkpt lat="46.0044612" lon="11.2885519" />
      <trkpt lat="46.0042596" lon="11.2888915" />
      <trkpt lat="46.0042296" lon="11.2889397" />
      <trkpt lat="46.0045742" lon="11.2893610" />
      <trkpt lat="46.0042296" lon="11.2889397" />
      <trkpt lat="46.0042093" lon="11.2889147" />
      <trkpt lat="46.0040586" lon="11.2887284" />
      <trkpt lat="46.0040149" lon="11.2887105" />
      <trkpt lat="46.0039589" lon="11.2888223" />
      <trkpt lat="46.0039147" lon="11.2889133" />
      <trkpt lat="46.0039244" lon="11.2889256" />
      <trkpt lat="46.0040061" lon="11.2890183" />
      <trkpt lat="46.0041204" lon="11.2891534" />
      <trkpt lat="46.0041342" lon="11.2891696" />
      <trkpt lat="46.0045284" lon="11.2896353" />
      <trkpt lat="46.0047858" lon="11.2899393" />
      <trkpt lat="46.0051229" lon="11.2903376" />
      <trkpt lat="46.0051065" lon="11.2903925" />
      <trkpt lat="46.0051264" lon="11.2904165" />
      <trkpt lat="46.0053607" lon="11.2906989" />
      <trkpt lat="46.0053797" lon="11.2907218" />
      <trkpt lat="46.0054014" lon="11.2907480" />
      <trkpt lat="46.0055938" lon="11.2909798" />
      <trkpt lat="46.0056137" lon="11.2910038" />
      <trkpt lat="46.0055437" lon="11.2911503" />
      <trkpt lat="46.0056137" lon="11.2910038" />
      <trkpt lat="46.0056287" lon="11.2909373" />
      <trkpt lat="46.0053990" lon="11.2906638" />
      <trkpt lat="46.0051229" lon="11.2903376" />
      <trkpt lat="46.0051065" lon="11.2903925" />
      <trkpt lat="46.0050862" lon="11.2903681" />
      <trkpt lat="46.0047929" lon="11.2900151" />
      <trkpt lat="46.0047737" lon="11.2899911" />
      <trkpt lat="46.0047523" lon="11.2899657" />
      <trkpt lat="46.0045573" lon="11.2897303" />
      <trkpt lat="46.0045184" lon="11.2896836" />
      <trkpt lat="46.0044946" lon="11.2896551" />
      <trkpt lat="46.0044496" lon="11.2896010" />
      <trkpt lat="46.0041416" lon="11.2892381" />
      <trkpt lat="46.0041242" lon="11.2892177" />
      <trkpt lat="46.0041104" lon="11.2892023" />
      <trkpt lat="46.0041001" lon="11.2891904" />
      <trkpt lat="46.0039033" lon="11.2889618" />
      <trkpt lat="46.0039147" lon="11.2889133" />
      <trkpt lat="46.0037008" lon="11.2886425" />
      <trkpt lat="46.0029517" lon="11.2876559" />
      <trkpt lat="46.0029229" lon="11.2875548" />
      <trkpt lat="46.0029062" lon="11.2874267" />
      <trkpt lat="46.0028868" lon="11.2871405" />
      <trkpt lat="46.0028664" lon="11.2868840" />
      <trkpt lat="46.0028512" lon="11.2865966" />
      <trkpt lat="46.0028408" lon="11.2864729" />
      <trkpt lat="46.0028144" lon="11.2863524" />
      <trkpt lat="46.0027886" lon="11.2863086" />
      <trkpt lat="46.0027533" lon="11.2862724" />
      <trkpt lat="46.0026839" lon="11.2862547" />
      <trkpt lat="46.0026208" lon="11.2862507" />
      <trkpt lat="46.0025911" lon="11.2862631" />
      <trkpt lat="46.0025631" lon="11.2862891" />
      <trkpt lat="46.0025338" lon="11.2863258" />
      <trkpt lat="46.0025077" lon="11.2863738" />
      <trkpt lat="46.0024793" lon="11.2864324" />
      <trkpt lat="46.0024454" lon="11.2865168" />
      <trkpt lat="46.0024494" lon="11.2865472" />
      <trkpt lat="46.0025272" lon="11.2877438" />
      <trkpt lat="46.0026612" lon="11.2900427" />
      <trkpt lat="46.0026927" lon="11.2905357" />
      <trkpt lat="46.0027196" lon="11.2911136" />
      <trkpt lat="46.0028477" lon="11.2933747" />
      <trkpt lat="46.0028793" lon="11.2938741" />
      <trkpt lat="46.0029007" lon="11.2940742" />
      <trkpt lat="46.0030056" lon="11.2950046" />
      <trkpt lat="46.0031503" lon="11.2958145" />
      <trkpt lat="46.0033239" lon="11.2966258" />
      <trkpt lat="46.0034243" lon="11.2970835" />
      <trkpt lat="46.0035464" lon="11.2976584" />
      <trkpt lat="46.0035520" lon="11.2977009" />
      <trkpt lat="46.0037758" lon="11.2987757" />
      <trkpt lat="46.0038177" lon="11.2990040" />
      <trkpt lat="46.0038390" lon="11.2989292" />
      <trkpt lat="46.0038526" lon="11.2988310" />
      <trkpt lat="46.0038185" lon="11.2984688" />
      <trkpt lat="46.0038274" lon="11.2983435" />
      <trkpt lat="46.0039068" lon="11.2976443" />
      <trkpt lat="46.0040197" lon="11.2967070" />
      <trkpt lat="46.0040378" lon="11.2965442" />
      <trkpt lat="46.0040691" lon="11.2962842" />
      <trkpt lat="46.0041227" lon="11.2960267" />
      <trkpt lat="46.0041883" lon="11.2958035" />
      <trkpt lat="46.0043076" lon="11.2954345" />
      <trkpt lat="46.0044738" lon="11.2948906" />
      <trkpt lat="46.0046172" lon="11.2944695" />
      <trkpt lat="46.0047261" lon="11.2942206" />
      <trkpt lat="46.0050766" lon="11.2935205" />
      <trkpt lat="46.0052555" lon="11.2932029" />
      <trkpt lat="46.0053747" lon="11.2929883" />
      <trkpt lat="46.0053687" lon="11.2929282" />
      <trkpt lat="46.0053747" lon="11.2929883" />
      <trkpt lat="46.0052555" lon="11.2932029" />
      <trkpt lat="46.0050766" lon="11.2935205" />
      <trkpt lat="46.0047261" lon="11.2942206" />
      <trkpt lat="46.0046172" lon="11.2944695" />
      <trkpt lat="46.0044738" lon="11.2948906" />
      <trkpt lat="46.0043076" lon="11.2954345" />
      <trkpt lat="46.0041883" lon="11.2958035" />
      <trkpt lat="46.0041227" lon="11.2960267" />
      <trkpt lat="46.0040691" lon="11.2962842" />
      <trkpt lat="46.0040378" lon="11.2965442" />
      <trkpt lat="46.0040197" lon="11.2967070" />
      <trkpt lat="46.0041081" lon="11.2967728" />
      <trkpt lat="46.0042122" lon="11.2968507" />
      <trkpt lat="46.0044745" lon="11.2969966" />
      <trkpt lat="46.0048262" lon="11.2971683" />
      <trkpt lat="46.0050826" lon="11.2973227" />
      <trkpt lat="46.0052244" lon="11.2974104" />
      <trkpt lat="46.0055207" lon="11.2976149" />
      <trkpt lat="46.0061140" lon="11.2979493" />
      <trkpt lat="46.0062227" lon="11.2980094" />
      <trkpt lat="46.0063345" lon="11.2980609" />
      <trkpt lat="46.0064895" lon="11.2981467" />
      <trkpt lat="46.0065761" lon="11.2982076" />
      <trkpt lat="46.0067418" lon="11.2982409" />
      <trkpt lat="46.0068215" lon="11.2982888" />
      <trkpt lat="46.0069069" lon="11.2983699" />
      <trkpt lat="46.0071453" lon="11.2985587" />
      <trkpt lat="46.0073746" lon="11.2987222" />
      <trkpt lat="46.0074566" lon="11.2988582" />
      <trkpt lat="46.0075843" lon="11.2989813" />
      <trkpt lat="46.0078216" lon="11.2991785" />
      <trkpt lat="46.0082432" lon="11.2993967" />
      <trkpt lat="46.0082736" lon="11.2994124" />
      <trkpt lat="46.0083716" lon="11.2994631" />
      <trkpt lat="46.0086613" lon="11.2996130" />
      <trkpt lat="46.0087057" lon="11.2995460" />
      <trkpt lat="46.0088932" lon="11.2991920" />
      <trkpt lat="46.0090193" lon="11.2990345" />
      <trkpt lat="46.0090929" lon="11.2989837" />
      <trkpt lat="46.0091675" lon="11.2989813" />
      <trkpt lat="46.0093803" lon="11.2989948" />
      <trkpt lat="46.0096193" lon="11.2990766" />
      <trkpt lat="46.0100209" lon="11.2991942" />
      <trkpt lat="46.0100425" lon="11.2991474" />
      <trkpt lat="46.0100063" lon="11.2990362" />
      <trkpt lat="46.0099504" lon="11.2988854" />
      <trkpt lat="46.0099120" lon="11.2988591" />
      <trkpt lat="46.0098012" lon="11.2986955" />
      <trkpt lat="46.0098825" lon="11.2984367" />
      <trkpt lat="46.0096438" lon="11.2983759" />
      <trkpt lat="46.0095394" lon="11.2983507" />
      <trkpt lat="46.0094346" lon="11.2983049" />
      <trkpt lat="46.0092880" lon="11.2981822" />
      <trkpt lat="46.0092317" lon="11.2981169" />
      <trkpt lat="46.0091656" lon="11.2980281" />
      <trkpt lat="46.0091039" lon="11.2979094" />
      <trkpt lat="46.0090480" lon="11.2977699" />
      <trkpt lat="46.0089850" lon="11.2975267" />
      <trkpt lat="46.0088589" lon="11.2970393" />
      <trkpt lat="46.0087115" lon="11.2964700" />
      <trkpt lat="46.0086007" lon="11.2960421" />
      <trkpt lat="46.0085345" lon="11.2957863" />
      <trkpt lat="46.0085087" lon="11.2956866" />
      <trkpt lat="46.0084033" lon="11.2952909" />
      <trkpt lat="46.0083832" lon="11.2952157" />
      <trkpt lat="46.0082944" lon="11.2949620" />
      <trkpt lat="46.0082324" lon="11.2947849" />
      <trkpt lat="46.0079673" lon="11.2940833" />
      <trkpt lat="46.0078100" lon="11.2937086" />
      <trkpt lat="46.0075917" lon="11.2932997" />
      <trkpt lat="46.0075779" lon="11.2932774" />
      <trkpt lat="46.0075285" lon="11.2931979" />
      <trkpt lat="46.0074960" lon="11.2932546" />
      <trkpt lat="46.0074320" lon="11.2931812" />
      <trkpt lat="46.0073492" lon="11.2931457" />
      <trkpt lat="46.0067516" lon="11.2939729" />
      <trkpt lat="46.0066847" lon="11.2940783" />
      <trkpt lat="46.0067697" lon="11.2942843" />
      <trkpt lat="46.0068413" lon="11.2945418" />
      <trkpt lat="46.0069026" lon="11.2948136" />
      <trkpt lat="46.0069250" lon="11.2950282" />
      <trkpt lat="46.0069287" lon="11.2951462" />
      <trkpt lat="46.0069250" lon="11.2950282" />
      <trkpt lat="46.0069026" lon="11.2948136" />
      <trkpt lat="46.0068413" lon="11.2945418" />
      <trkpt lat="46.0067697" lon="11.2942843" />
      <trkpt lat="46.0066847" lon="11.2940783" />
      <trkpt lat="46.0067516" lon="11.2939729" />
      <trkpt lat="46.0073492" lon="11.2931457" />
      <trkpt lat="46.0073728" lon="11.2930947" />
      <trkpt lat="46.0074144" lon="11.2931202" />
      <trkpt lat="46.0074595" lon="11.2931252" />
      <trkpt lat="46.0075033" lon="11.2931094" />
      <trkpt lat="46.0075285" lon="11.2931979" />
      <trkpt lat="46.0075779" lon="11.2932774" />
      <trkpt lat="46.0075917" lon="11.2932997" />
      <trkpt lat="46.0078100" lon="11.2937086" />
      <trkpt lat="46.0079673" lon="11.2940833" />
      <trkpt lat="46.0082324" lon="11.2947849" />
      <trkpt lat="46.0082944" lon="11.2949620" />
      <trkpt lat="46.0083832" lon="11.2952157" />
      <trkpt lat="46.0084033" lon="11.2952909" />
      <trkpt lat="46.0085087" lon="11.2956866" />
      <trkpt lat="46.0086317" lon="11.2956996" />
      <trkpt lat="46.0087211" lon="11.2957519" />
      <trkpt lat="46.0088004" lon="11.2958202" />
      <trkpt lat="46.0088595" lon="11.2958710" />
      <trkpt lat="46.0089937" lon="11.2960212" />
      <trkpt lat="46.0091216" lon="11.2962500" />
      <trkpt lat="46.0092321" lon="11.2964879" />
      <trkpt lat="46.0092428" lon="11.2965144" />
      <trkpt lat="46.0093778" lon="11.2968502" />
      <trkpt lat="46.0095239" lon="11.2971002" />
      <trkpt lat="46.0096919" lon="11.2974025" />
      <trkpt lat="46.0099901" lon="11.2978608" />
      <trkpt lat="46.0100622" lon="11.2980408" />
      <trkpt lat="46.0100973" lon="11.2981290" />
      <trkpt lat="46.0101204" lon="11.2982296" />
      <trkpt lat="46.0101622" lon="11.2983686" />
      <trkpt lat="46.0101955" lon="11.2983987" />
      <trkpt lat="46.0102422" lon="11.2983790" />
      <trkpt lat="46.0102411" lon="11.2984343" />
      <trkpt lat="46.0102101" lon="11.2985252" />
      <trkpt lat="46.0101817" lon="11.2985380" />
      <trkpt lat="46.0101575" lon="11.2985629" />
      <trkpt lat="46.0101398" lon="11.2985973" />
      <trkpt lat="46.0101303" lon="11.2986379" />
      <trkpt lat="46.0101300" lon="11.2986808" />
      <trkpt lat="46.0101389" lon="11.2987216" />
      <trkpt lat="46.0101562" lon="11.2987565" />
      <trkpt lat="46.0101801" lon="11.2987820" />
      <trkpt lat="46.0101893" lon="11.2987865" />
      <trkpt lat="46.0100999" lon="11.2990123" />
      <trkpt lat="46.0100425" lon="11.2991474" />
      <trkpt lat="46.0100209" lon="11.2991942" />
      <trkpt lat="46.0095258" lon="11.3002254" />
      <trkpt lat="46.0092735" lon="11.3000264" />
      <trkpt lat="46.0089993" lon="11.2998204" />
      <trkpt lat="46.0086613" lon="11.2996130" />
      <trkpt lat="46.0083716" lon="11.2994631" />
      <trkpt lat="46.0087983" lon="11.2984184" />
      <trkpt lat="46.0083716" lon="11.2994631" />
      <trkpt lat="46.0086613" lon="11.2996130" />
      <trkpt lat="46.0089993" lon="11.2998204" />
      <trkpt lat="46.0092735" lon="11.3000264" />
      <trkpt lat="46.0096193" lon="11.2990766" />
      <trkpt lat="46.0100209" lon="11.2991942" />
      <trkpt lat="46.0100425" lon="11.2991474" />
      <trkpt lat="46.0100063" lon="11.2990362" />
      <trkpt lat="46.0100987" lon="11.2987285" />
      <trkpt lat="46.0100667" lon="11.2986271" />
      <trkpt lat="46.0100762" lon="11.2985089" />
      <trkpt lat="46.0100365" lon="11.2984927" />
      <trkpt lat="46.0099647" lon="11.2984635" />
      <trkpt lat="46.0099589" lon="11.2984611" />
      <trkpt lat="46.0098825" lon="11.2984367" />
      <trkpt lat="46.0099589" lon="11.2984611" />
      <trkpt lat="46.0099647" lon="11.2984635" />
      <trkpt lat="46.0100365" lon="11.2984927" />
      <trkpt lat="46.0100762" lon="11.2985089" />
      <trkpt lat="46.0101575" lon="11.2985629" />
      <trkpt lat="46.0101817" lon="11.2985380" />
      <trkpt lat="46.0102101" lon="11.2985252" />
      <trkpt lat="46.0102411" lon="11.2984343" />
      <trkpt lat="46.0102422" lon="11.2983790" />
      <trkpt lat="46.0102411" lon="11.2984343" />
      <trkpt lat="46.0102101" lon="11.2985252" />
      <trkpt lat="46.0102399" lon="11.2985256" />
      <trkpt lat="46.0102681" lon="11.2985392" />
      <trkpt lat="46.0102920" lon="11.2985647" />
      <trkpt lat="46.0102995" lon="11.2985799" />
      <trkpt lat="46.0103691" lon="11.2984793" />
      <trkpt lat="46.0104499" lon="11.2983154" />
      <trkpt lat="46.0105560" lon="11.2981004" />
      <trkpt lat="46.0106159" lon="11.2979879" />
      <trkpt lat="46.0106756" lon="11.2980691" />
      <trkpt lat="46.0106159" lon="11.2979879" />
      <trkpt lat="46.0107801" lon="11.2977017" />
      <trkpt lat="46.0109630" lon="11.2974406" />
      <trkpt lat="46.0111443" lon="11.2971898" />
      <trkpt lat="46.0112181" lon="11.2971112" />
      <trkpt lat="46.0116123" lon="11.2977853" />
      <trkpt lat="46.0115764" lon="11.2979707" />
      <trkpt lat="46.0115587" lon="11.2979934" />
      <trkpt lat="46.0111941" lon="11.2984770" />
      <trkpt lat="46.0113012" lon="11.2986379" />
      <trkpt lat="46.0114073" lon="11.2988065" />
      <trkpt lat="46.0115130" lon="11.2989377" />
      <trkpt lat="46.0118824" lon="11.2985225" />
      <trkpt lat="46.0120860" lon="11.2982428" />
      <trkpt lat="46.0122052" lon="11.2981248" />
      <trkpt lat="46.0122499" lon="11.2982214" />
      <trkpt lat="46.0122424" lon="11.2983394" />
      <trkpt lat="46.0123552" lon="11.2985082" />
    </trkseg>
  </trk>
</gpx>
