<?xml version="1.0" encoding="UTF-8"?>
<gpx xmlns="http://www.topografix.com/GPX/1/1" version="1.1" creator="ShapeRoute route-engine">
  <metadata>
    <name>house 15 km · 2026-09-24</name>
    <author>
      <name>ShapeRoute route-engine</name>
    </author>
    <copyright author="OpenStreetMap contributors">
      <license>https://opendatacommons.org/licenses/odbl/1-0/</license>
    </copyright>
    <link href="https://www.openstreetmap.org/copyright">
      <text>© OpenStreetMap contributors</text>
    </link>
    <time>2026-09-24T07:48:16Z</time>
  </metadata>
  <trk>
    <name>house 15 km · 2026-09-24</name>
    <trkseg>
      <trkpt lat="46.0668711" lon="11.1210492" />
      <trkpt lat="46.0667705" lon="11.1210629" />
      <trkpt lat="46.0667526" lon="11.1210542" />
      <trkpt lat="46.0667024" lon="11.1213629" />
      <trkpt lat="46.0666701" lon="11.1215352" />
      <trkpt lat="46.0666789" lon="11.1217092" />
      <trkpt lat="46.0667274" lon="11.1218448" />
      <trkpt lat="46.0667304" lon="11.1218751" />
      <trkpt lat="46.0667697" lon="11.1219637" />
      <trkpt lat="46.0668675" lon="11.1221842" />
      <trkpt lat="46.0668704" lon="11.1222043" />
      <trkpt lat="46.0668726" lon="11.1222251" />
      <trkpt lat="46.0667963" lon="11.1222541" />
      <trkpt lat="46.0667787" lon="11.1222601" />
      <trkpt lat="46.0667357" lon="11.1222747" />
      <trkpt lat="46.0667414" lon="11.1223091" />
      <trkpt lat="46.0667532" lon="11.1223909" />
      <trkpt lat="46.0667715" lon="11.1225101" />
      <trkpt lat="46.0667729" lon="11.1225194" />
      <trkpt lat="46.0667810" lon="11.1225726" />
      <trkpt lat="46.0668548" lon="11.1230552" />
      <trkpt lat="46.0668872" lon="11.1232848" />
      <trkpt lat="46.0668905" lon="11.1233334" />
      <trkpt lat="46.0668935" lon="11.1233766" />
      <trkpt lat="46.0669433" lon="11.1237737" />
      <trkpt lat="46.0669933" lon="11.1241724" />
      <trkpt lat="46.0669974" lon="11.1242205" />
      <trkpt lat="46.0667745" lon="11.1242849" />
      <trkpt lat="46.0664914" lon="11.1243614" />
      <trkpt lat="46.0664498" lon="11.1240203" />
      <trkpt lat="46.0662062" lon="11.1240774" />
      <trkpt lat="46.0660427" lon="11.1240327" />
      <trkpt lat="46.0659601" lon="11.1239522" />
      <trkpt lat="46.0658911" lon="11.1239464" />
      <trkpt lat="46.0656609" lon="11.1239761" />
      <trkpt lat="46.0656958" lon="11.1246657" />
      <trkpt lat="46.0657009" lon="11.1247688" />
      <trkpt lat="46.0656894" lon="11.1248307" />
      <trkpt lat="46.0656615" lon="11.1248850" />
      <trkpt lat="46.0656446" lon="11.1248534" />
      <trkpt lat="46.0656350" lon="11.1248287" />
      <trkpt lat="46.0655574" lon="11.1248374" />
      <trkpt lat="46.0655194" lon="11.1248566" />
      <trkpt lat="46.0654415" lon="11.1249032" />
      <trkpt lat="46.0653773" lon="11.1248850" />
      <trkpt lat="46.0653755" lon="11.1248520" />
      <trkpt lat="46.0653856" lon="11.1246724" />
      <trkpt lat="46.0653466" lon="11.1239397" />
      <trkpt lat="46.0653359" lon="11.1235567" />
      <trkpt lat="46.0653260" lon="11.1234646" />
      <trkpt lat="46.0653114" lon="11.1233933" />
      <trkpt lat="46.0652906" lon="11.1233292" />
      <trkpt lat="46.0652698" lon="11.1232964" />
      <trkpt lat="46.0652500" lon="11.1232780" />
      <trkpt lat="46.0652181" lon="11.1232654" />
      <trkpt lat="46.0651859" lon="11.1232588" />
      <trkpt lat="46.0651559" lon="11.1232583" />
      <trkpt lat="46.0651514" lon="11.1231779" />
      <trkpt lat="46.0651994" lon="11.1231586" />
      <trkpt lat="46.0652342" lon="11.1231340" />
      <trkpt lat="46.0652344" lon="11.1230754" />
      <trkpt lat="46.0652184" lon="11.1229778" />
      <trkpt lat="46.0651961" lon="11.1228928" />
      <trkpt lat="46.0652374" lon="11.1226394" />
      <trkpt lat="46.0652053" lon="11.1225972" />
      <trkpt lat="46.0651661" lon="11.1225385" />
      <trkpt lat="46.0650859" lon="11.1224719" />
      <trkpt lat="46.0651661" lon="11.1225385" />
      <trkpt lat="46.0652053" lon="11.1225972" />
      <trkpt lat="46.0652374" lon="11.1226394" />
      <trkpt lat="46.0654688" lon="11.1212196" />
      <trkpt lat="46.0654620" lon="11.1211474" />
      <trkpt lat="46.0654542" lon="11.1210596" />
      <trkpt lat="46.0654962" lon="11.1210606" />
      <trkpt lat="46.0653735" lon="11.1197764" />
      <trkpt lat="46.0653476" lon="11.1196418" />
      <trkpt lat="46.0653303" lon="11.1194356" />
      <trkpt lat="46.0653264" lon="11.1193970" />
      <trkpt lat="46.0653328" lon="11.1193958" />
      <trkpt lat="46.0653255" lon="11.1193045" />
      <trkpt lat="46.0653169" lon="11.1192084" />
      <trkpt lat="46.0658645" lon="11.1190903" />
      <trkpt lat="46.0658904" lon="11.1190853" />
      <trkpt lat="46.0659097" lon="11.1190706" />
      <trkpt lat="46.0659410" lon="11.1190629" />
      <trkpt lat="46.0662010" lon="11.1190100" />
      <trkpt lat="46.0665603" lon="11.1189419" />
      <trkpt lat="46.0666159" lon="11.1189281" />
      <trkpt lat="46.0666683" lon="11.1189188" />
      <trkpt lat="46.0667342" lon="11.1188998" />
      <trkpt lat="46.0669803" lon="11.1188542" />
      <trkpt lat="46.0674005" lon="11.1187747" />
      <trkpt lat="46.0674093" lon="11.1187503" />
      <trkpt lat="46.0674557" lon="11.1187456" />
      <trkpt lat="46.0674919" lon="11.1187364" />
      <trkpt lat="46.0675032" lon="11.1187574" />
      <trkpt lat="46.0675393" lon="11.1187487" />
      <trkpt lat="46.0675618" lon="11.1187115" />
      <trkpt lat="46.0679402" lon="11.1186298" />
      <trkpt lat="46.0679622" lon="11.1186402" />
      <trkpt lat="46.0679842" lon="11.1186414" />
      <trkpt lat="46.0680470" lon="11.1186253" />
      <trkpt lat="46.0681607" lon="11.1186015" />
      <trkpt lat="46.0681899" lon="11.1186247" />
      <trkpt lat="46.0681920" lon="11.1186465" />
      <trkpt lat="46.0682864" lon="11.1186372" />
      <trkpt lat="46.0683173" lon="11.1186358" />
      <trkpt lat="46.0683328" lon="11.1186343" />
      <trkpt lat="46.0683351" lon="11.1186769" />
      <trkpt lat="46.0684127" lon="11.1186739" />
      <trkpt lat="46.0684227" lon="11.1186725" />
      <trkpt lat="46.0684724" lon="11.1186651" />
      <trkpt lat="46.0686142" lon="11.1186552" />
      <trkpt lat="46.0686980" lon="11.1186286" />
      <trkpt lat="46.0687959" lon="11.1185979" />
      <trkpt lat="46.0688008" lon="11.1186481" />
      <trkpt lat="46.0688067" lon="11.1187029" />
      <trkpt lat="46.0690048" lon="11.1186446" />
      <trkpt lat="46.0692936" lon="11.1185933" />
      <trkpt lat="46.0693003" lon="11.1185797" />
      <trkpt lat="46.0693843" lon="11.1185521" />
      <trkpt lat="46.0694706" lon="11.1186925" />
      <trkpt lat="46.0695014" lon="11.1187751" />
      <trkpt lat="46.0695252" lon="11.1189073" />
      <trkpt lat="46.0695628" lon="11.1188979" />
      <trkpt lat="46.0695707" lon="11.1189919" />
      <trkpt lat="46.0695764" lon="11.1190934" />
      <trkpt lat="46.0695836" lon="11.1191561" />
      <trkpt lat="46.0695825" lon="11.1192081" />
      <trkpt lat="46.0695759" lon="11.1192602" />
      <trkpt lat="46.0696024" lon="11.1192604" />
      <trkpt lat="46.0696078" lon="11.1192604" />
      <trkpt lat="46.0699563" lon="11.1192603" />
      <trkpt lat="46.0699641" lon="11.1192603" />
      <trkpt lat="46.0699785" lon="11.1192586" />
      <trkpt lat="46.0700070" lon="11.1194923" />
      <trkpt lat="46.0700153" lon="11.1195757" />
      <trkpt lat="46.0700221" lon="11.1196829" />
      <trkpt lat="46.0699981" lon="11.1197027" />
      <trkpt lat="46.0700021" lon="11.1197557" />
      <trkpt lat="46.0700053" lon="11.1197976" />
      <trkpt lat="46.0700337" lon="11.1198021" />
      <trkpt lat="46.0700585" lon="11.1200224" />
      <trkpt lat="46.0701289" lon="11.1206585" />
      <trkpt lat="46.0702108" lon="11.1214249" />
      <trkpt lat="46.0702164" lon="11.1214756" />
      <trkpt lat="46.0702645" lon="11.1214627" />
      <trkpt lat="46.0703324" lon="11.1214444" />
      <trkpt lat="46.0703515" lon="11.1214390" />
      <trkpt lat="46.0703665" lon="11.1214519" />
      <trkpt lat="46.0703902" lon="11.1214490" />
      <trkpt lat="46.0703987" lon="11.1215044" />
      <trkpt lat="46.0704156" lon="11.1216145" />
      <trkpt lat="46.0706252" lon="11.1215476" />
      <trkpt lat="46.0706477" lon="11.1215420" />
      <trkpt lat="46.0707043" lon="11.1215280" />
      <trkpt lat="46.0707121" lon="11.1215728" />
      <trkpt lat="46.0708101" lon="11.1221373" />
      <trkpt lat="46.0708612" lon="11.1223889" />
      <trkpt lat="46.0709172" lon="11.1225127" />
      <trkpt lat="46.0710212" lon="11.1226413" />
      <trkpt lat="46.0711314" lon="11.1229085" />
      <trkpt lat="46.0710416" lon="11.1230175" />
      <trkpt lat="46.0709079" lon="11.1231797" />
      <trkpt lat="46.0708979" lon="11.1231919" />
      <trkpt lat="46.0709206" lon="11.1232288" />
      <trkpt lat="46.0711887" lon="11.1237117" />
      <trkpt lat="46.0712056" lon="11.1237453" />
      <trkpt lat="46.0712168" lon="11.1237386" />
      <trkpt lat="46.0712690" lon="11.1238582" />
      <trkpt lat="46.0712973" lon="11.1239242" />
      <trkpt lat="46.0715715" lon="11.1242588" />
      <trkpt lat="46.0716139" lon="11.1243025" />
      <trkpt lat="46.0717352" lon="11.1244219" />
      <trkpt lat="46.0717827" lon="11.1244553" />
      <trkpt lat="46.0720850" lon="11.1246655" />
      <trkpt lat="46.0721075" lon="11.1246812" />
      <trkpt lat="46.0721375" lon="11.1246107" />
      <trkpt lat="46.0721793" lon="11.1246289" />
      <trkpt lat="46.0722752" lon="11.1246705" />
      <trkpt lat="46.0723730" lon="11.1247131" />
      <trkpt lat="46.0723936" lon="11.1246439" />
      <trkpt lat="46.0724957" lon="11.1247157" />
      <trkpt lat="46.0730589" lon="11.1248721" />
      <trkpt lat="46.0730540" lon="11.1249622" />
      <trkpt lat="46.0730504" lon="11.1250395" />
      <trkpt lat="46.0730799" lon="11.1250480" />
      <trkpt lat="46.0730786" lon="11.1251022" />
      <trkpt lat="46.0731102" lon="11.1251008" />
      <trkpt lat="46.0731482" lon="11.1250991" />
      <trkpt lat="46.0731463" lon="11.1250277" />
      <trkpt lat="46.0731491" lon="11.1250169" />
      <trkpt lat="46.0731556" lon="11.1250131" />
      <trkpt lat="46.0733987" lon="11.1250158" />
      <trkpt lat="46.0735904" lon="11.1250058" />
      <trkpt lat="46.0737990" lon="11.1250016" />
      <trkpt lat="46.0742639" lon="11.1250021" />
      <trkpt lat="46.0742862" lon="11.1252110" />
      <trkpt lat="46.0742901" lon="11.1252486" />
      <trkpt lat="46.0742936" lon="11.1252822" />
      <trkpt lat="46.0744911" lon="11.1252180" />
      <trkpt lat="46.0744955" lon="11.1252706" />
      <trkpt lat="46.0744974" lon="11.1253131" />
      <trkpt lat="46.0744973" lon="11.1253342" />
      <trkpt lat="46.0744654" lon="11.1253720" />
      <trkpt lat="46.0739627" lon="11.1258798" />
      <trkpt lat="46.0738574" lon="11.1259851" />
      <trkpt lat="46.0737670" lon="11.1260733" />
      <trkpt lat="46.0736399" lon="11.1262152" />
      <trkpt lat="46.0736617" lon="11.1264186" />
      <trkpt lat="46.0737090" lon="11.1270530" />
      <trkpt lat="46.0737023" lon="11.1270824" />
      <trkpt lat="46.0736737" lon="11.1271080" />
      <trkpt lat="46.0735896" lon="11.1271588" />
      <trkpt lat="46.0735302" lon="11.1271951" />
      <trkpt lat="46.0734663" lon="11.1272419" />
      <trkpt lat="46.0734660" lon="11.1274177" />
      <trkpt lat="46.0734711" lon="11.1276069" />
      <trkpt lat="46.0734537" lon="11.1276617" />
      <trkpt lat="46.0733483" lon="11.1278310" />
      <trkpt lat="46.0732983" lon="11.1279491" />
      <trkpt lat="46.0733316" lon="11.1279510" />
      <trkpt lat="46.0733801" lon="11.1279390" />
      <trkpt lat="46.0735035" lon="11.1278998" />
      <trkpt lat="46.0735237" lon="11.1278934" />
      <trkpt lat="46.0735347" lon="11.1278881" />
      <trkpt lat="46.0735910" lon="11.1278598" />
      <trkpt lat="46.0736055" lon="11.1278536" />
      <trkpt lat="46.0736330" lon="11.1278374" />
      <trkpt lat="46.0736518" lon="11.1278337" />
      <trkpt lat="46.0737268" lon="11.1278281" />
      <trkpt lat="46.0738871" lon="11.1278374" />
      <trkpt lat="46.0738985" lon="11.1279014" />
      <trkpt lat="46.0739021" lon="11.1279049" />
      <trkpt lat="46.0740563" lon="11.1280547" />
      <trkpt lat="46.0740792" lon="11.1280566" />
      <trkpt lat="46.0741217" lon="11.1280537" />
      <trkpt lat="46.0741340" lon="11.1280529" />
      <trkpt lat="46.0742255" lon="11.1280386" />
      <trkpt lat="46.0741631" lon="11.1282502" />
      <trkpt lat="46.0741717" lon="11.1282818" />
      <trkpt lat="46.0741515" lon="11.1283292" />
      <trkpt lat="46.0741667" lon="11.1283468" />
      <trkpt lat="46.0741912" lon="11.1283750" />
      <trkpt lat="46.0742467" lon="11.1282269" />
      <trkpt lat="46.0743188" lon="11.1280689" />
      <trkpt lat="46.0744212" lon="11.1279428" />
      <trkpt lat="46.0745531" lon="11.1278791" />
      <trkpt lat="46.0746745" lon="11.1278750" />
      <trkpt lat="46.0748351" lon="11.1279289" />
      <trkpt lat="46.0751899" lon="11.1280282" />
      <trkpt lat="46.0752276" lon="11.1280388" />
      <trkpt lat="46.0756233" lon="11.1281540" />
      <trkpt lat="46.0757365" lon="11.1281867" />
      <trkpt lat="46.0757716" lon="11.1281967" />
      <trkpt lat="46.0758499" lon="11.1282191" />
      <trkpt lat="46.0759290" lon="11.1282301" />
      <trkpt lat="46.0759087" lon="11.1284264" />
      <trkpt lat="46.0759068" lon="11.1285458" />
      <trkpt lat="46.0758860" lon="11.1286618" />
      <trkpt lat="46.0758202" lon="11.1289142" />
      <trkpt lat="46.0757893" lon="11.1291059" />
      <trkpt lat="46.0757939" lon="11.1293083" />
      <trkpt lat="46.0758122" lon="11.1294045" />
      <trkpt lat="46.0758601" lon="11.1295688" />
      <trkpt lat="46.0759415" lon="11.1297726" />
      <trkpt lat="46.0760013" lon="11.1299493" />
      <trkpt lat="46.0760478" lon="11.1300123" />
      <trkpt lat="46.0761724" lon="11.1300875" />
      <trkpt lat="46.0764975" lon="11.1302832" />
      <trkpt lat="46.0766298" lon="11.1303343" />
      <trkpt lat="46.0767621" lon="11.1303772" />
      <trkpt lat="46.0770168" lon="11.1304446" />
      <trkpt lat="46.0771354" lon="11.1304578" />
      <trkpt lat="46.0772788" lon="11.1304450" />
      <trkpt lat="46.0772661" lon="11.1305162" />
      <trkpt lat="46.0772528" lon="11.1305902" />
      <trkpt lat="46.0772467" lon="11.1307100" />
      <trkpt lat="46.0771814" lon="11.1311854" />
      <trkpt lat="46.0771268" lon="11.1316045" />
      <trkpt lat="46.0771004" lon="11.1317526" />
      <trkpt lat="46.0770901" lon="11.1317798" />
      <trkpt lat="46.0770754" lon="11.1318003" />
      <trkpt lat="46.0770549" lon="11.1318176" />
      <trkpt lat="46.0770427" lon="11.1318742" />
      <trkpt lat="46.0770161" lon="11.1319878" />
      <trkpt lat="46.0770354" lon="11.1320010" />
      <trkpt lat="46.0770442" lon="11.1320247" />
      <trkpt lat="46.0770434" lon="11.1320669" />
      <trkpt lat="46.0770143" lon="11.1321916" />
      <trkpt lat="46.0769636" lon="11.1323468" />
      <trkpt lat="46.0769153" lon="11.1324783" />
      <trkpt lat="46.0768684" lon="11.1325898" />
      <trkpt lat="46.0767867" lon="11.1327649" />
      <trkpt lat="46.0766733" lon="11.1329902" />
      <trkpt lat="46.0762758" lon="11.1337879" />
      <trkpt lat="46.0761969" lon="11.1339476" />
      <trkpt lat="46.0761494" lon="11.1340216" />
      <trkpt lat="46.0761049" lon="11.1340658" />
      <trkpt lat="46.0760642" lon="11.1340847" />
      <trkpt lat="46.0760129" lon="11.1340992" />
      <trkpt lat="46.0759773" lon="11.1340965" />
      <trkpt lat="46.0759050" lon="11.1340844" />
      <trkpt lat="46.0758616" lon="11.1340378" />
      <trkpt lat="46.0757541" lon="11.1339736" />
      <trkpt lat="46.0756662" lon="11.1340106" />
      <trkpt lat="46.0754573" lon="11.1341588" />
      <trkpt lat="46.0752879" lon="11.1342721" />
      <trkpt lat="46.0751455" lon="11.1344115" />
      <trkpt lat="46.0750730" lon="11.1344619" />
      <trkpt lat="46.0749410" lon="11.1344321" />
      <trkpt lat="46.0747360" lon="11.1343586" />
      <trkpt lat="46.0746050" lon="11.1343386" />
      <trkpt lat="46.0743106" lon="11.1343774" />
      <trkpt lat="46.0740802" lon="11.1344165" />
      <trkpt lat="46.0740348" lon="11.1344504" />
      <trkpt lat="46.0738249" lon="11.1345257" />
      <trkpt lat="46.0737202" lon="11.1345342" />
      <trkpt lat="46.0736965" lon="11.1344537" />
      <trkpt lat="46.0737202" lon="11.1345342" />
      <trkpt lat="46.0738249" lon="11.1345257" />
      <trkpt lat="46.0740348" lon="11.1344504" />
      <trkpt lat="46.0740760" lon="11.1346544" />
      <trkpt lat="46.0745512" lon="11.1344932" />
      <trkpt lat="46.0740760" lon="11.1346544" />
      <trkpt lat="46.0740348" lon="11.1344504" />
      <trkpt lat="46.0738249" lon="11.1345257" />
      <trkpt lat="46.0737202" lon="11.1345342" />
      <trkpt lat="46.0738322" lon="11.1348449" />
      <trkpt lat="46.0740044" lon="11.1353224" />
      <trkpt lat="46.0740257" lon="11.1353705" />
      <trkpt lat="46.0740631" lon="11.1354619" />
      <trkpt lat="46.0740719" lon="11.1354885" />
      <trkpt lat="46.0740773" lon="11.1355314" />
      <trkpt lat="46.0741071" lon="11.1355693" />
      <trkpt lat="46.0741170" lon="11.1356810" />
      <trkpt lat="46.0742594" lon="11.1359867" />
      <trkpt lat="46.0746562" lon="11.1366373" />
      <trkpt lat="46.0745655" lon="11.1366369" />
      <trkpt lat="46.0745196" lon="11.1366560" />
      <trkpt lat="46.0744338" lon="11.1366517" />
      <trkpt lat="46.0743371" lon="11.1366147" />
      <trkpt lat="46.0742772" lon="11.1366139" />
      <trkpt lat="46.0742412" lon="11.1365918" />
      <trkpt lat="46.0741793" lon="11.1365862" />
      <trkpt lat="46.0740415" lon="11.1365167" />
      <trkpt lat="46.0740065" lon="11.1364595" />
      <trkpt lat="46.0739459" lon="11.1364175" />
      <trkpt lat="46.0739526" lon="11.1364950" />
      <trkpt lat="46.0739777" lon="11.1365803" />
      <trkpt lat="46.0740037" lon="11.1366356" />
      <trkpt lat="46.0740433" lon="11.1366833" />
      <trkpt lat="46.0740070" lon="11.1366945" />
      <trkpt lat="46.0736938" lon="11.1366195" />
      <trkpt lat="46.0731277" lon="11.1365649" />
      <trkpt lat="46.0725438" lon="11.1364458" />
      <trkpt lat="46.0725207" lon="11.1364794" />
      <trkpt lat="46.0725592" lon="11.1365245" />
      <trkpt lat="46.0725902" lon="11.1365401" />
      <trkpt lat="46.0726159" lon="11.1365555" />
      <trkpt lat="46.0726894" lon="11.1366352" />
      <trkpt lat="46.0727209" lon="11.1366693" />
      <trkpt lat="46.0727481" lon="11.1367068" />
      <trkpt lat="46.0727602" lon="11.1367372" />
      <trkpt lat="46.0727662" lon="11.1367697" />
      <trkpt lat="46.0727701" lon="11.1368081" />
      <trkpt lat="46.0727696" lon="11.1368475" />
      <trkpt lat="46.0727695" lon="11.1369827" />
      <trkpt lat="46.0727687" lon="11.1370376" />
      <trkpt lat="46.0726708" lon="11.1369957" />
      <trkpt lat="46.0725372" lon="11.1367971" />
      <trkpt lat="46.0723811" lon="11.1366363" />
      <trkpt lat="46.0722278" lon="11.1365409" />
      <trkpt lat="46.0721584" lon="11.1365117" />
      <trkpt lat="46.0719604" lon="11.1364056" />
      <trkpt lat="46.0719336" lon="11.1364045" />
      <trkpt lat="46.0718642" lon="11.1364163" />
      <trkpt lat="46.0717685" lon="11.1364210" />
      <trkpt lat="46.0716956" lon="11.1365394" />
      <trkpt lat="46.0715862" lon="11.1365663" />
      <trkpt lat="46.0711961" lon="11.1364608" />
      <trkpt lat="46.0711575" lon="11.1364492" />
      <trkpt lat="46.0711071" lon="11.1364341" />
      <trkpt lat="46.0706039" lon="11.1364254" />
      <trkpt lat="46.0705297" lon="11.1364286" />
      <trkpt lat="46.0703298" lon="11.1364896" />
      <trkpt lat="46.0702114" lon="11.1365416" />
      <trkpt lat="46.0701192" lon="11.1365820" />
      <trkpt lat="46.0700460" lon="11.1366541" />
      <trkpt lat="46.0700738" lon="11.1366900" />
      <trkpt lat="46.0701039" lon="11.1367439" />
      <trkpt lat="46.0701257" lon="11.1368090" />
      <trkpt lat="46.0701448" lon="11.1368852" />
      <trkpt lat="46.0701570" lon="11.1369505" />
      <trkpt lat="46.0701570" lon="11.1370356" />
      <trkpt lat="46.0701431" lon="11.1371370" />
      <trkpt lat="46.0701308" lon="11.1371906" />
      <trkpt lat="46.0701083" lon="11.1372627" />
      <trkpt lat="46.0700454" lon="11.1373521" />
      <trkpt lat="46.0699721" lon="11.1374405" />
      <trkpt lat="46.0698819" lon="11.1374977" />
      <trkpt lat="46.0698198" lon="11.1375402" />
      <trkpt lat="46.0698888" lon="11.1376158" />
      <trkpt lat="46.0699840" lon="11.1377090" />
      <trkpt lat="46.0701465" lon="11.1379445" />
      <trkpt lat="46.0702877" lon="11.1382010" />
      <trkpt lat="46.0704281" lon="11.1383898" />
      <trkpt lat="46.0706095" lon="11.1385811" />
      <trkpt lat="46.0709193" lon="11.1387895" />
      <trkpt lat="46.0709660" lon="11.1388318" />
      <trkpt lat="46.0709747" lon="11.1388432" />
      <trkpt lat="46.0710097" lon="11.1388892" />
      <trkpt lat="46.0709834" lon="11.1389369" />
      <trkpt lat="46.0709190" lon="11.1390747" />
      <trkpt lat="46.0708768" lon="11.1391916" />
      <trkpt lat="46.0708580" lon="11.1392533" />
      <trkpt lat="46.0708143" lon="11.1394174" />
      <trkpt lat="46.0707597" lon="11.1396582" />
      <trkpt lat="46.0707402" lon="11.1397307" />
      <trkpt lat="46.0707200" lon="11.1397422" />
      <trkpt lat="46.0706886" lon="11.1397271" />
      <trkpt lat="46.0705907" lon="11.1396685" />
      <trkpt lat="46.0705379" lon="11.1396587" />
      <trkpt lat="46.0705247" lon="11.1397130" />
      <trkpt lat="46.0705031" lon="11.1397037" />
      <trkpt lat="46.0703121" lon="11.1396539" />
      <trkpt lat="46.0703134" lon="11.1396098" />
      <trkpt lat="46.0702364" lon="11.1395846" />
      <trkpt lat="46.0701449" lon="11.1395241" />
      <trkpt lat="46.0700563" lon="11.1394498" />
      <trkpt lat="46.0699293" lon="11.1393377" />
      <trkpt lat="46.0698404" lon="11.1392512" />
      <trkpt lat="46.0698212" lon="11.1392929" />
      <trkpt lat="46.0698003" lon="11.1393395" />
      <trkpt lat="46.0698377" lon="11.1393943" />
      <trkpt lat="46.0698553" lon="11.1394620" />
      <trkpt lat="46.0698507" lon="11.1395275" />
      <trkpt lat="46.0698315" lon="11.1395899" />
      <trkpt lat="46.0698229" lon="11.1396355" />
      <trkpt lat="46.0698185" lon="11.1397174" />
      <trkpt lat="46.0698059" lon="11.1397640" />
      <trkpt lat="46.0697822" lon="11.1398013" />
      <trkpt lat="46.0697477" lon="11.1398366" />
      <trkpt lat="46.0697309" lon="11.1398519" />
      <trkpt lat="46.0693467" lon="11.1402217" />
      <trkpt lat="46.0691523" lon="11.1403932" />
      <trkpt lat="46.0690268" lon="11.1404817" />
      <trkpt lat="46.0689239" lon="11.1405225" />
      <trkpt lat="46.0687962" lon="11.1405159" />
      <trkpt lat="46.0686438" lon="11.1404593" />
      <trkpt lat="46.0685824" lon="11.1403953" />
      <trkpt lat="46.0684844" lon="11.1403007" />
      <trkpt lat="46.0683336" lon="11.1400999" />
      <trkpt lat="46.0681065" lon="11.1397604" />
      <trkpt lat="46.0679872" lon="11.1395685" />
      <trkpt lat="46.0678802" lon="11.1393266" />
      <trkpt lat="46.0678210" lon="11.1391646" />
      <trkpt lat="46.0677186" lon="11.1390348" />
      <trkpt lat="46.0676024" lon="11.1389561" />
      <trkpt lat="46.0675009" lon="11.1389303" />
      <trkpt lat="46.0673799" lon="11.1389287" />
      <trkpt lat="46.0673314" lon="11.1389522" />
      <trkpt lat="46.0672992" lon="11.1389454" />
      <trkpt lat="46.0672751" lon="11.1389190" />
      <trkpt lat="46.0672485" lon="11.1389416" />
      <trkpt lat="46.0672539" lon="11.1389531" />
      <trkpt lat="46.0671918" lon="11.1390935" />
      <trkpt lat="46.0671556" lon="11.1391835" />
      <trkpt lat="46.0671415" lon="11.1392509" />
      <trkpt lat="46.0671392" lon="11.1392674" />
      <trkpt lat="46.0670604" lon="11.1399248" />
      <trkpt lat="46.0670387" lon="11.1400272" />
      <trkpt lat="46.0669918" lon="11.1401479" />
      <trkpt lat="46.0669426" lon="11.1402327" />
      <trkpt lat="46.0668823" lon="11.1402980" />
      <trkpt lat="46.0668318" lon="11.1403350" />
      <trkpt lat="46.0667766" lon="11.1403560" />
      <trkpt lat="46.0667169" lon="11.1403686" />
      <trkpt lat="46.0664866" lon="11.1403601" />
      <trkpt lat="46.0662558" lon="11.1404081" />
      <trkpt lat="46.0662142" lon="11.1404164" />
      <trkpt lat="46.0661717" lon="11.1403659" />
      <trkpt lat="46.0661112" lon="11.1402939" />
      <trkpt lat="46.0660630" lon="11.1402436" />
      <trkpt lat="46.0659066" lon="11.1400806" />
      <trkpt lat="46.0657812" lon="11.1399288" />
      <trkpt lat="46.0657686" lon="11.1399137" />
      <trkpt lat="46.0657630" lon="11.1399070" />
      <trkpt lat="46.0657187" lon="11.1398536" />
      <trkpt lat="46.0652521" lon="11.1393160" />
      <trkpt lat="46.0653871" lon="11.1389783" />
      <trkpt lat="46.0660191" lon="11.1390155" />
      <trkpt lat="46.0660903" lon="11.1390197" />
      <trkpt lat="46.0667294" lon="11.1390573" />
      <trkpt lat="46.0668825" lon="11.1390605" />
      <trkpt lat="46.0670358" lon="11.1390638" />
      <trkpt lat="46.0670461" lon="11.1390656" />
      <trkpt lat="46.0670504" lon="11.1389100" />
      <trkpt lat="46.0670564" lon="11.1388956" />
      <trkpt lat="46.0670679" lon="11.1388899" />
      <trkpt lat="46.0671999" lon="11.1388958" />
      <trkpt lat="46.0672029" lon="11.1389612" />
      <trkpt lat="46.0672167" lon="11.1389683" />
      <trkpt lat="46.0672485" lon="11.1389416" />
      <trkpt lat="46.0672018" lon="11.1388340" />
      <trkpt lat="46.0672139" lon="11.1384187" />
      <trkpt lat="46.0672428" lon="11.1381262" />
      <trkpt lat="46.0672673" lon="11.1379769" />
      <trkpt lat="46.0672811" lon="11.1379453" />
      <trkpt lat="46.0673044" lon="11.1379228" />
      <trkpt lat="46.0673215" lon="11.1378986" />
      <trkpt lat="46.0673516" lon="11.1378834" />
      <trkpt lat="46.0674531" lon="11.1378712" />
      <trkpt lat="46.0674652" lon="11.1378492" />
      <trkpt lat="46.0674668" lon="11.1378283" />
      <trkpt lat="46.0674599" lon="11.1378120" />
      <trkpt lat="46.0674480" lon="11.1377871" />
      <trkpt lat="46.0674043" lon="11.1377294" />
      <trkpt lat="46.0672839" lon="11.1375703" />
      <trkpt lat="46.0672729" lon="11.1375606" />
      <trkpt lat="46.0672583" lon="11.1375544" />
      <trkpt lat="46.0672417" lon="11.1375601" />
      <trkpt lat="46.0672260" lon="11.1375704" />
      <trkpt lat="46.0671903" lon="11.1376082" />
      <trkpt lat="46.0671660" lon="11.1376322" />
      <trkpt lat="46.0671663" lon="11.1375921" />
      <trkpt lat="46.0670657" lon="11.1376903" />
      <trkpt lat="46.0669617" lon="11.1377731" />
      <trkpt lat="46.0668245" lon="11.1378579" />
      <trkpt lat="46.0668019" lon="11.1378600" />
      <trkpt lat="46.0667790" lon="11.1378516" />
      <trkpt lat="46.0667629" lon="11.1378286" />
      <trkpt lat="46.0667579" lon="11.1377948" />
      <trkpt lat="46.0667569" lon="11.1377711" />
      <trkpt lat="46.0667605" lon="11.1377435" />
      <trkpt lat="46.0667909" lon="11.1377035" />
      <trkpt lat="46.0669565" lon="11.1373186" />
      <trkpt lat="46.0669485" lon="11.1370766" />
      <trkpt lat="46.0669119" lon="11.1370406" />
      <trkpt lat="46.0668957" lon="11.1370294" />
      <trkpt lat="46.0668630" lon="11.1370144" />
      <trkpt lat="46.0668043" lon="11.1369847" />
      <trkpt lat="46.0667427" lon="11.1369357" />
      <trkpt lat="46.0666097" lon="11.1367658" />
      <trkpt lat="46.0666011" lon="11.1367615" />
      <trkpt lat="46.0665653" lon="11.1367554" />
      <trkpt lat="46.0664807" lon="11.1367333" />
      <trkpt lat="46.0663618" lon="11.1366839" />
      <trkpt lat="46.0663092" lon="11.1366570" />
      <trkpt lat="46.0662155" lon="11.1365977" />
      <trkpt lat="46.0661586" lon="11.1365284" />
      <trkpt lat="46.0660516" lon="11.1363747" />
      <trkpt lat="46.0659041" lon="11.1361217" />
      <trkpt lat="46.0658664" lon="11.1360698" />
      <trkpt lat="46.0657572" lon="11.1359521" />
      <trkpt lat="46.0657467" lon="11.1358838" />
      <trkpt lat="46.0657128" lon="11.1358240" />
      <trkpt lat="46.0657114" lon="11.1358023" />
      <trkpt lat="46.0659518" lon="11.1360367" />
      <trkpt lat="46.0662916" lon="11.1362363" />
      <trkpt lat="46.0663071" lon="11.1362447" />
      <trkpt lat="46.0663281" lon="11.1362580" />
      <trkpt lat="46.0663628" lon="11.1362939" />
      <trkpt lat="46.0664010" lon="11.1363412" />
      <trkpt lat="46.0665063" lon="11.1363960" />
      <trkpt lat="46.0665158" lon="11.1363369" />
      <trkpt lat="46.0665786" lon="11.1363592" />
      <trkpt lat="46.0666597" lon="11.1363567" />
      <trkpt lat="46.0668339" lon="11.1363302" />
      <trkpt lat="46.0673964" lon="11.1362654" />
      <trkpt lat="46.0677502" lon="11.1362150" />
      <trkpt lat="46.0677448" lon="11.1361762" />
      <trkpt lat="46.0677249" lon="11.1359926" />
      <trkpt lat="46.0676889" lon="11.1357717" />
      <trkpt lat="46.0677249" lon="11.1359926" />
      <trkpt lat="46.0677448" lon="11.1361762" />
      <trkpt lat="46.0677502" lon="11.1362150" />
      <trkpt lat="46.0673964" lon="11.1362654" />
      <trkpt lat="46.0668339" lon="11.1363302" />
      <trkpt lat="46.0666597" lon="11.1363567" />
      <trkpt lat="46.0665786" lon="11.1363592" />
      <trkpt lat="46.0665158" lon="11.1363369" />
      <trkpt lat="46.0664309" lon="11.1362988" />
      <trkpt lat="46.0663878" lon="11.1362547" />
      <trkpt lat="46.0663426" lon="11.1361849" />
      <trkpt lat="46.0662574" lon="11.1360370" />
      <trkpt lat="46.0661257" lon="11.1358238" />
      <trkpt lat="46.0660265" lon="11.1356395" />
      <trkpt lat="46.0659865" lon="11.1355516" />
      <trkpt lat="46.0659547" lon="11.1354532" />
      <trkpt lat="46.0658105" lon="11.1347412" />
      <trkpt lat="46.0658057" lon="11.1347176" />
      <trkpt lat="46.0657741" lon="11.1344539" />
      <trkpt lat="46.0657771" lon="11.1342867" />
      <trkpt lat="46.0657826" lon="11.1341633" />
      <trkpt lat="46.0657486" lon="11.1341604" />
      <trkpt lat="46.0656665" lon="11.1342993" />
      <trkpt lat="46.0654969" lon="11.1344635" />
      <trkpt lat="46.0653728" lon="11.1345987" />
      <trkpt lat="46.0653116" lon="11.1347093" />
      <trkpt lat="46.0653027" lon="11.1347458" />
      <trkpt lat="46.0652661" lon="11.1347473" />
      <trkpt lat="46.0652515" lon="11.1347479" />
      <trkpt lat="46.0652528" lon="11.1348082" />
      <trkpt lat="46.0652582" lon="11.1349182" />
      <trkpt lat="46.0652307" lon="11.1351489" />
      <trkpt lat="46.0652257" lon="11.1353185" />
      <trkpt lat="46.0652294" lon="11.1353876" />
      <trkpt lat="46.0651993" lon="11.1354464" />
      <trkpt lat="46.0651792" lon="11.1354971" />
      <trkpt lat="46.0652385" lon="11.1356027" />
      <trkpt lat="46.0653527" lon="11.1357398" />
      <trkpt lat="46.0654131" lon="11.1357890" />
      <trkpt lat="46.0654938" lon="11.1358506" />
      <trkpt lat="46.0655964" lon="11.1359023" />
      <trkpt lat="46.0656340" lon="11.1359161" />
      <trkpt lat="46.0657268" lon="11.1359380" />
      <trkpt lat="46.0657572" lon="11.1359521" />
      <trkpt lat="46.0658664" lon="11.1360698" />
      <trkpt lat="46.0659041" lon="11.1361217" />
      <trkpt lat="46.0660516" lon="11.1363747" />
      <trkpt lat="46.0661586" lon="11.1365284" />
      <trkpt lat="46.0662155" lon="11.1365977" />
      <trkpt lat="46.0663092" lon="11.1366570" />
      <trkpt lat="46.0663618" lon="11.1366839" />
      <trkpt lat="46.0664807" lon="11.1367333" />
      <trkpt lat="46.0665653" lon="11.1367554" />
      <trkpt lat="46.0666011" lon="11.1367615" />
      <trkpt lat="46.0666097" lon="11.1367658" />
      <trkpt lat="46.0667427" lon="11.1369357" />
      <trkpt lat="46.0668043" lon="11.1369847" />
      <trkpt lat="46.0668630" lon="11.1370144" />
      <trkpt lat="46.0668957" lon="11.1370294" />
      <trkpt lat="46.0669119" lon="11.1370406" />
      <trkpt lat="46.0669262" lon="11.1371301" />
      <trkpt lat="46.0669392" lon="11.1372900" />
      <trkpt lat="46.0669366" lon="11.1373238" />
      <trkpt lat="46.0667928" lon="11.1376497" />
      <trkpt lat="46.0667622" lon="11.1376849" />
      <trkpt lat="46.0667396" lon="11.1377101" />
      <trkpt lat="46.0667252" lon="11.1377652" />
      <trkpt lat="46.0667252" lon="11.1378211" />
      <trkpt lat="46.0667303" lon="11.1378635" />
      <trkpt lat="46.0667497" lon="11.1378942" />
      <trkpt lat="46.0667853" lon="11.1379095" />
      <trkpt lat="46.0668210" lon="11.1379077" />
      <trkpt lat="46.0669672" lon="11.1378062" />
      <trkpt lat="46.0670802" lon="11.1377169" />
      <trkpt lat="46.0671660" lon="11.1376322" />
      <trkpt lat="46.0671663" lon="11.1375921" />
      <trkpt lat="46.0671988" lon="11.1375605" />
      <trkpt lat="46.0672370" lon="11.1375263" />
      <trkpt lat="46.0672487" lon="11.1375201" />
      <trkpt lat="46.0672612" lon="11.1375183" />
      <trkpt lat="46.0672737" lon="11.1375247" />
      <trkpt lat="46.0672873" lon="11.1375379" />
      <trkpt lat="46.0674334" lon="11.1377372" />
      <trkpt lat="46.0674645" lon="11.1377797" />
      <trkpt lat="46.0674781" lon="11.1378045" />
      <trkpt lat="46.0674844" lon="11.1378302" />
      <trkpt lat="46.0674839" lon="11.1378480" />
      <trkpt lat="46.0674755" lon="11.1378670" />
      <trkpt lat="46.0674600" lon="11.1378857" />
      <trkpt lat="46.0673334" lon="11.1379089" />
      <trkpt lat="46.0673044" lon="11.1379228" />
      <trkpt lat="46.0672811" lon="11.1379453" />
      <trkpt lat="46.0672673" lon="11.1379769" />
      <trkpt lat="46.0672428" lon="11.1381262" />
      <trkpt lat="46.0672139" lon="11.1384187" />
      <trkpt lat="46.0672018" lon="11.1388340" />
      <trkpt lat="46.0672485" lon="11.1389416" />
      <trkpt lat="46.0672539" lon="11.1389531" />
      <trkpt lat="46.0671918" lon="11.1390935" />
      <trkpt lat="46.0671750" lon="11.1390879" />
      <trkpt lat="46.0670461" lon="11.1390656" />
      <trkpt lat="46.0670358" lon="11.1390638" />
      <trkpt lat="46.0668825" lon="11.1390605" />
      <trkpt lat="46.0667294" lon="11.1390573" />
      <trkpt lat="46.0660903" lon="11.1390197" />
      <trkpt lat="46.0660191" lon="11.1390155" />
      <trkpt lat="46.0653871" lon="11.1389783" />
      <trkpt lat="46.0652670" lon="11.1385947" />
      <trkpt lat="46.0651723" lon="11.1384323" />
      <trkpt lat="46.0650432" lon="11.1383625" />
      <trkpt lat="46.0649079" lon="11.1382576" />
      <trkpt lat="46.0647679" lon="11.1382004" />
      <trkpt lat="46.0646412" lon="11.1381976" />
      <trkpt lat="46.0647679" lon="11.1382004" />
      <trkpt lat="46.0649079" lon="11.1382576" />
      <trkpt lat="46.0650432" lon="11.1383625" />
      <trkpt lat="46.0651723" lon="11.1384323" />
      <trkpt lat="46.0652670" lon="11.1385947" />
      <trkpt lat="46.0653871" lon="11.1389783" />
      <trkpt lat="46.0652521" lon="11.1393160" />
      <trkpt lat="46.0657187" lon="11.1398536" />
      <trkpt lat="46.0657630" lon="11.1399070" />
      <trkpt lat="46.0657686" lon="11.1399137" />
      <trkpt lat="46.0657630" lon="11.1399070" />
      <trkpt lat="46.0657187" lon="11.1398536" />
      <trkpt lat="46.0652521" lon="11.1393160" />
      <trkpt lat="46.0651992" lon="11.1394636" />
      <trkpt lat="46.0650700" lon="11.1395427" />
      <trkpt lat="46.0650187" lon="11.1395761" />
      <trkpt lat="46.0649060" lon="11.1396495" />
      <trkpt lat="46.0644162" lon="11.1399464" />
      <trkpt lat="46.0642929" lon="11.1400910" />
      <trkpt lat="46.0642570" lon="11.1401823" />
      <trkpt lat="46.0643090" lon="11.1402133" />
      <trkpt lat="46.0645244" lon="11.1404727" />
      <trkpt lat="46.0647590" lon="11.1408660" />
      <trkpt lat="46.0649791" lon="11.1411218" />
      <trkpt lat="46.0650524" lon="11.1411580" />
      <trkpt lat="46.0650618" lon="11.1411617" />
      <trkpt lat="46.0650959" lon="11.1411753" />
      <trkpt lat="46.0651478" lon="11.1408897" />
      <trkpt lat="46.0651878" lon="11.1407796" />
      <trkpt lat="46.0652271" lon="11.1407155" />
      <trkpt lat="46.0652736" lon="11.1406627" />
      <trkpt lat="46.0653293" lon="11.1406239" />
      <trkpt lat="46.0654167" lon="11.1406029" />
      <trkpt lat="46.0659632" lon="11.1405373" />
      <trkpt lat="46.0660949" lon="11.1405165" />
      <trkpt lat="46.0661054" lon="11.1405686" />
      <trkpt lat="46.0662319" lon="11.1405325" />
      <trkpt lat="46.0663794" lon="11.1404936" />
      <trkpt lat="46.0664318" lon="11.1404857" />
      <trkpt lat="46.0665034" lon="11.1404842" />
      <trkpt lat="46.0666887" lon="11.1404974" />
      <trkpt lat="46.0667662" lon="11.1404986" />
      <trkpt lat="46.0668168" lon="11.1404914" />
      <trkpt lat="46.0668831" lon="11.1404736" />
      <trkpt lat="46.0669525" lon="11.1404574" />
      <trkpt lat="46.0669939" lon="11.1404220" />
      <trkpt lat="46.0670138" lon="11.1403635" />
      <trkpt lat="46.0670885" lon="11.1402487" />
      <trkpt lat="46.0671225" lon="11.1401527" />
      <trkpt lat="46.0671351" lon="11.1400933" />
      <trkpt lat="46.0671543" lon="11.1399549" />
      <trkpt lat="46.0671904" lon="11.1398173" />
      <trkpt lat="46.0672216" lon="11.1395758" />
      <trkpt lat="46.0672267" lon="11.1393427" />
      <trkpt lat="46.0672342" lon="11.1393047" />
      <trkpt lat="46.0671856" lon="11.1392856" />
      <trkpt lat="46.0671392" lon="11.1392674" />
      <trkpt lat="46.0671415" lon="11.1392509" />
      <trkpt lat="46.0671556" lon="11.1391835" />
      <trkpt lat="46.0671918" lon="11.1390935" />
      <trkpt lat="46.0672539" lon="11.1389531" />
      <trkpt lat="46.0672485" lon="11.1389416" />
      <trkpt lat="46.0672018" lon="11.1388340" />
      <trkpt lat="46.0672139" lon="11.1384187" />
      <trkpt lat="46.0672428" lon="11.1381262" />
      <trkpt lat="46.0672673" lon="11.1379769" />
      <trkpt lat="46.0672811" lon="11.1379453" />
      <trkpt lat="46.0673044" lon="11.1379228" />
      <trkpt lat="46.0673215" lon="11.1378986" />
      <trkpt lat="46.0673516" lon="11.1378834" />
      <trkpt lat="46.0674531" lon="11.1378712" />
      <trkpt lat="46.0674652" lon="11.1378492" />
      <trkpt lat="46.0674668" lon="11.1378283" />
      <trkpt lat="46.0674599" lon="11.1378120" />
      <trkpt lat="46.0674480" lon="11.1377871" />
      <trkpt lat="46.0674043" lon="11.1377294" />
      <trkpt lat="46.0672839" lon="11.1375703" />
      <trkpt lat="46.0672729" lon="11.1375606" />
      <trkpt lat="46.0672583" lon="11.1375544" />
      <trkpt lat="46.0672417" lon="11.1375601" />
      <trkpt lat="46.0672260" lon="11.1375704" />
      <trkpt lat="46.0671903" lon="11.1376082" />
      <trkpt lat="46.0671660" lon="11.1376322" />
      <trkpt lat="46.0671663" lon="11.1375921" />
      <trkpt lat="46.0670657" lon="11.1376903" />
      <trkpt lat="46.0669617" lon="11.1377731" />
      <trkpt lat="46.0668245" lon="11.1378579" />
      <trkpt lat="46.0668019" lon="11.1378600" />
      <trkpt lat="46.0667790" lon="11.1378516" />
      <trkpt lat="46.0667629" lon="11.1378286" />
      <trkpt lat="46.0667579" lon="11.1377948" />
      <trkpt lat="46.0667569" lon="11.1377711" />
      <trkpt lat="46.0667605" lon="11.1377435" />
      <trkpt lat="46.0667909" lon="11.1377035" />
      <trkpt lat="46.0669565" lon="11.1373186" />
      <trkpt lat="46.0669485" lon="11.1370766" />
      <trkpt lat="46.0669119" lon="11.1370406" />
      <trkpt lat="46.0668957" lon="11.1370294" />
      <trkpt lat="46.0668630" lon="11.1370144" />
      <trkpt lat="46.0668043" lon="11.1369847" />
      <trkpt lat="46.0667427" lon="11.1369357" />
      <trkpt lat="46.0666097" lon="11.1367658" />
      <trkpt lat="46.0666011" lon="11.1367615" />
      <trkpt lat="46.0665653" lon="11.1367554" />
      <trkpt lat="46.0664807" lon="11.1367333" />
      <trkpt lat="46.0663618" lon="11.1366839" />
      <trkpt lat="46.0663092" lon="11.1366570" />
      <trkpt lat="46.0662155" lon="11.1365977" />
      <trkpt lat="46.0661586" lon="11.1365284" />
      <trkpt lat="46.0660516" lon="11.1363747" />
      <trkpt lat="46.0659041" lon="11.1361217" />
      <trkpt lat="46.0658664" lon="11.1360698" />
      <trkpt lat="46.0657572" lon="11.1359521" />
      <trkpt lat="46.0657467" lon="11.1358838" />
      <trkpt lat="46.0657128" lon="11.1358240" />
      <trkpt lat="46.0657114" lon="11.1358023" />
      <trkpt lat="46.0655347" lon="11.1357705" />
      <trkpt lat="46.0654566" lon="11.1357405" />
      <trkpt lat="46.0653233" lon="11.1356535" />
      <trkpt lat="46.0652385" lon="11.1356027" />
      <trkpt lat="46.0651792" lon="11.1354971" />
      <trkpt lat="46.0651491" lon="11.1354441" />
      <trkpt lat="46.0651249" lon="11.1354976" />
      <trkpt lat="46.0649644" lon="11.1357256" />
      <trkpt lat="46.0643409" lon="11.1348178" />
      <trkpt lat="46.0643205" lon="11.1347881" />
      <trkpt lat="46.0638501" lon="11.1341032" />
      <trkpt lat="46.0634498" lon="11.1335695" />
      <trkpt lat="46.0634327" lon="11.1335414" />
      <trkpt lat="46.0627461" lon="11.1325372" />
      <trkpt lat="46.0626988" lon="11.1324875" />
      <trkpt lat="46.0626599" lon="11.1324203" />
      <trkpt lat="46.0626157" lon="11.1324476" />
      <trkpt lat="46.0625831" lon="11.1323963" />
      <trkpt lat="46.0625490" lon="11.1323468" />
      <trkpt lat="46.0625395" lon="11.1323605" />
      <trkpt lat="46.0623901" lon="11.1325725" />
      <trkpt lat="46.0623639" lon="11.1326076" />
      <trkpt lat="46.0623295" lon="11.1326527" />
      <trkpt lat="46.0621656" lon="11.1328847" />
      <trkpt lat="46.0619859" lon="11.1331439" />
      <trkpt lat="46.0619225" lon="11.1332358" />
      <trkpt lat="46.0617879" lon="11.1334447" />
      <trkpt lat="46.0617582" lon="11.1335255" />
      <trkpt lat="46.0617430" lon="11.1335854" />
      <trkpt lat="46.0617299" lon="11.1336546" />
      <trkpt lat="46.0617257" lon="11.1337179" />
      <trkpt lat="46.0617259" lon="11.1338428" />
      <trkpt lat="46.0617249" lon="11.1344615" />
      <trkpt lat="46.0617236" lon="11.1351221" />
      <trkpt lat="46.0617233" lon="11.1353284" />
      <trkpt lat="46.0617225" lon="11.1357159" />
      <trkpt lat="46.0617213" lon="11.1364198" />
      <trkpt lat="46.0617183" lon="11.1365075" />
      <trkpt lat="46.0617241" lon="11.1365907" />
      <trkpt lat="46.0617325" lon="11.1366438" />
      <trkpt lat="46.0617524" lon="11.1367326" />
      <trkpt lat="46.0617275" lon="11.1367595" />
      <trkpt lat="46.0616980" lon="11.1367922" />
      <trkpt lat="46.0617133" lon="11.1368684" />
      <trkpt lat="46.0617253" lon="11.1369144" />
      <trkpt lat="46.0616005" lon="11.1369625" />
      <trkpt lat="46.0615403" lon="11.1369863" />
      <trkpt lat="46.0615290" lon="11.1369905" />
      <trkpt lat="46.0613574" lon="11.1370576" />
      <trkpt lat="46.0612307" lon="11.1371853" />
      <trkpt lat="46.0611738" lon="11.1372161" />
      <trkpt lat="46.0611454" lon="11.1373002" />
      <trkpt lat="46.0610228" lon="11.1374549" />
      <trkpt lat="46.0610091" lon="11.1375070" />
      <trkpt lat="46.0611517" lon="11.1375847" />
      <trkpt lat="46.0611709" lon="11.1376187" />
      <trkpt lat="46.0610518" lon="11.1376704" />
      <trkpt lat="46.0610410" lon="11.1377129" />
      <trkpt lat="46.0611079" lon="11.1377738" />
      <trkpt lat="46.0611256" lon="11.1378342" />
      <trkpt lat="46.0610636" lon="11.1379149" />
      <trkpt lat="46.0609697" lon="11.1379434" />
      <trkpt lat="46.0608906" lon="11.1380227" />
      <trkpt lat="46.0608952" lon="11.1381229" />
      <trkpt lat="46.0607369" lon="11.1382324" />
      <trkpt lat="46.0606145" lon="11.1382739" />
      <trkpt lat="46.0605754" lon="11.1382871" />
      <trkpt lat="46.0604235" lon="11.1383328" />
      <trkpt lat="46.0602715" lon="11.1384195" />
      <trkpt lat="46.0602050" lon="11.1384560" />
      <trkpt lat="46.0601005" lon="11.1384377" />
      <trkpt lat="46.0599676" lon="11.1383921" />
      <trkpt lat="46.0595928" lon="11.1380522" />
      <trkpt lat="46.0594564" lon="11.1379254" />
      <trkpt lat="46.0592231" lon="11.1378223" />
      <trkpt lat="46.0591153" lon="11.1378001" />
      <trkpt lat="46.0589703" lon="11.1378355" />
      <trkpt lat="46.0588770" lon="11.1378790" />
      <trkpt lat="46.0590271" lon="11.1381067" />
      <trkpt lat="46.0592211" lon="11.1384134" />
      <trkpt lat="46.0593663" lon="11.1386441" />
      <trkpt lat="46.0594166" lon="11.1386989" />
      <trkpt lat="46.0590787" lon="11.1386749" />
      <trkpt lat="46.0588973" lon="11.1386695" />
      <trkpt lat="46.0588422" lon="11.1386697" />
      <trkpt lat="46.0587176" lon="11.1386400" />
      <trkpt lat="46.0587605" lon="11.1386991" />
      <trkpt lat="46.0588572" lon="11.1387889" />
      <trkpt lat="46.0589038" lon="11.1388519" />
      <trkpt lat="46.0589298" lon="11.1389163" />
      <trkpt lat="46.0589294" lon="11.1389282" />
      <trkpt lat="46.0589280" lon="11.1389726" />
      <trkpt lat="46.0589001" lon="11.1391228" />
      <trkpt lat="46.0588572" lon="11.1393012" />
      <trkpt lat="46.0588591" lon="11.1394353" />
      <trkpt lat="46.0588824" lon="11.1394796" />
      <trkpt lat="46.0589819" lon="11.1395654" />
      <trkpt lat="46.0592490" lon="11.1397277" />
      <trkpt lat="46.0595077" lon="11.1398873" />
      <trkpt lat="46.0597590" lon="11.1400656" />
      <trkpt lat="46.0598446" lon="11.1401635" />
      <trkpt lat="46.0599107" lon="11.1403204" />
      <trkpt lat="46.0598446" lon="11.1401635" />
      <trkpt lat="46.0597590" lon="11.1400656" />
      <trkpt lat="46.0595077" lon="11.1398873" />
      <trkpt lat="46.0592490" lon="11.1397277" />
      <trkpt lat="46.0589819" lon="11.1395654" />
      <trkpt lat="46.0588824" lon="11.1394796" />
      <trkpt lat="46.0588591" lon="11.1394353" />
      <trkpt lat="46.0588572" lon="11.1393012" />
      <trkpt lat="46.0589001" lon="11.1391228" />
      <trkpt lat="46.0589280" lon="11.1389726" />
      <trkpt lat="46.0589294" lon="11.1389282" />
      <trkpt lat="46.0589298" lon="11.1389163" />
      <trkpt lat="46.0589038" lon="11.1388519" />
      <trkpt lat="46.0588572" lon="11.1387889" />
      <trkpt lat="46.0587605" lon="11.1386991" />
      <trkpt lat="46.0587176" lon="11.1386400" />
      <trkpt lat="46.0585413" lon="11.1385931" />
      <trkpt lat="46.0584599" lon="11.1385489" />
      <trkpt lat="46.0584096" lon="11.1385006" />
      <trkpt lat="46.0583861" lon="11.1384599" />
      <trkpt lat="46.0583542" lon="11.1384048" />
      <trkpt lat="46.0583143" lon="11.1382999" />
      <trkpt lat="46.0584846" lon="11.1381366" />
      <trkpt lat="46.0586639" lon="11.1380152" />
      <trkpt lat="46.0588595" lon="11.1378871" />
      <trkpt lat="46.0588770" lon="11.1378790" />
      <trkpt lat="46.0589703" lon="11.1378355" />
      <trkpt lat="46.0591153" lon="11.1378001" />
      <trkpt lat="46.0592231" lon="11.1378223" />
      <trkpt lat="46.0594564" lon="11.1379254" />
      <trkpt lat="46.0595180" lon="11.1381490" />
      <trkpt lat="46.0596038" lon="11.1383091" />
      <trkpt lat="46.0597050" lon="11.1384043" />
      <trkpt lat="46.0598074" lon="11.1385279" />
      <trkpt lat="46.0598789" lon="11.1386437" />
      <trkpt lat="46.0599676" lon="11.1386795" />
      <trkpt lat="46.0601670" lon="11.1386886" />
      <trkpt lat="46.0603506" lon="11.1386704" />
      <trkpt lat="46.0605438" lon="11.1386293" />
      <trkpt lat="46.0607305" lon="11.1385746" />
      <trkpt lat="46.0608335" lon="11.1385586" />
      <trkpt lat="46.0609176" lon="11.1385217" />
      <trkpt lat="46.0609285" lon="11.1384453" />
      <trkpt lat="46.0608920" lon="11.1383483" />
      <trkpt lat="46.0609637" lon="11.1382993" />
      <trkpt lat="46.0610414" lon="11.1382398" />
      <trkpt lat="46.0610371" lon="11.1381718" />
      <trkpt lat="46.0609677" lon="11.1381308" />
      <trkpt lat="46.0609205" lon="11.1381487" />
      <trkpt lat="46.0608952" lon="11.1381229" />
      <trkpt lat="46.0608906" lon="11.1380227" />
      <trkpt lat="46.0607935" lon="11.1380727" />
      <trkpt lat="46.0605306" lon="11.1381591" />
      <trkpt lat="46.0602890" lon="11.1379101" />
      <trkpt lat="46.0603436" lon="11.1376869" />
      <trkpt lat="46.0603942" lon="11.1376034" />
      <trkpt lat="46.0603984" lon="11.1375821" />
      <trkpt lat="46.0604100" lon="11.1375609" />
      <trkpt lat="46.0604626" lon="11.1375336" />
      <trkpt lat="46.0608002" lon="11.1374043" />
      <trkpt lat="46.0609712" lon="11.1373131" />
      <trkpt lat="46.0611738" lon="11.1372161" />
      <trkpt lat="46.0612307" lon="11.1371853" />
      <trkpt lat="46.0613574" lon="11.1370576" />
      <trkpt lat="46.0615290" lon="11.1369905" />
      <trkpt lat="46.0615403" lon="11.1369863" />
      <trkpt lat="46.0615438" lon="11.1370079" />
      <trkpt lat="46.0617279" lon="11.1369431" />
      <trkpt lat="46.0617253" lon="11.1369144" />
      <trkpt lat="46.0617682" lon="11.1368963" />
      <trkpt lat="46.0617786" lon="11.1368905" />
      <trkpt lat="46.0617867" lon="11.1368699" />
      <trkpt lat="46.0617942" lon="11.1368406" />
      <trkpt lat="46.0617927" lon="11.1368040" />
      <trkpt lat="46.0617741" lon="11.1367771" />
      <trkpt lat="46.0617524" lon="11.1367326" />
      <trkpt lat="46.0617788" lon="11.1367042" />
      <trkpt lat="46.0617772" lon="11.1366769" />
      <trkpt lat="46.0617756" lon="11.1366391" />
      <trkpt lat="46.0617741" lon="11.1354702" />
      <trkpt lat="46.0617755" lon="11.1354385" />
      <trkpt lat="46.0617812" lon="11.1354195" />
      <trkpt lat="46.0617787" lon="11.1353272" />
      <trkpt lat="46.0617788" lon="11.1352383" />
      <trkpt lat="46.0617715" lon="11.1352172" />
      <trkpt lat="46.0617674" lon="11.1351962" />
      <trkpt lat="46.0617683" lon="11.1351226" />
      <trkpt lat="46.0617236" lon="11.1351221" />
      <trkpt lat="46.0616740" lon="11.1351219" />
      <trkpt lat="46.0616695" lon="11.1352707" />
      <trkpt lat="46.0612060" lon="11.1352626" />
      <trkpt lat="46.0611598" lon="11.1352591" />
      <trkpt lat="46.0607498" lon="11.1352484" />
      <trkpt lat="46.0607080" lon="11.1352450" />
      <trkpt lat="46.0606831" lon="11.1352438" />
      <trkpt lat="46.0606871" lon="11.1342698" />
      <trkpt lat="46.0606885" lon="11.1342418" />
      <trkpt lat="46.0602959" lon="11.1342000" />
      <trkpt lat="46.0602552" lon="11.1341950" />
      <trkpt lat="46.0602762" lon="11.1334461" />
      <trkpt lat="46.0602801" lon="11.1333566" />
      <trkpt lat="46.0602862" lon="11.1332752" />
      <trkpt lat="46.0603242" lon="11.1332779" />
      <trkpt lat="46.0603285" lon="11.1332906" />
      <trkpt lat="46.0603378" lon="11.1333032" />
      <trkpt lat="46.0607970" lon="11.1333795" />
      <trkpt lat="46.0608053" lon="11.1333708" />
      <trkpt lat="46.0608359" lon="11.1333736" />
      <trkpt lat="46.0608645" lon="11.1333786" />
      <trkpt lat="46.0608869" lon="11.1330510" />
      <trkpt lat="46.0609854" lon="11.1325769" />
      <trkpt lat="46.0610885" lon="11.1323311" />
      <trkpt lat="46.0611031" lon="11.1323063" />
      <trkpt lat="46.0611085" lon="11.1323042" />
      <trkpt lat="46.0611154" lon="11.1323081" />
      <trkpt lat="46.0611367" lon="11.1323275" />
      <trkpt lat="46.0611542" lon="11.1322911" />
      <trkpt lat="46.0611767" lon="11.1322434" />
      <trkpt lat="46.0612873" lon="11.1323476" />
      <trkpt lat="46.0613843" lon="11.1324437" />
      <trkpt lat="46.0614777" lon="11.1325517" />
      <trkpt lat="46.0616471" lon="11.1327493" />
      <trkpt lat="46.0617625" lon="11.1329074" />
      <trkpt lat="46.0617667" lon="11.1329135" />
      <trkpt lat="46.0618887" lon="11.1330891" />
      <trkpt lat="46.0619025" lon="11.1331091" />
      <trkpt lat="46.0619105" lon="11.1331109" />
      <trkpt lat="46.0619197" lon="11.1331056" />
      <trkpt lat="46.0619413" lon="11.1330774" />
      <trkpt lat="46.0620370" lon="11.1329306" />
      <trkpt lat="46.0622779" lon="11.1326093" />
      <trkpt lat="46.0622892" lon="11.1325924" />
      <trkpt lat="46.0623038" lon="11.1325700" />
      <trkpt lat="46.0623207" lon="11.1325455" />
      <trkpt lat="46.0623369" lon="11.1325221" />
      <trkpt lat="46.0623486" lon="11.1325230" />
      <trkpt lat="46.0623568" lon="11.1325238" />
      <trkpt lat="46.0625078" lon="11.1323125" />
      <trkpt lat="46.0625165" lon="11.1323004" />
      <trkpt lat="46.0625490" lon="11.1323468" />
      <trkpt lat="46.0625891" lon="11.1322896" />
      <trkpt lat="46.0626059" lon="11.1323037" />
      <trkpt lat="46.0626306" lon="11.1323129" />
      <trkpt lat="46.0626560" lon="11.1323093" />
      <trkpt lat="46.0626791" lon="11.1322935" />
      <trkpt lat="46.0626880" lon="11.1322823" />
      <trkpt lat="46.0626969" lon="11.1322672" />
      <trkpt lat="46.0627050" lon="11.1322446" />
      <trkpt lat="46.0627418" lon="11.1322277" />
      <trkpt lat="46.0628044" lon="11.1321806" />
      <trkpt lat="46.0628677" lon="11.1321075" />
      <trkpt lat="46.0630161" lon="11.1319521" />
      <trkpt lat="46.0631302" lon="11.1318327" />
      <trkpt lat="46.0633533" lon="11.1316443" />
      <trkpt lat="46.0635190" lon="11.1315044" />
      <trkpt lat="46.0635280" lon="11.1314968" />
      <trkpt lat="46.0636982" lon="11.1313977" />
      <trkpt lat="46.0637928" lon="11.1313256" />
      <trkpt lat="46.0638111" lon="11.1312911" />
      <trkpt lat="46.0638292" lon="11.1312810" />
      <trkpt lat="46.0638505" lon="11.1312711" />
      <trkpt lat="46.0640542" lon="11.1311967" />
      <trkpt lat="46.0642660" lon="11.1311712" />
      <trkpt lat="46.0643067" lon="11.1311791" />
      <trkpt lat="46.0643904" lon="11.1312045" />
      <trkpt lat="46.0647525" lon="11.1314023" />
      <trkpt lat="46.0647706" lon="11.1313306" />
      <trkpt lat="46.0647513" lon="11.1313199" />
      <trkpt lat="46.0644093" lon="11.1311305" />
      <trkpt lat="46.0643221" lon="11.1310822" />
      <trkpt lat="46.0643248" lon="11.1310385" />
      <trkpt lat="46.0643277" lon="11.1310006" />
      <trkpt lat="46.0643312" lon="11.1309593" />
      <trkpt lat="46.0643782" lon="11.1304176" />
      <trkpt lat="46.0643810" lon="11.1304035" />
      <trkpt lat="46.0643886" lon="11.1303664" />
      <trkpt lat="46.0643975" lon="11.1303232" />
      <trkpt lat="46.0645117" lon="11.1298516" />
      <trkpt lat="46.0645738" lon="11.1295950" />
      <trkpt lat="46.0646163" lon="11.1294270" />
      <trkpt lat="46.0646867" lon="11.1291487" />
      <trkpt lat="46.0649203" lon="11.1282300" />
      <trkpt lat="46.0649057" lon="11.1282221" />
      <trkpt lat="46.0648723" lon="11.1282038" />
      <trkpt lat="46.0647866" lon="11.1281574" />
      <trkpt lat="46.0647932" lon="11.1281318" />
      <trkpt lat="46.0643990" lon="11.1279089" />
      <trkpt lat="46.0643773" lon="11.1278908" />
      <trkpt lat="46.0643429" lon="11.1278623" />
      <trkpt lat="46.0643297" lon="11.1278550" />
      <trkpt lat="46.0640806" lon="11.1277168" />
      <trkpt lat="46.0633401" lon="11.1273160" />
      <trkpt lat="46.0633086" lon="11.1273001" />
      <trkpt lat="46.0632780" lon="11.1273019" />
      <trkpt lat="46.0632440" lon="11.1273260" />
      <trkpt lat="46.0632162" lon="11.1273455" />
      <trkpt lat="46.0631828" lon="11.1273634" />
      <trkpt lat="46.0631350" lon="11.1273812" />
      <trkpt lat="46.0631147" lon="11.1273922" />
      <trkpt lat="46.0630826" lon="11.1274160" />
      <trkpt lat="46.0630302" lon="11.1274548" />
      <trkpt lat="46.0630095" lon="11.1274609" />
      <trkpt lat="46.0629757" lon="11.1274870" />
      <trkpt lat="46.0629580" lon="11.1275212" />
      <trkpt lat="46.0628982" lon="11.1275786" />
      <trkpt lat="46.0628305" lon="11.1276484" />
      <trkpt lat="46.0627643" lon="11.1277171" />
      <trkpt lat="46.0626840" lon="11.1278065" />
      <trkpt lat="46.0626158" lon="11.1278848" />
      <trkpt lat="46.0624776" lon="11.1280998" />
      <trkpt lat="46.0623285" lon="11.1283074" />
      <trkpt lat="46.0623076" lon="11.1283411" />
      <trkpt lat="46.0622832" lon="11.1283746" />
      <trkpt lat="46.0622669" lon="11.1283922" />
      <trkpt lat="46.0622527" lon="11.1283717" />
      <trkpt lat="46.0622315" lon="11.1283417" />
      <trkpt lat="46.0621868" lon="11.1283752" />
      <trkpt lat="46.0620345" lon="11.1286015" />
      <trkpt lat="46.0617656" lon="11.1289925" />
      <trkpt lat="46.0617400" lon="11.1289420" />
      <trkpt lat="46.0617153" lon="11.1289806" />
      <trkpt lat="46.0616992" lon="11.1289956" />
      <trkpt lat="46.0616687" lon="11.1289398" />
      <trkpt lat="46.0616147" lon="11.1290083" />
      <trkpt lat="46.0612460" lon="11.1284667" />
      <trkpt lat="46.0611383" lon="11.1283061" />
      <trkpt lat="46.0610358" lon="11.1281559" />
      <trkpt lat="46.0608540" lon="11.1278797" />
      <trkpt lat="46.0608338" lon="11.1278450" />
      <trkpt lat="46.0607035" lon="11.1275885" />
      <trkpt lat="46.0606403" lon="11.1274586" />
      <trkpt lat="46.0605991" lon="11.1273680" />
      <trkpt lat="46.0605746" lon="11.1273141" />
      <trkpt lat="46.0604676" lon="11.1271101" />
      <trkpt lat="46.0603084" lon="11.1268068" />
      <trkpt lat="46.0599707" lon="11.1261632" />
      <trkpt lat="46.0600076" lon="11.1261239" />
      <trkpt lat="46.0603694" lon="11.1257390" />
      <trkpt lat="46.0603945" lon="11.1257122" />
      <trkpt lat="46.0603448" lon="11.1256153" />
      <trkpt lat="46.0605366" lon="11.1254107" />
      <trkpt lat="46.0609062" lon="11.1250349" />
      <trkpt lat="46.0608675" lon="11.1249438" />
      <trkpt lat="46.0608350" lon="11.1248591" />
      <trkpt lat="46.0608750" lon="11.1248044" />
      <trkpt lat="46.0608746" lon="11.1247636" />
      <trkpt lat="46.0608765" lon="11.1247411" />
      <trkpt lat="46.0608749" lon="11.1247194" />
      <trkpt lat="46.0608681" lon="11.1246846" />
      <trkpt lat="46.0608477" lon="11.1245912" />
      <trkpt lat="46.0608179" lon="11.1244644" />
      <trkpt lat="46.0607726" lon="11.1242613" />
      <trkpt lat="46.0607230" lon="11.1240345" />
      <trkpt lat="46.0607042" lon="11.1239462" />
      <trkpt lat="46.0606457" lon="11.1236712" />
      <trkpt lat="46.0605971" lon="11.1234256" />
      <trkpt lat="46.0604823" lon="11.1228476" />
      <trkpt lat="46.0604744" lon="11.1228050" />
      <trkpt lat="46.0604877" lon="11.1227995" />
      <trkpt lat="46.0605178" lon="11.1227872" />
      <trkpt lat="46.0604460" lon="11.1224190" />
      <trkpt lat="46.0603801" lon="11.1220817" />
      <trkpt lat="46.0604215" lon="11.1220500" />
      <trkpt lat="46.0604182" lon="11.1220324" />
      <trkpt lat="46.0604197" lon="11.1220190" />
      <trkpt lat="46.0604256" lon="11.1220091" />
      <trkpt lat="46.0604230" lon="11.1219955" />
      <trkpt lat="46.0604187" lon="11.1219731" />
      <trkpt lat="46.0604143" lon="11.1219503" />
      <trkpt lat="46.0604081" lon="11.1219179" />
      <trkpt lat="46.0603096" lon="11.1214176" />
      <trkpt lat="46.0601927" lon="11.1208240" />
      <trkpt lat="46.0601882" lon="11.1208011" />
      <trkpt lat="46.0601863" lon="11.1207913" />
      <trkpt lat="46.0601093" lon="11.1204010" />
      <trkpt lat="46.0600590" lon="11.1201456" />
      <trkpt lat="46.0599762" lon="11.1197254" />
      <trkpt lat="46.0598999" lon="11.1193378" />
      <trkpt lat="46.0598924" lon="11.1193086" />
      <trkpt lat="46.0598839" lon="11.1192591" />
      <trkpt lat="46.0598828" lon="11.1192368" />
      <trkpt lat="46.0598901" lon="11.1192199" />
      <trkpt lat="46.0599017" lon="11.1192111" />
      <trkpt lat="46.0599987" lon="11.1191778" />
      <trkpt lat="46.0600867" lon="11.1191288" />
      <trkpt lat="46.0601553" lon="11.1191074" />
      <trkpt lat="46.0602616" lon="11.1190818" />
      <trkpt lat="46.0603482" lon="11.1190677" />
      <trkpt lat="46.0604273" lon="11.1190622" />
      <trkpt lat="46.0608526" lon="11.1190619" />
      <trkpt lat="46.0612990" lon="11.1190543" />
      <trkpt lat="46.0613694" lon="11.1190543" />
      <trkpt lat="46.0613698" lon="11.1190007" />
      <trkpt lat="46.0613700" lon="11.1189229" />
      <trkpt lat="46.0614246" lon="11.1189156" />
      <trkpt lat="46.0614622" lon="11.1189104" />
      <trkpt lat="46.0614938" lon="11.1189052" />
      <trkpt lat="46.0615283" lon="11.1189032" />
      <trkpt lat="46.0616127" lon="11.1189135" />
      <trkpt lat="46.0616923" lon="11.1189254" />
      <trkpt lat="46.0617695" lon="11.1189366" />
      <trkpt lat="46.0621155" lon="11.1189961" />
      <trkpt lat="46.0621434" lon="11.1189993" />
      <trkpt lat="46.0622231" lon="11.1190085" />
      <trkpt lat="46.0623649" lon="11.1190100" />
      <trkpt lat="46.0624647" lon="11.1189964" />
      <trkpt lat="46.0629586" lon="11.1189469" />
      <trkpt lat="46.0630534" lon="11.1189607" />
      <trkpt lat="46.0630759" lon="11.1189645" />
      <trkpt lat="46.0630969" lon="11.1189680" />
      <trkpt lat="46.0631943" lon="11.1190122" />
      <trkpt lat="46.0632779" lon="11.1190730" />
      <trkpt lat="46.0632984" lon="11.1190880" />
      <trkpt lat="46.0633241" lon="11.1191069" />
      <trkpt lat="46.0634552" lon="11.1192029" />
      <trkpt lat="46.0635348" lon="11.1192660" />
      <trkpt lat="46.0635716" lon="11.1192952" />
      <trkpt lat="46.0636739" lon="11.1193765" />
      <trkpt lat="46.0638476" lon="11.1195040" />
      <trkpt lat="46.0638679" lon="11.1195140" />
      <trkpt lat="46.0639015" lon="11.1195174" />
      <trkpt lat="46.0644326" lon="11.1194103" />
      <trkpt lat="46.0648990" lon="11.1192948" />
      <trkpt lat="46.0649181" lon="11.1192900" />
      <trkpt lat="46.0649545" lon="11.1192807" />
      <trkpt lat="46.0649924" lon="11.1192729" />
      <trkpt lat="46.0649945" lon="11.1192726" />
      <trkpt lat="46.0651907" lon="11.1192425" />
      <trkpt lat="46.0652034" lon="11.1192260" />
      <trkpt lat="46.0652385" lon="11.1192116" />
      <trkpt lat="46.0652869" lon="11.1191976" />
      <trkpt lat="46.0653169" lon="11.1192084" />
      <trkpt lat="46.0653255" lon="11.1193045" />
      <trkpt lat="46.0653328" lon="11.1193958" />
      <trkpt lat="46.0653264" lon="11.1193970" />
      <trkpt lat="46.0653303" lon="11.1194356" />
      <trkpt lat="46.0653476" lon="11.1196418" />
      <trkpt lat="46.0653735" lon="11.1197764" />
      <trkpt lat="46.0654962" lon="11.1210606" />
      <trkpt lat="46.0655326" lon="11.1210839" />
      <trkpt lat="46.0655654" lon="11.1211047" />
      <trkpt lat="46.0655507" lon="11.1211539" />
      <trkpt lat="46.0657149" lon="11.1211459" />
      <trkpt lat="46.0661065" lon="11.1211467" />
      <trkpt lat="46.0661586" lon="11.1211285" />
      <trkpt lat="46.0664061" lon="11.1210506" />
      <trkpt lat="46.0665614" lon="11.1210220" />
      <trkpt lat="46.0666115" lon="11.1210169" />
      <trkpt lat="46.0666602" lon="11.1210169" />
      <trkpt lat="46.0667526" lon="11.1210542" />
      <trkpt lat="46.0667705" lon="11.1210629" />
      <trkpt lat="46.0668711" lon="11.1210492" />
    </trkseg>
  </trk>
</gpx>
