<?xml version="1.0" encoding="UTF-8"?>
<gpx xmlns="http://www.topografix.com/GPX/1/1" version="1.1" creator="ShapeRoute route-engine">
  <metadata>
    <name>house 10 km · 2026-09-23</name>
    <author>
      <name>ShapeRoute route-engine</name>
    </author>
    <copyright author="OpenStreetMap contributors">
      <license>https://opendatacommons.org/licenses/odbl/1-0/</license>
    </copyright>
    <link href="https://www.openstreetmap.org/copyright">
      <text>© OpenStreetMap contributors</text>
    </link>
    <time>2026-09-23T22:49:27Z</time>
  </metadata>
  <trk>
    <name>house 10 km · 2026-09-23</name>
    <trkseg>
      <trkpt lat="46.0123552" lon="11.2985082" />
      <trkpt lat="46.0122721" lon="11.2986350" />
      <trkpt lat="46.0121122" lon="11.2989819" />
      <trkpt lat="46.0119829" lon="11.2992330" />
      <trkpt lat="46.0118498" lon="11.2994411" />
      <trkpt lat="46.0116723" lon="11.2996863" />
      <trkpt lat="46.0112962" lon="11.3002246" />
      <trkpt lat="46.0112603" lon="11.3002166" />
      <trkpt lat="46.0111699" lon="11.3001210" />
      <trkpt lat="46.0111478" lon="11.3000732" />
      <trkpt lat="46.0110641" lon="11.3001073" />
      <trkpt lat="46.0109687" lon="11.3002118" />
      <trkpt lat="46.0108341" lon="11.3004232" />
      <trkpt lat="46.0107851" lon="11.3005647" />
      <trkpt lat="46.0105854" lon="11.3010306" />
      <trkpt lat="46.0104258" lon="11.3013585" />
      <trkpt lat="46.0104112" lon="11.3014153" />
      <trkpt lat="46.0102794" lon="11.3017012" />
      <trkpt lat="46.0102036" lon="11.3019969" />
      <trkpt lat="46.0101573" lon="11.3021876" />
      <trkpt lat="46.0101211" lon="11.3023020" />
      <trkpt lat="46.0100790" lon="11.3023999" />
      <trkpt lat="46.0099961" lon="11.3025243" />
      <trkpt lat="46.0099138" lon="11.3026079" />
      <trkpt lat="46.0099002" lon="11.3026136" />
      <trkpt lat="46.0095734" lon="11.3027502" />
      <trkpt lat="46.0094482" lon="11.3027916" />
      <trkpt lat="46.0093379" lon="11.3028040" />
      <trkpt lat="46.0093094" lon="11.3030807" />
      <trkpt lat="46.0092604" lon="11.3035556" />
      <trkpt lat="46.0092489" lon="11.3036691" />
      <trkpt lat="46.0091325" lon="11.3048142" />
      <trkpt lat="46.0090765" lon="11.3053648" />
      <trkpt lat="46.0090647" lon="11.3054807" />
      <trkpt lat="46.0085463" lon="11.3053902" />
      <trkpt lat="46.0084263" lon="11.3053692" />
      <trkpt lat="46.0084093" lon="11.3055594" />
      <trkpt lat="46.0083271" lon="11.3064780" />
      <trkpt lat="46.0082414" lon="11.3073453" />
      <trkpt lat="46.0080468" lon="11.3095756" />
      <trkpt lat="46.0080464" lon="11.3096269" />
      <trkpt lat="46.0080458" lon="11.3096974" />
      <trkpt lat="46.0080447" lon="11.3098215" />
      <trkpt lat="46.0078804" lon="11.3100389" />
      <trkpt lat="46.0076535" lon="11.3103595" />
      <trkpt lat="46.0075404" lon="11.3105696" />
      <trkpt lat="46.0074939" lon="11.3106559" />
      <trkpt lat="46.0074477" lon="11.3107708" />
      <trkpt lat="46.0073188" lon="11.3110197" />
      <trkpt lat="46.0071166" lon="11.3113219" />
      <trkpt lat="46.0070002" lon="11.3113771" />
      <trkpt lat="46.0067022" lon="11.3116689" />
      <trkpt lat="46.0065472" lon="11.3118406" />
      <trkpt lat="46.0064100" lon="11.3119264" />
      <trkpt lat="46.0061855" lon="11.3120538" />
      <trkpt lat="46.0061075" lon="11.3121017" />
      <trkpt lat="46.0058494" lon="11.3121548" />
      <trkpt lat="46.0057229" lon="11.3121785" />
      <trkpt lat="46.0055791" lon="11.3121928" />
      <trkpt lat="46.0052593" lon="11.3121900" />
      <trkpt lat="46.0051050" lon="11.3122164" />
      <trkpt lat="46.0050318" lon="11.3122477" />
      <trkpt lat="46.0047918" lon="11.3123922" />
      <trkpt lat="46.0046631" lon="11.3124960" />
      <trkpt lat="46.0045655" lon="11.3126182" />
      <trkpt lat="46.0044733" lon="11.3127509" />
      <trkpt lat="46.0044076" lon="11.3129112" />
      <trkpt lat="46.0043911" lon="11.3130321" />
      <trkpt lat="46.0044057" lon="11.3132226" />
      <trkpt lat="46.0044048" lon="11.3133789" />
      <trkpt lat="46.0043857" lon="11.3134749" />
      <trkpt lat="46.0043492" lon="11.3135406" />
      <trkpt lat="46.0042619" lon="11.3135953" />
      <trkpt lat="46.0042062" lon="11.3136159" />
      <trkpt lat="46.0041110" lon="11.3136194" />
      <trkpt lat="46.0039602" lon="11.3135800" />
      <trkpt lat="46.0037357" lon="11.3134778" />
      <trkpt lat="46.0034804" lon="11.3133638" />
      <trkpt lat="46.0033192" lon="11.3132714" />
      <trkpt lat="46.0031462" lon="11.3130941" />
      <trkpt lat="46.0030608" lon="11.3129879" />
      <trkpt lat="46.0029708" lon="11.3129107" />
      <trkpt lat="46.0028856" lon="11.3128644" />
      <trkpt lat="46.0028289" lon="11.3128639" />
      <trkpt lat="46.0026803" lon="11.3128825" />
      <trkpt lat="46.0026170" lon="11.3129238" />
      <trkpt lat="46.0025928" lon="11.3129411" />
      <trkpt lat="46.0025097" lon="11.3127173" />
      <trkpt lat="46.0024973" lon="11.3124922" />
      <trkpt lat="46.0024128" lon="11.3115394" />
      <trkpt lat="46.0024087" lon="11.3111519" />
      <trkpt lat="46.0024243" lon="11.3106066" />
      <trkpt lat="46.0024541" lon="11.3100390" />
      <trkpt lat="46.0024846" lon="11.3097717" />
      <trkpt lat="46.0025096" lon="11.3095835" />
      <trkpt lat="46.0024870" lon="11.3095672" />
      <trkpt lat="46.0023308" lon="11.3095327" />
      <trkpt lat="46.0023020" lon="11.3095370" />
      <trkpt lat="46.0022121" lon="11.3095586" />
      <trkpt lat="46.0021384" lon="11.3096200" />
      <trkpt lat="46.0019730" lon="11.3098498" />
      <trkpt lat="46.0018740" lon="11.3100033" />
      <trkpt lat="46.0018315" lon="11.3100471" />
      <trkpt lat="46.0018203" lon="11.3100657" />
      <trkpt lat="46.0018068" lon="11.3100809" />
      <trkpt lat="46.0017613" lon="11.3101737" />
      <trkpt lat="46.0015439" lon="11.3104514" />
      <trkpt lat="46.0015184" lon="11.3104875" />
      <trkpt lat="46.0013803" lon="11.3106827" />
      <trkpt lat="46.0010217" lon="11.3112045" />
      <trkpt lat="46.0008837" lon="11.3114122" />
      <trkpt lat="46.0005346" lon="11.3120139" />
      <trkpt lat="46.0003800" lon="11.3123160" />
      <trkpt lat="46.0003033" lon="11.3124623" />
      <trkpt lat="46.0002559" lon="11.3125435" />
      <trkpt lat="46.0001608" lon="11.3127726" />
      <trkpt lat="46.0000723" lon="11.3130579" />
      <trkpt lat="46.0000083" lon="11.3133229" />
      <trkpt lat="45.9999609" lon="11.3135460" />
      <trkpt lat="45.9998991" lon="11.3141877" />
      <trkpt lat="45.9998610" lon="11.3143888" />
      <trkpt lat="45.9998282" lon="11.3144833" />
      <trkpt lat="45.9997649" lon="11.3146024" />
      <trkpt lat="45.9996842" lon="11.3146954" />
      <trkpt lat="45.9996058" lon="11.3147709" />
      <trkpt lat="45.9994920" lon="11.3148602" />
      <trkpt lat="45.9993502" lon="11.3149265" />
      <trkpt lat="45.9992184" lon="11.3149794" />
      <trkpt lat="45.9991471" lon="11.3148909" />
      <trkpt lat="45.9990518" lon="11.3147213" />
      <trkpt lat="45.9989248" lon="11.3144958" />
      <trkpt lat="45.9987314" lon="11.3142385" />
      <trkpt lat="45.9984929" lon="11.3138201" />
      <trkpt lat="45.9983587" lon="11.3134982" />
      <trkpt lat="45.9982830" lon="11.3133395" />
      <trkpt lat="45.9981015" lon="11.3130815" />
      <trkpt lat="45.9978731" lon="11.3128658" />
      <trkpt lat="45.9977017" lon="11.3130482" />
      <trkpt lat="45.9975538" lon="11.3132514" />
      <trkpt lat="45.9974271" lon="11.3134124" />
      <trkpt lat="45.9973376" lon="11.3136055" />
      <trkpt lat="45.9971612" lon="11.3138399" />
      <trkpt lat="45.9969708" lon="11.3139601" />
      <trkpt lat="45.9968187" lon="11.3139759" />
      <trkpt lat="45.9965981" lon="11.3139182" />
      <trkpt lat="45.9965738" lon="11.3139825" />
      <trkpt lat="45.9965012" lon="11.3140046" />
      <trkpt lat="45.9963745" lon="11.3140529" />
      <trkpt lat="45.9962803" lon="11.3141311" />
      <trkpt lat="45.9961717" lon="11.3143442" />
      <trkpt lat="45.9960907" lon="11.3146047" />
      <trkpt lat="45.9957776" lon="11.3143514" />
      <trkpt lat="45.9953020" lon="11.3140740" />
      <trkpt lat="45.9950145" lon="11.3139178" />
      <trkpt lat="45.9948331" lon="11.3137364" />
      <trkpt lat="45.9946033" lon="11.3133374" />
      <trkpt lat="45.9943978" lon="11.3128416" />
      <trkpt lat="45.9939625" lon="11.3118259" />
      <trkpt lat="45.9937448" lon="11.3115357" />
      <trkpt lat="45.9936874" lon="11.3114698" />
      <trkpt lat="45.9937448" lon="11.3115357" />
      <trkpt lat="45.9939625" lon="11.3118259" />
      <trkpt lat="45.9943978" lon="11.3128416" />
      <trkpt lat="45.9946033" lon="11.3133374" />
      <trkpt lat="45.9948331" lon="11.3137364" />
      <trkpt lat="45.9950145" lon="11.3139178" />
      <trkpt lat="45.9953020" lon="11.3140740" />
      <trkpt lat="45.9957776" lon="11.3143514" />
      <trkpt lat="45.9960907" lon="11.3146047" />
      <trkpt lat="45.9961717" lon="11.3143442" />
      <trkpt lat="45.9962803" lon="11.3141311" />
      <trkpt lat="45.9963745" lon="11.3140529" />
      <trkpt lat="45.9965012" lon="11.3140046" />
      <trkpt lat="45.9965738" lon="11.3139825" />
      <trkpt lat="45.9965981" lon="11.3139182" />
      <trkpt lat="45.9968187" lon="11.3139759" />
      <trkpt lat="45.9969708" lon="11.3139601" />
      <trkpt lat="45.9971612" lon="11.3138399" />
      <trkpt lat="45.9973376" lon="11.3136055" />
      <trkpt lat="45.9974271" lon="11.3134124" />
      <trkpt lat="45.9975538" lon="11.3132514" />
      <trkpt lat="45.9977017" lon="11.3130482" />
      <trkpt lat="45.9978731" lon="11.3128658" />
      <trkpt lat="45.9976620" lon="11.3126010" />
      <trkpt lat="45.9974101" lon="11.3123017" />
      <trkpt lat="45.9972725" lon="11.3121447" />
      <trkpt lat="45.9971960" lon="11.3119854" />
      <trkpt lat="45.9970842" lon="11.3115241" />
      <trkpt lat="45.9969053" lon="11.3109769" />
      <trkpt lat="45.9968569" lon="11.3106873" />
      <trkpt lat="45.9968513" lon="11.3104941" />
      <trkpt lat="45.9968516" lon="11.3103620" />
      <trkpt lat="45.9968308" lon="11.3101615" />
      <trkpt lat="45.9967488" lon="11.3099416" />
      <trkpt lat="45.9967190" lon="11.3096358" />
      <trkpt lat="45.9967206" lon="11.3095956" />
      <trkpt lat="45.9967227" lon="11.3095446" />
      <trkpt lat="45.9967212" lon="11.3095344" />
      <trkpt lat="45.9967022" lon="11.3094052" />
      <trkpt lat="45.9966743" lon="11.3092523" />
      <trkpt lat="45.9965997" lon="11.3091316" />
      <trkpt lat="45.9965438" lon="11.3090109" />
      <trkpt lat="45.9964954" lon="11.3088553" />
      <trkpt lat="45.9964544" lon="11.3087158" />
      <trkpt lat="45.9964302" lon="11.3085817" />
      <trkpt lat="45.9964339" lon="11.3084154" />
      <trkpt lat="45.9964544" lon="11.3082652" />
      <trkpt lat="45.9965532" lon="11.3079487" />
      <trkpt lat="45.9966333" lon="11.3077395" />
      <trkpt lat="45.9967358" lon="11.3074606" />
      <trkpt lat="45.9967637" lon="11.3072674" />
      <trkpt lat="45.9968066" lon="11.3069322" />
      <trkpt lat="45.9968196" lon="11.3065969" />
      <trkpt lat="45.9968345" lon="11.3062938" />
      <trkpt lat="45.9968843" lon="11.3062532" />
      <trkpt lat="45.9969493" lon="11.3062325" />
      <trkpt lat="45.9970560" lon="11.3062050" />
      <trkpt lat="45.9970980" lon="11.3061424" />
      <trkpt lat="45.9971066" lon="11.3060497" />
      <trkpt lat="45.9970897" lon="11.3059517" />
      <trkpt lat="45.9970806" lon="11.3058496" />
      <trkpt lat="45.9970780" lon="11.3057876" />
      <trkpt lat="45.9970751" lon="11.3057217" />
      <trkpt lat="45.9970360" lon="11.3055944" />
      <trkpt lat="45.9970074" lon="11.3055313" />
      <trkpt lat="45.9969731" lon="11.3054724" />
      <trkpt lat="45.9969281" lon="11.3054032" />
      <trkpt lat="45.9968989" lon="11.3053490" />
      <trkpt lat="45.9968592" lon="11.3052753" />
      <trkpt lat="45.9968259" lon="11.3051837" />
      <trkpt lat="45.9968100" lon="11.3050572" />
      <trkpt lat="45.9968100" lon="11.3049834" />
      <trkpt lat="45.9968132" lon="11.3048841" />
      <trkpt lat="45.9968058" lon="11.3047563" />
      <trkpt lat="45.9967808" lon="11.3046600" />
      <trkpt lat="45.9968017" lon="11.3043816" />
      <trkpt lat="45.9967933" lon="11.3042176" />
      <trkpt lat="45.9967870" lon="11.3041243" />
      <trkpt lat="45.9967724" lon="11.3039393" />
      <trkpt lat="45.9967417" lon="11.3038725" />
      <trkpt lat="45.9966992" lon="11.3037858" />
      <trkpt lat="45.9966470" lon="11.3037181" />
      <trkpt lat="45.9965728" lon="11.3036474" />
      <trkpt lat="45.9965163" lon="11.3036233" />
      <trkpt lat="45.9964641" lon="11.3035601" />
      <trkpt lat="45.9964055" lon="11.3035346" />
      <trkpt lat="45.9963460" lon="11.3034638" />
      <trkpt lat="45.9962979" lon="11.3033480" />
      <trkpt lat="45.9962979" lon="11.3032126" />
      <trkpt lat="45.9962979" lon="11.3030772" />
      <trkpt lat="45.9963461" lon="11.3030206" />
      <trkpt lat="45.9963888" lon="11.3029358" />
      <trkpt lat="45.9963951" lon="11.3027657" />
      <trkpt lat="45.9963972" lon="11.3026800" />
      <trkpt lat="45.9964108" lon="11.3026048" />
      <trkpt lat="45.9964196" lon="11.3025024" />
      <trkpt lat="45.9964206" lon="11.3024332" />
      <trkpt lat="45.9964321" lon="11.3023497" />
      <trkpt lat="45.9964322" lon="11.3023046" />
      <trkpt lat="45.9964379" lon="11.3021895" />
      <trkpt lat="45.9964395" lon="11.3021218" />
      <trkpt lat="45.9964472" lon="11.3020350" />
      <trkpt lat="45.9963106" lon="11.3023067" />
      <trkpt lat="45.9962468" lon="11.3024147" />
      <trkpt lat="45.9961308" lon="11.3025028" />
      <trkpt lat="45.9959487" lon="11.3025606" />
      <trkpt lat="45.9952132" lon="11.3027370" />
      <trkpt lat="45.9951974" lon="11.3027408" />
      <trkpt lat="45.9951728" lon="11.3027417" />
      <trkpt lat="45.9949529" lon="11.3027494" />
      <trkpt lat="45.9946203" lon="11.3027301" />
      <trkpt lat="45.9945733" lon="11.3027274" />
      <trkpt lat="45.9940367" lon="11.3028734" />
      <trkpt lat="45.9934106" lon="11.3030450" />
      <trkpt lat="45.9932853" lon="11.3030879" />
      <trkpt lat="45.9931486" lon="11.3032976" />
      <trkpt lat="45.9930479" lon="11.3034425" />
      <trkpt lat="45.9930287" lon="11.3034701" />
      <trkpt lat="45.9929004" lon="11.3036903" />
      <trkpt lat="45.9928805" lon="11.3037126" />
      <trkpt lat="45.9927487" lon="11.3038604" />
      <trkpt lat="45.9926609" lon="11.3039384" />
      <trkpt lat="45.9924856" lon="11.3040003" />
      <trkpt lat="45.9919237" lon="11.3039081" />
      <trkpt lat="45.9914947" lon="11.3038727" />
      <trkpt lat="45.9912281" lon="11.3038014" />
      <trkpt lat="45.9910617" lon="11.3037011" />
      <trkpt lat="45.9910683" lon="11.3031976" />
      <trkpt lat="45.9910690" lon="11.3031474" />
      <trkpt lat="45.9910738" lon="11.3027842" />
      <trkpt lat="45.9910766" lon="11.3025709" />
      <trkpt lat="45.9911297" lon="11.3020416" />
      <trkpt lat="45.9911398" lon="11.3019404" />
      <trkpt lat="45.9911507" lon="11.3014966" />
      <trkpt lat="45.9911612" lon="11.3014584" />
      <trkpt lat="45.9912090" lon="11.3012842" />
      <trkpt lat="45.9913265" lon="11.3011084" />
      <trkpt lat="45.9914063" lon="11.3010000" />
      <trkpt lat="45.9913952" lon="11.3008702" />
      <trkpt lat="45.9911883" lon="11.3001899" />
      <trkpt lat="45.9905331" lon="11.2981022" />
      <trkpt lat="45.9904858" lon="11.2979558" />
      <trkpt lat="45.9904620" lon="11.2979169" />
      <trkpt lat="45.9905750" lon="11.2977798" />
      <trkpt lat="45.9905779" lon="11.2977777" />
      <trkpt lat="45.9907487" lon="11.2975928" />
      <trkpt lat="45.9911442" lon="11.2971273" />
      <trkpt lat="45.9913659" lon="11.2968569" />
      <trkpt lat="45.9915932" lon="11.2965811" />
      <trkpt lat="45.9918065" lon="11.2963223" />
      <trkpt lat="45.9920749" lon="11.2960479" />
      <trkpt lat="45.9923616" lon="11.2957287" />
      <trkpt lat="45.9924872" lon="11.2955580" />
      <trkpt lat="45.9926115" lon="11.2953954" />
      <trkpt lat="45.9927301" lon="11.2952185" />
      <trkpt lat="45.9928318" lon="11.2949990" />
      <trkpt lat="45.9928869" lon="11.2948465" />
      <trkpt lat="45.9929073" lon="11.2947570" />
      <trkpt lat="45.9929166" lon="11.2947164" />
      <trkpt lat="45.9929236" lon="11.2946372" />
      <trkpt lat="45.9930818" lon="11.2942083" />
      <trkpt lat="45.9931779" lon="11.2939336" />
      <trkpt lat="45.9932375" lon="11.2938974" />
      <trkpt lat="45.9932851" lon="11.2939242" />
      <trkpt lat="45.9933709" lon="11.2939953" />
      <trkpt lat="45.9934309" lon="11.2940527" />
      <trkpt lat="45.9934933" lon="11.2940272" />
      <trkpt lat="45.9935548" lon="11.2939340" />
      <trkpt lat="45.9936152" lon="11.2938366" />
      <trkpt lat="45.9936582" lon="11.2937579" />
      <trkpt lat="45.9937015" lon="11.2936223" />
      <trkpt lat="45.9937114" lon="11.2934888" />
      <trkpt lat="45.9936962" lon="11.2934134" />
      <trkpt lat="45.9936679" lon="11.2933429" />
      <trkpt lat="45.9935807" lon="11.2931881" />
      <trkpt lat="45.9930371" lon="11.2922234" />
      <trkpt lat="45.9928280" lon="11.2918588" />
      <trkpt lat="45.9927976" lon="11.2917808" />
      <trkpt lat="45.9927939" lon="11.2916537" />
      <trkpt lat="45.9930438" lon="11.2905930" />
      <trkpt lat="45.9931205" lon="11.2902677" />
      <trkpt lat="45.9932358" lon="11.2899014" />
      <trkpt lat="45.9935075" lon="11.2893106" />
      <trkpt lat="45.9936174" lon="11.2890720" />
      <trkpt lat="45.9938626" lon="11.2885826" />
      <trkpt lat="45.9941258" lon="11.2881454" />
      <trkpt lat="45.9944922" lon="11.2874048" />
      <trkpt lat="45.9945226" lon="11.2872056" />
      <trkpt lat="45.9944809" lon="11.2869480" />
      <trkpt lat="45.9944279" lon="11.2867903" />
      <trkpt lat="45.9942877" lon="11.2864393" />
      <trkpt lat="45.9942982" lon="11.2863270" />
      <trkpt lat="45.9943564" lon="11.2862292" />
      <trkpt lat="45.9946134" lon="11.2859124" />
      <trkpt lat="45.9946678" lon="11.2857924" />
      <trkpt lat="45.9946750" lon="11.2856568" />
      <trkpt lat="45.9945643" lon="11.2849157" />
      <trkpt lat="45.9947722" lon="11.2851557" />
      <trkpt lat="45.9950124" lon="11.2853929" />
      <trkpt lat="45.9952641" lon="11.2855875" />
      <trkpt lat="45.9955017" lon="11.2858235" />
      <trkpt lat="45.9956424" lon="11.2860140" />
      <trkpt lat="45.9957402" lon="11.2862015" />
      <trkpt lat="45.9964757" lon="11.2877930" />
      <trkpt lat="45.9965742" lon="11.2879430" />
      <trkpt lat="45.9966540" lon="11.2878075" />
      <trkpt lat="45.9979732" lon="11.2865469" />
      <trkpt lat="45.9981008" lon="11.2863982" />
      <trkpt lat="45.9986043" lon="11.2857091" />
      <trkpt lat="45.9992456" lon="11.2848314" />
      <trkpt lat="46.0001817" lon="11.2835085" />
      <trkpt lat="46.0002444" lon="11.2835519" />
      <trkpt lat="46.0003130" lon="11.2836381" />
      <trkpt lat="46.0005761" lon="11.2839605" />
      <trkpt lat="46.0008578" lon="11.2842943" />
      <trkpt lat="46.0010399" lon="11.2844282" />
      <trkpt lat="46.0012008" lon="11.2845737" />
      <trkpt lat="46.0013125" lon="11.2846957" />
      <trkpt lat="46.0014026" lon="11.2848292" />
      <trkpt lat="46.0015699" lon="11.2850882" />
      <trkpt lat="46.0016579" lon="11.2852919" />
      <trkpt lat="46.0018123" lon="11.2857369" />
      <trkpt lat="46.0019758" lon="11.2861403" />
      <trkpt lat="46.0020326" lon="11.2862374" />
      <trkpt lat="46.0021167" lon="11.2863883" />
      <trkpt lat="46.0023626" lon="11.2867956" />
      <trkpt lat="46.0024200" lon="11.2868856" />
      <trkpt lat="46.0025278" lon="11.2870547" />
      <trkpt lat="46.0025923" lon="11.2871559" />
      <trkpt lat="46.0026517" lon="11.2872577" />
      <trkpt lat="46.0026820" lon="11.2871995" />
      <trkpt lat="46.0026915" lon="11.2871509" />
      <trkpt lat="46.0027433" lon="11.2870145" />
      <trkpt lat="46.0028101" lon="11.2869222" />
      <trkpt lat="46.0028664" lon="11.2868840" />
      <trkpt lat="46.0028512" lon="11.2865966" />
      <trkpt lat="46.0029205" lon="11.2865508" />
      <trkpt lat="46.0029724" lon="11.2864804" />
      <trkpt lat="46.0030287" lon="11.2863759" />
      <trkpt lat="46.0034787" lon="11.2857578" />
      <trkpt lat="46.0039481" lon="11.2856247" />
      <trkpt lat="46.0044030" lon="11.2854571" />
      <trkpt lat="46.0045091" lon="11.2854610" />
      <trkpt lat="46.0047775" lon="11.2854555" />
      <trkpt lat="46.0049934" lon="11.2856460" />
      <trkpt lat="46.0049591" lon="11.2854546" />
      <trkpt lat="46.0050567" lon="11.2853509" />
      <trkpt lat="46.0052009" lon="11.2852077" />
      <trkpt lat="46.0057821" lon="11.2849801" />
      <trkpt lat="46.0059721" lon="11.2849308" />
      <trkpt lat="46.0059018" lon="11.2862754" />
      <trkpt lat="46.0057476" lon="11.2899830" />
      <trkpt lat="46.0058293" lon="11.2899363" />
      <trkpt lat="46.0060181" lon="11.2900874" />
      <trkpt lat="46.0061755" lon="11.2902346" />
      <trkpt lat="46.0063692" lon="11.2903953" />
      <trkpt lat="46.0065443" lon="11.2904935" />
      <trkpt lat="46.0066517" lon="11.2905954" />
      <trkpt lat="46.0066948" lon="11.2906504" />
      <trkpt lat="46.0067109" lon="11.2906711" />
      <trkpt lat="46.0062273" lon="11.2914513" />
      <trkpt lat="46.0061889" lon="11.2915152" />
      <trkpt lat="46.0061808" lon="11.2915296" />
      <trkpt lat="46.0061617" lon="11.2915634" />
      <trkpt lat="46.0061265" lon="11.2916198" />
      <trkpt lat="46.0063120" lon="11.2918505" />
      <trkpt lat="46.0067496" lon="11.2923820" />
      <trkpt lat="46.0070436" lon="11.2927249" />
      <trkpt lat="46.0070743" lon="11.2926723" />
      <trkpt lat="46.0071061" lon="11.2926185" />
      <trkpt lat="46.0071963" lon="11.2927211" />
      <trkpt lat="46.0072540" lon="11.2927348" />
      <trkpt lat="46.0073259" lon="11.2927145" />
      <trkpt lat="46.0073720" lon="11.2926767" />
      <trkpt lat="46.0074056" lon="11.2926601" />
      <trkpt lat="46.0074392" lon="11.2926523" />
      <trkpt lat="46.0074812" lon="11.2926498" />
      <trkpt lat="46.0075224" lon="11.2926259" />
      <trkpt lat="46.0075579" lon="11.2925933" />
      <trkpt lat="46.0075835" lon="11.2926538" />
      <trkpt lat="46.0076061" lon="11.2927072" />
      <trkpt lat="46.0076071" lon="11.2927878" />
      <trkpt lat="46.0076399" lon="11.2929275" />
      <trkpt lat="46.0077066" lon="11.2930044" />
      <trkpt lat="46.0076801" lon="11.2930443" />
      <trkpt lat="46.0078961" lon="11.2931425" />
      <trkpt lat="46.0081086" lon="11.2932391" />
      <trkpt lat="46.0082721" lon="11.2933149" />
      <trkpt lat="46.0084383" lon="11.2934159" />
      <trkpt lat="46.0086200" lon="11.2935258" />
      <trkpt lat="46.0086759" lon="11.2935596" />
      <trkpt lat="46.0088694" lon="11.2936467" />
      <trkpt lat="46.0089680" lon="11.2936565" />
      <trkpt lat="46.0089737" lon="11.2937248" />
      <trkpt lat="46.0090031" lon="11.2937964" />
      <trkpt lat="46.0091364" lon="11.2939444" />
      <trkpt lat="46.0091637" lon="11.2939748" />
      <trkpt lat="46.0093406" lon="11.2941340" />
      <trkpt lat="46.0095860" lon="11.2944225" />
      <trkpt lat="46.0096077" lon="11.2944514" />
      <trkpt lat="46.0098606" lon="11.2948293" />
      <trkpt lat="46.0099173" lon="11.2949136" />
      <trkpt lat="46.0099498" lon="11.2949615" />
      <trkpt lat="46.0101526" lon="11.2952325" />
      <trkpt lat="46.0102519" lon="11.2953652" />
      <trkpt lat="46.0102901" lon="11.2954163" />
      <trkpt lat="46.0103318" lon="11.2954721" />
      <trkpt lat="46.0105090" lon="11.2957082" />
      <trkpt lat="46.0105204" lon="11.2957234" />
      <trkpt lat="46.0106659" lon="11.2959174" />
      <trkpt lat="46.0107266" lon="11.2959983" />
      <trkpt lat="46.0107605" lon="11.2960435" />
      <trkpt lat="46.0109276" lon="11.2962659" />
      <trkpt lat="46.0110369" lon="11.2964115" />
      <trkpt lat="46.0111280" lon="11.2964899" />
      <trkpt lat="46.0112072" lon="11.2965500" />
      <trkpt lat="46.0111781" lon="11.2968399" />
      <trkpt lat="46.0112568" lon="11.2970649" />
      <trkpt lat="46.0112181" lon="11.2971112" />
      <trkpt lat="46.0116123" lon="11.2977853" />
      <trkpt lat="46.0115764" lon="11.2979707" />
      <trkpt lat="46.0115587" lon="11.2979934" />
      <trkpt lat="46.0116728" lon="11.2981556" />
      <trkpt lat="46.0118028" lon="11.2983483" />
      <trkpt lat="46.0118824" lon="11.2985225" />
      <trkpt lat="46.0120860" lon="11.2982428" />
      <trkpt lat="46.0122052" lon="11.2981248" />
      <trkpt lat="46.0122499" lon="11.2982214" />
      <trkpt lat="46.0122424" lon="11.2983394" />
      <trkpt lat="46.0123552" lon="11.2985082" />
    </trkseg>
  </trk>
</gpx>
