<?xml version="1.0" encoding="UTF-8"?>
<gpx xmlns="http://www.topografix.com/GPX/1/1" version="1.1" creator="ShapeRoute route-engine">
  <metadata>
    <name>italy 15 km · 2026-09-25</name>
    <author>
      <name>ShapeRoute route-engine</name>
    </author>
    <copyright author="OpenStreetMap contributors">
      <license>https://opendatacommons.org/licenses/odbl/1-0/</license>
    </copyright>
    <link href="https://www.openstreetmap.org/copyright">
      <text>© OpenStreetMap contributors</text>
    </link>
    <time>2026-09-25T17:20:47Z</time>
  </metadata>
  <trk>
    <name>italy 15 km · 2026-09-25</name>
    <trkseg>
      <trkpt lat="45.4643695" lon="9.1897716" />
      <trkpt lat="45.4644313" lon="9.1898582" />
      <trkpt lat="45.4644741" lon="9.1898729" />
      <trkpt lat="45.4645046" lon="9.1898833" />
      <trkpt lat="45.4645446" lon="9.1898970" />
      <trkpt lat="45.4645546" lon="9.1899005" />
      <trkpt lat="45.4645542" lon="9.1899580" />
      <trkpt lat="45.4645497" lon="9.1899580" />
      <trkpt lat="45.4645497" lon="9.1899743" />
      <trkpt lat="45.4645490" lon="9.1902933" />
      <trkpt lat="45.4645233" lon="9.1902840" />
      <trkpt lat="45.4645236" lon="9.1902631" />
      <trkpt lat="45.4645242" lon="9.1902105" />
      <trkpt lat="45.4644926" lon="9.1902113" />
      <trkpt lat="45.4644924" lon="9.1901827" />
      <trkpt lat="45.4644913" lon="9.1900241" />
      <trkpt lat="45.4644264" lon="9.1900245" />
      <trkpt lat="45.4638736" lon="9.1900090" />
      <trkpt lat="45.4638731" lon="9.1900740" />
      <trkpt lat="45.4638729" lon="9.1901285" />
      <trkpt lat="45.4639022" lon="9.1901304" />
      <trkpt lat="45.4639110" lon="9.1901309" />
      <trkpt lat="45.4639105" lon="9.1901614" />
      <trkpt lat="45.4638623" lon="9.1901606" />
      <trkpt lat="45.4638381" lon="9.1901611" />
      <trkpt lat="45.4638372" lon="9.1902606" />
      <trkpt lat="45.4637484" lon="9.1902593" />
      <trkpt lat="45.4636960" lon="9.1902610" />
      <trkpt lat="45.4635805" lon="9.1899838" />
      <trkpt lat="45.4635635" lon="9.1899832" />
      <trkpt lat="45.4633014" lon="9.1899771" />
      <trkpt lat="45.4632851" lon="9.1899596" />
      <trkpt lat="45.4632729" lon="9.1899400" />
      <trkpt lat="45.4632572" lon="9.1899395" />
      <trkpt lat="45.4627557" lon="9.1899225" />
      <trkpt lat="45.4627098" lon="9.1899209" />
      <trkpt lat="45.4627080" lon="9.1902479" />
      <trkpt lat="45.4626563" lon="9.1902528" />
      <trkpt lat="45.4625824" lon="9.1902560" />
      <trkpt lat="45.4624253" lon="9.1902656" />
      <trkpt lat="45.4622878" lon="9.1902681" />
      <trkpt lat="45.4620543" lon="9.1902751" />
      <trkpt lat="45.4620304" lon="9.1902546" />
      <trkpt lat="45.4620112" lon="9.1902756" />
      <trkpt lat="45.4619771" lon="9.1903078" />
      <trkpt lat="45.4619318" lon="9.1903664" />
      <trkpt lat="45.4617278" lon="9.1906300" />
      <trkpt lat="45.4616802" lon="9.1906911" />
      <trkpt lat="45.4616285" lon="9.1907599" />
      <trkpt lat="45.4615855" lon="9.1907008" />
      <trkpt lat="45.4615738" lon="9.1906846" />
      <trkpt lat="45.4611657" lon="9.1912163" />
      <trkpt lat="45.4610959" lon="9.1913107" />
      <trkpt lat="45.4610836" lon="9.1913187" />
      <trkpt lat="45.4610552" lon="9.1912899" />
      <trkpt lat="45.4610497" lon="9.1912998" />
      <trkpt lat="45.4610235" lon="9.1913499" />
      <trkpt lat="45.4610070" lon="9.1913769" />
      <trkpt lat="45.4609922" lon="9.1913975" />
      <trkpt lat="45.4609853" lon="9.1914072" />
      <trkpt lat="45.4609741" lon="9.1914225" />
      <trkpt lat="45.4609629" lon="9.1914381" />
      <trkpt lat="45.4609530" lon="9.1914519" />
      <trkpt lat="45.4609383" lon="9.1914722" />
      <trkpt lat="45.4609138" lon="9.1915063" />
      <trkpt lat="45.4608880" lon="9.1915422" />
      <trkpt lat="45.4608761" lon="9.1915587" />
      <trkpt lat="45.4609452" lon="9.1916338" />
      <trkpt lat="45.4617534" lon="9.1927578" />
      <trkpt lat="45.4619105" lon="9.1930294" />
      <trkpt lat="45.4620361" lon="9.1932890" />
      <trkpt lat="45.4620514" lon="9.1933144" />
      <trkpt lat="45.4620729" lon="9.1933502" />
      <trkpt lat="45.4620895" lon="9.1933779" />
      <trkpt lat="45.4621036" lon="9.1934014" />
      <trkpt lat="45.4622467" lon="9.1936735" />
      <trkpt lat="45.4623222" lon="9.1937929" />
      <trkpt lat="45.4623476" lon="9.1938372" />
      <trkpt lat="45.4624435" lon="9.1941361" />
      <trkpt lat="45.4621288" lon="9.1944618" />
      <trkpt lat="45.4620850" lon="9.1945305" />
      <trkpt lat="45.4619207" lon="9.1948811" />
      <trkpt lat="45.4619072" lon="9.1949200" />
      <trkpt lat="45.4618883" lon="9.1949199" />
      <trkpt lat="45.4618293" lon="9.1948889" />
      <trkpt lat="45.4618267" lon="9.1948968" />
      <trkpt lat="45.4618124" lon="9.1949397" />
      <trkpt lat="45.4618017" lon="9.1949720" />
      <trkpt lat="45.4618004" lon="9.1949760" />
      <trkpt lat="45.4617996" lon="9.1949936" />
      <trkpt lat="45.4617255" lon="9.1952110" />
      <trkpt lat="45.4616910" lon="9.1953031" />
      <trkpt lat="45.4615889" lon="9.1954801" />
      <trkpt lat="45.4615612" lon="9.1955059" />
      <trkpt lat="45.4614410" lon="9.1955664" />
      <trkpt lat="45.4614237" lon="9.1955636" />
      <trkpt lat="45.4613913" lon="9.1955788" />
      <trkpt lat="45.4614235" lon="9.1956391" />
      <trkpt lat="45.4613120" lon="9.1957900" />
      <trkpt lat="45.4609241" lon="9.1962669" />
      <trkpt lat="45.4608649" lon="9.1963960" />
      <trkpt lat="45.4608505" lon="9.1964320" />
      <trkpt lat="45.4608739" lon="9.1965558" />
      <trkpt lat="45.4609010" lon="9.1966951" />
      <trkpt lat="45.4609172" lon="9.1984309" />
      <trkpt lat="45.4609175" lon="9.1985015" />
      <trkpt lat="45.4609200" lon="9.1985826" />
      <trkpt lat="45.4609509" lon="9.1993684" />
      <trkpt lat="45.4609534" lon="9.1995509" />
      <trkpt lat="45.4609555" lon="9.1995955" />
      <trkpt lat="45.4609326" lon="9.1999616" />
      <trkpt lat="45.4609151" lon="9.2000666" />
      <trkpt lat="45.4608773" lon="9.2002477" />
      <trkpt lat="45.4608583" lon="9.2002437" />
      <trkpt lat="45.4608194" lon="9.2002355" />
      <trkpt lat="45.4606306" lon="9.2001959" />
      <trkpt lat="45.4600803" lon="9.2000953" />
      <trkpt lat="45.4599099" lon="9.2000757" />
      <trkpt lat="45.4598512" lon="9.2000686" />
      <trkpt lat="45.4598574" lon="9.2001459" />
      <trkpt lat="45.4598818" lon="9.2005711" />
      <trkpt lat="45.4598554" lon="9.2005768" />
      <trkpt lat="45.4598240" lon="9.2005835" />
      <trkpt lat="45.4588771" lon="9.2008337" />
      <trkpt lat="45.4585538" lon="9.2009065" />
      <trkpt lat="45.4583036" lon="9.2009709" />
      <trkpt lat="45.4581294" lon="9.2010209" />
      <trkpt lat="45.4581341" lon="9.2010643" />
      <trkpt lat="45.4581359" lon="9.2010808" />
      <trkpt lat="45.4580856" lon="9.2010941" />
      <trkpt lat="45.4580724" lon="9.2011174" />
      <trkpt lat="45.4580640" lon="9.2011216" />
      <trkpt lat="45.4580323" lon="9.2011296" />
      <trkpt lat="45.4580055" lon="9.2011350" />
      <trkpt lat="45.4579942" lon="9.2011373" />
      <trkpt lat="45.4582464" lon="9.2031950" />
      <trkpt lat="45.4573705" lon="9.2035012" />
      <trkpt lat="45.4573720" lon="9.2035107" />
      <trkpt lat="45.4573777" lon="9.2035463" />
      <trkpt lat="45.4573844" lon="9.2035946" />
      <trkpt lat="45.4573850" lon="9.2035987" />
      <trkpt lat="45.4573701" lon="9.2036202" />
      <trkpt lat="45.4574667" lon="9.2043115" />
      <trkpt lat="45.4574793" lon="9.2043677" />
      <trkpt lat="45.4574616" lon="9.2043630" />
      <trkpt lat="45.4574618" lon="9.2043639" />
      <trkpt lat="45.4574501" lon="9.2043633" />
      <trkpt lat="45.4574610" lon="9.2044314" />
      <trkpt lat="45.4574613" lon="9.2044404" />
      <trkpt lat="45.4574603" lon="9.2044498" />
      <trkpt lat="45.4574565" lon="9.2044632" />
      <trkpt lat="45.4574521" lon="9.2044794" />
      <trkpt lat="45.4574599" lon="9.2044795" />
      <trkpt lat="45.4575016" lon="9.2045041" />
      <trkpt lat="45.4575941" lon="9.2045586" />
      <trkpt lat="45.4577416" lon="9.2046455" />
      <trkpt lat="45.4580079" lon="9.2048025" />
      <trkpt lat="45.4579825" lon="9.2048993" />
      <trkpt lat="45.4579729" lon="9.2049358" />
      <trkpt lat="45.4579670" lon="9.2049583" />
      <trkpt lat="45.4579519" lon="9.2050160" />
      <trkpt lat="45.4579424" lon="9.2050520" />
      <trkpt lat="45.4578285" lon="9.2054861" />
      <trkpt lat="45.4578227" lon="9.2055079" />
      <trkpt lat="45.4578150" lon="9.2055038" />
      <trkpt lat="45.4577936" lon="9.2054924" />
      <trkpt lat="45.4577878" lon="9.2055120" />
      <trkpt lat="45.4577820" lon="9.2055182" />
      <trkpt lat="45.4577751" lon="9.2055211" />
      <trkpt lat="45.4577679" lon="9.2055192" />
      <trkpt lat="45.4577583" lon="9.2055144" />
      <trkpt lat="45.4577513" lon="9.2055354" />
      <trkpt lat="45.4577447" lon="9.2055553" />
      <trkpt lat="45.4577296" lon="9.2056007" />
      <trkpt lat="45.4577218" lon="9.2056243" />
      <trkpt lat="45.4576980" lon="9.2056957" />
      <trkpt lat="45.4576861" lon="9.2057316" />
      <trkpt lat="45.4576793" lon="9.2057521" />
      <trkpt lat="45.4576728" lon="9.2057715" />
      <trkpt lat="45.4576625" lon="9.2058026" />
      <trkpt lat="45.4576561" lon="9.2058219" />
      <trkpt lat="45.4571919" lon="9.2055622" />
      <trkpt lat="45.4567863" lon="9.2053481" />
      <trkpt lat="45.4565095" lon="9.2054860" />
      <trkpt lat="45.4562929" lon="9.2060171" />
      <trkpt lat="45.4562749" lon="9.2060619" />
      <trkpt lat="45.4562427" lon="9.2061422" />
      <trkpt lat="45.4562099" lon="9.2062239" />
      <trkpt lat="45.4561976" lon="9.2062546" />
      <trkpt lat="45.4560645" lon="9.2065832" />
      <trkpt lat="45.4560710" lon="9.2066174" />
      <trkpt lat="45.4560654" lon="9.2066318" />
      <trkpt lat="45.4560487" lon="9.2066746" />
      <trkpt lat="45.4560283" lon="9.2067269" />
      <trkpt lat="45.4560183" lon="9.2067524" />
      <trkpt lat="45.4559982" lon="9.2067642" />
      <trkpt lat="45.4554270" lon="9.2081733" />
      <trkpt lat="45.4554151" lon="9.2081634" />
      <trkpt lat="45.4553853" lon="9.2081385" />
      <trkpt lat="45.4553487" lon="9.2082303" />
      <trkpt lat="45.4553306" lon="9.2082704" />
      <trkpt lat="45.4553052" lon="9.2083283" />
      <trkpt lat="45.4551247" lon="9.2087625" />
      <trkpt lat="45.4548545" lon="9.2085416" />
      <trkpt lat="45.4546865" lon="9.2089621" />
      <trkpt lat="45.4546570" lon="9.2090358" />
      <trkpt lat="45.4546200" lon="9.2091255" />
      <trkpt lat="45.4544973" lon="9.2094226" />
      <trkpt lat="45.4544796" lon="9.2094617" />
      <trkpt lat="45.4544625" lon="9.2094948" />
      <trkpt lat="45.4544441" lon="9.2095269" />
      <trkpt lat="45.4544089" lon="9.2095760" />
      <trkpt lat="45.4543849" lon="9.2096031" />
      <trkpt lat="45.4543369" lon="9.2096051" />
      <trkpt lat="45.4542773" lon="9.2096202" />
      <trkpt lat="45.4542689" lon="9.2096239" />
      <trkpt lat="45.4542433" lon="9.2096343" />
      <trkpt lat="45.4541991" lon="9.2096610" />
      <trkpt lat="45.4541646" lon="9.2096899" />
      <trkpt lat="45.4541193" lon="9.2096893" />
      <trkpt lat="45.4541016" lon="9.2096864" />
      <trkpt lat="45.4540788" lon="9.2096826" />
      <trkpt lat="45.4540579" lon="9.2096761" />
      <trkpt lat="45.4539899" lon="9.2096477" />
      <trkpt lat="45.4538237" lon="9.2095156" />
      <trkpt lat="45.4537616" lon="9.2094663" />
      <trkpt lat="45.4536873" lon="9.2094081" />
      <trkpt lat="45.4536633" lon="9.2094541" />
      <trkpt lat="45.4536506" lon="9.2094784" />
      <trkpt lat="45.4535906" lon="9.2096297" />
      <trkpt lat="45.4535835" lon="9.2096484" />
      <trkpt lat="45.4535648" lon="9.2096978" />
      <trkpt lat="45.4535443" lon="9.2097520" />
      <trkpt lat="45.4535263" lon="9.2097995" />
      <trkpt lat="45.4535386" lon="9.2098092" />
      <trkpt lat="45.4535438" lon="9.2098515" />
      <trkpt lat="45.4532910" lon="9.2104753" />
      <trkpt lat="45.4532791" lon="9.2105043" />
      <trkpt lat="45.4532459" lon="9.2105852" />
      <trkpt lat="45.4527234" lon="9.2118752" />
      <trkpt lat="45.4527065" lon="9.2118846" />
      <trkpt lat="45.4526930" lon="9.2119160" />
      <trkpt lat="45.4526717" lon="9.2119657" />
      <trkpt lat="45.4526423" lon="9.2120346" />
      <trkpt lat="45.4526322" lon="9.2120582" />
      <trkpt lat="45.4526401" lon="9.2120871" />
      <trkpt lat="45.4521796" lon="9.2132498" />
      <trkpt lat="45.4520237" lon="9.2136163" />
      <trkpt lat="45.4520075" lon="9.2136267" />
      <trkpt lat="45.4518569" lon="9.2134946" />
      <trkpt lat="45.4515785" lon="9.2132793" />
      <trkpt lat="45.4515681" lon="9.2132525" />
      <trkpt lat="45.4515561" lon="9.2132419" />
      <trkpt lat="45.4515158" lon="9.2132060" />
      <trkpt lat="45.4514919" lon="9.2131848" />
      <trkpt lat="45.4514806" lon="9.2131747" />
      <trkpt lat="45.4514609" lon="9.2131848" />
      <trkpt lat="45.4510553" lon="9.2128509" />
      <trkpt lat="45.4510255" lon="9.2128994" />
      <trkpt lat="45.4507894" lon="9.2127036" />
      <trkpt lat="45.4507702" lon="9.2127941" />
      <trkpt lat="45.4507378" lon="9.2129468" />
      <trkpt lat="45.4507248" lon="9.2130080" />
      <trkpt lat="45.4507084" lon="9.2130857" />
      <trkpt lat="45.4507026" lon="9.2131130" />
      <trkpt lat="45.4506828" lon="9.2130963" />
      <trkpt lat="45.4502886" lon="9.2147385" />
      <trkpt lat="45.4502985" lon="9.2147727" />
      <trkpt lat="45.4502891" lon="9.2148074" />
      <trkpt lat="45.4502775" lon="9.2148501" />
      <trkpt lat="45.4502552" lon="9.2149325" />
      <trkpt lat="45.4502497" lon="9.2149514" />
      <trkpt lat="45.4502265" lon="9.2149692" />
      <trkpt lat="45.4500986" lon="9.2153862" />
      <trkpt lat="45.4500317" lon="9.2156040" />
      <trkpt lat="45.4499791" lon="9.2157752" />
      <trkpt lat="45.4499043" lon="9.2160501" />
      <trkpt lat="45.4498847" lon="9.2161164" />
      <trkpt lat="45.4498727" lon="9.2161572" />
      <trkpt lat="45.4498584" lon="9.2162055" />
      <trkpt lat="45.4498459" lon="9.2162470" />
      <trkpt lat="45.4495515" lon="9.2171605" />
      <trkpt lat="45.4494499" lon="9.2175306" />
      <trkpt lat="45.4494277" lon="9.2175225" />
      <trkpt lat="45.4494059" lon="9.2175146" />
      <trkpt lat="45.4493904" lon="9.2175089" />
      <trkpt lat="45.4493876" lon="9.2175079" />
      <trkpt lat="45.4493741" lon="9.2175030" />
      <trkpt lat="45.4493692" lon="9.2175012" />
      <trkpt lat="45.4493378" lon="9.2174897" />
      <trkpt lat="45.4493128" lon="9.2174806" />
      <trkpt lat="45.4491886" lon="9.2178006" />
      <trkpt lat="45.4491534" lon="9.2178935" />
      <trkpt lat="45.4490511" lon="9.2181687" />
      <trkpt lat="45.4489056" lon="9.2186229" />
      <trkpt lat="45.4486934" lon="9.2192848" />
      <trkpt lat="45.4486861" lon="9.2193160" />
      <trkpt lat="45.4486704" lon="9.2193830" />
      <trkpt lat="45.4486577" lon="9.2194370" />
      <trkpt lat="45.4486535" lon="9.2194547" />
      <trkpt lat="45.4486471" lon="9.2194823" />
      <trkpt lat="45.4486347" lon="9.2195350" />
      <trkpt lat="45.4486198" lon="9.2195986" />
      <trkpt lat="45.4486160" lon="9.2196147" />
      <trkpt lat="45.4486259" lon="9.2196392" />
      <trkpt lat="45.4485706" lon="9.2200284" />
      <trkpt lat="45.4484671" lon="9.2207623" />
      <trkpt lat="45.4484319" lon="9.2210121" />
      <trkpt lat="45.4484277" lon="9.2210363" />
      <trkpt lat="45.4484183" lon="9.2210909" />
      <trkpt lat="45.4483841" lon="9.2212893" />
      <trkpt lat="45.4483759" lon="9.2213367" />
      <trkpt lat="45.4483264" lon="9.2216970" />
      <trkpt lat="45.4483036" lon="9.2216901" />
      <trkpt lat="45.4481933" lon="9.2216567" />
      <trkpt lat="45.4481501" lon="9.2216590" />
      <trkpt lat="45.4481120" lon="9.2217230" />
      <trkpt lat="45.4480658" lon="9.2217354" />
      <trkpt lat="45.4477386" lon="9.2218138" />
      <trkpt lat="45.4476976" lon="9.2218206" />
      <trkpt lat="45.4476771" lon="9.2216172" />
      <trkpt lat="45.4474086" lon="9.2216817" />
      <trkpt lat="45.4474604" lon="9.2220885" />
      <trkpt lat="45.4477251" lon="9.2220329" />
      <trkpt lat="45.4477589" lon="9.2222926" />
      <trkpt lat="45.4477715" lon="9.2223901" />
      <trkpt lat="45.4478724" lon="9.2223628" />
      <trkpt lat="45.4479691" lon="9.2223520" />
      <trkpt lat="45.4479632" lon="9.2225443" />
      <trkpt lat="45.4481765" lon="9.2226082" />
      <trkpt lat="45.4481985" lon="9.2226141" />
      <trkpt lat="45.4482698" lon="9.2226362" />
      <trkpt lat="45.4481489" lon="9.2234949" />
      <trkpt lat="45.4481379" lon="9.2235725" />
      <trkpt lat="45.4481323" lon="9.2236222" />
      <trkpt lat="45.4481347" lon="9.2236715" />
      <trkpt lat="45.4481436" lon="9.2237038" />
      <trkpt lat="45.4481600" lon="9.2237468" />
      <trkpt lat="45.4481221" lon="9.2238965" />
      <trkpt lat="45.4481192" lon="9.2239935" />
      <trkpt lat="45.4481129" lon="9.2240037" />
      <trkpt lat="45.4478970" lon="9.2240055" />
      <trkpt lat="45.4466064" lon="9.2240148" />
      <trkpt lat="45.4461825" lon="9.2240152" />
      <trkpt lat="45.4449210" lon="9.2240363" />
      <trkpt lat="45.4448452" lon="9.2240209" />
      <trkpt lat="45.4447352" lon="9.2239654" />
      <trkpt lat="45.4446847" lon="9.2239399" />
      <trkpt lat="45.4446802" lon="9.2239547" />
      <trkpt lat="45.4446682" lon="9.2239946" />
      <trkpt lat="45.4446487" lon="9.2240615" />
      <trkpt lat="45.4446476" lon="9.2242046" />
      <trkpt lat="45.4446639" lon="9.2242571" />
      <trkpt lat="45.4446867" lon="9.2243385" />
      <trkpt lat="45.4446901" lon="9.2243497" />
      <trkpt lat="45.4446952" lon="9.2243662" />
      <trkpt lat="45.4447074" lon="9.2244032" />
      <trkpt lat="45.4447207" lon="9.2244443" />
      <trkpt lat="45.4447248" lon="9.2244568" />
      <trkpt lat="45.4445996" lon="9.2245346" />
      <trkpt lat="45.4445451" lon="9.2246056" />
      <trkpt lat="45.4445332" lon="9.2246078" />
      <trkpt lat="45.4444262" lon="9.2246272" />
      <trkpt lat="45.4444017" lon="9.2246316" />
      <trkpt lat="45.4443780" lon="9.2246352" />
      <trkpt lat="45.4443280" lon="9.2246579" />
      <trkpt lat="45.4442880" lon="9.2246760" />
      <trkpt lat="45.4442381" lon="9.2246986" />
      <trkpt lat="45.4442268" lon="9.2247037" />
      <trkpt lat="45.4441974" lon="9.2246589" />
      <trkpt lat="45.4441537" lon="9.2246077" />
      <trkpt lat="45.4440903" lon="9.2245478" />
      <trkpt lat="45.4440118" lon="9.2245039" />
      <trkpt lat="45.4439584" lon="9.2244809" />
      <trkpt lat="45.4439372" lon="9.2244735" />
      <trkpt lat="45.4434917" lon="9.2244807" />
      <trkpt lat="45.4432913" lon="9.2244839" />
      <trkpt lat="45.4430353" lon="9.2244762" />
      <trkpt lat="45.4430158" lon="9.2244883" />
      <trkpt lat="45.4429955" lon="9.2244884" />
      <trkpt lat="45.4429531" lon="9.2244885" />
      <trkpt lat="45.4429391" lon="9.2244886" />
      <trkpt lat="45.4429224" lon="9.2244887" />
      <trkpt lat="45.4429084" lon="9.2244887" />
      <trkpt lat="45.4428695" lon="9.2244888" />
      <trkpt lat="45.4428281" lon="9.2244890" />
      <trkpt lat="45.4427662" lon="9.2244893" />
      <trkpt lat="45.4427515" lon="9.2244742" />
      <trkpt lat="45.4418173" lon="9.2244897" />
      <trkpt lat="45.4418102" lon="9.2245030" />
      <trkpt lat="45.4417797" lon="9.2245026" />
      <trkpt lat="45.4417507" lon="9.2245023" />
      <trkpt lat="45.4417340" lon="9.2245021" />
      <trkpt lat="45.4415881" lon="9.2245005" />
      <trkpt lat="45.4415567" lon="9.2245002" />
      <trkpt lat="45.4415164" lon="9.2244997" />
      <trkpt lat="45.4415013" lon="9.2244995" />
      <trkpt lat="45.4414954" lon="9.2244827" />
      <trkpt lat="45.4411614" lon="9.2244850" />
      <trkpt lat="45.4406199" lon="9.2244955" />
      <trkpt lat="45.4405373" lon="9.2244971" />
      <trkpt lat="45.4403921" lon="9.2244999" />
      <trkpt lat="45.4403922" lon="9.2244869" />
      <trkpt lat="45.4403928" lon="9.2244187" />
      <trkpt lat="45.4403933" lon="9.2243525" />
      <trkpt lat="45.4404006" lon="9.2242192" />
      <trkpt lat="45.4403959" lon="9.2241390" />
      <trkpt lat="45.4403904" lon="9.2240448" />
      <trkpt lat="45.4403963" lon="9.2240032" />
      <trkpt lat="45.4403496" lon="9.2238902" />
      <trkpt lat="45.4403369" lon="9.2238868" />
      <trkpt lat="45.4402966" lon="9.2238761" />
      <trkpt lat="45.4402649" lon="9.2238676" />
      <trkpt lat="45.4402584" lon="9.2238659" />
      <trkpt lat="45.4401881" lon="9.2238510" />
      <trkpt lat="45.4401793" lon="9.2238490" />
      <trkpt lat="45.4401707" lon="9.2238470" />
      <trkpt lat="45.4401635" lon="9.2238456" />
      <trkpt lat="45.4401541" lon="9.2238438" />
      <trkpt lat="45.4401481" lon="9.2238425" />
      <trkpt lat="45.4401143" lon="9.2238268" />
      <trkpt lat="45.4400800" lon="9.2237885" />
      <trkpt lat="45.4400674" lon="9.2237715" />
      <trkpt lat="45.4400514" lon="9.2237562" />
      <trkpt lat="45.4400409" lon="9.2237490" />
      <trkpt lat="45.4400296" lon="9.2237440" />
      <trkpt lat="45.4400172" lon="9.2237422" />
      <trkpt lat="45.4400042" lon="9.2237417" />
      <trkpt lat="45.4399923" lon="9.2237431" />
      <trkpt lat="45.4399805" lon="9.2237466" />
      <trkpt lat="45.4399692" lon="9.2237529" />
      <trkpt lat="45.4399571" lon="9.2237616" />
      <trkpt lat="45.4399423" lon="9.2237751" />
      <trkpt lat="45.4398917" lon="9.2236607" />
      <trkpt lat="45.4398774" lon="9.2236595" />
      <trkpt lat="45.4398661" lon="9.2236557" />
      <trkpt lat="45.4398568" lon="9.2236469" />
      <trkpt lat="45.4398494" lon="9.2236368" />
      <trkpt lat="45.4397954" lon="9.2235148" />
      <trkpt lat="45.4397591" lon="9.2234377" />
      <trkpt lat="45.4396880" lon="9.2232894" />
      <trkpt lat="45.4396002" lon="9.2231065" />
      <trkpt lat="45.4395690" lon="9.2230637" />
      <trkpt lat="45.4394742" lon="9.2228616" />
      <trkpt lat="45.4394337" lon="9.2227798" />
      <trkpt lat="45.4394192" lon="9.2227446" />
      <trkpt lat="45.4394132" lon="9.2227326" />
      <trkpt lat="45.4393928" lon="9.2226882" />
      <trkpt lat="45.4393836" lon="9.2226694" />
      <trkpt lat="45.4393809" lon="9.2226632" />
      <trkpt lat="45.4393318" lon="9.2225556" />
      <trkpt lat="45.4393100" lon="9.2224950" />
      <trkpt lat="45.4392963" lon="9.2224569" />
      <trkpt lat="45.4392908" lon="9.2224418" />
      <trkpt lat="45.4387995" lon="9.2213887" />
      <trkpt lat="45.4387847" lon="9.2213560" />
      <trkpt lat="45.4386765" lon="9.2211159" />
      <trkpt lat="45.4383085" lon="9.2202999" />
      <trkpt lat="45.4382029" lon="9.2200629" />
      <trkpt lat="45.4381830" lon="9.2199807" />
      <trkpt lat="45.4381921" lon="9.2198685" />
      <trkpt lat="45.4381548" lon="9.2198644" />
      <trkpt lat="45.4381378" lon="9.2198586" />
      <trkpt lat="45.4380837" lon="9.2198402" />
      <trkpt lat="45.4380737" lon="9.2198186" />
      <trkpt lat="45.4380669" lon="9.2198035" />
      <trkpt lat="45.4380608" lon="9.2197902" />
      <trkpt lat="45.4380503" lon="9.2197669" />
      <trkpt lat="45.4380329" lon="9.2197294" />
      <trkpt lat="45.4380220" lon="9.2197056" />
      <trkpt lat="45.4380138" lon="9.2196879" />
      <trkpt lat="45.4379742" lon="9.2196013" />
      <trkpt lat="45.4379674" lon="9.2195865" />
      <trkpt lat="45.4379507" lon="9.2195501" />
      <trkpt lat="45.4379291" lon="9.2195019" />
      <trkpt lat="45.4377893" lon="9.2191955" />
      <trkpt lat="45.4374232" lon="9.2183936" />
      <trkpt lat="45.4373233" lon="9.2181565" />
      <trkpt lat="45.4372040" lon="9.2178959" />
      <trkpt lat="45.4371598" lon="9.2177787" />
      <trkpt lat="45.4371441" lon="9.2177331" />
      <trkpt lat="45.4370998" lon="9.2175395" />
      <trkpt lat="45.4370623" lon="9.2173760" />
      <trkpt lat="45.4370856" lon="9.2172697" />
      <trkpt lat="45.4370841" lon="9.2172631" />
      <trkpt lat="45.4370800" lon="9.2172452" />
      <trkpt lat="45.4370739" lon="9.2172174" />
      <trkpt lat="45.4370623" lon="9.2171688" />
      <trkpt lat="45.4370286" lon="9.2171842" />
      <trkpt lat="45.4370109" lon="9.2171923" />
      <trkpt lat="45.4369806" lon="9.2172063" />
      <trkpt lat="45.4369641" lon="9.2172139" />
      <trkpt lat="45.4369117" lon="9.2172380" />
      <trkpt lat="45.4369048" lon="9.2172412" />
      <trkpt lat="45.4368966" lon="9.2172449" />
      <trkpt lat="45.4368949" lon="9.2172388" />
      <trkpt lat="45.4368729" lon="9.2172484" />
      <trkpt lat="45.4361474" lon="9.2175733" />
      <trkpt lat="45.4360901" lon="9.2176238" />
      <trkpt lat="45.4358971" lon="9.2177276" />
      <trkpt lat="45.4358224" lon="9.2178007" />
      <trkpt lat="45.4357900" lon="9.2178323" />
      <trkpt lat="45.4351775" lon="9.2184881" />
      <trkpt lat="45.4345393" lon="9.2192494" />
      <trkpt lat="45.4345364" lon="9.2192725" />
      <trkpt lat="45.4345461" lon="9.2192902" />
      <trkpt lat="45.4345301" lon="9.2193118" />
      <trkpt lat="45.4344954" lon="9.2193564" />
      <trkpt lat="45.4344557" lon="9.2194078" />
      <trkpt lat="45.4344418" lon="9.2194265" />
      <trkpt lat="45.4344197" lon="9.2193914" />
      <trkpt lat="45.4338294" lon="9.2201740" />
      <trkpt lat="45.4338133" lon="9.2201974" />
      <trkpt lat="45.4338224" lon="9.2202109" />
      <trkpt lat="45.4341400" lon="9.2207184" />
      <trkpt lat="45.4341319" lon="9.2207298" />
      <trkpt lat="45.4341026" lon="9.2207717" />
      <trkpt lat="45.4341771" lon="9.2208929" />
      <trkpt lat="45.4342427" lon="9.2210020" />
      <trkpt lat="45.4353865" lon="9.2228566" />
      <trkpt lat="45.4354348" lon="9.2229357" />
      <trkpt lat="45.4354827" lon="9.2230102" />
      <trkpt lat="45.4355954" lon="9.2231883" />
      <trkpt lat="45.4356510" lon="9.2232762" />
      <trkpt lat="45.4359266" lon="9.2237096" />
      <trkpt lat="45.4359668" lon="9.2236593" />
      <trkpt lat="45.4359775" lon="9.2236459" />
      <trkpt lat="45.4361839" lon="9.2239679" />
      <trkpt lat="45.4368919" lon="9.2239493" />
      <trkpt lat="45.4368924" lon="9.2240219" />
      <trkpt lat="45.4368925" lon="9.2240451" />
      <trkpt lat="45.4368928" lon="9.2240832" />
      <trkpt lat="45.4368931" lon="9.2241356" />
      <trkpt lat="45.4368922" lon="9.2241643" />
      <trkpt lat="45.4368920" lon="9.2241764" />
      <trkpt lat="45.4368917" lon="9.2241904" />
      <trkpt lat="45.4368914" lon="9.2242080" />
      <trkpt lat="45.4368912" lon="9.2242159" />
      <trkpt lat="45.4368909" lon="9.2242285" />
      <trkpt lat="45.4368870" lon="9.2243710" />
      <trkpt lat="45.4368855" lon="9.2244308" />
      <trkpt lat="45.4368846" lon="9.2244637" />
      <trkpt lat="45.4368835" lon="9.2245091" />
      <trkpt lat="45.4368827" lon="9.2245386" />
      <trkpt lat="45.4368897" lon="9.2245513" />
      <trkpt lat="45.4369151" lon="9.2247565" />
      <trkpt lat="45.4369509" lon="9.2249469" />
      <trkpt lat="45.4370121" lon="9.2250918" />
      <trkpt lat="45.4370723" lon="9.2251843" />
      <trkpt lat="45.4370619" lon="9.2252079" />
      <trkpt lat="45.4370838" lon="9.2252309" />
      <trkpt lat="45.4371017" lon="9.2252496" />
      <trkpt lat="45.4371412" lon="9.2252911" />
      <trkpt lat="45.4371510" lon="9.2253014" />
      <trkpt lat="45.4371688" lon="9.2252762" />
      <trkpt lat="45.4372247" lon="9.2253211" />
      <trkpt lat="45.4373499" lon="9.2253841" />
      <trkpt lat="45.4374449" lon="9.2254163" />
      <trkpt lat="45.4374435" lon="9.2254334" />
      <trkpt lat="45.4374684" lon="9.2254357" />
      <trkpt lat="45.4375031" lon="9.2254389" />
      <trkpt lat="45.4375662" lon="9.2254448" />
      <trkpt lat="45.4375851" lon="9.2254466" />
      <trkpt lat="45.4375899" lon="9.2253882" />
      <trkpt lat="45.4377451" lon="9.2253345" />
      <trkpt lat="45.4377642" lon="9.2253558" />
      <trkpt lat="45.4377789" lon="9.2253408" />
      <trkpt lat="45.4378131" lon="9.2253058" />
      <trkpt lat="45.4378583" lon="9.2252594" />
      <trkpt lat="45.4378700" lon="9.2252474" />
      <trkpt lat="45.4387808" lon="9.2262477" />
      <trkpt lat="45.4387925" lon="9.2262606" />
      <trkpt lat="45.4388263" lon="9.2261942" />
      <trkpt lat="45.4388355" lon="9.2262028" />
      <trkpt lat="45.4388632" lon="9.2262288" />
      <trkpt lat="45.4388999" lon="9.2262632" />
      <trkpt lat="45.4389044" lon="9.2262675" />
      <trkpt lat="45.4389699" lon="9.2263288" />
      <trkpt lat="45.4389750" lon="9.2263336" />
      <trkpt lat="45.4390313" lon="9.2263864" />
      <trkpt lat="45.4390620" lon="9.2264151" />
      <trkpt lat="45.4390695" lon="9.2264221" />
      <trkpt lat="45.4390134" lon="9.2265350" />
      <trkpt lat="45.4390155" lon="9.2265565" />
      <trkpt lat="45.4395306" lon="9.2271170" />
      <trkpt lat="45.4395355" lon="9.2271224" />
      <trkpt lat="45.4395521" lon="9.2271403" />
      <trkpt lat="45.4395203" lon="9.2272022" />
      <trkpt lat="45.4397930" lon="9.2275062" />
      <trkpt lat="45.4398073" lon="9.2275222" />
      <trkpt lat="45.4398393" lon="9.2275422" />
      <trkpt lat="45.4398698" lon="9.2275678" />
      <trkpt lat="45.4398807" lon="9.2275655" />
      <trkpt lat="45.4398917" lon="9.2275658" />
      <trkpt lat="45.4399089" lon="9.2275716" />
      <trkpt lat="45.4399270" lon="9.2275865" />
      <trkpt lat="45.4399408" lon="9.2276083" />
      <trkpt lat="45.4399498" lon="9.2276381" />
      <trkpt lat="45.4399516" lon="9.2276629" />
      <trkpt lat="45.4399633" lon="9.2276823" />
      <trkpt lat="45.4399791" lon="9.2277093" />
      <trkpt lat="45.4400016" lon="9.2277445" />
      <trkpt lat="45.4400581" lon="9.2277958" />
      <trkpt lat="45.4401210" lon="9.2278620" />
      <trkpt lat="45.4404240" lon="9.2281947" />
      <trkpt lat="45.4405204" lon="9.2283013" />
      <trkpt lat="45.4406111" lon="9.2284085" />
      <trkpt lat="45.4406616" lon="9.2283158" />
      <trkpt lat="45.4406934" lon="9.2283546" />
      <trkpt lat="45.4407097" lon="9.2283744" />
      <trkpt lat="45.4408279" lon="9.2281636" />
      <trkpt lat="45.4408383" lon="9.2281474" />
      <trkpt lat="45.4408557" lon="9.2281204" />
      <trkpt lat="45.4408718" lon="9.2280954" />
      <trkpt lat="45.4408806" lon="9.2280818" />
      <trkpt lat="45.4410647" lon="9.2277784" />
      <trkpt lat="45.4410696" lon="9.2277697" />
      <trkpt lat="45.4410913" lon="9.2277334" />
      <trkpt lat="45.4411112" lon="9.2277001" />
      <trkpt lat="45.4411172" lon="9.2276901" />
      <trkpt lat="45.4411373" lon="9.2276565" />
      <trkpt lat="45.4411418" lon="9.2276490" />
      <trkpt lat="45.4411577" lon="9.2276223" />
      <trkpt lat="45.4411754" lon="9.2275927" />
      <trkpt lat="45.4411821" lon="9.2275816" />
      <trkpt lat="45.4412850" lon="9.2273880" />
      <trkpt lat="45.4415015" lon="9.2270236" />
      <trkpt lat="45.4415066" lon="9.2270156" />
      <trkpt lat="45.4415211" lon="9.2269932" />
      <trkpt lat="45.4415399" lon="9.2269638" />
      <trkpt lat="45.4415469" lon="9.2269530" />
      <trkpt lat="45.4417058" lon="9.2266835" />
      <trkpt lat="45.4417417" lon="9.2266712" />
      <trkpt lat="45.4422859" lon="9.2272577" />
      <trkpt lat="45.4422935" lon="9.2272658" />
      <trkpt lat="45.4423088" lon="9.2272821" />
      <trkpt lat="45.4423482" lon="9.2273241" />
      <trkpt lat="45.4423588" lon="9.2273355" />
      <trkpt lat="45.4425215" lon="9.2275069" />
      <trkpt lat="45.4429812" lon="9.2279967" />
      <trkpt lat="45.4429890" lon="9.2279803" />
      <trkpt lat="45.4430122" lon="9.2279318" />
      <trkpt lat="45.4434787" lon="9.2284159" />
      <trkpt lat="45.4436642" lon="9.2286123" />
      <trkpt lat="45.4438309" lon="9.2287888" />
      <trkpt lat="45.4438635" lon="9.2288328" />
      <trkpt lat="45.4438951" lon="9.2288862" />
      <trkpt lat="45.4439190" lon="9.2289427" />
      <trkpt lat="45.4439380" lon="9.2290163" />
      <trkpt lat="45.4439460" lon="9.2291078" />
      <trkpt lat="45.4439459" lon="9.2292174" />
      <trkpt lat="45.4439353" lon="9.2292876" />
      <trkpt lat="45.4439114" lon="9.2293628" />
      <trkpt lat="45.4438837" lon="9.2294175" />
      <trkpt lat="45.4439279" lon="9.2294777" />
      <trkpt lat="45.4442558" lon="9.2299242" />
      <trkpt lat="45.4443215" lon="9.2300096" />
      <trkpt lat="45.4443470" lon="9.2300807" />
      <trkpt lat="45.4443713" lon="9.2301757" />
      <trkpt lat="45.4443908" lon="9.2302927" />
      <trkpt lat="45.4444003" lon="9.2303052" />
      <trkpt lat="45.4444251" lon="9.2302577" />
      <trkpt lat="45.4444477" lon="9.2301531" />
      <trkpt lat="45.4444482" lon="9.2301295" />
      <trkpt lat="45.4444628" lon="9.2301345" />
      <trkpt lat="45.4444931" lon="9.2301449" />
      <trkpt lat="45.4445286" lon="9.2301570" />
      <trkpt lat="45.4445573" lon="9.2301668" />
      <trkpt lat="45.4445635" lon="9.2301737" />
      <trkpt lat="45.4445827" lon="9.2301949" />
      <trkpt lat="45.4446217" lon="9.2302383" />
      <trkpt lat="45.4446409" lon="9.2302595" />
      <trkpt lat="45.4446331" lon="9.2302671" />
      <trkpt lat="45.4446631" lon="9.2303345" />
      <trkpt lat="45.4447289" lon="9.2305062" />
      <trkpt lat="45.4447845" lon="9.2306909" />
      <trkpt lat="45.4447889" lon="9.2307108" />
      <trkpt lat="45.4447964" lon="9.2307441" />
      <trkpt lat="45.4448040" lon="9.2307798" />
      <trkpt lat="45.4448071" lon="9.2307942" />
      <trkpt lat="45.4450057" lon="9.2314459" />
      <trkpt lat="45.4450471" lon="9.2315626" />
      <trkpt lat="45.4450540" lon="9.2315578" />
      <trkpt lat="45.4450765" lon="9.2315421" />
      <trkpt lat="45.4451009" lon="9.2315252" />
      <trkpt lat="45.4451096" lon="9.2315192" />
      <trkpt lat="45.4451411" lon="9.2316015" />
      <trkpt lat="45.4451741" lon="9.2316163" />
      <trkpt lat="45.4452021" lon="9.2315927" />
      <trkpt lat="45.4452057" lon="9.2316071" />
      <trkpt lat="45.4452171" lon="9.2316517" />
      <trkpt lat="45.4452927" lon="9.2316235" />
      <trkpt lat="45.4453538" lon="9.2316116" />
      <trkpt lat="45.4454088" lon="9.2316106" />
      <trkpt lat="45.4454525" lon="9.2316159" />
      <trkpt lat="45.4454909" lon="9.2316267" />
      <trkpt lat="45.4455836" lon="9.2316678" />
      <trkpt lat="45.4457893" lon="9.2317450" />
      <trkpt lat="45.4459095" lon="9.2317709" />
      <trkpt lat="45.4459288" lon="9.2318288" />
      <trkpt lat="45.4459288" lon="9.2318653" />
      <trkpt lat="45.4459227" lon="9.2318997" />
      <trkpt lat="45.4457685" lon="9.2323172" />
      <trkpt lat="45.4457251" lon="9.2324252" />
      <trkpt lat="45.4456816" lon="9.2325190" />
      <trkpt lat="45.4456320" lon="9.2326269" />
      <trkpt lat="45.4455761" lon="9.2327455" />
      <trkpt lat="45.4455115" lon="9.2328587" />
      <trkpt lat="45.4454395" lon="9.2329773" />
      <trkpt lat="45.4451229" lon="9.2334710" />
      <trkpt lat="45.4454395" lon="9.2329773" />
      <trkpt lat="45.4455115" lon="9.2328587" />
      <trkpt lat="45.4455761" lon="9.2327455" />
      <trkpt lat="45.4456320" lon="9.2326269" />
      <trkpt lat="45.4456816" lon="9.2325190" />
      <trkpt lat="45.4457251" lon="9.2324252" />
      <trkpt lat="45.4457685" lon="9.2323172" />
      <trkpt lat="45.4459227" lon="9.2318997" />
      <trkpt lat="45.4459288" lon="9.2318653" />
      <trkpt lat="45.4459288" lon="9.2318288" />
      <trkpt lat="45.4459095" lon="9.2317709" />
      <trkpt lat="45.4459529" lon="9.2317549" />
      <trkpt lat="45.4459845" lon="9.2317267" />
      <trkpt lat="45.4460109" lon="9.2316837" />
      <trkpt lat="45.4460266" lon="9.2316382" />
      <trkpt lat="45.4460365" lon="9.2315834" />
      <trkpt lat="45.4461346" lon="9.2307941" />
      <trkpt lat="45.4461640" lon="9.2305632" />
      <trkpt lat="45.4461677" lon="9.2305313" />
      <trkpt lat="45.4461764" lon="9.2304840" />
      <trkpt lat="45.4461991" lon="9.2303217" />
      <trkpt lat="45.4462182" lon="9.2301959" />
      <trkpt lat="45.4461946" lon="9.2301888" />
      <trkpt lat="45.4461827" lon="9.2301853" />
      <trkpt lat="45.4462665" lon="9.2296503" />
      <trkpt lat="45.4456660" lon="9.2296530" />
      <trkpt lat="45.4455625" lon="9.2296584" />
      <trkpt lat="45.4454189" lon="9.2296907" />
      <trkpt lat="45.4452071" lon="9.2297689" />
      <trkpt lat="45.4450668" lon="9.2298597" />
      <trkpt lat="45.4450071" lon="9.2297532" />
      <trkpt lat="45.4449847" lon="9.2297133" />
      <trkpt lat="45.4450894" lon="9.2296369" />
      <trkpt lat="45.4451985" lon="9.2296092" />
      <trkpt lat="45.4453039" lon="9.2295725" />
      <trkpt lat="45.4454090" lon="9.2295409" />
      <trkpt lat="45.4455165" lon="9.2295202" />
      <trkpt lat="45.4456257" lon="9.2295068" />
      <trkpt lat="45.4457295" lon="9.2295022" />
      <trkpt lat="45.4462606" lon="9.2294962" />
      <trkpt lat="45.4469946" lon="9.2294838" />
      <trkpt lat="45.4478536" lon="9.2294724" />
      <trkpt lat="45.4479361" lon="9.2294755" />
      <trkpt lat="45.4479874" lon="9.2294842" />
      <trkpt lat="45.4480368" lon="9.2294993" />
      <trkpt lat="45.4480859" lon="9.2295218" />
      <trkpt lat="45.4481349" lon="9.2295500" />
      <trkpt lat="45.4481873" lon="9.2295858" />
      <trkpt lat="45.4482379" lon="9.2296342" />
      <trkpt lat="45.4482833" lon="9.2296914" />
      <trkpt lat="45.4483288" lon="9.2297480" />
      <trkpt lat="45.4483965" lon="9.2297817" />
      <trkpt lat="45.4484629" lon="9.2297896" />
      <trkpt lat="45.4485416" lon="9.2297689" />
      <trkpt lat="45.4486094" lon="9.2297203" />
      <trkpt lat="45.4486650" lon="9.2296478" />
      <trkpt lat="45.4487670" lon="9.2295432" />
      <trkpt lat="45.4488352" lon="9.2294963" />
      <trkpt lat="45.4489038" lon="9.2294635" />
      <trkpt lat="45.4489789" lon="9.2294426" />
      <trkpt lat="45.4490548" lon="9.2294312" />
      <trkpt lat="45.4492504" lon="9.2294218" />
      <trkpt lat="45.4496250" lon="9.2293605" />
      <trkpt lat="45.4497894" lon="9.2293575" />
      <trkpt lat="45.4498925" lon="9.2293555" />
      <trkpt lat="45.4499650" lon="9.2293542" />
      <trkpt lat="45.4504914" lon="9.2293378" />
      <trkpt lat="45.4504910" lon="9.2292405" />
      <trkpt lat="45.4504907" lon="9.2291841" />
      <trkpt lat="45.4505111" lon="9.2291822" />
      <trkpt lat="45.4505088" lon="9.2290556" />
      <trkpt lat="45.4506484" lon="9.2290479" />
      <trkpt lat="45.4506445" lon="9.2288415" />
      <trkpt lat="45.4506351" lon="9.2270407" />
      <trkpt lat="45.4506344" lon="9.2269169" />
      <trkpt lat="45.4506336" lon="9.2267852" />
      <trkpt lat="45.4506306" lon="9.2263180" />
      <trkpt lat="45.4506292" lon="9.2260932" />
      <trkpt lat="45.4506875" lon="9.2260936" />
      <trkpt lat="45.4507045" lon="9.2249610" />
      <trkpt lat="45.4507049" lon="9.2246673" />
      <trkpt lat="45.4510775" lon="9.2246693" />
      <trkpt lat="45.4510787" lon="9.2246687" />
      <trkpt lat="45.4511037" lon="9.2246556" />
      <trkpt lat="45.4511251" lon="9.2246445" />
      <trkpt lat="45.4511422" lon="9.2246356" />
      <trkpt lat="45.4511692" lon="9.2246215" />
      <trkpt lat="45.4511791" lon="9.2246164" />
      <trkpt lat="45.4511907" lon="9.2246103" />
      <trkpt lat="45.4512044" lon="9.2246032" />
      <trkpt lat="45.4511993" lon="9.2245824" />
      <trkpt lat="45.4511853" lon="9.2245335" />
      <trkpt lat="45.4511685" lon="9.2244752" />
      <trkpt lat="45.4511668" lon="9.2244694" />
      <trkpt lat="45.4512538" lon="9.2244601" />
      <trkpt lat="45.4513184" lon="9.2244436" />
      <trkpt lat="45.4513720" lon="9.2244212" />
      <trkpt lat="45.4514183" lon="9.2243895" />
      <trkpt lat="45.4514527" lon="9.2243483" />
      <trkpt lat="45.4514882" lon="9.2242646" />
      <trkpt lat="45.4515160" lon="9.2241909" />
      <trkpt lat="45.4515798" lon="9.2241399" />
      <trkpt lat="45.4515978" lon="9.2241110" />
      <trkpt lat="45.4518115" lon="9.2240441" />
      <trkpt lat="45.4524171" lon="9.2240344" />
      <trkpt lat="45.4529893" lon="9.2240252" />
      <trkpt lat="45.4531402" lon="9.2240228" />
      <trkpt lat="45.4535160" lon="9.2240167" />
      <trkpt lat="45.4535169" lon="9.2239317" />
      <trkpt lat="45.4535179" lon="9.2238312" />
      <trkpt lat="45.4535183" lon="9.2237888" />
      <trkpt lat="45.4535177" lon="9.2237497" />
      <trkpt lat="45.4535174" lon="9.2237255" />
      <trkpt lat="45.4535253" lon="9.2237237" />
      <trkpt lat="45.4535320" lon="9.2237152" />
      <trkpt lat="45.4535362" lon="9.2237042" />
      <trkpt lat="45.4535358" lon="9.2236541" />
      <trkpt lat="45.4535344" lon="9.2227703" />
      <trkpt lat="45.4535239" lon="9.2218074" />
      <trkpt lat="45.4535437" lon="9.2217738" />
      <trkpt lat="45.4535433" lon="9.2217216" />
      <trkpt lat="45.4535692" lon="9.2217203" />
      <trkpt lat="45.4536085" lon="9.2217186" />
      <trkpt lat="45.4536364" lon="9.2217169" />
      <trkpt lat="45.4536842" lon="9.2217145" />
      <trkpt lat="45.4538990" lon="9.2209924" />
      <trkpt lat="45.4547980" lon="9.2209810" />
      <trkpt lat="45.4547982" lon="9.2209967" />
      <trkpt lat="45.4548039" lon="9.2209966" />
      <trkpt lat="45.4548497" lon="9.2209956" />
      <trkpt lat="45.4548679" lon="9.2209953" />
      <trkpt lat="45.4549177" lon="9.2209942" />
      <trkpt lat="45.4549441" lon="9.2209937" />
      <trkpt lat="45.4549829" lon="9.2209928" />
      <trkpt lat="45.4549908" lon="9.2209927" />
      <trkpt lat="45.4550062" lon="9.2209818" />
      <trkpt lat="45.4550062" lon="9.2209766" />
      <trkpt lat="45.4550060" lon="9.2209583" />
      <trkpt lat="45.4550060" lon="9.2209540" />
      <trkpt lat="45.4550057" lon="9.2208961" />
      <trkpt lat="45.4550056" lon="9.2208641" />
      <trkpt lat="45.4557655" lon="9.2208555" />
      <trkpt lat="45.4557650" lon="9.2208324" />
      <trkpt lat="45.4557642" lon="9.2207989" />
      <trkpt lat="45.4557605" lon="9.2204247" />
      <trkpt lat="45.4557613" lon="9.2204033" />
      <trkpt lat="45.4557620" lon="9.2203827" />
      <trkpt lat="45.4558038" lon="9.2203694" />
      <trkpt lat="45.4558476" lon="9.2203449" />
      <trkpt lat="45.4558841" lon="9.2203066" />
      <trkpt lat="45.4558866" lon="9.2202872" />
      <trkpt lat="45.4558914" lon="9.2202511" />
      <trkpt lat="45.4559249" lon="9.2202578" />
      <trkpt lat="45.4559974" lon="9.2202724" />
      <trkpt lat="45.4560123" lon="9.2201391" />
      <trkpt lat="45.4560452" lon="9.2199741" />
      <trkpt lat="45.4560847" lon="9.2198212" />
      <trkpt lat="45.4561430" lon="9.2196563" />
      <trkpt lat="45.4561830" lon="9.2195827" />
      <trkpt lat="45.4562230" lon="9.2195423" />
      <trkpt lat="45.4562663" lon="9.2195410" />
      <trkpt lat="45.4568740" lon="9.2195354" />
      <trkpt lat="45.4569226" lon="9.2195349" />
      <trkpt lat="45.4574089" lon="9.2195281" />
      <trkpt lat="45.4574389" lon="9.2195363" />
      <trkpt lat="45.4574645" lon="9.2194846" />
      <trkpt lat="45.4574900" lon="9.2194322" />
      <trkpt lat="45.4574972" lon="9.2194173" />
      <trkpt lat="45.4575108" lon="9.2193894" />
      <trkpt lat="45.4575177" lon="9.2193433" />
      <trkpt lat="45.4575565" lon="9.2193278" />
      <trkpt lat="45.4575914" lon="9.2193130" />
      <trkpt lat="45.4576110" lon="9.2193067" />
      <trkpt lat="45.4576331" lon="9.2192676" />
      <trkpt lat="45.4576461" lon="9.2192419" />
      <trkpt lat="45.4576547" lon="9.2192226" />
      <trkpt lat="45.4576634" lon="9.2191995" />
      <trkpt lat="45.4577025" lon="9.2190741" />
      <trkpt lat="45.4581045" lon="9.2178093" />
      <trkpt lat="45.4581492" lon="9.2176685" />
      <trkpt lat="45.4581640" lon="9.2176218" />
      <trkpt lat="45.4581984" lon="9.2175231" />
      <trkpt lat="45.4582154" lon="9.2174724" />
      <trkpt lat="45.4582432" lon="9.2173898" />
      <trkpt lat="45.4583004" lon="9.2172194" />
      <trkpt lat="45.4583548" lon="9.2170595" />
      <trkpt lat="45.4583638" lon="9.2170306" />
      <trkpt lat="45.4583691" lon="9.2170138" />
      <trkpt lat="45.4584581" lon="9.2167291" />
      <trkpt lat="45.4584686" lon="9.2167164" />
      <trkpt lat="45.4584794" lon="9.2167090" />
      <trkpt lat="45.4584950" lon="9.2167030" />
      <trkpt lat="45.4585121" lon="9.2167005" />
      <trkpt lat="45.4585012" lon="9.2166667" />
      <trkpt lat="45.4584960" lon="9.2166372" />
      <trkpt lat="45.4584949" lon="9.2166123" />
      <trkpt lat="45.4585082" lon="9.2165334" />
      <trkpt lat="45.4585469" lon="9.2165547" />
      <trkpt lat="45.4585524" lon="9.2165577" />
      <trkpt lat="45.4586492" lon="9.2161961" />
      <trkpt lat="45.4586808" lon="9.2160778" />
      <trkpt lat="45.4587961" lon="9.2156469" />
      <trkpt lat="45.4588141" lon="9.2156574" />
      <trkpt lat="45.4589758" lon="9.2157356" />
      <trkpt lat="45.4590541" lon="9.2157734" />
      <trkpt lat="45.4591634" lon="9.2156288" />
      <trkpt lat="45.4591922" lon="9.2155660" />
      <trkpt lat="45.4592350" lon="9.2155053" />
      <trkpt lat="45.4592801" lon="9.2154624" />
      <trkpt lat="45.4593319" lon="9.2154355" />
      <trkpt lat="45.4593911" lon="9.2154329" />
      <trkpt lat="45.4594429" lon="9.2154396" />
      <trkpt lat="45.4595379" lon="9.2154646" />
      <trkpt lat="45.4596046" lon="9.2155079" />
      <trkpt lat="45.4596416" lon="9.2155137" />
      <trkpt lat="45.4597065" lon="9.2155240" />
      <trkpt lat="45.4597894" lon="9.2154345" />
      <trkpt lat="45.4597840" lon="9.2153592" />
      <trkpt lat="45.4597827" lon="9.2152494" />
      <trkpt lat="45.4598361" lon="9.2152344" />
      <trkpt lat="45.4599019" lon="9.2152491" />
      <trkpt lat="45.4599602" lon="9.2152545" />
      <trkpt lat="45.4600082" lon="9.2152558" />
      <trkpt lat="45.4601981" lon="9.2152218" />
      <trkpt lat="45.4602534" lon="9.2151663" />
      <trkpt lat="45.4603000" lon="9.2150991" />
      <trkpt lat="45.4603857" lon="9.2149215" />
      <trkpt lat="45.4604680" lon="9.2149221" />
      <trkpt lat="45.4605364" lon="9.2149364" />
      <trkpt lat="45.4605904" lon="9.2149662" />
      <trkpt lat="45.4606424" lon="9.2150121" />
      <trkpt lat="45.4607000" lon="9.2150795" />
      <trkpt lat="45.4607431" lon="9.2151315" />
      <trkpt lat="45.4607918" lon="9.2151781" />
      <trkpt lat="45.4608235" lon="9.2152028" />
      <trkpt lat="45.4609117" lon="9.2152437" />
      <trkpt lat="45.4609574" lon="9.2152558" />
      <trkpt lat="45.4610189" lon="9.2152704" />
      <trkpt lat="45.4610662" lon="9.2152721" />
      <trkpt lat="45.4611168" lon="9.2152685" />
      <trkpt lat="45.4611702" lon="9.2152583" />
      <trkpt lat="45.4612071" lon="9.2152394" />
      <trkpt lat="45.4612411" lon="9.2152025" />
      <trkpt lat="45.4613225" lon="9.2151211" />
      <trkpt lat="45.4613910" lon="9.2151924" />
      <trkpt lat="45.4614120" lon="9.2152085" />
      <trkpt lat="45.4614349" lon="9.2152165" />
      <trkpt lat="45.4614619" lon="9.2152190" />
      <trkpt lat="45.4614926" lon="9.2152108" />
      <trkpt lat="45.4616120" lon="9.2151497" />
      <trkpt lat="45.4616984" lon="9.2151262" />
      <trkpt lat="45.4617909" lon="9.2150989" />
      <trkpt lat="45.4620122" lon="9.2150598" />
      <trkpt lat="45.4620990" lon="9.2150671" />
      <trkpt lat="45.4621179" lon="9.2150740" />
      <trkpt lat="45.4621187" lon="9.2149809" />
      <trkpt lat="45.4620774" lon="9.2149145" />
      <trkpt lat="45.4620903" lon="9.2148836" />
      <trkpt lat="45.4621062" lon="9.2148454" />
      <trkpt lat="45.4621132" lon="9.2148286" />
      <trkpt lat="45.4621173" lon="9.2148189" />
      <trkpt lat="45.4621170" lon="9.2147666" />
      <trkpt lat="45.4621163" lon="9.2146681" />
      <trkpt lat="45.4621158" lon="9.2145983" />
      <trkpt lat="45.4621154" lon="9.2145453" />
      <trkpt lat="45.4621427" lon="9.2145453" />
      <trkpt lat="45.4621650" lon="9.2145453" />
      <trkpt lat="45.4621803" lon="9.2145453" />
      <trkpt lat="45.4621892" lon="9.2145453" />
      <trkpt lat="45.4621996" lon="9.2145453" />
      <trkpt lat="45.4622132" lon="9.2145454" />
      <trkpt lat="45.4622268" lon="9.2145456" />
      <trkpt lat="45.4622413" lon="9.2145454" />
      <trkpt lat="45.4622623" lon="9.2145452" />
      <trkpt lat="45.4622875" lon="9.2145452" />
      <trkpt lat="45.4623211" lon="9.2145452" />
      <trkpt lat="45.4625152" lon="9.2145474" />
      <trkpt lat="45.4627155" lon="9.2145497" />
      <trkpt lat="45.4639830" lon="9.2145642" />
      <trkpt lat="45.4639833" lon="9.2146084" />
      <trkpt lat="45.4639840" lon="9.2147174" />
      <trkpt lat="45.4639847" lon="9.2148276" />
      <trkpt lat="45.4639850" lon="9.2148849" />
      <trkpt lat="45.4639874" lon="9.2149031" />
      <trkpt lat="45.4640061" lon="9.2159841" />
      <trkpt lat="45.4640239" lon="9.2159834" />
      <trkpt lat="45.4640541" lon="9.2159823" />
      <trkpt lat="45.4640978" lon="9.2159808" />
      <trkpt lat="45.4641111" lon="9.2159803" />
      <trkpt lat="45.4641239" lon="9.2160053" />
      <trkpt lat="45.4641242" lon="9.2160165" />
      <trkpt lat="45.4641255" lon="9.2160699" />
      <trkpt lat="45.4641271" lon="9.2161345" />
      <trkpt lat="45.4641274" lon="9.2161490" />
      <trkpt lat="45.4654636" lon="9.2161268" />
      <trkpt lat="45.4654747" lon="9.2161266" />
      <trkpt lat="45.4655087" lon="9.2161258" />
      <trkpt lat="45.4655495" lon="9.2161248" />
      <trkpt lat="45.4655559" lon="9.2161247" />
      <trkpt lat="45.4665931" lon="9.2161085" />
      <trkpt lat="45.4666076" lon="9.2161084" />
      <trkpt lat="45.4666433" lon="9.2161082" />
      <trkpt lat="45.4666942" lon="9.2161078" />
      <trkpt lat="45.4667054" lon="9.2161077" />
      <trkpt lat="45.4667185" lon="9.2160939" />
      <trkpt lat="45.4673635" lon="9.2160876" />
      <trkpt lat="45.4673634" lon="9.2160621" />
      <trkpt lat="45.4673630" lon="9.2159979" />
      <trkpt lat="45.4673632" lon="9.2159679" />
      <trkpt lat="45.4673633" lon="9.2159399" />
      <trkpt lat="45.4675784" lon="9.2159349" />
      <trkpt lat="45.4675875" lon="9.2159347" />
      <trkpt lat="45.4676007" lon="9.2159210" />
      <trkpt lat="45.4676131" lon="9.2159207" />
      <trkpt lat="45.4676529" lon="9.2159199" />
      <trkpt lat="45.4676996" lon="9.2159188" />
      <trkpt lat="45.4677326" lon="9.2159181" />
      <trkpt lat="45.4677742" lon="9.2159174" />
      <trkpt lat="45.4679776" lon="9.2159140" />
      <trkpt lat="45.4681549" lon="9.2159111" />
      <trkpt lat="45.4681962" lon="9.2159104" />
      <trkpt lat="45.4681960" lon="9.2158972" />
      <trkpt lat="45.4682286" lon="9.2158965" />
      <trkpt lat="45.4682561" lon="9.2158960" />
      <trkpt lat="45.4683157" lon="9.2158948" />
      <trkpt lat="45.4683277" lon="9.2158946" />
      <trkpt lat="45.4692205" lon="9.2158818" />
      <trkpt lat="45.4692106" lon="9.2148799" />
      <trkpt lat="45.4692098" lon="9.2148524" />
      <trkpt lat="45.4692091" lon="9.2147298" />
      <trkpt lat="45.4692078" lon="9.2145986" />
      <trkpt lat="45.4692077" lon="9.2145899" />
      <trkpt lat="45.4691959" lon="9.2134017" />
      <trkpt lat="45.4691958" lon="9.2133873" />
      <trkpt lat="45.4691951" lon="9.2133196" />
      <trkpt lat="45.4691944" lon="9.2132639" />
      <trkpt lat="45.4691943" lon="9.2132519" />
      <trkpt lat="45.4691751" lon="9.2113649" />
      <trkpt lat="45.4691711" lon="9.2113375" />
      <trkpt lat="45.4691565" lon="9.2113284" />
      <trkpt lat="45.4691561" lon="9.2112999" />
      <trkpt lat="45.4691553" lon="9.2112211" />
      <trkpt lat="45.4691544" lon="9.2111403" />
      <trkpt lat="45.4691541" lon="9.2111103" />
      <trkpt lat="45.4691642" lon="9.2110908" />
      <trkpt lat="45.4691665" lon="9.2110442" />
      <trkpt lat="45.4691590" lon="9.2102878" />
      <trkpt lat="45.4691589" lon="9.2102619" />
      <trkpt lat="45.4691587" lon="9.2101967" />
      <trkpt lat="45.4691581" lon="9.2101251" />
      <trkpt lat="45.4691579" lon="9.2101067" />
      <trkpt lat="45.4691450" lon="9.2087162" />
      <trkpt lat="45.4691569" lon="9.2087158" />
      <trkpt lat="45.4691972" lon="9.2087144" />
      <trkpt lat="45.4692416" lon="9.2087129" />
      <trkpt lat="45.4692565" lon="9.2087124" />
      <trkpt lat="45.4692562" lon="9.2086861" />
      <trkpt lat="45.4692556" lon="9.2086262" />
      <trkpt lat="45.4692550" lon="9.2085613" />
      <trkpt lat="45.4692547" lon="9.2085338" />
      <trkpt lat="45.4692318" lon="9.2071042" />
      <trkpt lat="45.4692426" lon="9.2070862" />
      <trkpt lat="45.4692611" lon="9.2070835" />
      <trkpt lat="45.4692583" lon="9.2070330" />
      <trkpt lat="45.4692572" lon="9.2070137" />
      <trkpt lat="45.4692546" lon="9.2069669" />
      <trkpt lat="45.4692176" lon="9.2069715" />
      <trkpt lat="45.4692162" lon="9.2069334" />
      <trkpt lat="45.4692143" lon="9.2068785" />
      <trkpt lat="45.4692136" lon="9.2068576" />
      <trkpt lat="45.4692126" lon="9.2068280" />
      <trkpt lat="45.4692110" lon="9.2067839" />
      <trkpt lat="45.4692099" lon="9.2067508" />
      <trkpt lat="45.4692089" lon="9.2067231" />
      <trkpt lat="45.4685894" lon="9.2067768" />
      <trkpt lat="45.4685669" lon="9.2067604" />
      <trkpt lat="45.4685486" lon="9.2067611" />
      <trkpt lat="45.4685274" lon="9.2067625" />
      <trkpt lat="45.4684857" lon="9.2059763" />
      <trkpt lat="45.4684839" lon="9.2059373" />
      <trkpt lat="45.4684706" lon="9.2058969" />
      <trkpt lat="45.4684494" lon="9.2058282" />
      <trkpt lat="45.4684488" lon="9.2058252" />
      <trkpt lat="45.4684353" lon="9.2057525" />
      <trkpt lat="45.4684224" lon="9.2056641" />
      <trkpt lat="45.4681817" lon="9.2056986" />
      <trkpt lat="45.4680082" lon="9.2057266" />
      <trkpt lat="45.4679806" lon="9.2057307" />
      <trkpt lat="45.4679663" lon="9.2056588" />
      <trkpt lat="45.4679656" lon="9.2056108" />
      <trkpt lat="45.4679569" lon="9.2056117" />
      <trkpt lat="45.4679051" lon="9.2056144" />
      <trkpt lat="45.4678282" lon="9.2055399" />
      <trkpt lat="45.4677848" lon="9.2052647" />
      <trkpt lat="45.4677451" lon="9.2050287" />
      <trkpt lat="45.4676682" lon="9.2045731" />
      <trkpt lat="45.4676795" lon="9.2045492" />
      <trkpt lat="45.4676777" lon="9.2045388" />
      <trkpt lat="45.4676719" lon="9.2045044" />
      <trkpt lat="45.4676671" lon="9.2044768" />
      <trkpt lat="45.4676666" lon="9.2044737" />
      <trkpt lat="45.4676049" lon="9.2043995" />
      <trkpt lat="45.4675848" lon="9.2043386" />
      <trkpt lat="45.4675730" lon="9.2043086" />
      <trkpt lat="45.4675288" lon="9.2040615" />
      <trkpt lat="45.4673366" lon="9.2029324" />
      <trkpt lat="45.4673332" lon="9.2029124" />
      <trkpt lat="45.4672324" lon="9.2022864" />
      <trkpt lat="45.4671554" lon="9.2017328" />
      <trkpt lat="45.4671440" lon="9.2016320" />
      <trkpt lat="45.4671338" lon="9.2015282" />
      <trkpt lat="45.4671181" lon="9.2013673" />
      <trkpt lat="45.4670500" lon="9.2006738" />
      <trkpt lat="45.4670987" lon="9.2006253" />
      <trkpt lat="45.4670947" lon="9.2006088" />
      <trkpt lat="45.4670736" lon="9.2005221" />
      <trkpt lat="45.4670664" lon="9.2004907" />
      <trkpt lat="45.4670570" lon="9.2004512" />
      <trkpt lat="45.4670537" lon="9.2004376" />
      <trkpt lat="45.4670144" lon="9.2004208" />
      <trkpt lat="45.4669837" lon="9.2001899" />
      <trkpt lat="45.4670011" lon="9.2001779" />
      <trkpt lat="45.4670006" lon="9.2001664" />
      <trkpt lat="45.4669998" lon="9.2001506" />
      <trkpt lat="45.4669972" lon="9.2001217" />
      <trkpt lat="45.4669962" lon="9.2001104" />
      <trkpt lat="45.4669684" lon="9.2001107" />
      <trkpt lat="45.4669543" lon="9.1999980" />
      <trkpt lat="45.4668725" lon="9.1994214" />
      <trkpt lat="45.4668440" lon="9.1991847" />
      <trkpt lat="45.4668443" lon="9.1991686" />
      <trkpt lat="45.4668438" lon="9.1991623" />
      <trkpt lat="45.4668402" lon="9.1991628" />
      <trkpt lat="45.4668129" lon="9.1991668" />
      <trkpt lat="45.4668035" lon="9.1990640" />
      <trkpt lat="45.4667707" lon="9.1990714" />
      <trkpt lat="45.4667688" lon="9.1990137" />
      <trkpt lat="45.4667588" lon="9.1979586" />
      <trkpt lat="45.4667587" lon="9.1979475" />
      <trkpt lat="45.4667591" lon="9.1976528" />
      <trkpt lat="45.4667595" lon="9.1975998" />
      <trkpt lat="45.4667729" lon="9.1972236" />
      <trkpt lat="45.4667740" lon="9.1971959" />
      <trkpt lat="45.4667758" lon="9.1971534" />
      <trkpt lat="45.4667905" lon="9.1967930" />
      <trkpt lat="45.4668441" lon="9.1954807" />
      <trkpt lat="45.4668438" lon="9.1954482" />
      <trkpt lat="45.4668436" lon="9.1954172" />
      <trkpt lat="45.4668420" lon="9.1952301" />
      <trkpt lat="45.4668416" lon="9.1951791" />
      <trkpt lat="45.4668415" lon="9.1951692" />
      <trkpt lat="45.4668650" lon="9.1951256" />
      <trkpt lat="45.4668655" lon="9.1950972" />
      <trkpt lat="45.4669038" lon="9.1938641" />
      <trkpt lat="45.4669052" lon="9.1938178" />
      <trkpt lat="45.4668995" lon="9.1937104" />
      <trkpt lat="45.4667272" lon="9.1930123" />
      <trkpt lat="45.4667478" lon="9.1929911" />
      <trkpt lat="45.4667725" lon="9.1929656" />
      <trkpt lat="45.4668101" lon="9.1929268" />
      <trkpt lat="45.4668283" lon="9.1929081" />
      <trkpt lat="45.4668192" lon="9.1928814" />
      <trkpt lat="45.4667960" lon="9.1928131" />
      <trkpt lat="45.4667754" lon="9.1927526" />
      <trkpt lat="45.4667671" lon="9.1927284" />
      <trkpt lat="45.4667404" lon="9.1927311" />
      <trkpt lat="45.4667136" lon="9.1927298" />
      <trkpt lat="45.4666886" lon="9.1927204" />
      <trkpt lat="45.4666641" lon="9.1927099" />
      <trkpt lat="45.4666277" lon="9.1926821" />
      <trkpt lat="45.4664003" lon="9.1924053" />
      <trkpt lat="45.4663518" lon="9.1923467" />
      <trkpt lat="45.4663621" lon="9.1923288" />
      <trkpt lat="45.4664881" lon="9.1920935" />
      <trkpt lat="45.4664660" lon="9.1920669" />
      <trkpt lat="45.4663540" lon="9.1919322" />
      <trkpt lat="45.4662547" lon="9.1918083" />
      <trkpt lat="45.4661492" lon="9.1916663" />
      <trkpt lat="45.4661436" lon="9.1916595" />
      <trkpt lat="45.4661229" lon="9.1916342" />
      <trkpt lat="45.4660943" lon="9.1915975" />
      <trkpt lat="45.4658799" lon="9.1913229" />
      <trkpt lat="45.4658602" lon="9.1912975" />
      <trkpt lat="45.4658327" lon="9.1912632" />
      <trkpt lat="45.4658246" lon="9.1912642" />
      <trkpt lat="45.4658236" lon="9.1912105" />
      <trkpt lat="45.4658232" lon="9.1911957" />
      <trkpt lat="45.4656456" lon="9.1912179" />
      <trkpt lat="45.4656465" lon="9.1910397" />
      <trkpt lat="45.4656105" lon="9.1910394" />
      <trkpt lat="45.4655736" lon="9.1910398" />
      <trkpt lat="45.4655740" lon="9.1909391" />
      <trkpt lat="45.4655683" lon="9.1908105" />
      <trkpt lat="45.4650063" lon="9.1908178" />
      <trkpt lat="45.4649958" lon="9.1908180" />
      <trkpt lat="45.4649955" lon="9.1907816" />
      <trkpt lat="45.4649955" lon="9.1907749" />
      <trkpt lat="45.4649955" lon="9.1907679" />
      <trkpt lat="45.4649417" lon="9.1907691" />
      <trkpt lat="45.4648336" lon="9.1907690" />
      <trkpt lat="45.4647643" lon="9.1907699" />
      <trkpt lat="45.4647559" lon="9.1906084" />
      <trkpt lat="45.4646621" lon="9.1904786" />
      <trkpt lat="45.4646642" lon="9.1904112" />
      <trkpt lat="45.4646652" lon="9.1903590" />
      <trkpt lat="45.4646377" lon="9.1902705" />
      <trkpt lat="45.4646376" lon="9.1902500" />
      <trkpt lat="45.4646378" lon="9.1902372" />
      <trkpt lat="45.4646380" lon="9.1901870" />
      <trkpt lat="45.4646177" lon="9.1901722" />
      <trkpt lat="45.4646180" lon="9.1901380" />
      <trkpt lat="45.4646185" lon="9.1901205" />
      <trkpt lat="45.4646189" lon="9.1900818" />
      <trkpt lat="45.4645905" lon="9.1900674" />
      <trkpt lat="45.4645900" lon="9.1899176" />
      <trkpt lat="45.4645891" lon="9.1898632" />
      <trkpt lat="45.4645547" lon="9.1898629" />
      <trkpt lat="45.4645547" lon="9.1898439" />
      <trkpt lat="45.4645471" lon="9.1898437" />
      <trkpt lat="45.4645044" lon="9.1898425" />
      <trkpt lat="45.4644741" lon="9.1898729" />
      <trkpt lat="45.4644313" lon="9.1898582" />
      <trkpt lat="45.4643695" lon="9.1897716" />
    </trkseg>
  </trk>
</gpx>
