<?xml version="1.0" encoding="UTF-8"?>
<gpx xmlns="http://www.topografix.com/GPX/1/1" version="1.1" creator="ShapeRoute route-engine">
  <metadata>
    <name>butterfly 10 km · 2026-10-05</name>
    <author>
      <name>ShapeRoute route-engine</name>
    </author>
    <copyright author="OpenStreetMap contributors">
      <license>https://opendatacommons.org/licenses/odbl/1-0/</license>
    </copyright>
    <link href="https://www.openstreetmap.org/copyright">
      <text>© OpenStreetMap contributors</text>
    </link>
    <time>2026-10-05T11:12:45Z</time>
  </metadata>
  <trk>
    <name>butterfly 10 km · 2026-10-05</name>
    <trkseg>
      <trkpt lat="46.0123552" lon="11.2985082" />
      <trkpt lat="46.0127099" lon="11.2988315" />
      <trkpt lat="46.0127193" lon="11.2987950" />
      <trkpt lat="46.0127604" lon="11.2986362" />
      <trkpt lat="46.0129128" lon="11.2980852" />
      <trkpt lat="46.0129712" lon="11.2978899" />
      <trkpt lat="46.0130468" lon="11.2977714" />
      <trkpt lat="46.0131199" lon="11.2976603" />
      <trkpt lat="46.0131919" lon="11.2975460" />
      <trkpt lat="46.0132320" lon="11.2976177" />
      <trkpt lat="46.0133454" lon="11.2977970" />
      <trkpt lat="46.0134865" lon="11.2979792" />
      <trkpt lat="46.0136470" lon="11.2981837" />
      <trkpt lat="46.0139231" lon="11.2985434" />
      <trkpt lat="46.0141584" lon="11.2988474" />
      <trkpt lat="46.0141849" lon="11.2988817" />
      <trkpt lat="46.0144647" lon="11.2992432" />
      <trkpt lat="46.0143419" lon="11.2994850" />
      <trkpt lat="46.0143116" lon="11.2995475" />
      <trkpt lat="46.0144803" lon="11.2997321" />
      <trkpt lat="46.0146982" lon="11.3000057" />
      <trkpt lat="46.0150596" lon="11.3004563" />
      <trkpt lat="46.0151833" lon="11.3006314" />
      <trkpt lat="46.0144921" lon="11.3017492" />
      <trkpt lat="46.0142766" lon="11.3021027" />
      <trkpt lat="46.0140622" lon="11.3025070" />
      <trkpt lat="46.0139875" lon="11.3026424" />
      <trkpt lat="46.0138450" lon="11.3030331" />
      <trkpt lat="46.0137912" lon="11.3032090" />
      <trkpt lat="46.0137485" lon="11.3033721" />
      <trkpt lat="46.0136874" lon="11.3033397" />
      <trkpt lat="46.0134434" lon="11.3033458" />
      <trkpt lat="46.0132342" lon="11.3033603" />
      <trkpt lat="46.0129663" lon="11.3033746" />
      <trkpt lat="46.0128267" lon="11.3034075" />
      <trkpt lat="46.0127785" lon="11.3033938" />
      <trkpt lat="46.0127603" lon="11.3035217" />
      <trkpt lat="46.0127396" lon="11.3036685" />
      <trkpt lat="46.0127044" lon="11.3040536" />
      <trkpt lat="46.0126021" lon="11.3041601" />
      <trkpt lat="46.0123670" lon="11.3045484" />
      <trkpt lat="46.0126021" lon="11.3041601" />
      <trkpt lat="46.0127044" lon="11.3040536" />
      <trkpt lat="46.0127644" lon="11.3045046" />
      <trkpt lat="46.0127931" lon="11.3047943" />
      <trkpt lat="46.0127990" lon="11.3049468" />
      <trkpt lat="46.0130363" lon="11.3051489" />
      <trkpt lat="46.0134104" lon="11.3053479" />
      <trkpt lat="46.0136046" lon="11.3054330" />
      <trkpt lat="46.0136996" lon="11.3055082" />
      <trkpt lat="46.0139211" lon="11.3044210" />
      <trkpt lat="46.0139686" lon="11.3042444" />
      <trkpt lat="46.0141446" lon="11.3036802" />
      <trkpt lat="46.0143095" lon="11.3038059" />
      <trkpt lat="46.0144313" lon="11.3038947" />
      <trkpt lat="46.0144750" lon="11.3038439" />
      <trkpt lat="46.0144313" lon="11.3038947" />
      <trkpt lat="46.0143095" lon="11.3038059" />
      <trkpt lat="46.0141446" lon="11.3036802" />
      <trkpt lat="46.0139686" lon="11.3042444" />
      <trkpt lat="46.0139211" lon="11.3044210" />
      <trkpt lat="46.0136996" lon="11.3055082" />
      <trkpt lat="46.0136046" lon="11.3054330" />
      <trkpt lat="46.0134104" lon="11.3053479" />
      <trkpt lat="46.0130363" lon="11.3051489" />
      <trkpt lat="46.0127990" lon="11.3049468" />
      <trkpt lat="46.0127931" lon="11.3047943" />
      <trkpt lat="46.0127644" lon="11.3045046" />
      <trkpt lat="46.0127044" lon="11.3040536" />
      <trkpt lat="46.0126021" lon="11.3041601" />
      <trkpt lat="46.0123670" lon="11.3045484" />
      <trkpt lat="46.0122985" lon="11.3046550" />
      <trkpt lat="46.0122399" lon="11.3047086" />
      <trkpt lat="46.0122150" lon="11.3047684" />
      <trkpt lat="46.0121789" lon="11.3048653" />
      <trkpt lat="46.0121525" lon="11.3052186" />
      <trkpt lat="46.0121464" lon="11.3052965" />
      <trkpt lat="46.0121364" lon="11.3054437" />
      <trkpt lat="46.0121464" lon="11.3052965" />
      <trkpt lat="46.0121525" lon="11.3052186" />
      <trkpt lat="46.0121789" lon="11.3048653" />
      <trkpt lat="46.0122150" lon="11.3047684" />
      <trkpt lat="46.0122399" lon="11.3047086" />
      <trkpt lat="46.0122985" lon="11.3046550" />
      <trkpt lat="46.0123670" lon="11.3045484" />
      <trkpt lat="46.0126021" lon="11.3041601" />
      <trkpt lat="46.0127044" lon="11.3040536" />
      <trkpt lat="46.0127644" lon="11.3045046" />
      <trkpt lat="46.0127931" lon="11.3047943" />
      <trkpt lat="46.0127990" lon="11.3049468" />
      <trkpt lat="46.0127983" lon="11.3050318" />
      <trkpt lat="46.0126749" lon="11.3067415" />
      <trkpt lat="46.0126690" lon="11.3068184" />
      <trkpt lat="46.0125287" lon="11.3087845" />
      <trkpt lat="46.0125018" lon="11.3092123" />
      <trkpt lat="46.0124877" lon="11.3093217" />
      <trkpt lat="46.0128792" lon="11.3092834" />
      <trkpt lat="46.0129761" lon="11.3092566" />
      <trkpt lat="46.0130319" lon="11.3092083" />
      <trkpt lat="46.0130617" lon="11.3091225" />
      <trkpt lat="46.0131139" lon="11.3088596" />
      <trkpt lat="46.0131735" lon="11.3087524" />
      <trkpt lat="46.0132379" lon="11.3086679" />
      <trkpt lat="46.0132950" lon="11.3086265" />
      <trkpt lat="46.0133450" lon="11.3085849" />
      <trkpt lat="46.0134044" lon="11.3085949" />
      <trkpt lat="46.0134568" lon="11.3086278" />
      <trkpt lat="46.0134812" lon="11.3086513" />
      <trkpt lat="46.0135225" lon="11.3086854" />
      <trkpt lat="46.0135413" lon="11.3086948" />
      <trkpt lat="46.0135640" lon="11.3086957" />
      <trkpt lat="46.0135936" lon="11.3086788" />
      <trkpt lat="46.0136139" lon="11.3086583" />
      <trkpt lat="46.0136430" lon="11.3086202" />
      <trkpt lat="46.0137052" lon="11.3085868" />
      <trkpt lat="46.0137875" lon="11.3085719" />
      <trkpt lat="46.0141429" lon="11.3085671" />
      <trkpt lat="46.0137875" lon="11.3085719" />
      <trkpt lat="46.0137052" lon="11.3085868" />
      <trkpt lat="46.0136430" lon="11.3086202" />
      <trkpt lat="46.0136139" lon="11.3086583" />
      <trkpt lat="46.0135936" lon="11.3086788" />
      <trkpt lat="46.0135640" lon="11.3086957" />
      <trkpt lat="46.0135413" lon="11.3086948" />
      <trkpt lat="46.0135225" lon="11.3086854" />
      <trkpt lat="46.0134812" lon="11.3086513" />
      <trkpt lat="46.0134568" lon="11.3086278" />
      <trkpt lat="46.0134044" lon="11.3085949" />
      <trkpt lat="46.0133450" lon="11.3085849" />
      <trkpt lat="46.0132950" lon="11.3086265" />
      <trkpt lat="46.0132379" lon="11.3086679" />
      <trkpt lat="46.0131735" lon="11.3087524" />
      <trkpt lat="46.0131139" lon="11.3088596" />
      <trkpt lat="46.0130617" lon="11.3091225" />
      <trkpt lat="46.0130319" lon="11.3092083" />
      <trkpt lat="46.0129761" lon="11.3092566" />
      <trkpt lat="46.0128792" lon="11.3092834" />
      <trkpt lat="46.0124877" lon="11.3093217" />
      <trkpt lat="46.0125018" lon="11.3092123" />
      <trkpt lat="46.0125287" lon="11.3087845" />
      <trkpt lat="46.0126690" lon="11.3068184" />
      <trkpt lat="46.0126749" lon="11.3067415" />
      <trkpt lat="46.0127983" lon="11.3050318" />
      <trkpt lat="46.0127990" lon="11.3049468" />
      <trkpt lat="46.0127931" lon="11.3047943" />
      <trkpt lat="46.0127644" lon="11.3045046" />
      <trkpt lat="46.0127044" lon="11.3040536" />
      <trkpt lat="46.0126021" lon="11.3041601" />
      <trkpt lat="46.0123670" lon="11.3045484" />
      <trkpt lat="46.0122985" lon="11.3046550" />
      <trkpt lat="46.0122399" lon="11.3047086" />
      <trkpt lat="46.0122150" lon="11.3047684" />
      <trkpt lat="46.0121789" lon="11.3048653" />
      <trkpt lat="46.0121525" lon="11.3052186" />
      <trkpt lat="46.0121464" lon="11.3052965" />
      <trkpt lat="46.0121364" lon="11.3054437" />
      <trkpt lat="46.0121464" lon="11.3052965" />
      <trkpt lat="46.0121525" lon="11.3052186" />
      <trkpt lat="46.0121789" lon="11.3048653" />
      <trkpt lat="46.0122150" lon="11.3047684" />
      <trkpt lat="46.0122399" lon="11.3047086" />
      <trkpt lat="46.0122985" lon="11.3046550" />
      <trkpt lat="46.0123670" lon="11.3045484" />
      <trkpt lat="46.0126021" lon="11.3041601" />
      <trkpt lat="46.0127044" lon="11.3040536" />
      <trkpt lat="46.0127644" lon="11.3045046" />
      <trkpt lat="46.0127931" lon="11.3047943" />
      <trkpt lat="46.0127990" lon="11.3049468" />
      <trkpt lat="46.0127983" lon="11.3050318" />
      <trkpt lat="46.0126749" lon="11.3067415" />
      <trkpt lat="46.0126690" lon="11.3068184" />
      <trkpt lat="46.0125287" lon="11.3087845" />
      <trkpt lat="46.0125018" lon="11.3092123" />
      <trkpt lat="46.0124877" lon="11.3093217" />
      <trkpt lat="46.0125112" lon="11.3095719" />
      <trkpt lat="46.0125396" lon="11.3096631" />
      <trkpt lat="46.0126642" lon="11.3100298" />
      <trkpt lat="46.0130312" lon="11.3120209" />
      <trkpt lat="46.0131658" lon="11.3128957" />
      <trkpt lat="46.0133271" lon="11.3136518" />
      <trkpt lat="46.0130782" lon="11.3137293" />
      <trkpt lat="46.0129807" lon="11.3137517" />
      <trkpt lat="46.0128944" lon="11.3137494" />
      <trkpt lat="46.0128110" lon="11.3137171" />
      <trkpt lat="46.0126415" lon="11.3136326" />
      <trkpt lat="46.0123586" lon="11.3134967" />
      <trkpt lat="46.0122690" lon="11.3134494" />
      <trkpt lat="46.0121874" lon="11.3134327" />
      <trkpt lat="46.0120941" lon="11.3134365" />
      <trkpt lat="46.0119632" lon="11.3134631" />
      <trkpt lat="46.0117628" lon="11.3135423" />
      <trkpt lat="46.0115063" lon="11.3136575" />
      <trkpt lat="46.0112895" lon="11.3137488" />
      <trkpt lat="46.0111170" lon="11.3138034" />
      <trkpt lat="46.0108825" lon="11.3138825" />
      <trkpt lat="46.0108088" lon="11.3138984" />
      <trkpt lat="46.0107191" lon="11.3137336" />
      <trkpt lat="46.0103150" lon="11.3129338" />
      <trkpt lat="46.0101811" lon="11.3126513" />
      <trkpt lat="46.0100407" lon="11.3123551" />
      <trkpt lat="46.0100260" lon="11.3123266" />
      <trkpt lat="46.0100043" lon="11.3122845" />
      <trkpt lat="46.0098652" lon="11.3120149" />
      <trkpt lat="46.0098528" lon="11.3119847" />
      <trkpt lat="46.0097121" lon="11.3116421" />
      <trkpt lat="46.0095716" lon="11.3109346" />
      <trkpt lat="46.0094338" lon="11.3102144" />
      <trkpt lat="46.0093880" lon="11.3100457" />
      <trkpt lat="46.0093344" lon="11.3098344" />
      <trkpt lat="46.0092684" lon="11.3096785" />
      <trkpt lat="46.0092147" lon="11.3096070" />
      <trkpt lat="46.0091819" lon="11.3095621" />
      <trkpt lat="46.0091624" lon="11.3095765" />
      <trkpt lat="46.0091411" lon="11.3095837" />
      <trkpt lat="46.0091192" lon="11.3095834" />
      <trkpt lat="46.0090935" lon="11.3095728" />
      <trkpt lat="46.0090710" lon="11.3095518" />
      <trkpt lat="46.0090538" lon="11.3095224" />
      <trkpt lat="46.0090433" lon="11.3094869" />
      <trkpt lat="46.0090404" lon="11.3094486" />
      <trkpt lat="46.0090448" lon="11.3094131" />
      <trkpt lat="46.0090559" lon="11.3093807" />
      <trkpt lat="46.0090726" lon="11.3093539" />
      <trkpt lat="46.0090504" lon="11.3092722" />
      <trkpt lat="46.0090311" lon="11.3092009" />
      <trkpt lat="46.0089976" lon="11.3091176" />
      <trkpt lat="46.0089409" lon="11.3090544" />
      <trkpt lat="46.0088516" lon="11.3089000" />
      <trkpt lat="46.0088224" lon="11.3087871" />
      <trkpt lat="46.0088044" lon="11.3086422" />
      <trkpt lat="46.0088175" lon="11.3083890" />
      <trkpt lat="46.0088209" lon="11.3080963" />
      <trkpt lat="46.0088444" lon="11.3078784" />
      <trkpt lat="46.0088896" lon="11.3073866" />
      <trkpt lat="46.0089532" lon="11.3067296" />
      <trkpt lat="46.0089556" lon="11.3067025" />
      <trkpt lat="46.0089895" lon="11.3063234" />
      <trkpt lat="46.0090411" lon="11.3057455" />
      <trkpt lat="46.0090526" lon="11.3056160" />
      <trkpt lat="46.0090647" lon="11.3054807" />
      <trkpt lat="46.0085463" lon="11.3053902" />
      <trkpt lat="46.0084263" lon="11.3053692" />
      <trkpt lat="46.0084093" lon="11.3055594" />
      <trkpt lat="46.0083271" lon="11.3064780" />
      <trkpt lat="46.0082661" lon="11.3064320" />
      <trkpt lat="46.0079350" lon="11.3063275" />
      <trkpt lat="46.0076858" lon="11.3062259" />
      <trkpt lat="46.0073430" lon="11.3061002" />
      <trkpt lat="46.0074884" lon="11.3052053" />
      <trkpt lat="46.0071910" lon="11.3051534" />
      <trkpt lat="46.0067208" lon="11.3050712" />
      <trkpt lat="46.0065975" lon="11.3050846" />
      <trkpt lat="46.0065466" lon="11.3051152" />
      <trkpt lat="46.0065026" lon="11.3051581" />
      <trkpt lat="46.0063120" lon="11.3055513" />
      <trkpt lat="46.0062429" lon="11.3056829" />
      <trkpt lat="46.0062213" lon="11.3057159" />
      <trkpt lat="46.0061578" lon="11.3057958" />
      <trkpt lat="46.0060831" lon="11.3059050" />
      <trkpt lat="46.0060319" lon="11.3062139" />
      <trkpt lat="46.0059868" lon="11.3066405" />
      <trkpt lat="46.0059288" lon="11.3071873" />
      <trkpt lat="46.0058804" lon="11.3075429" />
      <trkpt lat="46.0058203" lon="11.3077677" />
      <trkpt lat="46.0057341" lon="11.3079688" />
      <trkpt lat="46.0056023" lon="11.3081476" />
      <trkpt lat="46.0054187" lon="11.3083960" />
      <trkpt lat="46.0052770" lon="11.3084969" />
      <trkpt lat="46.0052570" lon="11.3085037" />
      <trkpt lat="46.0051424" lon="11.3085430" />
      <trkpt lat="46.0049840" lon="11.3085627" />
      <trkpt lat="46.0047705" lon="11.3085896" />
      <trkpt lat="46.0045028" lon="11.3086190" />
      <trkpt lat="46.0044071" lon="11.3086441" />
      <trkpt lat="46.0043032" lon="11.3086805" />
      <trkpt lat="46.0040299" lon="11.3089548" />
      <trkpt lat="46.0039405" lon="11.3090423" />
      <trkpt lat="46.0038448" lon="11.3092298" />
      <trkpt lat="46.0038498" lon="11.3084986" />
      <trkpt lat="46.0039021" lon="11.3067256" />
      <trkpt lat="46.0039364" lon="11.3052022" />
      <trkpt lat="46.0041497" lon="11.3051920" />
      <trkpt lat="46.0043701" lon="11.3051598" />
      <trkpt lat="46.0045822" lon="11.3051714" />
      <trkpt lat="46.0047701" lon="11.3051574" />
      <trkpt lat="46.0049239" lon="11.3051248" />
      <trkpt lat="46.0050907" lon="11.3050992" />
      <trkpt lat="46.0053368" lon="11.3050013" />
      <trkpt lat="46.0055181" lon="11.3049080" />
      <trkpt lat="46.0055894" lon="11.3047845" />
      <trkpt lat="46.0056299" lon="11.3045910" />
      <trkpt lat="46.0058177" lon="11.3031713" />
      <trkpt lat="46.0059128" lon="11.3025278" />
      <trkpt lat="46.0061547" lon="11.3010629" />
      <trkpt lat="46.0061564" lon="11.3009611" />
      <trkpt lat="46.0062218" lon="11.3010002" />
      <trkpt lat="46.0062803" lon="11.3010351" />
      <trkpt lat="46.0067227" lon="11.3013157" />
      <trkpt lat="46.0069475" lon="11.3014781" />
      <trkpt lat="46.0070335" lon="11.3015234" />
      <trkpt lat="46.0070357" lon="11.3015240" />
      <trkpt lat="46.0070300" lon="11.3015355" />
      <trkpt lat="46.0070255" lon="11.3015494" />
      <trkpt lat="46.0070229" lon="11.3015644" />
      <trkpt lat="46.0070224" lon="11.3015798" />
      <trkpt lat="46.0070241" lon="11.3015950" />
      <trkpt lat="46.0070277" lon="11.3016094" />
      <trkpt lat="46.0070332" lon="11.3016226" />
      <trkpt lat="46.0070405" lon="11.3016340" />
      <trkpt lat="46.0070491" lon="11.3016431" />
      <trkpt lat="46.0070569" lon="11.3016486" />
      <trkpt lat="46.0070144" lon="11.3017272" />
      <trkpt lat="46.0068944" lon="11.3018899" />
      <trkpt lat="46.0067834" lon="11.3020980" />
      <trkpt lat="46.0067126" lon="11.3022732" />
      <trkpt lat="46.0066162" lon="11.3026200" />
      <trkpt lat="46.0065081" lon="11.3030335" />
      <trkpt lat="46.0064759" lon="11.3031605" />
      <trkpt lat="46.0063797" lon="11.3035108" />
      <trkpt lat="46.0063762" lon="11.3035226" />
      <trkpt lat="46.0062972" lon="11.3038449" />
      <trkpt lat="46.0062066" lon="11.3041748" />
      <trkpt lat="46.0061854" lon="11.3042582" />
      <trkpt lat="46.0061697" lon="11.3043730" />
      <trkpt lat="46.0062257" lon="11.3042734" />
      <trkpt lat="46.0062586" lon="11.3042541" />
      <trkpt lat="46.0062980" lon="11.3042520" />
      <trkpt lat="46.0063415" lon="11.3042747" />
      <trkpt lat="46.0063045" lon="11.3040481" />
      <trkpt lat="46.0062972" lon="11.3038449" />
      <trkpt lat="46.0063762" lon="11.3035226" />
      <trkpt lat="46.0063797" lon="11.3035108" />
      <trkpt lat="46.0064759" lon="11.3031605" />
      <trkpt lat="46.0065081" lon="11.3030335" />
      <trkpt lat="46.0066162" lon="11.3026200" />
      <trkpt lat="46.0067126" lon="11.3022732" />
      <trkpt lat="46.0067834" lon="11.3020980" />
      <trkpt lat="46.0068944" lon="11.3018899" />
      <trkpt lat="46.0070144" lon="11.3017272" />
      <trkpt lat="46.0070569" lon="11.3016486" />
      <trkpt lat="46.0070491" lon="11.3016431" />
      <trkpt lat="46.0070405" lon="11.3016340" />
      <trkpt lat="46.0070332" lon="11.3016226" />
      <trkpt lat="46.0070277" lon="11.3016094" />
      <trkpt lat="46.0070241" lon="11.3015950" />
      <trkpt lat="46.0070224" lon="11.3015798" />
      <trkpt lat="46.0070229" lon="11.3015644" />
      <trkpt lat="46.0070255" lon="11.3015494" />
      <trkpt lat="46.0070300" lon="11.3015355" />
      <trkpt lat="46.0070357" lon="11.3015240" />
      <trkpt lat="46.0070335" lon="11.3015234" />
      <trkpt lat="46.0069475" lon="11.3014781" />
      <trkpt lat="46.0067227" lon="11.3013157" />
      <trkpt lat="46.0062803" lon="11.3010351" />
      <trkpt lat="46.0062218" lon="11.3010002" />
      <trkpt lat="46.0061564" lon="11.3009611" />
      <trkpt lat="46.0061547" lon="11.3010629" />
      <trkpt lat="46.0059128" lon="11.3025278" />
      <trkpt lat="46.0057185" lon="11.3024631" />
      <trkpt lat="46.0054873" lon="11.3024197" />
      <trkpt lat="46.0051957" lon="11.3023510" />
      <trkpt lat="46.0049897" lon="11.3022388" />
      <trkpt lat="46.0049068" lon="11.3022569" />
      <trkpt lat="46.0049897" lon="11.3022388" />
      <trkpt lat="46.0051957" lon="11.3023510" />
      <trkpt lat="46.0054873" lon="11.3024197" />
      <trkpt lat="46.0057185" lon="11.3024631" />
      <trkpt lat="46.0059128" lon="11.3025278" />
      <trkpt lat="46.0061547" lon="11.3010629" />
      <trkpt lat="46.0061564" lon="11.3009611" />
      <trkpt lat="46.0059826" lon="11.3008654" />
      <trkpt lat="46.0059845" lon="11.3008341" />
      <trkpt lat="46.0061622" lon="11.3009274" />
      <trkpt lat="46.0062218" lon="11.3010002" />
      <trkpt lat="46.0062803" lon="11.3010351" />
      <trkpt lat="46.0067227" lon="11.3013157" />
      <trkpt lat="46.0069475" lon="11.3014781" />
      <trkpt lat="46.0070335" lon="11.3015234" />
      <trkpt lat="46.0070357" lon="11.3015240" />
      <trkpt lat="46.0070442" lon="11.3015127" />
      <trkpt lat="46.0070533" lon="11.3015047" />
      <trkpt lat="46.0070634" lon="11.3014994" />
      <trkpt lat="46.0070739" lon="11.3014971" />
      <trkpt lat="46.0070846" lon="11.3014978" />
      <trkpt lat="46.0070950" lon="11.3015015" />
      <trkpt lat="46.0071047" lon="11.3015080" />
      <trkpt lat="46.0071148" lon="11.3015190" />
      <trkpt lat="46.0071381" lon="11.3014736" />
      <trkpt lat="46.0072785" lon="11.3013637" />
      <trkpt lat="46.0072923" lon="11.3013556" />
      <trkpt lat="46.0077161" lon="11.3011122" />
      <trkpt lat="46.0078777" lon="11.3010371" />
      <trkpt lat="46.0080566" lon="11.3009546" />
      <trkpt lat="46.0080591" lon="11.3009543" />
      <trkpt lat="46.0081156" lon="11.3009486" />
      <trkpt lat="46.0081833" lon="11.3007954" />
      <trkpt lat="46.0083690" lon="11.3003535" />
      <trkpt lat="46.0085907" lon="11.2997702" />
      <trkpt lat="46.0086613" lon="11.2996130" />
      <trkpt lat="46.0089993" lon="11.2998204" />
      <trkpt lat="46.0092735" lon="11.3000264" />
      <trkpt lat="46.0095258" lon="11.3002254" />
      <trkpt lat="46.0092017" lon="11.3008885" />
      <trkpt lat="46.0090159" lon="11.3013822" />
      <trkpt lat="46.0088555" lon="11.3018813" />
      <trkpt lat="46.0087682" lon="11.3022782" />
      <trkpt lat="46.0087503" lon="11.3023826" />
      <trkpt lat="46.0093379" lon="11.3028040" />
      <trkpt lat="46.0094560" lon="11.3024060" />
      <trkpt lat="46.0095570" lon="11.3020983" />
      <trkpt lat="46.0096933" lon="11.3017084" />
      <trkpt lat="46.0097980" lon="11.3014492" />
      <trkpt lat="46.0099378" lon="11.3011149" />
      <trkpt lat="46.0099866" lon="11.3008330" />
      <trkpt lat="46.0100554" lon="11.3009318" />
      <trkpt lat="46.0103305" lon="11.3002544" />
      <trkpt lat="46.0106519" lon="11.2994633" />
      <trkpt lat="46.0108075" lon="11.2995628" />
      <trkpt lat="46.0109092" lon="11.2996421" />
      <trkpt lat="46.0109808" lon="11.2997521" />
      <trkpt lat="46.0110438" lon="11.2998653" />
      <trkpt lat="46.0111085" lon="11.2999988" />
      <trkpt lat="46.0111478" lon="11.3000732" />
      <trkpt lat="46.0111699" lon="11.3001210" />
      <trkpt lat="46.0112603" lon="11.3002166" />
      <trkpt lat="46.0112962" lon="11.3002246" />
      <trkpt lat="46.0116723" lon="11.2996863" />
      <trkpt lat="46.0118498" lon="11.2994411" />
      <trkpt lat="46.0119829" lon="11.2992330" />
      <trkpt lat="46.0121122" lon="11.2989819" />
      <trkpt lat="46.0122721" lon="11.2986350" />
      <trkpt lat="46.0123552" lon="11.2985082" />
    </trkseg>
  </trk>
</gpx>
