<?xml version="1.0" encoding="UTF-8"?>
<gpx xmlns="http://www.topografix.com/GPX/1/1" version="1.1" creator="ShapeRoute route-engine">
  <metadata>
    <name>fish 10 km · 2026-09-24</name>
    <author>
      <name>ShapeRoute route-engine</name>
    </author>
    <copyright author="OpenStreetMap contributors">
      <license>https://opendatacommons.org/licenses/odbl/1-0/</license>
    </copyright>
    <link href="https://www.openstreetmap.org/copyright">
      <text>© OpenStreetMap contributors</text>
    </link>
    <time>2026-09-24T04:58:35Z</time>
  </metadata>
  <trk>
    <name>fish 10 km · 2026-09-24</name>
    <trkseg>
      <trkpt lat="46.0123552" lon="11.2985082" />
      <trkpt lat="46.0122424" lon="11.2983394" />
      <trkpt lat="46.0122499" lon="11.2982214" />
      <trkpt lat="46.0122052" lon="11.2981248" />
      <trkpt lat="46.0120860" lon="11.2982428" />
      <trkpt lat="46.0118824" lon="11.2985225" />
      <trkpt lat="46.0118028" lon="11.2983483" />
      <trkpt lat="46.0116728" lon="11.2981556" />
      <trkpt lat="46.0115587" lon="11.2979934" />
      <trkpt lat="46.0115764" lon="11.2979707" />
      <trkpt lat="46.0116123" lon="11.2977853" />
      <trkpt lat="46.0112181" lon="11.2971112" />
      <trkpt lat="46.0112568" lon="11.2970649" />
      <trkpt lat="46.0111781" lon="11.2968399" />
      <trkpt lat="46.0112072" lon="11.2965500" />
      <trkpt lat="46.0113169" lon="11.2960001" />
      <trkpt lat="46.0114367" lon="11.2956134" />
      <trkpt lat="46.0115150" lon="11.2954806" />
      <trkpt lat="46.0115596" lon="11.2953829" />
      <trkpt lat="46.0116754" lon="11.2952125" />
      <trkpt lat="46.0117011" lon="11.2951731" />
      <trkpt lat="46.0117049" lon="11.2951673" />
      <trkpt lat="46.0117646" lon="11.2950807" />
      <trkpt lat="46.0118000" lon="11.2950276" />
      <trkpt lat="46.0118242" lon="11.2949915" />
      <trkpt lat="46.0118463" lon="11.2949585" />
      <trkpt lat="46.0117996" lon="11.2948382" />
      <trkpt lat="46.0116482" lon="11.2944860" />
      <trkpt lat="46.0115886" lon="11.2943573" />
      <trkpt lat="46.0115766" lon="11.2942114" />
      <trkpt lat="46.0116005" lon="11.2939711" />
      <trkpt lat="46.0116362" lon="11.2936106" />
      <trkpt lat="46.0116362" lon="11.2930784" />
      <trkpt lat="46.0116570" lon="11.2927546" />
      <trkpt lat="46.0115994" lon="11.2925910" />
      <trkpt lat="46.0116482" lon="11.2919540" />
      <trkpt lat="46.0117435" lon="11.2911472" />
      <trkpt lat="46.0118615" lon="11.2905121" />
      <trkpt lat="46.0119071" lon="11.2901018" />
      <trkpt lat="46.0119333" lon="11.2898959" />
      <trkpt lat="46.0119559" lon="11.2897268" />
      <trkpt lat="46.0119891" lon="11.2895508" />
      <trkpt lat="46.0120090" lon="11.2894359" />
      <trkpt lat="46.0120118" lon="11.2893791" />
      <trkpt lat="46.0120193" lon="11.2893392" />
      <trkpt lat="46.0120153" lon="11.2892938" />
      <trkpt lat="46.0120120" lon="11.2892244" />
      <trkpt lat="46.0120429" lon="11.2892117" />
      <trkpt lat="46.0120121" lon="11.2889371" />
      <trkpt lat="46.0119777" lon="11.2887842" />
      <trkpt lat="46.0119450" lon="11.2884254" />
      <trkpt lat="46.0119430" lon="11.2882550" />
      <trkpt lat="46.0119501" lon="11.2882014" />
      <trkpt lat="46.0119642" lon="11.2881696" />
      <trkpt lat="46.0119884" lon="11.2881448" />
      <trkpt lat="46.0121020" lon="11.2880896" />
      <trkpt lat="46.0123736" lon="11.2879553" />
      <trkpt lat="46.0124106" lon="11.2880615" />
      <trkpt lat="46.0125747" lon="11.2886708" />
      <trkpt lat="46.0124638" lon="11.2887863" />
      <trkpt lat="46.0123462" lon="11.2888647" />
      <trkpt lat="46.0122430" lon="11.2889569" />
      <trkpt lat="46.0122996" lon="11.2890980" />
      <trkpt lat="46.0121666" lon="11.2891716" />
      <trkpt lat="46.0120429" lon="11.2892117" />
      <trkpt lat="46.0120120" lon="11.2892244" />
      <trkpt lat="46.0119694" lon="11.2892404" />
      <trkpt lat="46.0119076" lon="11.2892653" />
      <trkpt lat="46.0116967" lon="11.2893124" />
      <trkpt lat="46.0105457" lon="11.2895609" />
      <trkpt lat="46.0105075" lon="11.2895672" />
      <trkpt lat="46.0104819" lon="11.2895643" />
      <trkpt lat="46.0104601" lon="11.2895497" />
      <trkpt lat="46.0104490" lon="11.2895231" />
      <trkpt lat="46.0104484" lon="11.2894042" />
      <trkpt lat="46.0103878" lon="11.2894056" />
      <trkpt lat="46.0103400" lon="11.2894066" />
      <trkpt lat="46.0103406" lon="11.2895290" />
      <trkpt lat="46.0103313" lon="11.2895635" />
      <trkpt lat="46.0103119" lon="11.2895981" />
      <trkpt lat="46.0102610" lon="11.2896391" />
      <trkpt lat="46.0101365" lon="11.2897062" />
      <trkpt lat="46.0099107" lon="11.2898286" />
      <trkpt lat="46.0097829" lon="11.2898964" />
      <trkpt lat="46.0097531" lon="11.2899109" />
      <trkpt lat="46.0096914" lon="11.2899409" />
      <trkpt lat="46.0094460" lon="11.2900661" />
      <trkpt lat="46.0093036" lon="11.2901538" />
      <trkpt lat="46.0091629" lon="11.2903090" />
      <trkpt lat="46.0089896" lon="11.2905536" />
      <trkpt lat="46.0085966" lon="11.2910754" />
      <trkpt lat="46.0083873" lon="11.2913545" />
      <trkpt lat="46.0081916" lon="11.2916187" />
      <trkpt lat="46.0075579" lon="11.2925933" />
      <trkpt lat="46.0075224" lon="11.2926259" />
      <trkpt lat="46.0074812" lon="11.2926498" />
      <trkpt lat="46.0074392" lon="11.2926523" />
      <trkpt lat="46.0074056" lon="11.2926601" />
      <trkpt lat="46.0073720" lon="11.2926767" />
      <trkpt lat="46.0073259" lon="11.2927145" />
      <trkpt lat="46.0072540" lon="11.2927348" />
      <trkpt lat="46.0071963" lon="11.2927211" />
      <trkpt lat="46.0071061" lon="11.2926185" />
      <trkpt lat="46.0070743" lon="11.2926723" />
      <trkpt lat="46.0070436" lon="11.2927249" />
      <trkpt lat="46.0067496" lon="11.2923820" />
      <trkpt lat="46.0063120" lon="11.2918505" />
      <trkpt lat="46.0061265" lon="11.2916198" />
      <trkpt lat="46.0061187" lon="11.2916103" />
      <trkpt lat="46.0061136" lon="11.2916040" />
      <trkpt lat="46.0060721" lon="11.2915522" />
      <trkpt lat="46.0060023" lon="11.2914652" />
      <trkpt lat="46.0059831" lon="11.2914413" />
      <trkpt lat="46.0059617" lon="11.2914159" />
      <trkpt lat="46.0056345" lon="11.2910289" />
      <trkpt lat="46.0056137" lon="11.2910038" />
      <trkpt lat="46.0055938" lon="11.2909798" />
      <trkpt lat="46.0054014" lon="11.2907480" />
      <trkpt lat="46.0053797" lon="11.2907218" />
      <trkpt lat="46.0053607" lon="11.2906989" />
      <trkpt lat="46.0051264" lon="11.2904165" />
      <trkpt lat="46.0051065" lon="11.2903925" />
      <trkpt lat="46.0050862" lon="11.2903681" />
      <trkpt lat="46.0047929" lon="11.2900151" />
      <trkpt lat="46.0047737" lon="11.2899911" />
      <trkpt lat="46.0047523" lon="11.2899657" />
      <trkpt lat="46.0045573" lon="11.2897303" />
      <trkpt lat="46.0045184" lon="11.2896836" />
      <trkpt lat="46.0045048" lon="11.2897114" />
      <trkpt lat="46.0044880" lon="11.2897443" />
      <trkpt lat="46.0043607" lon="11.2895995" />
      <trkpt lat="46.0040936" lon="11.2892833" />
      <trkpt lat="46.0041123" lon="11.2892430" />
      <trkpt lat="46.0041242" lon="11.2892177" />
      <trkpt lat="46.0041342" lon="11.2891696" />
      <trkpt lat="46.0041204" lon="11.2891534" />
      <trkpt lat="46.0040061" lon="11.2890183" />
      <trkpt lat="46.0039244" lon="11.2889256" />
      <trkpt lat="46.0039147" lon="11.2889133" />
      <trkpt lat="46.0037008" lon="11.2886425" />
      <trkpt lat="46.0029517" lon="11.2876559" />
      <trkpt lat="46.0029229" lon="11.2875548" />
      <trkpt lat="46.0029062" lon="11.2874267" />
      <trkpt lat="46.0028868" lon="11.2871405" />
      <trkpt lat="46.0028664" lon="11.2868840" />
      <trkpt lat="46.0028512" lon="11.2865966" />
      <trkpt lat="46.0028408" lon="11.2864729" />
      <trkpt lat="46.0028144" lon="11.2863524" />
      <trkpt lat="46.0027886" lon="11.2863086" />
      <trkpt lat="46.0027533" lon="11.2862724" />
      <trkpt lat="46.0026839" lon="11.2862547" />
      <trkpt lat="46.0026208" lon="11.2862507" />
      <trkpt lat="46.0025911" lon="11.2862631" />
      <trkpt lat="46.0025631" lon="11.2862891" />
      <trkpt lat="46.0025338" lon="11.2863258" />
      <trkpt lat="46.0025077" lon="11.2863738" />
      <trkpt lat="46.0024793" lon="11.2864324" />
      <trkpt lat="46.0024454" lon="11.2865168" />
      <trkpt lat="46.0024494" lon="11.2865472" />
      <trkpt lat="46.0025272" lon="11.2877438" />
      <trkpt lat="46.0026612" lon="11.2900427" />
      <trkpt lat="46.0026927" lon="11.2905357" />
      <trkpt lat="46.0025698" lon="11.2905404" />
      <trkpt lat="46.0024584" lon="11.2905436" />
      <trkpt lat="46.0023376" lon="11.2905707" />
      <trkpt lat="46.0022375" lon="11.2906018" />
      <trkpt lat="46.0021815" lon="11.2905977" />
      <trkpt lat="46.0021284" lon="11.2905551" />
      <trkpt lat="46.0020122" lon="11.2904220" />
      <trkpt lat="46.0018810" lon="11.2903018" />
      <trkpt lat="46.0017916" lon="11.2902589" />
      <trkpt lat="46.0016485" lon="11.2902246" />
      <trkpt lat="46.0014696" lon="11.2902074" />
      <trkpt lat="46.0012681" lon="11.2901163" />
      <trkpt lat="46.0014696" lon="11.2902074" />
      <trkpt lat="46.0016485" lon="11.2902246" />
      <trkpt lat="46.0017916" lon="11.2902589" />
      <trkpt lat="46.0018810" lon="11.2903018" />
      <trkpt lat="46.0020122" lon="11.2904220" />
      <trkpt lat="46.0021284" lon="11.2905551" />
      <trkpt lat="46.0021815" lon="11.2905977" />
      <trkpt lat="46.0022375" lon="11.2906018" />
      <trkpt lat="46.0023376" lon="11.2905707" />
      <trkpt lat="46.0024584" lon="11.2905436" />
      <trkpt lat="46.0025698" lon="11.2905404" />
      <trkpt lat="46.0026927" lon="11.2905357" />
      <trkpt lat="46.0027196" lon="11.2911136" />
      <trkpt lat="46.0028477" lon="11.2933747" />
      <trkpt lat="46.0028793" lon="11.2938741" />
      <trkpt lat="46.0029007" lon="11.2940742" />
      <trkpt lat="46.0030056" lon="11.2950046" />
      <trkpt lat="46.0031503" lon="11.2958145" />
      <trkpt lat="46.0033239" lon="11.2966258" />
      <trkpt lat="46.0034243" lon="11.2970835" />
      <trkpt lat="46.0035464" lon="11.2976584" />
      <trkpt lat="46.0035520" lon="11.2977009" />
      <trkpt lat="46.0037758" lon="11.2987757" />
      <trkpt lat="46.0038177" lon="11.2990040" />
      <trkpt lat="46.0038738" lon="11.2993923" />
      <trkpt lat="46.0039282" lon="11.2998663" />
      <trkpt lat="46.0039591" lon="11.3001292" />
      <trkpt lat="46.0040074" lon="11.3005814" />
      <trkpt lat="46.0040197" lon="11.3008614" />
      <trkpt lat="46.0040310" lon="11.3011243" />
      <trkpt lat="46.0040373" lon="11.3014404" />
      <trkpt lat="46.0040048" lon="11.3031704" />
      <trkpt lat="46.0039901" lon="11.3036123" />
      <trkpt lat="46.0039364" lon="11.3052022" />
      <trkpt lat="46.0034271" lon="11.3053307" />
      <trkpt lat="46.0031049" lon="11.3053543" />
      <trkpt lat="46.0030124" lon="11.3053495" />
      <trkpt lat="46.0028066" lon="11.3070843" />
      <trkpt lat="46.0025096" lon="11.3095835" />
      <trkpt lat="46.0027195" lon="11.3095939" />
      <trkpt lat="46.0029398" lon="11.3095750" />
      <trkpt lat="46.0031247" lon="11.3095780" />
      <trkpt lat="46.0033659" lon="11.3095630" />
      <trkpt lat="46.0035694" lon="11.3094837" />
      <trkpt lat="46.0037179" lon="11.3093491" />
      <trkpt lat="46.0038448" lon="11.3092298" />
      <trkpt lat="46.0038608" lon="11.3098715" />
      <trkpt lat="46.0039085" lon="11.3107334" />
      <trkpt lat="46.0039837" lon="11.3116396" />
      <trkpt lat="46.0040966" lon="11.3125681" />
      <trkpt lat="46.0042619" lon="11.3135953" />
      <trkpt lat="46.0043492" lon="11.3135406" />
      <trkpt lat="46.0043857" lon="11.3134749" />
      <trkpt lat="46.0044048" lon="11.3133789" />
      <trkpt lat="46.0044057" lon="11.3132226" />
      <trkpt lat="46.0043911" lon="11.3130321" />
      <trkpt lat="46.0044076" lon="11.3129112" />
      <trkpt lat="46.0044733" lon="11.3127509" />
      <trkpt lat="46.0045655" lon="11.3126182" />
      <trkpt lat="46.0046631" lon="11.3124960" />
      <trkpt lat="46.0047918" lon="11.3123922" />
      <trkpt lat="46.0050318" lon="11.3122477" />
      <trkpt lat="46.0051050" lon="11.3122164" />
      <trkpt lat="46.0052593" lon="11.3121900" />
      <trkpt lat="46.0055791" lon="11.3121928" />
      <trkpt lat="46.0057229" lon="11.3121785" />
      <trkpt lat="46.0058494" lon="11.3121548" />
      <trkpt lat="46.0061075" lon="11.3121017" />
      <trkpt lat="46.0061855" lon="11.3120538" />
      <trkpt lat="46.0062950" lon="11.3122830" />
      <trkpt lat="46.0063929" lon="11.3125168" />
      <trkpt lat="46.0065170" lon="11.3129414" />
      <trkpt lat="46.0066783" lon="11.3133403" />
      <trkpt lat="46.0068800" lon="11.3137078" />
      <trkpt lat="46.0069796" lon="11.3139292" />
      <trkpt lat="46.0071157" lon="11.3140977" />
      <trkpt lat="46.0072132" lon="11.3142093" />
      <trkpt lat="46.0073510" lon="11.3143670" />
      <trkpt lat="46.0074869" lon="11.3145440" />
      <trkpt lat="46.0075841" lon="11.3147094" />
      <trkpt lat="46.0077865" lon="11.3151823" />
      <trkpt lat="46.0079104" lon="11.3154873" />
      <trkpt lat="46.0078423" lon="11.3158250" />
      <trkpt lat="46.0078223" lon="11.3160792" />
      <trkpt lat="46.0078157" lon="11.3163702" />
      <trkpt lat="46.0083466" lon="11.3162458" />
      <trkpt lat="46.0088822" lon="11.3161394" />
      <trkpt lat="46.0088594" lon="11.3159643" />
      <trkpt lat="46.0089765" lon="11.3159070" />
      <trkpt lat="46.0090540" lon="11.3158110" />
      <trkpt lat="46.0091157" lon="11.3157345" />
      <trkpt lat="46.0092500" lon="11.3156064" />
      <trkpt lat="46.0092769" lon="11.3155808" />
      <trkpt lat="46.0094293" lon="11.3154563" />
      <trkpt lat="46.0094486" lon="11.3154405" />
      <trkpt lat="46.0094636" lon="11.3154283" />
      <trkpt lat="46.0096661" lon="11.3152790" />
      <trkpt lat="46.0098642" lon="11.3151936" />
      <trkpt lat="46.0100985" lon="11.3151266" />
      <trkpt lat="46.0102007" lon="11.3150626" />
      <trkpt lat="46.0103945" lon="11.3149441" />
      <trkpt lat="46.0105039" lon="11.3148440" />
      <trkpt lat="46.0106283" lon="11.3147260" />
      <trkpt lat="46.0108886" lon="11.3144610" />
      <trkpt lat="46.0107976" lon="11.3139582" />
      <trkpt lat="46.0108088" lon="11.3138984" />
      <trkpt lat="46.0108825" lon="11.3138825" />
      <trkpt lat="46.0111170" lon="11.3138034" />
      <trkpt lat="46.0112895" lon="11.3137488" />
      <trkpt lat="46.0115063" lon="11.3136575" />
      <trkpt lat="46.0117628" lon="11.3135423" />
      <trkpt lat="46.0119632" lon="11.3134631" />
      <trkpt lat="46.0120941" lon="11.3134365" />
      <trkpt lat="46.0121874" lon="11.3134327" />
      <trkpt lat="46.0122690" lon="11.3134494" />
      <trkpt lat="46.0123586" lon="11.3134967" />
      <trkpt lat="46.0126415" lon="11.3136326" />
      <trkpt lat="46.0128110" lon="11.3137171" />
      <trkpt lat="46.0128944" lon="11.3137494" />
      <trkpt lat="46.0129807" lon="11.3137517" />
      <trkpt lat="46.0130782" lon="11.3137293" />
      <trkpt lat="46.0133271" lon="11.3136518" />
      <trkpt lat="46.0131658" lon="11.3128957" />
      <trkpt lat="46.0130312" lon="11.3120209" />
      <trkpt lat="46.0126642" lon="11.3100298" />
      <trkpt lat="46.0125396" lon="11.3096631" />
      <trkpt lat="46.0125112" lon="11.3095719" />
      <trkpt lat="46.0124877" lon="11.3093217" />
      <trkpt lat="46.0128792" lon="11.3092834" />
      <trkpt lat="46.0129761" lon="11.3092566" />
      <trkpt lat="46.0130319" lon="11.3092083" />
      <trkpt lat="46.0130617" lon="11.3091225" />
      <trkpt lat="46.0131139" lon="11.3088596" />
      <trkpt lat="46.0131735" lon="11.3087524" />
      <trkpt lat="46.0132379" lon="11.3086679" />
      <trkpt lat="46.0132950" lon="11.3086265" />
      <trkpt lat="46.0133450" lon="11.3085849" />
      <trkpt lat="46.0133257" lon="11.3084986" />
      <trkpt lat="46.0133741" lon="11.3075777" />
      <trkpt lat="46.0133970" lon="11.3074903" />
      <trkpt lat="46.0134803" lon="11.3073438" />
      <trkpt lat="46.0135289" lon="11.3071749" />
      <trkpt lat="46.0137384" lon="11.3060950" />
      <trkpt lat="46.0138253" lon="11.3056538" />
      <trkpt lat="46.0136996" lon="11.3055082" />
      <trkpt lat="46.0136046" lon="11.3054330" />
      <trkpt lat="46.0134104" lon="11.3053479" />
      <trkpt lat="46.0130363" lon="11.3051489" />
      <trkpt lat="46.0127990" lon="11.3049468" />
      <trkpt lat="46.0127931" lon="11.3047943" />
      <trkpt lat="46.0128175" lon="11.3047198" />
      <trkpt lat="46.0129678" lon="11.3040694" />
      <trkpt lat="46.0129843" lon="11.3039821" />
      <trkpt lat="46.0129918" lon="11.3038274" />
      <trkpt lat="46.0129878" lon="11.3037316" />
      <trkpt lat="46.0129663" lon="11.3033746" />
      <trkpt lat="46.0128267" lon="11.3034075" />
      <trkpt lat="46.0127785" lon="11.3033938" />
      <trkpt lat="46.0128080" lon="11.3031323" />
      <trkpt lat="46.0128501" lon="11.3028052" />
      <trkpt lat="46.0129158" lon="11.3025677" />
      <trkpt lat="46.0130588" lon="11.3019822" />
      <trkpt lat="46.0126992" lon="11.3017516" />
      <trkpt lat="46.0124475" lon="11.3015655" />
      <trkpt lat="46.0122740" lon="11.3014141" />
      <trkpt lat="46.0122465" lon="11.3013586" />
      <trkpt lat="46.0121159" lon="11.3011788" />
      <trkpt lat="46.0120772" lon="11.3011040" />
      <trkpt lat="46.0120169" lon="11.3010306" />
      <trkpt lat="46.0119443" lon="11.3009640" />
      <trkpt lat="46.0118496" lon="11.3009037" />
      <trkpt lat="46.0118055" lon="11.3008842" />
      <trkpt lat="46.0118149" lon="11.3008633" />
      <trkpt lat="46.0118615" lon="11.3007597" />
      <trkpt lat="46.0119565" lon="11.3006223" />
      <trkpt lat="46.0119953" lon="11.3005993" />
      <trkpt lat="46.0121758" lon="11.3003503" />
      <trkpt lat="46.0122204" lon="11.3002805" />
      <trkpt lat="46.0123170" lon="11.3001389" />
      <trkpt lat="46.0124897" lon="11.2998568" />
      <trkpt lat="46.0123257" lon="11.2996448" />
      <trkpt lat="46.0124654" lon="11.2994100" />
      <trkpt lat="46.0126048" lon="11.2991203" />
      <trkpt lat="46.0127099" lon="11.2988315" />
      <trkpt lat="46.0123552" lon="11.2985082" />
    </trkseg>
  </trk>
</gpx>
