<?xml version="1.0" encoding="UTF-8"?>
<gpx xmlns="http://www.topografix.com/GPX/1/1" version="1.1" creator="ShapeRoute route-engine">
  <metadata>
    <name>heart 5 km · 2026-09-23</name>
    <author>
      <name>ShapeRoute route-engine</name>
    </author>
    <time>2026-09-23T05:04:16Z</time>
  </metadata>
  <trk>
    <name>heart 5 km · 2026-09-23</name>
    <trkseg>
      <trkpt lat="46.0534331" lon="11.4519044" />
      <trkpt lat="46.0535395" lon="11.4524093" />
      <trkpt lat="46.0535601" lon="11.4524922" />
      <trkpt lat="46.0535871" lon="11.4525488" />
      <trkpt lat="46.0536316" lon="11.4525898" />
      <trkpt lat="46.0536963" lon="11.4525983" />
      <trkpt lat="46.0537137" lon="11.4525988" />
      <trkpt lat="46.0537302" lon="11.4525984" />
      <trkpt lat="46.0537929" lon="11.4525971" />
      <trkpt lat="46.0538085" lon="11.4525921" />
      <trkpt lat="46.0540071" lon="11.4525399" />
      <trkpt lat="46.0541921" lon="11.4524876" />
      <trkpt lat="46.0542313" lon="11.4524775" />
      <trkpt lat="46.0542463" lon="11.4524754" />
      <trkpt lat="46.0543067" lon="11.4524653" />
      <trkpt lat="46.0544000" lon="11.4524523" />
      <trkpt lat="46.0546691" lon="11.4524289" />
      <trkpt lat="46.0547889" lon="11.4524265" />
      <trkpt lat="46.0548375" lon="11.4530811" />
      <trkpt lat="46.0548948" lon="11.4536099" />
      <trkpt lat="46.0550262" lon="11.4538260" />
      <trkpt lat="46.0550689" lon="11.4539258" />
      <trkpt lat="46.0550822" lon="11.4539567" />
      <trkpt lat="46.0551519" lon="11.4540242" />
      <trkpt lat="46.0551676" lon="11.4540394" />
      <trkpt lat="46.0551707" lon="11.4541095" />
      <trkpt lat="46.0553970" lon="11.4543150" />
      <trkpt lat="46.0554302" lon="11.4543458" />
      <trkpt lat="46.0555315" lon="11.4541778" />
      <trkpt lat="46.0555644" lon="11.4541115" />
      <trkpt lat="46.0555868" lon="11.4541388" />
      <trkpt lat="46.0557777" lon="11.4543037" />
      <trkpt lat="46.0558388" lon="11.4543531" />
      <trkpt lat="46.0558876" lon="11.4543917" />
      <trkpt lat="46.0559467" lon="11.4544302" />
      <trkpt lat="46.0559586" lon="11.4544386" />
      <trkpt lat="46.0559853" lon="11.4544608" />
      <trkpt lat="46.0559952" lon="11.4544769" />
      <trkpt lat="46.0560007" lon="11.4544970" />
      <trkpt lat="46.0560012" lon="11.4545159" />
      <trkpt lat="46.0559976" lon="11.4545342" />
      <trkpt lat="46.0559904" lon="11.4545553" />
      <trkpt lat="46.0559391" lon="11.4546998" />
      <trkpt lat="46.0559340" lon="11.4547267" />
      <trkpt lat="46.0560021" lon="11.4547802" />
      <trkpt lat="46.0564884" lon="11.4552077" />
      <trkpt lat="46.0566330" lon="11.4553265" />
      <trkpt lat="46.0567167" lon="11.4553953" />
      <trkpt lat="46.0569595" lon="11.4555767" />
      <trkpt lat="46.0569691" lon="11.4555898" />
      <trkpt lat="46.0569750" lon="11.4556068" />
      <trkpt lat="46.0569766" lon="11.4556257" />
      <trkpt lat="46.0569736" lon="11.4556443" />
      <trkpt lat="46.0569587" lon="11.4557052" />
      <trkpt lat="46.0569427" lon="11.4557480" />
      <trkpt lat="46.0569217" lon="11.4557859" />
      <trkpt lat="46.0568964" lon="11.4558180" />
      <trkpt lat="46.0568635" lon="11.4558458" />
      <trkpt lat="46.0568273" lon="11.4558636" />
      <trkpt lat="46.0567894" lon="11.4558706" />
      <trkpt lat="46.0567061" lon="11.4558754" />
      <trkpt lat="46.0566165" lon="11.4558727" />
      <trkpt lat="46.0565087" lon="11.4558447" />
      <trkpt lat="46.0564239" lon="11.4558189" />
      <trkpt lat="46.0561049" lon="11.4556677" />
      <trkpt lat="46.0560811" lon="11.4556638" />
      <trkpt lat="46.0560573" lon="11.4556683" />
      <trkpt lat="46.0560350" lon="11.4556808" />
      <trkpt lat="46.0560035" lon="11.4557111" />
      <trkpt lat="46.0558109" lon="11.4560362" />
      <trkpt lat="46.0558058" lon="11.4560454" />
      <trkpt lat="46.0558030" lon="11.4560565" />
      <trkpt lat="46.0558026" lon="11.4560723" />
      <trkpt lat="46.0556793" lon="11.4560856" />
      <trkpt lat="46.0556020" lon="11.4561010" />
      <trkpt lat="46.0554898" lon="11.4561233" />
      <trkpt lat="46.0554262" lon="11.4561511" />
      <trkpt lat="46.0553843" lon="11.4561859" />
      <trkpt lat="46.0553164" lon="11.4562714" />
      <trkpt lat="46.0549442" lon="11.4568280" />
      <trkpt lat="46.0549020" lon="11.4568897" />
      <trkpt lat="46.0548254" lon="11.4570107" />
      <trkpt lat="46.0547896" lon="11.4570736" />
      <trkpt lat="46.0547485" lon="11.4571599" />
      <trkpt lat="46.0547113" lon="11.4572393" />
      <trkpt lat="46.0547057" lon="11.4572457" />
      <trkpt lat="46.0546990" lon="11.4572493" />
      <trkpt lat="46.0546918" lon="11.4572497" />
      <trkpt lat="46.0546849" lon="11.4572468" />
      <trkpt lat="46.0546715" lon="11.4572803" />
      <trkpt lat="46.0546390" lon="11.4573456" />
      <trkpt lat="46.0546114" lon="11.4573938" />
      <trkpt lat="46.0545934" lon="11.4574160" />
      <trkpt lat="46.0545682" lon="11.4574452" />
      <trkpt lat="46.0545495" lon="11.4574533" />
      <trkpt lat="46.0545304" lon="11.4574550" />
      <trkpt lat="46.0545070" lon="11.4574467" />
      <trkpt lat="46.0544181" lon="11.4573974" />
      <trkpt lat="46.0543355" lon="11.4573574" />
      <trkpt lat="46.0543255" lon="11.4573832" />
      <trkpt lat="46.0543233" lon="11.4573875" />
      <trkpt lat="46.0543203" lon="11.4573907" />
      <trkpt lat="46.0543168" lon="11.4573923" />
      <trkpt lat="46.0543131" lon="11.4573924" />
      <trkpt lat="46.0543096" lon="11.4573908" />
      <trkpt lat="46.0542660" lon="11.4573742" />
      <trkpt lat="46.0542621" lon="11.4573739" />
      <trkpt lat="46.0542584" lon="11.4573755" />
      <trkpt lat="46.0542552" lon="11.4573787" />
      <trkpt lat="46.0542529" lon="11.4573833" />
      <trkpt lat="46.0542518" lon="11.4573887" />
      <trkpt lat="46.0542477" lon="11.4574431" />
      <trkpt lat="46.0542309" lon="11.4577563" />
      <trkpt lat="46.0542307" lon="11.4577701" />
      <trkpt lat="46.0542310" lon="11.4577898" />
      <trkpt lat="46.0542344" lon="11.4578333" />
      <trkpt lat="46.0542353" lon="11.4578395" />
      <trkpt lat="46.0542348" lon="11.4578457" />
      <trkpt lat="46.0542331" lon="11.4578514" />
      <trkpt lat="46.0542302" lon="11.4578561" />
      <trkpt lat="46.0542265" lon="11.4578594" />
      <trkpt lat="46.0541632" lon="11.4579541" />
      <trkpt lat="46.0541317" lon="11.4579164" />
      <trkpt lat="46.0541137" lon="11.4579144" />
      <trkpt lat="46.0540999" lon="11.4579190" />
      <trkpt lat="46.0540850" lon="11.4579288" />
      <trkpt lat="46.0540288" lon="11.4579677" />
      <trkpt lat="46.0541424" lon="11.4583075" />
      <trkpt lat="46.0541502" lon="11.4583309" />
      <trkpt lat="46.0541976" lon="11.4584447" />
      <trkpt lat="46.0542793" lon="11.4586408" />
      <trkpt lat="46.0543270" lon="11.4587882" />
      <trkpt lat="46.0543595" lon="11.4589196" />
      <trkpt lat="46.0543697" lon="11.4589585" />
      <trkpt lat="46.0542186" lon="11.4590173" />
      <trkpt lat="46.0540865" lon="11.4590607" />
      <trkpt lat="46.0540593" lon="11.4590705" />
      <trkpt lat="46.0541034" lon="11.4593046" />
      <trkpt lat="46.0540434" lon="11.4593332" />
      <trkpt lat="46.0539518" lon="11.4593755" />
      <trkpt lat="46.0539367" lon="11.4593814" />
      <trkpt lat="46.0538839" lon="11.4594019" />
      <trkpt lat="46.0538214" lon="11.4594229" />
      <trkpt lat="46.0538086" lon="11.4594255" />
      <trkpt lat="46.0538036" lon="11.4594221" />
      <trkpt lat="46.0537998" lon="11.4594166" />
      <trkpt lat="46.0537974" lon="11.4594096" />
      <trkpt lat="46.0537958" lon="11.4594009" />
      <trkpt lat="46.0537623" lon="11.4591715" />
      <trkpt lat="46.0537608" lon="11.4591616" />
      <trkpt lat="46.0537577" lon="11.4591526" />
      <trkpt lat="46.0537531" lon="11.4591449" />
      <trkpt lat="46.0536829" lon="11.4590206" />
      <trkpt lat="46.0536704" lon="11.4590064" />
      <trkpt lat="46.0536557" lon="11.4589977" />
      <trkpt lat="46.0536355" lon="11.4589955" />
      <trkpt lat="46.0536251" lon="11.4588652" />
      <trkpt lat="46.0536169" lon="11.4587566" />
      <trkpt lat="46.0532832" lon="11.4589013" />
      <trkpt lat="46.0532582" lon="11.4589141" />
      <trkpt lat="46.0532346" lon="11.4589905" />
      <trkpt lat="46.0532035" lon="11.4590660" />
      <trkpt lat="46.0531226" lon="11.4592163" />
      <trkpt lat="46.0530322" lon="11.4593892" />
      <trkpt lat="46.0529586" lon="11.4594741" />
      <trkpt lat="46.0529171" lon="11.4595172" />
      <trkpt lat="46.0527835" lon="11.4596323" />
      <trkpt lat="46.0527121" lon="11.4596865" />
      <trkpt lat="46.0526398" lon="11.4594092" />
      <trkpt lat="46.0525519" lon="11.4591401" />
      <trkpt lat="46.0523887" lon="11.4591901" />
      <trkpt lat="46.0523689" lon="11.4591974" />
      <trkpt lat="46.0520510" lon="11.4593044" />
      <trkpt lat="46.0519294" lon="11.4585784" />
      <trkpt lat="46.0519284" lon="11.4585731" />
      <trkpt lat="46.0519286" lon="11.4585676" />
      <trkpt lat="46.0519301" lon="11.4585625" />
      <trkpt lat="46.0519327" lon="11.4585583" />
      <trkpt lat="46.0519360" lon="11.4585556" />
      <trkpt lat="46.0520668" lon="11.4584945" />
      <trkpt lat="46.0520807" lon="11.4585526" />
      <trkpt lat="46.0520845" lon="11.4585621" />
      <trkpt lat="46.0521460" lon="11.4586367" />
      <trkpt lat="46.0522274" lon="11.4587652" />
      <trkpt lat="46.0522902" lon="11.4588827" />
      <trkpt lat="46.0523211" lon="11.4589524" />
      <trkpt lat="46.0523328" lon="11.4589916" />
      <trkpt lat="46.0523887" lon="11.4591901" />
      <trkpt lat="46.0525519" lon="11.4591401" />
      <trkpt lat="46.0526746" lon="11.4590963" />
      <trkpt lat="46.0528020" lon="11.4590543" />
      <trkpt lat="46.0530115" lon="11.4589853" />
      <trkpt lat="46.0529828" lon="11.4589578" />
      <trkpt lat="46.0529607" lon="11.4589198" />
      <trkpt lat="46.0529470" lon="11.4588743" />
      <trkpt lat="46.0529415" lon="11.4588429" />
      <trkpt lat="46.0528328" lon="11.4582187" />
      <trkpt lat="46.0528199" lon="11.4581373" />
      <trkpt lat="46.0528119" lon="11.4580873" />
      <trkpt lat="46.0527670" lon="11.4576834" />
      <trkpt lat="46.0527468" lon="11.4576950" />
      <trkpt lat="46.0526840" lon="11.4577182" />
      <trkpt lat="46.0526374" lon="11.4577327" />
      <trkpt lat="46.0526243" lon="11.4577378" />
      <trkpt lat="46.0525888" lon="11.4577449" />
      <trkpt lat="46.0524380" lon="11.4577560" />
      <trkpt lat="46.0523009" lon="11.4577585" />
      <trkpt lat="46.0521670" lon="11.4577344" />
      <trkpt lat="46.0521262" lon="11.4577229" />
      <trkpt lat="46.0519581" lon="11.4577022" />
      <trkpt lat="46.0517598" lon="11.4576581" />
      <trkpt lat="46.0516717" lon="11.4571934" />
      <trkpt lat="46.0516612" lon="11.4571506" />
      <trkpt lat="46.0516637" lon="11.4571496" />
      <trkpt lat="46.0519269" lon="11.4570460" />
      <trkpt lat="46.0518659" lon="11.4566796" />
      <trkpt lat="46.0518188" lon="11.4563980" />
      <trkpt lat="46.0518484" lon="11.4563953" />
      <trkpt lat="46.0519692" lon="11.4563481" />
      <trkpt lat="46.0519923" lon="11.4563385" />
      <trkpt lat="46.0520028" lon="11.4563348" />
      <trkpt lat="46.0520116" lon="11.4563338" />
      <trkpt lat="46.0520201" lon="11.4563366" />
      <trkpt lat="46.0520277" lon="11.4563428" />
      <trkpt lat="46.0520337" lon="11.4563520" />
      <trkpt lat="46.0520365" lon="11.4563616" />
      <trkpt lat="46.0520386" lon="11.4563736" />
      <trkpt lat="46.0520548" lon="11.4563677" />
      <trkpt lat="46.0520578" lon="11.4563669" />
      <trkpt lat="46.0520608" lon="11.4563674" />
      <trkpt lat="46.0520636" lon="11.4563694" />
      <trkpt lat="46.0520658" lon="11.4563725" />
      <trkpt lat="46.0520872" lon="11.4564211" />
      <trkpt lat="46.0520884" lon="11.4564231" />
      <trkpt lat="46.0520901" lon="11.4564243" />
      <trkpt lat="46.0520920" lon="11.4564248" />
      <trkpt lat="46.0520938" lon="11.4564243" />
      <trkpt lat="46.0521528" lon="11.4564040" />
      <trkpt lat="46.0522015" lon="11.4563872" />
      <trkpt lat="46.0522031" lon="11.4563868" />
      <trkpt lat="46.0522046" lon="11.4563857" />
      <trkpt lat="46.0522057" lon="11.4563840" />
      <trkpt lat="46.0522064" lon="11.4563820" />
      <trkpt lat="46.0522066" lon="11.4563797" />
      <trkpt lat="46.0522054" lon="11.4563274" />
      <trkpt lat="46.0522057" lon="11.4563235" />
      <trkpt lat="46.0522069" lon="11.4563200" />
      <trkpt lat="46.0522088" lon="11.4563172" />
      <trkpt lat="46.0522112" lon="11.4563156" />
      <trkpt lat="46.0522327" lon="11.4563088" />
      <trkpt lat="46.0522322" lon="11.4562971" />
      <trkpt lat="46.0522335" lon="11.4562905" />
      <trkpt lat="46.0522362" lon="11.4562849" />
      <trkpt lat="46.0522402" lon="11.4562809" />
      <trkpt lat="46.0522448" lon="11.4562791" />
      <trkpt lat="46.0522541" lon="11.4562760" />
      <trkpt lat="46.0522428" lon="11.4561922" />
      <trkpt lat="46.0522276" lon="11.4560789" />
      <trkpt lat="46.0521657" lon="11.4560705" />
      <trkpt lat="46.0521037" lon="11.4560422" />
      <trkpt lat="46.0520542" lon="11.4560002" />
      <trkpt lat="46.0520149" lon="11.4559557" />
      <trkpt lat="46.0519864" lon="11.4559088" />
      <trkpt lat="46.0519521" lon="11.4558070" />
      <trkpt lat="46.0517857" lon="11.4551650" />
      <trkpt lat="46.0516508" lon="11.4546438" />
      <trkpt lat="46.0516140" lon="11.4545017" />
      <trkpt lat="46.0515724" lon="11.4544500" />
      <trkpt lat="46.0515889" lon="11.4544071" />
      <trkpt lat="46.0517462" lon="11.4539984" />
      <trkpt lat="46.0516942" lon="11.4539700" />
      <trkpt lat="46.0516630" lon="11.4539636" />
      <trkpt lat="46.0517830" lon="11.4536479" />
      <trkpt lat="46.0518542" lon="11.4534782" />
      <trkpt lat="46.0518693" lon="11.4534412" />
      <trkpt lat="46.0520317" lon="11.4530387" />
      <trkpt lat="46.0522435" lon="11.4525074" />
      <trkpt lat="46.0522552" lon="11.4524781" />
      <trkpt lat="46.0522811" lon="11.4524132" />
      <trkpt lat="46.0523125" lon="11.4523344" />
      <trkpt lat="46.0524045" lon="11.4520625" />
      <trkpt lat="46.0524536" lon="11.4519172" />
      <trkpt lat="46.0525154" lon="11.4516895" />
      <trkpt lat="46.0525256" lon="11.4516533" />
      <trkpt lat="46.0525585" lon="11.4515613" />
      <trkpt lat="46.0525992" lon="11.4514704" />
      <trkpt lat="46.0526597" lon="11.4514133" />
      <trkpt lat="46.0526785" lon="11.4514111" />
      <trkpt lat="46.0527214" lon="11.4514236" />
      <trkpt lat="46.0527599" lon="11.4514536" />
      <trkpt lat="46.0527879" lon="11.4514908" />
      <trkpt lat="46.0528051" lon="11.4515259" />
      <trkpt lat="46.0528378" lon="11.4516111" />
      <trkpt lat="46.0528656" lon="11.4516928" />
      <trkpt lat="46.0528751" lon="11.4517258" />
      <trkpt lat="46.0529638" lon="11.4521035" />
      <trkpt lat="46.0530537" lon="11.4520653" />
      <trkpt lat="46.0530666" lon="11.4520598" />
      <trkpt lat="46.0531148" lon="11.4520394" />
      <trkpt lat="46.0532613" lon="11.4519773" />
      <trkpt lat="46.0534331" lon="11.4519044" />
    </trkseg>
  </trk>
</gpx>
