<?xml version="1.0" encoding="UTF-8"?>
<gpx xmlns="http://www.topografix.com/GPX/1/1" version="1.1" creator="ShapeRoute route-engine">
  <metadata>
    <name>house 15 km · 2026-09-23</name>
    <author>
      <name>ShapeRoute route-engine</name>
    </author>
    <copyright author="OpenStreetMap contributors">
      <license>https://opendatacommons.org/licenses/odbl/1-0/</license>
    </copyright>
    <link href="https://www.openstreetmap.org/copyright">
      <text>© OpenStreetMap contributors</text>
    </link>
    <time>2026-09-23T22:48:58Z</time>
  </metadata>
  <trk>
    <name>house 15 km · 2026-09-23</name>
    <trkseg>
      <trkpt lat="46.0668711" lon="11.1210492" />
      <trkpt lat="46.0668249" lon="11.1206182" />
      <trkpt lat="46.0670289" lon="11.1205458" />
      <trkpt lat="46.0670637" lon="11.1207156" />
      <trkpt lat="46.0670730" lon="11.1209842" />
      <trkpt lat="46.0670745" lon="11.1210291" />
      <trkpt lat="46.0673165" lon="11.1210193" />
      <trkpt lat="46.0674358" lon="11.1209903" />
      <trkpt lat="46.0675759" lon="11.1209222" />
      <trkpt lat="46.0676386" lon="11.1208917" />
      <trkpt lat="46.0677393" lon="11.1208327" />
      <trkpt lat="46.0678148" lon="11.1207864" />
      <trkpt lat="46.0678457" lon="11.1207672" />
      <trkpt lat="46.0679032" lon="11.1207116" />
      <trkpt lat="46.0681018" lon="11.1205393" />
      <trkpt lat="46.0681669" lon="11.1204445" />
      <trkpt lat="46.0682945" lon="11.1202664" />
      <trkpt lat="46.0683846" lon="11.1201435" />
      <trkpt lat="46.0684504" lon="11.1200865" />
      <trkpt lat="46.0684776" lon="11.1200039" />
      <trkpt lat="46.0685273" lon="11.1200042" />
      <trkpt lat="46.0686285" lon="11.1199921" />
      <trkpt lat="46.0687055" lon="11.1199855" />
      <trkpt lat="46.0687688" lon="11.1199699" />
      <trkpt lat="46.0687784" lon="11.1199700" />
      <trkpt lat="46.0688097" lon="11.1199685" />
      <trkpt lat="46.0688503" lon="11.1199666" />
      <trkpt lat="46.0688785" lon="11.1199652" />
      <trkpt lat="46.0688928" lon="11.1199633" />
      <trkpt lat="46.0689900" lon="11.1199487" />
      <trkpt lat="46.0690484" lon="11.1199429" />
      <trkpt lat="46.0691086" lon="11.1199380" />
      <trkpt lat="46.0691667" lon="11.1199367" />
      <trkpt lat="46.0692352" lon="11.1199271" />
      <trkpt lat="46.0693982" lon="11.1198734" />
      <trkpt lat="46.0694763" lon="11.1198434" />
      <trkpt lat="46.0695220" lon="11.1198116" />
      <trkpt lat="46.0695493" lon="11.1198090" />
      <trkpt lat="46.0695787" lon="11.1198028" />
      <trkpt lat="46.0699049" lon="11.1197056" />
      <trkpt lat="46.0699981" lon="11.1197027" />
      <trkpt lat="46.0700021" lon="11.1197557" />
      <trkpt lat="46.0700053" lon="11.1197976" />
      <trkpt lat="46.0700337" lon="11.1198021" />
      <trkpt lat="46.0700585" lon="11.1200224" />
      <trkpt lat="46.0701087" lon="11.1200099" />
      <trkpt lat="46.0701965" lon="11.1199880" />
      <trkpt lat="46.0701974" lon="11.1199473" />
      <trkpt lat="46.0702177" lon="11.1199022" />
      <trkpt lat="46.0703493" lon="11.1200342" />
      <trkpt lat="46.0703340" lon="11.1201164" />
      <trkpt lat="46.0703236" lon="11.1203022" />
      <trkpt lat="46.0703501" lon="11.1204646" />
      <trkpt lat="46.0703911" lon="11.1205907" />
      <trkpt lat="46.0704219" lon="11.1206145" />
      <trkpt lat="46.0704688" lon="11.1207212" />
      <trkpt lat="46.0704977" lon="11.1208011" />
      <trkpt lat="46.0705556" lon="11.1207774" />
      <trkpt lat="46.0707008" lon="11.1207313" />
      <trkpt lat="46.0707490" lon="11.1207293" />
      <trkpt lat="46.0707671" lon="11.1208993" />
      <trkpt lat="46.0707785" lon="11.1208967" />
      <trkpt lat="46.0707917" lon="11.1208932" />
      <trkpt lat="46.0707971" lon="11.1209330" />
      <trkpt lat="46.0708222" lon="11.1211463" />
      <trkpt lat="46.0708261" lon="11.1211782" />
      <trkpt lat="46.0708428" lon="11.1213207" />
      <trkpt lat="46.0708739" lon="11.1212929" />
      <trkpt lat="46.0709093" lon="11.1212701" />
      <trkpt lat="46.0709933" lon="11.1212422" />
      <trkpt lat="46.0714042" lon="11.1211368" />
      <trkpt lat="46.0714094" lon="11.1210971" />
      <trkpt lat="46.0714182" lon="11.1210689" />
      <trkpt lat="46.0714280" lon="11.1210421" />
      <trkpt lat="46.0714484" lon="11.1210274" />
      <trkpt lat="46.0714778" lon="11.1210315" />
      <trkpt lat="46.0715831" lon="11.1210789" />
      <trkpt lat="46.0716174" lon="11.1210984" />
      <trkpt lat="46.0716533" lon="11.1211213" />
      <trkpt lat="46.0716908" lon="11.1211467" />
      <trkpt lat="46.0717867" lon="11.1212118" />
      <trkpt lat="46.0718835" lon="11.1212826" />
      <trkpt lat="46.0719062" lon="11.1213170" />
      <trkpt lat="46.0719313" lon="11.1213497" />
      <trkpt lat="46.0720298" lon="11.1214493" />
      <trkpt lat="46.0720560" lon="11.1214732" />
      <trkpt lat="46.0720810" lon="11.1215120" />
      <trkpt lat="46.0722703" lon="11.1216368" />
      <trkpt lat="46.0726591" lon="11.1218861" />
      <trkpt lat="46.0726938" lon="11.1219095" />
      <trkpt lat="46.0730062" lon="11.1221203" />
      <trkpt lat="46.0729868" lon="11.1221798" />
      <trkpt lat="46.0729711" lon="11.1222242" />
      <trkpt lat="46.0729786" lon="11.1222290" />
      <trkpt lat="46.0729656" lon="11.1222703" />
      <trkpt lat="46.0726792" lon="11.1231779" />
      <trkpt lat="46.0725228" lon="11.1236735" />
      <trkpt lat="46.0725820" lon="11.1237131" />
      <trkpt lat="46.0726579" lon="11.1237638" />
      <trkpt lat="46.0726452" lon="11.1238039" />
      <trkpt lat="46.0726264" lon="11.1238680" />
      <trkpt lat="46.0726038" lon="11.1239440" />
      <trkpt lat="46.0727016" lon="11.1240002" />
      <trkpt lat="46.0727416" lon="11.1240359" />
      <trkpt lat="46.0731576" lon="11.1242196" />
      <trkpt lat="46.0734005" lon="11.1242852" />
      <trkpt lat="46.0734984" lon="11.1243116" />
      <trkpt lat="46.0735770" lon="11.1243132" />
      <trkpt lat="46.0739206" lon="11.1243158" />
      <trkpt lat="46.0742641" lon="11.1242572" />
      <trkpt lat="46.0743308" lon="11.1242438" />
      <trkpt lat="46.0743381" lon="11.1242486" />
      <trkpt lat="46.0743449" lon="11.1242560" />
      <trkpt lat="46.0743529" lon="11.1242752" />
      <trkpt lat="46.0743593" lon="11.1243010" />
      <trkpt lat="46.0743853" lon="11.1245078" />
      <trkpt lat="46.0744119" lon="11.1247181" />
      <trkpt lat="46.0744240" lon="11.1248285" />
      <trkpt lat="46.0744248" lon="11.1248384" />
      <trkpt lat="46.0744263" lon="11.1249352" />
      <trkpt lat="46.0744276" lon="11.1250102" />
      <trkpt lat="46.0744467" lon="11.1250478" />
      <trkpt lat="46.0744495" lon="11.1250996" />
      <trkpt lat="46.0744269" lon="11.1251494" />
      <trkpt lat="46.0742862" lon="11.1252110" />
      <trkpt lat="46.0742901" lon="11.1252486" />
      <trkpt lat="46.0742936" lon="11.1252822" />
      <trkpt lat="46.0744911" lon="11.1252180" />
      <trkpt lat="46.0744955" lon="11.1252706" />
      <trkpt lat="46.0744974" lon="11.1253131" />
      <trkpt lat="46.0744973" lon="11.1253342" />
      <trkpt lat="46.0744654" lon="11.1253720" />
      <trkpt lat="46.0739627" lon="11.1258798" />
      <trkpt lat="46.0738574" lon="11.1259851" />
      <trkpt lat="46.0737670" lon="11.1260733" />
      <trkpt lat="46.0736399" lon="11.1262152" />
      <trkpt lat="46.0736617" lon="11.1264186" />
      <trkpt lat="46.0737090" lon="11.1270530" />
      <trkpt lat="46.0737023" lon="11.1270824" />
      <trkpt lat="46.0736737" lon="11.1271080" />
      <trkpt lat="46.0735896" lon="11.1271588" />
      <trkpt lat="46.0735302" lon="11.1271951" />
      <trkpt lat="46.0734663" lon="11.1272419" />
      <trkpt lat="46.0734660" lon="11.1274177" />
      <trkpt lat="46.0734711" lon="11.1276069" />
      <trkpt lat="46.0734537" lon="11.1276617" />
      <trkpt lat="46.0733483" lon="11.1278310" />
      <trkpt lat="46.0732983" lon="11.1279491" />
      <trkpt lat="46.0733316" lon="11.1279510" />
      <trkpt lat="46.0733801" lon="11.1279390" />
      <trkpt lat="46.0735035" lon="11.1278998" />
      <trkpt lat="46.0735237" lon="11.1278934" />
      <trkpt lat="46.0735347" lon="11.1278881" />
      <trkpt lat="46.0735910" lon="11.1278598" />
      <trkpt lat="46.0736055" lon="11.1278536" />
      <trkpt lat="46.0736330" lon="11.1278374" />
      <trkpt lat="46.0736518" lon="11.1278337" />
      <trkpt lat="46.0737268" lon="11.1278281" />
      <trkpt lat="46.0738871" lon="11.1278374" />
      <trkpt lat="46.0738985" lon="11.1279014" />
      <trkpt lat="46.0739021" lon="11.1279049" />
      <trkpt lat="46.0740563" lon="11.1280547" />
      <trkpt lat="46.0740792" lon="11.1280566" />
      <trkpt lat="46.0741217" lon="11.1280537" />
      <trkpt lat="46.0741340" lon="11.1280529" />
      <trkpt lat="46.0742255" lon="11.1280386" />
      <trkpt lat="46.0741631" lon="11.1282502" />
      <trkpt lat="46.0741717" lon="11.1282818" />
      <trkpt lat="46.0741515" lon="11.1283292" />
      <trkpt lat="46.0741667" lon="11.1283468" />
      <trkpt lat="46.0741912" lon="11.1283750" />
      <trkpt lat="46.0742467" lon="11.1282269" />
      <trkpt lat="46.0743188" lon="11.1280689" />
      <trkpt lat="46.0744212" lon="11.1279428" />
      <trkpt lat="46.0745531" lon="11.1278791" />
      <trkpt lat="46.0746745" lon="11.1278750" />
      <trkpt lat="46.0748351" lon="11.1279289" />
      <trkpt lat="46.0751899" lon="11.1280282" />
      <trkpt lat="46.0752276" lon="11.1280388" />
      <trkpt lat="46.0756233" lon="11.1281540" />
      <trkpt lat="46.0757365" lon="11.1281867" />
      <trkpt lat="46.0757716" lon="11.1281967" />
      <trkpt lat="46.0758499" lon="11.1282191" />
      <trkpt lat="46.0759290" lon="11.1282301" />
      <trkpt lat="46.0759087" lon="11.1284264" />
      <trkpt lat="46.0759068" lon="11.1285458" />
      <trkpt lat="46.0758860" lon="11.1286618" />
      <trkpt lat="46.0758202" lon="11.1289142" />
      <trkpt lat="46.0757893" lon="11.1291059" />
      <trkpt lat="46.0757939" lon="11.1293083" />
      <trkpt lat="46.0758122" lon="11.1294045" />
      <trkpt lat="46.0758601" lon="11.1295688" />
      <trkpt lat="46.0759415" lon="11.1297726" />
      <trkpt lat="46.0760013" lon="11.1299493" />
      <trkpt lat="46.0760478" lon="11.1300123" />
      <trkpt lat="46.0761724" lon="11.1300875" />
      <trkpt lat="46.0764975" lon="11.1302832" />
      <trkpt lat="46.0766298" lon="11.1303343" />
      <trkpt lat="46.0767621" lon="11.1303772" />
      <trkpt lat="46.0770168" lon="11.1304446" />
      <trkpt lat="46.0771354" lon="11.1304578" />
      <trkpt lat="46.0772788" lon="11.1304450" />
      <trkpt lat="46.0773083" lon="11.1304503" />
      <trkpt lat="46.0773671" lon="11.1304666" />
      <trkpt lat="46.0774699" lon="11.1305183" />
      <trkpt lat="46.0775462" lon="11.1305548" />
      <trkpt lat="46.0776351" lon="11.1305890" />
      <trkpt lat="46.0776813" lon="11.1306004" />
      <trkpt lat="46.0779757" lon="11.1306368" />
      <trkpt lat="46.0780404" lon="11.1306618" />
      <trkpt lat="46.0781185" lon="11.1307095" />
      <trkpt lat="46.0782004" lon="11.1307831" />
      <trkpt lat="46.0782903" lon="11.1308929" />
      <trkpt lat="46.0783495" lon="11.1309923" />
      <trkpt lat="46.0783826" lon="11.1310924" />
      <trkpt lat="46.0783974" lon="11.1311663" />
      <trkpt lat="46.0783974" lon="11.1312138" />
      <trkpt lat="46.0783917" lon="11.1312810" />
      <trkpt lat="46.0783660" lon="11.1313499" />
      <trkpt lat="46.0783263" lon="11.1314152" />
      <trkpt lat="46.0781656" lon="11.1316469" />
      <trkpt lat="46.0778386" lon="11.1320741" />
      <trkpt lat="46.0775294" lon="11.1324748" />
      <trkpt lat="46.0771637" lon="11.1328149" />
      <trkpt lat="46.0770186" lon="11.1329397" />
      <trkpt lat="46.0770180" lon="11.1330358" />
      <trkpt lat="46.0769276" lon="11.1331966" />
      <trkpt lat="46.0768501" lon="11.1334039" />
      <trkpt lat="46.0767662" lon="11.1335477" />
      <trkpt lat="46.0767134" lon="11.1336349" />
      <trkpt lat="46.0767733" lon="11.1337175" />
      <trkpt lat="46.0768521" lon="11.1337678" />
      <trkpt lat="46.0769419" lon="11.1337805" />
      <trkpt lat="46.0770276" lon="11.1338414" />
      <trkpt lat="46.0770945" lon="11.1339463" />
      <trkpt lat="46.0771392" lon="11.1340305" />
      <trkpt lat="46.0773505" lon="11.1339223" />
      <trkpt lat="46.0774887" lon="11.1339073" />
      <trkpt lat="46.0776696" lon="11.1339099" />
      <trkpt lat="46.0777929" lon="11.1339928" />
      <trkpt lat="46.0779414" lon="11.1339180" />
      <trkpt lat="46.0779830" lon="11.1338860" />
      <trkpt lat="46.0780515" lon="11.1338922" />
      <trkpt lat="46.0780813" lon="11.1339003" />
      <trkpt lat="46.0780943" lon="11.1338788" />
      <trkpt lat="46.0781191" lon="11.1338795" />
      <trkpt lat="46.0781584" lon="11.1339042" />
      <trkpt lat="46.0781386" lon="11.1340148" />
      <trkpt lat="46.0784297" lon="11.1340174" />
      <trkpt lat="46.0784896" lon="11.1340208" />
      <trkpt lat="46.0786569" lon="11.1340326" />
      <trkpt lat="46.0787537" lon="11.1340402" />
      <trkpt lat="46.0788077" lon="11.1340901" />
      <trkpt lat="46.0788142" lon="11.1341756" />
      <trkpt lat="46.0788026" lon="11.1342492" />
      <trkpt lat="46.0787825" lon="11.1343101" />
      <trkpt lat="46.0787332" lon="11.1343761" />
      <trkpt lat="46.0786311" lon="11.1343871" />
      <trkpt lat="46.0785201" lon="11.1344117" />
      <trkpt lat="46.0783705" lon="11.1344954" />
      <trkpt lat="46.0781645" lon="11.1346325" />
      <trkpt lat="46.0780166" lon="11.1347552" />
      <trkpt lat="46.0778841" lon="11.1348632" />
      <trkpt lat="46.0778482" lon="11.1348482" />
      <trkpt lat="46.0778227" lon="11.1348375" />
      <trkpt lat="46.0777376" lon="11.1348446" />
      <trkpt lat="46.0776239" lon="11.1348799" />
      <trkpt lat="46.0774483" lon="11.1349320" />
      <trkpt lat="46.0773370" lon="11.1349751" />
      <trkpt lat="46.0772247" lon="11.1349487" />
      <trkpt lat="46.0771621" lon="11.1348921" />
      <trkpt lat="46.0770938" lon="11.1348890" />
      <trkpt lat="46.0770547" lon="11.1348813" />
      <trkpt lat="46.0769463" lon="11.1348383" />
      <trkpt lat="46.0767236" lon="11.1349726" />
      <trkpt lat="46.0766801" lon="11.1349919" />
      <trkpt lat="46.0765689" lon="11.1350411" />
      <trkpt lat="46.0766295" lon="11.1350505" />
      <trkpt lat="46.0768945" lon="11.1350918" />
      <trkpt lat="46.0770970" lon="11.1351193" />
      <trkpt lat="46.0775818" lon="11.1351995" />
      <trkpt lat="46.0776370" lon="11.1352503" />
      <trkpt lat="46.0778023" lon="11.1353775" />
      <trkpt lat="46.0780062" lon="11.1355196" />
      <trkpt lat="46.0781323" lon="11.1356685" />
      <trkpt lat="46.0782104" lon="11.1358902" />
      <trkpt lat="46.0781985" lon="11.1362501" />
      <trkpt lat="46.0781986" lon="11.1363628" />
      <trkpt lat="46.0782207" lon="11.1364565" />
      <trkpt lat="46.0778265" lon="11.1365640" />
      <trkpt lat="46.0775046" lon="11.1366445" />
      <trkpt lat="46.0772613" lon="11.1366944" />
      <trkpt lat="46.0772066" lon="11.1367230" />
      <trkpt lat="46.0771610" lon="11.1367810" />
      <trkpt lat="46.0771425" lon="11.1368932" />
      <trkpt lat="46.0770781" lon="11.1368546" />
      <trkpt lat="46.0770079" lon="11.1367548" />
      <trkpt lat="46.0769363" lon="11.1366702" />
      <trkpt lat="46.0768793" lon="11.1365849" />
      <trkpt lat="46.0768243" lon="11.1365883" />
      <trkpt lat="46.0766958" lon="11.1366914" />
      <trkpt lat="46.0765763" lon="11.1367225" />
      <trkpt lat="46.0763920" lon="11.1367656" />
      <trkpt lat="46.0763049" lon="11.1367524" />
      <trkpt lat="46.0760750" lon="11.1365801" />
      <trkpt lat="46.0760467" lon="11.1368302" />
      <trkpt lat="46.0760330" lon="11.1369124" />
      <trkpt lat="46.0763502" lon="11.1370508" />
      <trkpt lat="46.0764423" lon="11.1370969" />
      <trkpt lat="46.0765580" lon="11.1371513" />
      <trkpt lat="46.0766725" lon="11.1372785" />
      <trkpt lat="46.0766935" lon="11.1373498" />
      <trkpt lat="46.0767083" lon="11.1374124" />
      <trkpt lat="46.0767174" lon="11.1374906" />
      <trkpt lat="46.0767118" lon="11.1375937" />
      <trkpt lat="46.0766819" lon="11.1377006" />
      <trkpt lat="46.0766113" lon="11.1379484" />
      <trkpt lat="46.0764775" lon="11.1386374" />
      <trkpt lat="46.0764695" lon="11.1386782" />
      <trkpt lat="46.0764615" lon="11.1387211" />
      <trkpt lat="46.0764266" lon="11.1389183" />
      <trkpt lat="46.0764171" lon="11.1390938" />
      <trkpt lat="46.0764172" lon="11.1391380" />
      <trkpt lat="46.0764162" lon="11.1391914" />
      <trkpt lat="46.0763877" lon="11.1391951" />
      <trkpt lat="46.0764088" lon="11.1393960" />
      <trkpt lat="46.0764612" lon="11.1396150" />
      <trkpt lat="46.0764742" lon="11.1396651" />
      <trkpt lat="46.0765879" lon="11.1400742" />
      <trkpt lat="46.0766231" lon="11.1402312" />
      <trkpt lat="46.0766243" lon="11.1403096" />
      <trkpt lat="46.0766257" lon="11.1404017" />
      <trkpt lat="46.0766172" lon="11.1405509" />
      <trkpt lat="46.0765758" lon="11.1405380" />
      <trkpt lat="46.0765342" lon="11.1407987" />
      <trkpt lat="46.0765056" lon="11.1410296" />
      <trkpt lat="46.0764838" lon="11.1411185" />
      <trkpt lat="46.0764132" lon="11.1412637" />
      <trkpt lat="46.0763915" lon="11.1413248" />
      <trkpt lat="46.0763758" lon="11.1413997" />
      <trkpt lat="46.0763250" lon="11.1416421" />
      <trkpt lat="46.0762591" lon="11.1418195" />
      <trkpt lat="46.0762193" lon="11.1418752" />
      <trkpt lat="46.0761287" lon="11.1420774" />
      <trkpt lat="46.0761000" lon="11.1421205" />
      <trkpt lat="46.0759549" lon="11.1423168" />
      <trkpt lat="46.0758860" lon="11.1424431" />
      <trkpt lat="46.0758179" lon="11.1425809" />
      <trkpt lat="46.0757371" lon="11.1427035" />
      <trkpt lat="46.0757067" lon="11.1427558" />
      <trkpt lat="46.0756896" lon="11.1427968" />
      <trkpt lat="46.0756681" lon="11.1427783" />
      <trkpt lat="46.0756437" lon="11.1428301" />
      <trkpt lat="46.0756419" lon="11.1428955" />
      <trkpt lat="46.0755185" lon="11.1428915" />
      <trkpt lat="46.0755018" lon="11.1430616" />
      <trkpt lat="46.0755126" lon="11.1430632" />
      <trkpt lat="46.0755124" lon="11.1431357" />
      <trkpt lat="46.0754686" lon="11.1432843" />
      <trkpt lat="46.0754593" lon="11.1433993" />
      <trkpt lat="46.0754616" lon="11.1435889" />
      <trkpt lat="46.0754514" lon="11.1436214" />
      <trkpt lat="46.0754817" lon="11.1436801" />
      <trkpt lat="46.0755076" lon="11.1437302" />
      <trkpt lat="46.0755462" lon="11.1436895" />
      <trkpt lat="46.0755710" lon="11.1436809" />
      <trkpt lat="46.0755906" lon="11.1436819" />
      <trkpt lat="46.0756018" lon="11.1436993" />
      <trkpt lat="46.0756237" lon="11.1437871" />
      <trkpt lat="46.0756479" lon="11.1438569" />
      <trkpt lat="46.0756703" lon="11.1438373" />
      <trkpt lat="46.0756966" lon="11.1438143" />
      <trkpt lat="46.0757417" lon="11.1439281" />
      <trkpt lat="46.0758515" lon="11.1441742" />
      <trkpt lat="46.0760192" lon="11.1445883" />
      <trkpt lat="46.0760538" lon="11.1447173" />
      <trkpt lat="46.0760741" lon="11.1448734" />
      <trkpt lat="46.0760741" lon="11.1450511" />
      <trkpt lat="46.0760717" lon="11.1452127" />
      <trkpt lat="46.0760260" lon="11.1455441" />
      <trkpt lat="46.0760086" lon="11.1455875" />
      <trkpt lat="46.0759781" lon="11.1458755" />
      <trkpt lat="46.0759781" lon="11.1459552" />
      <trkpt lat="46.0759502" lon="11.1459796" />
      <trkpt lat="46.0759250" lon="11.1459889" />
      <trkpt lat="46.0759194" lon="11.1462853" />
      <trkpt lat="46.0759165" lon="11.1466263" />
      <trkpt lat="46.0758593" lon="11.1465937" />
      <trkpt lat="46.0757431" lon="11.1465275" />
      <trkpt lat="46.0756208" lon="11.1464438" />
      <trkpt lat="46.0755085" lon="11.1463525" />
      <trkpt lat="46.0754784" lon="11.1463269" />
      <trkpt lat="46.0753913" lon="11.1462528" />
      <trkpt lat="46.0751825" lon="11.1459941" />
      <trkpt lat="46.0751273" lon="11.1459705" />
      <trkpt lat="46.0749748" lon="11.1459054" />
      <trkpt lat="46.0746811" lon="11.1458327" />
      <trkpt lat="46.0746487" lon="11.1458183" />
      <trkpt lat="46.0744438" lon="11.1457733" />
      <trkpt lat="46.0744115" lon="11.1457665" />
      <trkpt lat="46.0743394" lon="11.1459332" />
      <trkpt lat="46.0742112" lon="11.1462299" />
      <trkpt lat="46.0740266" lon="11.1468117" />
      <trkpt lat="46.0739112" lon="11.1469852" />
      <trkpt lat="46.0737449" lon="11.1470891" />
      <trkpt lat="46.0736122" lon="11.1471970" />
      <trkpt lat="46.0735472" lon="11.1472740" />
      <trkpt lat="46.0734074" lon="11.1474537" />
      <trkpt lat="46.0733438" lon="11.1475583" />
      <trkpt lat="46.0732805" lon="11.1477023" />
      <trkpt lat="46.0732164" lon="11.1478455" />
      <trkpt lat="46.0731986" lon="11.1479102" />
      <trkpt lat="46.0731692" lon="11.1480321" />
      <trkpt lat="46.0730830" lon="11.1483800" />
      <trkpt lat="46.0730693" lon="11.1484486" />
      <trkpt lat="46.0730060" lon="11.1484228" />
      <trkpt lat="46.0728551" lon="11.1484371" />
      <trkpt lat="46.0728294" lon="11.1485047" />
      <trkpt lat="46.0728185" lon="11.1489250" />
      <trkpt lat="46.0728176" lon="11.1491329" />
      <trkpt lat="46.0726937" lon="11.1492133" />
      <trkpt lat="46.0726104" lon="11.1492809" />
      <trkpt lat="46.0725694" lon="11.1493298" />
      <trkpt lat="46.0725553" lon="11.1493787" />
      <trkpt lat="46.0725708" lon="11.1494847" />
      <trkpt lat="46.0726161" lon="11.1496254" />
      <trkpt lat="46.0726755" lon="11.1497823" />
      <trkpt lat="46.0727730" lon="11.1499168" />
      <trkpt lat="46.0729682" lon="11.1501003" />
      <trkpt lat="46.0731947" lon="11.1502638" />
      <trkpt lat="46.0732057" lon="11.1502803" />
      <trkpt lat="46.0732329" lon="11.1503096" />
      <trkpt lat="46.0733050" lon="11.1503409" />
      <trkpt lat="46.0733836" lon="11.1503761" />
      <trkpt lat="46.0735869" lon="11.1504493" />
      <trkpt lat="46.0736142" lon="11.1504548" />
      <trkpt lat="46.0736544" lon="11.1504341" />
      <trkpt lat="46.0737739" lon="11.1503230" />
      <trkpt lat="46.0738120" lon="11.1502872" />
      <trkpt lat="46.0738382" lon="11.1502821" />
      <trkpt lat="46.0738706" lon="11.1502968" />
      <trkpt lat="46.0738862" lon="11.1503298" />
      <trkpt lat="46.0738097" lon="11.1504015" />
      <trkpt lat="46.0738137" lon="11.1504478" />
      <trkpt lat="46.0738172" lon="11.1504916" />
      <trkpt lat="46.0738242" lon="11.1505689" />
      <trkpt lat="46.0738340" lon="11.1507583" />
      <trkpt lat="46.0738384" lon="11.1509548" />
      <trkpt lat="46.0738561" lon="11.1512187" />
      <trkpt lat="46.0738513" lon="11.1512777" />
      <trkpt lat="46.0738370" lon="11.1513101" />
      <trkpt lat="46.0738265" lon="11.1513755" />
      <trkpt lat="46.0737908" lon="11.1514269" />
      <trkpt lat="46.0737470" lon="11.1514946" />
      <trkpt lat="46.0737075" lon="11.1515758" />
      <trkpt lat="46.0736738" lon="11.1516633" />
      <trkpt lat="46.0736417" lon="11.1517564" />
      <trkpt lat="46.0736296" lon="11.1517666" />
      <trkpt lat="46.0736034" lon="11.1517746" />
      <trkpt lat="46.0735772" lon="11.1518722" />
      <trkpt lat="46.0735545" lon="11.1519535" />
      <trkpt lat="46.0735422" lon="11.1520154" />
      <trkpt lat="46.0735617" lon="11.1520581" />
      <trkpt lat="46.0735681" lon="11.1520721" />
      <trkpt lat="46.0735671" lon="11.1521282" />
      <trkpt lat="46.0735702" lon="11.1523118" />
      <trkpt lat="46.0735655" lon="11.1523619" />
      <trkpt lat="46.0735518" lon="11.1524104" />
      <trkpt lat="46.0735318" lon="11.1524491" />
      <trkpt lat="46.0735081" lon="11.1524749" />
      <trkpt lat="46.0734781" lon="11.1524886" />
      <trkpt lat="46.0734450" lon="11.1524939" />
      <trkpt lat="46.0734092" lon="11.1524840" />
      <trkpt lat="46.0733808" lon="11.1524620" />
      <trkpt lat="46.0733534" lon="11.1524264" />
      <trkpt lat="46.0733371" lon="11.1523915" />
      <trkpt lat="46.0732560" lon="11.1520744" />
      <trkpt lat="46.0732376" lon="11.1520175" />
      <trkpt lat="46.0732155" lon="11.1519765" />
      <trkpt lat="46.0731534" lon="11.1518930" />
      <trkpt lat="46.0731203" lon="11.1518612" />
      <trkpt lat="46.0730908" lon="11.1518475" />
      <trkpt lat="46.0730582" lon="11.1518559" />
      <trkpt lat="46.0730350" lon="11.1518756" />
      <trkpt lat="46.0730192" lon="11.1519067" />
      <trkpt lat="46.0730139" lon="11.1519416" />
      <trkpt lat="46.0730213" lon="11.1519939" />
      <trkpt lat="46.0730350" lon="11.1520296" />
      <trkpt lat="46.0730703" lon="11.1520774" />
      <trkpt lat="46.0731687" lon="11.1521904" />
      <trkpt lat="46.0731945" lon="11.1522413" />
      <trkpt lat="46.0732113" lon="11.1523057" />
      <trkpt lat="46.0732171" lon="11.1523664" />
      <trkpt lat="46.0732103" lon="11.1524431" />
      <trkpt lat="46.0732013" lon="11.1525075" />
      <trkpt lat="46.0732018" lon="11.1525432" />
      <trkpt lat="46.0731836" lon="11.1525705" />
      <trkpt lat="46.0731592" lon="11.1526069" />
      <trkpt lat="46.0731397" lon="11.1526054" />
      <trkpt lat="46.0731187" lon="11.1526122" />
      <trkpt lat="46.0730718" lon="11.1526350" />
      <trkpt lat="46.0730029" lon="11.1526494" />
      <trkpt lat="46.0729434" lon="11.1526615" />
      <trkpt lat="46.0729050" lon="11.1526889" />
      <trkpt lat="46.0728750" lon="11.1527238" />
      <trkpt lat="46.0728561" lon="11.1527662" />
      <trkpt lat="46.0727866" lon="11.1530106" />
      <trkpt lat="46.0727769" lon="11.1529376" />
      <trkpt lat="46.0727535" lon="11.1530179" />
      <trkpt lat="46.0727280" lon="11.1530617" />
      <trkpt lat="46.0726936" lon="11.1530971" />
      <trkpt lat="46.0726183" lon="11.1531457" />
      <trkpt lat="46.0724065" lon="11.1532515" />
      <trkpt lat="46.0723550" lon="11.1532703" />
      <trkpt lat="46.0723031" lon="11.1532715" />
      <trkpt lat="46.0722488" lon="11.1532618" />
      <trkpt lat="46.0721865" lon="11.1532283" />
      <trkpt lat="46.0721321" lon="11.1531753" />
      <trkpt lat="46.0720461" lon="11.1530860" />
      <trkpt lat="46.0718046" lon="11.1528130" />
      <trkpt lat="46.0716771" lon="11.1526513" />
      <trkpt lat="46.0715614" lon="11.1524494" />
      <trkpt lat="46.0714126" lon="11.1521247" />
      <trkpt lat="46.0712050" lon="11.1516738" />
      <trkpt lat="46.0711728" lon="11.1516156" />
      <trkpt lat="46.0710902" lon="11.1514704" />
      <trkpt lat="46.0710573" lon="11.1514049" />
      <trkpt lat="46.0708692" lon="11.1510112" />
      <trkpt lat="46.0708086" lon="11.1509107" />
      <trkpt lat="46.0707679" lon="11.1508647" />
      <trkpt lat="46.0707313" lon="11.1508299" />
      <trkpt lat="46.0706940" lon="11.1508091" />
      <trkpt lat="46.0706203" lon="11.1507682" />
      <trkpt lat="46.0703886" lon="11.1506376" />
      <trkpt lat="46.0703018" lon="11.1505759" />
      <trkpt lat="46.0701249" lon="11.1504501" />
      <trkpt lat="46.0700691" lon="11.1504187" />
      <trkpt lat="46.0700236" lon="11.1504023" />
      <trkpt lat="46.0699831" lon="11.1503967" />
      <trkpt lat="46.0698476" lon="11.1503880" />
      <trkpt lat="46.0697005" lon="11.1503930" />
      <trkpt lat="46.0696140" lon="11.1504044" />
      <trkpt lat="46.0693164" lon="11.1504773" />
      <trkpt lat="46.0691969" lon="11.1505045" />
      <trkpt lat="46.0689702" lon="11.1505561" />
      <trkpt lat="46.0686593" lon="11.1506505" />
      <trkpt lat="46.0686308" lon="11.1506609" />
      <trkpt lat="46.0686002" lon="11.1506325" />
      <trkpt lat="46.0685648" lon="11.1506201" />
      <trkpt lat="46.0685285" lon="11.1506251" />
      <trkpt lat="46.0684335" lon="11.1506000" />
      <trkpt lat="46.0683584" lon="11.1505966" />
      <trkpt lat="46.0682774" lon="11.1505783" />
      <trkpt lat="46.0686009" lon="11.1504747" />
      <trkpt lat="46.0685891" lon="11.1504368" />
      <trkpt lat="46.0685587" lon="11.1504374" />
      <trkpt lat="46.0685389" lon="11.1504366" />
      <trkpt lat="46.0680938" lon="11.1504191" />
      <trkpt lat="46.0679336" lon="11.1504132" />
      <trkpt lat="46.0679172" lon="11.1504126" />
      <trkpt lat="46.0678364" lon="11.1504097" />
      <trkpt lat="46.0675787" lon="11.1503823" />
      <trkpt lat="46.0675646" lon="11.1503808" />
      <trkpt lat="46.0675581" lon="11.1503639" />
      <trkpt lat="46.0675197" lon="11.1503612" />
      <trkpt lat="46.0674763" lon="11.1503603" />
      <trkpt lat="46.0674386" lon="11.1503586" />
      <trkpt lat="46.0668931" lon="11.1503337" />
      <trkpt lat="46.0668928" lon="11.1503509" />
      <trkpt lat="46.0668921" lon="11.1503910" />
      <trkpt lat="46.0668917" lon="11.1504122" />
      <trkpt lat="46.0665999" lon="11.1504014" />
      <trkpt lat="46.0665992" lon="11.1504632" />
      <trkpt lat="46.0665988" lon="11.1504875" />
      <trkpt lat="46.0665985" lon="11.1505068" />
      <trkpt lat="46.0665330" lon="11.1505049" />
      <trkpt lat="46.0665182" lon="11.1505108" />
      <trkpt lat="46.0664747" lon="11.1506085" />
      <trkpt lat="46.0664469" lon="11.1506079" />
      <trkpt lat="46.0664220" lon="11.1506069" />
      <trkpt lat="46.0664219" lon="11.1505875" />
      <trkpt lat="46.0664166" lon="11.1505618" />
      <trkpt lat="46.0664059" lon="11.1505377" />
      <trkpt lat="46.0663917" lon="11.1505182" />
      <trkpt lat="46.0663713" lon="11.1505046" />
      <trkpt lat="46.0662351" lon="11.1504769" />
      <trkpt lat="46.0660590" lon="11.1503979" />
      <trkpt lat="46.0658090" lon="11.1503776" />
      <trkpt lat="46.0653065" lon="11.1504290" />
      <trkpt lat="46.0652921" lon="11.1504574" />
      <trkpt lat="46.0652533" lon="11.1505340" />
      <trkpt lat="46.0652135" lon="11.1505328" />
      <trkpt lat="46.0651650" lon="11.1505194" />
      <trkpt lat="46.0651450" lon="11.1504968" />
      <trkpt lat="46.0651053" lon="11.1504610" />
      <trkpt lat="46.0650595" lon="11.1504307" />
      <trkpt lat="46.0649981" lon="11.1504152" />
      <trkpt lat="46.0648091" lon="11.1503809" />
      <trkpt lat="46.0645165" lon="11.1503468" />
      <trkpt lat="46.0641477" lon="11.1503372" />
      <trkpt lat="46.0641460" lon="11.1503140" />
      <trkpt lat="46.0641375" lon="11.1502884" />
      <trkpt lat="46.0641233" lon="11.1502679" />
      <trkpt lat="46.0641019" lon="11.1502546" />
      <trkpt lat="46.0640512" lon="11.1502449" />
      <trkpt lat="46.0640568" lon="11.1501756" />
      <trkpt lat="46.0640610" lon="11.1501235" />
      <trkpt lat="46.0639960" lon="11.1500983" />
      <trkpt lat="46.0639314" lon="11.1500559" />
      <trkpt lat="46.0638799" lon="11.1499989" />
      <trkpt lat="46.0638209" lon="11.1499191" />
      <trkpt lat="46.0637860" lon="11.1498386" />
      <trkpt lat="46.0637683" lon="11.1497557" />
      <trkpt lat="46.0637677" lon="11.1497081" />
      <trkpt lat="46.0637277" lon="11.1497033" />
      <trkpt lat="46.0636839" lon="11.1496980" />
      <trkpt lat="46.0636785" lon="11.1498056" />
      <trkpt lat="46.0636594" lon="11.1498976" />
      <trkpt lat="46.0636285" lon="11.1499649" />
      <trkpt lat="46.0635857" lon="11.1500228" />
      <trkpt lat="46.0635344" lon="11.1500569" />
      <trkpt lat="46.0634903" lon="11.1500711" />
      <trkpt lat="46.0631925" lon="11.1500781" />
      <trkpt lat="46.0630842" lon="11.1500797" />
      <trkpt lat="46.0630849" lon="11.1501335" />
      <trkpt lat="46.0630855" lon="11.1501893" />
      <trkpt lat="46.0628787" lon="11.1501892" />
      <trkpt lat="46.0628091" lon="11.1501925" />
      <trkpt lat="46.0627464" lon="11.1502001" />
      <trkpt lat="46.0626451" lon="11.1502176" />
      <trkpt lat="46.0625325" lon="11.1502481" />
      <trkpt lat="46.0624350" lon="11.1502840" />
      <trkpt lat="46.0622944" lon="11.1503417" />
      <trkpt lat="46.0621478" lon="11.1504060" />
      <trkpt lat="46.0620442" lon="11.1504561" />
      <trkpt lat="46.0619775" lon="11.1504873" />
      <trkpt lat="46.0619661" lon="11.1504401" />
      <trkpt lat="46.0619538" lon="11.1503895" />
      <trkpt lat="46.0619201" lon="11.1503987" />
      <trkpt lat="46.0618830" lon="11.1504009" />
      <trkpt lat="46.0618475" lon="11.1503867" />
      <trkpt lat="46.0618278" lon="11.1503606" />
      <trkpt lat="46.0618016" lon="11.1503778" />
      <trkpt lat="46.0617813" lon="11.1503225" />
      <trkpt lat="46.0617398" lon="11.1502637" />
      <trkpt lat="46.0616458" lon="11.1502074" />
      <trkpt lat="46.0615024" lon="11.1501284" />
      <trkpt lat="46.0615070" lon="11.1500151" />
      <trkpt lat="46.0614839" lon="11.1499741" />
      <trkpt lat="46.0614742" lon="11.1496453" />
      <trkpt lat="46.0614740" lon="11.1495299" />
      <trkpt lat="46.0614736" lon="11.1492012" />
      <trkpt lat="46.0613993" lon="11.1490150" />
      <trkpt lat="46.0613120" lon="11.1489034" />
      <trkpt lat="46.0612363" lon="11.1488458" />
      <trkpt lat="46.0612183" lon="11.1488441" />
      <trkpt lat="46.0610902" lon="11.1488320" />
      <trkpt lat="46.0609970" lon="11.1487892" />
      <trkpt lat="46.0608245" lon="11.1487694" />
      <trkpt lat="46.0606710" lon="11.1487922" />
      <trkpt lat="46.0604942" lon="11.1488257" />
      <trkpt lat="46.0600382" lon="11.1487131" />
      <trkpt lat="46.0596106" lon="11.1486169" />
      <trkpt lat="46.0596635" lon="11.1478208" />
      <trkpt lat="46.0596119" lon="11.1476521" />
      <trkpt lat="46.0596119" lon="11.1471027" />
      <trkpt lat="46.0596874" lon="11.1470646" />
      <trkpt lat="46.0598698" lon="11.1469884" />
      <trkpt lat="46.0600045" lon="11.1468252" />
      <trkpt lat="46.0608558" lon="11.1467938" />
      <trkpt lat="46.0609132" lon="11.1467828" />
      <trkpt lat="46.0609874" lon="11.1468892" />
      <trkpt lat="46.0609725" lon="11.1469629" />
      <trkpt lat="46.0610088" lon="11.1473773" />
      <trkpt lat="46.0609632" lon="11.1480989" />
      <trkpt lat="46.0609502" lon="11.1485253" />
      <trkpt lat="46.0609753" lon="11.1486246" />
      <trkpt lat="46.0611046" lon="11.1487493" />
      <trkpt lat="46.0612183" lon="11.1488441" />
      <trkpt lat="46.0612363" lon="11.1488458" />
      <trkpt lat="46.0613120" lon="11.1489034" />
      <trkpt lat="46.0613993" lon="11.1490150" />
      <trkpt lat="46.0614736" lon="11.1492012" />
      <trkpt lat="46.0614740" lon="11.1495299" />
      <trkpt lat="46.0614742" lon="11.1496453" />
      <trkpt lat="46.0614839" lon="11.1499741" />
      <trkpt lat="46.0615070" lon="11.1500151" />
      <trkpt lat="46.0615024" lon="11.1501284" />
      <trkpt lat="46.0616458" lon="11.1502074" />
      <trkpt lat="46.0617398" lon="11.1502637" />
      <trkpt lat="46.0617813" lon="11.1503225" />
      <trkpt lat="46.0618016" lon="11.1503778" />
      <trkpt lat="46.0617717" lon="11.1503950" />
      <trkpt lat="46.0617664" lon="11.1504317" />
      <trkpt lat="46.0617554" lon="11.1504446" />
      <trkpt lat="46.0617033" lon="11.1504522" />
      <trkpt lat="46.0617066" lon="11.1504995" />
      <trkpt lat="46.0617114" lon="11.1505684" />
      <trkpt lat="46.0615874" lon="11.1505750" />
      <trkpt lat="46.0614788" lon="11.1505761" />
      <trkpt lat="46.0609177" lon="11.1505436" />
      <trkpt lat="46.0606064" lon="11.1505225" />
      <trkpt lat="46.0599903" lon="11.1504840" />
      <trkpt lat="46.0594945" lon="11.1504525" />
      <trkpt lat="46.0592403" lon="11.1504343" />
      <trkpt lat="46.0590885" lon="11.1504214" />
      <trkpt lat="46.0589514" lon="11.1503979" />
      <trkpt lat="46.0588119" lon="11.1503544" />
      <trkpt lat="46.0587222" lon="11.1503170" />
      <trkpt lat="46.0586682" lon="11.1502906" />
      <trkpt lat="46.0585824" lon="11.1502484" />
      <trkpt lat="46.0584279" lon="11.1501551" />
      <trkpt lat="46.0581545" lon="11.1499870" />
      <trkpt lat="46.0578877" lon="11.1498244" />
      <trkpt lat="46.0576684" lon="11.1496897" />
      <trkpt lat="46.0575117" lon="11.1495928" />
      <trkpt lat="46.0574220" lon="11.1495372" />
      <trkpt lat="46.0572648" lon="11.1494403" />
      <trkpt lat="46.0571515" lon="11.1493756" />
      <trkpt lat="46.0570533" lon="11.1493272" />
      <trkpt lat="46.0570066" lon="11.1493067" />
      <trkpt lat="46.0568995" lon="11.1492628" />
      <trkpt lat="46.0567516" lon="11.1492107" />
      <trkpt lat="46.0567606" lon="11.1491512" />
      <trkpt lat="46.0567695" lon="11.1490916" />
      <trkpt lat="46.0566784" lon="11.1490642" />
      <trkpt lat="46.0565525" lon="11.1490292" />
      <trkpt lat="46.0564645" lon="11.1490113" />
      <trkpt lat="46.0562873" lon="11.1489832" />
      <trkpt lat="46.0560940" lon="11.1489513" />
      <trkpt lat="46.0558953" lon="11.1489214" />
      <trkpt lat="46.0558651" lon="11.1489169" />
      <trkpt lat="46.0559050" lon="11.1477689" />
      <trkpt lat="46.0558848" lon="11.1474872" />
      <trkpt lat="46.0558155" lon="11.1472439" />
      <trkpt lat="46.0556722" lon="11.1470494" />
      <trkpt lat="46.0553991" lon="11.1467982" />
      <trkpt lat="46.0552973" lon="11.1467190" />
      <trkpt lat="46.0552541" lon="11.1465876" />
      <trkpt lat="46.0551949" lon="11.1462116" />
      <trkpt lat="46.0552166" lon="11.1455842" />
      <trkpt lat="46.0552070" lon="11.1453166" />
      <trkpt lat="46.0551937" lon="11.1451002" />
      <trkpt lat="46.0551776" lon="11.1450400" />
      <trkpt lat="46.0544166" lon="11.1434453" />
      <trkpt lat="46.0542754" lon="11.1431737" />
      <trkpt lat="46.0541642" lon="11.1430340" />
      <trkpt lat="46.0540920" lon="11.1429547" />
      <trkpt lat="46.0541097" lon="11.1427126" />
      <trkpt lat="46.0540872" lon="11.1424493" />
      <trkpt lat="46.0540321" lon="11.1422698" />
      <trkpt lat="46.0539041" lon="11.1420457" />
      <trkpt lat="46.0538031" lon="11.1419455" />
      <trkpt lat="46.0537290" lon="11.1418176" />
      <trkpt lat="46.0537026" lon="11.1416942" />
      <trkpt lat="46.0536486" lon="11.1410493" />
      <trkpt lat="46.0536487" lon="11.1408360" />
      <trkpt lat="46.0536830" lon="11.1406517" />
      <trkpt lat="46.0537307" lon="11.1405459" />
      <trkpt lat="46.0538081" lon="11.1404491" />
      <trkpt lat="46.0539300" lon="11.1403919" />
      <trkpt lat="46.0540409" lon="11.1403829" />
      <trkpt lat="46.0541201" lon="11.1403777" />
      <trkpt lat="46.0542306" lon="11.1403460" />
      <trkpt lat="46.0543174" lon="11.1402559" />
      <trkpt lat="46.0543987" lon="11.1400683" />
      <trkpt lat="46.0545013" lon="11.1397236" />
      <trkpt lat="46.0545711" lon="11.1396280" />
      <trkpt lat="46.0547432" lon="11.1395677" />
      <trkpt lat="46.0549025" lon="11.1395447" />
      <trkpt lat="46.0550056" lon="11.1395039" />
      <trkpt lat="46.0550774" lon="11.1394124" />
      <trkpt lat="46.0550153" lon="11.1391708" />
      <trkpt lat="46.0549668" lon="11.1390220" />
      <trkpt lat="46.0548956" lon="11.1389023" />
      <trkpt lat="46.0547727" lon="11.1386888" />
      <trkpt lat="46.0547865" lon="11.1386721" />
      <trkpt lat="46.0548166" lon="11.1386900" />
      <trkpt lat="46.0548402" lon="11.1386448" />
      <trkpt lat="46.0548694" lon="11.1385703" />
      <trkpt lat="46.0549315" lon="11.1386703" />
      <trkpt lat="46.0550934" lon="11.1387506" />
      <trkpt lat="46.0553173" lon="11.1388763" />
      <trkpt lat="46.0556005" lon="11.1390243" />
      <trkpt lat="46.0557012" lon="11.1390735" />
      <trkpt lat="46.0558490" lon="11.1390137" />
      <trkpt lat="46.0558814" lon="11.1390260" />
      <trkpt lat="46.0559034" lon="11.1390876" />
      <trkpt lat="46.0559107" lon="11.1392108" />
      <trkpt lat="46.0559406" lon="11.1393455" />
      <trkpt lat="46.0560359" lon="11.1394704" />
      <trkpt lat="46.0561293" lon="11.1395602" />
      <trkpt lat="46.0561697" lon="11.1395884" />
      <trkpt lat="46.0563095" lon="11.1395365" />
      <trkpt lat="46.0564078" lon="11.1394203" />
      <trkpt lat="46.0564176" lon="11.1393745" />
      <trkpt lat="46.0563834" lon="11.1393466" />
      <trkpt lat="46.0563444" lon="11.1393411" />
      <trkpt lat="46.0563281" lon="11.1393671" />
      <trkpt lat="46.0562914" lon="11.1394460" />
      <trkpt lat="46.0562641" lon="11.1394636" />
      <trkpt lat="46.0562309" lon="11.1394577" />
      <trkpt lat="46.0561704" lon="11.1394065" />
      <trkpt lat="46.0561046" lon="11.1392984" />
      <trkpt lat="46.0560639" lon="11.1392044" />
      <trkpt lat="46.0560685" lon="11.1391700" />
      <trkpt lat="46.0560988" lon="11.1391508" />
      <trkpt lat="46.0561564" lon="11.1391575" />
      <trkpt lat="46.0562245" lon="11.1391508" />
      <trkpt lat="46.0562751" lon="11.1391189" />
      <trkpt lat="46.0563717" lon="11.1391180" />
      <trkpt lat="46.0564683" lon="11.1391608" />
      <trkpt lat="46.0565719" lon="11.1392036" />
      <trkpt lat="46.0566400" lon="11.1391944" />
      <trkpt lat="46.0566647" lon="11.1391783" />
      <trkpt lat="46.0566905" lon="11.1391929" />
      <trkpt lat="46.0567281" lon="11.1391139" />
      <trkpt lat="46.0567268" lon="11.1390276" />
      <trkpt lat="46.0566436" lon="11.1387888" />
      <trkpt lat="46.0565475" lon="11.1386370" />
      <trkpt lat="46.0566424" lon="11.1386969" />
      <trkpt lat="46.0567259" lon="11.1387537" />
      <trkpt lat="46.0568674" lon="11.1387336" />
      <trkpt lat="46.0568925" lon="11.1386845" />
      <trkpt lat="46.0569446" lon="11.1385577" />
      <trkpt lat="46.0569792" lon="11.1385531" />
      <trkpt lat="46.0570462" lon="11.1385631" />
      <trkpt lat="46.0571517" lon="11.1385982" />
      <trkpt lat="46.0572244" lon="11.1386255" />
      <trkpt lat="46.0573322" lon="11.1386397" />
      <trkpt lat="46.0573536" lon="11.1386256" />
      <trkpt lat="46.0573843" lon="11.1385654" />
      <trkpt lat="46.0574366" lon="11.1385762" />
      <trkpt lat="46.0574991" lon="11.1386340" />
      <trkpt lat="46.0575775" lon="11.1386515" />
      <trkpt lat="46.0576391" lon="11.1386461" />
      <trkpt lat="46.0577060" lon="11.1387946" />
      <trkpt lat="46.0578197" lon="11.1387354" />
      <trkpt lat="46.0580246" lon="11.1386369" />
      <trkpt lat="46.0583143" lon="11.1382999" />
      <trkpt lat="46.0583542" lon="11.1384048" />
      <trkpt lat="46.0583861" lon="11.1384599" />
      <trkpt lat="46.0584096" lon="11.1385006" />
      <trkpt lat="46.0584599" lon="11.1385489" />
      <trkpt lat="46.0585413" lon="11.1385931" />
      <trkpt lat="46.0587176" lon="11.1386400" />
      <trkpt lat="46.0588422" lon="11.1386697" />
      <trkpt lat="46.0588973" lon="11.1386695" />
      <trkpt lat="46.0590787" lon="11.1386749" />
      <trkpt lat="46.0594166" lon="11.1386989" />
      <trkpt lat="46.0593663" lon="11.1386441" />
      <trkpt lat="46.0592211" lon="11.1384134" />
      <trkpt lat="46.0590271" lon="11.1381067" />
      <trkpt lat="46.0588770" lon="11.1378790" />
      <trkpt lat="46.0589703" lon="11.1378355" />
      <trkpt lat="46.0591153" lon="11.1378001" />
      <trkpt lat="46.0592231" lon="11.1378223" />
      <trkpt lat="46.0594564" lon="11.1379254" />
      <trkpt lat="46.0595928" lon="11.1380522" />
      <trkpt lat="46.0599676" lon="11.1383921" />
      <trkpt lat="46.0601005" lon="11.1384377" />
      <trkpt lat="46.0602050" lon="11.1384560" />
      <trkpt lat="46.0602715" lon="11.1384195" />
      <trkpt lat="46.0604235" lon="11.1383328" />
      <trkpt lat="46.0605754" lon="11.1382871" />
      <trkpt lat="46.0606145" lon="11.1382739" />
      <trkpt lat="46.0607369" lon="11.1382324" />
      <trkpt lat="46.0608952" lon="11.1381229" />
      <trkpt lat="46.0608906" lon="11.1380227" />
      <trkpt lat="46.0609697" lon="11.1379434" />
      <trkpt lat="46.0610636" lon="11.1379149" />
      <trkpt lat="46.0611256" lon="11.1378342" />
      <trkpt lat="46.0611079" lon="11.1377738" />
      <trkpt lat="46.0610410" lon="11.1377129" />
      <trkpt lat="46.0610518" lon="11.1376704" />
      <trkpt lat="46.0611709" lon="11.1376187" />
      <trkpt lat="46.0611517" lon="11.1375847" />
      <trkpt lat="46.0610091" lon="11.1375070" />
      <trkpt lat="46.0610228" lon="11.1374549" />
      <trkpt lat="46.0611454" lon="11.1373002" />
      <trkpt lat="46.0611738" lon="11.1372161" />
      <trkpt lat="46.0612307" lon="11.1371853" />
      <trkpt lat="46.0613574" lon="11.1370576" />
      <trkpt lat="46.0615290" lon="11.1369905" />
      <trkpt lat="46.0615403" lon="11.1369863" />
      <trkpt lat="46.0616005" lon="11.1369625" />
      <trkpt lat="46.0617253" lon="11.1369144" />
      <trkpt lat="46.0617133" lon="11.1368684" />
      <trkpt lat="46.0616980" lon="11.1367922" />
      <trkpt lat="46.0617275" lon="11.1367595" />
      <trkpt lat="46.0617524" lon="11.1367326" />
      <trkpt lat="46.0617127" lon="11.1366966" />
      <trkpt lat="46.0616659" lon="11.1366935" />
      <trkpt lat="46.0616359" lon="11.1367456" />
      <trkpt lat="46.0616026" lon="11.1367932" />
      <trkpt lat="46.0615633" lon="11.1368422" />
      <trkpt lat="46.0615158" lon="11.1368952" />
      <trkpt lat="46.0614511" lon="11.1369427" />
      <trkpt lat="46.0613827" lon="11.1369759" />
      <trkpt lat="46.0612604" lon="11.1370066" />
      <trkpt lat="46.0611638" lon="11.1370182" />
      <trkpt lat="46.0609267" lon="11.1370466" />
      <trkpt lat="46.0607029" lon="11.1370644" />
      <trkpt lat="46.0605190" lon="11.1370791" />
      <trkpt lat="46.0603587" lon="11.1370767" />
      <trkpt lat="46.0602163" lon="11.1370557" />
      <trkpt lat="46.0600840" lon="11.1370215" />
      <trkpt lat="46.0595950" lon="11.1368929" />
      <trkpt lat="46.0595734" lon="11.1368387" />
      <trkpt lat="46.0596748" lon="11.1368628" />
      <trkpt lat="46.0601997" lon="11.1369978" />
      <trkpt lat="46.0603065" lon="11.1370191" />
      <trkpt lat="46.0603902" lon="11.1370274" />
      <trkpt lat="46.0604660" lon="11.1370289" />
      <trkpt lat="46.0605203" lon="11.1370259" />
      <trkpt lat="46.0607960" lon="11.1370212" />
      <trkpt lat="46.0610819" lon="11.1369952" />
      <trkpt lat="46.0611290" lon="11.1369854" />
      <trkpt lat="46.0611290" lon="11.1369035" />
      <trkpt lat="46.0611551" lon="11.1369017" />
      <trkpt lat="46.0611533" lon="11.1368275" />
      <trkpt lat="46.0611564" lon="11.1359725" />
      <trkpt lat="46.0611586" lon="11.1353661" />
      <trkpt lat="46.0607482" lon="11.1353535" />
      <trkpt lat="46.0607487" lon="11.1353311" />
      <trkpt lat="46.0607494" lon="11.1352953" />
      <trkpt lat="46.0607496" lon="11.1352718" />
      <trkpt lat="46.0607498" lon="11.1352484" />
      <trkpt lat="46.0607080" lon="11.1352450" />
      <trkpt lat="46.0606831" lon="11.1352438" />
      <trkpt lat="46.0606871" lon="11.1342698" />
      <trkpt lat="46.0606885" lon="11.1342418" />
      <trkpt lat="46.0602959" lon="11.1342000" />
      <trkpt lat="46.0603180" lon="11.1334856" />
      <trkpt lat="46.0603172" lon="11.1334510" />
      <trkpt lat="46.0602762" lon="11.1334461" />
      <trkpt lat="46.0602801" lon="11.1333566" />
      <trkpt lat="46.0602862" lon="11.1332752" />
      <trkpt lat="46.0603079" lon="11.1329413" />
      <trkpt lat="46.0603279" lon="11.1328680" />
      <trkpt lat="46.0604809" lon="11.1324287" />
      <trkpt lat="46.0604530" lon="11.1324214" />
      <trkpt lat="46.0606251" lon="11.1319473" />
      <trkpt lat="46.0606349" lon="11.1319142" />
      <trkpt lat="46.0606405" lon="11.1318958" />
      <trkpt lat="46.0606363" lon="11.1318824" />
      <trkpt lat="46.0606224" lon="11.1318733" />
      <trkpt lat="46.0603275" lon="11.1317123" />
      <trkpt lat="46.0602481" lon="11.1316639" />
      <trkpt lat="46.0602213" lon="11.1316475" />
      <trkpt lat="46.0602364" lon="11.1315926" />
      <trkpt lat="46.0602461" lon="11.1315568" />
      <trkpt lat="46.0602315" lon="11.1315391" />
      <trkpt lat="46.0602239" lon="11.1315305" />
      <trkpt lat="46.0602185" lon="11.1315107" />
      <trkpt lat="46.0602175" lon="11.1314834" />
      <trkpt lat="46.0602218" lon="11.1314683" />
      <trkpt lat="46.0602512" lon="11.1314188" />
      <trkpt lat="46.0602644" lon="11.1313968" />
      <trkpt lat="46.0605487" lon="11.1309215" />
      <trkpt lat="46.0605287" lon="11.1308969" />
      <trkpt lat="46.0605893" lon="11.1307965" />
      <trkpt lat="46.0607706" lon="11.1304938" />
      <trkpt lat="46.0608441" lon="11.1303702" />
      <trkpt lat="46.0608613" lon="11.1303377" />
      <trkpt lat="46.0609970" lon="11.1301334" />
      <trkpt lat="46.0610057" lon="11.1301194" />
      <trkpt lat="46.0610259" lon="11.1300787" />
      <trkpt lat="46.0610424" lon="11.1300545" />
      <trkpt lat="46.0610009" lon="11.1299950" />
      <trkpt lat="46.0609740" lon="11.1299560" />
      <trkpt lat="46.0606803" lon="11.1295211" />
      <trkpt lat="46.0604501" lon="11.1291803" />
      <trkpt lat="46.0602997" lon="11.1289644" />
      <trkpt lat="46.0602269" lon="11.1288582" />
      <trkpt lat="46.0602050" lon="11.1288262" />
      <trkpt lat="46.0602364" lon="11.1287757" />
      <trkpt lat="46.0599055" lon="11.1282987" />
      <trkpt lat="46.0599133" lon="11.1282635" />
      <trkpt lat="46.0603073" lon="11.1278602" />
      <trkpt lat="46.0605869" lon="11.1275984" />
      <trkpt lat="46.0605580" lon="11.1275393" />
      <trkpt lat="46.0605307" lon="11.1274796" />
      <trkpt lat="46.0605618" lon="11.1274492" />
      <trkpt lat="46.0605644" lon="11.1274337" />
      <trkpt lat="46.0605598" lon="11.1274150" />
      <trkpt lat="46.0605570" lon="11.1274087" />
      <trkpt lat="46.0605334" lon="11.1273545" />
      <trkpt lat="46.0605133" lon="11.1273340" />
      <trkpt lat="46.0604236" lon="11.1271579" />
      <trkpt lat="46.0602683" lon="11.1268529" />
      <trkpt lat="46.0599350" lon="11.1261987" />
      <trkpt lat="46.0599707" lon="11.1261632" />
      <trkpt lat="46.0599316" lon="11.1260886" />
      <trkpt lat="46.0598623" lon="11.1259596" />
      <trkpt lat="46.0597685" lon="11.1258429" />
      <trkpt lat="46.0597942" lon="11.1257940" />
      <trkpt lat="46.0597740" lon="11.1257749" />
      <trkpt lat="46.0595073" lon="11.1254058" />
      <trkpt lat="46.0594907" lon="11.1253828" />
      <trkpt lat="46.0594744" lon="11.1253602" />
      <trkpt lat="46.0592819" lon="11.1250938" />
      <trkpt lat="46.0593294" lon="11.1250392" />
      <trkpt lat="46.0594861" lon="11.1249628" />
      <trkpt lat="46.0595869" lon="11.1248403" />
      <trkpt lat="46.0598002" lon="11.1246926" />
      <trkpt lat="46.0597862" lon="11.1239038" />
      <trkpt lat="46.0597828" lon="11.1236924" />
      <trkpt lat="46.0597866" lon="11.1235602" />
      <trkpt lat="46.0597862" lon="11.1231377" />
      <trkpt lat="46.0598169" lon="11.1231249" />
      <trkpt lat="46.0601353" lon="11.1229922" />
      <trkpt lat="46.0601569" lon="11.1229832" />
      <trkpt lat="46.0604823" lon="11.1228476" />
      <trkpt lat="46.0604744" lon="11.1228050" />
      <trkpt lat="46.0604877" lon="11.1227995" />
      <trkpt lat="46.0605178" lon="11.1227872" />
      <trkpt lat="46.0604460" lon="11.1224190" />
      <trkpt lat="46.0603801" lon="11.1220817" />
      <trkpt lat="46.0604215" lon="11.1220500" />
      <trkpt lat="46.0604182" lon="11.1220324" />
      <trkpt lat="46.0604197" lon="11.1220190" />
      <trkpt lat="46.0604256" lon="11.1220091" />
      <trkpt lat="46.0604230" lon="11.1219955" />
      <trkpt lat="46.0604187" lon="11.1219731" />
      <trkpt lat="46.0607096" lon="11.1218637" />
      <trkpt lat="46.0607979" lon="11.1218270" />
      <trkpt lat="46.0608533" lon="11.1218096" />
      <trkpt lat="46.0609143" lon="11.1217977" />
      <trkpt lat="46.0610024" lon="11.1217844" />
      <trkpt lat="46.0611718" lon="11.1217622" />
      <trkpt lat="46.0614464" lon="11.1217229" />
      <trkpt lat="46.0615861" lon="11.1217028" />
      <trkpt lat="46.0618911" lon="11.1216643" />
      <trkpt lat="46.0620871" lon="11.1216487" />
      <trkpt lat="46.0621300" lon="11.1216464" />
      <trkpt lat="46.0621711" lon="11.1216454" />
      <trkpt lat="46.0624410" lon="11.1216302" />
      <trkpt lat="46.0624505" lon="11.1216299" />
      <trkpt lat="46.0627290" lon="11.1216188" />
      <trkpt lat="46.0627849" lon="11.1216219" />
      <trkpt lat="46.0630008" lon="11.1216637" />
      <trkpt lat="46.0630750" lon="11.1216781" />
      <trkpt lat="46.0631413" lon="11.1216906" />
      <trkpt lat="46.0633240" lon="11.1217174" />
      <trkpt lat="46.0633922" lon="11.1217181" />
      <trkpt lat="46.0634951" lon="11.1217020" />
      <trkpt lat="46.0636526" lon="11.1216719" />
      <trkpt lat="46.0636961" lon="11.1216575" />
      <trkpt lat="46.0637396" lon="11.1216359" />
      <trkpt lat="46.0637438" lon="11.1216829" />
      <trkpt lat="46.0637762" lon="11.1216696" />
      <trkpt lat="46.0645715" lon="11.1215283" />
      <trkpt lat="46.0646307" lon="11.1215162" />
      <trkpt lat="46.0646368" lon="11.1215196" />
      <trkpt lat="46.0646401" lon="11.1215279" />
      <trkpt lat="46.0646469" lon="11.1215649" />
      <trkpt lat="46.0646849" lon="11.1215509" />
      <trkpt lat="46.0647313" lon="11.1215338" />
      <trkpt lat="46.0647686" lon="11.1215322" />
      <trkpt lat="46.0647927" lon="11.1214765" />
      <trkpt lat="46.0647781" lon="11.1214005" />
      <trkpt lat="46.0648869" lon="11.1212041" />
      <trkpt lat="46.0654209" lon="11.1212172" />
      <trkpt lat="46.0654688" lon="11.1212196" />
      <trkpt lat="46.0655300" lon="11.1212233" />
      <trkpt lat="46.0656826" lon="11.1212248" />
      <trkpt lat="46.0657118" lon="11.1211893" />
      <trkpt lat="46.0657149" lon="11.1211459" />
      <trkpt lat="46.0661065" lon="11.1211467" />
      <trkpt lat="46.0661586" lon="11.1211285" />
      <trkpt lat="46.0664061" lon="11.1210506" />
      <trkpt lat="46.0665614" lon="11.1210220" />
      <trkpt lat="46.0666115" lon="11.1210169" />
      <trkpt lat="46.0666602" lon="11.1210169" />
      <trkpt lat="46.0667526" lon="11.1210542" />
      <trkpt lat="46.0667705" lon="11.1210629" />
      <trkpt lat="46.0668711" lon="11.1210492" />
    </trkseg>
  </trk>
</gpx>
