<?xml version="1.0" encoding="UTF-8"?>
<gpx xmlns="http://www.topografix.com/GPX/1/1" version="1.1" creator="ShapeRoute route-engine">
  <metadata>
    <name>tree 15 km · 2026-09-24</name>
    <author>
      <name>ShapeRoute route-engine</name>
    </author>
    <copyright author="OpenStreetMap contributors">
      <license>https://opendatacommons.org/licenses/odbl/1-0/</license>
    </copyright>
    <link href="https://www.openstreetmap.org/copyright">
      <text>© OpenStreetMap contributors</text>
    </link>
    <time>2026-09-24T04:57:42Z</time>
  </metadata>
  <trk>
    <name>tree 15 km · 2026-09-24</name>
    <trkseg>
      <trkpt lat="46.0668711" lon="11.1210492" />
      <trkpt lat="46.0668249" lon="11.1206182" />
      <trkpt lat="46.0667816" lon="11.1201952" />
      <trkpt lat="46.0668415" lon="11.1201785" />
      <trkpt lat="46.0670156" lon="11.1201566" />
      <trkpt lat="46.0670444" lon="11.1202327" />
      <trkpt lat="46.0672684" lon="11.1202069" />
      <trkpt lat="46.0673967" lon="11.1201946" />
      <trkpt lat="46.0675208" lon="11.1202206" />
      <trkpt lat="46.0675481" lon="11.1202039" />
      <trkpt lat="46.0675648" lon="11.1201851" />
      <trkpt lat="46.0675899" lon="11.1201529" />
      <trkpt lat="46.0676157" lon="11.1201320" />
      <trkpt lat="46.0676225" lon="11.1201073" />
      <trkpt lat="46.0676206" lon="11.1200671" />
      <trkpt lat="46.0676272" lon="11.1199974" />
      <trkpt lat="46.0676448" lon="11.1199678" />
      <trkpt lat="46.0676821" lon="11.1199464" />
      <trkpt lat="46.0677323" lon="11.1199236" />
      <trkpt lat="46.0677742" lon="11.1198820" />
      <trkpt lat="46.0678130" lon="11.1198242" />
      <trkpt lat="46.0678540" lon="11.1197239" />
      <trkpt lat="46.0678811" lon="11.1196664" />
      <trkpt lat="46.0679043" lon="11.1196359" />
      <trkpt lat="46.0681147" lon="11.1195474" />
      <trkpt lat="46.0681837" lon="11.1195184" />
      <trkpt lat="46.0684278" lon="11.1194633" />
      <trkpt lat="46.0684351" lon="11.1194617" />
      <trkpt lat="46.0684727" lon="11.1194502" />
      <trkpt lat="46.0684705" lon="11.1194031" />
      <trkpt lat="46.0684842" lon="11.1192388" />
      <trkpt lat="46.0687066" lon="11.1191764" />
      <trkpt lat="46.0686626" lon="11.1187409" />
      <trkpt lat="46.0686577" lon="11.1186973" />
      <trkpt lat="46.0686992" lon="11.1186809" />
      <trkpt lat="46.0688008" lon="11.1186481" />
      <trkpt lat="46.0689449" lon="11.1186015" />
      <trkpt lat="46.0690320" lon="11.1185750" />
      <trkpt lat="46.0692756" lon="11.1185147" />
      <trkpt lat="46.0693153" lon="11.1185044" />
      <trkpt lat="46.0693622" lon="11.1184902" />
      <trkpt lat="46.0694212" lon="11.1184664" />
      <trkpt lat="46.0695558" lon="11.1183976" />
      <trkpt lat="46.0696180" lon="11.1183567" />
      <trkpt lat="46.0697546" lon="11.1182695" />
      <trkpt lat="46.0698110" lon="11.1182381" />
      <trkpt lat="46.0698295" lon="11.1182314" />
      <trkpt lat="46.0698226" lon="11.1181539" />
      <trkpt lat="46.0698227" lon="11.1180755" />
      <trkpt lat="46.0698565" lon="11.1180693" />
      <trkpt lat="46.0698926" lon="11.1180856" />
      <trkpt lat="46.0699602" lon="11.1180863" />
      <trkpt lat="46.0699644" lon="11.1181025" />
      <trkpt lat="46.0699803" lon="11.1181633" />
      <trkpt lat="46.0700084" lon="11.1181540" />
      <trkpt lat="46.0699905" lon="11.1180483" />
      <trkpt lat="46.0699871" lon="11.1179668" />
      <trkpt lat="46.0699908" lon="11.1179414" />
      <trkpt lat="46.0700269" lon="11.1179061" />
      <trkpt lat="46.0700294" lon="11.1178856" />
      <trkpt lat="46.0700305" lon="11.1178362" />
      <trkpt lat="46.0700369" lon="11.1177882" />
      <trkpt lat="46.0700431" lon="11.1177476" />
      <trkpt lat="46.0700527" lon="11.1177069" />
      <trkpt lat="46.0700861" lon="11.1176034" />
      <trkpt lat="46.0701805" lon="11.1173050" />
      <trkpt lat="46.0702169" lon="11.1171918" />
      <trkpt lat="46.0702287" lon="11.1171541" />
      <trkpt lat="46.0702367" lon="11.1170213" />
      <trkpt lat="46.0702292" lon="11.1169470" />
      <trkpt lat="46.0702123" lon="11.1168786" />
      <trkpt lat="46.0701743" lon="11.1167917" />
      <trkpt lat="46.0701363" lon="11.1167225" />
      <trkpt lat="46.0701165" lon="11.1166890" />
      <trkpt lat="46.0700680" lon="11.1166069" />
      <trkpt lat="46.0700236" lon="11.1165374" />
      <trkpt lat="46.0700000" lon="11.1164941" />
      <trkpt lat="46.0699495" lon="11.1164167" />
      <trkpt lat="46.0699884" lon="11.1163713" />
      <trkpt lat="46.0700203" lon="11.1163341" />
      <trkpt lat="46.0700091" lon="11.1162886" />
      <trkpt lat="46.0700003" lon="11.1162009" />
      <trkpt lat="46.0700032" lon="11.1161537" />
      <trkpt lat="46.0700146" lon="11.1161265" />
      <trkpt lat="46.0700459" lon="11.1161000" />
      <trkpt lat="46.0700453" lon="11.1160451" />
      <trkpt lat="46.0700586" lon="11.1159035" />
      <trkpt lat="46.0700662" lon="11.1158228" />
      <trkpt lat="46.0700117" lon="11.1157886" />
      <trkpt lat="46.0699948" lon="11.1157680" />
      <trkpt lat="46.0699886" lon="11.1157401" />
      <trkpt lat="46.0703250" lon="11.1144890" />
      <trkpt lat="46.0703300" lon="11.1144739" />
      <trkpt lat="46.0702894" lon="11.1144548" />
      <trkpt lat="46.0702508" lon="11.1144356" />
      <trkpt lat="46.0702350" lon="11.1143612" />
      <trkpt lat="46.0702262" lon="11.1143187" />
      <trkpt lat="46.0702122" lon="11.1142749" />
      <trkpt lat="46.0701963" lon="11.1142414" />
      <trkpt lat="46.0701713" lon="11.1142018" />
      <trkpt lat="46.0701826" lon="11.1141474" />
      <trkpt lat="46.0701933" lon="11.1141300" />
      <trkpt lat="46.0702038" lon="11.1140736" />
      <trkpt lat="46.0702044" lon="11.1140479" />
      <trkpt lat="46.0702044" lon="11.1139869" />
      <trkpt lat="46.0702602" lon="11.1139812" />
      <trkpt lat="46.0703864" lon="11.1139142" />
      <trkpt lat="46.0704346" lon="11.1138697" />
      <trkpt lat="46.0704819" lon="11.1138341" />
      <trkpt lat="46.0705185" lon="11.1137821" />
      <trkpt lat="46.0705564" lon="11.1137069" />
      <trkpt lat="46.0707114" lon="11.1133647" />
      <trkpt lat="46.0707246" lon="11.1133446" />
      <trkpt lat="46.0707789" lon="11.1132401" />
      <trkpt lat="46.0708070" lon="11.1131605" />
      <trkpt lat="46.0708180" lon="11.1130716" />
      <trkpt lat="46.0708255" lon="11.1129959" />
      <trkpt lat="46.0708128" lon="11.1129679" />
      <trkpt lat="46.0708090" lon="11.1129404" />
      <trkpt lat="46.0708027" lon="11.1129052" />
      <trkpt lat="46.0707340" lon="11.1126350" />
      <trkpt lat="46.0707258" lon="11.1126025" />
      <trkpt lat="46.0706417" lon="11.1123099" />
      <trkpt lat="46.0705718" lon="11.1120551" />
      <trkpt lat="46.0705292" lon="11.1118991" />
      <trkpt lat="46.0705169" lon="11.1118466" />
      <trkpt lat="46.0705047" lon="11.1117917" />
      <trkpt lat="46.0704958" lon="11.1117395" />
      <trkpt lat="46.0705106" lon="11.1117214" />
      <trkpt lat="46.0705136" lon="11.1116151" />
      <trkpt lat="46.0705187" lon="11.1114760" />
      <trkpt lat="46.0705257" lon="11.1113296" />
      <trkpt lat="46.0705361" lon="11.1111626" />
      <trkpt lat="46.0705413" lon="11.1111003" />
      <trkpt lat="46.0705787" lon="11.1108167" />
      <trkpt lat="46.0705938" lon="11.1107384" />
      <trkpt lat="46.0706014" lon="11.1107079" />
      <trkpt lat="46.0706453" lon="11.1105284" />
      <trkpt lat="46.0706665" lon="11.1104467" />
      <trkpt lat="46.0707018" lon="11.1103180" />
      <trkpt lat="46.0707497" lon="11.1101838" />
      <trkpt lat="46.0708316" lon="11.1099613" />
      <trkpt lat="46.0708554" lon="11.1099003" />
      <trkpt lat="46.0708693" lon="11.1098647" />
      <trkpt lat="46.0709205" lon="11.1097366" />
      <trkpt lat="46.0710196" lon="11.1095462" />
      <trkpt lat="46.0710705" lon="11.1094582" />
      <trkpt lat="46.0710546" lon="11.1094317" />
      <trkpt lat="46.0711536" lon="11.1092756" />
      <trkpt lat="46.0713090" lon="11.1089748" />
      <trkpt lat="46.0713877" lon="11.1084257" />
      <trkpt lat="46.0714543" lon="11.1083203" />
      <trkpt lat="46.0714827" lon="11.1082763" />
      <trkpt lat="46.0715019" lon="11.1082646" />
      <trkpt lat="46.0715190" lon="11.1082666" />
      <trkpt lat="46.0715446" lon="11.1082793" />
      <trkpt lat="46.0715589" lon="11.1082860" />
      <trkpt lat="46.0715782" lon="11.1082920" />
      <trkpt lat="46.0716002" lon="11.1082846" />
      <trkpt lat="46.0716436" lon="11.1082496" />
      <trkpt lat="46.0718613" lon="11.1079758" />
      <trkpt lat="46.0720748" lon="11.1077531" />
      <trkpt lat="46.0720873" lon="11.1077336" />
      <trkpt lat="46.0720982" lon="11.1077067" />
      <trkpt lat="46.0721171" lon="11.1076376" />
      <trkpt lat="46.0721249" lon="11.1076155" />
      <trkpt lat="46.0721388" lon="11.1075918" />
      <trkpt lat="46.0721555" lon="11.1075667" />
      <trkpt lat="46.0721972" lon="11.1075152" />
      <trkpt lat="46.0722417" lon="11.1074623" />
      <trkpt lat="46.0722843" lon="11.1074068" />
      <trkpt lat="46.0723358" lon="11.1073203" />
      <trkpt lat="46.0723799" lon="11.1072337" />
      <trkpt lat="46.0724149" lon="11.1071537" />
      <trkpt lat="46.0724425" lon="11.1070683" />
      <trkpt lat="46.0724468" lon="11.1070359" />
      <trkpt lat="46.0724492" lon="11.1070009" />
      <trkpt lat="46.0724490" lon="11.1069671" />
      <trkpt lat="46.0724103" lon="11.1069758" />
      <trkpt lat="46.0722525" lon="11.1070114" />
      <trkpt lat="46.0721716" lon="11.1071334" />
      <trkpt lat="46.0721567" lon="11.1071388" />
      <trkpt lat="46.0721316" lon="11.1071280" />
      <trkpt lat="46.0721567" lon="11.1071388" />
      <trkpt lat="46.0721716" lon="11.1071334" />
      <trkpt lat="46.0722525" lon="11.1070114" />
      <trkpt lat="46.0724103" lon="11.1069758" />
      <trkpt lat="46.0724490" lon="11.1069671" />
      <trkpt lat="46.0724488" lon="11.1069223" />
      <trkpt lat="46.0724508" lon="11.1068510" />
      <trkpt lat="46.0724569" lon="11.1067669" />
      <trkpt lat="46.0724705" lon="11.1066936" />
      <trkpt lat="46.0724889" lon="11.1066444" />
      <trkpt lat="46.0726588" lon="11.1064327" />
      <trkpt lat="46.0728710" lon="11.1061878" />
      <trkpt lat="46.0729673" lon="11.1061017" />
      <trkpt lat="46.0729870" lon="11.1060840" />
      <trkpt lat="46.0729984" lon="11.1060699" />
      <trkpt lat="46.0730079" lon="11.1060518" />
      <trkpt lat="46.0730138" lon="11.1060302" />
      <trkpt lat="46.0730147" lon="11.1060053" />
      <trkpt lat="46.0729853" lon="11.1058462" />
      <trkpt lat="46.0729843" lon="11.1058347" />
      <trkpt lat="46.0729852" lon="11.1058253" />
      <trkpt lat="46.0729880" lon="11.1058165" />
      <trkpt lat="46.0729925" lon="11.1058067" />
      <trkpt lat="46.0730011" lon="11.1057973" />
      <trkpt lat="46.0730114" lon="11.1057895" />
      <trkpt lat="46.0731562" lon="11.1057281" />
      <trkpt lat="46.0731662" lon="11.1057190" />
      <trkpt lat="46.0731736" lon="11.1057055" />
      <trkpt lat="46.0731798" lon="11.1056924" />
      <trkpt lat="46.0731883" lon="11.1056751" />
      <trkpt lat="46.0732016" lon="11.1056510" />
      <trkpt lat="46.0732475" lon="11.1055948" />
      <trkpt lat="46.0732582" lon="11.1055860" />
      <trkpt lat="46.0732700" lon="11.1055829" />
      <trkpt lat="46.0732897" lon="11.1055779" />
      <trkpt lat="46.0733173" lon="11.1055729" />
      <trkpt lat="46.0733546" lon="11.1055749" />
      <trkpt lat="46.0733780" lon="11.1055867" />
      <trkpt lat="46.0733083" lon="11.1058057" />
      <trkpt lat="46.0732529" lon="11.1059914" />
      <trkpt lat="46.0732200" lon="11.1060497" />
      <trkpt lat="46.0731749" lon="11.1061013" />
      <trkpt lat="46.0730228" lon="11.1062328" />
      <trkpt lat="46.0729383" lon="11.1063107" />
      <trkpt lat="46.0728539" lon="11.1063993" />
      <trkpt lat="46.0728000" lon="11.1064839" />
      <trkpt lat="46.0727777" lon="11.1065370" />
      <trkpt lat="46.0727592" lon="11.1065954" />
      <trkpt lat="46.0727248" lon="11.1067023" />
      <trkpt lat="46.0727016" lon="11.1068147" />
      <trkpt lat="46.0726664" lon="11.1070611" />
      <trkpt lat="46.0726430" lon="11.1071846" />
      <trkpt lat="46.0726278" lon="11.1072317" />
      <trkpt lat="46.0726076" lon="11.1072787" />
      <trkpt lat="46.0725875" lon="11.1073177" />
      <trkpt lat="46.0725572" lon="11.1073568" />
      <trkpt lat="46.0721237" lon="11.1078214" />
      <trkpt lat="46.0718427" lon="11.1081567" />
      <trkpt lat="46.0716956" lon="11.1083682" />
      <trkpt lat="46.0714759" lon="11.1087687" />
      <trkpt lat="46.0714398" lon="11.1088371" />
      <trkpt lat="46.0713762" lon="11.1089573" />
      <trkpt lat="46.0710922" lon="11.1094943" />
      <trkpt lat="46.0710472" lon="11.1095792" />
      <trkpt lat="46.0709758" lon="11.1097204" />
      <trkpt lat="46.0709793" lon="11.1097840" />
      <trkpt lat="46.0709804" lon="11.1098152" />
      <trkpt lat="46.0709782" lon="11.1098558" />
      <trkpt lat="46.0709745" lon="11.1098705" />
      <trkpt lat="46.0712075" lon="11.1100506" />
      <trkpt lat="46.0712181" lon="11.1100599" />
      <trkpt lat="46.0712386" lon="11.1100758" />
      <trkpt lat="46.0712530" lon="11.1100360" />
      <trkpt lat="46.0712804" lon="11.1100276" />
      <trkpt lat="46.0713155" lon="11.1100308" />
      <trkpt lat="46.0713232" lon="11.1099632" />
      <trkpt lat="46.0713749" lon="11.1098781" />
      <trkpt lat="46.0714314" lon="11.1098654" />
      <trkpt lat="46.0714834" lon="11.1098639" />
      <trkpt lat="46.0714750" lon="11.1099654" />
      <trkpt lat="46.0714714" lon="11.1100101" />
      <trkpt lat="46.0714822" lon="11.1100221" />
      <trkpt lat="46.0715100" lon="11.1099822" />
      <trkpt lat="46.0715275" lon="11.1099978" />
      <trkpt lat="46.0714921" lon="11.1100592" />
      <trkpt lat="46.0714686" lon="11.1100618" />
      <trkpt lat="46.0714397" lon="11.1101094" />
      <trkpt lat="46.0714167" lon="11.1102030" />
      <trkpt lat="46.0713873" lon="11.1102859" />
      <trkpt lat="46.0713627" lon="11.1103530" />
      <trkpt lat="46.0713405" lon="11.1104227" />
      <trkpt lat="46.0713655" lon="11.1104406" />
      <trkpt lat="46.0713372" lon="11.1105567" />
      <trkpt lat="46.0713114" lon="11.1106974" />
      <trkpt lat="46.0712819" lon="11.1108810" />
      <trkpt lat="46.0712565" lon="11.1109940" />
      <trkpt lat="46.0712275" lon="11.1110909" />
      <trkpt lat="46.0712178" lon="11.1111481" />
      <trkpt lat="46.0712155" lon="11.1111919" />
      <trkpt lat="46.0712145" lon="11.1112211" />
      <trkpt lat="46.0712171" lon="11.1112530" />
      <trkpt lat="46.0712289" lon="11.1112940" />
      <trkpt lat="46.0712439" lon="11.1113316" />
      <trkpt lat="46.0712603" lon="11.1113718" />
      <trkpt lat="46.0712805" lon="11.1114153" />
      <trkpt lat="46.0713013" lon="11.1114601" />
      <trkpt lat="46.0713168" lon="11.1115003" />
      <trkpt lat="46.0713267" lon="11.1115351" />
      <trkpt lat="46.0713554" lon="11.1116563" />
      <trkpt lat="46.0713842" lon="11.1116345" />
      <trkpt lat="46.0713803" lon="11.1115937" />
      <trkpt lat="46.0713717" lon="11.1115461" />
      <trkpt lat="46.0713468" lon="11.1114637" />
      <trkpt lat="46.0713445" lon="11.1114437" />
      <trkpt lat="46.0713430" lon="11.1113952" />
      <trkpt lat="46.0713413" lon="11.1113729" />
      <trkpt lat="46.0713355" lon="11.1113408" />
      <trkpt lat="46.0713308" lon="11.1113295" />
      <trkpt lat="46.0713148" lon="11.1112783" />
      <trkpt lat="46.0713190" lon="11.1112563" />
      <trkpt lat="46.0713221" lon="11.1112415" />
      <trkpt lat="46.0713264" lon="11.1112125" />
      <trkpt lat="46.0713475" lon="11.1111378" />
      <trkpt lat="46.0713816" lon="11.1110121" />
      <trkpt lat="46.0713863" lon="11.1109936" />
      <trkpt lat="46.0713898" lon="11.1109861" />
      <trkpt lat="46.0713944" lon="11.1109795" />
      <trkpt lat="46.0713993" lon="11.1109764" />
      <trkpt lat="46.0714060" lon="11.1109752" />
      <trkpt lat="46.0714128" lon="11.1109807" />
      <trkpt lat="46.0714159" lon="11.1109877" />
      <trkpt lat="46.0714178" lon="11.1109956" />
      <trkpt lat="46.0714188" lon="11.1110035" />
      <trkpt lat="46.0714178" lon="11.1110274" />
      <trkpt lat="46.0714140" lon="11.1111145" />
      <trkpt lat="46.0714138" lon="11.1111192" />
      <trkpt lat="46.0714159" lon="11.1111943" />
      <trkpt lat="46.0714177" lon="11.1112599" />
      <trkpt lat="46.0714190" lon="11.1113073" />
      <trkpt lat="46.0714196" lon="11.1113196" />
      <trkpt lat="46.0714223" lon="11.1113292" />
      <trkpt lat="46.0714282" lon="11.1113324" />
      <trkpt lat="46.0714347" lon="11.1113330" />
      <trkpt lat="46.0714460" lon="11.1113336" />
      <trkpt lat="46.0714540" lon="11.1113365" />
      <trkpt lat="46.0714606" lon="11.1113414" />
      <trkpt lat="46.0714684" lon="11.1113503" />
      <trkpt lat="46.0714744" lon="11.1113632" />
      <trkpt lat="46.0714778" lon="11.1113943" />
      <trkpt lat="46.0714845" lon="11.1114560" />
      <trkpt lat="46.0714924" lon="11.1115276" />
      <trkpt lat="46.0714980" lon="11.1115790" />
      <trkpt lat="46.0715025" lon="11.1116256" />
      <trkpt lat="46.0715051" lon="11.1116333" />
      <trkpt lat="46.0715074" lon="11.1116352" />
      <trkpt lat="46.0715111" lon="11.1116352" />
      <trkpt lat="46.0715167" lon="11.1116276" />
      <trkpt lat="46.0715399" lon="11.1115931" />
      <trkpt lat="46.0715485" lon="11.1115845" />
      <trkpt lat="46.0715617" lon="11.1115800" />
      <trkpt lat="46.0715722" lon="11.1115806" />
      <trkpt lat="46.0715783" lon="11.1115833" />
      <trkpt lat="46.0715835" lon="11.1115853" />
      <trkpt lat="46.0715835" lon="11.1115934" />
      <trkpt lat="46.0715870" lon="11.1117024" />
      <trkpt lat="46.0715923" lon="11.1118213" />
      <trkpt lat="46.0716023" lon="11.1118846" />
      <trkpt lat="46.0716384" lon="11.1118721" />
      <trkpt lat="46.0716911" lon="11.1118564" />
      <trkpt lat="46.0716936" lon="11.1118663" />
      <trkpt lat="46.0716977" lon="11.1118739" />
      <trkpt lat="46.0717033" lon="11.1118791" />
      <trkpt lat="46.0717098" lon="11.1118817" />
      <trkpt lat="46.0717164" lon="11.1118812" />
      <trkpt lat="46.0717227" lon="11.1118777" />
      <trkpt lat="46.0717279" lon="11.1118716" />
      <trkpt lat="46.0717315" lon="11.1118635" />
      <trkpt lat="46.0717523" lon="11.1119114" />
      <trkpt lat="46.0717580" lon="11.1119581" />
      <trkpt lat="46.0717541" lon="11.1120076" />
      <trkpt lat="46.0717468" lon="11.1120416" />
      <trkpt lat="46.0717418" lon="11.1120651" />
      <trkpt lat="46.0717381" lon="11.1121023" />
      <trkpt lat="46.0717400" lon="11.1121317" />
      <trkpt lat="46.0717483" lon="11.1121543" />
      <trkpt lat="46.0718018" lon="11.1122200" />
      <trkpt lat="46.0719513" lon="11.1122837" />
      <trkpt lat="46.0720139" lon="11.1123015" />
      <trkpt lat="46.0720512" lon="11.1123115" />
      <trkpt lat="46.0721639" lon="11.1123353" />
      <trkpt lat="46.0723047" lon="11.1124029" />
      <trkpt lat="46.0724670" lon="11.1124659" />
      <trkpt lat="46.0725227" lon="11.1125231" />
      <trkpt lat="46.0727026" lon="11.1125670" />
      <trkpt lat="46.0727644" lon="11.1125864" />
      <trkpt lat="46.0729540" lon="11.1127420" />
      <trkpt lat="46.0730240" lon="11.1128588" />
      <trkpt lat="46.0730575" lon="11.1129522" />
      <trkpt lat="46.0730866" lon="11.1129186" />
      <trkpt lat="46.0731222" lon="11.1128898" />
      <trkpt lat="46.0731618" lon="11.1128774" />
      <trkpt lat="46.0732023" lon="11.1128792" />
      <trkpt lat="46.0732413" lon="11.1128951" />
      <trkpt lat="46.0732766" lon="11.1129240" />
      <trkpt lat="46.0733038" lon="11.1129604" />
      <trkpt lat="46.0734193" lon="11.1128215" />
      <trkpt lat="46.0734355" lon="11.1128237" />
      <trkpt lat="46.0734641" lon="11.1127963" />
      <trkpt lat="46.0735457" lon="11.1126682" />
      <trkpt lat="46.0736066" lon="11.1125489" />
      <trkpt lat="46.0736666" lon="11.1124134" />
      <trkpt lat="46.0738019" lon="11.1119998" />
      <trkpt lat="46.0738405" lon="11.1117119" />
      <trkpt lat="46.0738598" lon="11.1113041" />
      <trkpt lat="46.0738714" lon="11.1110142" />
      <trkpt lat="46.0738463" lon="11.1107243" />
      <trkpt lat="46.0738270" lon="11.1105369" />
      <trkpt lat="46.0738618" lon="11.1103456" />
      <trkpt lat="46.0739545" lon="11.1100538" />
      <trkpt lat="46.0740029" lon="11.1097716" />
      <trkpt lat="46.0739835" lon="11.1094895" />
      <trkpt lat="46.0738676" lon="11.1089310" />
      <trkpt lat="46.0738367" lon="11.1085560" />
      <trkpt lat="46.0737883" lon="11.1084382" />
      <trkpt lat="46.0736821" lon="11.1082894" />
      <trkpt lat="46.0736879" lon="11.1082236" />
      <trkpt lat="46.0737198" lon="11.1081930" />
      <trkpt lat="46.0737536" lon="11.1081811" />
      <trkpt lat="46.0739623" lon="11.1081637" />
      <trkpt lat="46.0740680" lon="11.1081547" />
      <trkpt lat="46.0742348" lon="11.1081405" />
      <trkpt lat="46.0742815" lon="11.1081629" />
      <trkpt lat="46.0743171" lon="11.1082041" />
      <trkpt lat="46.0743346" lon="11.1082580" />
      <trkpt lat="46.0743440" lon="11.1082925" />
      <trkpt lat="46.0743459" lon="11.1083298" />
      <trkpt lat="46.0743412" lon="11.1083804" />
      <trkpt lat="46.0742715" lon="11.1086430" />
      <trkpt lat="46.0742232" lon="11.1089851" />
      <trkpt lat="46.0742303" lon="11.1090979" />
      <trkpt lat="46.0742522" lon="11.1091571" />
      <trkpt lat="46.0744261" lon="11.1093194" />
      <trkpt lat="46.0744552" lon="11.1093307" />
      <trkpt lat="46.0744918" lon="11.1093233" />
      <trkpt lat="46.0745272" lon="11.1092981" />
      <trkpt lat="46.0745380" lon="11.1092761" />
      <trkpt lat="46.0745478" lon="11.1092460" />
      <trkpt lat="46.0745603" lon="11.1089300" />
      <trkpt lat="46.0745672" lon="11.1088768" />
      <trkpt lat="46.0746175" lon="11.1086794" />
      <trkpt lat="46.0746213" lon="11.1086430" />
      <trkpt lat="46.0745926" lon="11.1083364" />
      <trkpt lat="46.0745788" lon="11.1082391" />
      <trkpt lat="46.0745375" lon="11.1080791" />
      <trkpt lat="46.0744767" lon="11.1078631" />
      <trkpt lat="46.0743638" lon="11.1074059" />
      <trkpt lat="46.0743288" lon="11.1073059" />
      <trkpt lat="46.0743060" lon="11.1072601" />
      <trkpt lat="46.0742859" lon="11.1072294" />
      <trkpt lat="46.0742606" lon="11.1072115" />
      <trkpt lat="46.0742185" lon="11.1072070" />
      <trkpt lat="46.0741882" lon="11.1072052" />
      <trkpt lat="46.0741901" lon="11.1071702" />
      <trkpt lat="46.0741943" lon="11.1071561" />
      <trkpt lat="46.0742004" lon="11.1071507" />
      <trkpt lat="46.0742129" lon="11.1071474" />
      <trkpt lat="46.0743013" lon="11.1071333" />
      <trkpt lat="46.0743278" lon="11.1071286" />
      <trkpt lat="46.0743446" lon="11.1071259" />
      <trkpt lat="46.0743604" lon="11.1071252" />
      <trkpt lat="46.0743748" lon="11.1071252" />
      <trkpt lat="46.0743911" lon="11.1071286" />
      <trkpt lat="46.0744050" lon="11.1071320" />
      <trkpt lat="46.0744213" lon="11.1071407" />
      <trkpt lat="46.0744432" lon="11.1071574" />
      <trkpt lat="46.0744683" lon="11.1071816" />
      <trkpt lat="46.0744942" lon="11.1072158" />
      <trkpt lat="46.0746169" lon="11.1074458" />
      <trkpt lat="46.0746520" lon="11.1074333" />
      <trkpt lat="46.0747157" lon="11.1075790" />
      <trkpt lat="46.0748210" lon="11.1078489" />
      <trkpt lat="46.0748603" lon="11.1079893" />
      <trkpt lat="46.0748846" lon="11.1081081" />
      <trkpt lat="46.0748730" lon="11.1081650" />
      <trkpt lat="46.0748748" lon="11.1082242" />
      <trkpt lat="46.0748900" lon="11.1082794" />
      <trkpt lat="46.0748930" lon="11.1084447" />
      <trkpt lat="46.0748708" lon="11.1086846" />
      <trkpt lat="46.0748562" lon="11.1087858" />
      <trkpt lat="46.0748555" lon="11.1088092" />
      <trkpt lat="46.0748546" lon="11.1088440" />
      <trkpt lat="46.0748580" lon="11.1089216" />
      <trkpt lat="46.0748849" lon="11.1090531" />
      <trkpt lat="46.0749100" lon="11.1091645" />
      <trkpt lat="46.0749202" lon="11.1092355" />
      <trkpt lat="46.0749304" lon="11.1093306" />
      <trkpt lat="46.0749301" lon="11.1096600" />
      <trkpt lat="46.0749281" lon="11.1098210" />
      <trkpt lat="46.0749269" lon="11.1099176" />
      <trkpt lat="46.0749251" lon="11.1100558" />
      <trkpt lat="46.0749222" lon="11.1102751" />
      <trkpt lat="46.0749208" lon="11.1103402" />
      <trkpt lat="46.0749184" lon="11.1106646" />
      <trkpt lat="46.0749211" lon="11.1107384" />
      <trkpt lat="46.0749286" lon="11.1109429" />
      <trkpt lat="46.0749321" lon="11.1109999" />
      <trkpt lat="46.0749410" lon="11.1111442" />
      <trkpt lat="46.0749587" lon="11.1113894" />
      <trkpt lat="46.0749443" lon="11.1114020" />
      <trkpt lat="46.0749307" lon="11.1114222" />
      <trkpt lat="46.0749205" lon="11.1114510" />
      <trkpt lat="46.0749170" lon="11.1114829" />
      <trkpt lat="46.0749193" lon="11.1115082" />
      <trkpt lat="46.0749250" lon="11.1115297" />
      <trkpt lat="46.0748708" lon="11.1116491" />
      <trkpt lat="46.0748261" lon="11.1117896" />
      <trkpt lat="46.0747878" lon="11.1119541" />
      <trkpt lat="46.0747584" lon="11.1121259" />
      <trkpt lat="46.0747447" lon="11.1122221" />
      <trkpt lat="46.0746839" lon="11.1126392" />
      <trkpt lat="46.0746306" lon="11.1130853" />
      <trkpt lat="46.0746594" lon="11.1131135" />
      <trkpt lat="46.0746725" lon="11.1131282" />
      <trkpt lat="46.0747480" lon="11.1126639" />
      <trkpt lat="46.0747885" lon="11.1122830" />
      <trkpt lat="46.0747928" lon="11.1122425" />
      <trkpt lat="46.0748096" lon="11.1120926" />
      <trkpt lat="46.0748332" lon="11.1119514" />
      <trkpt lat="46.0748632" lon="11.1118588" />
      <trkpt lat="46.0748911" lon="11.1117864" />
      <trkpt lat="46.0749172" lon="11.1117461" />
      <trkpt lat="46.0749295" lon="11.1117293" />
      <trkpt lat="46.0749525" lon="11.1116979" />
      <trkpt lat="46.0749916" lon="11.1116710" />
      <trkpt lat="46.0750251" lon="11.1116523" />
      <trkpt lat="46.0750549" lon="11.1116469" />
      <trkpt lat="46.0750958" lon="11.1116442" />
      <trkpt lat="46.0751367" lon="11.1116523" />
      <trkpt lat="46.0751665" lon="11.1116684" />
      <trkpt lat="46.0752161" lon="11.1117020" />
      <trkpt lat="46.0752367" lon="11.1116447" />
      <trkpt lat="46.0752605" lon="11.1115783" />
      <trkpt lat="46.0753477" lon="11.1116278" />
      <trkpt lat="46.0753916" lon="11.1116496" />
      <trkpt lat="46.0754019" lon="11.1116532" />
      <trkpt lat="46.0754456" lon="11.1116684" />
      <trkpt lat="46.0754884" lon="11.1116684" />
      <trkpt lat="46.0757247" lon="11.1116630" />
      <trkpt lat="46.0758959" lon="11.1116455" />
      <trkpt lat="46.0759461" lon="11.1116295" />
      <trkpt lat="46.0759768" lon="11.1116053" />
      <trkpt lat="46.0760001" lon="11.1115705" />
      <trkpt lat="46.0760136" lon="11.1115271" />
      <trkpt lat="46.0760227" lon="11.1114778" />
      <trkpt lat="46.0760231" lon="11.1114400" />
      <trkpt lat="46.0760131" lon="11.1113841" />
      <trkpt lat="46.0759852" lon="11.1113331" />
      <trkpt lat="46.0759331" lon="11.1112446" />
      <trkpt lat="46.0758531" lon="11.1111185" />
      <trkpt lat="46.0758010" lon="11.1110461" />
      <trkpt lat="46.0757191" lon="11.1109227" />
      <trkpt lat="46.0756317" lon="11.1108047" />
      <trkpt lat="46.0756000" lon="11.1107484" />
      <trkpt lat="46.0755749" lon="11.1106786" />
      <trkpt lat="46.0755647" lon="11.1106223" />
      <trkpt lat="46.0755554" lon="11.1105687" />
      <trkpt lat="46.0755330" lon="11.1105070" />
      <trkpt lat="46.0754661" lon="11.1103916" />
      <trkpt lat="46.0753384" lon="11.1101631" />
      <trkpt lat="46.0755301" lon="11.1099736" />
      <trkpt lat="46.0755809" lon="11.1100225" />
      <trkpt lat="46.0756894" lon="11.1102086" />
      <trkpt lat="46.0758160" lon="11.1103974" />
      <trkpt lat="46.0759379" lon="11.1105811" />
      <trkpt lat="46.0760864" lon="11.1105794" />
      <trkpt lat="46.0760815" lon="11.1103711" />
      <trkpt lat="46.0760779" lon="11.1102366" />
      <trkpt lat="46.0760629" lon="11.1101924" />
      <trkpt lat="46.0760513" lon="11.1101583" />
      <trkpt lat="46.0760483" lon="11.1099914" />
      <trkpt lat="46.0755809" lon="11.1100225" />
      <trkpt lat="46.0755645" lon="11.1099396" />
      <trkpt lat="46.0755301" lon="11.1099736" />
      <trkpt lat="46.0754679" lon="11.1099138" />
      <trkpt lat="46.0754597" lon="11.1095794" />
      <trkpt lat="46.0752654" lon="11.1095975" />
      <trkpt lat="46.0751466" lon="11.1096704" />
      <trkpt lat="46.0750678" lon="11.1097455" />
      <trkpt lat="46.0750351" lon="11.1097998" />
      <trkpt lat="46.0750098" lon="11.1098648" />
      <trkpt lat="46.0749977" lon="11.1099065" />
      <trkpt lat="46.0749874" lon="11.1099670" />
      <trkpt lat="46.0749725" lon="11.1101647" />
      <trkpt lat="46.0749675" lon="11.1102344" />
      <trkpt lat="46.0749568" lon="11.1102786" />
      <trkpt lat="46.0749208" lon="11.1103402" />
      <trkpt lat="46.0749184" lon="11.1106646" />
      <trkpt lat="46.0749211" lon="11.1107384" />
      <trkpt lat="46.0749286" lon="11.1109429" />
      <trkpt lat="46.0749321" lon="11.1109999" />
      <trkpt lat="46.0748882" lon="11.1109999" />
      <trkpt lat="46.0748845" lon="11.1111467" />
      <trkpt lat="46.0748761" lon="11.1112634" />
      <trkpt lat="46.0748668" lon="11.1113680" />
      <trkpt lat="46.0748547" lon="11.1114618" />
      <trkpt lat="46.0748380" lon="11.1115584" />
      <trkpt lat="46.0748250" lon="11.1116233" />
      <trkpt lat="46.0748708" lon="11.1116491" />
      <trkpt lat="46.0749295" lon="11.1117293" />
      <trkpt lat="46.0749172" lon="11.1117461" />
      <trkpt lat="46.0748911" lon="11.1117864" />
      <trkpt lat="46.0748632" lon="11.1118588" />
      <trkpt lat="46.0748332" lon="11.1119514" />
      <trkpt lat="46.0748096" lon="11.1120926" />
      <trkpt lat="46.0747928" lon="11.1122425" />
      <trkpt lat="46.0747885" lon="11.1122830" />
      <trkpt lat="46.0747480" lon="11.1126639" />
      <trkpt lat="46.0746725" lon="11.1131282" />
      <trkpt lat="46.0746998" lon="11.1131588" />
      <trkpt lat="46.0747319" lon="11.1131600" />
      <trkpt lat="46.0748088" lon="11.1131452" />
      <trkpt lat="46.0749209" lon="11.1131183" />
      <trkpt lat="46.0750689" lon="11.1130862" />
      <trkpt lat="46.0752477" lon="11.1130565" />
      <trkpt lat="46.0753572" lon="11.1130455" />
      <trkpt lat="46.0755113" lon="11.1130377" />
      <trkpt lat="46.0762296" lon="11.1131030" />
      <trkpt lat="46.0762809" lon="11.1131056" />
      <trkpt lat="46.0763032" lon="11.1131127" />
      <trkpt lat="46.0763256" lon="11.1131251" />
      <trkpt lat="46.0763516" lon="11.1131554" />
      <trkpt lat="46.0763766" lon="11.1132015" />
      <trkpt lat="46.0763990" lon="11.1132474" />
      <trkpt lat="46.0764130" lon="11.1132642" />
      <trkpt lat="46.0764396" lon="11.1132784" />
      <trkpt lat="46.0764889" lon="11.1132882" />
      <trkpt lat="46.0765256" lon="11.1132925" />
      <trkpt lat="46.0765562" lon="11.1133326" />
      <trkpt lat="46.0765883" lon="11.1133726" />
      <trkpt lat="46.0766174" lon="11.1134123" />
      <trkpt lat="46.0767577" lon="11.1136323" />
      <trkpt lat="46.0767892" lon="11.1136848" />
      <trkpt lat="46.0768942" lon="11.1139022" />
      <trkpt lat="46.0769316" lon="11.1139349" />
      <trkpt lat="46.0770012" lon="11.1139959" />
      <trkpt lat="46.0770084" lon="11.1140162" />
      <trkpt lat="46.0770395" lon="11.1141039" />
      <trkpt lat="46.0770708" lon="11.1141896" />
      <trkpt lat="46.0770905" lon="11.1142551" />
      <trkpt lat="46.0771558" lon="11.1144764" />
      <trkpt lat="46.0772025" lon="11.1146393" />
      <trkpt lat="46.0772409" lon="11.1146190" />
      <trkpt lat="46.0772669" lon="11.1147147" />
      <trkpt lat="46.0775432" lon="11.1156220" />
      <trkpt lat="46.0775678" lon="11.1156968" />
      <trkpt lat="46.0775785" lon="11.1157040" />
      <trkpt lat="46.0776299" lon="11.1157382" />
      <trkpt lat="46.0776913" lon="11.1157565" />
      <trkpt lat="46.0777591" lon="11.1157269" />
      <trkpt lat="46.0778322" lon="11.1156835" />
      <trkpt lat="46.0778496" lon="11.1157269" />
      <trkpt lat="46.0780774" lon="11.1155438" />
      <trkpt lat="46.0788931" lon="11.1148647" />
      <trkpt lat="46.0789640" lon="11.1150256" />
      <trkpt lat="46.0790669" lon="11.1152591" />
      <trkpt lat="46.0791019" lon="11.1153233" />
      <trkpt lat="46.0791317" lon="11.1153511" />
      <trkpt lat="46.0791556" lon="11.1153618" />
      <trkpt lat="46.0791959" lon="11.1153679" />
      <trkpt lat="46.0792319" lon="11.1153598" />
      <trkpt lat="46.0794317" lon="11.1152679" />
      <trkpt lat="46.0795059" lon="11.1152302" />
      <trkpt lat="46.0795875" lon="11.1155419" />
      <trkpt lat="46.0796468" lon="11.1155728" />
      <trkpt lat="46.0799559" lon="11.1154315" />
      <trkpt lat="46.0801449" lon="11.1153391" />
      <trkpt lat="46.0803841" lon="11.1151974" />
      <trkpt lat="46.0809234" lon="11.1149040" />
      <trkpt lat="46.0809592" lon="11.1150643" />
      <trkpt lat="46.0810332" lon="11.1153952" />
      <trkpt lat="46.0810496" lon="11.1154785" />
      <trkpt lat="46.0811478" lon="11.1159755" />
      <trkpt lat="46.0811753" lon="11.1161149" />
      <trkpt lat="46.0811870" lon="11.1161657" />
      <trkpt lat="46.0812145" lon="11.1162846" />
      <trkpt lat="46.0812280" lon="11.1163314" />
      <trkpt lat="46.0812489" lon="11.1163947" />
      <trkpt lat="46.0812280" lon="11.1163314" />
      <trkpt lat="46.0812977" lon="11.1162737" />
      <trkpt lat="46.0813480" lon="11.1162773" />
      <trkpt lat="46.0817251" lon="11.1159737" />
      <trkpt lat="46.0817523" lon="11.1158982" />
      <trkpt lat="46.0821175" lon="11.1155963" />
      <trkpt lat="46.0822141" lon="11.1155091" />
      <trkpt lat="46.0822988" lon="11.1154408" />
      <trkpt lat="46.0824179" lon="11.1153448" />
      <trkpt lat="46.0831075" lon="11.1147766" />
      <trkpt lat="46.0831398" lon="11.1147468" />
      <trkpt lat="46.0831981" lon="11.1146922" />
      <trkpt lat="46.0832618" lon="11.1146586" />
      <trkpt lat="46.0833377" lon="11.1146228" />
      <trkpt lat="46.0834400" lon="11.1146128" />
      <trkpt lat="46.0835406" lon="11.1146373" />
      <trkpt lat="46.0837546" lon="11.1147215" />
      <trkpt lat="46.0837811" lon="11.1147317" />
      <trkpt lat="46.0838066" lon="11.1147398" />
      <trkpt lat="46.0838264" lon="11.1147454" />
      <trkpt lat="46.0838692" lon="11.1147594" />
      <trkpt lat="46.0839262" lon="11.1147777" />
      <trkpt lat="46.0840331" lon="11.1148494" />
      <trkpt lat="46.0840576" lon="11.1148743" />
      <trkpt lat="46.0841393" lon="11.1149666" />
      <trkpt lat="46.0841830" lon="11.1150383" />
      <trkpt lat="46.0842266" lon="11.1151344" />
      <trkpt lat="46.0844886" lon="11.1158987" />
      <trkpt lat="46.0847878" lon="11.1167436" />
      <trkpt lat="46.0850112" lon="11.1173660" />
      <trkpt lat="46.0851439" lon="11.1177360" />
      <trkpt lat="46.0852910" lon="11.1182061" />
      <trkpt lat="46.0853213" lon="11.1183426" />
      <trkpt lat="46.0853299" lon="11.1184360" />
      <trkpt lat="46.0853209" lon="11.1185107" />
      <trkpt lat="46.0853098" lon="11.1185565" />
      <trkpt lat="46.0852925" lon="11.1185915" />
      <trkpt lat="46.0852699" lon="11.1186213" />
      <trkpt lat="46.0852382" lon="11.1186407" />
      <trkpt lat="46.0852187" lon="11.1186508" />
      <trkpt lat="46.0851837" lon="11.1185436" />
      <trkpt lat="46.0851763" lon="11.1184922" />
      <trkpt lat="46.0851804" lon="11.1184612" />
      <trkpt lat="46.0851896" lon="11.1184322" />
      <trkpt lat="46.0851998" lon="11.1184122" />
      <trkpt lat="46.0852790" lon="11.1183568" />
      <trkpt lat="46.0855101" lon="11.1182167" />
      <trkpt lat="46.0855246" lon="11.1182129" />
      <trkpt lat="46.0855369" lon="11.1182140" />
      <trkpt lat="46.0855491" lon="11.1182255" />
      <trkpt lat="46.0856162" lon="11.1183115" />
      <trkpt lat="46.0856862" lon="11.1183823" />
      <trkpt lat="46.0857188" lon="11.1184062" />
      <trkpt lat="46.0857536" lon="11.1184221" />
      <trkpt lat="46.0858282" lon="11.1184490" />
      <trkpt lat="46.0859074" lon="11.1184677" />
      <trkpt lat="46.0859543" lon="11.1184775" />
      <trkpt lat="46.0860063" lon="11.1184769" />
      <trkpt lat="46.0861050" lon="11.1184387" />
      <trkpt lat="46.0862359" lon="11.1183608" />
      <trkpt lat="46.0863473" lon="11.1182974" />
      <trkpt lat="46.0870757" lon="11.1178767" />
      <trkpt lat="46.0871417" lon="11.1178351" />
      <trkpt lat="46.0871640" lon="11.1178206" />
      <trkpt lat="46.0879338" lon="11.1173917" />
      <trkpt lat="46.0880098" lon="11.1173490" />
      <trkpt lat="46.0882167" lon="11.1172253" />
      <trkpt lat="46.0882318" lon="11.1172800" />
      <trkpt lat="46.0882594" lon="11.1173800" />
      <trkpt lat="46.0882804" lon="11.1174561" />
      <trkpt lat="46.0882857" lon="11.1174794" />
      <trkpt lat="46.0883041" lon="11.1175602" />
      <trkpt lat="46.0883138" lon="11.1175904" />
      <trkpt lat="46.0885468" lon="11.1174565" />
      <trkpt lat="46.0886000" lon="11.1174249" />
      <trkpt lat="46.0886377" lon="11.1174041" />
      <trkpt lat="46.0886770" lon="11.1173867" />
      <trkpt lat="46.0887569" lon="11.1177622" />
      <trkpt lat="46.0888528" lon="11.1179545" />
      <trkpt lat="46.0889635" lon="11.1181528" />
      <trkpt lat="46.0889946" lon="11.1182104" />
      <trkpt lat="46.0890311" lon="11.1182803" />
      <trkpt lat="46.0890379" lon="11.1183250" />
      <trkpt lat="46.0891331" lon="11.1189505" />
      <trkpt lat="46.0890879" lon="11.1189667" />
      <trkpt lat="46.0885118" lon="11.1191565" />
      <trkpt lat="46.0884430" lon="11.1191310" />
      <trkpt lat="46.0884219" lon="11.1190271" />
      <trkpt lat="46.0883647" lon="11.1190580" />
      <trkpt lat="46.0883838" lon="11.1192096" />
      <trkpt lat="46.0883908" lon="11.1192653" />
      <trkpt lat="46.0883989" lon="11.1193388" />
      <trkpt lat="46.0883234" lon="11.1193638" />
      <trkpt lat="46.0883440" lon="11.1195274" />
      <trkpt lat="46.0884325" lon="11.1202317" />
      <trkpt lat="46.0884340" lon="11.1202434" />
      <trkpt lat="46.0884352" lon="11.1202530" />
      <trkpt lat="46.0884485" lon="11.1203626" />
      <trkpt lat="46.0884509" lon="11.1203926" />
      <trkpt lat="46.0884673" lon="11.1205211" />
      <trkpt lat="46.0883751" lon="11.1205490" />
      <trkpt lat="46.0884121" lon="11.1207818" />
      <trkpt lat="46.0884254" lon="11.1208928" />
      <trkpt lat="46.0883213" lon="11.1209212" />
      <trkpt lat="46.0882914" lon="11.1209435" />
      <trkpt lat="46.0882584" lon="11.1209661" />
      <trkpt lat="46.0881056" lon="11.1210737" />
      <trkpt lat="46.0879718" lon="11.1211752" />
      <trkpt lat="46.0878693" lon="11.1212423" />
      <trkpt lat="46.0878267" lon="11.1212626" />
      <trkpt lat="46.0878427" lon="11.1213171" />
      <trkpt lat="46.0878569" lon="11.1213671" />
      <trkpt lat="46.0877136" lon="11.1214528" />
      <trkpt lat="46.0876417" lon="11.1214959" />
      <trkpt lat="46.0875855" lon="11.1215173" />
      <trkpt lat="46.0873996" lon="11.1215882" />
      <trkpt lat="46.0873625" lon="11.1216024" />
      <trkpt lat="46.0871601" lon="11.1215877" />
      <trkpt lat="46.0870788" lon="11.1215802" />
      <trkpt lat="46.0867131" lon="11.1215064" />
      <trkpt lat="46.0866292" lon="11.1215089" />
      <trkpt lat="46.0865704" lon="11.1215089" />
      <trkpt lat="46.0864755" lon="11.1215507" />
      <trkpt lat="46.0863958" lon="11.1216056" />
      <trkpt lat="46.0862791" lon="11.1217118" />
      <trkpt lat="46.0861872" lon="11.1218286" />
      <trkpt lat="46.0861400" lon="11.1218849" />
      <trkpt lat="46.0859995" lon="11.1220524" />
      <trkpt lat="46.0858022" lon="11.1223066" />
      <trkpt lat="46.0856897" lon="11.1224232" />
      <trkpt lat="46.0855838" lon="11.1225050" />
      <trkpt lat="46.0853735" lon="11.1226616" />
      <trkpt lat="46.0851582" lon="11.1228318" />
      <trkpt lat="46.0850759" lon="11.1228918" />
      <trkpt lat="46.0852548" lon="11.1229401" />
      <trkpt lat="46.0857549" lon="11.1230195" />
      <trkpt lat="46.0859791" lon="11.1229972" />
      <trkpt lat="46.0861711" lon="11.1229518" />
      <trkpt lat="46.0863876" lon="11.1227918" />
      <trkpt lat="46.0864241" lon="11.1227648" />
      <trkpt lat="46.0864987" lon="11.1227370" />
      <trkpt lat="46.0868009" lon="11.1226242" />
      <trkpt lat="46.0872198" lon="11.1225611" />
      <trkpt lat="46.0875409" lon="11.1225892" />
      <trkpt lat="46.0880637" lon="11.1225802" />
      <trkpt lat="46.0884268" lon="11.1226013" />
      <trkpt lat="46.0893266" lon="11.1225213" />
      <trkpt lat="46.0896158" lon="11.1223897" />
      <trkpt lat="46.0898970" lon="11.1223950" />
      <trkpt lat="46.0901359" lon="11.1224396" />
      <trkpt lat="46.0901916" lon="11.1224500" />
      <trkpt lat="46.0904297" lon="11.1227733" />
      <trkpt lat="46.0903242" lon="11.1228704" />
      <trkpt lat="46.0901272" lon="11.1230032" />
      <trkpt lat="46.0900340" lon="11.1230624" />
      <trkpt lat="46.0899187" lon="11.1231251" />
      <trkpt lat="46.0896897" lon="11.1232196" />
      <trkpt lat="46.0894615" lon="11.1232765" />
      <trkpt lat="46.0890084" lon="11.1235905" />
      <trkpt lat="46.0889835" lon="11.1236165" />
      <trkpt lat="46.0889663" lon="11.1236682" />
      <trkpt lat="46.0889634" lon="11.1236894" />
      <trkpt lat="46.0889678" lon="11.1237114" />
      <trkpt lat="46.0889916" lon="11.1237785" />
      <trkpt lat="46.0889952" lon="11.1237975" />
      <trkpt lat="46.0889956" lon="11.1238180" />
      <trkpt lat="46.0889905" lon="11.1238388" />
      <trkpt lat="46.0889815" lon="11.1238562" />
      <trkpt lat="46.0889703" lon="11.1238692" />
      <trkpt lat="46.0879665" lon="11.1246036" />
      <trkpt lat="46.0878580" lon="11.1246769" />
      <trkpt lat="46.0877973" lon="11.1247154" />
      <trkpt lat="46.0877321" lon="11.1247522" />
      <trkpt lat="46.0876463" lon="11.1247941" />
      <trkpt lat="46.0874457" lon="11.1248833" />
      <trkpt lat="46.0873230" lon="11.1249264" />
      <trkpt lat="46.0871925" lon="11.1249608" />
      <trkpt lat="46.0870611" lon="11.1249864" />
      <trkpt lat="46.0868581" lon="11.1250059" />
      <trkpt lat="46.0865794" lon="11.1250220" />
      <trkpt lat="46.0858532" lon="11.1250644" />
      <trkpt lat="46.0855916" lon="11.1250862" />
      <trkpt lat="46.0852842" lon="11.1251357" />
      <trkpt lat="46.0851688" lon="11.1251580" />
      <trkpt lat="46.0817926" lon="11.1259865" />
      <trkpt lat="46.0813094" lon="11.1261165" />
      <trkpt lat="46.0811807" lon="11.1261564" />
      <trkpt lat="46.0809571" lon="11.1262492" />
      <trkpt lat="46.0808103" lon="11.1262590" />
      <trkpt lat="46.0805848" lon="11.1263596" />
      <trkpt lat="46.0804778" lon="11.1263743" />
      <trkpt lat="46.0803154" lon="11.1264219" />
      <trkpt lat="46.0802499" lon="11.1264414" />
      <trkpt lat="46.0802310" lon="11.1264774" />
      <trkpt lat="46.0802005" lon="11.1264300" />
      <trkpt lat="46.0801658" lon="11.1263536" />
      <trkpt lat="46.0801428" lon="11.1263020" />
      <trkpt lat="46.0801965" lon="11.1262506" />
      <trkpt lat="46.0802389" lon="11.1262241" />
      <trkpt lat="46.0802782" lon="11.1262057" />
      <trkpt lat="46.0803162" lon="11.1261930" />
      <trkpt lat="46.0803541" lon="11.1261855" />
      <trkpt lat="46.0804077" lon="11.1261843" />
      <trkpt lat="46.0804434" lon="11.1261845" />
      <trkpt lat="46.0805059" lon="11.1261991" />
      <trkpt lat="46.0805851" lon="11.1262370" />
      <trkpt lat="46.0806462" lon="11.1262834" />
      <trkpt lat="46.0806953" lon="11.1263347" />
      <trkpt lat="46.0807588" lon="11.1264530" />
      <trkpt lat="46.0808118" lon="11.1265713" />
      <trkpt lat="46.0808344" lon="11.1266220" />
      <trkpt lat="46.0808546" lon="11.1266675" />
      <trkpt lat="46.0808995" lon="11.1267307" />
      <trkpt lat="46.0809522" lon="11.1267825" />
      <trkpt lat="46.0809943" lon="11.1268080" />
      <trkpt lat="46.0810370" lon="11.1268294" />
      <trkpt lat="46.0810982" lon="11.1268455" />
      <trkpt lat="46.0811464" lon="11.1268562" />
      <trkpt lat="46.0812300" lon="11.1268749" />
      <trkpt lat="46.0815366" lon="11.1269256" />
      <trkpt lat="46.0817198" lon="11.1269665" />
      <trkpt lat="46.0818829" lon="11.1270204" />
      <trkpt lat="46.0819953" lon="11.1270853" />
      <trkpt lat="46.0821331" lon="11.1271401" />
      <trkpt lat="46.0825368" lon="11.1273312" />
      <trkpt lat="46.0831049" lon="11.1276182" />
      <trkpt lat="46.0825368" lon="11.1273312" />
      <trkpt lat="46.0821331" lon="11.1271401" />
      <trkpt lat="46.0819953" lon="11.1270853" />
      <trkpt lat="46.0817528" lon="11.1272479" />
      <trkpt lat="46.0811357" lon="11.1275764" />
      <trkpt lat="46.0810559" lon="11.1276134" />
      <trkpt lat="46.0809073" lon="11.1277324" />
      <trkpt lat="46.0806811" lon="11.1280031" />
      <trkpt lat="46.0803491" lon="11.1279753" />
      <trkpt lat="46.0800911" lon="11.1280323" />
      <trkpt lat="46.0797373" lon="11.1282787" />
      <trkpt lat="46.0797274" lon="11.1282856" />
      <trkpt lat="46.0793242" lon="11.1284540" />
      <trkpt lat="46.0790585" lon="11.1286647" />
      <trkpt lat="46.0784723" lon="11.1291894" />
      <trkpt lat="46.0782804" lon="11.1293905" />
      <trkpt lat="46.0780822" lon="11.1296412" />
      <trkpt lat="46.0779655" lon="11.1298603" />
      <trkpt lat="46.0779180" lon="11.1300020" />
      <trkpt lat="46.0776874" lon="11.1300366" />
      <trkpt lat="46.0776279" lon="11.1300650" />
      <trkpt lat="46.0775900" lon="11.1301316" />
      <trkpt lat="46.0775711" lon="11.1302232" />
      <trkpt lat="46.0775629" lon="11.1303269" />
      <trkpt lat="46.0775656" lon="11.1304390" />
      <trkpt lat="46.0775614" lon="11.1304887" />
      <trkpt lat="46.0775462" lon="11.1305548" />
      <trkpt lat="46.0774699" lon="11.1305183" />
      <trkpt lat="46.0773671" lon="11.1304666" />
      <trkpt lat="46.0773083" lon="11.1304503" />
      <trkpt lat="46.0772788" lon="11.1304450" />
      <trkpt lat="46.0772661" lon="11.1305162" />
      <trkpt lat="46.0772528" lon="11.1305902" />
      <trkpt lat="46.0772467" lon="11.1307100" />
      <trkpt lat="46.0771814" lon="11.1311854" />
      <trkpt lat="46.0771268" lon="11.1316045" />
      <trkpt lat="46.0771004" lon="11.1317526" />
      <trkpt lat="46.0770901" lon="11.1317798" />
      <trkpt lat="46.0770754" lon="11.1318003" />
      <trkpt lat="46.0770549" lon="11.1318176" />
      <trkpt lat="46.0770427" lon="11.1318742" />
      <trkpt lat="46.0770549" lon="11.1318176" />
      <trkpt lat="46.0770754" lon="11.1318003" />
      <trkpt lat="46.0770901" lon="11.1317798" />
      <trkpt lat="46.0771004" lon="11.1317526" />
      <trkpt lat="46.0771268" lon="11.1316045" />
      <trkpt lat="46.0771814" lon="11.1311854" />
      <trkpt lat="46.0772467" lon="11.1307100" />
      <trkpt lat="46.0772528" lon="11.1305902" />
      <trkpt lat="46.0772661" lon="11.1305162" />
      <trkpt lat="46.0772788" lon="11.1304450" />
      <trkpt lat="46.0772708" lon="11.1303001" />
      <trkpt lat="46.0772678" lon="11.1302466" />
      <trkpt lat="46.0772248" lon="11.1298661" />
      <trkpt lat="46.0771625" lon="11.1296480" />
      <trkpt lat="46.0770601" lon="11.1295496" />
      <trkpt lat="46.0768258" lon="11.1294256" />
      <trkpt lat="46.0766107" lon="11.1292268" />
      <trkpt lat="46.0763971" lon="11.1290343" />
      <trkpt lat="46.0761791" lon="11.1288718" />
      <trkpt lat="46.0759712" lon="11.1287291" />
      <trkpt lat="46.0758860" lon="11.1286618" />
      <trkpt lat="46.0758202" lon="11.1289142" />
      <trkpt lat="46.0757893" lon="11.1291059" />
      <trkpt lat="46.0757939" lon="11.1293083" />
      <trkpt lat="46.0758122" lon="11.1294045" />
      <trkpt lat="46.0758601" lon="11.1295688" />
      <trkpt lat="46.0759415" lon="11.1297726" />
      <trkpt lat="46.0760013" lon="11.1299493" />
      <trkpt lat="46.0760478" lon="11.1300123" />
      <trkpt lat="46.0761724" lon="11.1300875" />
      <trkpt lat="46.0764975" lon="11.1302832" />
      <trkpt lat="46.0766298" lon="11.1303343" />
      <trkpt lat="46.0767621" lon="11.1303772" />
      <trkpt lat="46.0770168" lon="11.1304446" />
      <trkpt lat="46.0771354" lon="11.1304578" />
      <trkpt lat="46.0772788" lon="11.1304450" />
      <trkpt lat="46.0772661" lon="11.1305162" />
      <trkpt lat="46.0772528" lon="11.1305902" />
      <trkpt lat="46.0772467" lon="11.1307100" />
      <trkpt lat="46.0771814" lon="11.1311854" />
      <trkpt lat="46.0771268" lon="11.1316045" />
      <trkpt lat="46.0771004" lon="11.1317526" />
      <trkpt lat="46.0770901" lon="11.1317798" />
      <trkpt lat="46.0770754" lon="11.1318003" />
      <trkpt lat="46.0770549" lon="11.1318176" />
      <trkpt lat="46.0770427" lon="11.1318742" />
      <trkpt lat="46.0770161" lon="11.1319878" />
      <trkpt lat="46.0770354" lon="11.1320010" />
      <trkpt lat="46.0770442" lon="11.1320247" />
      <trkpt lat="46.0770434" lon="11.1320669" />
      <trkpt lat="46.0770143" lon="11.1321916" />
      <trkpt lat="46.0769636" lon="11.1323468" />
      <trkpt lat="46.0769153" lon="11.1324783" />
      <trkpt lat="46.0768684" lon="11.1325898" />
      <trkpt lat="46.0767867" lon="11.1327649" />
      <trkpt lat="46.0766733" lon="11.1329902" />
      <trkpt lat="46.0762758" lon="11.1337879" />
      <trkpt lat="46.0761969" lon="11.1339476" />
      <trkpt lat="46.0761494" lon="11.1340216" />
      <trkpt lat="46.0761049" lon="11.1340658" />
      <trkpt lat="46.0760642" lon="11.1340847" />
      <trkpt lat="46.0760129" lon="11.1340992" />
      <trkpt lat="46.0759773" lon="11.1340965" />
      <trkpt lat="46.0759050" lon="11.1340844" />
      <trkpt lat="46.0758616" lon="11.1340378" />
      <trkpt lat="46.0757541" lon="11.1339736" />
      <trkpt lat="46.0756662" lon="11.1340106" />
      <trkpt lat="46.0754573" lon="11.1341588" />
      <trkpt lat="46.0752879" lon="11.1342721" />
      <trkpt lat="46.0751455" lon="11.1344115" />
      <trkpt lat="46.0750730" lon="11.1344619" />
      <trkpt lat="46.0749410" lon="11.1344321" />
      <trkpt lat="46.0747360" lon="11.1343586" />
      <trkpt lat="46.0746050" lon="11.1343386" />
      <trkpt lat="46.0743106" lon="11.1343774" />
      <trkpt lat="46.0740802" lon="11.1344165" />
      <trkpt lat="46.0740348" lon="11.1344504" />
      <trkpt lat="46.0738249" lon="11.1345257" />
      <trkpt lat="46.0737202" lon="11.1345342" />
      <trkpt lat="46.0736965" lon="11.1344537" />
      <trkpt lat="46.0736425" lon="11.1342824" />
      <trkpt lat="46.0736234" lon="11.1342253" />
      <trkpt lat="46.0735886" lon="11.1342095" />
      <trkpt lat="46.0735600" lon="11.1342044" />
      <trkpt lat="46.0734812" lon="11.1341873" />
      <trkpt lat="46.0734399" lon="11.1341453" />
      <trkpt lat="46.0734265" lon="11.1340567" />
      <trkpt lat="46.0733777" lon="11.1340011" />
      <trkpt lat="46.0733400" lon="11.1339813" />
      <trkpt lat="46.0733295" lon="11.1340175" />
      <trkpt lat="46.0731599" lon="11.1341031" />
      <trkpt lat="46.0723914" lon="11.1345604" />
      <trkpt lat="46.0720884" lon="11.1347406" />
      <trkpt lat="46.0719795" lon="11.1347027" />
      <trkpt lat="46.0719737" lon="11.1347173" />
      <trkpt lat="46.0717941" lon="11.1348367" />
      <trkpt lat="46.0717271" lon="11.1347951" />
      <trkpt lat="46.0716322" lon="11.1348541" />
      <trkpt lat="46.0715187" lon="11.1349399" />
      <trkpt lat="46.0713140" lon="11.1349842" />
      <trkpt lat="46.0712470" lon="11.1349399" />
      <trkpt lat="46.0710805" lon="11.1348809" />
      <trkpt lat="46.0709744" lon="11.1348729" />
      <trkpt lat="46.0708981" lon="11.1346610" />
      <trkpt lat="46.0709465" lon="11.1345389" />
      <trkpt lat="46.0711112" lon="11.1344156" />
      <trkpt lat="46.0712722" lon="11.1342774" />
      <trkpt lat="46.0713317" lon="11.1341715" />
      <trkpt lat="46.0713089" lon="11.1340984" />
      <trkpt lat="46.0712629" lon="11.1337943" />
      <trkpt lat="46.0714904" lon="11.1337297" />
      <trkpt lat="46.0715938" lon="11.1336994" />
      <trkpt lat="46.0719843" lon="11.1335966" />
      <trkpt lat="46.0719835" lon="11.1335398" />
      <trkpt lat="46.0719828" lon="11.1334470" />
      <trkpt lat="46.0719776" lon="11.1331362" />
      <trkpt lat="46.0719709" lon="11.1325213" />
      <trkpt lat="46.0719746" lon="11.1324988" />
      <trkpt lat="46.0720101" lon="11.1324277" />
      <trkpt lat="46.0719807" lon="11.1323818" />
      <trkpt lat="46.0719448" lon="11.1322604" />
      <trkpt lat="46.0719147" lon="11.1321316" />
      <trkpt lat="46.0719145" lon="11.1320862" />
      <trkpt lat="46.0719258" lon="11.1320398" />
      <trkpt lat="46.0719643" lon="11.1319913" />
      <trkpt lat="46.0720421" lon="11.1319164" />
      <trkpt lat="46.0720797" lon="11.1318641" />
      <trkpt lat="46.0721008" lon="11.1318201" />
      <trkpt lat="46.0721144" lon="11.1317686" />
      <trkpt lat="46.0721139" lon="11.1317196" />
      <trkpt lat="46.0720836" lon="11.1316390" />
      <trkpt lat="46.0720435" lon="11.1315664" />
      <trkpt lat="46.0719930" lon="11.1315096" />
      <trkpt lat="46.0718788" lon="11.1314021" />
      <trkpt lat="46.0717819" lon="11.1313280" />
      <trkpt lat="46.0716374" lon="11.1312149" />
      <trkpt lat="46.0715978" lon="11.1311574" />
      <trkpt lat="46.0715708" lon="11.1311038" />
      <trkpt lat="46.0715578" lon="11.1310635" />
      <trkpt lat="46.0715544" lon="11.1310345" />
      <trkpt lat="46.0715149" lon="11.1309888" />
      <trkpt lat="46.0715519" lon="11.1307148" />
      <trkpt lat="46.0715655" lon="11.1306134" />
      <trkpt lat="46.0713448" lon="11.1303846" />
      <trkpt lat="46.0713248" lon="11.1303620" />
      <trkpt lat="46.0707053" lon="11.1296377" />
      <trkpt lat="46.0706641" lon="11.1295856" />
      <trkpt lat="46.0706390" lon="11.1295035" />
      <trkpt lat="46.0706309" lon="11.1294774" />
      <trkpt lat="46.0706184" lon="11.1294365" />
      <trkpt lat="46.0704962" lon="11.1290391" />
      <trkpt lat="46.0703584" lon="11.1285810" />
      <trkpt lat="46.0702715" lon="11.1286032" />
      <trkpt lat="46.0701982" lon="11.1285050" />
      <trkpt lat="46.0701544" lon="11.1284147" />
      <trkpt lat="46.0700926" lon="11.1282337" />
      <trkpt lat="46.0700540" lon="11.1281059" />
      <trkpt lat="46.0700467" lon="11.1280819" />
      <trkpt lat="46.0700492" lon="11.1279925" />
      <trkpt lat="46.0699935" lon="11.1279812" />
      <trkpt lat="46.0699423" lon="11.1279639" />
      <trkpt lat="46.0699595" lon="11.1278391" />
      <trkpt lat="46.0699398" lon="11.1278053" />
      <trkpt lat="46.0699314" lon="11.1277523" />
      <trkpt lat="46.0699262" lon="11.1276890" />
      <trkpt lat="46.0699206" lon="11.1276259" />
      <trkpt lat="46.0699209" lon="11.1275983" />
      <trkpt lat="46.0699221" lon="11.1275173" />
      <trkpt lat="46.0699231" lon="11.1274554" />
      <trkpt lat="46.0699231" lon="11.1274466" />
      <trkpt lat="46.0699232" lon="11.1274344" />
      <trkpt lat="46.0699578" lon="11.1274338" />
      <trkpt lat="46.0699719" lon="11.1274335" />
      <trkpt lat="46.0700069" lon="11.1273936" />
      <trkpt lat="46.0699820" lon="11.1273093" />
      <trkpt lat="46.0699625" lon="11.1272466" />
      <trkpt lat="46.0699224" lon="11.1272592" />
      <trkpt lat="46.0698554" lon="11.1272697" />
      <trkpt lat="46.0698044" lon="11.1272466" />
      <trkpt lat="46.0697280" lon="11.1271826" />
      <trkpt lat="46.0696661" lon="11.1271122" />
      <trkpt lat="46.0696122" lon="11.1270587" />
      <trkpt lat="46.0695425" lon="11.1268253" />
      <trkpt lat="46.0694294" lon="11.1265151" />
      <trkpt lat="46.0694048" lon="11.1263618" />
      <trkpt lat="46.0693249" lon="11.1262450" />
      <trkpt lat="46.0692044" lon="11.1261221" />
      <trkpt lat="46.0691138" lon="11.1260443" />
      <trkpt lat="46.0690129" lon="11.1258657" />
      <trkpt lat="46.0689600" lon="11.1258922" />
      <trkpt lat="46.0689309" lon="11.1259038" />
      <trkpt lat="46.0687920" lon="11.1259214" />
      <trkpt lat="46.0685395" lon="11.1255528" />
      <trkpt lat="46.0683943" lon="11.1252914" />
      <trkpt lat="46.0683737" lon="11.1252392" />
      <trkpt lat="46.0683518" lon="11.1247826" />
      <trkpt lat="46.0683684" lon="11.1245203" />
      <trkpt lat="46.0683766" lon="11.1242292" />
      <trkpt lat="46.0683541" lon="11.1239478" />
      <trkpt lat="46.0683250" lon="11.1239053" />
      <trkpt lat="46.0682835" lon="11.1238873" />
      <trkpt lat="46.0682827" lon="11.1238602" />
      <trkpt lat="46.0682805" lon="11.1238337" />
      <trkpt lat="46.0682565" lon="11.1234891" />
      <trkpt lat="46.0682343" lon="11.1235128" />
      <trkpt lat="46.0680250" lon="11.1235503" />
      <trkpt lat="46.0678142" lon="11.1235709" />
      <trkpt lat="46.0678077" lon="11.1232267" />
      <trkpt lat="46.0677631" lon="11.1232283" />
      <trkpt lat="46.0676659" lon="11.1232331" />
      <trkpt lat="46.0674156" lon="11.1232472" />
      <trkpt lat="46.0674008" lon="11.1232483" />
      <trkpt lat="46.0673371" lon="11.1232534" />
      <trkpt lat="46.0673183" lon="11.1232550" />
      <trkpt lat="46.0673146" lon="11.1232553" />
      <trkpt lat="46.0673011" lon="11.1232564" />
      <trkpt lat="46.0672873" lon="11.1232576" />
      <trkpt lat="46.0672821" lon="11.1232581" />
      <trkpt lat="46.0672810" lon="11.1232291" />
      <trkpt lat="46.0672686" lon="11.1232351" />
      <trkpt lat="46.0672653" lon="11.1232368" />
      <trkpt lat="46.0672635" lon="11.1232024" />
      <trkpt lat="46.0669670" lon="11.1232923" />
      <trkpt lat="46.0669188" lon="11.1233181" />
      <trkpt lat="46.0668986" lon="11.1233290" />
      <trkpt lat="46.0668905" lon="11.1233334" />
      <trkpt lat="46.0668872" lon="11.1232848" />
      <trkpt lat="46.0668548" lon="11.1230552" />
      <trkpt lat="46.0667810" lon="11.1225726" />
      <trkpt lat="46.0667729" lon="11.1225194" />
      <trkpt lat="46.0667715" lon="11.1225101" />
      <trkpt lat="46.0667532" lon="11.1223909" />
      <trkpt lat="46.0667414" lon="11.1223091" />
      <trkpt lat="46.0667357" lon="11.1222747" />
      <trkpt lat="46.0667350" lon="11.1222603" />
      <trkpt lat="46.0667287" lon="11.1221612" />
      <trkpt lat="46.0667249" lon="11.1220591" />
      <trkpt lat="46.0667229" lon="11.1219913" />
      <trkpt lat="46.0667210" lon="11.1219626" />
      <trkpt lat="46.0667304" lon="11.1218751" />
      <trkpt lat="46.0667274" lon="11.1218448" />
      <trkpt lat="46.0666789" lon="11.1217092" />
      <trkpt lat="46.0666701" lon="11.1215352" />
      <trkpt lat="46.0667024" lon="11.1213629" />
      <trkpt lat="46.0667526" lon="11.1210542" />
      <trkpt lat="46.0667705" lon="11.1210629" />
      <trkpt lat="46.0668711" lon="11.1210492" />
    </trkseg>
  </trk>
</gpx>
