<?xml version="1.0" encoding="UTF-8"?>
<gpx xmlns="http://www.topografix.com/GPX/1/1" version="1.1" creator="ShapeRoute route-engine">
  <metadata>
    <name>heart 10 km · 2026-10-03</name>
    <author>
      <name>ShapeRoute route-engine</name>
    </author>
    <copyright author="OpenStreetMap contributors">
      <license>https://opendatacommons.org/licenses/odbl/1-0/</license>
    </copyright>
    <link href="https://www.openstreetmap.org/copyright">
      <text>© OpenStreetMap contributors</text>
    </link>
    <time>2026-10-03T10:58:47Z</time>
  </metadata>
  <trk>
    <name>heart 10 km · 2026-10-03</name>
    <trkseg>
      <trkpt lat="46.0668711" lon="11.1210492" />
      <trkpt lat="46.0667705" lon="11.1210629" />
      <trkpt lat="46.0667526" lon="11.1210542" />
      <trkpt lat="46.0667024" lon="11.1213629" />
      <trkpt lat="46.0666701" lon="11.1215352" />
      <trkpt lat="46.0666789" lon="11.1217092" />
      <trkpt lat="46.0666523" lon="11.1217176" />
      <trkpt lat="46.0665604" lon="11.1217424" />
      <trkpt lat="46.0665308" lon="11.1217471" />
      <trkpt lat="46.0665452" lon="11.1219954" />
      <trkpt lat="46.0665485" lon="11.1220283" />
      <trkpt lat="46.0665540" lon="11.1220838" />
      <trkpt lat="46.0664798" lon="11.1221149" />
      <trkpt lat="46.0665144" lon="11.1224055" />
      <trkpt lat="46.0665753" lon="11.1223823" />
      <trkpt lat="46.0667414" lon="11.1223091" />
      <trkpt lat="46.0667875" lon="11.1223201" />
      <trkpt lat="46.0668069" lon="11.1222995" />
      <trkpt lat="46.0670387" lon="11.1222286" />
      <trkpt lat="46.0671519" lon="11.1221962" />
      <trkpt lat="46.0672615" lon="11.1221540" />
      <trkpt lat="46.0672965" lon="11.1221507" />
      <trkpt lat="46.0675698" lon="11.1221249" />
      <trkpt lat="46.0675867" lon="11.1221233" />
      <trkpt lat="46.0676015" lon="11.1221212" />
      <trkpt lat="46.0676370" lon="11.1221176" />
      <trkpt lat="46.0677412" lon="11.1221070" />
      <trkpt lat="46.0678251" lon="11.1224117" />
      <trkpt lat="46.0679214" lon="11.1224272" />
      <trkpt lat="46.0680379" lon="11.1224549" />
      <trkpt lat="46.0681369" lon="11.1224940" />
      <trkpt lat="46.0681489" lon="11.1225470" />
      <trkpt lat="46.0685802" lon="11.1225918" />
      <trkpt lat="46.0688087" lon="11.1225689" />
      <trkpt lat="46.0690210" lon="11.1225351" />
      <trkpt lat="46.0693306" lon="11.1224874" />
      <trkpt lat="46.0695838" lon="11.1225012" />
      <trkpt lat="46.0698051" lon="11.1225938" />
      <trkpt lat="46.0698206" lon="11.1226002" />
      <trkpt lat="46.0698354" lon="11.1226063" />
      <trkpt lat="46.0698824" lon="11.1231811" />
      <trkpt lat="46.0698821" lon="11.1233759" />
      <trkpt lat="46.0698874" lon="11.1235996" />
      <trkpt lat="46.0698928" lon="11.1238237" />
      <trkpt lat="46.0699629" lon="11.1241549" />
      <trkpt lat="46.0699940" lon="11.1242635" />
      <trkpt lat="46.0700385" lon="11.1243837" />
      <trkpt lat="46.0700701" lon="11.1244225" />
      <trkpt lat="46.0700837" lon="11.1244551" />
      <trkpt lat="46.0701134" lon="11.1245391" />
      <trkpt lat="46.0701254" lon="11.1249293" />
      <trkpt lat="46.0701572" lon="11.1252119" />
      <trkpt lat="46.0701802" lon="11.1253573" />
      <trkpt lat="46.0701968" lon="11.1254338" />
      <trkpt lat="46.0702221" lon="11.1255125" />
      <trkpt lat="46.0704021" lon="11.1260753" />
      <trkpt lat="46.0704697" lon="11.1263623" />
      <trkpt lat="46.0705029" lon="11.1265935" />
      <trkpt lat="46.0705083" lon="11.1266443" />
      <trkpt lat="46.0705348" lon="11.1268013" />
      <trkpt lat="46.0702467" lon="11.1270612" />
      <trkpt lat="46.0700646" lon="11.1272344" />
      <trkpt lat="46.0699820" lon="11.1273093" />
      <trkpt lat="46.0699211" lon="11.1273286" />
      <trkpt lat="46.0699232" lon="11.1274344" />
      <trkpt lat="46.0699231" lon="11.1274466" />
      <trkpt lat="46.0699231" lon="11.1274554" />
      <trkpt lat="46.0699221" lon="11.1275173" />
      <trkpt lat="46.0699209" lon="11.1275983" />
      <trkpt lat="46.0699206" lon="11.1276259" />
      <trkpt lat="46.0699262" lon="11.1276890" />
      <trkpt lat="46.0699314" lon="11.1277523" />
      <trkpt lat="46.0699398" lon="11.1278053" />
      <trkpt lat="46.0699595" lon="11.1278391" />
      <trkpt lat="46.0699423" lon="11.1279639" />
      <trkpt lat="46.0699317" lon="11.1280657" />
      <trkpt lat="46.0699156" lon="11.1280643" />
      <trkpt lat="46.0698968" lon="11.1280672" />
      <trkpt lat="46.0698804" lon="11.1280920" />
      <trkpt lat="46.0698727" lon="11.1281221" />
      <trkpt lat="46.0698343" lon="11.1280929" />
      <trkpt lat="46.0698110" lon="11.1280787" />
      <trkpt lat="46.0697877" lon="11.1280645" />
      <trkpt lat="46.0697734" lon="11.1280679" />
      <trkpt lat="46.0697333" lon="11.1280776" />
      <trkpt lat="46.0697425" lon="11.1282563" />
      <trkpt lat="46.0697155" lon="11.1283944" />
      <trkpt lat="46.0696505" lon="11.1285222" />
      <trkpt lat="46.0696123" lon="11.1285533" />
      <trkpt lat="46.0692759" lon="11.1287364" />
      <trkpt lat="46.0689565" lon="11.1288966" />
      <trkpt lat="46.0686535" lon="11.1290659" />
      <trkpt lat="46.0682844" lon="11.1292584" />
      <trkpt lat="46.0682281" lon="11.1292878" />
      <trkpt lat="46.0681974" lon="11.1293038" />
      <trkpt lat="46.0679193" lon="11.1294608" />
      <trkpt lat="46.0677627" lon="11.1296102" />
      <trkpt lat="46.0676905" lon="11.1296887" />
      <trkpt lat="46.0676316" lon="11.1297529" />
      <trkpt lat="46.0671709" lon="11.1304027" />
      <trkpt lat="46.0670662" lon="11.1305822" />
      <trkpt lat="46.0669499" lon="11.1308480" />
      <trkpt lat="46.0669291" lon="11.1308955" />
      <trkpt lat="46.0665417" lon="11.1318344" />
      <trkpt lat="46.0664271" lon="11.1321202" />
      <trkpt lat="46.0663981" lon="11.1322700" />
      <trkpt lat="46.0663973" lon="11.1324220" />
      <trkpt lat="46.0664177" lon="11.1327423" />
      <trkpt lat="46.0664278" lon="11.1328854" />
      <trkpt lat="46.0664230" lon="11.1330833" />
      <trkpt lat="46.0663721" lon="11.1332750" />
      <trkpt lat="46.0663033" lon="11.1334010" />
      <trkpt lat="46.0662462" lon="11.1334632" />
      <trkpt lat="46.0661913" lon="11.1334955" />
      <trkpt lat="46.0659539" lon="11.1336233" />
      <trkpt lat="46.0658909" lon="11.1336844" />
      <trkpt lat="46.0658531" lon="11.1337510" />
      <trkpt lat="46.0658180" lon="11.1338865" />
      <trkpt lat="46.0657826" lon="11.1341633" />
      <trkpt lat="46.0657771" lon="11.1342867" />
      <trkpt lat="46.0657741" lon="11.1344539" />
      <trkpt lat="46.0658057" lon="11.1347176" />
      <trkpt lat="46.0658105" lon="11.1347412" />
      <trkpt lat="46.0659547" lon="11.1354532" />
      <trkpt lat="46.0659865" lon="11.1355516" />
      <trkpt lat="46.0660265" lon="11.1356395" />
      <trkpt lat="46.0661257" lon="11.1358238" />
      <trkpt lat="46.0662574" lon="11.1360370" />
      <trkpt lat="46.0663426" lon="11.1361849" />
      <trkpt lat="46.0663281" lon="11.1362580" />
      <trkpt lat="46.0663071" lon="11.1362447" />
      <trkpt lat="46.0663128" lon="11.1362211" />
      <trkpt lat="46.0662977" lon="11.1362126" />
      <trkpt lat="46.0662916" lon="11.1362363" />
      <trkpt lat="46.0659518" lon="11.1360367" />
      <trkpt lat="46.0657114" lon="11.1358023" />
      <trkpt lat="46.0655347" lon="11.1357705" />
      <trkpt lat="46.0654566" lon="11.1357405" />
      <trkpt lat="46.0653233" lon="11.1356535" />
      <trkpt lat="46.0652385" lon="11.1356027" />
      <trkpt lat="46.0651792" lon="11.1354971" />
      <trkpt lat="46.0651491" lon="11.1354441" />
      <trkpt lat="46.0651259" lon="11.1346992" />
      <trkpt lat="46.0650982" lon="11.1341219" />
      <trkpt lat="46.0651025" lon="11.1338275" />
      <trkpt lat="46.0649998" lon="11.1337920" />
      <trkpt lat="46.0649608" lon="11.1337839" />
      <trkpt lat="46.0647356" lon="11.1337309" />
      <trkpt lat="46.0645068" lon="11.1336580" />
      <trkpt lat="46.0644190" lon="11.1336144" />
      <trkpt lat="46.0643895" lon="11.1335130" />
      <trkpt lat="46.0643767" lon="11.1334448" />
      <trkpt lat="46.0642987" lon="11.1329674" />
      <trkpt lat="46.0642500" lon="11.1325546" />
      <trkpt lat="46.0642474" lon="11.1324358" />
      <trkpt lat="46.0642098" lon="11.1324359" />
      <trkpt lat="46.0638901" lon="11.1324306" />
      <trkpt lat="46.0638382" lon="11.1324298" />
      <trkpt lat="46.0638626" lon="11.1320031" />
      <trkpt lat="46.0638484" lon="11.1320139" />
      <trkpt lat="46.0637975" lon="11.1320525" />
      <trkpt lat="46.0634693" lon="11.1323461" />
      <trkpt lat="46.0634218" lon="11.1323743" />
      <trkpt lat="46.0633844" lon="11.1324021" />
      <trkpt lat="46.0632685" lon="11.1321426" />
      <trkpt lat="46.0631892" lon="11.1319648" />
      <trkpt lat="46.0631528" lon="11.1318831" />
      <trkpt lat="46.0631450" lon="11.1318657" />
      <trkpt lat="46.0631302" lon="11.1318327" />
      <trkpt lat="46.0630161" lon="11.1319521" />
      <trkpt lat="46.0628677" lon="11.1321075" />
      <trkpt lat="46.0627906" lon="11.1321275" />
      <trkpt lat="46.0627357" lon="11.1321396" />
      <trkpt lat="46.0626948" lon="11.1321424" />
      <trkpt lat="46.0626878" lon="11.1321316" />
      <trkpt lat="46.0626668" lon="11.1321108" />
      <trkpt lat="46.0626471" lon="11.1321025" />
      <trkpt lat="46.0626449" lon="11.1320628" />
      <trkpt lat="46.0626509" lon="11.1319813" />
      <trkpt lat="46.0626699" lon="11.1318863" />
      <trkpt lat="46.0626830" lon="11.1318353" />
      <trkpt lat="46.0628086" lon="11.1313352" />
      <trkpt lat="46.0628961" lon="11.1309224" />
      <trkpt lat="46.0629175" lon="11.1307925" />
      <trkpt lat="46.0628075" lon="11.1307325" />
      <trkpt lat="46.0627362" lon="11.1306650" />
      <trkpt lat="46.0626905" lon="11.1306028" />
      <trkpt lat="46.0626828" lon="11.1305923" />
      <trkpt lat="46.0626403" lon="11.1305285" />
      <trkpt lat="46.0626068" lon="11.1304781" />
      <trkpt lat="46.0622321" lon="11.1299316" />
      <trkpt lat="46.0618467" lon="11.1293461" />
      <trkpt lat="46.0617407" lon="11.1291851" />
      <trkpt lat="46.0616855" lon="11.1291085" />
      <trkpt lat="46.0616147" lon="11.1290083" />
      <trkpt lat="46.0612460" lon="11.1284667" />
      <trkpt lat="46.0611383" lon="11.1283061" />
      <trkpt lat="46.0610358" lon="11.1281559" />
      <trkpt lat="46.0608540" lon="11.1278797" />
      <trkpt lat="46.0608338" lon="11.1278450" />
      <trkpt lat="46.0607035" lon="11.1275885" />
      <trkpt lat="46.0606403" lon="11.1274586" />
      <trkpt lat="46.0605991" lon="11.1273680" />
      <trkpt lat="46.0605746" lon="11.1273141" />
      <trkpt lat="46.0604676" lon="11.1271101" />
      <trkpt lat="46.0603084" lon="11.1268068" />
      <trkpt lat="46.0599707" lon="11.1261632" />
      <trkpt lat="46.0599316" lon="11.1260886" />
      <trkpt lat="46.0598923" lon="11.1261281" />
      <trkpt lat="46.0598756" lon="11.1261366" />
      <trkpt lat="46.0598530" lon="11.1261431" />
      <trkpt lat="46.0598346" lon="11.1261571" />
      <trkpt lat="46.0597796" lon="11.1260448" />
      <trkpt lat="46.0597525" lon="11.1259894" />
      <trkpt lat="46.0597414" lon="11.1259833" />
      <trkpt lat="46.0597213" lon="11.1259797" />
      <trkpt lat="46.0596946" lon="11.1259771" />
      <trkpt lat="46.0596578" lon="11.1259726" />
      <trkpt lat="46.0596638" lon="11.1258553" />
      <trkpt lat="46.0596547" lon="11.1258106" />
      <trkpt lat="46.0590867" lon="11.1250221" />
      <trkpt lat="46.0590506" lon="11.1249716" />
      <trkpt lat="46.0590371" lon="11.1249561" />
      <trkpt lat="46.0590239" lon="11.1249522" />
      <trkpt lat="46.0589026" lon="11.1250374" />
      <trkpt lat="46.0588741" lon="11.1250093" />
      <trkpt lat="46.0588271" lon="11.1249646" />
      <trkpt lat="46.0587569" lon="11.1245876" />
      <trkpt lat="46.0587443" lon="11.1245194" />
      <trkpt lat="46.0583531" lon="11.1246930" />
      <trkpt lat="46.0580170" lon="11.1254037" />
      <trkpt lat="46.0580007" lon="11.1254332" />
      <trkpt lat="46.0579717" lon="11.1254582" />
      <trkpt lat="46.0579381" lon="11.1254483" />
      <trkpt lat="46.0579242" lon="11.1254347" />
      <trkpt lat="46.0578914" lon="11.1254026" />
      <trkpt lat="46.0574709" lon="11.1249022" />
      <trkpt lat="46.0573389" lon="11.1248107" />
      <trkpt lat="46.0570846" lon="11.1246008" />
      <trkpt lat="46.0569185" lon="11.1244796" />
      <trkpt lat="46.0568209" lon="11.1244330" />
      <trkpt lat="46.0564506" lon="11.1241947" />
      <trkpt lat="46.0563904" lon="11.1241514" />
      <trkpt lat="46.0561997" lon="11.1240249" />
      <trkpt lat="46.0560826" lon="11.1239403" />
      <trkpt lat="46.0559281" lon="11.1238274" />
      <trkpt lat="46.0551930" lon="11.1232906" />
      <trkpt lat="46.0550325" lon="11.1231434" />
      <trkpt lat="46.0550216" lon="11.1229602" />
      <trkpt lat="46.0549978" lon="11.1226613" />
      <trkpt lat="46.0549784" lon="11.1224167" />
      <trkpt lat="46.0550034" lon="11.1224092" />
      <trkpt lat="46.0554659" lon="11.1223205" />
      <trkpt lat="46.0555884" lon="11.1223038" />
      <trkpt lat="46.0558950" lon="11.1222571" />
      <trkpt lat="46.0558941" lon="11.1222222" />
      <trkpt lat="46.0559202" lon="11.1222157" />
      <trkpt lat="46.0559737" lon="11.1222044" />
      <trkpt lat="46.0559815" lon="11.1220241" />
      <trkpt lat="46.0559612" lon="11.1217327" />
      <trkpt lat="46.0559033" lon="11.1217103" />
      <trkpt lat="46.0558768" lon="11.1213568" />
      <trkpt lat="46.0560896" lon="11.1213268" />
      <trkpt lat="46.0561376" lon="11.1213126" />
      <trkpt lat="46.0561267" lon="11.1212571" />
      <trkpt lat="46.0560664" lon="11.1209508" />
      <trkpt lat="46.0560407" lon="11.1208203" />
      <trkpt lat="46.0559397" lon="11.1203072" />
      <trkpt lat="46.0559327" lon="11.1202716" />
      <trkpt lat="46.0559296" lon="11.1202557" />
      <trkpt lat="46.0559671" lon="11.1202417" />
      <trkpt lat="46.0559610" lon="11.1202056" />
      <trkpt lat="46.0559610" lon="11.1201866" />
      <trkpt lat="46.0559641" lon="11.1201721" />
      <trkpt lat="46.0559776" lon="11.1201611" />
      <trkpt lat="46.0559918" lon="11.1201558" />
      <trkpt lat="46.0561027" lon="11.1201269" />
      <trkpt lat="46.0562096" lon="11.1200819" />
      <trkpt lat="46.0562987" lon="11.1200155" />
      <trkpt lat="46.0563700" lon="11.1199545" />
      <trkpt lat="46.0565401" lon="11.1198034" />
      <trkpt lat="46.0565655" lon="11.1197852" />
      <trkpt lat="46.0566134" lon="11.1200016" />
      <trkpt lat="46.0568295" lon="11.1199433" />
      <trkpt lat="46.0571362" lon="11.1198341" />
      <trkpt lat="46.0572027" lon="11.1198102" />
      <trkpt lat="46.0572398" lon="11.1197669" />
      <trkpt lat="46.0573338" lon="11.1197233" />
      <trkpt lat="46.0573449" lon="11.1197192" />
      <trkpt lat="46.0575885" lon="11.1196225" />
      <trkpt lat="46.0576636" lon="11.1196851" />
      <trkpt lat="46.0577849" lon="11.1196381" />
      <trkpt lat="46.0578301" lon="11.1196202" />
      <trkpt lat="46.0579095" lon="11.1195900" />
      <trkpt lat="46.0579310" lon="11.1195295" />
      <trkpt lat="46.0579520" lon="11.1194712" />
      <trkpt lat="46.0579751" lon="11.1194141" />
      <trkpt lat="46.0580289" lon="11.1193886" />
      <trkpt lat="46.0580123" lon="11.1193000" />
      <trkpt lat="46.0585086" lon="11.1191069" />
      <trkpt lat="46.0587263" lon="11.1190237" />
      <trkpt lat="46.0587439" lon="11.1190117" />
      <trkpt lat="46.0587557" lon="11.1189958" />
      <trkpt lat="46.0587640" lon="11.1189806" />
      <trkpt lat="46.0587747" lon="11.1189530" />
      <trkpt lat="46.0587799" lon="11.1189305" />
      <trkpt lat="46.0587823" lon="11.1188985" />
      <trkpt lat="46.0587817" lon="11.1188735" />
      <trkpt lat="46.0587801" lon="11.1188571" />
      <trkpt lat="46.0587843" lon="11.1188424" />
      <trkpt lat="46.0587989" lon="11.1188321" />
      <trkpt lat="46.0588162" lon="11.1188260" />
      <trkpt lat="46.0588447" lon="11.1188180" />
      <trkpt lat="46.0588661" lon="11.1188079" />
      <trkpt lat="46.0588731" lon="11.1188006" />
      <trkpt lat="46.0588776" lon="11.1187888" />
      <trkpt lat="46.0588847" lon="11.1187594" />
      <trkpt lat="46.0588981" lon="11.1187034" />
      <trkpt lat="46.0589314" lon="11.1187191" />
      <trkpt lat="46.0589295" lon="11.1186394" />
      <trkpt lat="46.0588698" lon="11.1177998" />
      <trkpt lat="46.0586376" lon="11.1178342" />
      <trkpt lat="46.0586472" lon="11.1179341" />
      <trkpt lat="46.0586687" lon="11.1179403" />
      <trkpt lat="46.0586877" lon="11.1179560" />
      <trkpt lat="46.0587023" lon="11.1179796" />
      <trkpt lat="46.0587109" lon="11.1180086" />
      <trkpt lat="46.0587126" lon="11.1180401" />
      <trkpt lat="46.0587073" lon="11.1180708" />
      <trkpt lat="46.0586955" lon="11.1180974" />
      <trkpt lat="46.0586785" lon="11.1181172" />
      <trkpt lat="46.0586579" lon="11.1181282" />
      <trkpt lat="46.0587118" lon="11.1182712" />
      <trkpt lat="46.0587770" lon="11.1184070" />
      <trkpt lat="46.0589295" lon="11.1186394" />
      <trkpt lat="46.0589314" lon="11.1187191" />
      <trkpt lat="46.0590468" lon="11.1187740" />
      <trkpt lat="46.0591151" lon="11.1188208" />
      <trkpt lat="46.0594535" lon="11.1189407" />
      <trkpt lat="46.0595069" lon="11.1189487" />
      <trkpt lat="46.0595379" lon="11.1189496" />
      <trkpt lat="46.0595686" lon="11.1189463" />
      <trkpt lat="46.0595955" lon="11.1189419" />
      <trkpt lat="46.0596156" lon="11.1189352" />
      <trkpt lat="46.0596311" lon="11.1189300" />
      <trkpt lat="46.0596616" lon="11.1189111" />
      <trkpt lat="46.0596874" lon="11.1188861" />
      <trkpt lat="46.0597131" lon="11.1188336" />
      <trkpt lat="46.0597443" lon="11.1187786" />
      <trkpt lat="46.0597807" lon="11.1187380" />
      <trkpt lat="46.0598419" lon="11.1187024" />
      <trkpt lat="46.0598790" lon="11.1186719" />
      <trkpt lat="46.0598898" lon="11.1186566" />
      <trkpt lat="46.0599034" lon="11.1186373" />
      <trkpt lat="46.0599183" lon="11.1185811" />
      <trkpt lat="46.0599230" lon="11.1185401" />
      <trkpt lat="46.0598831" lon="11.1177082" />
      <trkpt lat="46.0598661" lon="11.1175765" />
      <trkpt lat="46.0597721" lon="11.1168495" />
      <trkpt lat="46.0597506" lon="11.1166640" />
      <trkpt lat="46.0597404" lon="11.1165261" />
      <trkpt lat="46.0597234" lon="11.1162671" />
      <trkpt lat="46.0597149" lon="11.1161927" />
      <trkpt lat="46.0597036" lon="11.1161407" />
      <trkpt lat="46.0596863" lon="11.1160996" />
      <trkpt lat="46.0596660" lon="11.1160623" />
      <trkpt lat="46.0596417" lon="11.1160436" />
      <trkpt lat="46.0596135" lon="11.1160344" />
      <trkpt lat="46.0596214" lon="11.1159799" />
      <trkpt lat="46.0596232" lon="11.1159672" />
      <trkpt lat="46.0596283" lon="11.1159318" />
      <trkpt lat="46.0597376" lon="11.1159531" />
      <trkpt lat="46.0597326" lon="11.1158616" />
      <trkpt lat="46.0597185" lon="11.1156524" />
      <trkpt lat="46.0597100" lon="11.1155269" />
      <trkpt lat="46.0597002" lon="11.1153866" />
      <trkpt lat="46.0597216" lon="11.1153799" />
      <trkpt lat="46.0597991" lon="11.1153547" />
      <trkpt lat="46.0598919" lon="11.1153242" />
      <trkpt lat="46.0600033" lon="11.1152839" />
      <trkpt lat="46.0601080" lon="11.1152423" />
      <trkpt lat="46.0601871" lon="11.1152110" />
      <trkpt lat="46.0603059" lon="11.1151624" />
      <trkpt lat="46.0604870" lon="11.1150810" />
      <trkpt lat="46.0606809" lon="11.1149901" />
      <trkpt lat="46.0611626" lon="11.1147379" />
      <trkpt lat="46.0614463" lon="11.1145601" />
      <trkpt lat="46.0617163" lon="11.1143786" />
      <trkpt lat="46.0622475" lon="11.1139712" />
      <trkpt lat="46.0623061" lon="11.1139333" />
      <trkpt lat="46.0622819" lon="11.1135872" />
      <trkpt lat="46.0622626" lon="11.1132770" />
      <trkpt lat="46.0622883" lon="11.1131807" />
      <trkpt lat="46.0622972" lon="11.1131488" />
      <trkpt lat="46.0623127" lon="11.1130601" />
      <trkpt lat="46.0623217" lon="11.1130495" />
      <trkpt lat="46.0624224" lon="11.1129664" />
      <trkpt lat="46.0625094" lon="11.1129367" />
      <trkpt lat="46.0625526" lon="11.1129237" />
      <trkpt lat="46.0628109" lon="11.1129723" />
      <trkpt lat="46.0631222" lon="11.1130525" />
      <trkpt lat="46.0633193" lon="11.1131060" />
      <trkpt lat="46.0633313" lon="11.1130252" />
      <trkpt lat="46.0629606" lon="11.1129202" />
      <trkpt lat="46.0627771" lon="11.1128789" />
      <trkpt lat="46.0625249" lon="11.1128273" />
      <trkpt lat="46.0623869" lon="11.1127798" />
      <trkpt lat="46.0623154" lon="11.1127240" />
      <trkpt lat="46.0622689" lon="11.1127093" />
      <trkpt lat="46.0622220" lon="11.1127150" />
      <trkpt lat="46.0621320" lon="11.1127376" />
      <trkpt lat="46.0620877" lon="11.1127329" />
      <trkpt lat="46.0619645" lon="11.1127245" />
      <trkpt lat="46.0613534" lon="11.1126473" />
      <trkpt lat="46.0610423" lon="11.1126297" />
      <trkpt lat="46.0610109" lon="11.1126279" />
      <trkpt lat="46.0609887" lon="11.1122398" />
      <trkpt lat="46.0604874" lon="11.1122210" />
      <trkpt lat="46.0599813" lon="11.1121852" />
      <trkpt lat="46.0595430" lon="11.1121682" />
      <trkpt lat="46.0594812" lon="11.1121658" />
      <trkpt lat="46.0594804" lon="11.1121372" />
      <trkpt lat="46.0593801" lon="11.1106811" />
      <trkpt lat="46.0593786" lon="11.1106518" />
      <trkpt lat="46.0600307" lon="11.1107022" />
      <trkpt lat="46.0606705" lon="11.1107908" />
      <trkpt lat="46.0611232" lon="11.1108706" />
      <trkpt lat="46.0614099" lon="11.1109141" />
      <trkpt lat="46.0616625" lon="11.1109625" />
      <trkpt lat="46.0618733" lon="11.1109959" />
      <trkpt lat="46.0619551" lon="11.1109905" />
      <trkpt lat="46.0620459" lon="11.1109974" />
      <trkpt lat="46.0623999" lon="11.1110614" />
      <trkpt lat="46.0625659" lon="11.1110885" />
      <trkpt lat="46.0627373" lon="11.1111248" />
      <trkpt lat="46.0632642" lon="11.1112501" />
      <trkpt lat="46.0637341" lon="11.1113826" />
      <trkpt lat="46.0645481" lon="11.1116363" />
      <trkpt lat="46.0650129" lon="11.1118153" />
      <trkpt lat="46.0654497" lon="11.1120193" />
      <trkpt lat="46.0657475" lon="11.1121655" />
      <trkpt lat="46.0659448" lon="11.1122803" />
      <trkpt lat="46.0660642" lon="11.1123444" />
      <trkpt lat="46.0665617" lon="11.1125893" />
      <trkpt lat="46.0669326" lon="11.1127701" />
      <trkpt lat="46.0673455" lon="11.1129810" />
      <trkpt lat="46.0673536" lon="11.1129461" />
      <trkpt lat="46.0673664" lon="11.1128912" />
      <trkpt lat="46.0673965" lon="11.1127666" />
      <trkpt lat="46.0674173" lon="11.1126773" />
      <trkpt lat="46.0677458" lon="11.1128518" />
      <trkpt lat="46.0681008" lon="11.1130216" />
      <trkpt lat="46.0681564" lon="11.1131184" />
      <trkpt lat="46.0683898" lon="11.1132111" />
      <trkpt lat="46.0685063" lon="11.1132629" />
      <trkpt lat="46.0685193" lon="11.1132700" />
      <trkpt lat="46.0686253" lon="11.1133238" />
      <trkpt lat="46.0687718" lon="11.1133981" />
      <trkpt lat="46.0688616" lon="11.1134384" />
      <trkpt lat="46.0689402" lon="11.1134705" />
      <trkpt lat="46.0691420" lon="11.1135756" />
      <trkpt lat="46.0691549" lon="11.1135817" />
      <trkpt lat="46.0691468" lon="11.1136799" />
      <trkpt lat="46.0693007" lon="11.1137442" />
      <trkpt lat="46.0696782" lon="11.1139041" />
      <trkpt lat="46.0701155" lon="11.1140684" />
      <trkpt lat="46.0701523" lon="11.1141049" />
      <trkpt lat="46.0701826" lon="11.1141474" />
      <trkpt lat="46.0702081" lon="11.1141791" />
      <trkpt lat="46.0702496" lon="11.1142305" />
      <trkpt lat="46.0702601" lon="11.1142675" />
      <trkpt lat="46.0702759" lon="11.1143004" />
      <trkpt lat="46.0702908" lon="11.1143216" />
      <trkpt lat="46.0703189" lon="11.1143466" />
      <trkpt lat="46.0703042" lon="11.1144007" />
      <trkpt lat="46.0702894" lon="11.1144548" />
      <trkpt lat="46.0702850" lon="11.1144689" />
      <trkpt lat="46.0699501" lon="11.1157186" />
      <trkpt lat="46.0699441" lon="11.1157384" />
      <trkpt lat="46.0699315" lon="11.1157840" />
      <trkpt lat="46.0699129" lon="11.1158460" />
      <trkpt lat="46.0698912" lon="11.1158337" />
      <trkpt lat="46.0698682" lon="11.1158283" />
      <trkpt lat="46.0698449" lon="11.1158302" />
      <trkpt lat="46.0698225" lon="11.1158391" />
      <trkpt lat="46.0698019" lon="11.1158547" />
      <trkpt lat="46.0697840" lon="11.1158762" />
      <trkpt lat="46.0697648" lon="11.1159157" />
      <trkpt lat="46.0697548" lon="11.1159617" />
      <trkpt lat="46.0697550" lon="11.1160100" />
      <trkpt lat="46.0697653" lon="11.1160559" />
      <trkpt lat="46.0697849" lon="11.1160950" />
      <trkpt lat="46.0698129" lon="11.1161246" />
      <trkpt lat="46.0698409" lon="11.1161387" />
      <trkpt lat="46.0698704" lon="11.1161414" />
      <trkpt lat="46.0698994" lon="11.1161325" />
      <trkpt lat="46.0699212" lon="11.1162051" />
      <trkpt lat="46.0699340" lon="11.1162470" />
      <trkpt lat="46.0699528" lon="11.1163120" />
      <trkpt lat="46.0699884" lon="11.1163713" />
      <trkpt lat="46.0700188" lon="11.1164205" />
      <trkpt lat="46.0700665" lon="11.1164971" />
      <trkpt lat="46.0702298" lon="11.1167781" />
      <trkpt lat="46.0702582" lon="11.1168550" />
      <trkpt lat="46.0702803" lon="11.1169644" />
      <trkpt lat="46.0702892" lon="11.1170275" />
      <trkpt lat="46.0702866" lon="11.1170930" />
      <trkpt lat="46.0702731" lon="11.1171733" />
      <trkpt lat="46.0702622" lon="11.1172137" />
      <trkpt lat="46.0702231" lon="11.1173338" />
      <trkpt lat="46.0701389" lon="11.1175981" />
      <trkpt lat="46.0701287" lon="11.1176322" />
      <trkpt lat="46.0701003" lon="11.1177242" />
      <trkpt lat="46.0700910" lon="11.1177577" />
      <trkpt lat="46.0700837" lon="11.1177935" />
      <trkpt lat="46.0700784" lon="11.1178409" />
      <trkpt lat="46.0700778" lon="11.1178898" />
      <trkpt lat="46.0700791" lon="11.1179498" />
      <trkpt lat="46.0700875" lon="11.1180034" />
      <trkpt lat="46.0703436" lon="11.1188909" />
      <trkpt lat="46.0704435" lon="11.1192512" />
      <trkpt lat="46.0704495" lon="11.1192728" />
      <trkpt lat="46.0704502" lon="11.1193870" />
      <trkpt lat="46.0704411" lon="11.1194760" />
      <trkpt lat="46.0704113" lon="11.1195552" />
      <trkpt lat="46.0703734" lon="11.1196280" />
      <trkpt lat="46.0703036" lon="11.1196321" />
      <trkpt lat="46.0702509" lon="11.1196352" />
      <trkpt lat="46.0700798" lon="11.1196620" />
      <trkpt lat="46.0700859" lon="11.1197410" />
      <trkpt lat="46.0700021" lon="11.1197557" />
      <trkpt lat="46.0697429" lon="11.1198297" />
      <trkpt lat="46.0695223" lon="11.1198626" />
      <trkpt lat="46.0694859" lon="11.1198744" />
      <trkpt lat="46.0692457" lon="11.1199586" />
      <trkpt lat="46.0691810" lon="11.1199795" />
      <trkpt lat="46.0691309" lon="11.1199889" />
      <trkpt lat="46.0688366" lon="11.1200195" />
      <trkpt lat="46.0686910" lon="11.1200385" />
      <trkpt lat="46.0685313" lon="11.1200706" />
      <trkpt lat="46.0684640" lon="11.1201043" />
      <trkpt lat="46.0683737" lon="11.1202017" />
      <trkpt lat="46.0681188" lon="11.1205421" />
      <trkpt lat="46.0680409" lon="11.1206138" />
      <trkpt lat="46.0679973" lon="11.1206539" />
      <trkpt lat="46.0678601" lon="11.1207795" />
      <trkpt lat="46.0677434" lon="11.1208522" />
      <trkpt lat="46.0676905" lon="11.1209010" />
      <trkpt lat="46.0676632" lon="11.1209262" />
      <trkpt lat="46.0676310" lon="11.1210295" />
      <trkpt lat="46.0676530" lon="11.1212477" />
      <trkpt lat="46.0675238" lon="11.1212683" />
      <trkpt lat="46.0673001" lon="11.1213049" />
      <trkpt lat="46.0670542" lon="11.1211241" />
      <trkpt lat="46.0670408" lon="11.1210278" />
      <trkpt lat="46.0669975" lon="11.1210365" />
      <trkpt lat="46.0668711" lon="11.1210492" />
      <trkpt lat="46.0667705" lon="11.1210629" />
      <trkpt lat="46.0667526" lon="11.1210542" />
      <trkpt lat="46.0667024" lon="11.1213629" />
      <trkpt lat="46.0666701" lon="11.1215352" />
      <trkpt lat="46.0666789" lon="11.1217092" />
      <trkpt lat="46.0666523" lon="11.1217176" />
      <trkpt lat="46.0665604" lon="11.1217424" />
      <trkpt lat="46.0665308" lon="11.1217471" />
      <trkpt lat="46.0665163" lon="11.1214025" />
      <trkpt lat="46.0665295" lon="11.1213821" />
      <trkpt lat="46.0665626" lon="11.1213706" />
      <trkpt lat="46.0666368" lon="11.1213644" />
      <trkpt lat="46.0667024" lon="11.1213629" />
      <trkpt lat="46.0667526" lon="11.1210542" />
      <trkpt lat="46.0667705" lon="11.1210629" />
      <trkpt lat="46.0668711" lon="11.1210492" />
    </trkseg>
  </trk>
</gpx>
