<?xml version="1.0" encoding="UTF-8"?>
<gpx xmlns="http://www.topografix.com/GPX/1/1" version="1.1" creator="ShapeRoute route-engine">
  <metadata>
    <name>fish 15 km · 2026-09-24</name>
    <author>
      <name>ShapeRoute route-engine</name>
    </author>
    <copyright author="OpenStreetMap contributors">
      <license>https://opendatacommons.org/licenses/odbl/1-0/</license>
    </copyright>
    <link href="https://www.openstreetmap.org/copyright">
      <text>© OpenStreetMap contributors</text>
    </link>
    <time>2026-09-24T07:50:10Z</time>
  </metadata>
  <trk>
    <name>fish 15 km · 2026-09-24</name>
    <trkseg>
      <trkpt lat="45.4643695" lon="9.1897716" />
      <trkpt lat="45.4644313" lon="9.1898582" />
      <trkpt lat="45.4644741" lon="9.1898729" />
      <trkpt lat="45.4645044" lon="9.1898425" />
      <trkpt lat="45.4645471" lon="9.1898437" />
      <trkpt lat="45.4645547" lon="9.1898439" />
      <trkpt lat="45.4645553" lon="9.1897951" />
      <trkpt lat="45.4645576" lon="9.1896132" />
      <trkpt lat="45.4645579" lon="9.1895821" />
      <trkpt lat="45.4645542" lon="9.1895730" />
      <trkpt lat="45.4645546" lon="9.1895295" />
      <trkpt lat="45.4645546" lon="9.1895206" />
      <trkpt lat="45.4645550" lon="9.1894793" />
      <trkpt lat="45.4645550" lon="9.1894735" />
      <trkpt lat="45.4645554" lon="9.1894275" />
      <trkpt lat="45.4645594" lon="9.1894058" />
      <trkpt lat="45.4646497" lon="9.1893463" />
      <trkpt lat="45.4646499" lon="9.1893273" />
      <trkpt lat="45.4646537" lon="9.1891261" />
      <trkpt lat="45.4647267" lon="9.1892186" />
      <trkpt lat="45.4647267" lon="9.1892868" />
      <trkpt lat="45.4648485" lon="9.1892874" />
      <trkpt lat="45.4648555" lon="9.1892875" />
      <trkpt lat="45.4648556" lon="9.1893038" />
      <trkpt lat="45.4648237" lon="9.1893034" />
      <trkpt lat="45.4648240" lon="9.1892517" />
      <trkpt lat="45.4648238" lon="9.1892115" />
      <trkpt lat="45.4648231" lon="9.1890382" />
      <trkpt lat="45.4648219" lon="9.1887820" />
      <trkpt lat="45.4648240" lon="9.1886223" />
      <trkpt lat="45.4648244" lon="9.1886045" />
      <trkpt lat="45.4648243" lon="9.1885985" />
      <trkpt lat="45.4648234" lon="9.1885464" />
      <trkpt lat="45.4648227" lon="9.1885082" />
      <trkpt lat="45.4648226" lon="9.1884992" />
      <trkpt lat="45.4648224" lon="9.1884900" />
      <trkpt lat="45.4649441" lon="9.1884897" />
      <trkpt lat="45.4649736" lon="9.1884896" />
      <trkpt lat="45.4649862" lon="9.1884824" />
      <trkpt lat="45.4650372" lon="9.1884580" />
      <trkpt lat="45.4650375" lon="9.1883531" />
      <trkpt lat="45.4652256" lon="9.1878892" />
      <trkpt lat="45.4652301" lon="9.1878781" />
      <trkpt lat="45.4652387" lon="9.1878617" />
      <trkpt lat="45.4652737" lon="9.1877942" />
      <trkpt lat="45.4652608" lon="9.1877864" />
      <trkpt lat="45.4652806" lon="9.1877345" />
      <trkpt lat="45.4653367" lon="9.1875870" />
      <trkpt lat="45.4653341" lon="9.1875646" />
      <trkpt lat="45.4652064" lon="9.1874537" />
      <trkpt lat="45.4651971" lon="9.1874440" />
      <trkpt lat="45.4652016" lon="9.1874331" />
      <trkpt lat="45.4654268" lon="9.1868635" />
      <trkpt lat="45.4654399" lon="9.1868401" />
      <trkpt lat="45.4654799" lon="9.1866298" />
      <trkpt lat="45.4655004" lon="9.1865226" />
      <trkpt lat="45.4655071" lon="9.1865012" />
      <trkpt lat="45.4655137" lon="9.1864804" />
      <trkpt lat="45.4655195" lon="9.1864618" />
      <trkpt lat="45.4655230" lon="9.1864508" />
      <trkpt lat="45.4655252" lon="9.1864441" />
      <trkpt lat="45.4655289" lon="9.1864322" />
      <trkpt lat="45.4655381" lon="9.1864031" />
      <trkpt lat="45.4655448" lon="9.1863819" />
      <trkpt lat="45.4655539" lon="9.1863613" />
      <trkpt lat="45.4655960" lon="9.1862778" />
      <trkpt lat="45.4656195" lon="9.1861981" />
      <trkpt lat="45.4656808" lon="9.1860254" />
      <trkpt lat="45.4658239" lon="9.1855988" />
      <trkpt lat="45.4659774" lon="9.1853828" />
      <trkpt lat="45.4659807" lon="9.1853788" />
      <trkpt lat="45.4659985" lon="9.1853571" />
      <trkpt lat="45.4660336" lon="9.1853143" />
      <trkpt lat="45.4660437" lon="9.1853020" />
      <trkpt lat="45.4661005" lon="9.1852088" />
      <trkpt lat="45.4664320" lon="9.1847326" />
      <trkpt lat="45.4664515" lon="9.1847066" />
      <trkpt lat="45.4664854" lon="9.1846614" />
      <trkpt lat="45.4669936" lon="9.1839840" />
      <trkpt lat="45.4670198" lon="9.1839490" />
      <trkpt lat="45.4670465" lon="9.1839144" />
      <trkpt lat="45.4678538" lon="9.1828665" />
      <trkpt lat="45.4678251" lon="9.1828236" />
      <trkpt lat="45.4678716" lon="9.1827646" />
      <trkpt lat="45.4679425" lon="9.1826703" />
      <trkpt lat="45.4679524" lon="9.1826584" />
      <trkpt lat="45.4679381" lon="9.1826311" />
      <trkpt lat="45.4679216" lon="9.1825962" />
      <trkpt lat="45.4678584" lon="9.1824440" />
      <trkpt lat="45.4678384" lon="9.1824094" />
      <trkpt lat="45.4678315" lon="9.1823941" />
      <trkpt lat="45.4678224" lon="9.1823649" />
      <trkpt lat="45.4678121" lon="9.1823303" />
      <trkpt lat="45.4678173" lon="9.1823272" />
      <trkpt lat="45.4678406" lon="9.1823139" />
      <trkpt lat="45.4677847" lon="9.1820901" />
      <trkpt lat="45.4677825" lon="9.1819998" />
      <trkpt lat="45.4677822" lon="9.1819613" />
      <trkpt lat="45.4677816" lon="9.1819337" />
      <trkpt lat="45.4677821" lon="9.1819006" />
      <trkpt lat="45.4677840" lon="9.1818855" />
      <trkpt lat="45.4678572" lon="9.1818223" />
      <trkpt lat="45.4678256" lon="9.1816872" />
      <trkpt lat="45.4677789" lon="9.1814917" />
      <trkpt lat="45.4677646" lon="9.1814412" />
      <trkpt lat="45.4677536" lon="9.1814024" />
      <trkpt lat="45.4677499" lon="9.1813890" />
      <trkpt lat="45.4677416" lon="9.1813596" />
      <trkpt lat="45.4677352" lon="9.1813371" />
      <trkpt lat="45.4677262" lon="9.1813052" />
      <trkpt lat="45.4677025" lon="9.1811988" />
      <trkpt lat="45.4676598" lon="9.1810091" />
      <trkpt lat="45.4675708" lon="9.1805372" />
      <trkpt lat="45.4675504" lon="9.1802865" />
      <trkpt lat="45.4674826" lon="9.1797369" />
      <trkpt lat="45.4674651" lon="9.1795651" />
      <trkpt lat="45.4672438" lon="9.1802497" />
      <trkpt lat="45.4668807" lon="9.1813475" />
      <trkpt lat="45.4668571" lon="9.1813256" />
      <trkpt lat="45.4668166" lon="9.1812879" />
      <trkpt lat="45.4667462" lon="9.1812225" />
      <trkpt lat="45.4660628" lon="9.1805998" />
      <trkpt lat="45.4660573" lon="9.1805965" />
      <trkpt lat="45.4660122" lon="9.1805691" />
      <trkpt lat="45.4659966" lon="9.1805597" />
      <trkpt lat="45.4659914" lon="9.1805565" />
      <trkpt lat="45.4657699" lon="9.1804120" />
      <trkpt lat="45.4657692" lon="9.1804161" />
      <trkpt lat="45.4657592" lon="9.1804735" />
      <trkpt lat="45.4657587" lon="9.1804765" />
      <trkpt lat="45.4657583" lon="9.1804788" />
      <trkpt lat="45.4657497" lon="9.1805326" />
      <trkpt lat="45.4657493" lon="9.1805348" />
      <trkpt lat="45.4657240" lon="9.1805148" />
      <trkpt lat="45.4656749" lon="9.1806562" />
      <trkpt lat="45.4656896" lon="9.1808499" />
      <trkpt lat="45.4656851" lon="9.1808506" />
      <trkpt lat="45.4656695" lon="9.1808531" />
      <trkpt lat="45.4656601" lon="9.1808546" />
      <trkpt lat="45.4656462" lon="9.1808566" />
      <trkpt lat="45.4656257" lon="9.1808602" />
      <trkpt lat="45.4656154" lon="9.1808619" />
      <trkpt lat="45.4656067" lon="9.1808546" />
      <trkpt lat="45.4655918" lon="9.1808407" />
      <trkpt lat="45.4655382" lon="9.1808672" />
      <trkpt lat="45.4651821" lon="9.1814448" />
      <trkpt lat="45.4653695" lon="9.1816803" />
      <trkpt lat="45.4653057" lon="9.1817958" />
      <trkpt lat="45.4652338" lon="9.1821376" />
      <trkpt lat="45.4652497" lon="9.1821501" />
      <trkpt lat="45.4654946" lon="9.1822389" />
      <trkpt lat="45.4655823" lon="9.1822592" />
      <trkpt lat="45.4657003" lon="9.1822724" />
      <trkpt lat="45.4657003" lon="9.1822755" />
      <trkpt lat="45.4657000" lon="9.1823010" />
      <trkpt lat="45.4656998" lon="9.1823256" />
      <trkpt lat="45.4656998" lon="9.1823278" />
      <trkpt lat="45.4657081" lon="9.1823799" />
      <trkpt lat="45.4658210" lon="9.1837096" />
      <trkpt lat="45.4658225" lon="9.1837268" />
      <trkpt lat="45.4658317" lon="9.1837248" />
      <trkpt lat="45.4658550" lon="9.1837199" />
      <trkpt lat="45.4658729" lon="9.1837161" />
      <trkpt lat="45.4658812" lon="9.1837141" />
      <trkpt lat="45.4658912" lon="9.1837122" />
      <trkpt lat="45.4659030" lon="9.1837088" />
      <trkpt lat="45.4659093" lon="9.1838385" />
      <trkpt lat="45.4660125" lon="9.1848343" />
      <trkpt lat="45.4660132" lon="9.1848628" />
      <trkpt lat="45.4660309" lon="9.1849943" />
      <trkpt lat="45.4660395" lon="9.1851480" />
      <trkpt lat="45.4660437" lon="9.1853020" />
      <trkpt lat="45.4660477" lon="9.1853952" />
      <trkpt lat="45.4661184" lon="9.1861902" />
      <trkpt lat="45.4661014" lon="9.1861961" />
      <trkpt lat="45.4660612" lon="9.1862102" />
      <trkpt lat="45.4660652" lon="9.1862647" />
      <trkpt lat="45.4660668" lon="9.1862834" />
      <trkpt lat="45.4660687" lon="9.1863016" />
      <trkpt lat="45.4660758" lon="9.1863653" />
      <trkpt lat="45.4662197" lon="9.1875453" />
      <trkpt lat="45.4662302" lon="9.1876319" />
      <trkpt lat="45.4658801" lon="9.1882285" />
      <trkpt lat="45.4659024" lon="9.1882533" />
      <trkpt lat="45.4659090" lon="9.1882607" />
      <trkpt lat="45.4659006" lon="9.1882982" />
      <trkpt lat="45.4661188" lon="9.1884832" />
      <trkpt lat="45.4662907" lon="9.1886290" />
      <trkpt lat="45.4664078" lon="9.1887379" />
      <trkpt lat="45.4665340" lon="9.1888508" />
      <trkpt lat="45.4665553" lon="9.1888698" />
      <trkpt lat="45.4665607" lon="9.1888747" />
      <trkpt lat="45.4665703" lon="9.1888832" />
      <trkpt lat="45.4667690" lon="9.1885830" />
      <trkpt lat="45.4667753" lon="9.1885749" />
      <trkpt lat="45.4667851" lon="9.1885624" />
      <trkpt lat="45.4668392" lon="9.1886319" />
      <trkpt lat="45.4668748" lon="9.1886773" />
      <trkpt lat="45.4670179" lon="9.1887546" />
      <trkpt lat="45.4671525" lon="9.1889168" />
      <trkpt lat="45.4671777" lon="9.1888669" />
      <trkpt lat="45.4671799" lon="9.1888626" />
      <trkpt lat="45.4671939" lon="9.1888596" />
      <trkpt lat="45.4672070" lon="9.1888403" />
      <trkpt lat="45.4672243" lon="9.1888565" />
      <trkpt lat="45.4674238" lon="9.1884341" />
      <trkpt lat="45.4674597" lon="9.1883581" />
      <trkpt lat="45.4674794" lon="9.1883163" />
      <trkpt lat="45.4675011" lon="9.1882703" />
      <trkpt lat="45.4675101" lon="9.1882500" />
      <trkpt lat="45.4677814" lon="9.1876346" />
      <trkpt lat="45.4678057" lon="9.1875695" />
      <trkpt lat="45.4678372" lon="9.1874850" />
      <trkpt lat="45.4678478" lon="9.1874529" />
      <trkpt lat="45.4678573" lon="9.1874170" />
      <trkpt lat="45.4678899" lon="9.1872357" />
      <trkpt lat="45.4679316" lon="9.1872513" />
      <trkpt lat="45.4679493" lon="9.1872584" />
      <trkpt lat="45.4679713" lon="9.1872723" />
      <trkpt lat="45.4680975" lon="9.1873839" />
      <trkpt lat="45.4682486" lon="9.1875199" />
      <trkpt lat="45.4682927" lon="9.1873821" />
      <trkpt lat="45.4685486" lon="9.1866002" />
      <trkpt lat="45.4685626" lon="9.1865485" />
      <trkpt lat="45.4685653" lon="9.1864716" />
      <trkpt lat="45.4685660" lon="9.1864145" />
      <trkpt lat="45.4685548" lon="9.1861781" />
      <trkpt lat="45.4685551" lon="9.1858736" />
      <trkpt lat="45.4686101" lon="9.1855690" />
      <trkpt lat="45.4686243" lon="9.1855088" />
      <trkpt lat="45.4686492" lon="9.1854376" />
      <trkpt lat="45.4686547" lon="9.1854205" />
      <trkpt lat="45.4687257" lon="9.1854058" />
      <trkpt lat="45.4687761" lon="9.1853938" />
      <trkpt lat="45.4688107" lon="9.1853869" />
      <trkpt lat="45.4688362" lon="9.1853818" />
      <trkpt lat="45.4689165" lon="9.1853605" />
      <trkpt lat="45.4689166" lon="9.1853473" />
      <trkpt lat="45.4689176" lon="9.1852452" />
      <trkpt lat="45.4689185" lon="9.1851443" />
      <trkpt lat="45.4689328" lon="9.1851437" />
      <trkpt lat="45.4689506" lon="9.1851436" />
      <trkpt lat="45.4690075" lon="9.1851403" />
      <trkpt lat="45.4691438" lon="9.1851011" />
      <trkpt lat="45.4691857" lon="9.1850820" />
      <trkpt lat="45.4692261" lon="9.1850507" />
      <trkpt lat="45.4692650" lon="9.1850084" />
      <trkpt lat="45.4692781" lon="9.1849910" />
      <trkpt lat="45.4692862" lon="9.1850000" />
      <trkpt lat="45.4692911" lon="9.1850069" />
      <trkpt lat="45.4694314" lon="9.1848517" />
      <trkpt lat="45.4695947" lon="9.1845885" />
      <trkpt lat="45.4698860" lon="9.1841339" />
      <trkpt lat="45.4699705" lon="9.1840490" />
      <trkpt lat="45.4699629" lon="9.1840348" />
      <trkpt lat="45.4699349" lon="9.1839827" />
      <trkpt lat="45.4700095" lon="9.1838697" />
      <trkpt lat="45.4700177" lon="9.1836162" />
      <trkpt lat="45.4700196" lon="9.1835561" />
      <trkpt lat="45.4700210" lon="9.1835324" />
      <trkpt lat="45.4700219" lon="9.1835179" />
      <trkpt lat="45.4700293" lon="9.1833913" />
      <trkpt lat="45.4700301" lon="9.1833777" />
      <trkpt lat="45.4700309" lon="9.1833633" />
      <trkpt lat="45.4700317" lon="9.1833503" />
      <trkpt lat="45.4700327" lon="9.1833325" />
      <trkpt lat="45.4700357" lon="9.1832821" />
      <trkpt lat="45.4700383" lon="9.1831961" />
      <trkpt lat="45.4700432" lon="9.1831773" />
      <trkpt lat="45.4700171" lon="9.1822274" />
      <trkpt lat="45.4700373" lon="9.1822258" />
      <trkpt lat="45.4701087" lon="9.1822209" />
      <trkpt lat="45.4701059" lon="9.1821341" />
      <trkpt lat="45.4702105" lon="9.1821074" />
      <trkpt lat="45.4702052" lon="9.1820678" />
      <trkpt lat="45.4701979" lon="9.1819003" />
      <trkpt lat="45.4702860" lon="9.1818945" />
      <trkpt lat="45.4702941" lon="9.1818146" />
      <trkpt lat="45.4703074" lon="9.1817363" />
      <trkpt lat="45.4703474" lon="9.1815002" />
      <trkpt lat="45.4703955" lon="9.1814574" />
      <trkpt lat="45.4705028" lon="9.1813259" />
      <trkpt lat="45.4706668" lon="9.1811233" />
      <trkpt lat="45.4707553" lon="9.1810074" />
      <trkpt lat="45.4708352" lon="9.1808871" />
      <trkpt lat="45.4709328" lon="9.1808039" />
      <trkpt lat="45.4709739" lon="9.1807684" />
      <trkpt lat="45.4709969" lon="9.1807403" />
      <trkpt lat="45.4710289" lon="9.1806940" />
      <trkpt lat="45.4710737" lon="9.1805936" />
      <trkpt lat="45.4715687" lon="9.1799526" />
      <trkpt lat="45.4718056" lon="9.1796160" />
      <trkpt lat="45.4719144" lon="9.1796203" />
      <trkpt lat="45.4719107" lon="9.1794729" />
      <trkpt lat="45.4719207" lon="9.1794484" />
      <trkpt lat="45.4718142" lon="9.1791233" />
      <trkpt lat="45.4717508" lon="9.1790892" />
      <trkpt lat="45.4716913" lon="9.1790361" />
      <trkpt lat="45.4716486" lon="9.1789403" />
      <trkpt lat="45.4716154" lon="9.1788362" />
      <trkpt lat="45.4715947" lon="9.1787574" />
      <trkpt lat="45.4715790" lon="9.1786681" />
      <trkpt lat="45.4715664" lon="9.1785429" />
      <trkpt lat="45.4715724" lon="9.1784375" />
      <trkpt lat="45.4716361" lon="9.1783483" />
      <trkpt lat="45.4717025" lon="9.1782554" />
      <trkpt lat="45.4716505" lon="9.1781739" />
      <trkpt lat="45.4715072" lon="9.1779493" />
      <trkpt lat="45.4712912" lon="9.1776108" />
      <trkpt lat="45.4714071" lon="9.1774451" />
      <trkpt lat="45.4714270" lon="9.1773077" />
      <trkpt lat="45.4714498" lon="9.1771284" />
      <trkpt lat="45.4715231" lon="9.1768842" />
      <trkpt lat="45.4716074" lon="9.1766686" />
      <trkpt lat="45.4717440" lon="9.1764567" />
      <trkpt lat="45.4717858" lon="9.1763848" />
      <trkpt lat="45.4718176" lon="9.1763106" />
      <trkpt lat="45.4716842" lon="9.1762623" />
      <trkpt lat="45.4715409" lon="9.1762374" />
      <trkpt lat="45.4713377" lon="9.1762487" />
      <trkpt lat="45.4711937" lon="9.1762709" />
      <trkpt lat="45.4711217" lon="9.1762802" />
      <trkpt lat="45.4710541" lon="9.1763023" />
      <trkpt lat="45.4710359" lon="9.1760382" />
      <trkpt lat="45.4710392" lon="9.1758216" />
      <trkpt lat="45.4711893" lon="9.1756437" />
      <trkpt lat="45.4712955" lon="9.1755348" />
      <trkpt lat="45.4712757" lon="9.1751414" />
      <trkpt lat="45.4712750" lon="9.1747603" />
      <trkpt lat="45.4713628" lon="9.1743326" />
      <trkpt lat="45.4713837" lon="9.1742575" />
      <trkpt lat="45.4713473" lon="9.1741181" />
      <trkpt lat="45.4713348" lon="9.1740663" />
      <trkpt lat="45.4713174" lon="9.1739844" />
      <trkpt lat="45.4714045" lon="9.1739433" />
      <trkpt lat="45.4714545" lon="9.1739154" />
      <trkpt lat="45.4715065" lon="9.1738816" />
      <trkpt lat="45.4715547" lon="9.1738445" />
      <trkpt lat="45.4717252" lon="9.1736892" />
      <trkpt lat="45.4719100" lon="9.1735103" />
      <trkpt lat="45.4719977" lon="9.1734176" />
      <trkpt lat="45.4720520" lon="9.1733479" />
      <trkpt lat="45.4721157" lon="9.1732641" />
      <trkpt lat="45.4721802" lon="9.1731648" />
      <trkpt lat="45.4721435" lon="9.1731169" />
      <trkpt lat="45.4721171" lon="9.1730836" />
      <trkpt lat="45.4720958" lon="9.1730456" />
      <trkpt lat="45.4720773" lon="9.1730100" />
      <trkpt lat="45.4720394" lon="9.1728653" />
      <trkpt lat="45.4720324" lon="9.1728188" />
      <trkpt lat="45.4720130" lon="9.1727889" />
      <trkpt lat="45.4719535" lon="9.1727554" />
      <trkpt lat="45.4719104" lon="9.1727326" />
      <trkpt lat="45.4718839" lon="9.1727036" />
      <trkpt lat="45.4718361" lon="9.1726671" />
      <trkpt lat="45.4717889" lon="9.1726310" />
      <trkpt lat="45.4717344" lon="9.1726009" />
      <trkpt lat="45.4717029" lon="9.1725669" />
      <trkpt lat="45.4717043" lon="9.1725441" />
      <trkpt lat="45.4717048" lon="9.1725130" />
      <trkpt lat="45.4716785" lon="9.1725127" />
      <trkpt lat="45.4716157" lon="9.1725094" />
      <trkpt lat="45.4714894" lon="9.1723225" />
      <trkpt lat="45.4714475" lon="9.1722553" />
      <trkpt lat="45.4714138" lon="9.1722013" />
      <trkpt lat="45.4714092" lon="9.1721096" />
      <trkpt lat="45.4710124" lon="9.1715008" />
      <trkpt lat="45.4709803" lon="9.1713944" />
      <trkpt lat="45.4709614" lon="9.1712657" />
      <trkpt lat="45.4709736" lon="9.1712370" />
      <trkpt lat="45.4709998" lon="9.1712117" />
      <trkpt lat="45.4710407" lon="9.1711796" />
      <trkpt lat="45.4710858" lon="9.1711448" />
      <trkpt lat="45.4711279" lon="9.1711056" />
      <trkpt lat="45.4711724" lon="9.1710500" />
      <trkpt lat="45.4711989" lon="9.1709749" />
      <trkpt lat="45.4712250" lon="9.1709464" />
      <trkpt lat="45.4712542" lon="9.1709104" />
      <trkpt lat="45.4712727" lon="9.1708761" />
      <trkpt lat="45.4712853" lon="9.1708429" />
      <trkpt lat="45.4712982" lon="9.1707943" />
      <trkpt lat="45.4713047" lon="9.1707386" />
      <trkpt lat="45.4713028" lon="9.1706843" />
      <trkpt lat="45.4712856" lon="9.1705826" />
      <trkpt lat="45.4712798" lon="9.1705418" />
      <trkpt lat="45.4712776" lon="9.1705032" />
      <trkpt lat="45.4715339" lon="9.1701836" />
      <trkpt lat="45.4716471" lon="9.1700501" />
      <trkpt lat="45.4716412" lon="9.1700409" />
      <trkpt lat="45.4716064" lon="9.1699872" />
      <trkpt lat="45.4715827" lon="9.1699506" />
      <trkpt lat="45.4715687" lon="9.1699289" />
      <trkpt lat="45.4715497" lon="9.1698996" />
      <trkpt lat="45.4715264" lon="9.1698637" />
      <trkpt lat="45.4715090" lon="9.1698370" />
      <trkpt lat="45.4715079" lon="9.1698128" />
      <trkpt lat="45.4715172" lon="9.1698007" />
      <trkpt lat="45.4715538" lon="9.1697532" />
      <trkpt lat="45.4716075" lon="9.1696835" />
      <trkpt lat="45.4716142" lon="9.1696748" />
      <trkpt lat="45.4712321" lon="9.1690784" />
      <trkpt lat="45.4712335" lon="9.1689504" />
      <trkpt lat="45.4712336" lon="9.1689310" />
      <trkpt lat="45.4712201" lon="9.1689068" />
      <trkpt lat="45.4711845" lon="9.1688428" />
      <trkpt lat="45.4721356" lon="9.1675815" />
      <trkpt lat="45.4721270" lon="9.1675687" />
      <trkpt lat="45.4721098" lon="9.1675429" />
      <trkpt lat="45.4721051" lon="9.1675359" />
      <trkpt lat="45.4720843" lon="9.1675063" />
      <trkpt lat="45.4720716" lon="9.1674853" />
      <trkpt lat="45.4721176" lon="9.1674199" />
      <trkpt lat="45.4721352" lon="9.1673949" />
      <trkpt lat="45.4721546" lon="9.1673674" />
      <trkpt lat="45.4722004" lon="9.1673024" />
      <trkpt lat="45.4722241" lon="9.1672729" />
      <trkpt lat="45.4722864" lon="9.1671901" />
      <trkpt lat="45.4723279" lon="9.1671350" />
      <trkpt lat="45.4723528" lon="9.1671019" />
      <trkpt lat="45.4718888" lon="9.1663668" />
      <trkpt lat="45.4717446" lon="9.1661384" />
      <trkpt lat="45.4717216" lon="9.1661028" />
      <trkpt lat="45.4716930" lon="9.1660568" />
      <trkpt lat="45.4716606" lon="9.1660057" />
      <trkpt lat="45.4716247" lon="9.1660100" />
      <trkpt lat="45.4713454" lon="9.1655891" />
      <trkpt lat="45.4709203" lon="9.1649299" />
      <trkpt lat="45.4707186" lon="9.1646086" />
      <trkpt lat="45.4707090" lon="9.1645758" />
      <trkpt lat="45.4707034" lon="9.1645677" />
      <trkpt lat="45.4706608" lon="9.1645098" />
      <trkpt lat="45.4706249" lon="9.1644543" />
      <trkpt lat="45.4706172" lon="9.1644432" />
      <trkpt lat="45.4708216" lon="9.1641662" />
      <trkpt lat="45.4708699" lon="9.1641006" />
      <trkpt lat="45.4709258" lon="9.1640249" />
      <trkpt lat="45.4715850" lon="9.1631760" />
      <trkpt lat="45.4716011" lon="9.1631363" />
      <trkpt lat="45.4716019" lon="9.1631059" />
      <trkpt lat="45.4716139" lon="9.1630905" />
      <trkpt lat="45.4716794" lon="9.1630069" />
      <trkpt lat="45.4717187" lon="9.1629566" />
      <trkpt lat="45.4717323" lon="9.1629393" />
      <trkpt lat="45.4714352" lon="9.1626539" />
      <trkpt lat="45.4709520" lon="9.1622316" />
      <trkpt lat="45.4709661" lon="9.1621574" />
      <trkpt lat="45.4709748" lon="9.1620256" />
      <trkpt lat="45.4709884" lon="9.1618714" />
      <trkpt lat="45.4709765" lon="9.1617661" />
      <trkpt lat="45.4708549" lon="9.1616110" />
      <trkpt lat="45.4707104" lon="9.1616109" />
      <trkpt lat="45.4706379" lon="9.1615198" />
      <trkpt lat="45.4704370" lon="9.1612541" />
      <trkpt lat="45.4703424" lon="9.1611274" />
      <trkpt lat="45.4702269" lon="9.1608884" />
      <trkpt lat="45.4700382" lon="9.1606531" />
      <trkpt lat="45.4697001" lon="9.1604621" />
      <trkpt lat="45.4694073" lon="9.1603072" />
      <trkpt lat="45.4693240" lon="9.1602620" />
      <trkpt lat="45.4692394" lon="9.1602457" />
      <trkpt lat="45.4692097" lon="9.1601933" />
      <trkpt lat="45.4691696" lon="9.1601149" />
      <trkpt lat="45.4691213" lon="9.1599842" />
      <trkpt lat="45.4690646" lon="9.1598796" />
      <trkpt lat="45.4690230" lon="9.1597798" />
      <trkpt lat="45.4688862" lon="9.1595927" />
      <trkpt lat="45.4688277" lon="9.1593463" />
      <trkpt lat="45.4688523" lon="9.1592445" />
      <trkpt lat="45.4688933" lon="9.1591341" />
      <trkpt lat="45.4688045" lon="9.1588761" />
      <trkpt lat="45.4687259" lon="9.1581323" />
      <trkpt lat="45.4687206" lon="9.1580823" />
      <trkpt lat="45.4687163" lon="9.1580472" />
      <trkpt lat="45.4687111" lon="9.1580054" />
      <trkpt lat="45.4687088" lon="9.1579873" />
      <trkpt lat="45.4687059" lon="9.1579641" />
      <trkpt lat="45.4687143" lon="9.1579347" />
      <trkpt lat="45.4687432" lon="9.1578332" />
      <trkpt lat="45.4687628" lon="9.1577643" />
      <trkpt lat="45.4687718" lon="9.1577328" />
      <trkpt lat="45.4687513" lon="9.1577009" />
      <trkpt lat="45.4687268" lon="9.1576629" />
      <trkpt lat="45.4687045" lon="9.1576282" />
      <trkpt lat="45.4686895" lon="9.1576049" />
      <trkpt lat="45.4686713" lon="9.1575766" />
      <trkpt lat="45.4686429" lon="9.1575325" />
      <trkpt lat="45.4686198" lon="9.1574966" />
      <trkpt lat="45.4698340" lon="9.1558483" />
      <trkpt lat="45.4698530" lon="9.1558256" />
      <trkpt lat="45.4698732" lon="9.1558014" />
      <trkpt lat="45.4698911" lon="9.1557800" />
      <trkpt lat="45.4699044" lon="9.1557640" />
      <trkpt lat="45.4699206" lon="9.1557887" />
      <trkpt lat="45.4699819" lon="9.1557095" />
      <trkpt lat="45.4699860" lon="9.1556811" />
      <trkpt lat="45.4699889" lon="9.1556291" />
      <trkpt lat="45.4699617" lon="9.1555122" />
      <trkpt lat="45.4699623" lon="9.1554895" />
      <trkpt lat="45.4699645" lon="9.1554115" />
      <trkpt lat="45.4699663" lon="9.1553969" />
      <trkpt lat="45.4699705" lon="9.1553634" />
      <trkpt lat="45.4699749" lon="9.1553284" />
      <trkpt lat="45.4699858" lon="9.1552738" />
      <trkpt lat="45.4699902" lon="9.1552518" />
      <trkpt lat="45.4700155" lon="9.1551903" />
      <trkpt lat="45.4700282" lon="9.1551601" />
      <trkpt lat="45.4700532" lon="9.1551056" />
      <trkpt lat="45.4700961" lon="9.1550693" />
      <trkpt lat="45.4701030" lon="9.1550614" />
      <trkpt lat="45.4700967" lon="9.1550305" />
      <trkpt lat="45.4700166" lon="9.1549054" />
      <trkpt lat="45.4699956" lon="9.1548769" />
      <trkpt lat="45.4699602" lon="9.1548465" />
      <trkpt lat="45.4699088" lon="9.1548049" />
      <trkpt lat="45.4698756" lon="9.1547714" />
      <trkpt lat="45.4698487" lon="9.1547515" />
      <trkpt lat="45.4698021" lon="9.1546818" />
      <trkpt lat="45.4697884" lon="9.1544980" />
      <trkpt lat="45.4696060" lon="9.1542232" />
      <trkpt lat="45.4696490" lon="9.1541656" />
      <trkpt lat="45.4696731" lon="9.1541333" />
      <trkpt lat="45.4696845" lon="9.1541142" />
      <trkpt lat="45.4696747" lon="9.1540992" />
      <trkpt lat="45.4696468" lon="9.1540567" />
      <trkpt lat="45.4702317" lon="9.1532861" />
      <trkpt lat="45.4702622" lon="9.1532459" />
      <trkpt lat="45.4703092" lon="9.1531824" />
      <trkpt lat="45.4709000" lon="9.1523894" />
      <trkpt lat="45.4708839" lon="9.1523635" />
      <trkpt lat="45.4708735" lon="9.1523470" />
      <trkpt lat="45.4708852" lon="9.1523034" />
      <trkpt lat="45.4705882" lon="9.1518708" />
      <trkpt lat="45.4705832" lon="9.1518634" />
      <trkpt lat="45.4706008" lon="9.1518408" />
      <trkpt lat="45.4706068" lon="9.1518331" />
      <trkpt lat="45.4706406" lon="9.1517895" />
      <trkpt lat="45.4706772" lon="9.1517426" />
      <trkpt lat="45.4707095" lon="9.1517010" />
      <trkpt lat="45.4707141" lon="9.1516953" />
      <trkpt lat="45.4707845" lon="9.1516076" />
      <trkpt lat="45.4713271" lon="9.1508834" />
      <trkpt lat="45.4713616" lon="9.1508807" />
      <trkpt lat="45.4713802" lon="9.1508532" />
      <trkpt lat="45.4713907" lon="9.1508378" />
      <trkpt lat="45.4714052" lon="9.1508164" />
      <trkpt lat="45.4714249" lon="9.1507872" />
      <trkpt lat="45.4714265" lon="9.1507639" />
      <trkpt lat="45.4716003" lon="9.1505291" />
      <trkpt lat="45.4720463" lon="9.1499556" />
      <trkpt lat="45.4720655" lon="9.1499309" />
      <trkpt lat="45.4720777" lon="9.1499133" />
      <trkpt lat="45.4720953" lon="9.1498880" />
      <trkpt lat="45.4721054" lon="9.1498734" />
      <trkpt lat="45.4721204" lon="9.1498518" />
      <trkpt lat="45.4721190" lon="9.1497908" />
      <trkpt lat="45.4721067" lon="9.1497714" />
      <trkpt lat="45.4720884" lon="9.1497425" />
      <trkpt lat="45.4726897" lon="9.1489349" />
      <trkpt lat="45.4727346" lon="9.1488745" />
      <trkpt lat="45.4727666" lon="9.1488332" />
      <trkpt lat="45.4728177" lon="9.1487672" />
      <trkpt lat="45.4728699" lon="9.1486998" />
      <trkpt lat="45.4729036" lon="9.1486563" />
      <trkpt lat="45.4729297" lon="9.1486208" />
      <trkpt lat="45.4729669" lon="9.1485703" />
      <trkpt lat="45.4734273" lon="9.1479447" />
      <trkpt lat="45.4734737" lon="9.1478843" />
      <trkpt lat="45.4735282" lon="9.1478115" />
      <trkpt lat="45.4737696" lon="9.1475024" />
      <trkpt lat="45.4740054" lon="9.1472005" />
      <trkpt lat="45.4739915" lon="9.1471798" />
      <trkpt lat="45.4739790" lon="9.1471611" />
      <trkpt lat="45.4739803" lon="9.1470832" />
      <trkpt lat="45.4739896" lon="9.1470705" />
      <trkpt lat="45.4740061" lon="9.1470480" />
      <trkpt lat="45.4733529" lon="9.1460399" />
      <trkpt lat="45.4733139" lon="9.1459720" />
      <trkpt lat="45.4735243" lon="9.1458733" />
      <trkpt lat="45.4735131" lon="9.1458304" />
      <trkpt lat="45.4726931" lon="9.1462025" />
      <trkpt lat="45.4726377" lon="9.1462476" />
      <trkpt lat="45.4725888" lon="9.1463047" />
      <trkpt lat="45.4725735" lon="9.1462638" />
      <trkpt lat="45.4724305" lon="9.1460972" />
      <trkpt lat="45.4724200" lon="9.1460825" />
      <trkpt lat="45.4723783" lon="9.1460242" />
      <trkpt lat="45.4723442" lon="9.1459764" />
      <trkpt lat="45.4723273" lon="9.1459529" />
      <trkpt lat="45.4722980" lon="9.1459912" />
      <trkpt lat="45.4722709" lon="9.1460267" />
      <trkpt lat="45.4722361" lon="9.1460722" />
      <trkpt lat="45.4722048" lon="9.1461108" />
      <trkpt lat="45.4717633" lon="9.1454578" />
      <trkpt lat="45.4717358" lon="9.1454210" />
      <trkpt lat="45.4716918" lon="9.1454197" />
      <trkpt lat="45.4712015" lon="9.1455767" />
      <trkpt lat="45.4711343" lon="9.1455347" />
      <trkpt lat="45.4710764" lon="9.1455511" />
      <trkpt lat="45.4709922" lon="9.1455751" />
      <trkpt lat="45.4709441" lon="9.1455864" />
      <trkpt lat="45.4707736" lon="9.1456544" />
      <trkpt lat="45.4707623" lon="9.1456586" />
      <trkpt lat="45.4706730" lon="9.1456922" />
      <trkpt lat="45.4706248" lon="9.1457103" />
      <trkpt lat="45.4706173" lon="9.1457132" />
      <trkpt lat="45.4702559" lon="9.1458546" />
      <trkpt lat="45.4701358" lon="9.1459047" />
      <trkpt lat="45.4701313" lon="9.1459066" />
      <trkpt lat="45.4701015" lon="9.1459425" />
      <trkpt lat="45.4699648" lon="9.1461074" />
      <trkpt lat="45.4698259" lon="9.1462942" />
      <trkpt lat="45.4698188" lon="9.1462835" />
      <trkpt lat="45.4697966" lon="9.1462502" />
      <trkpt lat="45.4697465" lon="9.1463160" />
      <trkpt lat="45.4693964" lon="9.1467757" />
      <trkpt lat="45.4691979" lon="9.1470363" />
      <trkpt lat="45.4690405" lon="9.1472428" />
      <trkpt lat="45.4689964" lon="9.1473007" />
      <trkpt lat="45.4686967" lon="9.1476942" />
      <trkpt lat="45.4683685" lon="9.1481250" />
      <trkpt lat="45.4683056" lon="9.1482076" />
      <trkpt lat="45.4682346" lon="9.1483008" />
      <trkpt lat="45.4676403" lon="9.1490810" />
      <trkpt lat="45.4676203" lon="9.1490512" />
      <trkpt lat="45.4676143" lon="9.1490423" />
      <trkpt lat="45.4675939" lon="9.1490120" />
      <trkpt lat="45.4675871" lon="9.1490020" />
      <trkpt lat="45.4675648" lon="9.1489695" />
      <trkpt lat="45.4675416" lon="9.1489348" />
      <trkpt lat="45.4675376" lon="9.1489288" />
      <trkpt lat="45.4675161" lon="9.1489238" />
      <trkpt lat="45.4675082" lon="9.1489341" />
      <trkpt lat="45.4674806" lon="9.1489701" />
      <trkpt lat="45.4674518" lon="9.1490077" />
      <trkpt lat="45.4674414" lon="9.1490213" />
      <trkpt lat="45.4669373" lon="9.1482495" />
      <trkpt lat="45.4668543" lon="9.1483011" />
      <trkpt lat="45.4668141" lon="9.1483203" />
      <trkpt lat="45.4668068" lon="9.1483817" />
      <trkpt lat="45.4667993" lon="9.1483796" />
      <trkpt lat="45.4667545" lon="9.1483671" />
      <trkpt lat="45.4667378" lon="9.1483629" />
      <trkpt lat="45.4667283" lon="9.1483602" />
      <trkpt lat="45.4666857" lon="9.1483480" />
      <trkpt lat="45.4666741" lon="9.1483448" />
      <trkpt lat="45.4666699" lon="9.1483846" />
      <trkpt lat="45.4665446" lon="9.1484074" />
      <trkpt lat="45.4665163" lon="9.1482867" />
      <trkpt lat="45.4665025" lon="9.1482935" />
      <trkpt lat="45.4664418" lon="9.1483235" />
      <trkpt lat="45.4663906" lon="9.1483479" />
      <trkpt lat="45.4663837" lon="9.1483511" />
      <trkpt lat="45.4662733" lon="9.1494528" />
      <trkpt lat="45.4662401" lon="9.1494462" />
      <trkpt lat="45.4661457" lon="9.1494290" />
      <trkpt lat="45.4661058" lon="9.1494216" />
      <trkpt lat="45.4660292" lon="9.1493516" />
      <trkpt lat="45.4660210" lon="9.1494511" />
      <trkpt lat="45.4659025" lon="9.1494270" />
      <trkpt lat="45.4657818" lon="9.1494022" />
      <trkpt lat="45.4650417" lon="9.1492501" />
      <trkpt lat="45.4650427" lon="9.1492389" />
      <trkpt lat="45.4650516" lon="9.1491426" />
      <trkpt lat="45.4650574" lon="9.1490806" />
      <trkpt lat="45.4650585" lon="9.1490683" />
      <trkpt lat="45.4650397" lon="9.1490518" />
      <trkpt lat="45.4650416" lon="9.1490155" />
      <trkpt lat="45.4650286" lon="9.1490129" />
      <trkpt lat="45.4649755" lon="9.1490019" />
      <trkpt lat="45.4649468" lon="9.1489960" />
      <trkpt lat="45.4649347" lon="9.1489935" />
      <trkpt lat="45.4649306" lon="9.1490344" />
      <trkpt lat="45.4649297" lon="9.1490465" />
      <trkpt lat="45.4649282" lon="9.1490653" />
      <trkpt lat="45.4649267" lon="9.1490855" />
      <trkpt lat="45.4649263" lon="9.1490900" />
      <trkpt lat="45.4648511" lon="9.1498008" />
      <trkpt lat="45.4642801" lon="9.1496858" />
      <trkpt lat="45.4642537" lon="9.1496824" />
      <trkpt lat="45.4642435" lon="9.1496811" />
      <trkpt lat="45.4642390" lon="9.1496805" />
      <trkpt lat="45.4635668" lon="9.1495601" />
      <trkpt lat="45.4632897" lon="9.1486582" />
      <trkpt lat="45.4632307" lon="9.1484753" />
      <trkpt lat="45.4632256" lon="9.1484595" />
      <trkpt lat="45.4631623" lon="9.1482696" />
      <trkpt lat="45.4631545" lon="9.1482745" />
      <trkpt lat="45.4631249" lon="9.1482928" />
      <trkpt lat="45.4631087" lon="9.1483029" />
      <trkpt lat="45.4630807" lon="9.1483202" />
      <trkpt lat="45.4630513" lon="9.1483152" />
      <trkpt lat="45.4626713" lon="9.1485429" />
      <trkpt lat="45.4626308" lon="9.1485658" />
      <trkpt lat="45.4625824" lon="9.1485932" />
      <trkpt lat="45.4622738" lon="9.1487764" />
      <trkpt lat="45.4622029" lon="9.1488185" />
      <trkpt lat="45.4621328" lon="9.1488580" />
      <trkpt lat="45.4621140" lon="9.1488696" />
      <trkpt lat="45.4620962" lon="9.1488806" />
      <trkpt lat="45.4620795" lon="9.1488904" />
      <trkpt lat="45.4620505" lon="9.1489073" />
      <trkpt lat="45.4618131" lon="9.1490480" />
      <trkpt lat="45.4616312" lon="9.1491558" />
      <trkpt lat="45.4610892" lon="9.1494649" />
      <trkpt lat="45.4608653" lon="9.1496019" />
      <trkpt lat="45.4608074" lon="9.1496372" />
      <trkpt lat="45.4607167" lon="9.1496928" />
      <trkpt lat="45.4606873" lon="9.1497098" />
      <trkpt lat="45.4606628" lon="9.1497240" />
      <trkpt lat="45.4606193" lon="9.1497492" />
      <trkpt lat="45.4606057" lon="9.1497076" />
      <trkpt lat="45.4605701" lon="9.1496736" />
      <trkpt lat="45.4605367" lon="9.1496427" />
      <trkpt lat="45.4605188" lon="9.1496259" />
      <trkpt lat="45.4605015" lon="9.1496096" />
      <trkpt lat="45.4604663" lon="9.1495754" />
      <trkpt lat="45.4604346" lon="9.1495467" />
      <trkpt lat="45.4604028" lon="9.1495167" />
      <trkpt lat="45.4603771" lon="9.1494671" />
      <trkpt lat="45.4603586" lon="9.1494341" />
      <trkpt lat="45.4603491" lon="9.1494151" />
      <trkpt lat="45.4603231" lon="9.1494306" />
      <trkpt lat="45.4603032" lon="9.1494305" />
      <trkpt lat="45.4602910" lon="9.1494139" />
      <trkpt lat="45.4601777" lon="9.1490069" />
      <trkpt lat="45.4601686" lon="9.1489764" />
      <trkpt lat="45.4601506" lon="9.1489163" />
      <trkpt lat="45.4601343" lon="9.1488616" />
      <trkpt lat="45.4601245" lon="9.1488289" />
      <trkpt lat="45.4598334" lon="9.1478321" />
      <trkpt lat="45.4598002" lon="9.1478536" />
      <trkpt lat="45.4597769" lon="9.1478683" />
      <trkpt lat="45.4597395" lon="9.1478921" />
      <trkpt lat="45.4597306" lon="9.1478892" />
      <trkpt lat="45.4595759" lon="9.1478448" />
      <trkpt lat="45.4595616" lon="9.1478546" />
      <trkpt lat="45.4595189" lon="9.1478832" />
      <trkpt lat="45.4594705" lon="9.1479156" />
      <trkpt lat="45.4594601" lon="9.1479226" />
      <trkpt lat="45.4594538" lon="9.1479012" />
      <trkpt lat="45.4594328" lon="9.1478829" />
      <trkpt lat="45.4594157" lon="9.1478788" />
      <trkpt lat="45.4588126" lon="9.1482282" />
      <trkpt lat="45.4588030" lon="9.1481926" />
      <trkpt lat="45.4587961" lon="9.1481665" />
      <trkpt lat="45.4587129" lon="9.1482190" />
      <trkpt lat="45.4587142" lon="9.1482013" />
      <trkpt lat="45.4587140" lon="9.1481835" />
      <trkpt lat="45.4587123" lon="9.1481658" />
      <trkpt lat="45.4587091" lon="9.1481486" />
      <trkpt lat="45.4587045" lon="9.1481321" />
      <trkpt lat="45.4586984" lon="9.1481165" />
      <trkpt lat="45.4586911" lon="9.1481020" />
      <trkpt lat="45.4586826" lon="9.1480890" />
      <trkpt lat="45.4586731" lon="9.1480775" />
      <trkpt lat="45.4586626" lon="9.1480677" />
      <trkpt lat="45.4586514" lon="9.1480599" />
      <trkpt lat="45.4586396" lon="9.1480540" />
      <trkpt lat="45.4586274" lon="9.1480503" />
      <trkpt lat="45.4586149" lon="9.1480486" />
      <trkpt lat="45.4586023" lon="9.1480492" />
      <trkpt lat="45.4585898" lon="9.1480520" />
      <trkpt lat="45.4585777" lon="9.1480570" />
      <trkpt lat="45.4585660" lon="9.1480640" />
      <trkpt lat="45.4585551" lon="9.1480731" />
      <trkpt lat="45.4585024" lon="9.1480448" />
      <trkpt lat="45.4584371" lon="9.1479930" />
      <trkpt lat="45.4582382" lon="9.1478292" />
      <trkpt lat="45.4581819" lon="9.1477513" />
      <trkpt lat="45.4581395" lon="9.1476676" />
      <trkpt lat="45.4579939" lon="9.1471833" />
      <trkpt lat="45.4579715" lon="9.1470945" />
      <trkpt lat="45.4579365" lon="9.1469625" />
      <trkpt lat="45.4579159" lon="9.1468916" />
      <trkpt lat="45.4573322" lon="9.1448773" />
      <trkpt lat="45.4572522" lon="9.1449236" />
      <trkpt lat="45.4572208" lon="9.1448211" />
      <trkpt lat="45.4571863" lon="9.1448422" />
      <trkpt lat="45.4571641" lon="9.1448530" />
      <trkpt lat="45.4569249" lon="9.1440153" />
      <trkpt lat="45.4569154" lon="9.1439923" />
      <trkpt lat="45.4557026" lon="9.1447003" />
      <trkpt lat="45.4556988" lon="9.1447298" />
      <trkpt lat="45.4558211" lon="9.1451593" />
      <trkpt lat="45.4560775" lon="9.1460418" />
      <trkpt lat="45.4560708" lon="9.1460461" />
      <trkpt lat="45.4560286" lon="9.1460712" />
      <trkpt lat="45.4562646" lon="9.1468871" />
      <trkpt lat="45.4564739" lon="9.1476104" />
      <trkpt lat="45.4565048" lon="9.1477163" />
      <trkpt lat="45.4565152" lon="9.1477521" />
      <trkpt lat="45.4565252" lon="9.1477497" />
      <trkpt lat="45.4565346" lon="9.1477493" />
      <trkpt lat="45.4565440" lon="9.1477506" />
      <trkpt lat="45.4565531" lon="9.1477535" />
      <trkpt lat="45.4565619" lon="9.1477580" />
      <trkpt lat="45.4565704" lon="9.1477641" />
      <trkpt lat="45.4565781" lon="9.1477716" />
      <trkpt lat="45.4565852" lon="9.1477804" />
      <trkpt lat="45.4565915" lon="9.1477904" />
      <trkpt lat="45.4565968" lon="9.1478014" />
      <trkpt lat="45.4566012" lon="9.1478133" />
      <trkpt lat="45.4566044" lon="9.1478258" />
      <trkpt lat="45.4566066" lon="9.1478389" />
      <trkpt lat="45.4566076" lon="9.1478547" />
      <trkpt lat="45.4566074" lon="9.1478656" />
      <trkpt lat="45.4566061" lon="9.1478788" />
      <trkpt lat="45.4566036" lon="9.1478917" />
      <trkpt lat="45.4566001" lon="9.1479041" />
      <trkpt lat="45.4565954" lon="9.1479158" />
      <trkpt lat="45.4565898" lon="9.1479265" />
      <trkpt lat="45.4565833" lon="9.1479362" />
      <trkpt lat="45.4565760" lon="9.1479446" />
      <trkpt lat="45.4565714" lon="9.1479488" />
      <trkpt lat="45.4565880" lon="9.1480106" />
      <trkpt lat="45.4566120" lon="9.1480998" />
      <trkpt lat="45.4569859" lon="9.1493818" />
      <trkpt lat="45.4570028" lon="9.1494405" />
      <trkpt lat="45.4570206" lon="9.1495040" />
      <trkpt lat="45.4574697" lon="9.1510565" />
      <trkpt lat="45.4574958" lon="9.1510422" />
      <trkpt lat="45.4575120" lon="9.1510333" />
      <trkpt lat="45.4575444" lon="9.1510294" />
      <trkpt lat="45.4575529" lon="9.1510553" />
      <trkpt lat="45.4575639" lon="9.1510887" />
      <trkpt lat="45.4575854" lon="9.1511542" />
      <trkpt lat="45.4575918" lon="9.1511762" />
      <trkpt lat="45.4575986" lon="9.1511999" />
      <trkpt lat="45.4576094" lon="9.1512375" />
      <trkpt lat="45.4576233" lon="9.1512855" />
      <trkpt lat="45.4576297" lon="9.1513076" />
      <trkpt lat="45.4576338" lon="9.1513220" />
      <trkpt lat="45.4576362" lon="9.1513304" />
      <trkpt lat="45.4576538" lon="9.1513914" />
      <trkpt lat="45.4576608" lon="9.1514156" />
      <trkpt lat="45.4576625" lon="9.1514526" />
      <trkpt lat="45.4576803" lon="9.1514629" />
      <trkpt lat="45.4576635" lon="9.1522372" />
      <trkpt lat="45.4576515" lon="9.1530035" />
      <trkpt lat="45.4576588" lon="9.1530036" />
      <trkpt lat="45.4576915" lon="9.1530039" />
      <trkpt lat="45.4577210" lon="9.1530042" />
      <trkpt lat="45.4577325" lon="9.1530043" />
      <trkpt lat="45.4577521" lon="9.1530322" />
      <trkpt lat="45.4577506" lon="9.1531006" />
      <trkpt lat="45.4577492" lon="9.1531635" />
      <trkpt lat="45.4577996" lon="9.1531648" />
      <trkpt lat="45.4578205" lon="9.1533625" />
      <trkpt lat="45.4578055" lon="9.1534640" />
      <trkpt lat="45.4578076" lon="9.1535740" />
      <trkpt lat="45.4578324" lon="9.1535801" />
      <trkpt lat="45.4579088" lon="9.1536438" />
      <trkpt lat="45.4580033" lon="9.1536576" />
      <trkpt lat="45.4581703" lon="9.1537746" />
      <trkpt lat="45.4581574" lon="9.1541651" />
      <trkpt lat="45.4581487" lon="9.1545395" />
      <trkpt lat="45.4581043" lon="9.1545353" />
      <trkpt lat="45.4581056" lon="9.1546141" />
      <trkpt lat="45.4581043" lon="9.1546874" />
      <trkpt lat="45.4581036" lon="9.1547210" />
      <trkpt lat="45.4581032" lon="9.1547441" />
      <trkpt lat="45.4581026" lon="9.1547775" />
      <trkpt lat="45.4581010" lon="9.1548595" />
      <trkpt lat="45.4580998" lon="9.1549263" />
      <trkpt lat="45.4581406" lon="9.1549292" />
      <trkpt lat="45.4581406" lon="9.1550606" />
      <trkpt lat="45.4581228" lon="9.1556722" />
      <trkpt lat="45.4581345" lon="9.1556732" />
      <trkpt lat="45.4581677" lon="9.1556761" />
      <trkpt lat="45.4582130" lon="9.1556800" />
      <trkpt lat="45.4582267" lon="9.1556812" />
      <trkpt lat="45.4583233" lon="9.1557315" />
      <trkpt lat="45.4583399" lon="9.1557512" />
      <trkpt lat="45.4583605" lon="9.1557756" />
      <trkpt lat="45.4584170" lon="9.1558427" />
      <trkpt lat="45.4584958" lon="9.1561389" />
      <trkpt lat="45.4589078" lon="9.1562891" />
      <trkpt lat="45.4597205" lon="9.1566030" />
      <trkpt lat="45.4597191" lon="9.1566450" />
      <trkpt lat="45.4596976" lon="9.1567513" />
      <trkpt lat="45.4596743" lon="9.1568744" />
      <trkpt lat="45.4596711" lon="9.1568913" />
      <trkpt lat="45.4596815" lon="9.1569244" />
      <trkpt lat="45.4595799" lon="9.1573338" />
      <trkpt lat="45.4595538" lon="9.1573666" />
      <trkpt lat="45.4594153" lon="9.1574565" />
      <trkpt lat="45.4587604" lon="9.1579122" />
      <trkpt lat="45.4587650" lon="9.1579270" />
      <trkpt lat="45.4587820" lon="9.1579821" />
      <trkpt lat="45.4587964" lon="9.1580286" />
      <trkpt lat="45.4588019" lon="9.1580466" />
      <trkpt lat="45.4587968" lon="9.1580755" />
      <trkpt lat="45.4591632" lon="9.1591826" />
      <trkpt lat="45.4592782" lon="9.1595624" />
      <trkpt lat="45.4592630" lon="9.1595727" />
      <trkpt lat="45.4592270" lon="9.1595972" />
      <trkpt lat="45.4591846" lon="9.1596211" />
      <trkpt lat="45.4591665" lon="9.1596313" />
      <trkpt lat="45.4591065" lon="9.1598494" />
      <trkpt lat="45.4590795" lon="9.1599581" />
      <trkpt lat="45.4590513" lon="9.1600952" />
      <trkpt lat="45.4587520" lon="9.1602870" />
      <trkpt lat="45.4583074" lon="9.1605691" />
      <trkpt lat="45.4581118" lon="9.1607123" />
      <trkpt lat="45.4579398" lon="9.1608150" />
      <trkpt lat="45.4578388" lon="9.1608758" />
      <trkpt lat="45.4577769" lon="9.1609132" />
      <trkpt lat="45.4577258" lon="9.1609440" />
      <trkpt lat="45.4577042" lon="9.1609602" />
      <trkpt lat="45.4576516" lon="9.1609950" />
      <trkpt lat="45.4576051" lon="9.1610238" />
      <trkpt lat="45.4575889" lon="9.1610322" />
      <trkpt lat="45.4574904" lon="9.1611112" />
      <trkpt lat="45.4572178" lon="9.1612865" />
      <trkpt lat="45.4570876" lon="9.1613851" />
      <trkpt lat="45.4569650" lon="9.1614578" />
      <trkpt lat="45.4567573" lon="9.1615993" />
      <trkpt lat="45.4567614" lon="9.1616109" />
      <trkpt lat="45.4567754" lon="9.1616768" />
      <trkpt lat="45.4567809" lon="9.1616909" />
      <trkpt lat="45.4567874" lon="9.1617153" />
      <trkpt lat="45.4568080" lon="9.1617722" />
      <trkpt lat="45.4568203" lon="9.1618044" />
      <trkpt lat="45.4568313" lon="9.1618401" />
      <trkpt lat="45.4568403" lon="9.1618676" />
      <trkpt lat="45.4568550" lon="9.1619081" />
      <trkpt lat="45.4568675" lon="9.1619393" />
      <trkpt lat="45.4568804" lon="9.1619514" />
      <trkpt lat="45.4568827" lon="9.1619980" />
      <trkpt lat="45.4568650" lon="9.1620107" />
      <trkpt lat="45.4568543" lon="9.1620181" />
      <trkpt lat="45.4568448" lon="9.1620230" />
      <trkpt lat="45.4568292" lon="9.1620315" />
      <trkpt lat="45.4567953" lon="9.1620525" />
      <trkpt lat="45.4567425" lon="9.1620857" />
      <trkpt lat="45.4567291" lon="9.1620941" />
      <trkpt lat="45.4567841" lon="9.1622765" />
      <trkpt lat="45.4570438" lon="9.1631254" />
      <trkpt lat="45.4572537" lon="9.1637955" />
      <trkpt lat="45.4572577" lon="9.1638100" />
      <trkpt lat="45.4572711" lon="9.1638503" />
      <trkpt lat="45.4572938" lon="9.1639280" />
      <trkpt lat="45.4573038" lon="9.1639504" />
      <trkpt lat="45.4576332" lon="9.1650240" />
      <trkpt lat="45.4576446" lon="9.1650655" />
      <trkpt lat="45.4576505" lon="9.1650792" />
      <trkpt lat="45.4576454" lon="9.1650885" />
      <trkpt lat="45.4576536" lon="9.1651146" />
      <trkpt lat="45.4576583" lon="9.1651297" />
      <trkpt lat="45.4575963" lon="9.1651712" />
      <trkpt lat="45.4567624" lon="9.1656891" />
      <trkpt lat="45.4566604" lon="9.1657595" />
      <trkpt lat="45.4566705" lon="9.1657947" />
      <trkpt lat="45.4566805" lon="9.1658242" />
      <trkpt lat="45.4566640" lon="9.1658375" />
      <trkpt lat="45.4566365" lon="9.1658613" />
      <trkpt lat="45.4566204" lon="9.1658914" />
      <trkpt lat="45.4565287" lon="9.1662164" />
      <trkpt lat="45.4565023" lon="9.1663280" />
      <trkpt lat="45.4564811" lon="9.1663297" />
      <trkpt lat="45.4564596" lon="9.1663237" />
      <trkpt lat="45.4564266" lon="9.1663146" />
      <trkpt lat="45.4564054" lon="9.1663017" />
      <trkpt lat="45.4563944" lon="9.1663131" />
      <trkpt lat="45.4563854" lon="9.1663214" />
      <trkpt lat="45.4563750" lon="9.1663308" />
      <trkpt lat="45.4563628" lon="9.1663420" />
      <trkpt lat="45.4563517" lon="9.1663522" />
      <trkpt lat="45.4563279" lon="9.1663486" />
      <trkpt lat="45.4563219" lon="9.1663710" />
      <trkpt lat="45.4563165" lon="9.1664114" />
      <trkpt lat="45.4563110" lon="9.1664529" />
      <trkpt lat="45.4563097" lon="9.1664858" />
      <trkpt lat="45.4563412" lon="9.1665213" />
      <trkpt lat="45.4569035" lon="9.1683312" />
      <trkpt lat="45.4568774" lon="9.1684903" />
      <trkpt lat="45.4568754" lon="9.1685224" />
      <trkpt lat="45.4568718" lon="9.1685810" />
      <trkpt lat="45.4568684" lon="9.1686367" />
      <trkpt lat="45.4568648" lon="9.1686881" />
      <trkpt lat="45.4568636" lon="9.1687140" />
      <trkpt lat="45.4568642" lon="9.1687434" />
      <trkpt lat="45.4568626" lon="9.1687869" />
      <trkpt lat="45.4568922" lon="9.1688685" />
      <trkpt lat="45.4569754" lon="9.1690950" />
      <trkpt lat="45.4569811" lon="9.1691863" />
      <trkpt lat="45.4569993" lon="9.1694778" />
      <trkpt lat="45.4569910" lon="9.1695077" />
      <trkpt lat="45.4564563" lon="9.1703231" />
      <trkpt lat="45.4563587" lon="9.1704421" />
      <trkpt lat="45.4563642" lon="9.1704575" />
      <trkpt lat="45.4563878" lon="9.1705241" />
      <trkpt lat="45.4563945" lon="9.1705430" />
      <trkpt lat="45.4564004" lon="9.1705587" />
      <trkpt lat="45.4564081" lon="9.1705789" />
      <trkpt lat="45.4564147" lon="9.1706006" />
      <trkpt lat="45.4564150" lon="9.1706705" />
      <trkpt lat="45.4567526" lon="9.1711156" />
      <trkpt lat="45.4567630" lon="9.1711339" />
      <trkpt lat="45.4567924" lon="9.1711735" />
      <trkpt lat="45.4569100" lon="9.1713199" />
      <trkpt lat="45.4569013" lon="9.1713386" />
      <trkpt lat="45.4568793" lon="9.1713864" />
      <trkpt lat="45.4568542" lon="9.1714406" />
      <trkpt lat="45.4568457" lon="9.1714590" />
      <trkpt lat="45.4568433" lon="9.1714867" />
      <trkpt lat="45.4564075" lon="9.1722240" />
      <trkpt lat="45.4562659" lon="9.1724693" />
      <trkpt lat="45.4562285" lon="9.1725434" />
      <trkpt lat="45.4561963" lon="9.1725936" />
      <trkpt lat="45.4561772" lon="9.1726255" />
      <trkpt lat="45.4561929" lon="9.1726533" />
      <trkpt lat="45.4562128" lon="9.1726885" />
      <trkpt lat="45.4558536" lon="9.1732872" />
      <trkpt lat="45.4559114" lon="9.1733762" />
      <trkpt lat="45.4559444" lon="9.1734270" />
      <trkpt lat="45.4559698" lon="9.1734662" />
      <trkpt lat="45.4560004" lon="9.1735132" />
      <trkpt lat="45.4560146" lon="9.1735336" />
      <trkpt lat="45.4560068" lon="9.1735444" />
      <trkpt lat="45.4560077" lon="9.1735798" />
      <trkpt lat="45.4559575" lon="9.1736492" />
      <trkpt lat="45.4559483" lon="9.1736621" />
      <trkpt lat="45.4559388" lon="9.1736755" />
      <trkpt lat="45.4558910" lon="9.1737426" />
      <trkpt lat="45.4558745" lon="9.1737657" />
      <trkpt lat="45.4559441" lon="9.1738699" />
      <trkpt lat="45.4559495" lon="9.1738782" />
      <trkpt lat="45.4559640" lon="9.1739003" />
      <trkpt lat="45.4555247" lon="9.1744897" />
      <trkpt lat="45.4559589" lon="9.1751351" />
      <trkpt lat="45.4559883" lon="9.1751799" />
      <trkpt lat="45.4560151" lon="9.1752197" />
      <trkpt lat="45.4566861" lon="9.1762051" />
      <trkpt lat="45.4566704" lon="9.1762308" />
      <trkpt lat="45.4566635" lon="9.1762394" />
      <trkpt lat="45.4566650" lon="9.1762768" />
      <trkpt lat="45.4566736" lon="9.1762884" />
      <trkpt lat="45.4566838" lon="9.1763021" />
      <trkpt lat="45.4567114" lon="9.1763395" />
      <trkpt lat="45.4567182" lon="9.1763486" />
      <trkpt lat="45.4561239" lon="9.1771921" />
      <trkpt lat="45.4561562" lon="9.1773530" />
      <trkpt lat="45.4561696" lon="9.1773725" />
      <trkpt lat="45.4561695" lon="9.1773922" />
      <trkpt lat="45.4561694" lon="9.1774247" />
      <trkpt lat="45.4564526" lon="9.1774013" />
      <trkpt lat="45.4564664" lon="9.1776757" />
      <trkpt lat="45.4561605" lon="9.1776859" />
      <trkpt lat="45.4561599" lon="9.1777006" />
      <trkpt lat="45.4561588" lon="9.1777156" />
      <trkpt lat="45.4558936" lon="9.1777742" />
      <trkpt lat="45.4557448" lon="9.1778547" />
      <trkpt lat="45.4555994" lon="9.1779528" />
      <trkpt lat="45.4555839" lon="9.1779630" />
      <trkpt lat="45.4550978" lon="9.1782867" />
      <trkpt lat="45.4550978" lon="9.1785059" />
      <trkpt lat="45.4551203" lon="9.1785255" />
      <trkpt lat="45.4554012" lon="9.1787287" />
      <trkpt lat="45.4556544" lon="9.1789084" />
      <trkpt lat="45.4559144" lon="9.1790930" />
      <trkpt lat="45.4558701" lon="9.1792259" />
      <trkpt lat="45.4560182" lon="9.1793326" />
      <trkpt lat="45.4563260" lon="9.1795544" />
      <trkpt lat="45.4563243" lon="9.1795596" />
      <trkpt lat="45.4563196" lon="9.1795741" />
      <trkpt lat="45.4563506" lon="9.1795955" />
      <trkpt lat="45.4573081" lon="9.1802073" />
      <trkpt lat="45.4573621" lon="9.1803290" />
      <trkpt lat="45.4573928" lon="9.1806119" />
      <trkpt lat="45.4574075" lon="9.1806667" />
      <trkpt lat="45.4574083" lon="9.1806717" />
      <trkpt lat="45.4574458" lon="9.1807560" />
      <trkpt lat="45.4574259" lon="9.1808375" />
      <trkpt lat="45.4573996" lon="9.1809352" />
      <trkpt lat="45.4573964" lon="9.1809470" />
      <trkpt lat="45.4573770" lon="9.1810213" />
      <trkpt lat="45.4574030" lon="9.1810275" />
      <trkpt lat="45.4574174" lon="9.1810310" />
      <trkpt lat="45.4574303" lon="9.1810342" />
      <trkpt lat="45.4574401" lon="9.1810353" />
      <trkpt lat="45.4575446" lon="9.1810469" />
      <trkpt lat="45.4576188" lon="9.1810549" />
      <trkpt lat="45.4576809" lon="9.1810617" />
      <trkpt lat="45.4576260" lon="9.1812812" />
      <trkpt lat="45.4576136" lon="9.1813285" />
      <trkpt lat="45.4575779" lon="9.1814648" />
      <trkpt lat="45.4574630" lon="9.1819041" />
      <trkpt lat="45.4574738" lon="9.1819089" />
      <trkpt lat="45.4574812" lon="9.1819290" />
      <trkpt lat="45.4574822" lon="9.1819753" />
      <trkpt lat="45.4575800" lon="9.1820987" />
      <trkpt lat="45.4575971" lon="9.1825564" />
      <trkpt lat="45.4576054" lon="9.1827799" />
      <trkpt lat="45.4576387" lon="9.1828670" />
      <trkpt lat="45.4576290" lon="9.1829315" />
      <trkpt lat="45.4576033" lon="9.1831022" />
      <trkpt lat="45.4575955" lon="9.1831538" />
      <trkpt lat="45.4576772" lon="9.1831934" />
      <trkpt lat="45.4578551" lon="9.1833300" />
      <trkpt lat="45.4579585" lon="9.1833425" />
      <trkpt lat="45.4579578" lon="9.1833762" />
      <trkpt lat="45.4579488" lon="9.1835565" />
      <trkpt lat="45.4579355" lon="9.1838587" />
      <trkpt lat="45.4579890" lon="9.1838654" />
      <trkpt lat="45.4582496" lon="9.1842848" />
      <trkpt lat="45.4584841" lon="9.1842947" />
      <trkpt lat="45.4584789" lon="9.1843451" />
      <trkpt lat="45.4584758" lon="9.1843971" />
      <trkpt lat="45.4585082" lon="9.1844010" />
      <trkpt lat="45.4585184" lon="9.1844007" />
      <trkpt lat="45.4585288" lon="9.1844648" />
      <trkpt lat="45.4587707" lon="9.1846669" />
      <trkpt lat="45.4588125" lon="9.1846974" />
      <trkpt lat="45.4589660" lon="9.1848422" />
      <trkpt lat="45.4590062" lon="9.1848739" />
      <trkpt lat="45.4593540" lon="9.1851620" />
      <trkpt lat="45.4594306" lon="9.1852341" />
      <trkpt lat="45.4596446" lon="9.1854356" />
      <trkpt lat="45.4599233" lon="9.1856945" />
      <trkpt lat="45.4599565" lon="9.1857252" />
      <trkpt lat="45.4600075" lon="9.1858125" />
      <trkpt lat="45.4601615" lon="9.1863925" />
      <trkpt lat="45.4601645" lon="9.1864068" />
      <trkpt lat="45.4601317" lon="9.1864250" />
      <trkpt lat="45.4601351" lon="9.1864373" />
      <trkpt lat="45.4601358" lon="9.1864397" />
      <trkpt lat="45.4601363" lon="9.1864395" />
      <trkpt lat="45.4601409" lon="9.1864371" />
      <trkpt lat="45.4602280" lon="9.1863916" />
      <trkpt lat="45.4606967" lon="9.1863513" />
      <trkpt lat="45.4607148" lon="9.1865658" />
      <trkpt lat="45.4606999" lon="9.1866900" />
      <trkpt lat="45.4607708" lon="9.1875202" />
      <trkpt lat="45.4607346" lon="9.1875215" />
      <trkpt lat="45.4607301" lon="9.1875303" />
      <trkpt lat="45.4607308" lon="9.1875704" />
      <trkpt lat="45.4607312" lon="9.1875952" />
      <trkpt lat="45.4607312" lon="9.1876011" />
      <trkpt lat="45.4607441" lon="9.1876012" />
      <trkpt lat="45.4607903" lon="9.1879879" />
      <trkpt lat="45.4607949" lon="9.1880024" />
      <trkpt lat="45.4608037" lon="9.1880753" />
      <trkpt lat="45.4608081" lon="9.1881501" />
      <trkpt lat="45.4608072" lon="9.1882007" />
      <trkpt lat="45.4608201" lon="9.1882044" />
      <trkpt lat="45.4608293" lon="9.1882066" />
      <trkpt lat="45.4608532" lon="9.1882109" />
      <trkpt lat="45.4608797" lon="9.1882158" />
      <trkpt lat="45.4608958" lon="9.1882187" />
      <trkpt lat="45.4610420" lon="9.1882814" />
      <trkpt lat="45.4610869" lon="9.1883090" />
      <trkpt lat="45.4612129" lon="9.1883608" />
      <trkpt lat="45.4613522" lon="9.1883922" />
      <trkpt lat="45.4613923" lon="9.1884132" />
      <trkpt lat="45.4617297" lon="9.1884365" />
      <trkpt lat="45.4619162" lon="9.1884342" />
      <trkpt lat="45.4626733" lon="9.1884445" />
      <trkpt lat="45.4626842" lon="9.1884188" />
      <trkpt lat="45.4627041" lon="9.1884191" />
      <trkpt lat="45.4627262" lon="9.1884192" />
      <trkpt lat="45.4627610" lon="9.1884201" />
      <trkpt lat="45.4627756" lon="9.1884203" />
      <trkpt lat="45.4628388" lon="9.1884389" />
      <trkpt lat="45.4628391" lon="9.1884746" />
      <trkpt lat="45.4628393" lon="9.1884922" />
      <trkpt lat="45.4628394" lon="9.1885131" />
      <trkpt lat="45.4628780" lon="9.1885136" />
      <trkpt lat="45.4632051" lon="9.1885178" />
      <trkpt lat="45.4632950" lon="9.1885189" />
      <trkpt lat="45.4635267" lon="9.1885191" />
      <trkpt lat="45.4635790" lon="9.1885192" />
      <trkpt lat="45.4635843" lon="9.1885356" />
      <trkpt lat="45.4635933" lon="9.1885635" />
      <trkpt lat="45.4635982" lon="9.1885736" />
      <trkpt lat="45.4636369" lon="9.1885741" />
      <trkpt lat="45.4636712" lon="9.1885745" />
      <trkpt lat="45.4636713" lon="9.1885837" />
      <trkpt lat="45.4636714" lon="9.1886805" />
      <trkpt lat="45.4636706" lon="9.1887812" />
      <trkpt lat="45.4636880" lon="9.1887996" />
      <trkpt lat="45.4636880" lon="9.1888097" />
      <trkpt lat="45.4636879" lon="9.1888363" />
      <trkpt lat="45.4637344" lon="9.1888372" />
      <trkpt lat="45.4637338" lon="9.1888841" />
      <trkpt lat="45.4637335" lon="9.1889066" />
      <trkpt lat="45.4637332" lon="9.1889265" />
      <trkpt lat="45.4637329" lon="9.1889492" />
      <trkpt lat="45.4637319" lon="9.1890225" />
      <trkpt lat="45.4637982" lon="9.1890213" />
      <trkpt lat="45.4637998" lon="9.1889533" />
      <trkpt lat="45.4638000" lon="9.1889344" />
      <trkpt lat="45.4638002" lon="9.1889146" />
      <trkpt lat="45.4638167" lon="9.1889146" />
      <trkpt lat="45.4640993" lon="9.1889147" />
      <trkpt lat="45.4641127" lon="9.1889147" />
      <trkpt lat="45.4641126" lon="9.1889477" />
      <trkpt lat="45.4641115" lon="9.1890703" />
      <trkpt lat="45.4641046" lon="9.1895113" />
      <trkpt lat="45.4641536" lon="9.1896431" />
      <trkpt lat="45.4643695" lon="9.1897716" />
    </trkseg>
  </trk>
</gpx>
