<?xml version="1.0" encoding="UTF-8"?>
<gpx xmlns="http://www.topografix.com/GPX/1/1" version="1.1" creator="ShapeRoute route-engine">
  <metadata>
    <name>CIAO 15 km trento v2</name>
    <author>
      <name>ShapeRoute route-engine</name>
    </author>
    <copyright author="OpenStreetMap contributors">
      <license>https://opendatacommons.org/licenses/odbl/1-0/</license>
    </copyright>
    <link href="https://www.openstreetmap.org/copyright">
      <text>© OpenStreetMap contributors</text>
    </link>
    <time>2026-09-25T22:22:41Z</time>
  </metadata>
  <trk>
    <name>CIAO 15 km trento v2</name>
    <trkseg>
      <trkpt lat="46.0761345" lon="11.1210628" />
      <trkpt lat="46.0762310" lon="11.1206138" />
      <trkpt lat="46.0764219" lon="11.1206991" />
      <trkpt lat="46.0764737" lon="11.1207222" />
      <trkpt lat="46.0764647" lon="11.1207641" />
      <trkpt lat="46.0763619" lon="11.1212418" />
      <trkpt lat="46.0763465" lon="11.1213456" />
      <trkpt lat="46.0763396" lon="11.1213923" />
      <trkpt lat="46.0762445" lon="11.1218190" />
      <trkpt lat="46.0761968" lon="11.1220095" />
      <trkpt lat="46.0761199" lon="11.1221706" />
      <trkpt lat="46.0758307" lon="11.1225833" />
      <trkpt lat="46.0758580" lon="11.1226170" />
      <trkpt lat="46.0758243" lon="11.1226651" />
      <trkpt lat="46.0757481" lon="11.1227850" />
      <trkpt lat="46.0757771" lon="11.1228277" />
      <trkpt lat="46.0758066" lon="11.1228711" />
      <trkpt lat="46.0758550" lon="11.1229312" />
      <trkpt lat="46.0759268" lon="11.1230095" />
      <trkpt lat="46.0759984" lon="11.1230940" />
      <trkpt lat="46.0760887" lon="11.1231811" />
      <trkpt lat="46.0761418" lon="11.1232139" />
      <trkpt lat="46.0760625" lon="11.1232870" />
      <trkpt lat="46.0759380" lon="11.1235204" />
      <trkpt lat="46.0758369" lon="11.1237262" />
      <trkpt lat="46.0757304" lon="11.1239354" />
      <trkpt lat="46.0757742" lon="11.1239531" />
      <trkpt lat="46.0757854" lon="11.1239572" />
      <trkpt lat="46.0758121" lon="11.1239570" />
      <trkpt lat="46.0758422" lon="11.1239537" />
      <trkpt lat="46.0758803" lon="11.1239424" />
      <trkpt lat="46.0759176" lon="11.1239221" />
      <trkpt lat="46.0759530" lon="11.1239771" />
      <trkpt lat="46.0760097" lon="11.1240642" />
      <trkpt lat="46.0759946" lon="11.1241709" />
      <trkpt lat="46.0759433" lon="11.1242343" />
      <trkpt lat="46.0760305" lon="11.1243180" />
      <trkpt lat="46.0760584" lon="11.1244168" />
      <trkpt lat="46.0761870" lon="11.1248707" />
      <trkpt lat="46.0762101" lon="11.1249523" />
      <trkpt lat="46.0762695" lon="11.1249440" />
      <trkpt lat="46.0763331" lon="11.1249703" />
      <trkpt lat="46.0763588" lon="11.1249809" />
      <trkpt lat="46.0764404" lon="11.1250085" />
      <trkpt lat="46.0766304" lon="11.1250492" />
      <trkpt lat="46.0769194" lon="11.1250928" />
      <trkpt lat="46.0770888" lon="11.1251062" />
      <trkpt lat="46.0771282" lon="11.1251145" />
      <trkpt lat="46.0771427" lon="11.1251284" />
      <trkpt lat="46.0771485" lon="11.1251453" />
      <trkpt lat="46.0771788" lon="11.1250861" />
      <trkpt lat="46.0772623" lon="11.1250648" />
      <trkpt lat="46.0773713" lon="11.1250427" />
      <trkpt lat="46.0774201" lon="11.1250347" />
      <trkpt lat="46.0774781" lon="11.1249858" />
      <trkpt lat="46.0774940" lon="11.1249490" />
      <trkpt lat="46.0775195" lon="11.1248790" />
      <trkpt lat="46.0775387" lon="11.1247986" />
      <trkpt lat="46.0775687" lon="11.1246881" />
      <trkpt lat="46.0775836" lon="11.1246569" />
      <trkpt lat="46.0776045" lon="11.1246245" />
      <trkpt lat="46.0776286" lon="11.1245969" />
      <trkpt lat="46.0776694" lon="11.1245765" />
      <trkpt lat="46.0777019" lon="11.1245705" />
      <trkpt lat="46.0777402" lon="11.1245693" />
      <trkpt lat="46.0778809" lon="11.1244745" />
      <trkpt lat="46.0781931" lon="11.1242632" />
      <trkpt lat="46.0782939" lon="11.1242056" />
      <trkpt lat="46.0784038" lon="11.1241732" />
      <trkpt lat="46.0784875" lon="11.1241689" />
      <trkpt lat="46.0785221" lon="11.1241749" />
      <trkpt lat="46.0785814" lon="11.1241956" />
      <trkpt lat="46.0786156" lon="11.1242196" />
      <trkpt lat="46.0786788" lon="11.1242940" />
      <trkpt lat="46.0787436" lon="11.1243705" />
      <trkpt lat="46.0787417" lon="11.1243899" />
      <trkpt lat="46.0787322" lon="11.1244902" />
      <trkpt lat="46.0789215" lon="11.1245280" />
      <trkpt lat="46.0791121" lon="11.1245884" />
      <trkpt lat="46.0792929" lon="11.1246439" />
      <trkpt lat="46.0794020" lon="11.1246682" />
      <trkpt lat="46.0795222" lon="11.1246144" />
      <trkpt lat="46.0795388" lon="11.1244860" />
      <trkpt lat="46.0795832" lon="11.1241388" />
      <trkpt lat="46.0796917" lon="11.1239513" />
      <trkpt lat="46.0798194" lon="11.1238054" />
      <trkpt lat="46.0799561" lon="11.1237752" />
      <trkpt lat="46.0801750" lon="11.1237986" />
      <trkpt lat="46.0804250" lon="11.1237986" />
      <trkpt lat="46.0804717" lon="11.1237813" />
      <trkpt lat="46.0805150" lon="11.1237571" />
      <trkpt lat="46.0805977" lon="11.1237042" />
      <trkpt lat="46.0807336" lon="11.1235938" />
      <trkpt lat="46.0807505" lon="11.1236990" />
      <trkpt lat="46.0807737" lon="11.1238143" />
      <trkpt lat="46.0807905" lon="11.1239042" />
      <trkpt lat="46.0808370" lon="11.1240088" />
      <trkpt lat="46.0808956" lon="11.1240356" />
      <trkpt lat="46.0811458" lon="11.1239538" />
      <trkpt lat="46.0808956" lon="11.1240356" />
      <trkpt lat="46.0808370" lon="11.1240088" />
      <trkpt lat="46.0807905" lon="11.1239042" />
      <trkpt lat="46.0807737" lon="11.1238143" />
      <trkpt lat="46.0807505" lon="11.1236990" />
      <trkpt lat="46.0807336" lon="11.1235938" />
      <trkpt lat="46.0805977" lon="11.1237042" />
      <trkpt lat="46.0805150" lon="11.1237571" />
      <trkpt lat="46.0804717" lon="11.1237813" />
      <trkpt lat="46.0804250" lon="11.1237986" />
      <trkpt lat="46.0801750" lon="11.1237986" />
      <trkpt lat="46.0799561" lon="11.1237752" />
      <trkpt lat="46.0798194" lon="11.1238054" />
      <trkpt lat="46.0796917" lon="11.1239513" />
      <trkpt lat="46.0795832" lon="11.1241388" />
      <trkpt lat="46.0795388" lon="11.1244860" />
      <trkpt lat="46.0795222" lon="11.1246144" />
      <trkpt lat="46.0794020" lon="11.1246682" />
      <trkpt lat="46.0792929" lon="11.1246439" />
      <trkpt lat="46.0791121" lon="11.1245884" />
      <trkpt lat="46.0789215" lon="11.1245280" />
      <trkpt lat="46.0787322" lon="11.1244902" />
      <trkpt lat="46.0787417" lon="11.1243899" />
      <trkpt lat="46.0787436" lon="11.1243705" />
      <trkpt lat="46.0786788" lon="11.1242940" />
      <trkpt lat="46.0786156" lon="11.1242196" />
      <trkpt lat="46.0785814" lon="11.1241956" />
      <trkpt lat="46.0785221" lon="11.1241749" />
      <trkpt lat="46.0784875" lon="11.1241689" />
      <trkpt lat="46.0784038" lon="11.1241732" />
      <trkpt lat="46.0782939" lon="11.1242056" />
      <trkpt lat="46.0781931" lon="11.1242632" />
      <trkpt lat="46.0778809" lon="11.1244745" />
      <trkpt lat="46.0777402" lon="11.1245693" />
      <trkpt lat="46.0777019" lon="11.1245705" />
      <trkpt lat="46.0776694" lon="11.1245765" />
      <trkpt lat="46.0776286" lon="11.1245969" />
      <trkpt lat="46.0776045" lon="11.1246245" />
      <trkpt lat="46.0775836" lon="11.1246569" />
      <trkpt lat="46.0775687" lon="11.1246881" />
      <trkpt lat="46.0775387" lon="11.1247986" />
      <trkpt lat="46.0775195" lon="11.1248790" />
      <trkpt lat="46.0774940" lon="11.1249490" />
      <trkpt lat="46.0774781" lon="11.1249858" />
      <trkpt lat="46.0774201" lon="11.1250347" />
      <trkpt lat="46.0773713" lon="11.1250427" />
      <trkpt lat="46.0772623" lon="11.1250648" />
      <trkpt lat="46.0771788" lon="11.1250861" />
      <trkpt lat="46.0771485" lon="11.1251453" />
      <trkpt lat="46.0771427" lon="11.1251284" />
      <trkpt lat="46.0771282" lon="11.1251145" />
      <trkpt lat="46.0770888" lon="11.1251062" />
      <trkpt lat="46.0769194" lon="11.1250928" />
      <trkpt lat="46.0766304" lon="11.1250492" />
      <trkpt lat="46.0764404" lon="11.1250085" />
      <trkpt lat="46.0763588" lon="11.1249809" />
      <trkpt lat="46.0763331" lon="11.1249703" />
      <trkpt lat="46.0762695" lon="11.1249440" />
      <trkpt lat="46.0762101" lon="11.1249523" />
      <trkpt lat="46.0761870" lon="11.1248707" />
      <trkpt lat="46.0760584" lon="11.1244168" />
      <trkpt lat="46.0760305" lon="11.1243180" />
      <trkpt lat="46.0759433" lon="11.1242343" />
      <trkpt lat="46.0759946" lon="11.1241709" />
      <trkpt lat="46.0760097" lon="11.1240642" />
      <trkpt lat="46.0759530" lon="11.1239771" />
      <trkpt lat="46.0759176" lon="11.1239221" />
      <trkpt lat="46.0758803" lon="11.1239424" />
      <trkpt lat="46.0758422" lon="11.1239537" />
      <trkpt lat="46.0758121" lon="11.1239570" />
      <trkpt lat="46.0757854" lon="11.1239572" />
      <trkpt lat="46.0757742" lon="11.1239531" />
      <trkpt lat="46.0757304" lon="11.1239354" />
      <trkpt lat="46.0758369" lon="11.1237262" />
      <trkpt lat="46.0757304" lon="11.1239354" />
      <trkpt lat="46.0757742" lon="11.1239531" />
      <trkpt lat="46.0757854" lon="11.1239572" />
      <trkpt lat="46.0758121" lon="11.1239570" />
      <trkpt lat="46.0758422" lon="11.1239537" />
      <trkpt lat="46.0758803" lon="11.1239424" />
      <trkpt lat="46.0759176" lon="11.1239221" />
      <trkpt lat="46.0759530" lon="11.1239771" />
      <trkpt lat="46.0760097" lon="11.1240642" />
      <trkpt lat="46.0759946" lon="11.1241709" />
      <trkpt lat="46.0759433" lon="11.1242343" />
      <trkpt lat="46.0760305" lon="11.1243180" />
      <trkpt lat="46.0760584" lon="11.1244168" />
      <trkpt lat="46.0761870" lon="11.1248707" />
      <trkpt lat="46.0762101" lon="11.1249523" />
      <trkpt lat="46.0762695" lon="11.1249440" />
      <trkpt lat="46.0763331" lon="11.1249703" />
      <trkpt lat="46.0763588" lon="11.1249809" />
      <trkpt lat="46.0764404" lon="11.1250085" />
      <trkpt lat="46.0766304" lon="11.1250492" />
      <trkpt lat="46.0769194" lon="11.1250928" />
      <trkpt lat="46.0770888" lon="11.1251062" />
      <trkpt lat="46.0771282" lon="11.1251145" />
      <trkpt lat="46.0771427" lon="11.1251284" />
      <trkpt lat="46.0771485" lon="11.1251453" />
      <trkpt lat="46.0771788" lon="11.1250861" />
      <trkpt lat="46.0772623" lon="11.1250648" />
      <trkpt lat="46.0773713" lon="11.1250427" />
      <trkpt lat="46.0774201" lon="11.1250347" />
      <trkpt lat="46.0774781" lon="11.1249858" />
      <trkpt lat="46.0774940" lon="11.1249490" />
      <trkpt lat="46.0775195" lon="11.1248790" />
      <trkpt lat="46.0775387" lon="11.1247986" />
      <trkpt lat="46.0775687" lon="11.1246881" />
      <trkpt lat="46.0775836" lon="11.1246569" />
      <trkpt lat="46.0776045" lon="11.1246245" />
      <trkpt lat="46.0776286" lon="11.1245969" />
      <trkpt lat="46.0776694" lon="11.1245765" />
      <trkpt lat="46.0777019" lon="11.1245705" />
      <trkpt lat="46.0777402" lon="11.1245693" />
      <trkpt lat="46.0778809" lon="11.1244745" />
      <trkpt lat="46.0781931" lon="11.1242632" />
      <trkpt lat="46.0782939" lon="11.1242056" />
      <trkpt lat="46.0784038" lon="11.1241732" />
      <trkpt lat="46.0784875" lon="11.1241689" />
      <trkpt lat="46.0785221" lon="11.1241749" />
      <trkpt lat="46.0785814" lon="11.1241956" />
      <trkpt lat="46.0786156" lon="11.1242196" />
      <trkpt lat="46.0786788" lon="11.1242940" />
      <trkpt lat="46.0787436" lon="11.1243705" />
      <trkpt lat="46.0787417" lon="11.1243899" />
      <trkpt lat="46.0787322" lon="11.1244902" />
      <trkpt lat="46.0786860" lon="11.1244818" />
      <trkpt lat="46.0786679" lon="11.1245942" />
      <trkpt lat="46.0786295" lon="11.1247290" />
      <trkpt lat="46.0785672" lon="11.1248890" />
      <trkpt lat="46.0785499" lon="11.1249317" />
      <trkpt lat="46.0784480" lon="11.1250675" />
      <trkpt lat="46.0782439" lon="11.1252306" />
      <trkpt lat="46.0780801" lon="11.1254054" />
      <trkpt lat="46.0778389" lon="11.1257179" />
      <trkpt lat="46.0776466" lon="11.1259896" />
      <trkpt lat="46.0775885" lon="11.1260716" />
      <trkpt lat="46.0775313" lon="11.1262105" />
      <trkpt lat="46.0775071" lon="11.1262879" />
      <trkpt lat="46.0774895" lon="11.1263747" />
      <trkpt lat="46.0774476" lon="11.1266083" />
      <trkpt lat="46.0774140" lon="11.1267203" />
      <trkpt lat="46.0773621" lon="11.1268230" />
      <trkpt lat="46.0772324" lon="11.1270697" />
      <trkpt lat="46.0769676" lon="11.1273889" />
      <trkpt lat="46.0768882" lon="11.1274744" />
      <trkpt lat="46.0768848" lon="11.1274787" />
      <trkpt lat="46.0768259" lon="11.1275549" />
      <trkpt lat="46.0766061" lon="11.1277146" />
      <trkpt lat="46.0762954" lon="11.1279100" />
      <trkpt lat="46.0761818" lon="11.1279798" />
      <trkpt lat="46.0761026" lon="11.1280285" />
      <trkpt lat="46.0760286" lon="11.1281419" />
      <trkpt lat="46.0759290" lon="11.1282301" />
      <trkpt lat="46.0759087" lon="11.1284264" />
      <trkpt lat="46.0759068" lon="11.1285458" />
      <trkpt lat="46.0758860" lon="11.1286618" />
      <trkpt lat="46.0758202" lon="11.1289142" />
      <trkpt lat="46.0757893" lon="11.1291059" />
      <trkpt lat="46.0757939" lon="11.1293083" />
      <trkpt lat="46.0758122" lon="11.1294045" />
      <trkpt lat="46.0758601" lon="11.1295688" />
      <trkpt lat="46.0759415" lon="11.1297726" />
      <trkpt lat="46.0760013" lon="11.1299493" />
      <trkpt lat="46.0760478" lon="11.1300123" />
      <trkpt lat="46.0761724" lon="11.1300875" />
      <trkpt lat="46.0764975" lon="11.1302832" />
      <trkpt lat="46.0766298" lon="11.1303343" />
      <trkpt lat="46.0767621" lon="11.1303772" />
      <trkpt lat="46.0770168" lon="11.1304446" />
      <trkpt lat="46.0771354" lon="11.1304578" />
      <trkpt lat="46.0772788" lon="11.1304450" />
      <trkpt lat="46.0773083" lon="11.1304503" />
      <trkpt lat="46.0773671" lon="11.1304666" />
      <trkpt lat="46.0774699" lon="11.1305183" />
      <trkpt lat="46.0775462" lon="11.1305548" />
      <trkpt lat="46.0776351" lon="11.1305890" />
      <trkpt lat="46.0776813" lon="11.1306004" />
      <trkpt lat="46.0779757" lon="11.1306368" />
      <trkpt lat="46.0780404" lon="11.1306618" />
      <trkpt lat="46.0781185" lon="11.1307095" />
      <trkpt lat="46.0782004" lon="11.1307831" />
      <trkpt lat="46.0782903" lon="11.1308929" />
      <trkpt lat="46.0783495" lon="11.1309923" />
      <trkpt lat="46.0783826" lon="11.1310924" />
      <trkpt lat="46.0783974" lon="11.1311663" />
      <trkpt lat="46.0783974" lon="11.1312138" />
      <trkpt lat="46.0783917" lon="11.1312810" />
      <trkpt lat="46.0783660" lon="11.1313499" />
      <trkpt lat="46.0783263" lon="11.1314152" />
      <trkpt lat="46.0781656" lon="11.1316469" />
      <trkpt lat="46.0778386" lon="11.1320741" />
      <trkpt lat="46.0775294" lon="11.1324748" />
      <trkpt lat="46.0771637" lon="11.1328149" />
      <trkpt lat="46.0770186" lon="11.1329397" />
      <trkpt lat="46.0770180" lon="11.1330358" />
      <trkpt lat="46.0769276" lon="11.1331966" />
      <trkpt lat="46.0768501" lon="11.1334039" />
      <trkpt lat="46.0767662" lon="11.1335477" />
      <trkpt lat="46.0767134" lon="11.1336349" />
      <trkpt lat="46.0767733" lon="11.1337175" />
      <trkpt lat="46.0768521" lon="11.1337678" />
      <trkpt lat="46.0769419" lon="11.1337805" />
      <trkpt lat="46.0770276" lon="11.1338414" />
      <trkpt lat="46.0770945" lon="11.1339463" />
      <trkpt lat="46.0771392" lon="11.1340305" />
      <trkpt lat="46.0773505" lon="11.1339223" />
      <trkpt lat="46.0774887" lon="11.1339073" />
      <trkpt lat="46.0776696" lon="11.1339099" />
      <trkpt lat="46.0777929" lon="11.1339928" />
      <trkpt lat="46.0779414" lon="11.1339180" />
      <trkpt lat="46.0779830" lon="11.1338860" />
      <trkpt lat="46.0780515" lon="11.1338922" />
      <trkpt lat="46.0780813" lon="11.1339003" />
      <trkpt lat="46.0780943" lon="11.1338788" />
      <trkpt lat="46.0781191" lon="11.1338795" />
      <trkpt lat="46.0781584" lon="11.1339042" />
      <trkpt lat="46.0781386" lon="11.1340148" />
      <trkpt lat="46.0781584" lon="11.1339042" />
      <trkpt lat="46.0781191" lon="11.1338795" />
      <trkpt lat="46.0780943" lon="11.1338788" />
      <trkpt lat="46.0780813" lon="11.1339003" />
      <trkpt lat="46.0780515" lon="11.1338922" />
      <trkpt lat="46.0779830" lon="11.1338860" />
      <trkpt lat="46.0779414" lon="11.1339180" />
      <trkpt lat="46.0777929" lon="11.1339928" />
      <trkpt lat="46.0776696" lon="11.1339099" />
      <trkpt lat="46.0774887" lon="11.1339073" />
      <trkpt lat="46.0773505" lon="11.1339223" />
      <trkpt lat="46.0771392" lon="11.1340305" />
      <trkpt lat="46.0770945" lon="11.1339463" />
      <trkpt lat="46.0770276" lon="11.1338414" />
      <trkpt lat="46.0769419" lon="11.1337805" />
      <trkpt lat="46.0768521" lon="11.1337678" />
      <trkpt lat="46.0767733" lon="11.1337175" />
      <trkpt lat="46.0767134" lon="11.1336349" />
      <trkpt lat="46.0766711" lon="11.1336594" />
      <trkpt lat="46.0765783" lon="11.1336710" />
      <trkpt lat="46.0764380" lon="11.1339313" />
      <trkpt lat="46.0759718" lon="11.1348107" />
      <trkpt lat="46.0758328" lon="11.1350534" />
      <trkpt lat="46.0758981" lon="11.1350668" />
      <trkpt lat="46.0760135" lon="11.1350906" />
      <trkpt lat="46.0762267" lon="11.1350233" />
      <trkpt lat="46.0763880" lon="11.1349902" />
      <trkpt lat="46.0765286" lon="11.1350298" />
      <trkpt lat="46.0765282" lon="11.1351404" />
      <trkpt lat="46.0765587" lon="11.1353184" />
      <trkpt lat="46.0766246" lon="11.1354568" />
      <trkpt lat="46.0765842" lon="11.1355634" />
      <trkpt lat="46.0764642" lon="11.1356588" />
      <trkpt lat="46.0761471" lon="11.1357770" />
      <trkpt lat="46.0760520" lon="11.1358303" />
      <trkpt lat="46.0759658" lon="11.1359222" />
      <trkpt lat="46.0756644" lon="11.1362523" />
      <trkpt lat="46.0756051" lon="11.1362893" />
      <trkpt lat="46.0756441" lon="11.1363228" />
      <trkpt lat="46.0757653" lon="11.1363504" />
      <trkpt lat="46.0759048" lon="11.1364461" />
      <trkpt lat="46.0760750" lon="11.1365801" />
      <trkpt lat="46.0760467" lon="11.1368302" />
      <trkpt lat="46.0760330" lon="11.1369124" />
      <trkpt lat="46.0763502" lon="11.1370508" />
      <trkpt lat="46.0764423" lon="11.1370969" />
      <trkpt lat="46.0765580" lon="11.1371513" />
      <trkpt lat="46.0766725" lon="11.1372785" />
      <trkpt lat="46.0766935" lon="11.1373498" />
      <trkpt lat="46.0767083" lon="11.1374124" />
      <trkpt lat="46.0766619" lon="11.1374243" />
      <trkpt lat="46.0766679" lon="11.1375110" />
      <trkpt lat="46.0766604" lon="11.1376447" />
      <trkpt lat="46.0765630" lon="11.1380309" />
      <trkpt lat="46.0764422" lon="11.1386605" />
      <trkpt lat="46.0763985" lon="11.1388959" />
      <trkpt lat="46.0763857" lon="11.1391369" />
      <trkpt lat="46.0763877" lon="11.1391951" />
      <trkpt lat="46.0764088" lon="11.1393960" />
      <trkpt lat="46.0764612" lon="11.1396150" />
      <trkpt lat="46.0764742" lon="11.1396651" />
      <trkpt lat="46.0765879" lon="11.1400742" />
      <trkpt lat="46.0766231" lon="11.1402312" />
      <trkpt lat="46.0766243" lon="11.1403096" />
      <trkpt lat="46.0766257" lon="11.1404017" />
      <trkpt lat="46.0766172" lon="11.1405509" />
      <trkpt lat="46.0765758" lon="11.1405380" />
      <trkpt lat="46.0765342" lon="11.1407987" />
      <trkpt lat="46.0765056" lon="11.1410296" />
      <trkpt lat="46.0764838" lon="11.1411185" />
      <trkpt lat="46.0764132" lon="11.1412637" />
      <trkpt lat="46.0763915" lon="11.1413248" />
      <trkpt lat="46.0763758" lon="11.1413997" />
      <trkpt lat="46.0764261" lon="11.1414336" />
      <trkpt lat="46.0764726" lon="11.1414654" />
      <trkpt lat="46.0764910" lon="11.1414217" />
      <trkpt lat="46.0765102" lon="11.1413760" />
      <trkpt lat="46.0765592" lon="11.1412655" />
      <trkpt lat="46.0765719" lon="11.1412410" />
      <trkpt lat="46.0766238" lon="11.1411987" />
      <trkpt lat="46.0766862" lon="11.1412171" />
      <trkpt lat="46.0767283" lon="11.1412674" />
      <trkpt lat="46.0767683" lon="11.1413115" />
      <trkpt lat="46.0767771" lon="11.1413598" />
      <trkpt lat="46.0768473" lon="11.1414409" />
      <trkpt lat="46.0768678" lon="11.1414349" />
      <trkpt lat="46.0768835" lon="11.1414528" />
      <trkpt lat="46.0769551" lon="11.1415441" />
      <trkpt lat="46.0770011" lon="11.1416916" />
      <trkpt lat="46.0770089" lon="11.1418230" />
      <trkpt lat="46.0770018" lon="11.1419282" />
      <trkpt lat="46.0769930" lon="11.1419672" />
      <trkpt lat="46.0769848" lon="11.1419927" />
      <trkpt lat="46.0769706" lon="11.1420367" />
      <trkpt lat="46.0769501" lon="11.1420694" />
      <trkpt lat="46.0769704" lon="11.1420982" />
      <trkpt lat="46.0770013" lon="11.1421369" />
      <trkpt lat="46.0770300" lon="11.1421227" />
      <trkpt lat="46.0770640" lon="11.1421365" />
      <trkpt lat="46.0770822" lon="11.1420767" />
      <trkpt lat="46.0773930" lon="11.1422903" />
      <trkpt lat="46.0776016" lon="11.1424638" />
      <trkpt lat="46.0778997" lon="11.1423595" />
      <trkpt lat="46.0783091" lon="11.1423143" />
      <trkpt lat="46.0783020" lon="11.1421554" />
      <trkpt lat="46.0783330" lon="11.1421510" />
      <trkpt lat="46.0783754" lon="11.1421450" />
      <trkpt lat="46.0783925" lon="11.1421532" />
      <trkpt lat="46.0783996" lon="11.1421786" />
      <trkpt lat="46.0783918" lon="11.1422211" />
      <trkpt lat="46.0782982" lon="11.1425531" />
      <trkpt lat="46.0782379" lon="11.1427144" />
      <trkpt lat="46.0782394" lon="11.1427293" />
      <trkpt lat="46.0782502" lon="11.1427322" />
      <trkpt lat="46.0783036" lon="11.1426021" />
      <trkpt lat="46.0783848" lon="11.1424207" />
      <trkpt lat="46.0784071" lon="11.1424336" />
      <trkpt lat="46.0784568" lon="11.1423101" />
      <trkpt lat="46.0785045" lon="11.1421757" />
      <trkpt lat="46.0785128" lon="11.1421521" />
      <trkpt lat="46.0787155" lon="11.1424722" />
      <trkpt lat="46.0788413" lon="11.1427101" />
      <trkpt lat="46.0789897" lon="11.1428825" />
      <trkpt lat="46.0791554" lon="11.1429362" />
      <trkpt lat="46.0794325" lon="11.1429453" />
      <trkpt lat="46.0794994" lon="11.1430687" />
      <trkpt lat="46.0795887" lon="11.1431459" />
      <trkpt lat="46.0804607" lon="11.1434654" />
      <trkpt lat="46.0805206" lon="11.1434659" />
      <trkpt lat="46.0807996" lon="11.1434682" />
      <trkpt lat="46.0807946" lon="11.1434106" />
      <trkpt lat="46.0807614" lon="11.1430295" />
      <trkpt lat="46.0807251" lon="11.1425997" />
      <trkpt lat="46.0807034" lon="11.1425071" />
      <trkpt lat="46.0806840" lon="11.1424245" />
      <trkpt lat="46.0806244" lon="11.1422880" />
      <trkpt lat="46.0805843" lon="11.1421929" />
      <trkpt lat="46.0805571" lon="11.1421285" />
      <trkpt lat="46.0804959" lon="11.1419043" />
      <trkpt lat="46.0804672" lon="11.1416763" />
      <trkpt lat="46.0804503" lon="11.1414975" />
      <trkpt lat="46.0804379" lon="11.1413366" />
      <trkpt lat="46.0804271" lon="11.1411954" />
      <trkpt lat="46.0804582" lon="11.1408440" />
      <trkpt lat="46.0804678" lon="11.1406601" />
      <trkpt lat="46.0804614" lon="11.1403001" />
      <trkpt lat="46.0804483" lon="11.1396854" />
      <trkpt lat="46.0804503" lon="11.1396112" />
      <trkpt lat="46.0804433" lon="11.1391376" />
      <trkpt lat="46.0804287" lon="11.1390388" />
      <trkpt lat="46.0803733" lon="11.1388999" />
      <trkpt lat="46.0803282" lon="11.1388144" />
      <trkpt lat="46.0802242" lon="11.1386800" />
      <trkpt lat="46.0802015" lon="11.1387204" />
      <trkpt lat="46.0801752" lon="11.1386934" />
      <trkpt lat="46.0801528" lon="11.1386807" />
      <trkpt lat="46.0801263" lon="11.1386753" />
      <trkpt lat="46.0800998" lon="11.1386840" />
      <trkpt lat="46.0800799" lon="11.1387069" />
      <trkpt lat="46.0800522" lon="11.1386736" />
      <trkpt lat="46.0800198" lon="11.1386338" />
      <trkpt lat="46.0800696" lon="11.1385416" />
      <trkpt lat="46.0800715" lon="11.1385115" />
      <trkpt lat="46.0801042" lon="11.1384762" />
      <trkpt lat="46.0800793" lon="11.1384250" />
      <trkpt lat="46.0800475" lon="11.1383772" />
      <trkpt lat="46.0800027" lon="11.1383319" />
      <trkpt lat="46.0798794" lon="11.1382735" />
      <trkpt lat="46.0796097" lon="11.1381458" />
      <trkpt lat="46.0795933" lon="11.1381380" />
      <trkpt lat="46.0792275" lon="11.1379074" />
      <trkpt lat="46.0791741" lon="11.1379124" />
      <trkpt lat="46.0790579" lon="11.1378600" />
      <trkpt lat="46.0787921" lon="11.1376888" />
      <trkpt lat="46.0785150" lon="11.1375334" />
      <trkpt lat="46.0783906" lon="11.1374784" />
      <trkpt lat="46.0782555" lon="11.1374428" />
      <trkpt lat="46.0781233" lon="11.1373653" />
      <trkpt lat="46.0779690" lon="11.1373205" />
      <trkpt lat="46.0778621" lon="11.1372717" />
      <trkpt lat="46.0778023" lon="11.1372478" />
      <trkpt lat="46.0776927" lon="11.1372586" />
      <trkpt lat="46.0776122" lon="11.1372741" />
      <trkpt lat="46.0775191" lon="11.1372034" />
      <trkpt lat="46.0774914" lon="11.1371736" />
      <trkpt lat="46.0774762" lon="11.1371727" />
      <trkpt lat="46.0774138" lon="11.1371688" />
      <trkpt lat="46.0773649" lon="11.1371018" />
      <trkpt lat="46.0772512" lon="11.1371305" />
      <trkpt lat="46.0770669" lon="11.1371114" />
      <trkpt lat="46.0768768" lon="11.1370456" />
      <trkpt lat="46.0768129" lon="11.1369977" />
      <trkpt lat="46.0767573" lon="11.1369295" />
      <trkpt lat="46.0766958" lon="11.1366914" />
      <trkpt lat="46.0765763" lon="11.1367225" />
      <trkpt lat="46.0763920" lon="11.1367656" />
      <trkpt lat="46.0763049" lon="11.1367524" />
      <trkpt lat="46.0760750" lon="11.1365801" />
      <trkpt lat="46.0760467" lon="11.1368302" />
      <trkpt lat="46.0760330" lon="11.1369124" />
      <trkpt lat="46.0763502" lon="11.1370508" />
      <trkpt lat="46.0764423" lon="11.1370969" />
      <trkpt lat="46.0765580" lon="11.1371513" />
      <trkpt lat="46.0766725" lon="11.1372785" />
      <trkpt lat="46.0766935" lon="11.1373498" />
      <trkpt lat="46.0767083" lon="11.1374124" />
      <trkpt lat="46.0767174" lon="11.1374906" />
      <trkpt lat="46.0767118" lon="11.1375937" />
      <trkpt lat="46.0766819" lon="11.1377006" />
      <trkpt lat="46.0766113" lon="11.1379484" />
      <trkpt lat="46.0764775" lon="11.1386374" />
      <trkpt lat="46.0764695" lon="11.1386782" />
      <trkpt lat="46.0764615" lon="11.1387211" />
      <trkpt lat="46.0764266" lon="11.1389183" />
      <trkpt lat="46.0764171" lon="11.1390938" />
      <trkpt lat="46.0764172" lon="11.1391380" />
      <trkpt lat="46.0764162" lon="11.1391914" />
      <trkpt lat="46.0763877" lon="11.1391951" />
      <trkpt lat="46.0764088" lon="11.1393960" />
      <trkpt lat="46.0764612" lon="11.1396150" />
      <trkpt lat="46.0764742" lon="11.1396651" />
      <trkpt lat="46.0765879" lon="11.1400742" />
      <trkpt lat="46.0766231" lon="11.1402312" />
      <trkpt lat="46.0766243" lon="11.1403096" />
      <trkpt lat="46.0766231" lon="11.1402312" />
      <trkpt lat="46.0765879" lon="11.1400742" />
      <trkpt lat="46.0764742" lon="11.1396651" />
      <trkpt lat="46.0764612" lon="11.1396150" />
      <trkpt lat="46.0764088" lon="11.1393960" />
      <trkpt lat="46.0763877" lon="11.1391951" />
      <trkpt lat="46.0763857" lon="11.1391369" />
      <trkpt lat="46.0763985" lon="11.1388959" />
      <trkpt lat="46.0764422" lon="11.1386605" />
      <trkpt lat="46.0765630" lon="11.1380309" />
      <trkpt lat="46.0766604" lon="11.1376447" />
      <trkpt lat="46.0766679" lon="11.1375110" />
      <trkpt lat="46.0766619" lon="11.1374243" />
      <trkpt lat="46.0767083" lon="11.1374124" />
      <trkpt lat="46.0766935" lon="11.1373498" />
      <trkpt lat="46.0766725" lon="11.1372785" />
      <trkpt lat="46.0765580" lon="11.1371513" />
      <trkpt lat="46.0764423" lon="11.1370969" />
      <trkpt lat="46.0763502" lon="11.1370508" />
      <trkpt lat="46.0760330" lon="11.1369124" />
      <trkpt lat="46.0760467" lon="11.1368302" />
      <trkpt lat="46.0760750" lon="11.1365801" />
      <trkpt lat="46.0759048" lon="11.1364461" />
      <trkpt lat="46.0757653" lon="11.1363504" />
      <trkpt lat="46.0756441" lon="11.1363228" />
      <trkpt lat="46.0756051" lon="11.1362893" />
      <trkpt lat="46.0756644" lon="11.1362523" />
      <trkpt lat="46.0759658" lon="11.1359222" />
      <trkpt lat="46.0760520" lon="11.1358303" />
      <trkpt lat="46.0761471" lon="11.1357770" />
      <trkpt lat="46.0764642" lon="11.1356588" />
      <trkpt lat="46.0765842" lon="11.1355634" />
      <trkpt lat="46.0766246" lon="11.1354568" />
      <trkpt lat="46.0765587" lon="11.1353184" />
      <trkpt lat="46.0765282" lon="11.1351404" />
      <trkpt lat="46.0765286" lon="11.1350298" />
      <trkpt lat="46.0763880" lon="11.1349902" />
      <trkpt lat="46.0762267" lon="11.1350233" />
      <trkpt lat="46.0760135" lon="11.1350906" />
      <trkpt lat="46.0758981" lon="11.1350668" />
      <trkpt lat="46.0758328" lon="11.1350534" />
      <trkpt lat="46.0759718" lon="11.1348107" />
      <trkpt lat="46.0764380" lon="11.1339313" />
      <trkpt lat="46.0765783" lon="11.1336710" />
      <trkpt lat="46.0766711" lon="11.1336594" />
      <trkpt lat="46.0767134" lon="11.1336349" />
      <trkpt lat="46.0767733" lon="11.1337175" />
      <trkpt lat="46.0768521" lon="11.1337678" />
      <trkpt lat="46.0769419" lon="11.1337805" />
      <trkpt lat="46.0770276" lon="11.1338414" />
      <trkpt lat="46.0770945" lon="11.1339463" />
      <trkpt lat="46.0771392" lon="11.1340305" />
      <trkpt lat="46.0773505" lon="11.1339223" />
      <trkpt lat="46.0774887" lon="11.1339073" />
      <trkpt lat="46.0776696" lon="11.1339099" />
      <trkpt lat="46.0777929" lon="11.1339928" />
      <trkpt lat="46.0779414" lon="11.1339180" />
      <trkpt lat="46.0779830" lon="11.1338860" />
      <trkpt lat="46.0780515" lon="11.1338922" />
      <trkpt lat="46.0780813" lon="11.1339003" />
      <trkpt lat="46.0780943" lon="11.1338788" />
      <trkpt lat="46.0781191" lon="11.1338795" />
      <trkpt lat="46.0781584" lon="11.1339042" />
      <trkpt lat="46.0781386" lon="11.1340148" />
      <trkpt lat="46.0779338" lon="11.1340284" />
      <trkpt lat="46.0778499" lon="11.1340597" />
      <trkpt lat="46.0776902" lon="11.1341240" />
      <trkpt lat="46.0775552" lon="11.1341663" />
      <trkpt lat="46.0774079" lon="11.1342131" />
      <trkpt lat="46.0772587" lon="11.1342775" />
      <trkpt lat="46.0771918" lon="11.1343218" />
      <trkpt lat="46.0771409" lon="11.1344008" />
      <trkpt lat="46.0771009" lon="11.1344794" />
      <trkpt lat="46.0770822" lon="11.1345054" />
      <trkpt lat="46.0770659" lon="11.1346222" />
      <trkpt lat="46.0770929" lon="11.1347288" />
      <trkpt lat="46.0771621" lon="11.1348921" />
      <trkpt lat="46.0771923" lon="11.1347467" />
      <trkpt lat="46.0772509" lon="11.1346502" />
      <trkpt lat="46.0772697" lon="11.1345648" />
      <trkpt lat="46.0772903" lon="11.1344311" />
      <trkpt lat="46.0772839" lon="11.1343482" />
      <trkpt lat="46.0772691" lon="11.1343008" />
      <trkpt lat="46.0772480" lon="11.1342441" />
      <trkpt lat="46.0772236" lon="11.1341968" />
      <trkpt lat="46.0771655" lon="11.1340800" />
      <trkpt lat="46.0771392" lon="11.1340305" />
      <trkpt lat="46.0770945" lon="11.1339463" />
      <trkpt lat="46.0770276" lon="11.1338414" />
      <trkpt lat="46.0769419" lon="11.1337805" />
      <trkpt lat="46.0768521" lon="11.1337678" />
      <trkpt lat="46.0767733" lon="11.1337175" />
      <trkpt lat="46.0767134" lon="11.1336349" />
      <trkpt lat="46.0766711" lon="11.1336594" />
      <trkpt lat="46.0765783" lon="11.1336710" />
      <trkpt lat="46.0766631" lon="11.1334795" />
      <trkpt lat="46.0767809" lon="11.1332183" />
      <trkpt lat="46.0769450" lon="11.1330030" />
      <trkpt lat="46.0770186" lon="11.1329397" />
      <trkpt lat="46.0775038" lon="11.1330253" />
      <trkpt lat="46.0782735" lon="11.1331885" />
      <trkpt lat="46.0783305" lon="11.1332315" />
      <trkpt lat="46.0784595" lon="11.1335187" />
      <trkpt lat="46.0785297" lon="11.1336566" />
      <trkpt lat="46.0785911" lon="11.1336920" />
      <trkpt lat="46.0787333" lon="11.1337198" />
      <trkpt lat="46.0788430" lon="11.1337249" />
      <trkpt lat="46.0789018" lon="11.1337097" />
      <trkpt lat="46.0789457" lon="11.1336414" />
      <trkpt lat="46.0789834" lon="11.1334871" />
      <trkpt lat="46.0790615" lon="11.1333745" />
      <trkpt lat="46.0792589" lon="11.1332239" />
      <trkpt lat="46.0793555" lon="11.1331999" />
      <trkpt lat="46.0794599" lon="11.1332011" />
      <trkpt lat="46.0797741" lon="11.1331296" />
      <trkpt lat="46.0798285" lon="11.1330632" />
      <trkpt lat="46.0796363" lon="11.1330000" />
      <trkpt lat="46.0795047" lon="11.1329507" />
      <trkpt lat="46.0794766" lon="11.1328887" />
      <trkpt lat="46.0794327" lon="11.1327153" />
      <trkpt lat="46.0793941" lon="11.1326711" />
      <trkpt lat="46.0793721" lon="11.1326559" />
      <trkpt lat="46.0790518" lon="11.1325446" />
      <trkpt lat="46.0790169" lon="11.1324874" />
      <trkpt lat="46.0789865" lon="11.1324158" />
      <trkpt lat="46.0789569" lon="11.1318068" />
      <trkpt lat="46.0789516" lon="11.1317638" />
      <trkpt lat="46.0789332" lon="11.1317068" />
      <trkpt lat="46.0789034" lon="11.1316727" />
      <trkpt lat="46.0784120" lon="11.1314020" />
      <trkpt lat="46.0783881" lon="11.1313750" />
      <trkpt lat="46.0784196" lon="11.1312900" />
      <trkpt lat="46.0784249" lon="11.1312009" />
      <trkpt lat="46.0784223" lon="11.1311425" />
      <trkpt lat="46.0784035" lon="11.1310478" />
      <trkpt lat="46.0783749" lon="11.1309601" />
      <trkpt lat="46.0783329" lon="11.1308848" />
      <trkpt lat="46.0782187" lon="11.1307435" />
      <trkpt lat="46.0781547" lon="11.1306814" />
      <trkpt lat="46.0781019" lon="11.1306449" />
      <trkpt lat="46.0780405" lon="11.1306123" />
      <trkpt lat="46.0779802" lon="11.1305929" />
      <trkpt lat="46.0776694" lon="11.1305579" />
      <trkpt lat="46.0776344" lon="11.1305470" />
      <trkpt lat="46.0776156" lon="11.1305261" />
      <trkpt lat="46.0776032" lon="11.1304911" />
      <trkpt lat="46.0775989" lon="11.1304453" />
      <trkpt lat="46.0775924" lon="11.1303149" />
      <trkpt lat="46.0775929" lon="11.1302683" />
      <trkpt lat="46.0776016" lon="11.1302078" />
      <trkpt lat="46.0776209" lon="11.1301581" />
      <trkpt lat="46.0776441" lon="11.1301231" />
      <trkpt lat="46.0776753" lon="11.1300929" />
      <trkpt lat="46.0777130" lon="11.1300773" />
      <trkpt lat="46.0778186" lon="11.1300579" />
      <trkpt lat="46.0780627" lon="11.1300245" />
      <trkpt lat="46.0782169" lon="11.1299712" />
      <trkpt lat="46.0782552" lon="11.1299640" />
      <trkpt lat="46.0783178" lon="11.1299640" />
      <trkpt lat="46.0784436" lon="11.1299825" />
      <trkpt lat="46.0785535" lon="11.1300040" />
      <trkpt lat="46.0786148" lon="11.1300070" />
      <trkpt lat="46.0787306" lon="11.1299978" />
      <trkpt lat="46.0789552" lon="11.1299773" />
      <trkpt lat="46.0789872" lon="11.1299825" />
      <trkpt lat="46.0790213" lon="11.1300275" />
      <trkpt lat="46.0790556" lon="11.1300247" />
      <trkpt lat="46.0790408" lon="11.1302641" />
      <trkpt lat="46.0789767" lon="11.1305597" />
      <trkpt lat="46.0789498" lon="11.1307374" />
      <trkpt lat="46.0789891" lon="11.1308738" />
      <trkpt lat="46.0791824" lon="11.1310548" />
      <trkpt lat="46.0795171" lon="11.1313952" />
      <trkpt lat="46.0797885" lon="11.1317325" />
      <trkpt lat="46.0799542" lon="11.1319641" />
      <trkpt lat="46.0800189" lon="11.1320213" />
      <trkpt lat="46.0800710" lon="11.1320429" />
      <trkpt lat="46.0801230" lon="11.1320646" />
      <trkpt lat="46.0805643" lon="11.1320897" />
      <trkpt lat="46.0808744" lon="11.1320652" />
      <trkpt lat="46.0811186" lon="11.1320128" />
      <trkpt lat="46.0812287" lon="11.1320324" />
      <trkpt lat="46.0813185" lon="11.1320324" />
      <trkpt lat="46.0814661" lon="11.1319669" />
      <trkpt lat="46.0815627" lon="11.1317966" />
      <trkpt lat="46.0816104" lon="11.1316935" />
      <trkpt lat="46.0816497" lon="11.1316710" />
      <trkpt lat="46.0814638" lon="11.1315671" />
      <trkpt lat="46.0813001" lon="11.1314544" />
      <trkpt lat="46.0811569" lon="11.1312586" />
      <trkpt lat="46.0810921" lon="11.1308584" />
      <trkpt lat="46.0805364" lon="11.1304627" />
      <trkpt lat="46.0803431" lon="11.1298752" />
      <trkpt lat="46.0802294" lon="11.1297350" />
      <trkpt lat="46.0800759" lon="11.1295993" />
      <trkpt lat="46.0799238" lon="11.1295105" />
      <trkpt lat="46.0798156" lon="11.1294976" />
      <trkpt lat="46.0796726" lon="11.1295490" />
      <trkpt lat="46.0793126" lon="11.1297461" />
      <trkpt lat="46.0790521" lon="11.1299157" />
      <trkpt lat="46.0789921" lon="11.1299344" />
      <trkpt lat="46.0787288" lon="11.1299601" />
      <trkpt lat="46.0786418" lon="11.1299666" />
      <trkpt lat="46.0785548" lon="11.1299618" />
      <trkpt lat="46.0783906" lon="11.1299293" />
      <trkpt lat="46.0783163" lon="11.1299243" />
      <trkpt lat="46.0782490" lon="11.1299260" />
      <trkpt lat="46.0781763" lon="11.1299414" />
      <trkpt lat="46.0780466" lon="11.1299816" />
      <trkpt lat="46.0779180" lon="11.1300020" />
      <trkpt lat="46.0776874" lon="11.1300366" />
      <trkpt lat="46.0776279" lon="11.1300650" />
      <trkpt lat="46.0775900" lon="11.1301316" />
      <trkpt lat="46.0775711" lon="11.1302232" />
      <trkpt lat="46.0775629" lon="11.1303269" />
      <trkpt lat="46.0775656" lon="11.1304390" />
      <trkpt lat="46.0775614" lon="11.1304887" />
      <trkpt lat="46.0775462" lon="11.1305548" />
      <trkpt lat="46.0774699" lon="11.1305183" />
      <trkpt lat="46.0773671" lon="11.1304666" />
      <trkpt lat="46.0773083" lon="11.1304503" />
      <trkpt lat="46.0772788" lon="11.1304450" />
      <trkpt lat="46.0771354" lon="11.1304578" />
      <trkpt lat="46.0770168" lon="11.1304446" />
      <trkpt lat="46.0767621" lon="11.1303772" />
      <trkpt lat="46.0766298" lon="11.1303343" />
      <trkpt lat="46.0764975" lon="11.1302832" />
      <trkpt lat="46.0761724" lon="11.1300875" />
      <trkpt lat="46.0760478" lon="11.1300123" />
      <trkpt lat="46.0760013" lon="11.1299493" />
      <trkpt lat="46.0759415" lon="11.1297726" />
      <trkpt lat="46.0758601" lon="11.1295688" />
      <trkpt lat="46.0758122" lon="11.1294045" />
      <trkpt lat="46.0757939" lon="11.1293083" />
      <trkpt lat="46.0757893" lon="11.1291059" />
      <trkpt lat="46.0758202" lon="11.1289142" />
      <trkpt lat="46.0758860" lon="11.1286618" />
      <trkpt lat="46.0759068" lon="11.1285458" />
      <trkpt lat="46.0759087" lon="11.1284264" />
      <trkpt lat="46.0759290" lon="11.1282301" />
      <trkpt lat="46.0760286" lon="11.1281419" />
      <trkpt lat="46.0761026" lon="11.1280285" />
      <trkpt lat="46.0761818" lon="11.1279798" />
      <trkpt lat="46.0762954" lon="11.1279100" />
      <trkpt lat="46.0766061" lon="11.1277146" />
      <trkpt lat="46.0768259" lon="11.1275549" />
      <trkpt lat="46.0768848" lon="11.1274787" />
      <trkpt lat="46.0768882" lon="11.1274744" />
      <trkpt lat="46.0769676" lon="11.1273889" />
      <trkpt lat="46.0772324" lon="11.1270697" />
      <trkpt lat="46.0773621" lon="11.1268230" />
      <trkpt lat="46.0774140" lon="11.1267203" />
      <trkpt lat="46.0774476" lon="11.1266083" />
      <trkpt lat="46.0774895" lon="11.1263747" />
      <trkpt lat="46.0775071" lon="11.1262879" />
      <trkpt lat="46.0775313" lon="11.1262105" />
      <trkpt lat="46.0775885" lon="11.1260716" />
      <trkpt lat="46.0776466" lon="11.1259896" />
      <trkpt lat="46.0778389" lon="11.1257179" />
      <trkpt lat="46.0780801" lon="11.1254054" />
      <trkpt lat="46.0782439" lon="11.1252306" />
      <trkpt lat="46.0784480" lon="11.1250675" />
      <trkpt lat="46.0785499" lon="11.1249317" />
      <trkpt lat="46.0785672" lon="11.1248890" />
      <trkpt lat="46.0786295" lon="11.1247290" />
      <trkpt lat="46.0786679" lon="11.1245942" />
      <trkpt lat="46.0786860" lon="11.1244818" />
      <trkpt lat="46.0787322" lon="11.1244902" />
      <trkpt lat="46.0787417" lon="11.1243899" />
      <trkpt lat="46.0787436" lon="11.1243705" />
      <trkpt lat="46.0786788" lon="11.1242940" />
      <trkpt lat="46.0786156" lon="11.1242196" />
      <trkpt lat="46.0785814" lon="11.1241956" />
      <trkpt lat="46.0785221" lon="11.1241749" />
      <trkpt lat="46.0784875" lon="11.1241689" />
      <trkpt lat="46.0784038" lon="11.1241732" />
      <trkpt lat="46.0782939" lon="11.1242056" />
      <trkpt lat="46.0781931" lon="11.1242632" />
      <trkpt lat="46.0778809" lon="11.1244745" />
      <trkpt lat="46.0777402" lon="11.1245693" />
      <trkpt lat="46.0777019" lon="11.1245705" />
      <trkpt lat="46.0776694" lon="11.1245765" />
      <trkpt lat="46.0776286" lon="11.1245969" />
      <trkpt lat="46.0776045" lon="11.1246245" />
      <trkpt lat="46.0775836" lon="11.1246569" />
      <trkpt lat="46.0775687" lon="11.1246881" />
      <trkpt lat="46.0775387" lon="11.1247986" />
      <trkpt lat="46.0775195" lon="11.1248790" />
      <trkpt lat="46.0774940" lon="11.1249490" />
      <trkpt lat="46.0774781" lon="11.1249858" />
      <trkpt lat="46.0774201" lon="11.1250347" />
      <trkpt lat="46.0773713" lon="11.1250427" />
      <trkpt lat="46.0772623" lon="11.1250648" />
      <trkpt lat="46.0771788" lon="11.1250861" />
      <trkpt lat="46.0771485" lon="11.1251453" />
      <trkpt lat="46.0771427" lon="11.1251284" />
      <trkpt lat="46.0771282" lon="11.1251145" />
      <trkpt lat="46.0770888" lon="11.1251062" />
      <trkpt lat="46.0769194" lon="11.1250928" />
      <trkpt lat="46.0766304" lon="11.1250492" />
      <trkpt lat="46.0764404" lon="11.1250085" />
      <trkpt lat="46.0763588" lon="11.1249809" />
      <trkpt lat="46.0763331" lon="11.1249703" />
      <trkpt lat="46.0762695" lon="11.1249440" />
      <trkpt lat="46.0762101" lon="11.1249523" />
      <trkpt lat="46.0761870" lon="11.1248707" />
      <trkpt lat="46.0760584" lon="11.1244168" />
      <trkpt lat="46.0760305" lon="11.1243180" />
      <trkpt lat="46.0759433" lon="11.1242343" />
      <trkpt lat="46.0759946" lon="11.1241709" />
      <trkpt lat="46.0760097" lon="11.1240642" />
      <trkpt lat="46.0759530" lon="11.1239771" />
      <trkpt lat="46.0759176" lon="11.1239221" />
      <trkpt lat="46.0758803" lon="11.1239424" />
      <trkpt lat="46.0758422" lon="11.1239537" />
      <trkpt lat="46.0758121" lon="11.1239570" />
      <trkpt lat="46.0757854" lon="11.1239572" />
      <trkpt lat="46.0757742" lon="11.1239531" />
      <trkpt lat="46.0757304" lon="11.1239354" />
      <trkpt lat="46.0758369" lon="11.1237262" />
      <trkpt lat="46.0759380" lon="11.1235204" />
      <trkpt lat="46.0760625" lon="11.1232870" />
      <trkpt lat="46.0761418" lon="11.1232139" />
      <trkpt lat="46.0760887" lon="11.1231811" />
      <trkpt lat="46.0759984" lon="11.1230940" />
      <trkpt lat="46.0759268" lon="11.1230095" />
      <trkpt lat="46.0758550" lon="11.1229312" />
      <trkpt lat="46.0758066" lon="11.1228711" />
      <trkpt lat="46.0757771" lon="11.1228277" />
      <trkpt lat="46.0757481" lon="11.1227850" />
      <trkpt lat="46.0758243" lon="11.1226651" />
      <trkpt lat="46.0758580" lon="11.1226170" />
      <trkpt lat="46.0758307" lon="11.1225833" />
      <trkpt lat="46.0761199" lon="11.1221706" />
      <trkpt lat="46.0761968" lon="11.1220095" />
      <trkpt lat="46.0762445" lon="11.1218190" />
      <trkpt lat="46.0763396" lon="11.1213923" />
      <trkpt lat="46.0763465" lon="11.1213456" />
      <trkpt lat="46.0763619" lon="11.1212418" />
      <trkpt lat="46.0764647" lon="11.1207641" />
      <trkpt lat="46.0764737" lon="11.1207222" />
      <trkpt lat="46.0764899" lon="11.1206470" />
      <trkpt lat="46.0764982" lon="11.1206082" />
      <trkpt lat="46.0766575" lon="11.1198709" />
      <trkpt lat="46.0766757" lon="11.1197838" />
      <trkpt lat="46.0766298" lon="11.1197633" />
      <trkpt lat="46.0761384" lon="11.1195358" />
      <trkpt lat="46.0756642" lon="11.1193162" />
      <trkpt lat="46.0755736" lon="11.1192726" />
      <trkpt lat="46.0755583" lon="11.1192657" />
      <trkpt lat="46.0755511" lon="11.1192625" />
      <trkpt lat="46.0755661" lon="11.1191931" />
      <trkpt lat="46.0755831" lon="11.1191144" />
      <trkpt lat="46.0755661" lon="11.1191931" />
      <trkpt lat="46.0755511" lon="11.1192625" />
      <trkpt lat="46.0755583" lon="11.1192657" />
      <trkpt lat="46.0755736" lon="11.1192726" />
      <trkpt lat="46.0756642" lon="11.1193162" />
      <trkpt lat="46.0761384" lon="11.1195358" />
      <trkpt lat="46.0766298" lon="11.1197633" />
      <trkpt lat="46.0761384" lon="11.1195358" />
      <trkpt lat="46.0756642" lon="11.1193162" />
      <trkpt lat="46.0755736" lon="11.1192726" />
      <trkpt lat="46.0755583" lon="11.1192657" />
      <trkpt lat="46.0755511" lon="11.1192625" />
      <trkpt lat="46.0755661" lon="11.1191931" />
      <trkpt lat="46.0755831" lon="11.1191144" />
      <trkpt lat="46.0755729" lon="11.1191095" />
      <trkpt lat="46.0750246" lon="11.1188784" />
      <trkpt lat="46.0751922" lon="11.1181627" />
      <trkpt lat="46.0752017" lon="11.1181224" />
      <trkpt lat="46.0752087" lon="11.1180925" />
      <trkpt lat="46.0752117" lon="11.1180795" />
      <trkpt lat="46.0754167" lon="11.1181808" />
      <trkpt lat="46.0758951" lon="11.1180523" />
      <trkpt lat="46.0767616" lon="11.1178323" />
      <trkpt lat="46.0770786" lon="11.1179756" />
      <trkpt lat="46.0771597" lon="11.1176197" />
      <trkpt lat="46.0771802" lon="11.1175298" />
      <trkpt lat="46.0771873" lon="11.1174986" />
      <trkpt lat="46.0771960" lon="11.1174608" />
      <trkpt lat="46.0772935" lon="11.1170364" />
      <trkpt lat="46.0773005" lon="11.1170059" />
      <trkpt lat="46.0773115" lon="11.1169571" />
      <trkpt lat="46.0773817" lon="11.1166403" />
      <trkpt lat="46.0774181" lon="11.1164760" />
      <trkpt lat="46.0774600" lon="11.1162872" />
      <trkpt lat="46.0774738" lon="11.1162249" />
      <trkpt lat="46.0774749" lon="11.1161741" />
      <trkpt lat="46.0774572" lon="11.1161368" />
      <trkpt lat="46.0774304" lon="11.1161139" />
      <trkpt lat="46.0774039" lon="11.1160990" />
      <trkpt lat="46.0773833" lon="11.1160919" />
      <trkpt lat="46.0773734" lon="11.1160557" />
      <trkpt lat="46.0773513" lon="11.1159747" />
      <trkpt lat="46.0774043" lon="11.1159454" />
      <trkpt lat="46.0774506" lon="11.1159005" />
      <trkpt lat="46.0774825" lon="11.1158307" />
      <trkpt lat="46.0774920" lon="11.1157584" />
      <trkpt lat="46.0775365" lon="11.1157304" />
      <trkpt lat="46.0775785" lon="11.1157040" />
      <trkpt lat="46.0776299" lon="11.1157382" />
      <trkpt lat="46.0776913" lon="11.1157565" />
      <trkpt lat="46.0777591" lon="11.1157269" />
      <trkpt lat="46.0778322" lon="11.1156835" />
      <trkpt lat="46.0778496" lon="11.1157269" />
      <trkpt lat="46.0778685" lon="11.1157737" />
      <trkpt lat="46.0778802" lon="11.1158059" />
      <trkpt lat="46.0778874" lon="11.1158414" />
      <trkpt lat="46.0778870" lon="11.1158833" />
      <trkpt lat="46.0778820" lon="11.1159237" />
      <trkpt lat="46.0778653" lon="11.1160045" />
      <trkpt lat="46.0778557" lon="11.1160512" />
      <trkpt lat="46.0778537" lon="11.1160816" />
      <trkpt lat="46.0778624" lon="11.1161021" />
      <trkpt lat="46.0782053" lon="11.1162907" />
      <trkpt lat="46.0788709" lon="11.1166530" />
      <trkpt lat="46.0789591" lon="11.1167023" />
      <trkpt lat="46.0791557" lon="11.1168073" />
      <trkpt lat="46.0791580" lon="11.1168085" />
      <trkpt lat="46.0791762" lon="11.1168183" />
      <trkpt lat="46.0791992" lon="11.1168314" />
      <trkpt lat="46.0793211" lon="11.1169011" />
      <trkpt lat="46.0794405" lon="11.1169739" />
      <trkpt lat="46.0794922" lon="11.1170027" />
      <trkpt lat="46.0795522" lon="11.1170395" />
      <trkpt lat="46.0795708" lon="11.1170496" />
      <trkpt lat="46.0796112" lon="11.1170167" />
      <trkpt lat="46.0797117" lon="11.1169343" />
      <trkpt lat="46.0797274" lon="11.1169879" />
      <trkpt lat="46.0797573" lon="11.1170827" />
      <trkpt lat="46.0797977" lon="11.1170545" />
      <trkpt lat="46.0797840" lon="11.1169370" />
      <trkpt lat="46.0798482" lon="11.1163708" />
      <trkpt lat="46.0801462" lon="11.1161271" />
      <trkpt lat="46.0810332" lon="11.1153952" />
      <trkpt lat="46.0810496" lon="11.1154785" />
      <trkpt lat="46.0811478" lon="11.1159755" />
      <trkpt lat="46.0811753" lon="11.1161149" />
      <trkpt lat="46.0811870" lon="11.1161657" />
      <trkpt lat="46.0812145" lon="11.1162846" />
      <trkpt lat="46.0812280" lon="11.1163314" />
      <trkpt lat="46.0812489" lon="11.1163947" />
      <trkpt lat="46.0813356" lon="11.1166106" />
      <trkpt lat="46.0813581" lon="11.1166546" />
      <trkpt lat="46.0813792" lon="11.1166957" />
      <trkpt lat="46.0816944" lon="11.1174477" />
      <trkpt lat="46.0816489" lon="11.1176692" />
      <trkpt lat="46.0815628" lon="11.1180880" />
      <trkpt lat="46.0815212" lon="11.1183240" />
      <trkpt lat="46.0815057" lon="11.1184980" />
      <trkpt lat="46.0814972" lon="11.1186971" />
      <trkpt lat="46.0815096" lon="11.1189513" />
      <trkpt lat="46.0812311" lon="11.1191818" />
      <trkpt lat="46.0815096" lon="11.1189513" />
      <trkpt lat="46.0814972" lon="11.1186971" />
      <trkpt lat="46.0815057" lon="11.1184980" />
      <trkpt lat="46.0815212" lon="11.1183240" />
      <trkpt lat="46.0815628" lon="11.1180880" />
      <trkpt lat="46.0816489" lon="11.1176692" />
      <trkpt lat="46.0816944" lon="11.1174477" />
      <trkpt lat="46.0813792" lon="11.1166957" />
      <trkpt lat="46.0813581" lon="11.1166546" />
      <trkpt lat="46.0813356" lon="11.1166106" />
      <trkpt lat="46.0812489" lon="11.1163947" />
      <trkpt lat="46.0812280" lon="11.1163314" />
      <trkpt lat="46.0812145" lon="11.1162846" />
      <trkpt lat="46.0811870" lon="11.1161657" />
      <trkpt lat="46.0811753" lon="11.1161149" />
      <trkpt lat="46.0811478" lon="11.1159755" />
      <trkpt lat="46.0810496" lon="11.1154785" />
      <trkpt lat="46.0810332" lon="11.1153952" />
      <trkpt lat="46.0801462" lon="11.1161271" />
      <trkpt lat="46.0798482" lon="11.1163708" />
      <trkpt lat="46.0797840" lon="11.1169370" />
      <trkpt lat="46.0797977" lon="11.1170545" />
      <trkpt lat="46.0797573" lon="11.1170827" />
      <trkpt lat="46.0797274" lon="11.1169879" />
      <trkpt lat="46.0797117" lon="11.1169343" />
      <trkpt lat="46.0796112" lon="11.1170167" />
      <trkpt lat="46.0795708" lon="11.1170496" />
      <trkpt lat="46.0795522" lon="11.1170395" />
      <trkpt lat="46.0794922" lon="11.1170027" />
      <trkpt lat="46.0794405" lon="11.1169739" />
      <trkpt lat="46.0793211" lon="11.1169011" />
      <trkpt lat="46.0791992" lon="11.1168314" />
      <trkpt lat="46.0791762" lon="11.1168183" />
      <trkpt lat="46.0791580" lon="11.1168085" />
      <trkpt lat="46.0791557" lon="11.1168073" />
      <trkpt lat="46.0789591" lon="11.1167023" />
      <trkpt lat="46.0788709" lon="11.1166530" />
      <trkpt lat="46.0782053" lon="11.1162907" />
      <trkpt lat="46.0778624" lon="11.1161021" />
      <trkpt lat="46.0778537" lon="11.1160816" />
      <trkpt lat="46.0778557" lon="11.1160512" />
      <trkpt lat="46.0778653" lon="11.1160045" />
      <trkpt lat="46.0778820" lon="11.1159237" />
      <trkpt lat="46.0778870" lon="11.1158833" />
      <trkpt lat="46.0778874" lon="11.1158414" />
      <trkpt lat="46.0778802" lon="11.1158059" />
      <trkpt lat="46.0778685" lon="11.1157737" />
      <trkpt lat="46.0778496" lon="11.1157269" />
      <trkpt lat="46.0778322" lon="11.1156835" />
      <trkpt lat="46.0777591" lon="11.1157269" />
      <trkpt lat="46.0776913" lon="11.1157565" />
      <trkpt lat="46.0776299" lon="11.1157382" />
      <trkpt lat="46.0775785" lon="11.1157040" />
      <trkpt lat="46.0775365" lon="11.1157304" />
      <trkpt lat="46.0774920" lon="11.1157584" />
      <trkpt lat="46.0774825" lon="11.1158307" />
      <trkpt lat="46.0774506" lon="11.1159005" />
      <trkpt lat="46.0774043" lon="11.1159454" />
      <trkpt lat="46.0773513" lon="11.1159747" />
      <trkpt lat="46.0773734" lon="11.1160557" />
      <trkpt lat="46.0773833" lon="11.1160919" />
      <trkpt lat="46.0774039" lon="11.1160990" />
      <trkpt lat="46.0774304" lon="11.1161139" />
      <trkpt lat="46.0774572" lon="11.1161368" />
      <trkpt lat="46.0774749" lon="11.1161741" />
      <trkpt lat="46.0774738" lon="11.1162249" />
      <trkpt lat="46.0774600" lon="11.1162872" />
      <trkpt lat="46.0774181" lon="11.1164760" />
      <trkpt lat="46.0773817" lon="11.1166403" />
      <trkpt lat="46.0773115" lon="11.1169571" />
      <trkpt lat="46.0773005" lon="11.1170059" />
      <trkpt lat="46.0772935" lon="11.1170364" />
      <trkpt lat="46.0771960" lon="11.1174608" />
      <trkpt lat="46.0771873" lon="11.1174986" />
      <trkpt lat="46.0771802" lon="11.1175298" />
      <trkpt lat="46.0771597" lon="11.1176197" />
      <trkpt lat="46.0770786" lon="11.1179756" />
      <trkpt lat="46.0767616" lon="11.1178323" />
      <trkpt lat="46.0758951" lon="11.1180523" />
      <trkpt lat="46.0754167" lon="11.1181808" />
      <trkpt lat="46.0752117" lon="11.1180795" />
      <trkpt lat="46.0752087" lon="11.1180925" />
      <trkpt lat="46.0752017" lon="11.1181224" />
      <trkpt lat="46.0751922" lon="11.1181627" />
      <trkpt lat="46.0750246" lon="11.1188784" />
      <trkpt lat="46.0755729" lon="11.1191095" />
      <trkpt lat="46.0755831" lon="11.1191144" />
      <trkpt lat="46.0755661" lon="11.1191931" />
      <trkpt lat="46.0755511" lon="11.1192625" />
      <trkpt lat="46.0755583" lon="11.1192657" />
      <trkpt lat="46.0755736" lon="11.1192726" />
      <trkpt lat="46.0756642" lon="11.1193162" />
      <trkpt lat="46.0761384" lon="11.1195358" />
      <trkpt lat="46.0766298" lon="11.1197633" />
      <trkpt lat="46.0766757" lon="11.1197838" />
      <trkpt lat="46.0766575" lon="11.1198709" />
      <trkpt lat="46.0764982" lon="11.1206082" />
      <trkpt lat="46.0764899" lon="11.1206470" />
      <trkpt lat="46.0764737" lon="11.1207222" />
      <trkpt lat="46.0764219" lon="11.1206991" />
      <trkpt lat="46.0762310" lon="11.1206138" />
      <trkpt lat="46.0761345" lon="11.1210628" />
    </trkseg>
  </trk>
</gpx>
