<?xml version="1.0" encoding="UTF-8"?>
<gpx xmlns="http://www.topografix.com/GPX/1/1" version="1.1" creator="ShapeRoute route-engine">
  <metadata>
    <name>balloon 10 km · 2026-10-03</name>
    <author>
      <name>ShapeRoute route-engine</name>
    </author>
    <copyright author="OpenStreetMap contributors">
      <license>https://opendatacommons.org/licenses/odbl/1-0/</license>
    </copyright>
    <link href="https://www.openstreetmap.org/copyright">
      <text>© OpenStreetMap contributors</text>
    </link>
    <time>2026-10-03T20:00:30Z</time>
  </metadata>
  <trk>
    <name>balloon 10 km · 2026-10-03</name>
    <trkseg>
      <trkpt lat="46.0668711" lon="11.1210492" />
      <trkpt lat="46.0667705" lon="11.1210629" />
      <trkpt lat="46.0667526" lon="11.1210542" />
      <trkpt lat="46.0666602" lon="11.1210169" />
      <trkpt lat="46.0666115" lon="11.1210169" />
      <trkpt lat="46.0665614" lon="11.1210220" />
      <trkpt lat="46.0664061" lon="11.1210506" />
      <trkpt lat="46.0661586" lon="11.1211285" />
      <trkpt lat="46.0661065" lon="11.1211467" />
      <trkpt lat="46.0657149" lon="11.1211459" />
      <trkpt lat="46.0657118" lon="11.1211893" />
      <trkpt lat="46.0656826" lon="11.1212248" />
      <trkpt lat="46.0655300" lon="11.1212233" />
      <trkpt lat="46.0654688" lon="11.1212196" />
      <trkpt lat="46.0654209" lon="11.1212172" />
      <trkpt lat="46.0648869" lon="11.1212041" />
      <trkpt lat="46.0647781" lon="11.1214005" />
      <trkpt lat="46.0647492" lon="11.1213838" />
      <trkpt lat="46.0647112" lon="11.1213564" />
      <trkpt lat="46.0646996" lon="11.1214103" />
      <trkpt lat="46.0646301" lon="11.1214120" />
      <trkpt lat="46.0646116" lon="11.1214124" />
      <trkpt lat="46.0645414" lon="11.1214142" />
      <trkpt lat="46.0645259" lon="11.1211184" />
      <trkpt lat="46.0645248" lon="11.1210973" />
      <trkpt lat="46.0645237" lon="11.1210780" />
      <trkpt lat="46.0645093" lon="11.1208030" />
      <trkpt lat="46.0644719" lon="11.1208030" />
      <trkpt lat="46.0642348" lon="11.1208153" />
      <trkpt lat="46.0642336" lon="11.1207824" />
      <trkpt lat="46.0640836" lon="11.1207944" />
      <trkpt lat="46.0639140" lon="11.1208177" />
      <trkpt lat="46.0638164" lon="11.1208311" />
      <trkpt lat="46.0637495" lon="11.1208474" />
      <trkpt lat="46.0637099" lon="11.1208570" />
      <trkpt lat="46.0636766" lon="11.1208667" />
      <trkpt lat="46.0636534" lon="11.1208697" />
      <trkpt lat="46.0636553" lon="11.1208975" />
      <trkpt lat="46.0637031" lon="11.1215969" />
      <trkpt lat="46.0636896" lon="11.1216097" />
      <trkpt lat="46.0636714" lon="11.1216187" />
      <trkpt lat="46.0635818" lon="11.1216364" />
      <trkpt lat="46.0635139" lon="11.1216504" />
      <trkpt lat="46.0634593" lon="11.1216575" />
      <trkpt lat="46.0634195" lon="11.1216577" />
      <trkpt lat="46.0633774" lon="11.1216566" />
      <trkpt lat="46.0633050" lon="11.1216496" />
      <trkpt lat="46.0632278" lon="11.1216364" />
      <trkpt lat="46.0631477" lon="11.1216227" />
      <trkpt lat="46.0630001" lon="11.1215975" />
      <trkpt lat="46.0629289" lon="11.1215853" />
      <trkpt lat="46.0627951" lon="11.1215618" />
      <trkpt lat="46.0627006" lon="11.1215547" />
      <trkpt lat="46.0625750" lon="11.1215615" />
      <trkpt lat="46.0624493" lon="11.1215682" />
      <trkpt lat="46.0624505" lon="11.1216299" />
      <trkpt lat="46.0624410" lon="11.1216302" />
      <trkpt lat="46.0621711" lon="11.1216454" />
      <trkpt lat="46.0621300" lon="11.1216464" />
      <trkpt lat="46.0620871" lon="11.1216487" />
      <trkpt lat="46.0618911" lon="11.1216643" />
      <trkpt lat="46.0615861" lon="11.1217028" />
      <trkpt lat="46.0614464" lon="11.1217229" />
      <trkpt lat="46.0611718" lon="11.1217622" />
      <trkpt lat="46.0610024" lon="11.1217844" />
      <trkpt lat="46.0611718" lon="11.1217622" />
      <trkpt lat="46.0614464" lon="11.1217229" />
      <trkpt lat="46.0615861" lon="11.1217028" />
      <trkpt lat="46.0615898" lon="11.1217638" />
      <trkpt lat="46.0615939" lon="11.1218096" />
      <trkpt lat="46.0615975" lon="11.1218444" />
      <trkpt lat="46.0619092" lon="11.1217874" />
      <trkpt lat="46.0619726" lon="11.1217758" />
      <trkpt lat="46.0619768" lon="11.1218240" />
      <trkpt lat="46.0621751" lon="11.1217878" />
      <trkpt lat="46.0621735" lon="11.1217335" />
      <trkpt lat="46.0621711" lon="11.1216454" />
      <trkpt lat="46.0624410" lon="11.1216302" />
      <trkpt lat="46.0624505" lon="11.1216299" />
      <trkpt lat="46.0624493" lon="11.1215682" />
      <trkpt lat="46.0625750" lon="11.1215615" />
      <trkpt lat="46.0627006" lon="11.1215547" />
      <trkpt lat="46.0627951" lon="11.1215618" />
      <trkpt lat="46.0629289" lon="11.1215853" />
      <trkpt lat="46.0630001" lon="11.1215975" />
      <trkpt lat="46.0631477" lon="11.1216227" />
      <trkpt lat="46.0632278" lon="11.1216364" />
      <trkpt lat="46.0633050" lon="11.1216496" />
      <trkpt lat="46.0633774" lon="11.1216566" />
      <trkpt lat="46.0634195" lon="11.1216577" />
      <trkpt lat="46.0634593" lon="11.1216575" />
      <trkpt lat="46.0635139" lon="11.1216504" />
      <trkpt lat="46.0635818" lon="11.1216364" />
      <trkpt lat="46.0636714" lon="11.1216187" />
      <trkpt lat="46.0636896" lon="11.1216097" />
      <trkpt lat="46.0637031" lon="11.1215969" />
      <trkpt lat="46.0637331" lon="11.1215594" />
      <trkpt lat="46.0637567" lon="11.1215259" />
      <trkpt lat="46.0637139" lon="11.1208908" />
      <trkpt lat="46.0637099" lon="11.1208570" />
      <trkpt lat="46.0637495" lon="11.1208474" />
      <trkpt lat="46.0638164" lon="11.1208311" />
      <trkpt lat="46.0639140" lon="11.1208177" />
      <trkpt lat="46.0640836" lon="11.1207944" />
      <trkpt lat="46.0642336" lon="11.1207824" />
      <trkpt lat="46.0642348" lon="11.1208153" />
      <trkpt lat="46.0644719" lon="11.1208030" />
      <trkpt lat="46.0645093" lon="11.1208030" />
      <trkpt lat="46.0645237" lon="11.1210780" />
      <trkpt lat="46.0645248" lon="11.1210973" />
      <trkpt lat="46.0645259" lon="11.1211184" />
      <trkpt lat="46.0645414" lon="11.1214142" />
      <trkpt lat="46.0645577" lon="11.1214758" />
      <trkpt lat="46.0645715" lon="11.1215283" />
      <trkpt lat="46.0646307" lon="11.1215162" />
      <trkpt lat="46.0646368" lon="11.1215196" />
      <trkpt lat="46.0646401" lon="11.1215279" />
      <trkpt lat="46.0646469" lon="11.1215649" />
      <trkpt lat="46.0646849" lon="11.1215509" />
      <trkpt lat="46.0647313" lon="11.1215338" />
      <trkpt lat="46.0647686" lon="11.1215322" />
      <trkpt lat="46.0647927" lon="11.1214765" />
      <trkpt lat="46.0647781" lon="11.1214005" />
      <trkpt lat="46.0648869" lon="11.1212041" />
      <trkpt lat="46.0654209" lon="11.1212172" />
      <trkpt lat="46.0654688" lon="11.1212196" />
      <trkpt lat="46.0655300" lon="11.1212233" />
      <trkpt lat="46.0656826" lon="11.1212248" />
      <trkpt lat="46.0657118" lon="11.1211893" />
      <trkpt lat="46.0657149" lon="11.1211459" />
      <trkpt lat="46.0661065" lon="11.1211467" />
      <trkpt lat="46.0661586" lon="11.1211285" />
      <trkpt lat="46.0664061" lon="11.1210506" />
      <trkpt lat="46.0665614" lon="11.1210220" />
      <trkpt lat="46.0666115" lon="11.1210169" />
      <trkpt lat="46.0666602" lon="11.1210169" />
      <trkpt lat="46.0667526" lon="11.1210542" />
      <trkpt lat="46.0667024" lon="11.1213629" />
      <trkpt lat="46.0666701" lon="11.1215352" />
      <trkpt lat="46.0666789" lon="11.1217092" />
      <trkpt lat="46.0667274" lon="11.1218448" />
      <trkpt lat="46.0667304" lon="11.1218751" />
      <trkpt lat="46.0667697" lon="11.1219637" />
      <trkpt lat="46.0668675" lon="11.1221842" />
      <trkpt lat="46.0668704" lon="11.1222043" />
      <trkpt lat="46.0668726" lon="11.1222251" />
      <trkpt lat="46.0670120" lon="11.1221757" />
      <trkpt lat="46.0670452" lon="11.1221695" />
      <trkpt lat="46.0670572" lon="11.1221851" />
      <trkpt lat="46.0670742" lon="11.1221944" />
      <trkpt lat="46.0671010" lon="11.1221944" />
      <trkpt lat="46.0671253" lon="11.1221839" />
      <trkpt lat="46.0671390" lon="11.1221652" />
      <trkpt lat="46.0671463" lon="11.1221419" />
      <trkpt lat="46.0671488" lon="11.1221244" />
      <trkpt lat="46.0674136" lon="11.1220567" />
      <trkpt lat="46.0671488" lon="11.1221244" />
      <trkpt lat="46.0671463" lon="11.1221419" />
      <trkpt lat="46.0671390" lon="11.1221652" />
      <trkpt lat="46.0671253" lon="11.1221839" />
      <trkpt lat="46.0671010" lon="11.1221944" />
      <trkpt lat="46.0670742" lon="11.1221944" />
      <trkpt lat="46.0670572" lon="11.1221851" />
      <trkpt lat="46.0670452" lon="11.1221695" />
      <trkpt lat="46.0670120" lon="11.1221757" />
      <trkpt lat="46.0668726" lon="11.1222251" />
      <trkpt lat="46.0667963" lon="11.1222541" />
      <trkpt lat="46.0667787" lon="11.1222601" />
      <trkpt lat="46.0667357" lon="11.1222747" />
      <trkpt lat="46.0667414" lon="11.1223091" />
      <trkpt lat="46.0667532" lon="11.1223909" />
      <trkpt lat="46.0667715" lon="11.1225101" />
      <trkpt lat="46.0667729" lon="11.1225194" />
      <trkpt lat="46.0667810" lon="11.1225726" />
      <trkpt lat="46.0668548" lon="11.1230552" />
      <trkpt lat="46.0668872" lon="11.1232848" />
      <trkpt lat="46.0668905" lon="11.1233334" />
      <trkpt lat="46.0668986" lon="11.1233290" />
      <trkpt lat="46.0669188" lon="11.1233181" />
      <trkpt lat="46.0669670" lon="11.1232923" />
      <trkpt lat="46.0672635" lon="11.1232024" />
      <trkpt lat="46.0672653" lon="11.1232368" />
      <trkpt lat="46.0672686" lon="11.1232351" />
      <trkpt lat="46.0672810" lon="11.1232291" />
      <trkpt lat="46.0672821" lon="11.1232581" />
      <trkpt lat="46.0672873" lon="11.1232576" />
      <trkpt lat="46.0673011" lon="11.1232564" />
      <trkpt lat="46.0673146" lon="11.1232553" />
      <trkpt lat="46.0673183" lon="11.1232550" />
      <trkpt lat="46.0673371" lon="11.1232534" />
      <trkpt lat="46.0674008" lon="11.1232483" />
      <trkpt lat="46.0674156" lon="11.1232472" />
      <trkpt lat="46.0676659" lon="11.1232331" />
      <trkpt lat="46.0677631" lon="11.1232283" />
      <trkpt lat="46.0678077" lon="11.1232267" />
      <trkpt lat="46.0678142" lon="11.1235709" />
      <trkpt lat="46.0680250" lon="11.1235503" />
      <trkpt lat="46.0682343" lon="11.1235128" />
      <trkpt lat="46.0682565" lon="11.1234891" />
      <trkpt lat="46.0682805" lon="11.1238337" />
      <trkpt lat="46.0682827" lon="11.1238602" />
      <trkpt lat="46.0682835" lon="11.1238873" />
      <trkpt lat="46.0683250" lon="11.1239053" />
      <trkpt lat="46.0683541" lon="11.1239478" />
      <trkpt lat="46.0683766" lon="11.1242292" />
      <trkpt lat="46.0683684" lon="11.1245203" />
      <trkpt lat="46.0683518" lon="11.1247826" />
      <trkpt lat="46.0683737" lon="11.1252392" />
      <trkpt lat="46.0683943" lon="11.1252914" />
      <trkpt lat="46.0685395" lon="11.1255528" />
      <trkpt lat="46.0687920" lon="11.1259214" />
      <trkpt lat="46.0689309" lon="11.1259038" />
      <trkpt lat="46.0689600" lon="11.1258922" />
      <trkpt lat="46.0690129" lon="11.1258657" />
      <trkpt lat="46.0691138" lon="11.1260443" />
      <trkpt lat="46.0692044" lon="11.1261221" />
      <trkpt lat="46.0692164" lon="11.1261167" />
      <trkpt lat="46.0693536" lon="11.1260549" />
      <trkpt lat="46.0694494" lon="11.1260118" />
      <trkpt lat="46.0694782" lon="11.1261449" />
      <trkpt lat="46.0695234" lon="11.1263534" />
      <trkpt lat="46.0696138" lon="11.1263324" />
      <trkpt lat="46.0697634" lon="11.1263556" />
      <trkpt lat="46.0699177" lon="11.1263130" />
      <trkpt lat="46.0703131" lon="11.1261373" />
      <trkpt lat="46.0703634" lon="11.1261178" />
      <trkpt lat="46.0703744" lon="11.1261142" />
      <trkpt lat="46.0704496" lon="11.1264614" />
      <trkpt lat="46.0704611" lon="11.1265307" />
      <trkpt lat="46.0704804" lon="11.1266564" />
      <trkpt lat="46.0705083" lon="11.1266443" />
      <trkpt lat="46.0705378" lon="11.1266280" />
      <trkpt lat="46.0705687" lon="11.1266685" />
      <trkpt lat="46.0705967" lon="11.1267698" />
      <trkpt lat="46.0706168" lon="11.1268395" />
      <trkpt lat="46.0706463" lon="11.1269426" />
      <trkpt lat="46.0706575" lon="11.1269811" />
      <trkpt lat="46.0706385" lon="11.1269912" />
      <trkpt lat="46.0706278" lon="11.1269972" />
      <trkpt lat="46.0705964" lon="11.1270153" />
      <trkpt lat="46.0701817" lon="11.1272534" />
      <trkpt lat="46.0701562" lon="11.1272723" />
      <trkpt lat="46.0701441" lon="11.1272813" />
      <trkpt lat="46.0701335" lon="11.1272571" />
      <trkpt lat="46.0701274" lon="11.1272407" />
      <trkpt lat="46.0700069" lon="11.1273936" />
      <trkpt lat="46.0699719" lon="11.1274335" />
      <trkpt lat="46.0699578" lon="11.1274338" />
      <trkpt lat="46.0699232" lon="11.1274344" />
      <trkpt lat="46.0699231" lon="11.1274466" />
      <trkpt lat="46.0699231" lon="11.1274554" />
      <trkpt lat="46.0699221" lon="11.1275173" />
      <trkpt lat="46.0699209" lon="11.1275983" />
      <trkpt lat="46.0699206" lon="11.1276259" />
      <trkpt lat="46.0699262" lon="11.1276890" />
      <trkpt lat="46.0699314" lon="11.1277523" />
      <trkpt lat="46.0699398" lon="11.1278053" />
      <trkpt lat="46.0699595" lon="11.1278391" />
      <trkpt lat="46.0699423" lon="11.1279639" />
      <trkpt lat="46.0699935" lon="11.1279812" />
      <trkpt lat="46.0700492" lon="11.1279925" />
      <trkpt lat="46.0702502" lon="11.1280220" />
      <trkpt lat="46.0703250" lon="11.1280228" />
      <trkpt lat="46.0703787" lon="11.1280233" />
      <trkpt lat="46.0704920" lon="11.1280102" />
      <trkpt lat="46.0706052" lon="11.1279827" />
      <trkpt lat="46.0710451" lon="11.1278597" />
      <trkpt lat="46.0712915" lon="11.1277908" />
      <trkpt lat="46.0713634" lon="11.1277755" />
      <trkpt lat="46.0715170" lon="11.1277430" />
      <trkpt lat="46.0715966" lon="11.1276697" />
      <trkpt lat="46.0716946" lon="11.1275795" />
      <trkpt lat="46.0719610" lon="11.1274592" />
      <trkpt lat="46.0720611" lon="11.1275034" />
      <trkpt lat="46.0721623" lon="11.1275434" />
      <trkpt lat="46.0722168" lon="11.1275791" />
      <trkpt lat="46.0722755" lon="11.1276242" />
      <trkpt lat="46.0723088" lon="11.1276641" />
      <trkpt lat="46.0723644" lon="11.1277738" />
      <trkpt lat="46.0724356" lon="11.1279287" />
      <trkpt lat="46.0724701" lon="11.1280155" />
      <trkpt lat="46.0724929" lon="11.1280289" />
      <trkpt lat="46.0725308" lon="11.1280289" />
      <trkpt lat="46.0725725" lon="11.1280260" />
      <trkpt lat="46.0726063" lon="11.1280236" />
      <trkpt lat="46.0726859" lon="11.1280177" />
      <trkpt lat="46.0727234" lon="11.1280131" />
      <trkpt lat="46.0727586" lon="11.1280104" />
      <trkpt lat="46.0727627" lon="11.1280423" />
      <trkpt lat="46.0731497" lon="11.1280235" />
      <trkpt lat="46.0732042" lon="11.1280437" />
      <trkpt lat="46.0732634" lon="11.1280957" />
      <trkpt lat="46.0733180" lon="11.1280698" />
      <trkpt lat="46.0733700" lon="11.1280450" />
      <trkpt lat="46.0733939" lon="11.1280358" />
      <trkpt lat="46.0735789" lon="11.1281052" />
      <trkpt lat="46.0736421" lon="11.1281541" />
      <trkpt lat="46.0737435" lon="11.1282365" />
      <trkpt lat="46.0738938" lon="11.1283675" />
      <trkpt lat="46.0739900" lon="11.1284512" />
      <trkpt lat="46.0740700" lon="11.1285298" />
      <trkpt lat="46.0740824" lon="11.1285449" />
      <trkpt lat="46.0741667" lon="11.1283468" />
      <trkpt lat="46.0741515" lon="11.1283292" />
      <trkpt lat="46.0741717" lon="11.1282818" />
      <trkpt lat="46.0742674" lon="11.1280401" />
      <trkpt lat="46.0742255" lon="11.1280386" />
      <trkpt lat="46.0741631" lon="11.1282502" />
      <trkpt lat="46.0741717" lon="11.1282818" />
      <trkpt lat="46.0741515" lon="11.1283292" />
      <trkpt lat="46.0741667" lon="11.1283468" />
      <trkpt lat="46.0742257" lon="11.1282083" />
      <trkpt lat="46.0742818" lon="11.1280721" />
      <trkpt lat="46.0743657" lon="11.1279471" />
      <trkpt lat="46.0744346" lon="11.1278825" />
      <trkpt lat="46.0745249" lon="11.1278323" />
      <trkpt lat="46.0745881" lon="11.1278190" />
      <trkpt lat="46.0746556" lon="11.1278252" />
      <trkpt lat="46.0748436" lon="11.1278835" />
      <trkpt lat="46.0748866" lon="11.1278969" />
      <trkpt lat="46.0751634" lon="11.1279727" />
      <trkpt lat="46.0752387" lon="11.1279948" />
      <trkpt lat="46.0756444" lon="11.1281136" />
      <trkpt lat="46.0757772" lon="11.1281525" />
      <trkpt lat="46.0758752" lon="11.1281790" />
      <trkpt lat="46.0759123" lon="11.1281778" />
      <trkpt lat="46.0759368" lon="11.1281666" />
      <trkpt lat="46.0759684" lon="11.1281374" />
      <trkpt lat="46.0760286" lon="11.1281419" />
      <trkpt lat="46.0760795" lon="11.1281456" />
      <trkpt lat="46.0760836" lon="11.1281590" />
      <trkpt lat="46.0760940" lon="11.1281654" />
      <trkpt lat="46.0767485" lon="11.1281104" />
      <trkpt lat="46.0768070" lon="11.1281047" />
      <trkpt lat="46.0768762" lon="11.1280965" />
      <trkpt lat="46.0769500" lon="11.1280838" />
      <trkpt lat="46.0770521" lon="11.1280586" />
      <trkpt lat="46.0771387" lon="11.1280315" />
      <trkpt lat="46.0772351" lon="11.1279981" />
      <trkpt lat="46.0773365" lon="11.1279517" />
      <trkpt lat="46.0773897" lon="11.1279228" />
      <trkpt lat="46.0774895" lon="11.1278673" />
      <trkpt lat="46.0778746" lon="11.1276524" />
      <trkpt lat="46.0779662" lon="11.1275939" />
      <trkpt lat="46.0780451" lon="11.1275393" />
      <trkpt lat="46.0782225" lon="11.1274081" />
      <trkpt lat="46.0782488" lon="11.1273892" />
      <trkpt lat="46.0782658" lon="11.1274334" />
      <trkpt lat="46.0782381" lon="11.1274532" />
      <trkpt lat="46.0780688" lon="11.1275740" />
      <trkpt lat="46.0779084" lon="11.1276866" />
      <trkpt lat="46.0776000" lon="11.1278597" />
      <trkpt lat="46.0773684" lon="11.1279860" />
      <trkpt lat="46.0772360" lon="11.1280542" />
      <trkpt lat="46.0771452" lon="11.1280910" />
      <trkpt lat="46.0770168" lon="11.1281289" />
      <trkpt lat="46.0769135" lon="11.1281496" />
      <trkpt lat="46.0768098" lon="11.1281614" />
      <trkpt lat="46.0765383" lon="11.1281776" />
      <trkpt lat="46.0762759" lon="11.1282030" />
      <trkpt lat="46.0761900" lon="11.1282097" />
      <trkpt lat="46.0759290" lon="11.1282301" />
      <trkpt lat="46.0760286" lon="11.1281419" />
      <trkpt lat="46.0761026" lon="11.1280285" />
      <trkpt lat="46.0761818" lon="11.1279798" />
      <trkpt lat="46.0762954" lon="11.1279100" />
      <trkpt lat="46.0766061" lon="11.1277146" />
      <trkpt lat="46.0768259" lon="11.1275549" />
      <trkpt lat="46.0768848" lon="11.1274787" />
      <trkpt lat="46.0768882" lon="11.1274744" />
      <trkpt lat="46.0769676" lon="11.1273889" />
      <trkpt lat="46.0772324" lon="11.1270697" />
      <trkpt lat="46.0773621" lon="11.1268230" />
      <trkpt lat="46.0774140" lon="11.1267203" />
      <trkpt lat="46.0774476" lon="11.1266083" />
      <trkpt lat="46.0774895" lon="11.1263747" />
      <trkpt lat="46.0775071" lon="11.1262879" />
      <trkpt lat="46.0775313" lon="11.1262105" />
      <trkpt lat="46.0775885" lon="11.1260716" />
      <trkpt lat="46.0776466" lon="11.1259896" />
      <trkpt lat="46.0778389" lon="11.1257179" />
      <trkpt lat="46.0780801" lon="11.1254054" />
      <trkpt lat="46.0782439" lon="11.1252306" />
      <trkpt lat="46.0784480" lon="11.1250675" />
      <trkpt lat="46.0785499" lon="11.1249317" />
      <trkpt lat="46.0785672" lon="11.1248890" />
      <trkpt lat="46.0786295" lon="11.1247290" />
      <trkpt lat="46.0786679" lon="11.1245942" />
      <trkpt lat="46.0786860" lon="11.1244818" />
      <trkpt lat="46.0787322" lon="11.1244902" />
      <trkpt lat="46.0789215" lon="11.1245280" />
      <trkpt lat="46.0791121" lon="11.1245884" />
      <trkpt lat="46.0792929" lon="11.1246439" />
      <trkpt lat="46.0794020" lon="11.1246682" />
      <trkpt lat="46.0795222" lon="11.1246144" />
      <trkpt lat="46.0795388" lon="11.1244860" />
      <trkpt lat="46.0795832" lon="11.1241388" />
      <trkpt lat="46.0796917" lon="11.1239513" />
      <trkpt lat="46.0798194" lon="11.1238054" />
      <trkpt lat="46.0799561" lon="11.1237752" />
      <trkpt lat="46.0801750" lon="11.1237986" />
      <trkpt lat="46.0804250" lon="11.1237986" />
      <trkpt lat="46.0804717" lon="11.1237813" />
      <trkpt lat="46.0805150" lon="11.1237571" />
      <trkpt lat="46.0805977" lon="11.1237042" />
      <trkpt lat="46.0807336" lon="11.1235938" />
      <trkpt lat="46.0810204" lon="11.1233609" />
      <trkpt lat="46.0810953" lon="11.1232874" />
      <trkpt lat="46.0810690" lon="11.1232644" />
      <trkpt lat="46.0810398" lon="11.1232409" />
      <trkpt lat="46.0809946" lon="11.1232046" />
      <trkpt lat="46.0807191" lon="11.1232507" />
      <trkpt lat="46.0806503" lon="11.1232656" />
      <trkpt lat="46.0806145" lon="11.1232636" />
      <trkpt lat="46.0805797" lon="11.1232409" />
      <trkpt lat="46.0805704" lon="11.1232795" />
      <trkpt lat="46.0806136" lon="11.1233005" />
      <trkpt lat="46.0809624" lon="11.1232576" />
      <trkpt lat="46.0809829" lon="11.1232676" />
      <trkpt lat="46.0810128" lon="11.1233186" />
      <trkpt lat="46.0810690" lon="11.1232644" />
      <trkpt lat="46.0811049" lon="11.1232295" />
      <trkpt lat="46.0813303" lon="11.1230249" />
      <trkpt lat="46.0814624" lon="11.1229082" />
      <trkpt lat="46.0816913" lon="11.1227037" />
      <trkpt lat="46.0818843" lon="11.1225387" />
      <trkpt lat="46.0819201" lon="11.1225012" />
      <trkpt lat="46.0819327" lon="11.1224657" />
      <trkpt lat="46.0819336" lon="11.1224341" />
      <trkpt lat="46.0819244" lon="11.1223883" />
      <trkpt lat="46.0816926" lon="11.1215596" />
      <trkpt lat="46.0816635" lon="11.1215758" />
      <trkpt lat="46.0816310" lon="11.1215928" />
      <trkpt lat="46.0815768" lon="11.1216202" />
      <trkpt lat="46.0812006" lon="11.1218296" />
      <trkpt lat="46.0811544" lon="11.1216574" />
      <trkpt lat="46.0810688" lon="11.1216285" />
      <trkpt lat="46.0810781" lon="11.1215822" />
      <trkpt lat="46.0810583" lon="11.1215919" />
      <trkpt lat="46.0810284" lon="11.1215730" />
      <trkpt lat="46.0809421" lon="11.1216221" />
      <trkpt lat="46.0808619" lon="11.1216678" />
      <trkpt lat="46.0807993" lon="11.1217035" />
      <trkpt lat="46.0805697" lon="11.1218344" />
      <trkpt lat="46.0804608" lon="11.1218974" />
      <trkpt lat="46.0803792" lon="11.1219447" />
      <trkpt lat="46.0801983" lon="11.1220490" />
      <trkpt lat="46.0801766" lon="11.1220616" />
      <trkpt lat="46.0801332" lon="11.1220869" />
      <trkpt lat="46.0800922" lon="11.1221108" />
      <trkpt lat="46.0797934" lon="11.1222800" />
      <trkpt lat="46.0797243" lon="11.1223201" />
      <trkpt lat="46.0796799" lon="11.1223417" />
      <trkpt lat="46.0794165" lon="11.1224725" />
      <trkpt lat="46.0792751" lon="11.1225534" />
      <trkpt lat="46.0792101" lon="11.1225906" />
      <trkpt lat="46.0791626" lon="11.1226169" />
      <trkpt lat="46.0787825" lon="11.1228350" />
      <trkpt lat="46.0785482" lon="11.1229690" />
      <trkpt lat="46.0781191" lon="11.1232074" />
      <trkpt lat="46.0780910" lon="11.1232238" />
      <trkpt lat="46.0780524" lon="11.1231782" />
      <trkpt lat="46.0779941" lon="11.1231093" />
      <trkpt lat="46.0779735" lon="11.1231214" />
      <trkpt lat="46.0779054" lon="11.1231613" />
      <trkpt lat="46.0778763" lon="11.1231784" />
      <trkpt lat="46.0778422" lon="11.1231983" />
      <trkpt lat="46.0772230" lon="11.1235516" />
      <trkpt lat="46.0765537" lon="11.1230905" />
      <trkpt lat="46.0765450" lon="11.1230658" />
      <trkpt lat="46.0765495" lon="11.1230379" />
      <trkpt lat="46.0765038" lon="11.1229977" />
      <trkpt lat="46.0764656" lon="11.1229618" />
      <trkpt lat="46.0764543" lon="11.1229927" />
      <trkpt lat="46.0764339" lon="11.1230083" />
      <trkpt lat="46.0760114" lon="11.1227072" />
      <trkpt lat="46.0759915" lon="11.1226564" />
      <trkpt lat="46.0759949" lon="11.1226286" />
      <trkpt lat="46.0760719" lon="11.1224844" />
      <trkpt lat="46.0761632" lon="11.1223471" />
      <trkpt lat="46.0762396" lon="11.1221997" />
      <trkpt lat="46.0762862" lon="11.1220724" />
      <trkpt lat="46.0763328" lon="11.1218518" />
      <trkpt lat="46.0764169" lon="11.1214396" />
      <trkpt lat="46.0764304" lon="11.1214206" />
      <trkpt lat="46.0764800" lon="11.1214382" />
      <trkpt lat="46.0764842" lon="11.1213962" />
      <trkpt lat="46.0769658" lon="11.1215447" />
      <trkpt lat="46.0771526" lon="11.1207214" />
      <trkpt lat="46.0772073" lon="11.1204808" />
      <trkpt lat="46.0772407" lon="11.1203335" />
      <trkpt lat="46.0772779" lon="11.1201695" />
      <trkpt lat="46.0773152" lon="11.1200052" />
      <trkpt lat="46.0773298" lon="11.1199277" />
      <trkpt lat="46.0774472" lon="11.1194307" />
      <trkpt lat="46.0774939" lon="11.1193601" />
      <trkpt lat="46.0775127" lon="11.1193460" />
      <trkpt lat="46.0781764" lon="11.1188480" />
      <trkpt lat="46.0781941" lon="11.1188916" />
      <trkpt lat="46.0787653" lon="11.1184123" />
      <trkpt lat="46.0787913" lon="11.1183892" />
      <trkpt lat="46.0788194" lon="11.1183661" />
      <trkpt lat="46.0790182" lon="11.1182040" />
      <trkpt lat="46.0794500" lon="11.1178518" />
      <trkpt lat="46.0794970" lon="11.1178085" />
      <trkpt lat="46.0795410" lon="11.1177724" />
      <trkpt lat="46.0797560" lon="11.1175889" />
      <trkpt lat="46.0798731" lon="11.1174983" />
      <trkpt lat="46.0799185" lon="11.1174483" />
      <trkpt lat="46.0798719" lon="11.1173968" />
      <trkpt lat="46.0798272" lon="11.1174360" />
      <trkpt lat="46.0797957" lon="11.1174404" />
      <trkpt lat="46.0797616" lon="11.1174274" />
      <trkpt lat="46.0797141" lon="11.1174881" />
      <trkpt lat="46.0796779" lon="11.1174419" />
      <trkpt lat="46.0796878" lon="11.1173742" />
      <trkpt lat="46.0796805" lon="11.1173181" />
      <trkpt lat="46.0796617" lon="11.1172705" />
      <trkpt lat="46.0796310" lon="11.1172354" />
      <trkpt lat="46.0794762" lon="11.1171513" />
      <trkpt lat="46.0793456" lon="11.1170804" />
      <trkpt lat="46.0792206" lon="11.1170125" />
      <trkpt lat="46.0792012" lon="11.1170020" />
      <trkpt lat="46.0791783" lon="11.1169896" />
      <trkpt lat="46.0790165" lon="11.1169018" />
      <trkpt lat="46.0789203" lon="11.1168495" />
      <trkpt lat="46.0788748" lon="11.1168248" />
      <trkpt lat="46.0787781" lon="11.1167723" />
      <trkpt lat="46.0787511" lon="11.1167576" />
      <trkpt lat="46.0787198" lon="11.1167407" />
      <trkpt lat="46.0786320" lon="11.1166930" />
      <trkpt lat="46.0784881" lon="11.1166149" />
      <trkpt lat="46.0784134" lon="11.1165736" />
      <trkpt lat="46.0783133" lon="11.1165182" />
      <trkpt lat="46.0782730" lon="11.1164972" />
      <trkpt lat="46.0782391" lon="11.1164786" />
      <trkpt lat="46.0782584" lon="11.1163914" />
      <trkpt lat="46.0781926" lon="11.1163565" />
      <trkpt lat="46.0782053" lon="11.1162907" />
      <trkpt lat="46.0778624" lon="11.1161021" />
      <trkpt lat="46.0778537" lon="11.1160816" />
      <trkpt lat="46.0778557" lon="11.1160512" />
      <trkpt lat="46.0778653" lon="11.1160045" />
      <trkpt lat="46.0778820" lon="11.1159237" />
      <trkpt lat="46.0778870" lon="11.1158833" />
      <trkpt lat="46.0778874" lon="11.1158414" />
      <trkpt lat="46.0778802" lon="11.1158059" />
      <trkpt lat="46.0778685" lon="11.1157737" />
      <trkpt lat="46.0778496" lon="11.1157269" />
      <trkpt lat="46.0778322" lon="11.1156835" />
      <trkpt lat="46.0777591" lon="11.1157269" />
      <trkpt lat="46.0776913" lon="11.1157565" />
      <trkpt lat="46.0776299" lon="11.1157382" />
      <trkpt lat="46.0775785" lon="11.1157040" />
      <trkpt lat="46.0775678" lon="11.1156968" />
      <trkpt lat="46.0775432" lon="11.1156220" />
      <trkpt lat="46.0775100" lon="11.1156413" />
      <trkpt lat="46.0774758" lon="11.1156612" />
      <trkpt lat="46.0771931" lon="11.1147609" />
      <trkpt lat="46.0771758" lon="11.1147002" />
      <trkpt lat="46.0769594" lon="11.1148461" />
      <trkpt lat="46.0767343" lon="11.1149696" />
      <trkpt lat="46.0767185" lon="11.1148975" />
      <trkpt lat="46.0767026" lon="11.1148300" />
      <trkpt lat="46.0766568" lon="11.1148527" />
      <trkpt lat="46.0764317" lon="11.1149618" />
      <trkpt lat="46.0763974" lon="11.1149797" />
      <trkpt lat="46.0762457" lon="11.1150479" />
      <trkpt lat="46.0761881" lon="11.1150717" />
      <trkpt lat="46.0761696" lon="11.1150793" />
      <trkpt lat="46.0761450" lon="11.1150637" />
      <trkpt lat="46.0760712" lon="11.1150915" />
      <trkpt lat="46.0756398" lon="11.1152389" />
      <trkpt lat="46.0754829" lon="11.1152878" />
      <trkpt lat="46.0752351" lon="11.1153648" />
      <trkpt lat="46.0749411" lon="11.1154432" />
      <trkpt lat="46.0749218" lon="11.1154481" />
      <trkpt lat="46.0748960" lon="11.1154546" />
      <trkpt lat="46.0748710" lon="11.1154585" />
      <trkpt lat="46.0748672" lon="11.1154038" />
      <trkpt lat="46.0748596" lon="11.1153066" />
      <trkpt lat="46.0748493" lon="11.1152270" />
      <trkpt lat="46.0748359" lon="11.1151781" />
      <trkpt lat="46.0748202" lon="11.1151339" />
      <trkpt lat="46.0747890" lon="11.1150569" />
      <trkpt lat="46.0747726" lon="11.1150196" />
      <trkpt lat="46.0745540" lon="11.1145617" />
      <trkpt lat="46.0744132" lon="11.1142855" />
      <trkpt lat="46.0743980" lon="11.1142666" />
      <trkpt lat="46.0743871" lon="11.1142531" />
      <trkpt lat="46.0743008" lon="11.1141803" />
      <trkpt lat="46.0742711" lon="11.1141476" />
      <trkpt lat="46.0742485" lon="11.1141802" />
      <trkpt lat="46.0741613" lon="11.1142768" />
      <trkpt lat="46.0740698" lon="11.1143674" />
      <trkpt lat="46.0739644" lon="11.1144472" />
      <trkpt lat="46.0739329" lon="11.1144737" />
      <trkpt lat="46.0738359" lon="11.1145444" />
      <trkpt lat="46.0738211" lon="11.1145531" />
      <trkpt lat="46.0736995" lon="11.1146214" />
      <trkpt lat="46.0735399" lon="11.1146939" />
      <trkpt lat="46.0734409" lon="11.1147375" />
      <trkpt lat="46.0733209" lon="11.1148073" />
      <trkpt lat="46.0732764" lon="11.1148142" />
      <trkpt lat="46.0731655" lon="11.1148314" />
      <trkpt lat="46.0729169" lon="11.1148591" />
      <trkpt lat="46.0726726" lon="11.1148737" />
      <trkpt lat="46.0726562" lon="11.1148756" />
      <trkpt lat="46.0723931" lon="11.1149142" />
      <trkpt lat="46.0722051" lon="11.1149428" />
      <trkpt lat="46.0721179" lon="11.1149561" />
      <trkpt lat="46.0718735" lon="11.1149919" />
      <trkpt lat="46.0717718" lon="11.1150156" />
      <trkpt lat="46.0716846" lon="11.1150533" />
      <trkpt lat="46.0716622" lon="11.1150668" />
      <trkpt lat="46.0716521" lon="11.1150762" />
      <trkpt lat="46.0716469" lon="11.1150926" />
      <trkpt lat="46.0716519" lon="11.1151115" />
      <trkpt lat="46.0716632" lon="11.1151227" />
      <trkpt lat="46.0716843" lon="11.1151327" />
      <trkpt lat="46.0716777" lon="11.1151800" />
      <trkpt lat="46.0716701" lon="11.1152371" />
      <trkpt lat="46.0715462" lon="11.1151968" />
      <trkpt lat="46.0714778" lon="11.1151767" />
      <trkpt lat="46.0714751" lon="11.1151881" />
      <trkpt lat="46.0714713" lon="11.1152069" />
      <trkpt lat="46.0712489" lon="11.1150973" />
      <trkpt lat="46.0711800" lon="11.1150634" />
      <trkpt lat="46.0711622" lon="11.1150542" />
      <trkpt lat="46.0709446" lon="11.1149414" />
      <trkpt lat="46.0708185" lon="11.1148581" />
      <trkpt lat="46.0707959" lon="11.1148434" />
      <trkpt lat="46.0708009" lon="11.1148281" />
      <trkpt lat="46.0708045" lon="11.1148160" />
      <trkpt lat="46.0707833" lon="11.1147994" />
      <trkpt lat="46.0705116" lon="11.1145755" />
      <trkpt lat="46.0704564" lon="11.1145311" />
      <trkpt lat="46.0703770" lon="11.1144800" />
      <trkpt lat="46.0703535" lon="11.1144784" />
      <trkpt lat="46.0703420" lon="11.1144768" />
      <trkpt lat="46.0703300" lon="11.1144739" />
      <trkpt lat="46.0703250" lon="11.1144890" />
      <trkpt lat="46.0699886" lon="11.1157401" />
      <trkpt lat="46.0699948" lon="11.1157680" />
      <trkpt lat="46.0700117" lon="11.1157886" />
      <trkpt lat="46.0700662" lon="11.1158228" />
      <trkpt lat="46.0700586" lon="11.1159035" />
      <trkpt lat="46.0700453" lon="11.1160451" />
      <trkpt lat="46.0700459" lon="11.1161000" />
      <trkpt lat="46.0700146" lon="11.1161265" />
      <trkpt lat="46.0700032" lon="11.1161537" />
      <trkpt lat="46.0700003" lon="11.1162009" />
      <trkpt lat="46.0700091" lon="11.1162886" />
      <trkpt lat="46.0700203" lon="11.1163341" />
      <trkpt lat="46.0699884" lon="11.1163713" />
      <trkpt lat="46.0699495" lon="11.1164167" />
      <trkpt lat="46.0700000" lon="11.1164941" />
      <trkpt lat="46.0700236" lon="11.1165374" />
      <trkpt lat="46.0700680" lon="11.1166069" />
      <trkpt lat="46.0701165" lon="11.1166890" />
      <trkpt lat="46.0701363" lon="11.1167225" />
      <trkpt lat="46.0701743" lon="11.1167917" />
      <trkpt lat="46.0702123" lon="11.1168786" />
      <trkpt lat="46.0702292" lon="11.1169470" />
      <trkpt lat="46.0702367" lon="11.1170213" />
      <trkpt lat="46.0702287" lon="11.1171541" />
      <trkpt lat="46.0702169" lon="11.1171918" />
      <trkpt lat="46.0701805" lon="11.1173050" />
      <trkpt lat="46.0700861" lon="11.1176034" />
      <trkpt lat="46.0700527" lon="11.1177069" />
      <trkpt lat="46.0700431" lon="11.1177476" />
      <trkpt lat="46.0700369" lon="11.1177882" />
      <trkpt lat="46.0700305" lon="11.1178362" />
      <trkpt lat="46.0700294" lon="11.1178856" />
      <trkpt lat="46.0700269" lon="11.1179061" />
      <trkpt lat="46.0699908" lon="11.1179414" />
      <trkpt lat="46.0699871" lon="11.1179668" />
      <trkpt lat="46.0699905" lon="11.1180483" />
      <trkpt lat="46.0700084" lon="11.1181540" />
      <trkpt lat="46.0699803" lon="11.1181633" />
      <trkpt lat="46.0699644" lon="11.1181025" />
      <trkpt lat="46.0699602" lon="11.1180863" />
      <trkpt lat="46.0698926" lon="11.1180856" />
      <trkpt lat="46.0698565" lon="11.1180693" />
      <trkpt lat="46.0698227" lon="11.1180755" />
      <trkpt lat="46.0698214" lon="11.1178923" />
      <trkpt lat="46.0697868" lon="11.1178909" />
      <trkpt lat="46.0697856" lon="11.1178305" />
      <trkpt lat="46.0697651" lon="11.1176897" />
      <trkpt lat="46.0695943" lon="11.1175019" />
      <trkpt lat="46.0694523" lon="11.1172583" />
      <trkpt lat="46.0694010" lon="11.1172369" />
      <trkpt lat="46.0693033" lon="11.1171493" />
      <trkpt lat="46.0691318" lon="11.1170133" />
      <trkpt lat="46.0690556" lon="11.1169660" />
      <trkpt lat="46.0689698" lon="11.1169128" />
      <trkpt lat="46.0688298" lon="11.1168496" />
      <trkpt lat="46.0684553" lon="11.1170131" />
      <trkpt lat="46.0681753" lon="11.1171523" />
      <trkpt lat="46.0681817" lon="11.1171773" />
      <trkpt lat="46.0681614" lon="11.1171908" />
      <trkpt lat="46.0681933" lon="11.1173361" />
      <trkpt lat="46.0682064" lon="11.1174220" />
      <trkpt lat="46.0682676" lon="11.1178159" />
      <trkpt lat="46.0682882" lon="11.1180511" />
      <trkpt lat="46.0683173" lon="11.1186358" />
      <trkpt lat="46.0683328" lon="11.1186343" />
      <trkpt lat="46.0683351" lon="11.1186769" />
      <trkpt lat="46.0684127" lon="11.1186739" />
      <trkpt lat="46.0684165" lon="11.1187327" />
      <trkpt lat="46.0684199" lon="11.1187854" />
      <trkpt lat="46.0684296" lon="11.1187852" />
      <trkpt lat="46.0684411" lon="11.1187850" />
      <trkpt lat="46.0684638" lon="11.1190894" />
      <trkpt lat="46.0684592" lon="11.1192417" />
      <trkpt lat="46.0684172" lon="11.1192445" />
      <trkpt lat="46.0684171" lon="11.1192676" />
      <trkpt lat="46.0684304" lon="11.1194104" />
      <trkpt lat="46.0684351" lon="11.1194617" />
      <trkpt lat="46.0684278" lon="11.1194633" />
      <trkpt lat="46.0681837" lon="11.1195184" />
      <trkpt lat="46.0681147" lon="11.1195474" />
      <trkpt lat="46.0679043" lon="11.1196359" />
      <trkpt lat="46.0678811" lon="11.1196664" />
      <trkpt lat="46.0678540" lon="11.1197239" />
      <trkpt lat="46.0678130" lon="11.1198242" />
      <trkpt lat="46.0677742" lon="11.1198820" />
      <trkpt lat="46.0677323" lon="11.1199236" />
      <trkpt lat="46.0676821" lon="11.1199464" />
      <trkpt lat="46.0676448" lon="11.1199678" />
      <trkpt lat="46.0676272" lon="11.1199974" />
      <trkpt lat="46.0676206" lon="11.1200671" />
      <trkpt lat="46.0676225" lon="11.1201073" />
      <trkpt lat="46.0676157" lon="11.1201320" />
      <trkpt lat="46.0675899" lon="11.1201529" />
      <trkpt lat="46.0675648" lon="11.1201851" />
      <trkpt lat="46.0675481" lon="11.1202039" />
      <trkpt lat="46.0675208" lon="11.1202206" />
      <trkpt lat="46.0673967" lon="11.1201946" />
      <trkpt lat="46.0672684" lon="11.1202069" />
      <trkpt lat="46.0672696" lon="11.1202246" />
      <trkpt lat="46.0672765" lon="11.1203235" />
      <trkpt lat="46.0672800" lon="11.1204559" />
      <trkpt lat="46.0672643" lon="11.1204667" />
      <trkpt lat="46.0671281" lon="11.1204977" />
      <trkpt lat="46.0670559" lon="11.1205068" />
      <trkpt lat="46.0670444" lon="11.1205090" />
      <trkpt lat="46.0670289" lon="11.1205458" />
      <trkpt lat="46.0668249" lon="11.1206182" />
      <trkpt lat="46.0668711" lon="11.1210492" />
    </trkseg>
  </trk>
</gpx>
