<?xml version="1.0" encoding="UTF-8"?>
<gpx xmlns="http://www.topografix.com/GPX/1/1" version="1.1" creator="ShapeRoute route-engine">
  <metadata>
    <name>HUB 15 km milano round-top</name>
    <author>
      <name>ShapeRoute route-engine</name>
    </author>
    <copyright author="OpenStreetMap contributors">
      <license>https://opendatacommons.org/licenses/odbl/1-0/</license>
    </copyright>
    <link href="https://www.openstreetmap.org/copyright">
      <text>© OpenStreetMap contributors</text>
    </link>
    <time>2026-10-02T11:12:31Z</time>
  </metadata>
  <trk>
    <name>HUB 15 km milano round-top</name>
    <trkseg>
      <trkpt lat="45.4643695" lon="9.1897716" />
      <trkpt lat="45.4644313" lon="9.1898582" />
      <trkpt lat="45.4644741" lon="9.1898729" />
      <trkpt lat="45.4645046" lon="9.1898833" />
      <trkpt lat="45.4645446" lon="9.1898970" />
      <trkpt lat="45.4645546" lon="9.1899005" />
      <trkpt lat="45.4645542" lon="9.1899580" />
      <trkpt lat="45.4645591" lon="9.1899581" />
      <trkpt lat="45.4645591" lon="9.1899739" />
      <trkpt lat="45.4645579" lon="9.1902970" />
      <trkpt lat="45.4645713" lon="9.1903119" />
      <trkpt lat="45.4645796" lon="9.1903211" />
      <trkpt lat="45.4645915" lon="9.1903344" />
      <trkpt lat="45.4645901" lon="9.1904077" />
      <trkpt lat="45.4646642" lon="9.1904112" />
      <trkpt lat="45.4646621" lon="9.1904786" />
      <trkpt lat="45.4645935" lon="9.1906061" />
      <trkpt lat="45.4646000" lon="9.1909552" />
      <trkpt lat="45.4646003" lon="9.1909797" />
      <trkpt lat="45.4646007" lon="9.1910693" />
      <trkpt lat="45.4646012" lon="9.1911209" />
      <trkpt lat="45.4646465" lon="9.1911206" />
      <trkpt lat="45.4646515" lon="9.1916688" />
      <trkpt lat="45.4646511" lon="9.1923052" />
      <trkpt lat="45.4645377" lon="9.1923059" />
      <trkpt lat="45.4645367" lon="9.1924709" />
      <trkpt lat="45.4643963" lon="9.1924716" />
      <trkpt lat="45.4642136" lon="9.1927217" />
      <trkpt lat="45.4645351" lon="9.1927354" />
      <trkpt lat="45.4645357" lon="9.1927628" />
      <trkpt lat="45.4638518" lon="9.1927544" />
      <trkpt lat="45.4637264" lon="9.1927530" />
      <trkpt lat="45.4637018" lon="9.1926368" />
      <trkpt lat="45.4636995" lon="9.1921135" />
      <trkpt lat="45.4636519" lon="9.1921174" />
      <trkpt lat="45.4636525" lon="9.1921553" />
      <trkpt lat="45.4636255" lon="9.1921428" />
      <trkpt lat="45.4630144" lon="9.1921985" />
      <trkpt lat="45.4627750" lon="9.1923263" />
      <trkpt lat="45.4627743" lon="9.1923398" />
      <trkpt lat="45.4627737" lon="9.1923499" />
      <trkpt lat="45.4627811" lon="9.1924191" />
      <trkpt lat="45.4627002" lon="9.1924214" />
      <trkpt lat="45.4627073" lon="9.1923080" />
      <trkpt lat="45.4626454" lon="9.1923662" />
      <trkpt lat="45.4626372" lon="9.1923751" />
      <trkpt lat="45.4625569" lon="9.1924313" />
      <trkpt lat="45.4620932" lon="9.1927599" />
      <trkpt lat="45.4621256" lon="9.1928319" />
      <trkpt lat="45.4621325" lon="9.1928471" />
      <trkpt lat="45.4621488" lon="9.1929040" />
      <trkpt lat="45.4623754" lon="9.1933839" />
      <trkpt lat="45.4624950" lon="9.1936292" />
      <trkpt lat="45.4624808" lon="9.1936427" />
      <trkpt lat="45.4624603" lon="9.1936619" />
      <trkpt lat="45.4624586" lon="9.1936637" />
      <trkpt lat="45.4624534" lon="9.1936686" />
      <trkpt lat="45.4624322" lon="9.1936887" />
      <trkpt lat="45.4624173" lon="9.1937028" />
      <trkpt lat="45.4624130" lon="9.1937069" />
      <trkpt lat="45.4624005" lon="9.1937188" />
      <trkpt lat="45.4623871" lon="9.1937314" />
      <trkpt lat="45.4623766" lon="9.1937414" />
      <trkpt lat="45.4623716" lon="9.1937461" />
      <trkpt lat="45.4623597" lon="9.1937574" />
      <trkpt lat="45.4623475" lon="9.1937689" />
      <trkpt lat="45.4623318" lon="9.1937838" />
      <trkpt lat="45.4623222" lon="9.1937929" />
      <trkpt lat="45.4622467" lon="9.1936735" />
      <trkpt lat="45.4621036" lon="9.1934014" />
      <trkpt lat="45.4620895" lon="9.1933779" />
      <trkpt lat="45.4620729" lon="9.1933502" />
      <trkpt lat="45.4620514" lon="9.1933144" />
      <trkpt lat="45.4620361" lon="9.1932890" />
      <trkpt lat="45.4618688" lon="9.1934483" />
      <trkpt lat="45.4618383" lon="9.1934446" />
      <trkpt lat="45.4614573" lon="9.1933875" />
      <trkpt lat="45.4610996" lon="9.1932725" />
      <trkpt lat="45.4610217" lon="9.1932474" />
      <trkpt lat="45.4605349" lon="9.1930802" />
      <trkpt lat="45.4605164" lon="9.1930436" />
      <trkpt lat="45.4605126" lon="9.1930419" />
      <trkpt lat="45.4604952" lon="9.1930342" />
      <trkpt lat="45.4604709" lon="9.1930236" />
      <trkpt lat="45.4604693" lon="9.1930217" />
      <trkpt lat="45.4604491" lon="9.1930434" />
      <trkpt lat="45.4595205" lon="9.1926837" />
      <trkpt lat="45.4593651" lon="9.1926235" />
      <trkpt lat="45.4592409" lon="9.1924782" />
      <trkpt lat="45.4592541" lon="9.1923905" />
      <trkpt lat="45.4591822" lon="9.1922774" />
      <trkpt lat="45.4591516" lon="9.1923128" />
      <trkpt lat="45.4591307" lon="9.1923719" />
      <trkpt lat="45.4590588" lon="9.1924059" />
      <trkpt lat="45.4590002" lon="9.1924120" />
      <trkpt lat="45.4589904" lon="9.1924129" />
      <trkpt lat="45.4589622" lon="9.1924155" />
      <trkpt lat="45.4589164" lon="9.1924054" />
      <trkpt lat="45.4587734" lon="9.1922640" />
      <trkpt lat="45.4587270" lon="9.1922504" />
      <trkpt lat="45.4586058" lon="9.1922499" />
      <trkpt lat="45.4585734" lon="9.1923136" />
      <trkpt lat="45.4585702" lon="9.1923163" />
      <trkpt lat="45.4585663" lon="9.1923165" />
      <trkpt lat="45.4585618" lon="9.1923137" />
      <trkpt lat="45.4585498" lon="9.1923024" />
      <trkpt lat="45.4585355" lon="9.1922873" />
      <trkpt lat="45.4584190" lon="9.1924778" />
      <trkpt lat="45.4584624" lon="9.1925284" />
      <trkpt lat="45.4582906" lon="9.1928857" />
      <trkpt lat="45.4581369" lon="9.1926812" />
      <trkpt lat="45.4581350" lon="9.1926786" />
      <trkpt lat="45.4580590" lon="9.1927822" />
      <trkpt lat="45.4580424" lon="9.1928083" />
      <trkpt lat="45.4579796" lon="9.1928940" />
      <trkpt lat="45.4577070" lon="9.1933255" />
      <trkpt lat="45.4577052" lon="9.1933222" />
      <trkpt lat="45.4576733" lon="9.1932763" />
      <trkpt lat="45.4576267" lon="9.1933538" />
      <trkpt lat="45.4576018" lon="9.1933920" />
      <trkpt lat="45.4575598" lon="9.1934625" />
      <trkpt lat="45.4575320" lon="9.1934228" />
      <trkpt lat="45.4575248" lon="9.1934125" />
      <trkpt lat="45.4573706" lon="9.1936721" />
      <trkpt lat="45.4573557" lon="9.1936929" />
      <trkpt lat="45.4570088" lon="9.1942208" />
      <trkpt lat="45.4569639" lon="9.1942381" />
      <trkpt lat="45.4568323" lon="9.1944558" />
      <trkpt lat="45.4566435" lon="9.1946957" />
      <trkpt lat="45.4564970" lon="9.1948643" />
      <trkpt lat="45.4564705" lon="9.1948970" />
      <trkpt lat="45.4564815" lon="9.1949166" />
      <trkpt lat="45.4564715" lon="9.1949287" />
      <trkpt lat="45.4564272" lon="9.1949848" />
      <trkpt lat="45.4564223" lon="9.1949924" />
      <trkpt lat="45.4564201" lon="9.1949997" />
      <trkpt lat="45.4564175" lon="9.1950146" />
      <trkpt lat="45.4564155" lon="9.1950253" />
      <trkpt lat="45.4564133" lon="9.1950445" />
      <trkpt lat="45.4564123" lon="9.1950781" />
      <trkpt lat="45.4564116" lon="9.1951170" />
      <trkpt lat="45.4564106" lon="9.1951683" />
      <trkpt lat="45.4563646" lon="9.1952305" />
      <trkpt lat="45.4563006" lon="9.1953170" />
      <trkpt lat="45.4562989" lon="9.1954069" />
      <trkpt lat="45.4562993" lon="9.1954246" />
      <trkpt lat="45.4562693" lon="9.1954487" />
      <trkpt lat="45.4561743" lon="9.1955253" />
      <trkpt lat="45.4560541" lon="9.1956579" />
      <trkpt lat="45.4560436" lon="9.1956408" />
      <trkpt lat="45.4560090" lon="9.1956780" />
      <trkpt lat="45.4559992" lon="9.1956893" />
      <trkpt lat="45.4560040" lon="9.1956966" />
      <trkpt lat="45.4559749" lon="9.1957347" />
      <trkpt lat="45.4559558" lon="9.1957621" />
      <trkpt lat="45.4560201" lon="9.1958707" />
      <trkpt lat="45.4560284" lon="9.1959041" />
      <trkpt lat="45.4560396" lon="9.1959483" />
      <trkpt lat="45.4560744" lon="9.1960790" />
      <trkpt lat="45.4560587" lon="9.1961118" />
      <trkpt lat="45.4560994" lon="9.1961392" />
      <trkpt lat="45.4561405" lon="9.1964001" />
      <trkpt lat="45.4562049" lon="9.1968080" />
      <trkpt lat="45.4563168" lon="9.1975166" />
      <trkpt lat="45.4565299" lon="9.1988653" />
      <trkpt lat="45.4565729" lon="9.1991178" />
      <trkpt lat="45.4565507" lon="9.1991377" />
      <trkpt lat="45.4565550" lon="9.1991672" />
      <trkpt lat="45.4565605" lon="9.1992046" />
      <trkpt lat="45.4565638" lon="9.1992170" />
      <trkpt lat="45.4565661" lon="9.1992427" />
      <trkpt lat="45.4565867" lon="9.1992653" />
      <trkpt lat="45.4566000" lon="9.1992764" />
      <trkpt lat="45.4566203" lon="9.1992735" />
      <trkpt lat="45.4566323" lon="9.1992718" />
      <trkpt lat="45.4566438" lon="9.1992702" />
      <trkpt lat="45.4566615" lon="9.1992677" />
      <trkpt lat="45.4566643" lon="9.1992653" />
      <trkpt lat="45.4567148" lon="9.1996238" />
      <trkpt lat="45.4568875" lon="9.2006474" />
      <trkpt lat="45.4569194" lon="9.2006674" />
      <trkpt lat="45.4573714" lon="9.2005361" />
      <trkpt lat="45.4578884" lon="9.2003484" />
      <trkpt lat="45.4578932" lon="9.2003759" />
      <trkpt lat="45.4579006" lon="9.2004297" />
      <trkpt lat="45.4579436" lon="9.2004170" />
      <trkpt lat="45.4579693" lon="9.2006218" />
      <trkpt lat="45.4580243" lon="9.2006070" />
      <trkpt lat="45.4580568" lon="9.2005993" />
      <trkpt lat="45.4580633" lon="9.2006444" />
      <trkpt lat="45.4580644" lon="9.2006517" />
      <trkpt lat="45.4580442" lon="9.2007065" />
      <trkpt lat="45.4580477" lon="9.2007506" />
      <trkpt lat="45.4580988" lon="9.2009711" />
      <trkpt lat="45.4581261" lon="9.2009909" />
      <trkpt lat="45.4581281" lon="9.2010093" />
      <trkpt lat="45.4581294" lon="9.2010209" />
      <trkpt lat="45.4583036" lon="9.2009709" />
      <trkpt lat="45.4585538" lon="9.2009065" />
      <trkpt lat="45.4588771" lon="9.2008337" />
      <trkpt lat="45.4598240" lon="9.2005835" />
      <trkpt lat="45.4598554" lon="9.2005768" />
      <trkpt lat="45.4598818" lon="9.2005711" />
      <trkpt lat="45.4598574" lon="9.2001459" />
      <trkpt lat="45.4598512" lon="9.2000686" />
      <trkpt lat="45.4599099" lon="9.2000757" />
      <trkpt lat="45.4600803" lon="9.2000953" />
      <trkpt lat="45.4606306" lon="9.2001959" />
      <trkpt lat="45.4608194" lon="9.2002355" />
      <trkpt lat="45.4608583" lon="9.2002437" />
      <trkpt lat="45.4608773" lon="9.2002477" />
      <trkpt lat="45.4609251" lon="9.2002558" />
      <trkpt lat="45.4611718" lon="9.2003038" />
      <trkpt lat="45.4617702" lon="9.2004178" />
      <trkpt lat="45.4621785" lon="9.2004988" />
      <trkpt lat="45.4622511" lon="9.2005306" />
      <trkpt lat="45.4622503" lon="9.2008155" />
      <trkpt lat="45.4622988" lon="9.2008169" />
      <trkpt lat="45.4623120" lon="9.2008173" />
      <trkpt lat="45.4623147" lon="9.2008174" />
      <trkpt lat="45.4623438" lon="9.2008184" />
      <trkpt lat="45.4623738" lon="9.2008195" />
      <trkpt lat="45.4623927" lon="9.2008201" />
      <trkpt lat="45.4623920" lon="9.2008389" />
      <trkpt lat="45.4623922" lon="9.2008614" />
      <trkpt lat="45.4623930" lon="9.2009397" />
      <trkpt lat="45.4623935" lon="9.2009935" />
      <trkpt lat="45.4623889" lon="9.2009995" />
      <trkpt lat="45.4625219" lon="9.2010704" />
      <trkpt lat="45.4625275" lon="9.2010758" />
      <trkpt lat="45.4625749" lon="9.2010968" />
      <trkpt lat="45.4626418" lon="9.2011301" />
      <trkpt lat="45.4626516" lon="9.2011350" />
      <trkpt lat="45.4626617" lon="9.2011777" />
      <trkpt lat="45.4629538" lon="9.2012105" />
      <trkpt lat="45.4633721" lon="9.2012375" />
      <trkpt lat="45.4633802" lon="9.2012238" />
      <trkpt lat="45.4633803" lon="9.2012337" />
      <trkpt lat="45.4633807" lon="9.2012687" />
      <trkpt lat="45.4633804" lon="9.2012835" />
      <trkpt lat="45.4633816" lon="9.2012921" />
      <trkpt lat="45.4633958" lon="9.2013002" />
      <trkpt lat="45.4633979" lon="9.2013272" />
      <trkpt lat="45.4634385" lon="9.2018817" />
      <trkpt lat="45.4634963" lon="9.2027148" />
      <trkpt lat="45.4634807" lon="9.2027290" />
      <trkpt lat="45.4634780" lon="9.2027529" />
      <trkpt lat="45.4634778" lon="9.2027976" />
      <trkpt lat="45.4634774" lon="9.2028425" />
      <trkpt lat="45.4634768" lon="9.2028866" />
      <trkpt lat="45.4635054" lon="9.2029053" />
      <trkpt lat="45.4635248" lon="9.2032159" />
      <trkpt lat="45.4635389" lon="9.2034511" />
      <trkpt lat="45.4635454" lon="9.2035428" />
      <trkpt lat="45.4635298" lon="9.2035707" />
      <trkpt lat="45.4635300" lon="9.2035932" />
      <trkpt lat="45.4635349" lon="9.2036563" />
      <trkpt lat="45.4635360" lon="9.2036774" />
      <trkpt lat="45.4635401" lon="9.2037206" />
      <trkpt lat="45.4635649" lon="9.2037436" />
      <trkpt lat="45.4636320" lon="9.2044146" />
      <trkpt lat="45.4636328" lon="9.2044328" />
      <trkpt lat="45.4636340" lon="9.2044611" />
      <trkpt lat="45.4636360" lon="9.2045068" />
      <trkpt lat="45.4636354" lon="9.2045161" />
      <trkpt lat="45.4636498" lon="9.2045396" />
      <trkpt lat="45.4637082" lon="9.2050845" />
      <trkpt lat="45.4636973" lon="9.2051216" />
      <trkpt lat="45.4636981" lon="9.2051289" />
      <trkpt lat="45.4637012" lon="9.2051605" />
      <trkpt lat="45.4637029" lon="9.2051800" />
      <trkpt lat="45.4637061" lon="9.2052016" />
      <trkpt lat="45.4637219" lon="9.2052387" />
      <trkpt lat="45.4637998" lon="9.2060978" />
      <trkpt lat="45.4638134" lon="9.2061007" />
      <trkpt lat="45.4638276" lon="9.2060984" />
      <trkpt lat="45.4638436" lon="9.2061688" />
      <trkpt lat="45.4638482" lon="9.2062124" />
      <trkpt lat="45.4642662" lon="9.2061570" />
      <trkpt lat="45.4642769" lon="9.2063304" />
      <trkpt lat="45.4642881" lon="9.2065070" />
      <trkpt lat="45.4642903" lon="9.2065457" />
      <trkpt lat="45.4642942" lon="9.2066071" />
      <trkpt lat="45.4643281" lon="9.2071736" />
      <trkpt lat="45.4643330" lon="9.2072356" />
      <trkpt lat="45.4643385" lon="9.2073230" />
      <trkpt lat="45.4643413" lon="9.2073694" />
      <trkpt lat="45.4643424" lon="9.2073874" />
      <trkpt lat="45.4643430" lon="9.2074020" />
      <trkpt lat="45.4643502" lon="9.2075128" />
      <trkpt lat="45.4643682" lon="9.2075976" />
      <trkpt lat="45.4645838" lon="9.2086963" />
      <trkpt lat="45.4646028" lon="9.2087949" />
      <trkpt lat="45.4646181" lon="9.2088921" />
      <trkpt lat="45.4648850" lon="9.2102048" />
      <trkpt lat="45.4648993" lon="9.2102891" />
      <trkpt lat="45.4649196" lon="9.2103987" />
      <trkpt lat="45.4650759" lon="9.2111888" />
      <trkpt lat="45.4650275" lon="9.2111903" />
      <trkpt lat="45.4650102" lon="9.2111908" />
      <trkpt lat="45.4649969" lon="9.2112086" />
      <trkpt lat="45.4640712" lon="9.2112297" />
      <trkpt lat="45.4640718" lon="9.2112543" />
      <trkpt lat="45.4640707" lon="9.2113355" />
      <trkpt lat="45.4640760" lon="9.2114159" />
      <trkpt lat="45.4640764" lon="9.2114313" />
      <trkpt lat="45.4640660" lon="9.2114547" />
      <trkpt lat="45.4640516" lon="9.2114550" />
      <trkpt lat="45.4640044" lon="9.2114561" />
      <trkpt lat="45.4639750" lon="9.2114567" />
      <trkpt lat="45.4639595" lon="9.2114570" />
      <trkpt lat="45.4639613" lon="9.2119771" />
      <trkpt lat="45.4639615" lon="9.2120033" />
      <trkpt lat="45.4639618" lon="9.2120333" />
      <trkpt lat="45.4639623" lon="9.2120992" />
      <trkpt lat="45.4639624" lon="9.2121062" />
      <trkpt lat="45.4639797" lon="9.2133681" />
      <trkpt lat="45.4639642" lon="9.2133904" />
      <trkpt lat="45.4639650" lon="9.2134235" />
      <trkpt lat="45.4639653" lon="9.2134373" />
      <trkpt lat="45.4631019" lon="9.2134489" />
      <trkpt lat="45.4623548" lon="9.2134588" />
      <trkpt lat="45.4623311" lon="9.2134591" />
      <trkpt lat="45.4622656" lon="9.2134600" />
      <trkpt lat="45.4622482" lon="9.2134606" />
      <trkpt lat="45.4622276" lon="9.2134608" />
      <trkpt lat="45.4622210" lon="9.2134610" />
      <trkpt lat="45.4621678" lon="9.2134616" />
      <trkpt lat="45.4621310" lon="9.2134571" />
      <trkpt lat="45.4609409" lon="9.2133111" />
      <trkpt lat="45.4609410" lon="9.2132632" />
      <trkpt lat="45.4609410" lon="9.2132445" />
      <trkpt lat="45.4609222" lon="9.2132293" />
      <trkpt lat="45.4609118" lon="9.2132280" />
      <trkpt lat="45.4608758" lon="9.2132237" />
      <trkpt lat="45.4608484" lon="9.2132205" />
      <trkpt lat="45.4608306" lon="9.2132184" />
      <trkpt lat="45.4608213" lon="9.2121795" />
      <trkpt lat="45.4608125" lon="9.2114917" />
      <trkpt lat="45.4607910" lon="9.2114676" />
      <trkpt lat="45.4607947" lon="9.2114361" />
      <trkpt lat="45.4608032" lon="9.2113627" />
      <trkpt lat="45.4608103" lon="9.2113018" />
      <trkpt lat="45.4608147" lon="9.2112637" />
      <trkpt lat="45.4608364" lon="9.2112597" />
      <trkpt lat="45.4608469" lon="9.2112636" />
      <trkpt lat="45.4608701" lon="9.2112703" />
      <trkpt lat="45.4609127" lon="9.2112825" />
      <trkpt lat="45.4609379" lon="9.2112898" />
      <trkpt lat="45.4609488" lon="9.2109184" />
      <trkpt lat="45.4610429" lon="9.2094751" />
      <trkpt lat="45.4610334" lon="9.2094738" />
      <trkpt lat="45.4609949" lon="9.2094685" />
      <trkpt lat="45.4609686" lon="9.2094649" />
      <trkpt lat="45.4609577" lon="9.2094634" />
      <trkpt lat="45.4609686" lon="9.2094649" />
      <trkpt lat="45.4609949" lon="9.2094685" />
      <trkpt lat="45.4610334" lon="9.2094738" />
      <trkpt lat="45.4610429" lon="9.2094751" />
      <trkpt lat="45.4609488" lon="9.2109184" />
      <trkpt lat="45.4609379" lon="9.2112898" />
      <trkpt lat="45.4609127" lon="9.2112825" />
      <trkpt lat="45.4608701" lon="9.2112703" />
      <trkpt lat="45.4608469" lon="9.2112636" />
      <trkpt lat="45.4608364" lon="9.2112597" />
      <trkpt lat="45.4608147" lon="9.2112637" />
      <trkpt lat="45.4608103" lon="9.2113018" />
      <trkpt lat="45.4608032" lon="9.2113627" />
      <trkpt lat="45.4607947" lon="9.2114361" />
      <trkpt lat="45.4607910" lon="9.2114676" />
      <trkpt lat="45.4599729" lon="9.2112576" />
      <trkpt lat="45.4599557" lon="9.2112535" />
      <trkpt lat="45.4599039" lon="9.2112412" />
      <trkpt lat="45.4598670" lon="9.2112324" />
      <trkpt lat="45.4598569" lon="9.2112300" />
      <trkpt lat="45.4597361" lon="9.2116868" />
      <trkpt lat="45.4597274" lon="9.2117191" />
      <trkpt lat="45.4597135" lon="9.2117705" />
      <trkpt lat="45.4596655" lon="9.2119482" />
      <trkpt lat="45.4596557" lon="9.2119845" />
      <trkpt lat="45.4593930" lon="9.2129650" />
      <trkpt lat="45.4593591" lon="9.2129966" />
      <trkpt lat="45.4593379" lon="9.2130253" />
      <trkpt lat="45.4593355" lon="9.2130436" />
      <trkpt lat="45.4593284" lon="9.2130992" />
      <trkpt lat="45.4593199" lon="9.2131649" />
      <trkpt lat="45.4593173" lon="9.2131853" />
      <trkpt lat="45.4593277" lon="9.2132010" />
      <trkpt lat="45.4591639" lon="9.2138361" />
      <trkpt lat="45.4591307" lon="9.2138629" />
      <trkpt lat="45.4591207" lon="9.2139053" />
      <trkpt lat="45.4591060" lon="9.2139682" />
      <trkpt lat="45.4590706" lon="9.2141189" />
      <trkpt lat="45.4590590" lon="9.2141682" />
      <trkpt lat="45.4583667" lon="9.2136137" />
      <trkpt lat="45.4583461" lon="9.2135962" />
      <trkpt lat="45.4583110" lon="9.2135663" />
      <trkpt lat="45.4582811" lon="9.2135407" />
      <trkpt lat="45.4582412" lon="9.2135030" />
      <trkpt lat="45.4577460" lon="9.2130914" />
      <trkpt lat="45.4577143" lon="9.2130768" />
      <trkpt lat="45.4576972" lon="9.2130618" />
      <trkpt lat="45.4576602" lon="9.2130286" />
      <trkpt lat="45.4576212" lon="9.2129959" />
      <trkpt lat="45.4575951" lon="9.2129732" />
      <trkpt lat="45.4575828" lon="9.2129629" />
      <trkpt lat="45.4573892" lon="9.2128004" />
      <trkpt lat="45.4572081" lon="9.2126483" />
      <trkpt lat="45.4566619" lon="9.2121877" />
      <trkpt lat="45.4565209" lon="9.2120766" />
      <trkpt lat="45.4565297" lon="9.2120526" />
      <trkpt lat="45.4565671" lon="9.2119501" />
      <trkpt lat="45.4566062" lon="9.2118497" />
      <trkpt lat="45.4566180" lon="9.2118195" />
      <trkpt lat="45.4566685" lon="9.2116941" />
      <trkpt lat="45.4566489" lon="9.2116774" />
      <trkpt lat="45.4566138" lon="9.2116473" />
      <trkpt lat="45.4565826" lon="9.2116209" />
      <trkpt lat="45.4565656" lon="9.2116065" />
      <trkpt lat="45.4565457" lon="9.2116123" />
      <trkpt lat="45.4561849" lon="9.2113146" />
      <trkpt lat="45.4560897" lon="9.2112361" />
      <trkpt lat="45.4557636" lon="9.2109670" />
      <trkpt lat="45.4557608" lon="9.2109546" />
      <trkpt lat="45.4557672" lon="9.2109412" />
      <trkpt lat="45.4560334" lon="9.2102854" />
      <trkpt lat="45.4563129" lon="9.2095952" />
      <trkpt lat="45.4563643" lon="9.2094686" />
      <trkpt lat="45.4564305" lon="9.2093054" />
      <trkpt lat="45.4564472" lon="9.2092642" />
      <trkpt lat="45.4564788" lon="9.2092608" />
      <trkpt lat="45.4564895" lon="9.2092330" />
      <trkpt lat="45.4565134" lon="9.2091711" />
      <trkpt lat="45.4565322" lon="9.2091221" />
      <trkpt lat="45.4565456" lon="9.2090871" />
      <trkpt lat="45.4565412" lon="9.2090648" />
      <trkpt lat="45.4565349" lon="9.2090463" />
      <trkpt lat="45.4565828" lon="9.2089277" />
      <trkpt lat="45.4567732" lon="9.2084566" />
      <trkpt lat="45.4568076" lon="9.2084848" />
      <trkpt lat="45.4571057" lon="9.2077385" />
      <trkpt lat="45.4571916" lon="9.2078040" />
      <trkpt lat="45.4572267" lon="9.2077196" />
      <trkpt lat="45.4575233" lon="9.2079598" />
      <trkpt lat="45.4575493" lon="9.2078916" />
      <trkpt lat="45.4579320" lon="9.2082020" />
      <trkpt lat="45.4579478" lon="9.2081650" />
      <trkpt lat="45.4579519" lon="9.2081554" />
      <trkpt lat="45.4579740" lon="9.2081402" />
      <trkpt lat="45.4579845" lon="9.2081489" />
      <trkpt lat="45.4580138" lon="9.2081730" />
      <trkpt lat="45.4580490" lon="9.2082019" />
      <trkpt lat="45.4580649" lon="9.2082150" />
      <trkpt lat="45.4580737" lon="9.2082474" />
      <trkpt lat="45.4590214" lon="9.2090272" />
      <trkpt lat="45.4590456" lon="9.2090258" />
      <trkpt lat="45.4590853" lon="9.2089233" />
      <trkpt lat="45.4590911" lon="9.2089277" />
      <trkpt lat="45.4591258" lon="9.2089538" />
      <trkpt lat="45.4591786" lon="9.2089934" />
      <trkpt lat="45.4591867" lon="9.2089994" />
      <trkpt lat="45.4591977" lon="9.2090299" />
      <trkpt lat="45.4592084" lon="9.2090590" />
      <trkpt lat="45.4603791" lon="9.2092325" />
      <trkpt lat="45.4604016" lon="9.2092153" />
      <trkpt lat="45.4607286" lon="9.2079530" />
      <trkpt lat="45.4607371" lon="9.2079521" />
      <trkpt lat="45.4607833" lon="9.2079473" />
      <trkpt lat="45.4608362" lon="9.2079418" />
      <trkpt lat="45.4608501" lon="9.2079403" />
      <trkpt lat="45.4608706" lon="9.2079102" />
      <trkpt lat="45.4609242" lon="9.2079007" />
      <trkpt lat="45.4613827" lon="9.2078576" />
      <trkpt lat="45.4613960" lon="9.2078560" />
      <trkpt lat="45.4614299" lon="9.2078520" />
      <trkpt lat="45.4614626" lon="9.2078481" />
      <trkpt lat="45.4614738" lon="9.2078468" />
      <trkpt lat="45.4620322" lon="9.2077864" />
      <trkpt lat="45.4621432" lon="9.2077779" />
      <trkpt lat="45.4621583" lon="9.2078116" />
      <trkpt lat="45.4621578" lon="9.2079276" />
      <trkpt lat="45.4621652" lon="9.2079276" />
      <trkpt lat="45.4621990" lon="9.2079273" />
      <trkpt lat="45.4622059" lon="9.2079273" />
      <trkpt lat="45.4622184" lon="9.2079272" />
      <trkpt lat="45.4622274" lon="9.2079272" />
      <trkpt lat="45.4622414" lon="9.2079274" />
      <trkpt lat="45.4622440" lon="9.2079271" />
      <trkpt lat="45.4622601" lon="9.2079270" />
      <trkpt lat="45.4622724" lon="9.2079269" />
      <trkpt lat="45.4622842" lon="9.2079268" />
      <trkpt lat="45.4622927" lon="9.2079268" />
      <trkpt lat="45.4623061" lon="9.2079267" />
      <trkpt lat="45.4623148" lon="9.2079266" />
      <trkpt lat="45.4623541" lon="9.2079264" />
      <trkpt lat="45.4623697" lon="9.2079263" />
      <trkpt lat="45.4623701" lon="9.2077833" />
      <trkpt lat="45.4623797" lon="9.2077657" />
      <trkpt lat="45.4626536" lon="9.2077404" />
      <trkpt lat="45.4630898" lon="9.2076994" />
      <trkpt lat="45.4633130" lon="9.2076763" />
      <trkpt lat="45.4633119" lon="9.2076328" />
      <trkpt lat="45.4633111" lon="9.2076021" />
      <trkpt lat="45.4633107" lon="9.2075841" />
      <trkpt lat="45.4633092" lon="9.2075260" />
      <trkpt lat="45.4633090" lon="9.2075168" />
      <trkpt lat="45.4633086" lon="9.2075007" />
      <trkpt lat="45.4633080" lon="9.2074774" />
      <trkpt lat="45.4633077" lon="9.2074658" />
      <trkpt lat="45.4633074" lon="9.2074512" />
      <trkpt lat="45.4633057" lon="9.2073834" />
      <trkpt lat="45.4633048" lon="9.2073439" />
      <trkpt lat="45.4633042" lon="9.2073216" />
      <trkpt lat="45.4633033" lon="9.2072869" />
      <trkpt lat="45.4633029" lon="9.2072584" />
      <trkpt lat="45.4633349" lon="9.2072571" />
      <trkpt lat="45.4633624" lon="9.2072559" />
      <trkpt lat="45.4633988" lon="9.2072544" />
      <trkpt lat="45.4634384" lon="9.2072501" />
      <trkpt lat="45.4634163" lon="9.2067361" />
      <trkpt lat="45.4634151" lon="9.2066940" />
      <trkpt lat="45.4634120" lon="9.2066551" />
      <trkpt lat="45.4634079" lon="9.2066022" />
      <trkpt lat="45.4634074" lon="9.2065896" />
      <trkpt lat="45.4634219" lon="9.2065744" />
      <trkpt lat="45.4634340" lon="9.2065555" />
      <trkpt lat="45.4634441" lon="9.2065313" />
      <trkpt lat="45.4634504" lon="9.2065045" />
      <trkpt lat="45.4634525" lon="9.2064760" />
      <trkpt lat="45.4634503" lon="9.2064476" />
      <trkpt lat="45.4634444" lon="9.2064223" />
      <trkpt lat="45.4634351" lon="9.2064042" />
      <trkpt lat="45.4634242" lon="9.2063870" />
      <trkpt lat="45.4634116" lon="9.2063739" />
      <trkpt lat="45.4633971" lon="9.2063648" />
      <trkpt lat="45.4633887" lon="9.2063662" />
      <trkpt lat="45.4633864" lon="9.2063580" />
      <trkpt lat="45.4633657" lon="9.2062864" />
      <trkpt lat="45.4633533" lon="9.2062431" />
      <trkpt lat="45.4633288" lon="9.2061708" />
      <trkpt lat="45.4637998" lon="9.2060978" />
      <trkpt lat="45.4637219" lon="9.2052387" />
      <trkpt lat="45.4637061" lon="9.2052016" />
      <trkpt lat="45.4637029" lon="9.2051800" />
      <trkpt lat="45.4637012" lon="9.2051605" />
      <trkpt lat="45.4636981" lon="9.2051289" />
      <trkpt lat="45.4636973" lon="9.2051216" />
      <trkpt lat="45.4637082" lon="9.2050845" />
      <trkpt lat="45.4636498" lon="9.2045396" />
      <trkpt lat="45.4636354" lon="9.2045161" />
      <trkpt lat="45.4636360" lon="9.2045068" />
      <trkpt lat="45.4636340" lon="9.2044611" />
      <trkpt lat="45.4636328" lon="9.2044328" />
      <trkpt lat="45.4636320" lon="9.2044146" />
      <trkpt lat="45.4635649" lon="9.2037436" />
      <trkpt lat="45.4635401" lon="9.2037206" />
      <trkpt lat="45.4635360" lon="9.2036774" />
      <trkpt lat="45.4635349" lon="9.2036563" />
      <trkpt lat="45.4635300" lon="9.2035932" />
      <trkpt lat="45.4635298" lon="9.2035707" />
      <trkpt lat="45.4635454" lon="9.2035428" />
      <trkpt lat="45.4635389" lon="9.2034511" />
      <trkpt lat="45.4635248" lon="9.2032159" />
      <trkpt lat="45.4635054" lon="9.2029053" />
      <trkpt lat="45.4634768" lon="9.2028866" />
      <trkpt lat="45.4634774" lon="9.2028425" />
      <trkpt lat="45.4634778" lon="9.2027976" />
      <trkpt lat="45.4634780" lon="9.2027529" />
      <trkpt lat="45.4634807" lon="9.2027290" />
      <trkpt lat="45.4634963" lon="9.2027148" />
      <trkpt lat="45.4634385" lon="9.2018817" />
      <trkpt lat="45.4633979" lon="9.2013272" />
      <trkpt lat="45.4633958" lon="9.2013002" />
      <trkpt lat="45.4633816" lon="9.2012921" />
      <trkpt lat="45.4633804" lon="9.2012835" />
      <trkpt lat="45.4633807" lon="9.2012687" />
      <trkpt lat="45.4633803" lon="9.2012337" />
      <trkpt lat="45.4633802" lon="9.2012238" />
      <trkpt lat="45.4633721" lon="9.2012375" />
      <trkpt lat="45.4629538" lon="9.2012105" />
      <trkpt lat="45.4626617" lon="9.2011777" />
      <trkpt lat="45.4626516" lon="9.2011350" />
      <trkpt lat="45.4626418" lon="9.2011301" />
      <trkpt lat="45.4625749" lon="9.2010968" />
      <trkpt lat="45.4625275" lon="9.2010758" />
      <trkpt lat="45.4625219" lon="9.2010704" />
      <trkpt lat="45.4623889" lon="9.2009995" />
      <trkpt lat="45.4623935" lon="9.2009935" />
      <trkpt lat="45.4623930" lon="9.2009397" />
      <trkpt lat="45.4623922" lon="9.2008614" />
      <trkpt lat="45.4623920" lon="9.2008389" />
      <trkpt lat="45.4623927" lon="9.2008201" />
      <trkpt lat="45.4623738" lon="9.2008195" />
      <trkpt lat="45.4623438" lon="9.2008184" />
      <trkpt lat="45.4623147" lon="9.2008174" />
      <trkpt lat="45.4623120" lon="9.2008173" />
      <trkpt lat="45.4622988" lon="9.2008169" />
      <trkpt lat="45.4622503" lon="9.2008155" />
      <trkpt lat="45.4622511" lon="9.2005306" />
      <trkpt lat="45.4621785" lon="9.2004988" />
      <trkpt lat="45.4617702" lon="9.2004178" />
      <trkpt lat="45.4611718" lon="9.2003038" />
      <trkpt lat="45.4609251" lon="9.2002558" />
      <trkpt lat="45.4608773" lon="9.2002477" />
      <trkpt lat="45.4608583" lon="9.2002437" />
      <trkpt lat="45.4608194" lon="9.2002355" />
      <trkpt lat="45.4606306" lon="9.2001959" />
      <trkpt lat="45.4600803" lon="9.2000953" />
      <trkpt lat="45.4599099" lon="9.2000757" />
      <trkpt lat="45.4598512" lon="9.2000686" />
      <trkpt lat="45.4598574" lon="9.2001459" />
      <trkpt lat="45.4598818" lon="9.2005711" />
      <trkpt lat="45.4598554" lon="9.2005768" />
      <trkpt lat="45.4598240" lon="9.2005835" />
      <trkpt lat="45.4588771" lon="9.2008337" />
      <trkpt lat="45.4585538" lon="9.2009065" />
      <trkpt lat="45.4583036" lon="9.2009709" />
      <trkpt lat="45.4581294" lon="9.2010209" />
      <trkpt lat="45.4581281" lon="9.2010093" />
      <trkpt lat="45.4581261" lon="9.2009909" />
      <trkpt lat="45.4580988" lon="9.2009711" />
      <trkpt lat="45.4580477" lon="9.2007506" />
      <trkpt lat="45.4580442" lon="9.2007065" />
      <trkpt lat="45.4580644" lon="9.2006517" />
      <trkpt lat="45.4580633" lon="9.2006444" />
      <trkpt lat="45.4580568" lon="9.2005993" />
      <trkpt lat="45.4580243" lon="9.2006070" />
      <trkpt lat="45.4579693" lon="9.2006218" />
      <trkpt lat="45.4579436" lon="9.2004170" />
      <trkpt lat="45.4579006" lon="9.2004297" />
      <trkpt lat="45.4578932" lon="9.2003759" />
      <trkpt lat="45.4578884" lon="9.2003484" />
      <trkpt lat="45.4573714" lon="9.2005361" />
      <trkpt lat="45.4569194" lon="9.2006674" />
      <trkpt lat="45.4568875" lon="9.2006474" />
      <trkpt lat="45.4567148" lon="9.1996238" />
      <trkpt lat="45.4566643" lon="9.1992653" />
      <trkpt lat="45.4566615" lon="9.1992677" />
      <trkpt lat="45.4566438" lon="9.1992702" />
      <trkpt lat="45.4566323" lon="9.1992718" />
      <trkpt lat="45.4566203" lon="9.1992735" />
      <trkpt lat="45.4566000" lon="9.1992764" />
      <trkpt lat="45.4565867" lon="9.1992653" />
      <trkpt lat="45.4565661" lon="9.1992427" />
      <trkpt lat="45.4565638" lon="9.1992170" />
      <trkpt lat="45.4565605" lon="9.1992046" />
      <trkpt lat="45.4565550" lon="9.1991672" />
      <trkpt lat="45.4565507" lon="9.1991377" />
      <trkpt lat="45.4565729" lon="9.1991178" />
      <trkpt lat="45.4565299" lon="9.1988653" />
      <trkpt lat="45.4563168" lon="9.1975166" />
      <trkpt lat="45.4562049" lon="9.1968080" />
      <trkpt lat="45.4561405" lon="9.1964001" />
      <trkpt lat="45.4560994" lon="9.1961392" />
      <trkpt lat="45.4560587" lon="9.1961118" />
      <trkpt lat="45.4560744" lon="9.1960790" />
      <trkpt lat="45.4560396" lon="9.1959483" />
      <trkpt lat="45.4560284" lon="9.1959041" />
      <trkpt lat="45.4560201" lon="9.1958707" />
      <trkpt lat="45.4559558" lon="9.1957621" />
      <trkpt lat="45.4559749" lon="9.1957347" />
      <trkpt lat="45.4560040" lon="9.1956966" />
      <trkpt lat="45.4559992" lon="9.1956893" />
      <trkpt lat="45.4560090" lon="9.1956780" />
      <trkpt lat="45.4560436" lon="9.1956408" />
      <trkpt lat="45.4560541" lon="9.1956579" />
      <trkpt lat="45.4561743" lon="9.1955253" />
      <trkpt lat="45.4562693" lon="9.1954487" />
      <trkpt lat="45.4562993" lon="9.1954246" />
      <trkpt lat="45.4562989" lon="9.1954069" />
      <trkpt lat="45.4563006" lon="9.1953170" />
      <trkpt lat="45.4563646" lon="9.1952305" />
      <trkpt lat="45.4564106" lon="9.1951683" />
      <trkpt lat="45.4564116" lon="9.1951170" />
      <trkpt lat="45.4564123" lon="9.1950781" />
      <trkpt lat="45.4564133" lon="9.1950445" />
      <trkpt lat="45.4564155" lon="9.1950253" />
      <trkpt lat="45.4564175" lon="9.1950146" />
      <trkpt lat="45.4564201" lon="9.1949997" />
      <trkpt lat="45.4564223" lon="9.1949924" />
      <trkpt lat="45.4564272" lon="9.1949848" />
      <trkpt lat="45.4564715" lon="9.1949287" />
      <trkpt lat="45.4564815" lon="9.1949166" />
      <trkpt lat="45.4564705" lon="9.1948970" />
      <trkpt lat="45.4564970" lon="9.1948643" />
      <trkpt lat="45.4566435" lon="9.1946957" />
      <trkpt lat="45.4568323" lon="9.1944558" />
      <trkpt lat="45.4569639" lon="9.1942381" />
      <trkpt lat="45.4570088" lon="9.1942208" />
      <trkpt lat="45.4573557" lon="9.1936929" />
      <trkpt lat="45.4573706" lon="9.1936721" />
      <trkpt lat="45.4575248" lon="9.1934125" />
      <trkpt lat="45.4575320" lon="9.1934228" />
      <trkpt lat="45.4575598" lon="9.1934625" />
      <trkpt lat="45.4576018" lon="9.1933920" />
      <trkpt lat="45.4576267" lon="9.1933538" />
      <trkpt lat="45.4576733" lon="9.1932763" />
      <trkpt lat="45.4577052" lon="9.1933222" />
      <trkpt lat="45.4577070" lon="9.1933255" />
      <trkpt lat="45.4579796" lon="9.1928940" />
      <trkpt lat="45.4580424" lon="9.1928083" />
      <trkpt lat="45.4580590" lon="9.1927822" />
      <trkpt lat="45.4581350" lon="9.1926786" />
      <trkpt lat="45.4581369" lon="9.1926812" />
      <trkpt lat="45.4582906" lon="9.1928857" />
      <trkpt lat="45.4584624" lon="9.1925284" />
      <trkpt lat="45.4584190" lon="9.1924778" />
      <trkpt lat="45.4585355" lon="9.1922873" />
      <trkpt lat="45.4585498" lon="9.1923024" />
      <trkpt lat="45.4585618" lon="9.1923137" />
      <trkpt lat="45.4585663" lon="9.1923165" />
      <trkpt lat="45.4585702" lon="9.1923163" />
      <trkpt lat="45.4585734" lon="9.1923136" />
      <trkpt lat="45.4586058" lon="9.1922499" />
      <trkpt lat="45.4587270" lon="9.1922504" />
      <trkpt lat="45.4587734" lon="9.1922640" />
      <trkpt lat="45.4589164" lon="9.1924054" />
      <trkpt lat="45.4589622" lon="9.1924155" />
      <trkpt lat="45.4589904" lon="9.1924129" />
      <trkpt lat="45.4590002" lon="9.1924120" />
      <trkpt lat="45.4590588" lon="9.1924059" />
      <trkpt lat="45.4591307" lon="9.1923719" />
      <trkpt lat="45.4591516" lon="9.1923128" />
      <trkpt lat="45.4591822" lon="9.1922774" />
      <trkpt lat="45.4592541" lon="9.1923905" />
      <trkpt lat="45.4592409" lon="9.1924782" />
      <trkpt lat="45.4593651" lon="9.1926235" />
      <trkpt lat="45.4595205" lon="9.1926837" />
      <trkpt lat="45.4604491" lon="9.1930434" />
      <trkpt lat="45.4604693" lon="9.1930217" />
      <trkpt lat="45.4604709" lon="9.1930236" />
      <trkpt lat="45.4604952" lon="9.1930342" />
      <trkpt lat="45.4605126" lon="9.1930419" />
      <trkpt lat="45.4605164" lon="9.1930436" />
      <trkpt lat="45.4605349" lon="9.1930802" />
      <trkpt lat="45.4610217" lon="9.1932474" />
      <trkpt lat="45.4610996" lon="9.1932725" />
      <trkpt lat="45.4614573" lon="9.1933875" />
      <trkpt lat="45.4618383" lon="9.1934446" />
      <trkpt lat="45.4618688" lon="9.1934483" />
      <trkpt lat="45.4620361" lon="9.1932890" />
      <trkpt lat="45.4620514" lon="9.1933144" />
      <trkpt lat="45.4620729" lon="9.1933502" />
      <trkpt lat="45.4620895" lon="9.1933779" />
      <trkpt lat="45.4621036" lon="9.1934014" />
      <trkpt lat="45.4622467" lon="9.1936735" />
      <trkpt lat="45.4623222" lon="9.1937929" />
      <trkpt lat="45.4623318" lon="9.1937838" />
      <trkpt lat="45.4623475" lon="9.1937689" />
      <trkpt lat="45.4623597" lon="9.1937574" />
      <trkpt lat="45.4623716" lon="9.1937461" />
      <trkpt lat="45.4623766" lon="9.1937414" />
      <trkpt lat="45.4623871" lon="9.1937314" />
      <trkpt lat="45.4624005" lon="9.1937188" />
      <trkpt lat="45.4624130" lon="9.1937069" />
      <trkpt lat="45.4624173" lon="9.1937028" />
      <trkpt lat="45.4624322" lon="9.1936887" />
      <trkpt lat="45.4624534" lon="9.1936686" />
      <trkpt lat="45.4624586" lon="9.1936637" />
      <trkpt lat="45.4624603" lon="9.1936619" />
      <trkpt lat="45.4624808" lon="9.1936427" />
      <trkpt lat="45.4624950" lon="9.1936292" />
      <trkpt lat="45.4625126" lon="9.1936218" />
      <trkpt lat="45.4626344" lon="9.1936064" />
      <trkpt lat="45.4626604" lon="9.1936041" />
      <trkpt lat="45.4626770" lon="9.1936026" />
      <trkpt lat="45.4626960" lon="9.1936008" />
      <trkpt lat="45.4627055" lon="9.1936000" />
      <trkpt lat="45.4627346" lon="9.1935974" />
      <trkpt lat="45.4629991" lon="9.1935613" />
      <trkpt lat="45.4630350" lon="9.1935589" />
      <trkpt lat="45.4630556" lon="9.1935576" />
      <trkpt lat="45.4630742" lon="9.1935564" />
      <trkpt lat="45.4630829" lon="9.1935548" />
      <trkpt lat="45.4630890" lon="9.1935647" />
      <trkpt lat="45.4631005" lon="9.1935711" />
      <trkpt lat="45.4631880" lon="9.1935611" />
      <trkpt lat="45.4636456" lon="9.1935540" />
      <trkpt lat="45.4636598" lon="9.1935381" />
      <trkpt lat="45.4636549" lon="9.1929747" />
      <trkpt lat="45.4636525" lon="9.1921553" />
      <trkpt lat="45.4636519" lon="9.1921174" />
      <trkpt lat="45.4636512" lon="9.1920723" />
      <trkpt lat="45.4636517" lon="9.1915334" />
      <trkpt lat="45.4636294" lon="9.1913797" />
      <trkpt lat="45.4636431" lon="9.1904942" />
      <trkpt lat="45.4635823" lon="9.1904952" />
      <trkpt lat="45.4635759" lon="9.1902779" />
      <trkpt lat="45.4635766" lon="9.1901391" />
      <trkpt lat="45.4635767" lon="9.1901213" />
      <trkpt lat="45.4635770" lon="9.1901104" />
      <trkpt lat="45.4635805" lon="9.1899838" />
      <trkpt lat="45.4635792" lon="9.1898551" />
      <trkpt lat="45.4635821" lon="9.1897235" />
      <trkpt lat="45.4635828" lon="9.1896026" />
      <trkpt lat="45.4636192" lon="9.1896023" />
      <trkpt lat="45.4636195" lon="9.1895948" />
      <trkpt lat="45.4636292" lon="9.1890238" />
      <trkpt lat="45.4636363" lon="9.1886025" />
      <trkpt lat="45.4636369" lon="9.1885741" />
      <trkpt lat="45.4635982" lon="9.1885736" />
      <trkpt lat="45.4635933" lon="9.1885635" />
      <trkpt lat="45.4635843" lon="9.1885356" />
      <trkpt lat="45.4635790" lon="9.1885192" />
      <trkpt lat="45.4635725" lon="9.1884991" />
      <trkpt lat="45.4635615" lon="9.1884653" />
      <trkpt lat="45.4635462" lon="9.1884179" />
      <trkpt lat="45.4635530" lon="9.1883931" />
      <trkpt lat="45.4635896" lon="9.1882447" />
      <trkpt lat="45.4636002" lon="9.1881991" />
      <trkpt lat="45.4636039" lon="9.1881900" />
      <trkpt lat="45.4636151" lon="9.1881617" />
      <trkpt lat="45.4636198" lon="9.1881507" />
      <trkpt lat="45.4636290" lon="9.1881285" />
      <trkpt lat="45.4636393" lon="9.1881034" />
      <trkpt lat="45.4636569" lon="9.1880604" />
      <trkpt lat="45.4636760" lon="9.1880707" />
      <trkpt lat="45.4636973" lon="9.1880726" />
      <trkpt lat="45.4637207" lon="9.1880670" />
      <trkpt lat="45.4637452" lon="9.1880515" />
      <trkpt lat="45.4638534" lon="9.1879133" />
      <trkpt lat="45.4640458" lon="9.1876546" />
      <trkpt lat="45.4640503" lon="9.1876143" />
      <trkpt lat="45.4637986" lon="9.1871957" />
      <trkpt lat="45.4637096" lon="9.1870552" />
      <trkpt lat="45.4636940" lon="9.1870276" />
      <trkpt lat="45.4636711" lon="9.1870547" />
      <trkpt lat="45.4636540" lon="9.1870283" />
      <trkpt lat="45.4636356" lon="9.1869996" />
      <trkpt lat="45.4636189" lon="9.1869739" />
      <trkpt lat="45.4636160" lon="9.1869693" />
      <trkpt lat="45.4636087" lon="9.1869786" />
      <trkpt lat="45.4634995" lon="9.1871194" />
      <trkpt lat="45.4632396" lon="9.1874853" />
      <trkpt lat="45.4632199" lon="9.1874954" />
      <trkpt lat="45.4632002" lon="9.1875002" />
      <trkpt lat="45.4631804" lon="9.1874984" />
      <trkpt lat="45.4631684" lon="9.1874892" />
      <trkpt lat="45.4627629" lon="9.1870086" />
      <trkpt lat="45.4626711" lon="9.1869075" />
      <trkpt lat="45.4626666" lon="9.1869131" />
      <trkpt lat="45.4626503" lon="9.1869332" />
      <trkpt lat="45.4626422" lon="9.1869432" />
      <trkpt lat="45.4626279" lon="9.1869610" />
      <trkpt lat="45.4626179" lon="9.1869733" />
      <trkpt lat="45.4626014" lon="9.1869943" />
      <trkpt lat="45.4625815" lon="9.1869703" />
      <trkpt lat="45.4625557" lon="9.1869368" />
      <trkpt lat="45.4625385" lon="9.1869146" />
      <trkpt lat="45.4625170" lon="9.1868867" />
      <trkpt lat="45.4625118" lon="9.1868800" />
      <trkpt lat="45.4624978" lon="9.1868642" />
      <trkpt lat="45.4623136" lon="9.1866341" />
      <trkpt lat="45.4621205" lon="9.1864044" />
      <trkpt lat="45.4620906" lon="9.1863638" />
      <trkpt lat="45.4620823" lon="9.1863545" />
      <trkpt lat="45.4620736" lon="9.1863439" />
      <trkpt lat="45.4620602" lon="9.1863268" />
      <trkpt lat="45.4620618" lon="9.1863240" />
      <trkpt lat="45.4620502" lon="9.1862800" />
      <trkpt lat="45.4618809" lon="9.1860732" />
      <trkpt lat="45.4618299" lon="9.1860079" />
      <trkpt lat="45.4616249" lon="9.1857232" />
      <trkpt lat="45.4616182" lon="9.1857141" />
      <trkpt lat="45.4616087" lon="9.1857014" />
      <trkpt lat="45.4616397" lon="9.1856649" />
      <trkpt lat="45.4616490" lon="9.1856540" />
      <trkpt lat="45.4615911" lon="9.1855672" />
      <trkpt lat="45.4615077" lon="9.1854471" />
      <trkpt lat="45.4613929" lon="9.1852808" />
      <trkpt lat="45.4612837" lon="9.1851213" />
      <trkpt lat="45.4612117" lon="9.1850058" />
      <trkpt lat="45.4611706" lon="9.1849389" />
      <trkpt lat="45.4611600" lon="9.1849469" />
      <trkpt lat="45.4611427" lon="9.1849600" />
      <trkpt lat="45.4611221" lon="9.1849756" />
      <trkpt lat="45.4610865" lon="9.1850024" />
      <trkpt lat="45.4607379" lon="9.1852657" />
      <trkpt lat="45.4602434" lon="9.1855594" />
      <trkpt lat="45.4600830" lon="9.1856404" />
      <trkpt lat="45.4600026" lon="9.1856958" />
      <trkpt lat="45.4599565" lon="9.1857252" />
      <trkpt lat="45.4599233" lon="9.1856945" />
      <trkpt lat="45.4599186" lon="9.1857011" />
      <trkpt lat="45.4599160" lon="9.1857048" />
      <trkpt lat="45.4599027" lon="9.1856887" />
      <trkpt lat="45.4596496" lon="9.1854532" />
      <trkpt lat="45.4594387" lon="9.1852771" />
      <trkpt lat="45.4594358" lon="9.1852745" />
      <trkpt lat="45.4594171" lon="9.1852576" />
      <trkpt lat="45.4593932" lon="9.1852360" />
      <trkpt lat="45.4593907" lon="9.1852337" />
      <trkpt lat="45.4590884" lon="9.1849700" />
      <trkpt lat="45.4589617" lon="9.1848674" />
      <trkpt lat="45.4589579" lon="9.1848674" />
      <trkpt lat="45.4589543" lon="9.1848644" />
      <trkpt lat="45.4589435" lon="9.1848542" />
      <trkpt lat="45.4589395" lon="9.1848504" />
      <trkpt lat="45.4585953" lon="9.1855898" />
      <trkpt lat="45.4584614" lon="9.1858553" />
      <trkpt lat="45.4584529" lon="9.1858456" />
      <trkpt lat="45.4583935" lon="9.1857828" />
      <trkpt lat="45.4583053" lon="9.1856891" />
      <trkpt lat="45.4582627" lon="9.1856450" />
      <trkpt lat="45.4582277" lon="9.1856057" />
      <trkpt lat="45.4582247" lon="9.1856135" />
      <trkpt lat="45.4582198" lon="9.1856262" />
      <trkpt lat="45.4582229" lon="9.1856561" />
      <trkpt lat="45.4579616" lon="9.1861994" />
      <trkpt lat="45.4579411" lon="9.1862373" />
      <trkpt lat="45.4579196" lon="9.1862772" />
      <trkpt lat="45.4583797" lon="9.1869249" />
      <trkpt lat="45.4585729" lon="9.1872027" />
      <trkpt lat="45.4585570" lon="9.1872259" />
      <trkpt lat="45.4583210" lon="9.1875563" />
      <trkpt lat="45.4580929" lon="9.1875645" />
      <trkpt lat="45.4576637" lon="9.1875131" />
      <trkpt lat="45.4574650" lon="9.1874770" />
      <trkpt lat="45.4572040" lon="9.1874296" />
      <trkpt lat="45.4571358" lon="9.1874200" />
      <trkpt lat="45.4570524" lon="9.1874072" />
      <trkpt lat="45.4570313" lon="9.1874047" />
      <trkpt lat="45.4569991" lon="9.1874009" />
      <trkpt lat="45.4569858" lon="9.1873993" />
      <trkpt lat="45.4569752" lon="9.1873981" />
      <trkpt lat="45.4566435" lon="9.1873611" />
      <trkpt lat="45.4566388" lon="9.1874242" />
      <trkpt lat="45.4566435" lon="9.1873611" />
      <trkpt lat="45.4569752" lon="9.1873981" />
      <trkpt lat="45.4569858" lon="9.1873993" />
      <trkpt lat="45.4569991" lon="9.1874009" />
      <trkpt lat="45.4570313" lon="9.1874047" />
      <trkpt lat="45.4570524" lon="9.1874072" />
      <trkpt lat="45.4571358" lon="9.1874200" />
      <trkpt lat="45.4572040" lon="9.1874296" />
      <trkpt lat="45.4574650" lon="9.1874770" />
      <trkpt lat="45.4576637" lon="9.1875131" />
      <trkpt lat="45.4580929" lon="9.1875645" />
      <trkpt lat="45.4583210" lon="9.1875563" />
      <trkpt lat="45.4585570" lon="9.1872259" />
      <trkpt lat="45.4585738" lon="9.1872538" />
      <trkpt lat="45.4586552" lon="9.1873974" />
      <trkpt lat="45.4587066" lon="9.1873949" />
      <trkpt lat="45.4587122" lon="9.1873872" />
      <trkpt lat="45.4587242" lon="9.1873747" />
      <trkpt lat="45.4587381" lon="9.1873614" />
      <trkpt lat="45.4588248" lon="9.1872723" />
      <trkpt lat="45.4588833" lon="9.1872156" />
      <trkpt lat="45.4588965" lon="9.1872069" />
      <trkpt lat="45.4589537" lon="9.1871690" />
      <trkpt lat="45.4589618" lon="9.1871636" />
      <trkpt lat="45.4589640" lon="9.1871622" />
      <trkpt lat="45.4590361" lon="9.1871607" />
      <trkpt lat="45.4593807" lon="9.1868519" />
      <trkpt lat="45.4594928" lon="9.1867833" />
      <trkpt lat="45.4596995" lon="9.1866568" />
      <trkpt lat="45.4598910" lon="9.1865396" />
      <trkpt lat="45.4601269" lon="9.1864109" />
      <trkpt lat="45.4601457" lon="9.1864006" />
      <trkpt lat="45.4600003" lon="9.1858551" />
      <trkpt lat="45.4599624" lon="9.1857731" />
      <trkpt lat="45.4599353" lon="9.1857282" />
      <trkpt lat="45.4599160" lon="9.1857048" />
      <trkpt lat="45.4599027" lon="9.1856887" />
      <trkpt lat="45.4596496" lon="9.1854532" />
      <trkpt lat="45.4594387" lon="9.1852771" />
      <trkpt lat="45.4594358" lon="9.1852745" />
      <trkpt lat="45.4594171" lon="9.1852576" />
      <trkpt lat="45.4593932" lon="9.1852360" />
      <trkpt lat="45.4593907" lon="9.1852337" />
      <trkpt lat="45.4590884" lon="9.1849700" />
      <trkpt lat="45.4589617" lon="9.1848674" />
      <trkpt lat="45.4589579" lon="9.1848674" />
      <trkpt lat="45.4589543" lon="9.1848644" />
      <trkpt lat="45.4589660" lon="9.1848422" />
      <trkpt lat="45.4590062" lon="9.1848739" />
      <trkpt lat="45.4590272" lon="9.1848270" />
      <trkpt lat="45.4593701" lon="9.1840419" />
      <trkpt lat="45.4594645" lon="9.1838109" />
      <trkpt lat="45.4595044" lon="9.1836457" />
      <trkpt lat="45.4596047" lon="9.1833853" />
      <trkpt lat="45.4597015" lon="9.1831342" />
      <trkpt lat="45.4597742" lon="9.1829611" />
      <trkpt lat="45.4596158" lon="9.1828277" />
      <trkpt lat="45.4595827" lon="9.1827987" />
      <trkpt lat="45.4595617" lon="9.1827802" />
      <trkpt lat="45.4598804" lon="9.1820434" />
      <trkpt lat="45.4601284" lon="9.1814575" />
      <trkpt lat="45.4601047" lon="9.1814372" />
      <trkpt lat="45.4600910" lon="9.1814254" />
      <trkpt lat="45.4600578" lon="9.1813991" />
      <trkpt lat="45.4600558" lon="9.1813820" />
      <trkpt lat="45.4600470" lon="9.1813068" />
      <trkpt lat="45.4600449" lon="9.1812894" />
      <trkpt lat="45.4600424" lon="9.1812677" />
      <trkpt lat="45.4600408" lon="9.1812540" />
      <trkpt lat="45.4600385" lon="9.1812347" />
      <trkpt lat="45.4600360" lon="9.1812131" />
      <trkpt lat="45.4600281" lon="9.1811457" />
      <trkpt lat="45.4600264" lon="9.1811314" />
      <trkpt lat="45.4600814" lon="9.1810060" />
      <trkpt lat="45.4600959" lon="9.1809819" />
      <trkpt lat="45.4601058" lon="9.1809653" />
      <trkpt lat="45.4601188" lon="9.1809437" />
      <trkpt lat="45.4598655" lon="9.1802669" />
      <trkpt lat="45.4596954" lon="9.1798063" />
      <trkpt lat="45.4592205" lon="9.1785204" />
      <trkpt lat="45.4591692" lon="9.1783988" />
      <trkpt lat="45.4591375" lon="9.1783412" />
      <trkpt lat="45.4591291" lon="9.1783293" />
      <trkpt lat="45.4591175" lon="9.1783399" />
      <trkpt lat="45.4590729" lon="9.1783808" />
      <trkpt lat="45.4590533" lon="9.1783984" />
      <trkpt lat="45.4590476" lon="9.1783892" />
      <trkpt lat="45.4590447" lon="9.1783829" />
      <trkpt lat="45.4590175" lon="9.1783242" />
      <trkpt lat="45.4590049" lon="9.1782970" />
      <trkpt lat="45.4589955" lon="9.1782766" />
      <trkpt lat="45.4590045" lon="9.1782307" />
      <trkpt lat="45.4590028" lon="9.1782236" />
      <trkpt lat="45.4589576" lon="9.1781815" />
      <trkpt lat="45.4589504" lon="9.1781847" />
      <trkpt lat="45.4589427" lon="9.1781769" />
      <trkpt lat="45.4589294" lon="9.1781617" />
      <trkpt lat="45.4589273" lon="9.1781592" />
      <trkpt lat="45.4589191" lon="9.1781496" />
      <trkpt lat="45.4588047" lon="9.1780056" />
      <trkpt lat="45.4587673" lon="9.1780147" />
      <trkpt lat="45.4587621" lon="9.1780068" />
      <trkpt lat="45.4587527" lon="9.1779939" />
      <trkpt lat="45.4587295" lon="9.1779623" />
      <trkpt lat="45.4586988" lon="9.1779189" />
      <trkpt lat="45.4586278" lon="9.1780729" />
      <trkpt lat="45.4586150" lon="9.1780976" />
      <trkpt lat="45.4585311" lon="9.1782599" />
      <trkpt lat="45.4584773" lon="9.1782144" />
      <trkpt lat="45.4584570" lon="9.1782012" />
      <trkpt lat="45.4584443" lon="9.1782322" />
      <trkpt lat="45.4584363" lon="9.1782515" />
      <trkpt lat="45.4577451" lon="9.1777483" />
      <trkpt lat="45.4576493" lon="9.1777131" />
      <trkpt lat="45.4576216" lon="9.1777022" />
      <trkpt lat="45.4575932" lon="9.1777142" />
      <trkpt lat="45.4575857" lon="9.1777121" />
      <trkpt lat="45.4575520" lon="9.1777030" />
      <trkpt lat="45.4575617" lon="9.1776286" />
      <trkpt lat="45.4575678" lon="9.1775791" />
      <trkpt lat="45.4574139" lon="9.1775371" />
      <trkpt lat="45.4569339" lon="9.1776079" />
      <trkpt lat="45.4566111" lon="9.1776657" />
      <trkpt lat="45.4564664" lon="9.1776757" />
      <trkpt lat="45.4566111" lon="9.1776657" />
      <trkpt lat="45.4569339" lon="9.1776079" />
      <trkpt lat="45.4574139" lon="9.1775371" />
      <trkpt lat="45.4575678" lon="9.1775791" />
      <trkpt lat="45.4575617" lon="9.1776286" />
      <trkpt lat="45.4575520" lon="9.1777030" />
      <trkpt lat="45.4575857" lon="9.1777121" />
      <trkpt lat="45.4575932" lon="9.1777142" />
      <trkpt lat="45.4576216" lon="9.1777022" />
      <trkpt lat="45.4576493" lon="9.1777131" />
      <trkpt lat="45.4577451" lon="9.1777483" />
      <trkpt lat="45.4584363" lon="9.1782515" />
      <trkpt lat="45.4584443" lon="9.1782322" />
      <trkpt lat="45.4584570" lon="9.1782012" />
      <trkpt lat="45.4584773" lon="9.1782144" />
      <trkpt lat="45.4585311" lon="9.1782599" />
      <trkpt lat="45.4586150" lon="9.1780976" />
      <trkpt lat="45.4586278" lon="9.1780729" />
      <trkpt lat="45.4586988" lon="9.1779189" />
      <trkpt lat="45.4587295" lon="9.1779623" />
      <trkpt lat="45.4587527" lon="9.1779939" />
      <trkpt lat="45.4587621" lon="9.1780068" />
      <trkpt lat="45.4587673" lon="9.1780147" />
      <trkpt lat="45.4588047" lon="9.1780056" />
      <trkpt lat="45.4589191" lon="9.1781496" />
      <trkpt lat="45.4589273" lon="9.1781592" />
      <trkpt lat="45.4589294" lon="9.1781617" />
      <trkpt lat="45.4589427" lon="9.1781769" />
      <trkpt lat="45.4589504" lon="9.1781847" />
      <trkpt lat="45.4589576" lon="9.1781815" />
      <trkpt lat="45.4590028" lon="9.1782236" />
      <trkpt lat="45.4590045" lon="9.1782307" />
      <trkpt lat="45.4589955" lon="9.1782766" />
      <trkpt lat="45.4590049" lon="9.1782970" />
      <trkpt lat="45.4590175" lon="9.1783242" />
      <trkpt lat="45.4590447" lon="9.1783829" />
      <trkpt lat="45.4590476" lon="9.1783892" />
      <trkpt lat="45.4590533" lon="9.1783984" />
      <trkpt lat="45.4590729" lon="9.1783808" />
      <trkpt lat="45.4591175" lon="9.1783399" />
      <trkpt lat="45.4591291" lon="9.1783293" />
      <trkpt lat="45.4591399" lon="9.1783194" />
      <trkpt lat="45.4591639" lon="9.1782974" />
      <trkpt lat="45.4591952" lon="9.1782688" />
      <trkpt lat="45.4592016" lon="9.1782629" />
      <trkpt lat="45.4591820" lon="9.1782111" />
      <trkpt lat="45.4591831" lon="9.1781704" />
      <trkpt lat="45.4592024" lon="9.1781409" />
      <trkpt lat="45.4594933" lon="9.1778660" />
      <trkpt lat="45.4596038" lon="9.1777588" />
      <trkpt lat="45.4598155" lon="9.1777267" />
      <trkpt lat="45.4602288" lon="9.1776573" />
      <trkpt lat="45.4602962" lon="9.1776465" />
      <trkpt lat="45.4603418" lon="9.1776936" />
      <trkpt lat="45.4603801" lon="9.1779380" />
      <trkpt lat="45.4603950" lon="9.1779331" />
      <trkpt lat="45.4604162" lon="9.1779261" />
      <trkpt lat="45.4604246" lon="9.1779233" />
      <trkpt lat="45.4604346" lon="9.1779200" />
      <trkpt lat="45.4604540" lon="9.1778727" />
      <trkpt lat="45.4605723" lon="9.1778218" />
      <trkpt lat="45.4608071" lon="9.1777178" />
      <trkpt lat="45.4608506" lon="9.1776992" />
      <trkpt lat="45.4610223" lon="9.1776380" />
      <trkpt lat="45.4610972" lon="9.1776223" />
      <trkpt lat="45.4611676" lon="9.1776138" />
      <trkpt lat="45.4612245" lon="9.1776301" />
      <trkpt lat="45.4612909" lon="9.1776629" />
      <trkpt lat="45.4613768" lon="9.1776992" />
      <trkpt lat="45.4614612" lon="9.1777590" />
      <trkpt lat="45.4615490" lon="9.1778444" />
      <trkpt lat="45.4616314" lon="9.1779654" />
      <trkpt lat="45.4617540" lon="9.1782298" />
      <trkpt lat="45.4617570" lon="9.1782200" />
      <trkpt lat="45.4617787" lon="9.1781983" />
      <trkpt lat="45.4617934" lon="9.1781838" />
      <trkpt lat="45.4617977" lon="9.1781795" />
      <trkpt lat="45.4618514" lon="9.1782959" />
      <trkpt lat="45.4618778" lon="9.1782715" />
      <trkpt lat="45.4618929" lon="9.1783043" />
      <trkpt lat="45.4626647" lon="9.1775908" />
      <trkpt lat="45.4626941" lon="9.1776420" />
      <trkpt lat="45.4627681" lon="9.1775732" />
      <trkpt lat="45.4629782" lon="9.1773778" />
      <trkpt lat="45.4631380" lon="9.1772222" />
      <trkpt lat="45.4631520" lon="9.1772333" />
      <trkpt lat="45.4633847" lon="9.1776795" />
      <trkpt lat="45.4634695" lon="9.1777642" />
      <trkpt lat="45.4637706" lon="9.1783897" />
      <trkpt lat="45.4634695" lon="9.1777642" />
      <trkpt lat="45.4633847" lon="9.1776795" />
      <trkpt lat="45.4631520" lon="9.1772333" />
      <trkpt lat="45.4631380" lon="9.1772222" />
      <trkpt lat="45.4629782" lon="9.1773778" />
      <trkpt lat="45.4627681" lon="9.1775732" />
      <trkpt lat="45.4626941" lon="9.1776420" />
      <trkpt lat="45.4626647" lon="9.1775908" />
      <trkpt lat="45.4618929" lon="9.1783043" />
      <trkpt lat="45.4618778" lon="9.1782715" />
      <trkpt lat="45.4618514" lon="9.1782959" />
      <trkpt lat="45.4617977" lon="9.1781795" />
      <trkpt lat="45.4617934" lon="9.1781838" />
      <trkpt lat="45.4617787" lon="9.1781983" />
      <trkpt lat="45.4617570" lon="9.1782200" />
      <trkpt lat="45.4617540" lon="9.1782298" />
      <trkpt lat="45.4616314" lon="9.1779654" />
      <trkpt lat="45.4615490" lon="9.1778444" />
      <trkpt lat="45.4614612" lon="9.1777590" />
      <trkpt lat="45.4613768" lon="9.1776992" />
      <trkpt lat="45.4612909" lon="9.1776629" />
      <trkpt lat="45.4612245" lon="9.1776301" />
      <trkpt lat="45.4611676" lon="9.1776138" />
      <trkpt lat="45.4610972" lon="9.1776223" />
      <trkpt lat="45.4610223" lon="9.1776380" />
      <trkpt lat="45.4608506" lon="9.1776992" />
      <trkpt lat="45.4608071" lon="9.1777178" />
      <trkpt lat="45.4605723" lon="9.1778218" />
      <trkpt lat="45.4604540" lon="9.1778727" />
      <trkpt lat="45.4604346" lon="9.1779200" />
      <trkpt lat="45.4604246" lon="9.1779233" />
      <trkpt lat="45.4604162" lon="9.1779261" />
      <trkpt lat="45.4603950" lon="9.1779331" />
      <trkpt lat="45.4603801" lon="9.1779380" />
      <trkpt lat="45.4607136" lon="9.1795612" />
      <trkpt lat="45.4607121" lon="9.1797338" />
      <trkpt lat="45.4607106" lon="9.1798960" />
      <trkpt lat="45.4606840" lon="9.1800965" />
      <trkpt lat="45.4606284" lon="9.1802936" />
      <trkpt lat="45.4605579" lon="9.1804132" />
      <trkpt lat="45.4602755" lon="9.1807567" />
      <trkpt lat="45.4601715" lon="9.1808829" />
      <trkpt lat="45.4601597" lon="9.1808771" />
      <trkpt lat="45.4601559" lon="9.1808817" />
      <trkpt lat="45.4601238" lon="9.1809353" />
      <trkpt lat="45.4601188" lon="9.1809437" />
      <trkpt lat="45.4601058" lon="9.1809653" />
      <trkpt lat="45.4600959" lon="9.1809819" />
      <trkpt lat="45.4600814" lon="9.1810060" />
      <trkpt lat="45.4600264" lon="9.1811314" />
      <trkpt lat="45.4600281" lon="9.1811457" />
      <trkpt lat="45.4600360" lon="9.1812131" />
      <trkpt lat="45.4600385" lon="9.1812347" />
      <trkpt lat="45.4600408" lon="9.1812540" />
      <trkpt lat="45.4600424" lon="9.1812677" />
      <trkpt lat="45.4600449" lon="9.1812894" />
      <trkpt lat="45.4600470" lon="9.1813068" />
      <trkpt lat="45.4600558" lon="9.1813820" />
      <trkpt lat="45.4600578" lon="9.1813991" />
      <trkpt lat="45.4600910" lon="9.1814254" />
      <trkpt lat="45.4601047" lon="9.1814372" />
      <trkpt lat="45.4601284" lon="9.1814575" />
      <trkpt lat="45.4598804" lon="9.1820434" />
      <trkpt lat="45.4595617" lon="9.1827802" />
      <trkpt lat="45.4595827" lon="9.1827987" />
      <trkpt lat="45.4596158" lon="9.1828277" />
      <trkpt lat="45.4597742" lon="9.1829611" />
      <trkpt lat="45.4597015" lon="9.1831342" />
      <trkpt lat="45.4596047" lon="9.1833853" />
      <trkpt lat="45.4595044" lon="9.1836457" />
      <trkpt lat="45.4594645" lon="9.1838109" />
      <trkpt lat="45.4593701" lon="9.1840419" />
      <trkpt lat="45.4590272" lon="9.1848270" />
      <trkpt lat="45.4590062" lon="9.1848739" />
      <trkpt lat="45.4589660" lon="9.1848422" />
      <trkpt lat="45.4589543" lon="9.1848644" />
      <trkpt lat="45.4589579" lon="9.1848674" />
      <trkpt lat="45.4589617" lon="9.1848674" />
      <trkpt lat="45.4590884" lon="9.1849700" />
      <trkpt lat="45.4593907" lon="9.1852337" />
      <trkpt lat="45.4593932" lon="9.1852360" />
      <trkpt lat="45.4594171" lon="9.1852576" />
      <trkpt lat="45.4594358" lon="9.1852745" />
      <trkpt lat="45.4594387" lon="9.1852771" />
      <trkpt lat="45.4596496" lon="9.1854532" />
      <trkpt lat="45.4599027" lon="9.1856887" />
      <trkpt lat="45.4599160" lon="9.1857048" />
      <trkpt lat="45.4599186" lon="9.1857011" />
      <trkpt lat="45.4599233" lon="9.1856945" />
      <trkpt lat="45.4599565" lon="9.1857252" />
      <trkpt lat="45.4600026" lon="9.1856958" />
      <trkpt lat="45.4600830" lon="9.1856404" />
      <trkpt lat="45.4602434" lon="9.1855594" />
      <trkpt lat="45.4607379" lon="9.1852657" />
      <trkpt lat="45.4610865" lon="9.1850024" />
      <trkpt lat="45.4611221" lon="9.1849756" />
      <trkpt lat="45.4611427" lon="9.1849600" />
      <trkpt lat="45.4611600" lon="9.1849469" />
      <trkpt lat="45.4611706" lon="9.1849389" />
      <trkpt lat="45.4612117" lon="9.1850058" />
      <trkpt lat="45.4612837" lon="9.1851213" />
      <trkpt lat="45.4613929" lon="9.1852808" />
      <trkpt lat="45.4615077" lon="9.1854471" />
      <trkpt lat="45.4615911" lon="9.1855672" />
      <trkpt lat="45.4616490" lon="9.1856540" />
      <trkpt lat="45.4616397" lon="9.1856649" />
      <trkpt lat="45.4616087" lon="9.1857014" />
      <trkpt lat="45.4616182" lon="9.1857141" />
      <trkpt lat="45.4616249" lon="9.1857232" />
      <trkpt lat="45.4618299" lon="9.1860079" />
      <trkpt lat="45.4618809" lon="9.1860732" />
      <trkpt lat="45.4620502" lon="9.1862800" />
      <trkpt lat="45.4620618" lon="9.1863240" />
      <trkpt lat="45.4620602" lon="9.1863268" />
      <trkpt lat="45.4620736" lon="9.1863439" />
      <trkpt lat="45.4620823" lon="9.1863545" />
      <trkpt lat="45.4620906" lon="9.1863638" />
      <trkpt lat="45.4621205" lon="9.1864044" />
      <trkpt lat="45.4623136" lon="9.1866341" />
      <trkpt lat="45.4624978" lon="9.1868642" />
      <trkpt lat="45.4625118" lon="9.1868800" />
      <trkpt lat="45.4625170" lon="9.1868867" />
      <trkpt lat="45.4625385" lon="9.1869146" />
      <trkpt lat="45.4625557" lon="9.1869368" />
      <trkpt lat="45.4625815" lon="9.1869703" />
      <trkpt lat="45.4626014" lon="9.1869943" />
      <trkpt lat="45.4626179" lon="9.1869733" />
      <trkpt lat="45.4626279" lon="9.1869610" />
      <trkpt lat="45.4626422" lon="9.1869432" />
      <trkpt lat="45.4626503" lon="9.1869332" />
      <trkpt lat="45.4626666" lon="9.1869131" />
      <trkpt lat="45.4626711" lon="9.1869075" />
      <trkpt lat="45.4627629" lon="9.1870086" />
      <trkpt lat="45.4631684" lon="9.1874892" />
      <trkpt lat="45.4631804" lon="9.1874984" />
      <trkpt lat="45.4632002" lon="9.1875002" />
      <trkpt lat="45.4632199" lon="9.1874954" />
      <trkpt lat="45.4632396" lon="9.1874853" />
      <trkpt lat="45.4634995" lon="9.1871194" />
      <trkpt lat="45.4636087" lon="9.1869786" />
      <trkpt lat="45.4636160" lon="9.1869693" />
      <trkpt lat="45.4636189" lon="9.1869739" />
      <trkpt lat="45.4636356" lon="9.1869996" />
      <trkpt lat="45.4636540" lon="9.1870283" />
      <trkpt lat="45.4636711" lon="9.1870547" />
      <trkpt lat="45.4636940" lon="9.1870276" />
      <trkpt lat="45.4637096" lon="9.1870552" />
      <trkpt lat="45.4637986" lon="9.1871957" />
      <trkpt lat="45.4640503" lon="9.1876143" />
      <trkpt lat="45.4640458" lon="9.1876546" />
      <trkpt lat="45.4638534" lon="9.1879133" />
      <trkpt lat="45.4637452" lon="9.1880515" />
      <trkpt lat="45.4637207" lon="9.1880670" />
      <trkpt lat="45.4636973" lon="9.1880726" />
      <trkpt lat="45.4636760" lon="9.1880707" />
      <trkpt lat="45.4636569" lon="9.1880604" />
      <trkpt lat="45.4636393" lon="9.1881034" />
      <trkpt lat="45.4636290" lon="9.1881285" />
      <trkpt lat="45.4636198" lon="9.1881507" />
      <trkpt lat="45.4636151" lon="9.1881617" />
      <trkpt lat="45.4636039" lon="9.1881900" />
      <trkpt lat="45.4636002" lon="9.1881991" />
      <trkpt lat="45.4635896" lon="9.1882447" />
      <trkpt lat="45.4635530" lon="9.1883931" />
      <trkpt lat="45.4635462" lon="9.1884179" />
      <trkpt lat="45.4635615" lon="9.1884653" />
      <trkpt lat="45.4635725" lon="9.1884991" />
      <trkpt lat="45.4635790" lon="9.1885192" />
      <trkpt lat="45.4635843" lon="9.1885356" />
      <trkpt lat="45.4635933" lon="9.1885635" />
      <trkpt lat="45.4635982" lon="9.1885736" />
      <trkpt lat="45.4636369" lon="9.1885741" />
      <trkpt lat="45.4636712" lon="9.1885745" />
      <trkpt lat="45.4636713" lon="9.1885837" />
      <trkpt lat="45.4636714" lon="9.1886805" />
      <trkpt lat="45.4636706" lon="9.1887812" />
      <trkpt lat="45.4636880" lon="9.1887996" />
      <trkpt lat="45.4636880" lon="9.1888097" />
      <trkpt lat="45.4636879" lon="9.1888363" />
      <trkpt lat="45.4637344" lon="9.1888372" />
      <trkpt lat="45.4637338" lon="9.1888841" />
      <trkpt lat="45.4637335" lon="9.1889066" />
      <trkpt lat="45.4637332" lon="9.1889265" />
      <trkpt lat="45.4637329" lon="9.1889492" />
      <trkpt lat="45.4637319" lon="9.1890225" />
      <trkpt lat="45.4637982" lon="9.1890213" />
      <trkpt lat="45.4637998" lon="9.1889533" />
      <trkpt lat="45.4638000" lon="9.1889344" />
      <trkpt lat="45.4638002" lon="9.1889146" />
      <trkpt lat="45.4638167" lon="9.1889146" />
      <trkpt lat="45.4640993" lon="9.1889147" />
      <trkpt lat="45.4641127" lon="9.1889147" />
      <trkpt lat="45.4641126" lon="9.1889477" />
      <trkpt lat="45.4641115" lon="9.1890703" />
      <trkpt lat="45.4641046" lon="9.1895113" />
      <trkpt lat="45.4641536" lon="9.1896431" />
      <trkpt lat="45.4643695" lon="9.1897716" />
    </trkseg>
  </trk>
</gpx>
