<?xml version="1.0" encoding="UTF-8"?>
<gpx xmlns="http://www.topografix.com/GPX/1/1" version="1.1" creator="ShapeRoute route-engine">
  <metadata>
    <name>pumpkin 15 km · 2026-10-04</name>
    <author>
      <name>ShapeRoute route-engine</name>
    </author>
    <copyright author="OpenStreetMap contributors">
      <license>https://opendatacommons.org/licenses/odbl/1-0/</license>
    </copyright>
    <link href="https://www.openstreetmap.org/copyright">
      <text>© OpenStreetMap contributors</text>
    </link>
    <time>2026-10-04T16:56:45Z</time>
  </metadata>
  <wpt lat="46.0685395" lon="11.1234315">
    <name>Pause</name>
  </wpt>
  <wpt lat="46.0638484" lon="11.1274271">
    <name>Resume</name>
  </wpt>
  <wpt lat="46.0638484" lon="11.1274271">
    <name>Pause</name>
  </wpt>
  <wpt lat="46.0607825" lon="11.1222636">
    <name>Resume</name>
  </wpt>
  <wpt lat="46.0607825" lon="11.1222636">
    <name>Pause</name>
  </wpt>
  <wpt lat="46.0587253" lon="11.1212955">
    <name>Resume</name>
  </wpt>
  <trk>
    <name>pumpkin 15 km · 2026-10-04</name>
    <trkseg>
      <trkpt lat="46.0685395" lon="11.1234315" />
      <trkpt lat="46.0682783" lon="11.1234658" />
      <trkpt lat="46.0682565" lon="11.1234891" />
      <trkpt lat="46.0682343" lon="11.1235128" />
      <trkpt lat="46.0680250" lon="11.1235503" />
      <trkpt lat="46.0678142" lon="11.1235709" />
      <trkpt lat="46.0678077" lon="11.1232267" />
      <trkpt lat="46.0677631" lon="11.1232283" />
      <trkpt lat="46.0676659" lon="11.1232331" />
      <trkpt lat="46.0674156" lon="11.1232472" />
      <trkpt lat="46.0674008" lon="11.1232483" />
      <trkpt lat="46.0673371" lon="11.1232534" />
      <trkpt lat="46.0673183" lon="11.1232550" />
      <trkpt lat="46.0673146" lon="11.1232553" />
      <trkpt lat="46.0673011" lon="11.1232564" />
      <trkpt lat="46.0672873" lon="11.1232576" />
      <trkpt lat="46.0672821" lon="11.1232581" />
      <trkpt lat="46.0672847" lon="11.1233272" />
      <trkpt lat="46.0672949" lon="11.1236000" />
      <trkpt lat="46.0672843" lon="11.1236027" />
      <trkpt lat="46.0672766" lon="11.1236046" />
      <trkpt lat="46.0672770" lon="11.1236362" />
      <trkpt lat="46.0671462" lon="11.1236709" />
      <trkpt lat="46.0670190" lon="11.1237046" />
      <trkpt lat="46.0670098" lon="11.1237070" />
      <trkpt lat="46.0669662" lon="11.1237185" />
      <trkpt lat="46.0669731" lon="11.1237689" />
      <trkpt lat="46.0670242" lon="11.1241418" />
      <trkpt lat="46.0670336" lon="11.1242105" />
      <trkpt lat="46.0669974" lon="11.1242205" />
      <trkpt lat="46.0667745" lon="11.1242849" />
      <trkpt lat="46.0664914" lon="11.1243614" />
      <trkpt lat="46.0664498" lon="11.1240203" />
      <trkpt lat="46.0662062" lon="11.1240774" />
      <trkpt lat="46.0660427" lon="11.1240327" />
      <trkpt lat="46.0659601" lon="11.1239522" />
      <trkpt lat="46.0658911" lon="11.1239464" />
      <trkpt lat="46.0656609" lon="11.1239761" />
      <trkpt lat="46.0656958" lon="11.1246657" />
      <trkpt lat="46.0657009" lon="11.1247688" />
      <trkpt lat="46.0656894" lon="11.1248307" />
      <trkpt lat="46.0656615" lon="11.1248850" />
      <trkpt lat="46.0656223" lon="11.1249238" />
      <trkpt lat="46.0657065" lon="11.1254149" />
      <trkpt lat="46.0657986" lon="11.1255218" />
      <trkpt lat="46.0659888" lon="11.1256911" />
      <trkpt lat="46.0659575" lon="11.1257955" />
      <trkpt lat="46.0659342" lon="11.1258733" />
      <trkpt lat="46.0662441" lon="11.1260428" />
      <trkpt lat="46.0662124" lon="11.1261632" />
      <trkpt lat="46.0659664" lon="11.1270981" />
      <trkpt lat="46.0659180" lon="11.1272752" />
      <trkpt lat="46.0659942" lon="11.1273145" />
      <trkpt lat="46.0660378" lon="11.1273383" />
      <trkpt lat="46.0657270" lon="11.1284685" />
      <trkpt lat="46.0657607" lon="11.1284880" />
      <trkpt lat="46.0663544" lon="11.1288314" />
      <trkpt lat="46.0663816" lon="11.1288471" />
      <trkpt lat="46.0664215" lon="11.1288729" />
      <trkpt lat="46.0664625" lon="11.1288956" />
      <trkpt lat="46.0668494" lon="11.1291127" />
      <trkpt lat="46.0668274" lon="11.1291887" />
      <trkpt lat="46.0668188" lon="11.1292183" />
      <trkpt lat="46.0668142" lon="11.1292747" />
      <trkpt lat="46.0667026" lon="11.1295738" />
      <trkpt lat="46.0663226" lon="11.1304402" />
      <trkpt lat="46.0661815" lon="11.1307770" />
      <trkpt lat="46.0662274" lon="11.1308204" />
      <trkpt lat="46.0662535" lon="11.1308450" />
      <trkpt lat="46.0661968" lon="11.1309856" />
      <trkpt lat="46.0661812" lon="11.1310242" />
      <trkpt lat="46.0660911" lon="11.1312475" />
      <trkpt lat="46.0660861" lon="11.1312600" />
      <trkpt lat="46.0660651" lon="11.1313120" />
      <trkpt lat="46.0660534" lon="11.1313411" />
      <trkpt lat="46.0660391" lon="11.1313766" />
      <trkpt lat="46.0659342" lon="11.1316366" />
      <trkpt lat="46.0657065" lon="11.1322009" />
      <trkpt lat="46.0655562" lon="11.1325879" />
      <trkpt lat="46.0653870" lon="11.1330235" />
      <trkpt lat="46.0653088" lon="11.1332542" />
      <trkpt lat="46.0652791" lon="11.1333480" />
      <trkpt lat="46.0652521" lon="11.1334486" />
      <trkpt lat="46.0652232" lon="11.1335881" />
      <trkpt lat="46.0651955" lon="11.1337356" />
      <trkpt lat="46.0651583" lon="11.1337257" />
      <trkpt lat="46.0651066" lon="11.1337119" />
      <trkpt lat="46.0650944" lon="11.1337150" />
      <trkpt lat="46.0649989" lon="11.1337148" />
      <trkpt lat="46.0649644" lon="11.1337159" />
      <trkpt lat="46.0649608" lon="11.1337839" />
      <trkpt lat="46.0647356" lon="11.1337309" />
      <trkpt lat="46.0645068" lon="11.1336580" />
      <trkpt lat="46.0644190" lon="11.1336144" />
      <trkpt lat="46.0644123" lon="11.1336305" />
      <trkpt lat="46.0644188" lon="11.1336395" />
      <trkpt lat="46.0644548" lon="11.1336712" />
      <trkpt lat="46.0644972" lon="11.1337084" />
      <trkpt lat="46.0645540" lon="11.1337317" />
      <trkpt lat="46.0646162" lon="11.1337512" />
      <trkpt lat="46.0647207" lon="11.1337725" />
      <trkpt lat="46.0647735" lon="11.1337899" />
      <trkpt lat="46.0647915" lon="11.1338006" />
      <trkpt lat="46.0648815" lon="11.1338440" />
      <trkpt lat="46.0649573" lon="11.1338573" />
      <trkpt lat="46.0649928" lon="11.1338613" />
      <trkpt lat="46.0650787" lon="11.1345968" />
      <trkpt lat="46.0650863" lon="11.1347048" />
      <trkpt lat="46.0651259" lon="11.1346992" />
      <trkpt lat="46.0651491" lon="11.1354441" />
      <trkpt lat="46.0651249" lon="11.1354976" />
      <trkpt lat="46.0649644" lon="11.1357256" />
      <trkpt lat="46.0649292" lon="11.1357846" />
      <trkpt lat="46.0649227" lon="11.1357751" />
      <trkpt lat="46.0649073" lon="11.1357966" />
      <trkpt lat="46.0647416" lon="11.1360277" />
      <trkpt lat="46.0647329" lon="11.1360399" />
      <trkpt lat="46.0643913" lon="11.1355207" />
      <trkpt lat="46.0643430" lon="11.1355222" />
      <trkpt lat="46.0643031" lon="11.1355235" />
      <trkpt lat="46.0642302" lon="11.1354115" />
      <trkpt lat="46.0641053" lon="11.1352279" />
      <trkpt lat="46.0640869" lon="11.1351979" />
      <trkpt lat="46.0636104" lon="11.1345006" />
      <trkpt lat="46.0635996" lon="11.1344920" />
      <trkpt lat="46.0635831" lon="11.1344688" />
      <trkpt lat="46.0632217" lon="11.1350092" />
      <trkpt lat="46.0631931" lon="11.1350282" />
      <trkpt lat="46.0631653" lon="11.1350261" />
      <trkpt lat="46.0629823" lon="11.1347616" />
      <trkpt lat="46.0629520" lon="11.1347179" />
      <trkpt lat="46.0629316" lon="11.1347486" />
      <trkpt lat="46.0627621" lon="11.1345177" />
      <trkpt lat="46.0627322" lon="11.1344744" />
      <trkpt lat="46.0625081" lon="11.1348081" />
      <trkpt lat="46.0624754" lon="11.1348748" />
      <trkpt lat="46.0623180" lon="11.1354315" />
      <trkpt lat="46.0623145" lon="11.1354420" />
      <trkpt lat="46.0623069" lon="11.1354787" />
      <trkpt lat="46.0622242" lon="11.1354383" />
      <trkpt lat="46.0621333" lon="11.1353982" />
      <trkpt lat="46.0620572" lon="11.1353731" />
      <trkpt lat="46.0619745" lon="11.1353477" />
      <trkpt lat="46.0618708" lon="11.1353331" />
      <trkpt lat="46.0617787" lon="11.1353272" />
      <trkpt lat="46.0617788" lon="11.1352383" />
      <trkpt lat="46.0617715" lon="11.1352172" />
      <trkpt lat="46.0617674" lon="11.1351962" />
      <trkpt lat="46.0617683" lon="11.1351226" />
      <trkpt lat="46.0617236" lon="11.1351221" />
      <trkpt lat="46.0616740" lon="11.1351219" />
      <trkpt lat="46.0616695" lon="11.1352707" />
      <trkpt lat="46.0612060" lon="11.1352626" />
      <trkpt lat="46.0611598" lon="11.1352591" />
      <trkpt lat="46.0607498" lon="11.1352484" />
      <trkpt lat="46.0607080" lon="11.1352450" />
      <trkpt lat="46.0606831" lon="11.1352438" />
      <trkpt lat="46.0606523" lon="11.1352429" />
      <trkpt lat="46.0603129" lon="11.1352400" />
      <trkpt lat="46.0602611" lon="11.1352312" />
      <trkpt lat="46.0602241" lon="11.1352213" />
      <trkpt lat="46.0601826" lon="11.1352079" />
      <trkpt lat="46.0601757" lon="11.1352177" />
      <trkpt lat="46.0597053" lon="11.1352009" />
      <trkpt lat="46.0596719" lon="11.1352106" />
      <trkpt lat="46.0596406" lon="11.1352123" />
      <trkpt lat="46.0595959" lon="11.1352098" />
      <trkpt lat="46.0592491" lon="11.1351965" />
      <trkpt lat="46.0592462" lon="11.1352539" />
      <trkpt lat="46.0592437" lon="11.1353074" />
      <trkpt lat="46.0591741" lon="11.1353047" />
      <trkpt lat="46.0589883" lon="11.1353018" />
      <trkpt lat="46.0587931" lon="11.1352987" />
      <trkpt lat="46.0583873" lon="11.1352923" />
      <trkpt lat="46.0582526" lon="11.1352856" />
      <trkpt lat="46.0582657" lon="11.1352251" />
      <trkpt lat="46.0582771" lon="11.1351743" />
      <trkpt lat="46.0583294" lon="11.1351250" />
      <trkpt lat="46.0584047" lon="11.1346321" />
      <trkpt lat="46.0583921" lon="11.1346157" />
      <trkpt lat="46.0583965" lon="11.1345799" />
      <trkpt lat="46.0584022" lon="11.1345545" />
      <trkpt lat="46.0584185" lon="11.1345442" />
      <trkpt lat="46.0584985" lon="11.1339724" />
      <trkpt lat="46.0584864" lon="11.1339483" />
      <trkpt lat="46.0584904" lon="11.1339243" />
      <trkpt lat="46.0584595" lon="11.1339233" />
      <trkpt lat="46.0580764" lon="11.1337913" />
      <trkpt lat="46.0580056" lon="11.1337300" />
      <trkpt lat="46.0578786" lon="11.1336740" />
      <trkpt lat="46.0578168" lon="11.1336712" />
      <trkpt lat="46.0577041" lon="11.1336033" />
      <trkpt lat="46.0576666" lon="11.1335808" />
      <trkpt lat="46.0576788" lon="11.1335326" />
      <trkpt lat="46.0576788" lon="11.1335138" />
      <trkpt lat="46.0577461" lon="11.1332456" />
      <trkpt lat="46.0577530" lon="11.1331893" />
      <trkpt lat="46.0577848" lon="11.1330629" />
      <trkpt lat="46.0577748" lon="11.1330586" />
      <trkpt lat="46.0577451" lon="11.1330420" />
      <trkpt lat="46.0577040" lon="11.1330141" />
      <trkpt lat="46.0576887" lon="11.1330047" />
      <trkpt lat="46.0576757" lon="11.1329969" />
      <trkpt lat="46.0576431" lon="11.1329590" />
      <trkpt lat="46.0576096" lon="11.1328742" />
      <trkpt lat="46.0575862" lon="11.1328149" />
      <trkpt lat="46.0575883" lon="11.1327584" />
      <trkpt lat="46.0575937" lon="11.1326025" />
      <trkpt lat="46.0575937" lon="11.1325826" />
      <trkpt lat="46.0575852" lon="11.1325674" />
      <trkpt lat="46.0575647" lon="11.1325440" />
      <trkpt lat="46.0571926" lon="11.1321725" />
      <trkpt lat="46.0572096" lon="11.1321029" />
      <trkpt lat="46.0571429" lon="11.1320305" />
      <trkpt lat="46.0569932" lon="11.1318825" />
      <trkpt lat="46.0569354" lon="11.1318233" />
      <trkpt lat="46.0569508" lon="11.1317899" />
      <trkpt lat="46.0569662" lon="11.1317564" />
      <trkpt lat="46.0568198" lon="11.1316120" />
      <trkpt lat="46.0568122" lon="11.1316045" />
      <trkpt lat="46.0566751" lon="11.1314565" />
      <trkpt lat="46.0566190" lon="11.1313815" />
      <trkpt lat="46.0566025" lon="11.1313595" />
      <trkpt lat="46.0565715" lon="11.1312992" />
      <trkpt lat="46.0565445" lon="11.1312048" />
      <trkpt lat="46.0565324" lon="11.1311029" />
      <trkpt lat="46.0565324" lon="11.1310202" />
      <trkpt lat="46.0565368" lon="11.1309420" />
      <trkpt lat="46.0565523" lon="11.1308611" />
      <trkpt lat="46.0565635" lon="11.1308197" />
      <trkpt lat="46.0565694" lon="11.1307980" />
      <trkpt lat="46.0565942" lon="11.1307377" />
      <trkpt lat="46.0566655" lon="11.1306201" />
      <trkpt lat="46.0568288" lon="11.1303421" />
      <trkpt lat="46.0568032" lon="11.1303082" />
      <trkpt lat="46.0570046" lon="11.1299631" />
      <trkpt lat="46.0570681" lon="11.1298544" />
      <trkpt lat="46.0571077" lon="11.1297875" />
      <trkpt lat="46.0571459" lon="11.1297230" />
      <trkpt lat="46.0571856" lon="11.1296561" />
      <trkpt lat="46.0572890" lon="11.1294820" />
      <trkpt lat="46.0573632" lon="11.1293571" />
      <trkpt lat="46.0575784" lon="11.1289973" />
      <trkpt lat="46.0576899" lon="11.1288087" />
      <trkpt lat="46.0576639" lon="11.1287738" />
      <trkpt lat="46.0578589" lon="11.1284396" />
      <trkpt lat="46.0579227" lon="11.1283331" />
      <trkpt lat="46.0579083" lon="11.1282984" />
      <trkpt lat="46.0578303" lon="11.1279805" />
      <trkpt lat="46.0578231" lon="11.1279518" />
      <trkpt lat="46.0578167" lon="11.1279235" />
      <trkpt lat="46.0575999" lon="11.1280300" />
      <trkpt lat="46.0575866" lon="11.1279784" />
      <trkpt lat="46.0574571" lon="11.1280448" />
      <trkpt lat="46.0573901" lon="11.1280793" />
      <trkpt lat="46.0573352" lon="11.1281057" />
      <trkpt lat="46.0572228" lon="11.1281626" />
      <trkpt lat="46.0572026" lon="11.1280822" />
      <trkpt lat="46.0567692" lon="11.1283081" />
      <trkpt lat="46.0567373" lon="11.1283233" />
      <trkpt lat="46.0567348" lon="11.1283115" />
      <trkpt lat="46.0566732" lon="11.1280315" />
      <trkpt lat="46.0566663" lon="11.1280000" />
      <trkpt lat="46.0566159" lon="11.1277715" />
      <trkpt lat="46.0565999" lon="11.1274477" />
      <trkpt lat="46.0565399" lon="11.1270945" />
      <trkpt lat="46.0563347" lon="11.1268999" />
      <trkpt lat="46.0561238" lon="11.1266998" />
      <trkpt lat="46.0559471" lon="11.1265333" />
      <trkpt lat="46.0559286" lon="11.1265159" />
      <trkpt lat="46.0559159" lon="11.1265027" />
      <trkpt lat="46.0558959" lon="11.1264837" />
      <trkpt lat="46.0561941" lon="11.1258983" />
      <trkpt lat="46.0562180" lon="11.1259136" />
      <trkpt lat="46.0562426" lon="11.1258784" />
      <trkpt lat="46.0567919" lon="11.1263743" />
      <trkpt lat="46.0568161" lon="11.1263961" />
      <trkpt lat="46.0570510" lon="11.1266071" />
      <trkpt lat="46.0570810" lon="11.1266339" />
      <trkpt lat="46.0571286" lon="11.1266750" />
      <trkpt lat="46.0572752" lon="11.1263148" />
      <trkpt lat="46.0572967" lon="11.1262918" />
      <trkpt lat="46.0573175" lon="11.1262695" />
      <trkpt lat="46.0573379" lon="11.1262446" />
      <trkpt lat="46.0573609" lon="11.1262197" />
      <trkpt lat="46.0573826" lon="11.1261829" />
      <trkpt lat="46.0573960" lon="11.1261376" />
      <trkpt lat="46.0573986" lon="11.1260832" />
      <trkpt lat="46.0573888" lon="11.1260364" />
      <trkpt lat="46.0573782" lon="11.1260060" />
      <trkpt lat="46.0573663" lon="11.1259860" />
      <trkpt lat="46.0570477" lon="11.1256839" />
      <trkpt lat="46.0570453" lon="11.1256756" />
      <trkpt lat="46.0570476" lon="11.1256635" />
      <trkpt lat="46.0570714" lon="11.1256212" />
      <trkpt lat="46.0570872" lon="11.1255804" />
      <trkpt lat="46.0570521" lon="11.1255449" />
      <trkpt lat="46.0570205" lon="11.1255078" />
      <trkpt lat="46.0569702" lon="11.1254465" />
      <trkpt lat="46.0568895" lon="11.1253662" />
      <trkpt lat="46.0568026" lon="11.1252853" />
      <trkpt lat="46.0562685" lon="11.1247883" />
      <trkpt lat="46.0558787" lon="11.1244324" />
      <trkpt lat="46.0558530" lon="11.1244915" />
      <trkpt lat="46.0565339" lon="11.1251115" />
      <trkpt lat="46.0567804" lon="11.1253422" />
      <trkpt lat="46.0570714" lon="11.1256212" />
      <trkpt lat="46.0575882" lon="11.1260981" />
      <trkpt lat="46.0582969" lon="11.1267733" />
      <trkpt lat="46.0583333" lon="11.1268187" />
      <trkpt lat="46.0585002" lon="11.1270174" />
      <trkpt lat="46.0586068" lon="11.1271806" />
      <trkpt lat="46.0586110" lon="11.1271730" />
      <trkpt lat="46.0586383" lon="11.1271479" />
      <trkpt lat="46.0586630" lon="11.1271230" />
      <trkpt lat="46.0586754" lon="11.1271195" />
      <trkpt lat="46.0586968" lon="11.1271140" />
      <trkpt lat="46.0588174" lon="11.1269682" />
      <trkpt lat="46.0588261" lon="11.1269596" />
      <trkpt lat="46.0588911" lon="11.1268848" />
      <trkpt lat="46.0587747" lon="11.1267065" />
      <trkpt lat="46.0587081" lon="11.1266351" />
      <trkpt lat="46.0586921" lon="11.1266284" />
      <trkpt lat="46.0586813" lon="11.1266261" />
      <trkpt lat="46.0586698" lon="11.1266261" />
      <trkpt lat="46.0586623" lon="11.1266225" />
      <trkpt lat="46.0583284" lon="11.1263150" />
      <trkpt lat="46.0577668" lon="11.1257904" />
      <trkpt lat="46.0574767" lon="11.1255194" />
      <trkpt lat="46.0572088" lon="11.1252691" />
      <trkpt lat="46.0562237" lon="11.1243578" />
      <trkpt lat="46.0562162" lon="11.1243485" />
      <trkpt lat="46.0562133" lon="11.1243420" />
      <trkpt lat="46.0562107" lon="11.1243339" />
      <trkpt lat="46.0562091" lon="11.1243191" />
      <trkpt lat="46.0562074" lon="11.1243055" />
      <trkpt lat="46.0562042" lon="11.1242878" />
      <trkpt lat="46.0562003" lon="11.1242742" />
      <trkpt lat="46.0561907" lon="11.1242574" />
      <trkpt lat="46.0561806" lon="11.1242489" />
      <trkpt lat="46.0561655" lon="11.1242398" />
      <trkpt lat="46.0561392" lon="11.1242295" />
      <trkpt lat="46.0561177" lon="11.1242134" />
      <trkpt lat="46.0559110" lon="11.1240233" />
      <trkpt lat="46.0559031" lon="11.1240116" />
      <trkpt lat="46.0559009" lon="11.1239985" />
      <trkpt lat="46.0559012" lon="11.1239913" />
      <trkpt lat="46.0559028" lon="11.1239836" />
      <trkpt lat="46.0559081" lon="11.1239716" />
      <trkpt lat="46.0559160" lon="11.1239641" />
      <trkpt lat="46.0559282" lon="11.1239628" />
      <trkpt lat="46.0559415" lon="11.1239698" />
      <trkpt lat="46.0561453" lon="11.1241150" />
      <trkpt lat="46.0561563" lon="11.1241179" />
      <trkpt lat="46.0561650" lon="11.1241139" />
      <trkpt lat="46.0561713" lon="11.1241040" />
      <trkpt lat="46.0561854" lon="11.1240641" />
      <trkpt lat="46.0561997" lon="11.1240249" />
      <trkpt lat="46.0563904" lon="11.1241514" />
      <trkpt lat="46.0564506" lon="11.1241947" />
      <trkpt lat="46.0568209" lon="11.1244330" />
      <trkpt lat="46.0569644" lon="11.1242180" />
      <trkpt lat="46.0566955" lon="11.1237758" />
      <trkpt lat="46.0566273" lon="11.1236441" />
      <trkpt lat="46.0566056" lon="11.1236022" />
      <trkpt lat="46.0565976" lon="11.1235809" />
      <trkpt lat="46.0565844" lon="11.1235459" />
      <trkpt lat="46.0565586" lon="11.1234511" />
      <trkpt lat="46.0564384" lon="11.1228403" />
      <trkpt lat="46.0564777" lon="11.1228251" />
      <trkpt lat="46.0564723" lon="11.1227978" />
      <trkpt lat="46.0564652" lon="11.1227617" />
      <trkpt lat="46.0565046" lon="11.1227447" />
      <trkpt lat="46.0565714" lon="11.1226405" />
      <trkpt lat="46.0565046" lon="11.1227447" />
      <trkpt lat="46.0564652" lon="11.1227617" />
      <trkpt lat="46.0564254" lon="11.1227747" />
      <trkpt lat="46.0562976" lon="11.1221360" />
      <trkpt lat="46.0561376" lon="11.1213126" />
      <trkpt lat="46.0561267" lon="11.1212571" />
      <trkpt lat="46.0560664" lon="11.1209508" />
      <trkpt lat="46.0560407" lon="11.1208203" />
      <trkpt lat="46.0559397" lon="11.1203072" />
      <trkpt lat="46.0559327" lon="11.1202716" />
      <trkpt lat="46.0559296" lon="11.1202557" />
      <trkpt lat="46.0558960" lon="11.1201030" />
      <trkpt lat="46.0558829" lon="11.1200138" />
      <trkpt lat="46.0558249" lon="11.1197209" />
      <trkpt lat="46.0557900" lon="11.1195443" />
      <trkpt lat="46.0557113" lon="11.1191472" />
      <trkpt lat="46.0556405" lon="11.1187828" />
      <trkpt lat="46.0556260" lon="11.1187016" />
      <trkpt lat="46.0555917" lon="11.1186202" />
      <trkpt lat="46.0555782" lon="11.1185164" />
      <trkpt lat="46.0556221" lon="11.1185019" />
      <trkpt lat="46.0556258" lon="11.1184873" />
      <trkpt lat="46.0556343" lon="11.1184752" />
      <trkpt lat="46.0557266" lon="11.1184562" />
      <trkpt lat="46.0557213" lon="11.1184001" />
      <trkpt lat="46.0557153" lon="11.1183376" />
      <trkpt lat="46.0557671" lon="11.1183289" />
      <trkpt lat="46.0558328" lon="11.1183179" />
      <trkpt lat="46.0559498" lon="11.1182934" />
      <trkpt lat="46.0559790" lon="11.1182872" />
      <trkpt lat="46.0561401" lon="11.1182498" />
      <trkpt lat="46.0563996" lon="11.1181895" />
      <trkpt lat="46.0565642" lon="11.1181488" />
      <trkpt lat="46.0565855" lon="11.1181443" />
      <trkpt lat="46.0566150" lon="11.1181380" />
      <trkpt lat="46.0566635" lon="11.1181278" />
      <trkpt lat="46.0568830" lon="11.1181211" />
      <trkpt lat="46.0569504" lon="11.1181238" />
      <trkpt lat="46.0569877" lon="11.1181278" />
      <trkpt lat="46.0570167" lon="11.1181309" />
      <trkpt lat="46.0570388" lon="11.1181332" />
      <trkpt lat="46.0573208" lon="11.1182222" />
      <trkpt lat="46.0573578" lon="11.1182219" />
      <trkpt lat="46.0573949" lon="11.1182153" />
      <trkpt lat="46.0574264" lon="11.1181914" />
      <trkpt lat="46.0574521" lon="11.1181562" />
      <trkpt lat="46.0574822" lon="11.1180704" />
      <trkpt lat="46.0574928" lon="11.1180134" />
      <trkpt lat="46.0575070" lon="11.1179163" />
      <trkpt lat="46.0575138" lon="11.1178290" />
      <trkpt lat="46.0575070" lon="11.1177555" />
      <trkpt lat="46.0574699" lon="11.1174758" />
      <trkpt lat="46.0574610" lon="11.1174088" />
      <trkpt lat="46.0573161" lon="11.1163155" />
      <trkpt lat="46.0572914" lon="11.1161286" />
      <trkpt lat="46.0572817" lon="11.1160970" />
      <trkpt lat="46.0572519" lon="11.1160740" />
      <trkpt lat="46.0572305" lon="11.1160775" />
      <trkpt lat="46.0569166" lon="11.1161319" />
      <trkpt lat="46.0568895" lon="11.1161353" />
      <trkpt lat="46.0566104" lon="11.1161764" />
      <trkpt lat="46.0562794" lon="11.1162227" />
      <trkpt lat="46.0562003" lon="11.1162376" />
      <trkpt lat="46.0561956" lon="11.1161794" />
      <trkpt lat="46.0569145" lon="11.1160769" />
      <trkpt lat="46.0571742" lon="11.1160341" />
      <trkpt lat="46.0572289" lon="11.1160278" />
      <trkpt lat="46.0572246" lon="11.1159758" />
      <trkpt lat="46.0572450" lon="11.1159689" />
      <trkpt lat="46.0572696" lon="11.1159161" />
      <trkpt lat="46.0571982" lon="11.1153312" />
      <trkpt lat="46.0571608" lon="11.1150138" />
      <trkpt lat="46.0571430" lon="11.1148658" />
      <trkpt lat="46.0570981" lon="11.1145176" />
      <trkpt lat="46.0571377" lon="11.1145071" />
      <trkpt lat="46.0571785" lon="11.1144963" />
      <trkpt lat="46.0571767" lon="11.1144822" />
      <trkpt lat="46.0571772" lon="11.1144654" />
      <trkpt lat="46.0571385" lon="11.1141464" />
      <trkpt lat="46.0571662" lon="11.1141433" />
      <trkpt lat="46.0574389" lon="11.1141093" />
      <trkpt lat="46.0574234" lon="11.1138948" />
      <trkpt lat="46.0574080" lon="11.1136812" />
      <trkpt lat="46.0573966" lon="11.1135233" />
      <trkpt lat="46.0573868" lon="11.1133868" />
      <trkpt lat="46.0573802" lon="11.1132956" />
      <trkpt lat="46.0573703" lon="11.1131578" />
      <trkpt lat="46.0573592" lon="11.1130043" />
      <trkpt lat="46.0573573" lon="11.1129545" />
      <trkpt lat="46.0573527" lon="11.1128517" />
      <trkpt lat="46.0573511" lon="11.1127795" />
      <trkpt lat="46.0573491" lon="11.1127125" />
      <trkpt lat="46.0573464" lon="11.1125459" />
      <trkpt lat="46.0573856" lon="11.1125479" />
      <trkpt lat="46.0582649" lon="11.1126053" />
      <trkpt lat="46.0582967" lon="11.1126081" />
      <trkpt lat="46.0583462" lon="11.1126125" />
      <trkpt lat="46.0583932" lon="11.1126167" />
      <trkpt lat="46.0585866" lon="11.1126234" />
      <trkpt lat="46.0589074" lon="11.1126370" />
      <trkpt lat="46.0589526" lon="11.1126534" />
      <trkpt lat="46.0589874" lon="11.1126536" />
      <trkpt lat="46.0590736" lon="11.1126630" />
      <trkpt lat="46.0595129" lon="11.1127099" />
      <trkpt lat="46.0595011" lon="11.1125259" />
      <trkpt lat="46.0600073" lon="11.1125645" />
      <trkpt lat="46.0605162" lon="11.1125968" />
      <trkpt lat="46.0610109" lon="11.1126279" />
      <trkpt lat="46.0610254" lon="11.1128130" />
      <trkpt lat="46.0614768" lon="11.1128432" />
      <trkpt lat="46.0618033" lon="11.1128686" />
      <trkpt lat="46.0619621" lon="11.1128956" />
      <trkpt lat="46.0620169" lon="11.1129246" />
      <trkpt lat="46.0620692" lon="11.1129745" />
      <trkpt lat="46.0621034" lon="11.1130154" />
      <trkpt lat="46.0621347" lon="11.1130679" />
      <trkpt lat="46.0621715" lon="11.1131360" />
      <trkpt lat="46.0621990" lon="11.1132050" />
      <trkpt lat="46.0622241" lon="11.1133294" />
      <trkpt lat="46.0622377" lon="11.1135805" />
      <trkpt lat="46.0622819" lon="11.1135872" />
      <trkpt lat="46.0623318" lon="11.1135988" />
      <trkpt lat="46.0623474" lon="11.1136024" />
      <trkpt lat="46.0626176" lon="11.1136671" />
      <trkpt lat="46.0626817" lon="11.1136839" />
      <trkpt lat="46.0627296" lon="11.1138256" />
      <trkpt lat="46.0627499" lon="11.1138055" />
      <trkpt lat="46.0628087" lon="11.1137879" />
      <trkpt lat="46.0628367" lon="11.1141601" />
      <trkpt lat="46.0628528" lon="11.1143739" />
      <trkpt lat="46.0631956" lon="11.1143358" />
      <trkpt lat="46.0632403" lon="11.1144063" />
      <trkpt lat="46.0635144" lon="11.1143825" />
      <trkpt lat="46.0635377" lon="11.1143805" />
      <trkpt lat="46.0635631" lon="11.1143783" />
      <trkpt lat="46.0635753" lon="11.1147335" />
      <trkpt lat="46.0636563" lon="11.1148654" />
      <trkpt lat="46.0635630" lon="11.1149857" />
      <trkpt lat="46.0635480" lon="11.1150043" />
      <trkpt lat="46.0634300" lon="11.1150156" />
      <trkpt lat="46.0634328" lon="11.1150619" />
      <trkpt lat="46.0634506" lon="11.1154336" />
      <trkpt lat="46.0634008" lon="11.1155391" />
      <trkpt lat="46.0633640" lon="11.1156171" />
      <trkpt lat="46.0633271" lon="11.1156837" />
      <trkpt lat="46.0632879" lon="11.1156921" />
      <trkpt lat="46.0632900" lon="11.1157231" />
      <trkpt lat="46.0633201" lon="11.1160412" />
      <trkpt lat="46.0633696" lon="11.1167056" />
      <trkpt lat="46.0633950" lon="11.1170509" />
      <trkpt lat="46.0634299" lon="11.1169932" />
      <trkpt lat="46.0635353" lon="11.1168949" />
      <trkpt lat="46.0641805" lon="11.1167941" />
      <trkpt lat="46.0644674" lon="11.1167469" />
      <trkpt lat="46.0645052" lon="11.1167422" />
      <trkpt lat="46.0645336" lon="11.1167401" />
      <trkpt lat="46.0645821" lon="11.1167575" />
      <trkpt lat="46.0648460" lon="11.1166995" />
      <trkpt lat="46.0649438" lon="11.1166932" />
      <trkpt lat="46.0650448" lon="11.1167071" />
      <trkpt lat="46.0651046" lon="11.1172245" />
      <trkpt lat="46.0651532" lon="11.1172758" />
      <trkpt lat="46.0651934" lon="11.1177089" />
      <trkpt lat="46.0651950" lon="11.1180758" />
      <trkpt lat="46.0652151" lon="11.1188117" />
      <trkpt lat="46.0652385" lon="11.1192116" />
      <trkpt lat="46.0652869" lon="11.1191976" />
      <trkpt lat="46.0653169" lon="11.1192084" />
      <trkpt lat="46.0653255" lon="11.1193045" />
      <trkpt lat="46.0653328" lon="11.1193958" />
      <trkpt lat="46.0658652" lon="11.1192840" />
      <trkpt lat="46.0659053" lon="11.1192886" />
      <trkpt lat="46.0660099" lon="11.1201785" />
      <trkpt lat="46.0660309" lon="11.1203589" />
      <trkpt lat="46.0660965" lon="11.1210453" />
      <trkpt lat="46.0661493" lon="11.1210343" />
      <trkpt lat="46.0661586" lon="11.1211285" />
      <trkpt lat="46.0664061" lon="11.1210506" />
      <trkpt lat="46.0665614" lon="11.1210220" />
      <trkpt lat="46.0666115" lon="11.1210169" />
      <trkpt lat="46.0666602" lon="11.1210169" />
      <trkpt lat="46.0667526" lon="11.1210542" />
      <trkpt lat="46.0667705" lon="11.1210629" />
      <trkpt lat="46.0668711" lon="11.1210492" />
      <trkpt lat="46.0669975" lon="11.1210365" />
      <trkpt lat="46.0670408" lon="11.1210278" />
      <trkpt lat="46.0670542" lon="11.1211241" />
      <trkpt lat="46.0673001" lon="11.1213049" />
      <trkpt lat="46.0675238" lon="11.1212683" />
      <trkpt lat="46.0676530" lon="11.1212477" />
      <trkpt lat="46.0675238" lon="11.1212683" />
      <trkpt lat="46.0673001" lon="11.1213049" />
      <trkpt lat="46.0670542" lon="11.1211241" />
      <trkpt lat="46.0670408" lon="11.1210278" />
      <trkpt lat="46.0669975" lon="11.1210365" />
      <trkpt lat="46.0668711" lon="11.1210492" />
      <trkpt lat="46.0667705" lon="11.1210629" />
      <trkpt lat="46.0667526" lon="11.1210542" />
      <trkpt lat="46.0667024" lon="11.1213629" />
      <trkpt lat="46.0666701" lon="11.1215352" />
      <trkpt lat="46.0666789" lon="11.1217092" />
      <trkpt lat="46.0667274" lon="11.1218448" />
      <trkpt lat="46.0667304" lon="11.1218751" />
      <trkpt lat="46.0667210" lon="11.1219626" />
      <trkpt lat="46.0667229" lon="11.1219913" />
      <trkpt lat="46.0667249" lon="11.1220591" />
      <trkpt lat="46.0667287" lon="11.1221612" />
      <trkpt lat="46.0667350" lon="11.1222603" />
      <trkpt lat="46.0667357" lon="11.1222747" />
      <trkpt lat="46.0667414" lon="11.1223091" />
      <trkpt lat="46.0667532" lon="11.1223909" />
      <trkpt lat="46.0667715" lon="11.1225101" />
      <trkpt lat="46.0667729" lon="11.1225194" />
      <trkpt lat="46.0667810" lon="11.1225726" />
      <trkpt lat="46.0668548" lon="11.1230552" />
      <trkpt lat="46.0668872" lon="11.1232848" />
      <trkpt lat="46.0668905" lon="11.1233334" />
      <trkpt lat="46.0668986" lon="11.1233290" />
      <trkpt lat="46.0669188" lon="11.1233181" />
      <trkpt lat="46.0669670" lon="11.1232923" />
      <trkpt lat="46.0672635" lon="11.1232024" />
      <trkpt lat="46.0672653" lon="11.1232368" />
      <trkpt lat="46.0672686" lon="11.1232351" />
      <trkpt lat="46.0672810" lon="11.1232291" />
      <trkpt lat="46.0672821" lon="11.1232581" />
      <trkpt lat="46.0672873" lon="11.1232576" />
      <trkpt lat="46.0673011" lon="11.1232564" />
      <trkpt lat="46.0673146" lon="11.1232553" />
      <trkpt lat="46.0673183" lon="11.1232550" />
      <trkpt lat="46.0673371" lon="11.1232534" />
      <trkpt lat="46.0674008" lon="11.1232483" />
      <trkpt lat="46.0674156" lon="11.1232472" />
      <trkpt lat="46.0676659" lon="11.1232331" />
      <trkpt lat="46.0677631" lon="11.1232283" />
      <trkpt lat="46.0678077" lon="11.1232267" />
      <trkpt lat="46.0678084" lon="11.1230699" />
      <trkpt lat="46.0678154" lon="11.1230007" />
      <trkpt lat="46.0679498" lon="11.1229741" />
      <trkpt lat="46.0681832" lon="11.1229244" />
      <trkpt lat="46.0682031" lon="11.1229202" />
      <trkpt lat="46.0682323" lon="11.1232256" />
      <trkpt lat="46.0682565" lon="11.1234891" />
      <trkpt lat="46.0682783" lon="11.1234658" />
      <trkpt lat="46.0685395" lon="11.1234315" />
      <trkpt lat="46.0682783" lon="11.1234658" />
      <trkpt lat="46.0682565" lon="11.1234891" />
      <trkpt lat="46.0682343" lon="11.1235128" />
      <trkpt lat="46.0680250" lon="11.1235503" />
      <trkpt lat="46.0678142" lon="11.1235709" />
      <trkpt lat="46.0678077" lon="11.1232267" />
      <trkpt lat="46.0677631" lon="11.1232283" />
      <trkpt lat="46.0676659" lon="11.1232331" />
      <trkpt lat="46.0674156" lon="11.1232472" />
      <trkpt lat="46.0674008" lon="11.1232483" />
      <trkpt lat="46.0673371" lon="11.1232534" />
      <trkpt lat="46.0673183" lon="11.1232550" />
      <trkpt lat="46.0673146" lon="11.1232553" />
      <trkpt lat="46.0673011" lon="11.1232564" />
      <trkpt lat="46.0672873" lon="11.1232576" />
      <trkpt lat="46.0672821" lon="11.1232581" />
      <trkpt lat="46.0672810" lon="11.1232291" />
      <trkpt lat="46.0672686" lon="11.1232351" />
      <trkpt lat="46.0672653" lon="11.1232368" />
      <trkpt lat="46.0672635" lon="11.1232024" />
      <trkpt lat="46.0669670" lon="11.1232923" />
      <trkpt lat="46.0669188" lon="11.1233181" />
      <trkpt lat="46.0668986" lon="11.1233290" />
      <trkpt lat="46.0668905" lon="11.1233334" />
      <trkpt lat="46.0668835" lon="11.1233350" />
      <trkpt lat="46.0666735" lon="11.1233841" />
      <trkpt lat="46.0663806" lon="11.1234542" />
      <trkpt lat="46.0663678" lon="11.1233580" />
      <trkpt lat="46.0663262" lon="11.1233667" />
      <trkpt lat="46.0662435" lon="11.1233852" />
      <trkpt lat="46.0661275" lon="11.1234176" />
      <trkpt lat="46.0660744" lon="11.1234355" />
      <trkpt lat="46.0658473" lon="11.1235325" />
      <trkpt lat="46.0658857" lon="11.1238752" />
      <trkpt lat="46.0658911" lon="11.1239464" />
      <trkpt lat="46.0656609" lon="11.1239761" />
      <trkpt lat="46.0656958" lon="11.1246657" />
      <trkpt lat="46.0657009" lon="11.1247688" />
      <trkpt lat="46.0656894" lon="11.1248307" />
      <trkpt lat="46.0656615" lon="11.1248850" />
      <trkpt lat="46.0656446" lon="11.1248534" />
      <trkpt lat="46.0656350" lon="11.1248287" />
      <trkpt lat="46.0655574" lon="11.1248374" />
      <trkpt lat="46.0655194" lon="11.1248566" />
      <trkpt lat="46.0654415" lon="11.1249032" />
      <trkpt lat="46.0653773" lon="11.1248850" />
      <trkpt lat="46.0653182" lon="11.1248697" />
      <trkpt lat="46.0653241" lon="11.1248073" />
      <trkpt lat="46.0649462" lon="11.1246980" />
      <trkpt lat="46.0649106" lon="11.1249108" />
      <trkpt lat="46.0648757" lon="11.1251200" />
      <trkpt lat="46.0644241" lon="11.1277455" />
      <trkpt lat="46.0644047" lon="11.1277363" />
      <trkpt lat="46.0643624" lon="11.1277123" />
      <trkpt lat="46.0638484" lon="11.1274271" />
      <trkpt lat="46.0633842" lon="11.1271649" />
      <trkpt lat="46.0633767" lon="11.1271905" />
      <trkpt lat="46.0633619" lon="11.1272414" />
      <trkpt lat="46.0633472" lon="11.1272918" />
      <trkpt lat="46.0633401" lon="11.1273160" />
      <trkpt lat="46.0633086" lon="11.1273001" />
      <trkpt lat="46.0632780" lon="11.1273019" />
      <trkpt lat="46.0632440" lon="11.1273260" />
      <trkpt lat="46.0632162" lon="11.1273455" />
      <trkpt lat="46.0631828" lon="11.1273634" />
      <trkpt lat="46.0631350" lon="11.1273812" />
      <trkpt lat="46.0631147" lon="11.1273922" />
      <trkpt lat="46.0630826" lon="11.1274160" />
      <trkpt lat="46.0630302" lon="11.1274548" />
      <trkpt lat="46.0630095" lon="11.1274609" />
      <trkpt lat="46.0629757" lon="11.1274870" />
      <trkpt lat="46.0629580" lon="11.1275212" />
      <trkpt lat="46.0628982" lon="11.1275786" />
      <trkpt lat="46.0628305" lon="11.1276484" />
      <trkpt lat="46.0627643" lon="11.1277171" />
      <trkpt lat="46.0626840" lon="11.1278065" />
      <trkpt lat="46.0626158" lon="11.1278848" />
      <trkpt lat="46.0624776" lon="11.1280998" />
      <trkpt lat="46.0623285" lon="11.1283074" />
      <trkpt lat="46.0623076" lon="11.1283411" />
      <trkpt lat="46.0622832" lon="11.1283746" />
      <trkpt lat="46.0622669" lon="11.1283922" />
      <trkpt lat="46.0620828" lon="11.1286578" />
      <trkpt lat="46.0618751" lon="11.1289637" />
      <trkpt lat="46.0618136" lon="11.1290575" />
      <trkpt lat="46.0617865" lon="11.1291111" />
      <trkpt lat="46.0617407" lon="11.1291851" />
      <trkpt lat="46.0616855" lon="11.1291085" />
      <trkpt lat="46.0616147" lon="11.1290083" />
      <trkpt lat="46.0616687" lon="11.1289398" />
      <trkpt lat="46.0616992" lon="11.1289956" />
      <trkpt lat="46.0617153" lon="11.1289806" />
      <trkpt lat="46.0617400" lon="11.1289420" />
      <trkpt lat="46.0621856" lon="11.1282792" />
      <trkpt lat="46.0622098" lon="11.1282476" />
      <trkpt lat="46.0622197" lon="11.1282033" />
      <trkpt lat="46.0621012" lon="11.1280138" />
      <trkpt lat="46.0620589" lon="11.1279242" />
      <trkpt lat="46.0620219" lon="11.1278179" />
      <trkpt lat="46.0619901" lon="11.1276877" />
      <trkpt lat="46.0619717" lon="11.1275611" />
      <trkpt lat="46.0619655" lon="11.1275182" />
      <trkpt lat="46.0619626" lon="11.1274877" />
      <trkpt lat="46.0619457" lon="11.1273106" />
      <trkpt lat="46.0619169" lon="11.1271221" />
      <trkpt lat="46.0618689" lon="11.1269229" />
      <trkpt lat="46.0618383" lon="11.1268290" />
      <trkpt lat="46.0618146" lon="11.1267563" />
      <trkpt lat="46.0618098" lon="11.1267415" />
      <trkpt lat="46.0618009" lon="11.1267141" />
      <trkpt lat="46.0617988" lon="11.1267075" />
      <trkpt lat="46.0617341" lon="11.1265399" />
      <trkpt lat="46.0617249" lon="11.1265160" />
      <trkpt lat="46.0617146" lon="11.1264893" />
      <trkpt lat="46.0616975" lon="11.1264327" />
      <trkpt lat="46.0616697" lon="11.1263513" />
      <trkpt lat="46.0613988" lon="11.1258030" />
      <trkpt lat="46.0614361" lon="11.1257645" />
      <trkpt lat="46.0617098" lon="11.1263121" />
      <trkpt lat="46.0617189" lon="11.1263032" />
      <trkpt lat="46.0617280" lon="11.1263081" />
      <trkpt lat="46.0617401" lon="11.1263092" />
      <trkpt lat="46.0617535" lon="11.1263066" />
      <trkpt lat="46.0622666" lon="11.1258210" />
      <trkpt lat="46.0622871" lon="11.1258701" />
      <trkpt lat="46.0623026" lon="11.1259092" />
      <trkpt lat="46.0623173" lon="11.1259016" />
      <trkpt lat="46.0623331" lon="11.1259032" />
      <trkpt lat="46.0623485" lon="11.1259144" />
      <trkpt lat="46.0623587" lon="11.1259340" />
      <trkpt lat="46.0623668" lon="11.1259580" />
      <trkpt lat="46.0624063" lon="11.1260751" />
      <trkpt lat="46.0624344" lon="11.1261433" />
      <trkpt lat="46.0625054" lon="11.1263159" />
      <trkpt lat="46.0625429" lon="11.1263898" />
      <trkpt lat="46.0625814" lon="11.1263394" />
      <trkpt lat="46.0626243" lon="11.1262872" />
      <trkpt lat="46.0628223" lon="11.1266136" />
      <trkpt lat="46.0628640" lon="11.1266650" />
      <trkpt lat="46.0630708" lon="11.1269038" />
      <trkpt lat="46.0631797" lon="11.1270131" />
      <trkpt lat="46.0633842" lon="11.1271649" />
      <trkpt lat="46.0638484" lon="11.1274271" />
      <trkpt lat="46.0633842" lon="11.1271649" />
      <trkpt lat="46.0631797" lon="11.1270131" />
      <trkpt lat="46.0630708" lon="11.1269038" />
      <trkpt lat="46.0628640" lon="11.1266650" />
      <trkpt lat="46.0628223" lon="11.1266136" />
      <trkpt lat="46.0626243" lon="11.1262872" />
      <trkpt lat="46.0626076" lon="11.1262566" />
      <trkpt lat="46.0625804" lon="11.1262030" />
      <trkpt lat="46.0624697" lon="11.1259209" />
      <trkpt lat="46.0624497" lon="11.1258990" />
      <trkpt lat="46.0624054" lon="11.1259306" />
      <trkpt lat="46.0623668" lon="11.1259580" />
      <trkpt lat="46.0623587" lon="11.1259340" />
      <trkpt lat="46.0623485" lon="11.1259144" />
      <trkpt lat="46.0623331" lon="11.1259032" />
      <trkpt lat="46.0623173" lon="11.1259016" />
      <trkpt lat="46.0623026" lon="11.1259092" />
      <trkpt lat="46.0622871" lon="11.1258701" />
      <trkpt lat="46.0622666" lon="11.1258210" />
      <trkpt lat="46.0617535" lon="11.1263066" />
      <trkpt lat="46.0617401" lon="11.1263092" />
      <trkpt lat="46.0617280" lon="11.1263081" />
      <trkpt lat="46.0617189" lon="11.1263032" />
      <trkpt lat="46.0617098" lon="11.1263121" />
      <trkpt lat="46.0614361" lon="11.1257645" />
      <trkpt lat="46.0613988" lon="11.1258030" />
      <trkpt lat="46.0610270" lon="11.1250504" />
      <trkpt lat="46.0609884" lon="11.1249637" />
      <trkpt lat="46.0609442" lon="11.1248663" />
      <trkpt lat="46.0609066" lon="11.1246665" />
      <trkpt lat="46.0608744" lon="11.1245307" />
      <trkpt lat="46.0607447" lon="11.1239274" />
      <trkpt lat="46.0606862" lon="11.1236503" />
      <trkpt lat="46.0606392" lon="11.1234094" />
      <trkpt lat="46.0606079" lon="11.1232491" />
      <trkpt lat="46.0605178" lon="11.1227872" />
      <trkpt lat="46.0604460" lon="11.1224190" />
      <trkpt lat="46.0603801" lon="11.1220817" />
      <trkpt lat="46.0604215" lon="11.1220500" />
      <trkpt lat="46.0604182" lon="11.1220324" />
      <trkpt lat="46.0604197" lon="11.1220190" />
      <trkpt lat="46.0604256" lon="11.1220091" />
      <trkpt lat="46.0604230" lon="11.1219955" />
      <trkpt lat="46.0604187" lon="11.1219731" />
      <trkpt lat="46.0607096" lon="11.1218637" />
      <trkpt lat="46.0607153" lon="11.1218937" />
      <trkpt lat="46.0607498" lon="11.1220831" />
      <trkpt lat="46.0607825" lon="11.1222636" />
      <trkpt lat="46.0607498" lon="11.1220831" />
      <trkpt lat="46.0607153" lon="11.1218937" />
      <trkpt lat="46.0607096" lon="11.1218637" />
      <trkpt lat="46.0607979" lon="11.1218270" />
      <trkpt lat="46.0608533" lon="11.1218096" />
      <trkpt lat="46.0609143" lon="11.1217977" />
      <trkpt lat="46.0610024" lon="11.1217844" />
      <trkpt lat="46.0611718" lon="11.1217622" />
      <trkpt lat="46.0614464" lon="11.1217229" />
      <trkpt lat="46.0615861" lon="11.1217028" />
      <trkpt lat="46.0618911" lon="11.1216643" />
      <trkpt lat="46.0620871" lon="11.1216487" />
      <trkpt lat="46.0620860" lon="11.1215857" />
      <trkpt lat="46.0615823" lon="11.1216393" />
      <trkpt lat="46.0614434" lon="11.1216616" />
      <trkpt lat="46.0614419" lon="11.1216311" />
      <trkpt lat="46.0614345" lon="11.1214648" />
      <trkpt lat="46.0614333" lon="11.1214411" />
      <trkpt lat="46.0614097" lon="11.1209777" />
      <trkpt lat="46.0614088" lon="11.1209608" />
      <trkpt lat="46.0613606" lon="11.1201497" />
      <trkpt lat="46.0613483" lon="11.1199306" />
      <trkpt lat="46.0613217" lon="11.1194579" />
      <trkpt lat="46.0613196" lon="11.1194199" />
      <trkpt lat="46.0613122" lon="11.1192892" />
      <trkpt lat="46.0613030" lon="11.1191248" />
      <trkpt lat="46.0612990" lon="11.1190543" />
      <trkpt lat="46.0613694" lon="11.1190543" />
      <trkpt lat="46.0615069" lon="11.1190521" />
      <trkpt lat="46.0616406" lon="11.1190502" />
      <trkpt lat="46.0616509" lon="11.1190508" />
      <trkpt lat="46.0616935" lon="11.1190533" />
      <trkpt lat="46.0619071" lon="11.1190949" />
      <trkpt lat="46.0622174" lon="11.1191455" />
      <trkpt lat="46.0623035" lon="11.1191514" />
      <trkpt lat="46.0623681" lon="11.1191475" />
      <trkpt lat="46.0624147" lon="11.1191413" />
      <trkpt lat="46.0624700" lon="11.1191342" />
      <trkpt lat="46.0624680" lon="11.1190822" />
      <trkpt lat="46.0624647" lon="11.1189964" />
      <trkpt lat="46.0623649" lon="11.1190100" />
      <trkpt lat="46.0622231" lon="11.1190085" />
      <trkpt lat="46.0621434" lon="11.1189993" />
      <trkpt lat="46.0621155" lon="11.1189961" />
      <trkpt lat="46.0617695" lon="11.1189366" />
      <trkpt lat="46.0616923" lon="11.1189254" />
      <trkpt lat="46.0616127" lon="11.1189135" />
      <trkpt lat="46.0615283" lon="11.1189032" />
      <trkpt lat="46.0614938" lon="11.1189052" />
      <trkpt lat="46.0614622" lon="11.1189104" />
      <trkpt lat="46.0614474" lon="11.1187923" />
      <trkpt lat="46.0613971" lon="11.1181750" />
      <trkpt lat="46.0613695" lon="11.1181768" />
      <trkpt lat="46.0613604" lon="11.1181774" />
      <trkpt lat="46.0609065" lon="11.1181941" />
      <trkpt lat="46.0606490" lon="11.1182300" />
      <trkpt lat="46.0604512" lon="11.1182577" />
      <trkpt lat="46.0605149" lon="11.1189257" />
      <trkpt lat="46.0604807" lon="11.1189271" />
      <trkpt lat="46.0604440" lon="11.1189285" />
      <trkpt lat="46.0602340" lon="11.1189412" />
      <trkpt lat="46.0601076" lon="11.1189541" />
      <trkpt lat="46.0600939" lon="11.1189517" />
      <trkpt lat="46.0600831" lon="11.1189967" />
      <trkpt lat="46.0600721" lon="11.1190439" />
      <trkpt lat="46.0600799" lon="11.1190896" />
      <trkpt lat="46.0600867" lon="11.1191288" />
      <trkpt lat="46.0599987" lon="11.1191778" />
      <trkpt lat="46.0599017" lon="11.1192111" />
      <trkpt lat="46.0598901" lon="11.1192199" />
      <trkpt lat="46.0598828" lon="11.1192368" />
      <trkpt lat="46.0598839" lon="11.1192591" />
      <trkpt lat="46.0598924" lon="11.1193086" />
      <trkpt lat="46.0598999" lon="11.1193378" />
      <trkpt lat="46.0599762" lon="11.1197254" />
      <trkpt lat="46.0600590" lon="11.1201456" />
      <trkpt lat="46.0601093" lon="11.1204010" />
      <trkpt lat="46.0601863" lon="11.1207913" />
      <trkpt lat="46.0601882" lon="11.1208011" />
      <trkpt lat="46.0601927" lon="11.1208240" />
      <trkpt lat="46.0603096" lon="11.1214176" />
      <trkpt lat="46.0604081" lon="11.1219179" />
      <trkpt lat="46.0604143" lon="11.1219503" />
      <trkpt lat="46.0604187" lon="11.1219731" />
      <trkpt lat="46.0607096" lon="11.1218637" />
      <trkpt lat="46.0607153" lon="11.1218937" />
      <trkpt lat="46.0607498" lon="11.1220831" />
      <trkpt lat="46.0607825" lon="11.1222636" />
      <trkpt lat="46.0607498" lon="11.1220831" />
      <trkpt lat="46.0607153" lon="11.1218937" />
      <trkpt lat="46.0607096" lon="11.1218637" />
      <trkpt lat="46.0604187" lon="11.1219731" />
      <trkpt lat="46.0604143" lon="11.1219503" />
      <trkpt lat="46.0604081" lon="11.1219179" />
      <trkpt lat="46.0603740" lon="11.1219057" />
      <trkpt lat="46.0603479" lon="11.1219169" />
      <trkpt lat="46.0603033" lon="11.1219351" />
      <trkpt lat="46.0600911" lon="11.1208652" />
      <trkpt lat="46.0600833" lon="11.1208457" />
      <trkpt lat="46.0600720" lon="11.1208351" />
      <trkpt lat="46.0600566" lon="11.1208335" />
      <trkpt lat="46.0600428" lon="11.1207677" />
      <trkpt lat="46.0593347" lon="11.1210492" />
      <trkpt lat="46.0592934" lon="11.1210691" />
      <trkpt lat="46.0592628" lon="11.1210800" />
      <trkpt lat="46.0592322" lon="11.1210781" />
      <trkpt lat="46.0592066" lon="11.1210726" />
      <trkpt lat="46.0591963" lon="11.1210946" />
      <trkpt lat="46.0591804" lon="11.1211130" />
      <trkpt lat="46.0591358" lon="11.1211309" />
      <trkpt lat="46.0587253" lon="11.1212955" />
      <trkpt lat="46.0585022" lon="11.1213850" />
      <trkpt lat="46.0583267" lon="11.1214554" />
      <trkpt lat="46.0583365" lon="11.1215291" />
      <trkpt lat="46.0583258" lon="11.1215660" />
      <trkpt lat="46.0584851" lon="11.1223788" />
      <trkpt lat="46.0584235" lon="11.1224163" />
      <trkpt lat="46.0584341" lon="11.1224777" />
      <trkpt lat="46.0584527" lon="11.1225748" />
      <trkpt lat="46.0584623" lon="11.1226185" />
      <trkpt lat="46.0584710" lon="11.1226610" />
      <trkpt lat="46.0584528" lon="11.1226739" />
      <trkpt lat="46.0584384" lon="11.1226945" />
      <trkpt lat="46.0584296" lon="11.1227208" />
      <trkpt lat="46.0584271" lon="11.1227497" />
      <trkpt lat="46.0584313" lon="11.1227783" />
      <trkpt lat="46.0584424" lon="11.1228044" />
      <trkpt lat="46.0584589" lon="11.1228235" />
      <trkpt lat="46.0584790" lon="11.1228333" />
      <trkpt lat="46.0586192" lon="11.1235598" />
      <trkpt lat="46.0587532" lon="11.1242783" />
      <trkpt lat="46.0587785" lon="11.1244138" />
      <trkpt lat="46.0588061" lon="11.1244923" />
      <trkpt lat="46.0588207" lon="11.1245214" />
      <trkpt lat="46.0588697" lon="11.1246075" />
      <trkpt lat="46.0590252" lon="11.1248198" />
      <trkpt lat="46.0591228" lon="11.1249601" />
      <trkpt lat="46.0592586" lon="11.1251352" />
      <trkpt lat="46.0594619" lon="11.1254252" />
      <trkpt lat="46.0596739" lon="11.1257275" />
      <trkpt lat="46.0596990" lon="11.1258398" />
      <trkpt lat="46.0596980" lon="11.1259378" />
      <trkpt lat="46.0596946" lon="11.1259771" />
      <trkpt lat="46.0597213" lon="11.1259797" />
      <trkpt lat="46.0597414" lon="11.1259833" />
      <trkpt lat="46.0597525" lon="11.1259894" />
      <trkpt lat="46.0597796" lon="11.1260448" />
      <trkpt lat="46.0598346" lon="11.1261571" />
      <trkpt lat="46.0598530" lon="11.1261431" />
      <trkpt lat="46.0598756" lon="11.1261366" />
      <trkpt lat="46.0598923" lon="11.1261281" />
      <trkpt lat="46.0599316" lon="11.1260886" />
      <trkpt lat="46.0599707" lon="11.1261632" />
      <trkpt lat="46.0599350" lon="11.1261987" />
      <trkpt lat="46.0602683" lon="11.1268529" />
      <trkpt lat="46.0604236" lon="11.1271579" />
      <trkpt lat="46.0605133" lon="11.1273340" />
      <trkpt lat="46.0605334" lon="11.1273545" />
      <trkpt lat="46.0605570" lon="11.1274087" />
      <trkpt lat="46.0605598" lon="11.1274150" />
      <trkpt lat="46.0605644" lon="11.1274337" />
      <trkpt lat="46.0605618" lon="11.1274492" />
      <trkpt lat="46.0605307" lon="11.1274796" />
      <trkpt lat="46.0605580" lon="11.1275393" />
      <trkpt lat="46.0605869" lon="11.1275984" />
      <trkpt lat="46.0603073" lon="11.1278602" />
      <trkpt lat="46.0599133" lon="11.1282635" />
      <trkpt lat="46.0599055" lon="11.1282987" />
      <trkpt lat="46.0602364" lon="11.1287757" />
      <trkpt lat="46.0602050" lon="11.1288262" />
      <trkpt lat="46.0602269" lon="11.1288582" />
      <trkpt lat="46.0602997" lon="11.1289644" />
      <trkpt lat="46.0604501" lon="11.1291803" />
      <trkpt lat="46.0606803" lon="11.1295211" />
      <trkpt lat="46.0609740" lon="11.1299560" />
      <trkpt lat="46.0610009" lon="11.1299950" />
      <trkpt lat="46.0609856" lon="11.1300168" />
      <trkpt lat="46.0609606" lon="11.1300524" />
      <trkpt lat="46.0609838" lon="11.1300849" />
      <trkpt lat="46.0609734" lon="11.1300990" />
      <trkpt lat="46.0608358" lon="11.1303007" />
      <trkpt lat="46.0608210" lon="11.1303287" />
      <trkpt lat="46.0607406" lon="11.1304583" />
      <trkpt lat="46.0606077" lon="11.1306817" />
      <trkpt lat="46.0605895" lon="11.1306992" />
      <trkpt lat="46.0605734" lon="11.1307038" />
      <trkpt lat="46.0605566" lon="11.1306941" />
      <trkpt lat="46.0605437" lon="11.1306851" />
      <trkpt lat="46.0605170" lon="11.1307247" />
      <trkpt lat="46.0604552" lon="11.1306430" />
      <trkpt lat="46.0603853" lon="11.1305806" />
      <trkpt lat="46.0600331" lon="11.1303102" />
      <trkpt lat="46.0598367" lon="11.1301590" />
      <trkpt lat="46.0594803" lon="11.1298855" />
      <trkpt lat="46.0591918" lon="11.1296640" />
      <trkpt lat="46.0588020" lon="11.1293632" />
      <trkpt lat="46.0587271" lon="11.1292881" />
      <trkpt lat="46.0586979" lon="11.1292643" />
      <trkpt lat="46.0587678" lon="11.1289793" />
      <trkpt lat="46.0587446" lon="11.1289533" />
      <trkpt lat="46.0587611" lon="11.1288978" />
      <trkpt lat="46.0587894" lon="11.1288240" />
      <trkpt lat="46.0588227" lon="11.1287495" />
      <trkpt lat="46.0588835" lon="11.1286353" />
      <trkpt lat="46.0589945" lon="11.1284648" />
      <trkpt lat="46.0591687" lon="11.1282120" />
      <trkpt lat="46.0591808" lon="11.1281945" />
      <trkpt lat="46.0591897" lon="11.1281682" />
      <trkpt lat="46.0591950" lon="11.1281393" />
      <trkpt lat="46.0592006" lon="11.1281064" />
      <trkpt lat="46.0592015" lon="11.1280728" />
      <trkpt lat="46.0591896" lon="11.1280247" />
      <trkpt lat="46.0591810" lon="11.1280011" />
      <trkpt lat="46.0590407" lon="11.1278024" />
      <trkpt lat="46.0589913" lon="11.1277325" />
      <trkpt lat="46.0588715" lon="11.1275629" />
      <trkpt lat="46.0587754" lon="11.1274216" />
      <trkpt lat="46.0587527" lon="11.1273783" />
      <trkpt lat="46.0587374" lon="11.1273493" />
      <trkpt lat="46.0587263" lon="11.1273404" />
      <trkpt lat="46.0587177" lon="11.1273350" />
      <trkpt lat="46.0587038" lon="11.1273300" />
      <trkpt lat="46.0586910" lon="11.1273390" />
      <trkpt lat="46.0585513" lon="11.1275167" />
      <trkpt lat="46.0584963" lon="11.1275867" />
      <trkpt lat="46.0583989" lon="11.1277106" />
      <trkpt lat="46.0583657" lon="11.1276575" />
      <trkpt lat="46.0583778" lon="11.1276336" />
      <trkpt lat="46.0583358" lon="11.1276423" />
      <trkpt lat="46.0582576" lon="11.1276682" />
      <trkpt lat="46.0581083" lon="11.1277067" />
      <trkpt lat="46.0580490" lon="11.1277391" />
      <trkpt lat="46.0580303" lon="11.1276570" />
      <trkpt lat="46.0579490" lon="11.1276980" />
      <trkpt lat="46.0579287" lon="11.1276489" />
      <trkpt lat="46.0578453" lon="11.1273253" />
      <trkpt lat="46.0578382" lon="11.1273078" />
      <trkpt lat="46.0578312" lon="11.1272971" />
      <trkpt lat="46.0578201" lon="11.1272872" />
      <trkpt lat="46.0576746" lon="11.1271576" />
      <trkpt lat="46.0571659" lon="11.1267046" />
      <trkpt lat="46.0571286" lon="11.1266750" />
      <trkpt lat="46.0572752" lon="11.1263148" />
      <trkpt lat="46.0572967" lon="11.1262918" />
      <trkpt lat="46.0573175" lon="11.1262695" />
      <trkpt lat="46.0573379" lon="11.1262446" />
      <trkpt lat="46.0573609" lon="11.1262197" />
      <trkpt lat="46.0573826" lon="11.1261829" />
      <trkpt lat="46.0573960" lon="11.1261376" />
      <trkpt lat="46.0573986" lon="11.1260832" />
      <trkpt lat="46.0573888" lon="11.1260364" />
      <trkpt lat="46.0573782" lon="11.1260060" />
      <trkpt lat="46.0573663" lon="11.1259860" />
      <trkpt lat="46.0570477" lon="11.1256839" />
      <trkpt lat="46.0570453" lon="11.1256756" />
      <trkpt lat="46.0570476" lon="11.1256635" />
      <trkpt lat="46.0570714" lon="11.1256212" />
      <trkpt lat="46.0575882" lon="11.1260981" />
      <trkpt lat="46.0582969" lon="11.1267733" />
      <trkpt lat="46.0583333" lon="11.1268187" />
      <trkpt lat="46.0585002" lon="11.1270174" />
      <trkpt lat="46.0586068" lon="11.1271806" />
      <trkpt lat="46.0586110" lon="11.1271730" />
      <trkpt lat="46.0586383" lon="11.1271479" />
      <trkpt lat="46.0586630" lon="11.1271230" />
      <trkpt lat="46.0586754" lon="11.1271195" />
      <trkpt lat="46.0586968" lon="11.1271140" />
      <trkpt lat="46.0588174" lon="11.1269682" />
      <trkpt lat="46.0588261" lon="11.1269596" />
      <trkpt lat="46.0588911" lon="11.1268848" />
      <trkpt lat="46.0587747" lon="11.1267065" />
      <trkpt lat="46.0587081" lon="11.1266351" />
      <trkpt lat="46.0586921" lon="11.1266284" />
      <trkpt lat="46.0586813" lon="11.1266261" />
      <trkpt lat="46.0586698" lon="11.1266261" />
      <trkpt lat="46.0586623" lon="11.1266225" />
      <trkpt lat="46.0583284" lon="11.1263150" />
      <trkpt lat="46.0577668" lon="11.1257904" />
      <trkpt lat="46.0578741" lon="11.1255407" />
      <trkpt lat="46.0579003" lon="11.1254811" />
      <trkpt lat="46.0579538" lon="11.1255362" />
      <trkpt lat="46.0579717" lon="11.1254582" />
      <trkpt lat="46.0579381" lon="11.1254483" />
      <trkpt lat="46.0579242" lon="11.1254347" />
      <trkpt lat="46.0578914" lon="11.1254026" />
      <trkpt lat="46.0574709" lon="11.1249022" />
      <trkpt lat="46.0569644" lon="11.1242180" />
      <trkpt lat="46.0566955" lon="11.1237758" />
      <trkpt lat="46.0566273" lon="11.1236441" />
      <trkpt lat="46.0566056" lon="11.1236022" />
      <trkpt lat="46.0565976" lon="11.1235809" />
      <trkpt lat="46.0565844" lon="11.1235459" />
      <trkpt lat="46.0565586" lon="11.1234511" />
      <trkpt lat="46.0564384" lon="11.1228403" />
      <trkpt lat="46.0564777" lon="11.1228251" />
      <trkpt lat="46.0564723" lon="11.1227978" />
      <trkpt lat="46.0566005" lon="11.1226892" />
      <trkpt lat="46.0566374" lon="11.1226278" />
      <trkpt lat="46.0566599" lon="11.1225903" />
      <trkpt lat="46.0566967" lon="11.1224630" />
      <trkpt lat="46.0567250" lon="11.1223960" />
      <trkpt lat="46.0567552" lon="11.1223497" />
      <trkpt lat="46.0567762" lon="11.1223287" />
      <trkpt lat="46.0567860" lon="11.1223054" />
      <trkpt lat="46.0567913" lon="11.1223005" />
      <trkpt lat="46.0568467" lon="11.1222778" />
      <trkpt lat="46.0569395" lon="11.1222398" />
      <trkpt lat="46.0570408" lon="11.1221688" />
      <trkpt lat="46.0573246" lon="11.1220537" />
      <trkpt lat="46.0573789" lon="11.1220354" />
      <trkpt lat="46.0574804" lon="11.1220376" />
      <trkpt lat="46.0575321" lon="11.1220449" />
      <trkpt lat="46.0575656" lon="11.1220325" />
      <trkpt lat="46.0575576" lon="11.1219675" />
      <trkpt lat="46.0575532" lon="11.1219320" />
      <trkpt lat="46.0575446" lon="11.1218628" />
      <trkpt lat="46.0575267" lon="11.1218468" />
      <trkpt lat="46.0575160" lon="11.1218250" />
      <trkpt lat="46.0574633" lon="11.1215413" />
      <trkpt lat="46.0574802" lon="11.1215162" />
      <trkpt lat="46.0574952" lon="11.1215046" />
      <trkpt lat="46.0576777" lon="11.1214286" />
      <trkpt lat="46.0578550" lon="11.1213548" />
      <trkpt lat="46.0578798" lon="11.1213406" />
      <trkpt lat="46.0578972" lon="11.1213169" />
      <trkpt lat="46.0579031" lon="11.1212738" />
      <trkpt lat="46.0578934" lon="11.1212213" />
      <trkpt lat="46.0579145" lon="11.1212127" />
      <trkpt lat="46.0580881" lon="11.1211423" />
      <trkpt lat="46.0580085" lon="11.1207268" />
      <trkpt lat="46.0580018" lon="11.1206927" />
      <trkpt lat="46.0579967" lon="11.1206670" />
      <trkpt lat="46.0579898" lon="11.1206318" />
      <trkpt lat="46.0578706" lon="11.1200364" />
      <trkpt lat="46.0579274" lon="11.1200138" />
      <trkpt lat="46.0578976" lon="11.1198612" />
      <trkpt lat="46.0578798" lon="11.1197670" />
      <trkpt lat="46.0578888" lon="11.1196753" />
      <trkpt lat="46.0579095" lon="11.1195900" />
      <trkpt lat="46.0579310" lon="11.1195295" />
      <trkpt lat="46.0579520" lon="11.1194712" />
      <trkpt lat="46.0579751" lon="11.1194141" />
      <trkpt lat="46.0580289" lon="11.1193886" />
      <trkpt lat="46.0585235" lon="11.1191879" />
      <trkpt lat="46.0587415" lon="11.1190992" />
      <trkpt lat="46.0587489" lon="11.1191398" />
      <trkpt lat="46.0587453" lon="11.1191908" />
      <trkpt lat="46.0587796" lon="11.1192157" />
      <trkpt lat="46.0588008" lon="11.1192649" />
      <trkpt lat="46.0590134" lon="11.1203157" />
      <trkpt lat="46.0589307" lon="11.1203486" />
      <trkpt lat="46.0589085" lon="11.1203577" />
      <trkpt lat="46.0587994" lon="11.1204019" />
      <trkpt lat="46.0587571" lon="11.1204212" />
      <trkpt lat="46.0587679" lon="11.1204749" />
      <trkpt lat="46.0587721" lon="11.1204963" />
      <trkpt lat="46.0587834" lon="11.1205542" />
      <trkpt lat="46.0587970" lon="11.1206241" />
      <trkpt lat="46.0588016" lon="11.1206479" />
      <trkpt lat="46.0588112" lon="11.1206992" />
      <trkpt lat="46.0586294" lon="11.1207712" />
      <trkpt lat="46.0586628" lon="11.1209540" />
      <trkpt lat="46.0586696" lon="11.1209909" />
      <trkpt lat="46.0586754" lon="11.1210228" />
      <trkpt lat="46.0587087" lon="11.1212048" />
      <trkpt lat="46.0587116" lon="11.1212219" />
      <trkpt lat="46.0587253" lon="11.1212955" />
    </trkseg>
  </trk>
</gpx>
