<?xml version="1.0" encoding="UTF-8"?>
<gpx xmlns="http://www.topografix.com/GPX/1/1" version="1.1" creator="ShapeRoute route-engine">
  <metadata>
    <name>heart 10 km · 2026-09-26</name>
    <author>
      <name>ShapeRoute route-engine</name>
    </author>
    <copyright author="OpenStreetMap contributors">
      <license>https://opendatacommons.org/licenses/odbl/1-0/</license>
    </copyright>
    <link href="https://www.openstreetmap.org/copyright">
      <text>© OpenStreetMap contributors</text>
    </link>
    <time>2026-09-26T00:00:00Z</time>
  </metadata>
  <trk>
    <name>heart 10 km · 2026-09-26</name>
    <trkseg>
      <trkpt lat="45.9940725" lon="11.2587979" />
      <trkpt lat="45.9940950" lon="11.2586944" />
      <trkpt lat="45.9941523" lon="11.2584678" />
      <trkpt lat="45.9942064" lon="11.2582410" />
      <trkpt lat="45.9942523" lon="11.2580413" />
      <trkpt lat="45.9942625" lon="11.2580010" />
      <trkpt lat="45.9942761" lon="11.2579473" />
      <trkpt lat="45.9942875" lon="11.2579022" />
      <trkpt lat="45.9943234" lon="11.2577640" />
      <trkpt lat="45.9944068" lon="11.2575077" />
      <trkpt lat="45.9944428" lon="11.2574150" />
      <trkpt lat="45.9944922" lon="11.2573305" />
      <trkpt lat="45.9945572" lon="11.2572233" />
      <trkpt lat="45.9946334" lon="11.2571068" />
      <trkpt lat="45.9947470" lon="11.2569670" />
      <trkpt lat="45.9948786" lon="11.2568442" />
      <trkpt lat="45.9953312" lon="11.2565025" />
      <trkpt lat="45.9953693" lon="11.2565724" />
      <trkpt lat="45.9960666" lon="11.2577591" />
      <trkpt lat="45.9961338" lon="11.2580156" />
      <trkpt lat="45.9963537" lon="11.2588530" />
      <trkpt lat="45.9965679" lon="11.2596945" />
      <trkpt lat="45.9966065" lon="11.2596727" />
      <trkpt lat="45.9966481" lon="11.2596303" />
      <trkpt lat="45.9967250" lon="11.2595253" />
      <trkpt lat="45.9968452" lon="11.2593401" />
      <trkpt lat="45.9969795" lon="11.2591170" />
      <trkpt lat="45.9970310" lon="11.2590354" />
      <trkpt lat="45.9972267" lon="11.2587177" />
      <trkpt lat="45.9972584" lon="11.2586843" />
      <trkpt lat="45.9974439" lon="11.2583935" />
      <trkpt lat="45.9974689" lon="11.2583658" />
      <trkpt lat="45.9975043" lon="11.2583490" />
      <trkpt lat="45.9975784" lon="11.2583392" />
      <trkpt lat="45.9977923" lon="11.2583069" />
      <trkpt lat="45.9980081" lon="11.2582689" />
      <trkpt lat="45.9981966" lon="11.2582069" />
      <trkpt lat="45.9984079" lon="11.2580753" />
      <trkpt lat="45.9984028" lon="11.2581106" />
      <trkpt lat="45.9983761" lon="11.2581374" />
      <trkpt lat="45.9983172" lon="11.2581679" />
      <trkpt lat="45.9982162" lon="11.2582309" />
      <trkpt lat="45.9980855" lon="11.2583359" />
      <trkpt lat="45.9979920" lon="11.2585035" />
      <trkpt lat="45.9973425" lon="11.2598392" />
      <trkpt lat="45.9972961" lon="11.2599211" />
      <trkpt lat="45.9973129" lon="11.2599654" />
      <trkpt lat="45.9973886" lon="11.2601239" />
      <trkpt lat="45.9974442" lon="11.2602401" />
      <trkpt lat="45.9975170" lon="11.2603885" />
      <trkpt lat="45.9976323" lon="11.2606233" />
      <trkpt lat="45.9976699" lon="11.2606999" />
      <trkpt lat="45.9979008" lon="11.2611702" />
      <trkpt lat="45.9979247" lon="11.2612188" />
      <trkpt lat="45.9982222" lon="11.2618249" />
      <trkpt lat="45.9984123" lon="11.2622303" />
      <trkpt lat="45.9985495" lon="11.2623996" />
      <trkpt lat="45.9987865" lon="11.2626459" />
      <trkpt lat="45.9989047" lon="11.2627942" />
      <trkpt lat="45.9989290" lon="11.2628220" />
      <trkpt lat="45.9990128" lon="11.2629177" />
      <trkpt lat="45.9991224" lon="11.2630410" />
      <trkpt lat="45.9989851" lon="11.2632052" />
      <trkpt lat="45.9988521" lon="11.2634146" />
      <trkpt lat="45.9987836" lon="11.2635166" />
      <trkpt lat="45.9986735" lon="11.2636913" />
      <trkpt lat="45.9985082" lon="11.2639708" />
      <trkpt lat="45.9982841" lon="11.2642685" />
      <trkpt lat="45.9981957" lon="11.2643719" />
      <trkpt lat="45.9981194" lon="11.2644668" />
      <trkpt lat="45.9982023" lon="11.2645882" />
      <trkpt lat="45.9982797" lon="11.2646937" />
      <trkpt lat="45.9983184" lon="11.2647424" />
      <trkpt lat="45.9984034" lon="11.2648582" />
      <trkpt lat="45.9984368" lon="11.2648974" />
      <trkpt lat="45.9984655" lon="11.2649345" />
      <trkpt lat="45.9986072" lon="11.2651317" />
      <trkpt lat="45.9987364" lon="11.2653349" />
      <trkpt lat="45.9987488" lon="11.2653637" />
      <trkpt lat="45.9983367" lon="11.2657218" />
      <trkpt lat="45.9982583" lon="11.2658016" />
      <trkpt lat="45.9982214" lon="11.2658557" />
      <trkpt lat="45.9981474" lon="11.2659682" />
      <trkpt lat="45.9980860" lon="11.2661206" />
      <trkpt lat="45.9980469" lon="11.2662462" />
      <trkpt lat="45.9980186" lon="11.2663987" />
      <trkpt lat="45.9980156" lon="11.2666296" />
      <trkpt lat="45.9981266" lon="11.2673485" />
      <trkpt lat="45.9981276" lon="11.2673760" />
      <trkpt lat="45.9981210" lon="11.2674004" />
      <trkpt lat="45.9980068" lon="11.2673437" />
      <trkpt lat="45.9979671" lon="11.2673286" />
      <trkpt lat="45.9979198" lon="11.2673085" />
      <trkpt lat="45.9978534" lon="11.2672787" />
      <trkpt lat="45.9977922" lon="11.2672560" />
      <trkpt lat="45.9976270" lon="11.2672195" />
      <trkpt lat="45.9973438" lon="11.2671719" />
      <trkpt lat="45.9972748" lon="11.2671557" />
      <trkpt lat="45.9972116" lon="11.2671559" />
      <trkpt lat="45.9970822" lon="11.2671373" />
      <trkpt lat="45.9970159" lon="11.2671261" />
      <trkpt lat="45.9968677" lon="11.2670878" />
      <trkpt lat="45.9967831" lon="11.2670512" />
      <trkpt lat="45.9967077" lon="11.2670127" />
      <trkpt lat="45.9966544" lon="11.2669766" />
      <trkpt lat="45.9966101" lon="11.2669501" />
      <trkpt lat="45.9965651" lon="11.2670890" />
      <trkpt lat="45.9965390" lon="11.2671687" />
      <trkpt lat="45.9960324" lon="11.2685586" />
      <trkpt lat="45.9960036" lon="11.2686434" />
      <trkpt lat="45.9957342" lon="11.2694502" />
      <trkpt lat="45.9955946" lon="11.2698683" />
      <trkpt lat="45.9958944" lon="11.2701562" />
      <trkpt lat="45.9962543" lon="11.2697794" />
      <trkpt lat="45.9966935" lon="11.2701363" />
      <trkpt lat="45.9969321" lon="11.2702818" />
      <trkpt lat="45.9971936" lon="11.2703992" />
      <trkpt lat="45.9973604" lon="11.2704752" />
      <trkpt lat="45.9975393" lon="11.2705068" />
      <trkpt lat="45.9976491" lon="11.2704964" />
      <trkpt lat="45.9977658" lon="11.2704487" />
      <trkpt lat="45.9978769" lon="11.2703755" />
      <trkpt lat="45.9979730" lon="11.2702856" />
      <trkpt lat="45.9980111" lon="11.2704619" />
      <trkpt lat="45.9981294" lon="11.2709608" />
      <trkpt lat="45.9981900" lon="11.2712900" />
      <trkpt lat="45.9982263" lon="11.2714684" />
      <trkpt lat="45.9982757" lon="11.2716528" />
      <trkpt lat="45.9983330" lon="11.2718070" />
      <trkpt lat="45.9983908" lon="11.2719478" />
      <trkpt lat="45.9985123" lon="11.2722664" />
      <trkpt lat="45.9983719" lon="11.2725041" />
      <trkpt lat="45.9982117" lon="11.2727863" />
      <trkpt lat="45.9980222" lon="11.2729580" />
      <trkpt lat="45.9977853" lon="11.2731039" />
      <trkpt lat="45.9976938" lon="11.2732450" />
      <trkpt lat="45.9975777" lon="11.2736331" />
      <trkpt lat="45.9974241" lon="11.2742729" />
      <trkpt lat="45.9973920" lon="11.2742979" />
      <trkpt lat="45.9973637" lon="11.2743200" />
      <trkpt lat="45.9972248" lon="11.2742141" />
      <trkpt lat="45.9970540" lon="11.2740892" />
      <trkpt lat="45.9971143" lon="11.2742338" />
      <trkpt lat="45.9972648" lon="11.2745313" />
      <trkpt lat="45.9974837" lon="11.2749256" />
      <trkpt lat="45.9976240" lon="11.2751540" />
      <trkpt lat="45.9977843" lon="11.2753344" />
      <trkpt lat="45.9979046" lon="11.2754209" />
      <trkpt lat="45.9981067" lon="11.2755484" />
      <trkpt lat="45.9991481" lon="11.2760666" />
      <trkpt lat="45.9994067" lon="11.2762588" />
      <trkpt lat="45.9995284" lon="11.2764118" />
      <trkpt lat="45.9995544" lon="11.2765036" />
      <trkpt lat="45.9996347" lon="11.2769865" />
      <trkpt lat="45.9998768" lon="11.2782123" />
      <trkpt lat="45.9998709" lon="11.2782956" />
      <trkpt lat="45.9997681" lon="11.2784581" />
      <trkpt lat="45.9987632" lon="11.2804488" />
      <trkpt lat="45.9985545" lon="11.2801402" />
      <trkpt lat="45.9984374" lon="11.2799751" />
      <trkpt lat="45.9979154" lon="11.2792394" />
      <trkpt lat="45.9977005" lon="11.2789364" />
      <trkpt lat="45.9974329" lon="11.2785593" />
      <trkpt lat="45.9970422" lon="11.2779230" />
      <trkpt lat="45.9968108" lon="11.2773974" />
      <trkpt lat="45.9962188" lon="11.2758368" />
      <trkpt lat="45.9958526" lon="11.2748043" />
      <trkpt lat="45.9956100" lon="11.2740850" />
      <trkpt lat="45.9954790" lon="11.2736899" />
      <trkpt lat="45.9954237" lon="11.2735230" />
      <trkpt lat="45.9951877" lon="11.2728110" />
      <trkpt lat="45.9949961" lon="11.2722999" />
      <trkpt lat="45.9949474" lon="11.2721490" />
      <trkpt lat="45.9949008" lon="11.2720047" />
      <trkpt lat="45.9947834" lon="11.2716409" />
      <trkpt lat="45.9947002" lon="11.2713830" />
      <trkpt lat="45.9945738" lon="11.2714739" />
      <trkpt lat="45.9945617" lon="11.2714425" />
      <trkpt lat="45.9940838" lon="11.2717655" />
      <trkpt lat="45.9940923" lon="11.2717885" />
      <trkpt lat="45.9939626" lon="11.2718776" />
      <trkpt lat="45.9938834" lon="11.2719357" />
      <trkpt lat="45.9936123" lon="11.2733023" />
      <trkpt lat="45.9935476" lon="11.2736406" />
      <trkpt lat="45.9933441" lon="11.2746195" />
      <trkpt lat="45.9930409" lon="11.2760862" />
      <trkpt lat="45.9929649" lon="11.2764537" />
      <trkpt lat="45.9928960" lon="11.2769309" />
      <trkpt lat="45.9928175" lon="11.2775764" />
      <trkpt lat="45.9927379" lon="11.2779711" />
      <trkpt lat="45.9926624" lon="11.2781856" />
      <trkpt lat="45.9925880" lon="11.2784631" />
      <trkpt lat="45.9931610" lon="11.2802663" />
      <trkpt lat="45.9933034" lon="11.2809421" />
      <trkpt lat="45.9937066" lon="11.2820169" />
      <trkpt lat="45.9936224" lon="11.2821195" />
      <trkpt lat="45.9934920" lon="11.2822992" />
      <trkpt lat="45.9934063" lon="11.2825084" />
      <trkpt lat="45.9933392" lon="11.2827980" />
      <trkpt lat="45.9932460" lon="11.2832567" />
      <trkpt lat="45.9931994" lon="11.2834150" />
      <trkpt lat="45.9930820" lon="11.2833130" />
      <trkpt lat="45.9928584" lon="11.2831306" />
      <trkpt lat="45.9926348" lon="11.2828329" />
      <trkpt lat="45.9925379" lon="11.2825996" />
      <trkpt lat="45.9924783" lon="11.2823555" />
      <trkpt lat="45.9924056" lon="11.2818968" />
      <trkpt lat="45.9923851" lon="11.2815911" />
      <trkpt lat="45.9923426" lon="11.2808297" />
      <trkpt lat="45.9923252" lon="11.2807682" />
      <trkpt lat="45.9921683" lon="11.2805547" />
      <trkpt lat="45.9919687" lon="11.2801976" />
      <trkpt lat="45.9918560" lon="11.2799633" />
      <trkpt lat="45.9918503" lon="11.2797868" />
      <trkpt lat="45.9918297" lon="11.2796183" />
      <trkpt lat="45.9917761" lon="11.2797622" />
      <trkpt lat="45.9914556" lon="11.2799365" />
      <trkpt lat="45.9912518" lon="11.2800995" />
      <trkpt lat="45.9911159" lon="11.2803212" />
      <trkpt lat="45.9906806" lon="11.2788001" />
      <trkpt lat="45.9906238" lon="11.2777432" />
      <trkpt lat="45.9905811" lon="11.2774022" />
      <trkpt lat="45.9905527" lon="11.2768431" />
      <trkpt lat="45.9902353" lon="11.2760657" />
      <trkpt lat="45.9899131" lon="11.2755202" />
      <trkpt lat="45.9896431" lon="11.2751929" />
      <trkpt lat="45.9890319" lon="11.2741223" />
      <trkpt lat="45.9882695" lon="11.2727040" />
      <trkpt lat="45.9878986" lon="11.2731714" />
      <trkpt lat="45.9877269" lon="11.2733878" />
      <trkpt lat="45.9871610" lon="11.2746737" />
      <trkpt lat="45.9870880" lon="11.2748600" />
      <trkpt lat="45.9870680" lon="11.2749899" />
      <trkpt lat="45.9869990" lon="11.2751455" />
      <trkpt lat="45.9868900" lon="11.2753255" />
      <trkpt lat="45.9867003" lon="11.2754328" />
      <trkpt lat="45.9866105" lon="11.2749087" />
      <trkpt lat="45.9862114" lon="11.2723695" />
      <trkpt lat="45.9861284" lon="11.2724595" />
      <trkpt lat="45.9860802" lon="11.2721664" />
      <trkpt lat="45.9859787" lon="11.2719030" />
      <trkpt lat="45.9854121" lon="11.2710310" />
      <trkpt lat="45.9844482" lon="11.2696394" />
      <trkpt lat="45.9842985" lon="11.2693497" />
      <trkpt lat="45.9842112" lon="11.2691617" />
      <trkpt lat="45.9841537" lon="11.2690070" />
      <trkpt lat="45.9840864" lon="11.2687218" />
      <trkpt lat="45.9838768" lon="11.2677756" />
      <trkpt lat="45.9838439" lon="11.2675593" />
      <trkpt lat="45.9838263" lon="11.2673957" />
      <trkpt lat="45.9838297" lon="11.2672348" />
      <trkpt lat="45.9838450" lon="11.2670953" />
      <trkpt lat="45.9838840" lon="11.2668420" />
      <trkpt lat="45.9838532" lon="11.2668303" />
      <trkpt lat="45.9838311" lon="11.2668134" />
      <trkpt lat="45.9838021" lon="11.2667753" />
      <trkpt lat="45.9837736" lon="11.2667085" />
      <trkpt lat="45.9837620" lon="11.2666537" />
      <trkpt lat="45.9837539" lon="11.2665881" />
      <trkpt lat="45.9836326" lon="11.2666142" />
      <trkpt lat="45.9835871" lon="11.2666358" />
      <trkpt lat="45.9835434" lon="11.2666654" />
      <trkpt lat="45.9835106" lon="11.2667023" />
      <trkpt lat="45.9834837" lon="11.2667382" />
      <trkpt lat="45.9834282" lon="11.2668412" />
      <trkpt lat="45.9834058" lon="11.2673330" />
      <trkpt lat="45.9834696" lon="11.2678004" />
      <trkpt lat="45.9834844" lon="11.2680162" />
      <trkpt lat="45.9834620" lon="11.2681771" />
      <trkpt lat="45.9834784" lon="11.2685798" />
      <trkpt lat="45.9834858" lon="11.2689096" />
      <trkpt lat="45.9834861" lon="11.2690730" />
      <trkpt lat="45.9834769" lon="11.2692125" />
      <trkpt lat="45.9834658" lon="11.2693065" />
      <trkpt lat="45.9834769" lon="11.2692125" />
      <trkpt lat="45.9834861" lon="11.2690730" />
      <trkpt lat="45.9834858" lon="11.2689096" />
      <trkpt lat="45.9834784" lon="11.2685798" />
      <trkpt lat="45.9834620" lon="11.2681771" />
      <trkpt lat="45.9834844" lon="11.2680162" />
      <trkpt lat="45.9834696" lon="11.2678004" />
      <trkpt lat="45.9834058" lon="11.2673330" />
      <trkpt lat="45.9834282" lon="11.2668412" />
      <trkpt lat="45.9834837" lon="11.2667382" />
      <trkpt lat="45.9835106" lon="11.2667023" />
      <trkpt lat="45.9835434" lon="11.2666654" />
      <trkpt lat="45.9835871" lon="11.2666358" />
      <trkpt lat="45.9836326" lon="11.2666142" />
      <trkpt lat="45.9837539" lon="11.2665881" />
      <trkpt lat="45.9837620" lon="11.2666537" />
      <trkpt lat="45.9837736" lon="11.2667085" />
      <trkpt lat="45.9838021" lon="11.2667753" />
      <trkpt lat="45.9838311" lon="11.2668134" />
      <trkpt lat="45.9838532" lon="11.2668303" />
      <trkpt lat="45.9838840" lon="11.2668420" />
      <trkpt lat="45.9839383" lon="11.2668612" />
      <trkpt lat="45.9839862" lon="11.2668646" />
      <trkpt lat="45.9840537" lon="11.2668488" />
      <trkpt lat="45.9841126" lon="11.2668291" />
      <trkpt lat="45.9844655" lon="11.2666809" />
      <trkpt lat="45.9846780" lon="11.2665824" />
      <trkpt lat="45.9847805" lon="11.2665284" />
      <trkpt lat="45.9852520" lon="11.2662962" />
      <trkpt lat="45.9853412" lon="11.2662522" />
      <trkpt lat="45.9854242" lon="11.2662362" />
      <trkpt lat="45.9855074" lon="11.2662353" />
      <trkpt lat="45.9862678" lon="11.2662705" />
      <trkpt lat="45.9866902" lon="11.2662901" />
      <trkpt lat="45.9869346" lon="11.2663014" />
      <trkpt lat="45.9871879" lon="11.2662976" />
      <trkpt lat="45.9874766" lon="11.2662933" />
      <trkpt lat="45.9876395" lon="11.2662909" />
      <trkpt lat="45.9877748" lon="11.2662921" />
      <trkpt lat="45.9878716" lon="11.2662783" />
      <trkpt lat="45.9879350" lon="11.2662551" />
      <trkpt lat="45.9879591" lon="11.2662463" />
      <trkpt lat="45.9880692" lon="11.2661897" />
      <trkpt lat="45.9881793" lon="11.2661096" />
      <trkpt lat="45.9883456" lon="11.2659763" />
      <trkpt lat="45.9883883" lon="11.2659420" />
      <trkpt lat="45.9884780" lon="11.2658687" />
      <trkpt lat="45.9886910" lon="11.2656945" />
      <trkpt lat="45.9889181" lon="11.2654563" />
      <trkpt lat="45.9889997" lon="11.2653735" />
      <trkpt lat="45.9891470" lon="11.2652257" />
      <trkpt lat="45.9894089" lon="11.2649629" />
      <trkpt lat="45.9895452" lon="11.2648263" />
      <trkpt lat="45.9896590" lon="11.2646823" />
      <trkpt lat="45.9897424" lon="11.2645767" />
      <trkpt lat="45.9898117" lon="11.2643197" />
      <trkpt lat="45.9898277" lon="11.2641348" />
      <trkpt lat="45.9899010" lon="11.2638527" />
      <trkpt lat="45.9899228" lon="11.2637687" />
      <trkpt lat="45.9899865" lon="11.2635909" />
      <trkpt lat="45.9900260" lon="11.2634302" />
      <trkpt lat="45.9905439" lon="11.2626067" />
      <trkpt lat="45.9906578" lon="11.2624875" />
      <trkpt lat="45.9907738" lon="11.2624048" />
      <trkpt lat="45.9909377" lon="11.2623164" />
      <trkpt lat="45.9909973" lon="11.2621994" />
      <trkpt lat="45.9910877" lon="11.2620278" />
      <trkpt lat="45.9914098" lon="11.2614728" />
      <trkpt lat="45.9914049" lon="11.2614008" />
      <trkpt lat="45.9914124" lon="11.2613221" />
      <trkpt lat="45.9914668" lon="11.2611826" />
      <trkpt lat="45.9915280" lon="11.2610137" />
      <trkpt lat="45.9915733" lon="11.2608872" />
      <trkpt lat="45.9916072" lon="11.2607607" />
      <trkpt lat="45.9917361" lon="11.2605839" />
      <trkpt lat="45.9917595" lon="11.2605371" />
      <trkpt lat="45.9917911" lon="11.2605096" />
      <trkpt lat="45.9919747" lon="11.2604274" />
      <trkpt lat="45.9921560" lon="11.2603528" />
      <trkpt lat="45.9923092" lon="11.2602882" />
      <trkpt lat="45.9923525" lon="11.2602849" />
      <trkpt lat="45.9923767" lon="11.2602875" />
      <trkpt lat="45.9923795" lon="11.2601441" />
      <trkpt lat="45.9924182" lon="11.2599101" />
      <trkpt lat="45.9924995" lon="11.2596466" />
      <trkpt lat="45.9926919" lon="11.2592091" />
      <trkpt lat="45.9928375" lon="11.2588620" />
      <trkpt lat="45.9929253" lon="11.2586642" />
      <trkpt lat="45.9929922" lon="11.2585107" />
      <trkpt lat="45.9930048" lon="11.2584852" />
      <trkpt lat="45.9931021" lon="11.2582990" />
      <trkpt lat="45.9932196" lon="11.2581134" />
      <trkpt lat="45.9932455" lon="11.2580767" />
      <trkpt lat="45.9932502" lon="11.2580845" />
      <trkpt lat="45.9932931" lon="11.2581677" />
      <trkpt lat="45.9936685" lon="11.2588751" />
      <trkpt lat="45.9938718" lon="11.2592776" />
      <trkpt lat="45.9939218" lon="11.2593296" />
      <trkpt lat="45.9939504" lon="11.2593594" />
      <trkpt lat="45.9940725" lon="11.2587979" />
    </trkseg>
  </trk>
</gpx>
