<?xml version="1.0" encoding="UTF-8"?>
<gpx xmlns="http://www.topografix.com/GPX/1/1" version="1.1" creator="ShapeRoute route-engine">
  <metadata>
    <name>tree 15 km · 2026-09-24</name>
    <author>
      <name>ShapeRoute route-engine</name>
    </author>
    <copyright author="OpenStreetMap contributors">
      <license>https://opendatacommons.org/licenses/odbl/1-0/</license>
    </copyright>
    <link href="https://www.openstreetmap.org/copyright">
      <text>© OpenStreetMap contributors</text>
    </link>
    <time>2026-09-24T07:48:19Z</time>
  </metadata>
  <trk>
    <name>tree 15 km · 2026-09-24</name>
    <trkseg>
      <trkpt lat="46.0668711" lon="11.1210492" />
      <trkpt lat="46.0667705" lon="11.1210629" />
      <trkpt lat="46.0667526" lon="11.1210542" />
      <trkpt lat="46.0667024" lon="11.1213629" />
      <trkpt lat="46.0666701" lon="11.1215352" />
      <trkpt lat="46.0666789" lon="11.1217092" />
      <trkpt lat="46.0667274" lon="11.1218448" />
      <trkpt lat="46.0667304" lon="11.1218751" />
      <trkpt lat="46.0667210" lon="11.1219626" />
      <trkpt lat="46.0667229" lon="11.1219913" />
      <trkpt lat="46.0667249" lon="11.1220591" />
      <trkpt lat="46.0667287" lon="11.1221612" />
      <trkpt lat="46.0667350" lon="11.1222603" />
      <trkpt lat="46.0667357" lon="11.1222747" />
      <trkpt lat="46.0667414" lon="11.1223091" />
      <trkpt lat="46.0665753" lon="11.1223823" />
      <trkpt lat="46.0665144" lon="11.1224055" />
      <trkpt lat="46.0663604" lon="11.1225220" />
      <trkpt lat="46.0663306" lon="11.1225479" />
      <trkpt lat="46.0662774" lon="11.1225941" />
      <trkpt lat="46.0662400" lon="11.1226907" />
      <trkpt lat="46.0660796" lon="11.1227720" />
      <trkpt lat="46.0657344" lon="11.1229534" />
      <trkpt lat="46.0655279" lon="11.1230558" />
      <trkpt lat="46.0654001" lon="11.1231014" />
      <trkpt lat="46.0653655" lon="11.1230951" />
      <trkpt lat="46.0652342" lon="11.1231340" />
      <trkpt lat="46.0651994" lon="11.1231586" />
      <trkpt lat="46.0651514" lon="11.1231779" />
      <trkpt lat="46.0651559" lon="11.1232583" />
      <trkpt lat="46.0651561" lon="11.1232838" />
      <trkpt lat="46.0651569" lon="11.1233035" />
      <trkpt lat="46.0649624" lon="11.1233329" />
      <trkpt lat="46.0649514" lon="11.1233356" />
      <trkpt lat="46.0648838" lon="11.1242128" />
      <trkpt lat="46.0648789" lon="11.1242760" />
      <trkpt lat="46.0648536" lon="11.1246620" />
      <trkpt lat="46.0648439" lon="11.1247453" />
      <trkpt lat="46.0646625" lon="11.1257693" />
      <trkpt lat="46.0646134" lon="11.1257510" />
      <trkpt lat="46.0639138" lon="11.1254909" />
      <trkpt lat="46.0637707" lon="11.1256152" />
      <trkpt lat="46.0636225" lon="11.1256866" />
      <trkpt lat="46.0635632" lon="11.1257184" />
      <trkpt lat="46.0628015" lon="11.1260735" />
      <trkpt lat="46.0626076" lon="11.1262566" />
      <trkpt lat="46.0625804" lon="11.1262030" />
      <trkpt lat="46.0624697" lon="11.1259209" />
      <trkpt lat="46.0624497" lon="11.1258990" />
      <trkpt lat="46.0623975" lon="11.1257187" />
      <trkpt lat="46.0623814" lon="11.1256601" />
      <trkpt lat="46.0623313" lon="11.1256875" />
      <trkpt lat="46.0622931" lon="11.1257084" />
      <trkpt lat="46.0621728" lon="11.1253451" />
      <trkpt lat="46.0622931" lon="11.1257084" />
      <trkpt lat="46.0622980" lon="11.1257316" />
      <trkpt lat="46.0622971" lon="11.1257512" />
      <trkpt lat="46.0622923" lon="11.1257732" />
      <trkpt lat="46.0622829" lon="11.1257975" />
      <trkpt lat="46.0622666" lon="11.1258210" />
      <trkpt lat="46.0617535" lon="11.1263066" />
      <trkpt lat="46.0617401" lon="11.1263092" />
      <trkpt lat="46.0617280" lon="11.1263081" />
      <trkpt lat="46.0617189" lon="11.1263032" />
      <trkpt lat="46.0617098" lon="11.1263121" />
      <trkpt lat="46.0616697" lon="11.1263513" />
      <trkpt lat="46.0616283" lon="11.1263941" />
      <trkpt lat="46.0616334" lon="11.1264055" />
      <trkpt lat="46.0616335" lon="11.1264194" />
      <trkpt lat="46.0616272" lon="11.1264252" />
      <trkpt lat="46.0616131" lon="11.1264388" />
      <trkpt lat="46.0614900" lon="11.1265572" />
      <trkpt lat="46.0607006" lon="11.1273165" />
      <trkpt lat="46.0607283" lon="11.1273770" />
      <trkpt lat="46.0606810" lon="11.1274203" />
      <trkpt lat="46.0606403" lon="11.1274586" />
      <trkpt lat="46.0605580" lon="11.1275393" />
      <trkpt lat="46.0598806" lon="11.1282058" />
      <trkpt lat="46.0598474" lon="11.1281528" />
      <trkpt lat="46.0598125" lon="11.1281676" />
      <trkpt lat="46.0597850" lon="11.1282180" />
      <trkpt lat="46.0591635" lon="11.1273036" />
      <trkpt lat="46.0590732" lon="11.1271445" />
      <trkpt lat="46.0590349" lon="11.1271380" />
      <trkpt lat="46.0590244" lon="11.1271318" />
      <trkpt lat="46.0590008" lon="11.1270867" />
      <trkpt lat="46.0589783" lon="11.1271051" />
      <trkpt lat="46.0589748" lon="11.1271079" />
      <trkpt lat="46.0589724" lon="11.1271099" />
      <trkpt lat="46.0589412" lon="11.1270785" />
      <trkpt lat="46.0589212" lon="11.1270694" />
      <trkpt lat="46.0589008" lon="11.1270798" />
      <trkpt lat="46.0588891" lon="11.1270924" />
      <trkpt lat="46.0587541" lon="11.1272559" />
      <trkpt lat="46.0587512" lon="11.1272621" />
      <trkpt lat="46.0587537" lon="11.1272716" />
      <trkpt lat="46.0587722" lon="11.1273023" />
      <trkpt lat="46.0587553" lon="11.1273261" />
      <trkpt lat="46.0587476" lon="11.1273363" />
      <trkpt lat="46.0587374" lon="11.1273493" />
      <trkpt lat="46.0587263" lon="11.1273404" />
      <trkpt lat="46.0587177" lon="11.1273350" />
      <trkpt lat="46.0587038" lon="11.1273300" />
      <trkpt lat="46.0586910" lon="11.1273390" />
      <trkpt lat="46.0585513" lon="11.1275167" />
      <trkpt lat="46.0584963" lon="11.1275867" />
      <trkpt lat="46.0583989" lon="11.1277106" />
      <trkpt lat="46.0583104" lon="11.1278553" />
      <trkpt lat="46.0582812" lon="11.1279055" />
      <trkpt lat="46.0582588" lon="11.1279454" />
      <trkpt lat="46.0582249" lon="11.1279061" />
      <trkpt lat="46.0582498" lon="11.1278631" />
      <trkpt lat="46.0582768" lon="11.1278163" />
      <trkpt lat="46.0582455" lon="11.1277792" />
      <trkpt lat="46.0582429" lon="11.1277567" />
      <trkpt lat="46.0582344" lon="11.1277426" />
      <trkpt lat="46.0582202" lon="11.1277280" />
      <trkpt lat="46.0582069" lon="11.1277304" />
      <trkpt lat="46.0580642" lon="11.1278020" />
      <trkpt lat="46.0580490" lon="11.1277391" />
      <trkpt lat="46.0580303" lon="11.1276570" />
      <trkpt lat="46.0579490" lon="11.1276980" />
      <trkpt lat="46.0579287" lon="11.1276489" />
      <trkpt lat="46.0578453" lon="11.1273253" />
      <trkpt lat="46.0578382" lon="11.1273078" />
      <trkpt lat="46.0578312" lon="11.1272971" />
      <trkpt lat="46.0578201" lon="11.1272872" />
      <trkpt lat="46.0578931" lon="11.1271157" />
      <trkpt lat="46.0579140" lon="11.1270666" />
      <trkpt lat="46.0578931" lon="11.1271157" />
      <trkpt lat="46.0578201" lon="11.1272872" />
      <trkpt lat="46.0578039" lon="11.1273272" />
      <trkpt lat="46.0578094" lon="11.1273328" />
      <trkpt lat="46.0578188" lon="11.1273512" />
      <trkpt lat="46.0579096" lon="11.1277159" />
      <trkpt lat="46.0578553" lon="11.1277423" />
      <trkpt lat="46.0574651" lon="11.1279462" />
      <trkpt lat="46.0574373" lon="11.1279611" />
      <trkpt lat="46.0574029" lon="11.1279779" />
      <trkpt lat="46.0573147" lon="11.1280238" />
      <trkpt lat="46.0572026" lon="11.1280822" />
      <trkpt lat="46.0567692" lon="11.1283081" />
      <trkpt lat="46.0567373" lon="11.1283233" />
      <trkpt lat="46.0567531" lon="11.1284038" />
      <trkpt lat="46.0566926" lon="11.1284308" />
      <trkpt lat="46.0564784" lon="11.1285481" />
      <trkpt lat="46.0564888" lon="11.1285951" />
      <trkpt lat="46.0560496" lon="11.1288235" />
      <trkpt lat="46.0560329" lon="11.1288341" />
      <trkpt lat="46.0560194" lon="11.1288530" />
      <trkpt lat="46.0560080" lon="11.1288811" />
      <trkpt lat="46.0560002" lon="11.1289035" />
      <trkpt lat="46.0559915" lon="11.1289311" />
      <trkpt lat="46.0559877" lon="11.1289670" />
      <trkpt lat="46.0559862" lon="11.1289895" />
      <trkpt lat="46.0559881" lon="11.1290240" />
      <trkpt lat="46.0559427" lon="11.1290400" />
      <trkpt lat="46.0560255" lon="11.1294469" />
      <trkpt lat="46.0559624" lon="11.1294724" />
      <trkpt lat="46.0560414" lon="11.1298666" />
      <trkpt lat="46.0560350" lon="11.1299454" />
      <trkpt lat="46.0560300" lon="11.1299982" />
      <trkpt lat="46.0561947" lon="11.1308216" />
      <trkpt lat="46.0562418" lon="11.1310576" />
      <trkpt lat="46.0562457" lon="11.1310769" />
      <trkpt lat="46.0562417" lon="11.1311387" />
      <trkpt lat="46.0562235" lon="11.1311931" />
      <trkpt lat="46.0561768" lon="11.1312824" />
      <trkpt lat="46.0561267" lon="11.1313711" />
      <trkpt lat="46.0560734" lon="11.1314594" />
      <trkpt lat="46.0557914" lon="11.1319272" />
      <trkpt lat="46.0556683" lon="11.1321347" />
      <trkpt lat="46.0554786" lon="11.1324660" />
      <trkpt lat="46.0553380" lon="11.1326984" />
      <trkpt lat="46.0553103" lon="11.1326649" />
      <trkpt lat="46.0552842" lon="11.1327105" />
      <trkpt lat="46.0552128" lon="11.1328349" />
      <trkpt lat="46.0551729" lon="11.1328379" />
      <trkpt lat="46.0552128" lon="11.1328349" />
      <trkpt lat="46.0552842" lon="11.1327105" />
      <trkpt lat="46.0553103" lon="11.1326649" />
      <trkpt lat="46.0553380" lon="11.1326984" />
      <trkpt lat="46.0553711" lon="11.1327424" />
      <trkpt lat="46.0555139" lon="11.1325050" />
      <trkpt lat="46.0557099" lon="11.1321847" />
      <trkpt lat="46.0558246" lon="11.1319947" />
      <trkpt lat="46.0558337" lon="11.1319802" />
      <trkpt lat="46.0558542" lon="11.1319459" />
      <trkpt lat="46.0561161" lon="11.1315136" />
      <trkpt lat="46.0561643" lon="11.1314341" />
      <trkpt lat="46.0561730" lon="11.1314205" />
      <trkpt lat="46.0561897" lon="11.1313767" />
      <trkpt lat="46.0562111" lon="11.1313250" />
      <trkpt lat="46.0563050" lon="11.1311518" />
      <trkpt lat="46.0563086" lon="11.1311052" />
      <trkpt lat="46.0563215" lon="11.1310458" />
      <trkpt lat="46.0563309" lon="11.1310273" />
      <trkpt lat="46.0563370" lon="11.1310154" />
      <trkpt lat="46.0563500" lon="11.1310002" />
      <trkpt lat="46.0563647" lon="11.1309862" />
      <trkpt lat="46.0563210" lon="11.1308784" />
      <trkpt lat="46.0562973" lon="11.1307822" />
      <trkpt lat="46.0561212" lon="11.1299168" />
      <trkpt lat="46.0560255" lon="11.1294469" />
      <trkpt lat="46.0559624" lon="11.1294724" />
      <trkpt lat="46.0558802" lon="11.1290627" />
      <trkpt lat="46.0558737" lon="11.1290322" />
      <trkpt lat="46.0558665" lon="11.1290062" />
      <trkpt lat="46.0558522" lon="11.1289753" />
      <trkpt lat="46.0558337" lon="11.1289595" />
      <trkpt lat="46.0558133" lon="11.1289545" />
      <trkpt lat="46.0557592" lon="11.1289802" />
      <trkpt lat="46.0553581" lon="11.1291711" />
      <trkpt lat="46.0553554" lon="11.1291999" />
      <trkpt lat="46.0553145" lon="11.1293069" />
      <trkpt lat="46.0552988" lon="11.1293352" />
      <trkpt lat="46.0552780" lon="11.1293564" />
      <trkpt lat="46.0552527" lon="11.1293601" />
      <trkpt lat="46.0552277" lon="11.1293505" />
      <trkpt lat="46.0551961" lon="11.1293223" />
      <trkpt lat="46.0551766" lon="11.1293159" />
      <trkpt lat="46.0551606" lon="11.1293225" />
      <trkpt lat="46.0551431" lon="11.1293436" />
      <trkpt lat="46.0551331" lon="11.1293715" />
      <trkpt lat="46.0551314" lon="11.1294025" />
      <trkpt lat="46.0551368" lon="11.1294284" />
      <trkpt lat="46.0551466" lon="11.1294434" />
      <trkpt lat="46.0551818" lon="11.1294724" />
      <trkpt lat="46.0552010" lon="11.1294758" />
      <trkpt lat="46.0552350" lon="11.1294713" />
      <trkpt lat="46.0552690" lon="11.1294499" />
      <trkpt lat="46.0553492" lon="11.1293761" />
      <trkpt lat="46.0553894" lon="11.1293003" />
      <trkpt lat="46.0554305" lon="11.1291823" />
      <trkpt lat="46.0555219" lon="11.1289017" />
      <trkpt lat="46.0555331" lon="11.1288649" />
      <trkpt lat="46.0555369" lon="11.1288428" />
      <trkpt lat="46.0555339" lon="11.1288260" />
      <trkpt lat="46.0555273" lon="11.1288142" />
      <trkpt lat="46.0555197" lon="11.1288065" />
      <trkpt lat="46.0554817" lon="11.1287812" />
      <trkpt lat="46.0554888" lon="11.1287589" />
      <trkpt lat="46.0555381" lon="11.1286034" />
      <trkpt lat="46.0555808" lon="11.1284427" />
      <trkpt lat="46.0556197" lon="11.1282672" />
      <trkpt lat="46.0556474" lon="11.1281385" />
      <trkpt lat="46.0556743" lon="11.1279721" />
      <trkpt lat="46.0556880" lon="11.1278384" />
      <trkpt lat="46.0557048" lon="11.1276574" />
      <trkpt lat="46.0557131" lon="11.1274493" />
      <trkpt lat="46.0557108" lon="11.1272068" />
      <trkpt lat="46.0557023" lon="11.1270010" />
      <trkpt lat="46.0556939" lon="11.1269170" />
      <trkpt lat="46.0556328" lon="11.1269196" />
      <trkpt lat="46.0555263" lon="11.1267828" />
      <trkpt lat="46.0554870" lon="11.1266405" />
      <trkpt lat="46.0554520" lon="11.1265437" />
      <trkpt lat="46.0553833" lon="11.1264077" />
      <trkpt lat="46.0552172" lon="11.1260994" />
      <trkpt lat="46.0551463" lon="11.1259137" />
      <trkpt lat="46.0550657" lon="11.1253995" />
      <trkpt lat="46.0550465" lon="11.1253238" />
      <trkpt lat="46.0549484" lon="11.1248430" />
      <trkpt lat="46.0548935" lon="11.1246587" />
      <trkpt lat="46.0547878" lon="11.1243878" />
      <trkpt lat="46.0546784" lon="11.1241151" />
      <trkpt lat="46.0545585" lon="11.1238530" />
      <trkpt lat="46.0543956" lon="11.1235183" />
      <trkpt lat="46.0543094" lon="11.1233485" />
      <trkpt lat="46.0542051" lon="11.1231369" />
      <trkpt lat="46.0541649" lon="11.1231008" />
      <trkpt lat="46.0541228" lon="11.1230209" />
      <trkpt lat="46.0541058" lon="11.1230279" />
      <trkpt lat="46.0540823" lon="11.1230396" />
      <trkpt lat="46.0540637" lon="11.1230532" />
      <trkpt lat="46.0540198" lon="11.1230010" />
      <trkpt lat="46.0539187" lon="11.1231951" />
      <trkpt lat="46.0538881" lon="11.1232311" />
      <trkpt lat="46.0538132" lon="11.1232609" />
      <trkpt lat="46.0537074" lon="11.1232755" />
      <trkpt lat="46.0533338" lon="11.1232763" />
      <trkpt lat="46.0531645" lon="11.1232767" />
      <trkpt lat="46.0527693" lon="11.1232757" />
      <trkpt lat="46.0525473" lon="11.1232751" />
      <trkpt lat="46.0525300" lon="11.1232751" />
      <trkpt lat="46.0524933" lon="11.1232859" />
      <trkpt lat="46.0524750" lon="11.1232929" />
      <trkpt lat="46.0524421" lon="11.1233056" />
      <trkpt lat="46.0524184" lon="11.1232858" />
      <trkpt lat="46.0523924" lon="11.1232662" />
      <trkpt lat="46.0521751" lon="11.1232617" />
      <trkpt lat="46.0518997" lon="11.1232729" />
      <trkpt lat="46.0518326" lon="11.1232618" />
      <trkpt lat="46.0518473" lon="11.1232334" />
      <trkpt lat="46.0518925" lon="11.1232376" />
      <trkpt lat="46.0524649" lon="11.1232443" />
      <trkpt lat="46.0524788" lon="11.1232380" />
      <trkpt lat="46.0524968" lon="11.1232286" />
      <trkpt lat="46.0525354" lon="11.1232264" />
      <trkpt lat="46.0525909" lon="11.1232233" />
      <trkpt lat="46.0531617" lon="11.1232155" />
      <trkpt lat="46.0531435" lon="11.1228213" />
      <trkpt lat="46.0531960" lon="11.1228229" />
      <trkpt lat="46.0532055" lon="11.1223457" />
      <trkpt lat="46.0531243" lon="11.1223440" />
      <trkpt lat="46.0531225" lon="11.1222988" />
      <trkpt lat="46.0531300" lon="11.1222514" />
      <trkpt lat="46.0531897" lon="11.1221755" />
      <trkpt lat="46.0532109" lon="11.1221654" />
      <trkpt lat="46.0532505" lon="11.1222005" />
      <trkpt lat="46.0533438" lon="11.1222898" />
      <trkpt lat="46.0534547" lon="11.1224028" />
      <trkpt lat="46.0535712" lon="11.1225220" />
      <trkpt lat="46.0538053" lon="11.1227679" />
      <trkpt lat="46.0538645" lon="11.1228306" />
      <trkpt lat="46.0539236" lon="11.1228860" />
      <trkpt lat="46.0539603" lon="11.1229174" />
      <trkpt lat="46.0539821" lon="11.1229536" />
      <trkpt lat="46.0540198" lon="11.1230010" />
      <trkpt lat="46.0540637" lon="11.1230532" />
      <trkpt lat="46.0540823" lon="11.1230396" />
      <trkpt lat="46.0541058" lon="11.1230279" />
      <trkpt lat="46.0541228" lon="11.1230209" />
      <trkpt lat="46.0541649" lon="11.1231008" />
      <trkpt lat="46.0542051" lon="11.1231369" />
      <trkpt lat="46.0543094" lon="11.1233485" />
      <trkpt lat="46.0543956" lon="11.1235183" />
      <trkpt lat="46.0545585" lon="11.1238530" />
      <trkpt lat="46.0546784" lon="11.1241151" />
      <trkpt lat="46.0547878" lon="11.1243878" />
      <trkpt lat="46.0548935" lon="11.1246587" />
      <trkpt lat="46.0549484" lon="11.1248430" />
      <trkpt lat="46.0550465" lon="11.1253238" />
      <trkpt lat="46.0550657" lon="11.1253995" />
      <trkpt lat="46.0551463" lon="11.1259137" />
      <trkpt lat="46.0550657" lon="11.1253995" />
      <trkpt lat="46.0550465" lon="11.1253238" />
      <trkpt lat="46.0549484" lon="11.1248430" />
      <trkpt lat="46.0548935" lon="11.1246587" />
      <trkpt lat="46.0547878" lon="11.1243878" />
      <trkpt lat="46.0546784" lon="11.1241151" />
      <trkpt lat="46.0545585" lon="11.1238530" />
      <trkpt lat="46.0543956" lon="11.1235183" />
      <trkpt lat="46.0544725" lon="11.1231972" />
      <trkpt lat="46.0544845" lon="11.1231471" />
      <trkpt lat="46.0544094" lon="11.1230800" />
      <trkpt lat="46.0542956" lon="11.1229922" />
      <trkpt lat="46.0542326" lon="11.1229638" />
      <trkpt lat="46.0541701" lon="11.1229506" />
      <trkpt lat="46.0541169" lon="11.1229441" />
      <trkpt lat="46.0540638" lon="11.1229293" />
      <trkpt lat="46.0540236" lon="11.1229089" />
      <trkpt lat="46.0539668" lon="11.1228709" />
      <trkpt lat="46.0538335" lon="11.1227413" />
      <trkpt lat="46.0536362" lon="11.1225401" />
      <trkpt lat="46.0533007" lon="11.1221913" />
      <trkpt lat="46.0532523" lon="11.1221425" />
      <trkpt lat="46.0531155" lon="11.1220216" />
      <trkpt lat="46.0529398" lon="11.1218719" />
      <trkpt lat="46.0527246" lon="11.1217060" />
      <trkpt lat="46.0526817" lon="11.1216740" />
      <trkpt lat="46.0526689" lon="11.1216645" />
      <trkpt lat="46.0526806" lon="11.1216301" />
      <trkpt lat="46.0527616" lon="11.1214065" />
      <trkpt lat="46.0527714" lon="11.1213796" />
      <trkpt lat="46.0527848" lon="11.1213421" />
      <trkpt lat="46.0528103" lon="11.1212554" />
      <trkpt lat="46.0528263" lon="11.1211766" />
      <trkpt lat="46.0528373" lon="11.1210849" />
      <trkpt lat="46.0528388" lon="11.1209198" />
      <trkpt lat="46.0528342" lon="11.1207970" />
      <trkpt lat="46.0528256" lon="11.1205494" />
      <trkpt lat="46.0528156" lon="11.1204424" />
      <trkpt lat="46.0528086" lon="11.1203455" />
      <trkpt lat="46.0527962" lon="11.1202378" />
      <trkpt lat="46.0528122" lon="11.1202332" />
      <trkpt lat="46.0528282" lon="11.1202286" />
      <trkpt lat="46.0528776" lon="11.1207704" />
      <trkpt lat="46.0530980" lon="11.1207509" />
      <trkpt lat="46.0531229" lon="11.1208020" />
      <trkpt lat="46.0531835" lon="11.1207936" />
      <trkpt lat="46.0533750" lon="11.1207566" />
      <trkpt lat="46.0536486" lon="11.1206856" />
      <trkpt lat="46.0538976" lon="11.1206253" />
      <trkpt lat="46.0541256" lon="11.1205645" />
      <trkpt lat="46.0542694" lon="11.1205304" />
      <trkpt lat="46.0544118" lon="11.1204953" />
      <trkpt lat="46.0545248" lon="11.1204675" />
      <trkpt lat="46.0546024" lon="11.1204073" />
      <trkpt lat="46.0546579" lon="11.1203963" />
      <trkpt lat="46.0546569" lon="11.1203787" />
      <trkpt lat="46.0546563" lon="11.1203578" />
      <trkpt lat="46.0546718" lon="11.1203538" />
      <trkpt lat="46.0547125" lon="11.1203444" />
      <trkpt lat="46.0547062" lon="11.1202879" />
      <trkpt lat="46.0546997" lon="11.1198566" />
      <trkpt lat="46.0547055" lon="11.1197270" />
      <trkpt lat="46.0547228" lon="11.1195245" />
      <trkpt lat="46.0547648" lon="11.1192248" />
      <trkpt lat="46.0548309" lon="11.1189276" />
      <trkpt lat="46.0548902" lon="11.1187155" />
      <trkpt lat="46.0549986" lon="11.1183959" />
      <trkpt lat="46.0550231" lon="11.1183306" />
      <trkpt lat="46.0550316" lon="11.1182977" />
      <trkpt lat="46.0550571" lon="11.1183023" />
      <trkpt lat="46.0551001" lon="11.1183263" />
      <trkpt lat="46.0551468" lon="11.1183677" />
      <trkpt lat="46.0552771" lon="11.1184276" />
      <trkpt lat="46.0553645" lon="11.1184544" />
      <trkpt lat="46.0554799" lon="11.1184754" />
      <trkpt lat="46.0554826" lon="11.1184206" />
      <trkpt lat="46.0554855" lon="11.1183550" />
      <trkpt lat="46.0555594" lon="11.1183586" />
      <trkpt lat="46.0555779" lon="11.1183563" />
      <trkpt lat="46.0555032" lon="11.1177888" />
      <trkpt lat="46.0555779" lon="11.1183563" />
      <trkpt lat="46.0555594" lon="11.1183586" />
      <trkpt lat="46.0554855" lon="11.1183550" />
      <trkpt lat="46.0554826" lon="11.1184206" />
      <trkpt lat="46.0554799" lon="11.1184754" />
      <trkpt lat="46.0553645" lon="11.1184544" />
      <trkpt lat="46.0552771" lon="11.1184276" />
      <trkpt lat="46.0551468" lon="11.1183677" />
      <trkpt lat="46.0551001" lon="11.1183263" />
      <trkpt lat="46.0550571" lon="11.1183023" />
      <trkpt lat="46.0550316" lon="11.1182977" />
      <trkpt lat="46.0550231" lon="11.1183306" />
      <trkpt lat="46.0549986" lon="11.1183959" />
      <trkpt lat="46.0548902" lon="11.1187155" />
      <trkpt lat="46.0548309" lon="11.1189276" />
      <trkpt lat="46.0547648" lon="11.1192248" />
      <trkpt lat="46.0547228" lon="11.1195245" />
      <trkpt lat="46.0547055" lon="11.1197270" />
      <trkpt lat="46.0547662" lon="11.1197310" />
      <trkpt lat="46.0548931" lon="11.1197332" />
      <trkpt lat="46.0549096" lon="11.1197531" />
      <trkpt lat="46.0549155" lon="11.1197761" />
      <trkpt lat="46.0549259" lon="11.1197988" />
      <trkpt lat="46.0549392" lon="11.1198418" />
      <trkpt lat="46.0549765" lon="11.1201568" />
      <trkpt lat="46.0549903" lon="11.1202732" />
      <trkpt lat="46.0552003" lon="11.1202206" />
      <trkpt lat="46.0554116" lon="11.1201677" />
      <trkpt lat="46.0554182" lon="11.1202321" />
      <trkpt lat="46.0556392" lon="11.1201746" />
      <trkpt lat="46.0557255" lon="11.1201521" />
      <trkpt lat="46.0557860" lon="11.1201364" />
      <trkpt lat="46.0558960" lon="11.1201030" />
      <trkpt lat="46.0559815" lon="11.1200801" />
      <trkpt lat="46.0559918" lon="11.1201558" />
      <trkpt lat="46.0561027" lon="11.1201269" />
      <trkpt lat="46.0562096" lon="11.1200819" />
      <trkpt lat="46.0562987" lon="11.1200155" />
      <trkpt lat="46.0563700" lon="11.1199545" />
      <trkpt lat="46.0565401" lon="11.1198034" />
      <trkpt lat="46.0565655" lon="11.1197852" />
      <trkpt lat="46.0565870" lon="11.1197704" />
      <trkpt lat="46.0566251" lon="11.1197401" />
      <trkpt lat="46.0566613" lon="11.1196996" />
      <trkpt lat="46.0568295" lon="11.1199433" />
      <trkpt lat="46.0571362" lon="11.1198341" />
      <trkpt lat="46.0572027" lon="11.1198102" />
      <trkpt lat="46.0572398" lon="11.1197669" />
      <trkpt lat="46.0573338" lon="11.1197233" />
      <trkpt lat="46.0573449" lon="11.1197192" />
      <trkpt lat="46.0575885" lon="11.1196225" />
      <trkpt lat="46.0576636" lon="11.1196851" />
      <trkpt lat="46.0577849" lon="11.1196381" />
      <trkpt lat="46.0578301" lon="11.1196202" />
      <trkpt lat="46.0579095" lon="11.1195900" />
      <trkpt lat="46.0579310" lon="11.1195295" />
      <trkpt lat="46.0579520" lon="11.1194712" />
      <trkpt lat="46.0579751" lon="11.1194141" />
      <trkpt lat="46.0580289" lon="11.1193886" />
      <trkpt lat="46.0585235" lon="11.1191879" />
      <trkpt lat="46.0587415" lon="11.1190992" />
      <trkpt lat="46.0587263" lon="11.1190237" />
      <trkpt lat="46.0587439" lon="11.1190117" />
      <trkpt lat="46.0587557" lon="11.1189958" />
      <trkpt lat="46.0587640" lon="11.1189806" />
      <trkpt lat="46.0587747" lon="11.1189530" />
      <trkpt lat="46.0587799" lon="11.1189305" />
      <trkpt lat="46.0587823" lon="11.1188985" />
      <trkpt lat="46.0587817" lon="11.1188735" />
      <trkpt lat="46.0587801" lon="11.1188571" />
      <trkpt lat="46.0587843" lon="11.1188424" />
      <trkpt lat="46.0587989" lon="11.1188321" />
      <trkpt lat="46.0588162" lon="11.1188260" />
      <trkpt lat="46.0588447" lon="11.1188180" />
      <trkpt lat="46.0588661" lon="11.1188079" />
      <trkpt lat="46.0588731" lon="11.1188006" />
      <trkpt lat="46.0588776" lon="11.1187888" />
      <trkpt lat="46.0588847" lon="11.1187594" />
      <trkpt lat="46.0588981" lon="11.1187034" />
      <trkpt lat="46.0589314" lon="11.1187191" />
      <trkpt lat="46.0590468" lon="11.1187740" />
      <trkpt lat="46.0590368" lon="11.1186331" />
      <trkpt lat="46.0590152" lon="11.1183156" />
      <trkpt lat="46.0589982" lon="11.1180641" />
      <trkpt lat="46.0590152" lon="11.1183156" />
      <trkpt lat="46.0590368" lon="11.1186331" />
      <trkpt lat="46.0590468" lon="11.1187740" />
      <trkpt lat="46.0589314" lon="11.1187191" />
      <trkpt lat="46.0588981" lon="11.1187034" />
      <trkpt lat="46.0588847" lon="11.1187594" />
      <trkpt lat="46.0588776" lon="11.1187888" />
      <trkpt lat="46.0588731" lon="11.1188006" />
      <trkpt lat="46.0588661" lon="11.1188079" />
      <trkpt lat="46.0588447" lon="11.1188180" />
      <trkpt lat="46.0588162" lon="11.1188260" />
      <trkpt lat="46.0588278" lon="11.1188929" />
      <trkpt lat="46.0588359" lon="11.1189622" />
      <trkpt lat="46.0588399" lon="11.1190096" />
      <trkpt lat="46.0588430" lon="11.1190592" />
      <trkpt lat="46.0587796" lon="11.1192157" />
      <trkpt lat="46.0587126" lon="11.1193616" />
      <trkpt lat="46.0586524" lon="11.1195176" />
      <trkpt lat="46.0586166" lon="11.1196103" />
      <trkpt lat="46.0585802" lon="11.1195693" />
      <trkpt lat="46.0582648" lon="11.1196916" />
      <trkpt lat="46.0583323" lon="11.1200699" />
      <trkpt lat="46.0583516" lon="11.1201779" />
      <trkpt lat="46.0582091" lon="11.1202294" />
      <trkpt lat="46.0582407" lon="11.1203977" />
      <trkpt lat="46.0582823" lon="11.1206105" />
      <trkpt lat="46.0582705" lon="11.1206146" />
      <trkpt lat="46.0582555" lon="11.1206235" />
      <trkpt lat="46.0581647" lon="11.1206609" />
      <trkpt lat="46.0581494" lon="11.1206671" />
      <trkpt lat="46.0582882" lon="11.1213750" />
      <trkpt lat="46.0582936" lon="11.1213840" />
      <trkpt lat="46.0583013" lon="11.1213881" />
      <trkpt lat="46.0583172" lon="11.1213821" />
      <trkpt lat="46.0583267" lon="11.1214554" />
      <trkpt lat="46.0583365" lon="11.1215291" />
      <trkpt lat="46.0583258" lon="11.1215660" />
      <trkpt lat="46.0584851" lon="11.1223788" />
      <trkpt lat="46.0584235" lon="11.1224163" />
      <trkpt lat="46.0584341" lon="11.1224777" />
      <trkpt lat="46.0584527" lon="11.1225748" />
      <trkpt lat="46.0584623" lon="11.1226185" />
      <trkpt lat="46.0584710" lon="11.1226610" />
      <trkpt lat="46.0584528" lon="11.1226739" />
      <trkpt lat="46.0584384" lon="11.1226945" />
      <trkpt lat="46.0584296" lon="11.1227208" />
      <trkpt lat="46.0584271" lon="11.1227497" />
      <trkpt lat="46.0584313" lon="11.1227783" />
      <trkpt lat="46.0584424" lon="11.1228044" />
      <trkpt lat="46.0584589" lon="11.1228235" />
      <trkpt lat="46.0584790" lon="11.1228333" />
      <trkpt lat="46.0586192" lon="11.1235598" />
      <trkpt lat="46.0587532" lon="11.1242783" />
      <trkpt lat="46.0587785" lon="11.1244138" />
      <trkpt lat="46.0588061" lon="11.1244923" />
      <trkpt lat="46.0587785" lon="11.1244138" />
      <trkpt lat="46.0587532" lon="11.1242783" />
      <trkpt lat="46.0586192" lon="11.1235598" />
      <trkpt lat="46.0584790" lon="11.1228333" />
      <trkpt lat="46.0584983" lon="11.1228333" />
      <trkpt lat="46.0585166" lon="11.1228246" />
      <trkpt lat="46.0585321" lon="11.1228081" />
      <trkpt lat="46.0585434" lon="11.1227855" />
      <trkpt lat="46.0585492" lon="11.1227590" />
      <trkpt lat="46.0585490" lon="11.1227312" />
      <trkpt lat="46.0586033" lon="11.1227148" />
      <trkpt lat="46.0586257" lon="11.1227069" />
      <trkpt lat="46.0591658" lon="11.1224884" />
      <trkpt lat="46.0595564" lon="11.1223304" />
      <trkpt lat="46.0600435" lon="11.1221392" />
      <trkpt lat="46.0601709" lon="11.1220652" />
      <trkpt lat="46.0602974" lon="11.1220154" />
      <trkpt lat="46.0603626" lon="11.1219916" />
      <trkpt lat="46.0604187" lon="11.1219731" />
      <trkpt lat="46.0607096" lon="11.1218637" />
      <trkpt lat="46.0607979" lon="11.1218270" />
      <trkpt lat="46.0608533" lon="11.1218096" />
      <trkpt lat="46.0609143" lon="11.1217977" />
      <trkpt lat="46.0610024" lon="11.1217844" />
      <trkpt lat="46.0611718" lon="11.1217622" />
      <trkpt lat="46.0614464" lon="11.1217229" />
      <trkpt lat="46.0615861" lon="11.1217028" />
      <trkpt lat="46.0618911" lon="11.1216643" />
      <trkpt lat="46.0620871" lon="11.1216487" />
      <trkpt lat="46.0621300" lon="11.1216464" />
      <trkpt lat="46.0621711" lon="11.1216454" />
      <trkpt lat="46.0624410" lon="11.1216302" />
      <trkpt lat="46.0624505" lon="11.1216299" />
      <trkpt lat="46.0627290" lon="11.1216188" />
      <trkpt lat="46.0627849" lon="11.1216219" />
      <trkpt lat="46.0630008" lon="11.1216637" />
      <trkpt lat="46.0630750" lon="11.1216781" />
      <trkpt lat="46.0630769" lon="11.1218013" />
      <trkpt lat="46.0630900" lon="11.1222821" />
      <trkpt lat="46.0627589" lon="11.1223336" />
      <trkpt lat="46.0630900" lon="11.1222821" />
      <trkpt lat="46.0630769" lon="11.1218013" />
      <trkpt lat="46.0630750" lon="11.1216781" />
      <trkpt lat="46.0631413" lon="11.1216906" />
      <trkpt lat="46.0631477" lon="11.1216227" />
      <trkpt lat="46.0632278" lon="11.1216364" />
      <trkpt lat="46.0633050" lon="11.1216496" />
      <trkpt lat="46.0633774" lon="11.1216566" />
      <trkpt lat="46.0634195" lon="11.1216577" />
      <trkpt lat="46.0634593" lon="11.1216575" />
      <trkpt lat="46.0635139" lon="11.1216504" />
      <trkpt lat="46.0635818" lon="11.1216364" />
      <trkpt lat="46.0636714" lon="11.1216187" />
      <trkpt lat="46.0636896" lon="11.1216097" />
      <trkpt lat="46.0637031" lon="11.1215969" />
      <trkpt lat="46.0636553" lon="11.1208975" />
      <trkpt lat="46.0636534" lon="11.1208697" />
      <trkpt lat="46.0636517" lon="11.1208449" />
      <trkpt lat="46.0636186" lon="11.1203657" />
      <trkpt lat="46.0636517" lon="11.1208449" />
      <trkpt lat="46.0636534" lon="11.1208697" />
      <trkpt lat="46.0636553" lon="11.1208975" />
      <trkpt lat="46.0637031" lon="11.1215969" />
      <trkpt lat="46.0636896" lon="11.1216097" />
      <trkpt lat="46.0636714" lon="11.1216187" />
      <trkpt lat="46.0635818" lon="11.1216364" />
      <trkpt lat="46.0635139" lon="11.1216504" />
      <trkpt lat="46.0634593" lon="11.1216575" />
      <trkpt lat="46.0634195" lon="11.1216577" />
      <trkpt lat="46.0633774" lon="11.1216566" />
      <trkpt lat="46.0633050" lon="11.1216496" />
      <trkpt lat="46.0632278" lon="11.1216364" />
      <trkpt lat="46.0631477" lon="11.1216227" />
      <trkpt lat="46.0630001" lon="11.1215975" />
      <trkpt lat="46.0631477" lon="11.1216227" />
      <trkpt lat="46.0632278" lon="11.1216364" />
      <trkpt lat="46.0633050" lon="11.1216496" />
      <trkpt lat="46.0633774" lon="11.1216566" />
      <trkpt lat="46.0634195" lon="11.1216577" />
      <trkpt lat="46.0634593" lon="11.1216575" />
      <trkpt lat="46.0635139" lon="11.1216504" />
      <trkpt lat="46.0635818" lon="11.1216364" />
      <trkpt lat="46.0636714" lon="11.1216187" />
      <trkpt lat="46.0636896" lon="11.1216097" />
      <trkpt lat="46.0637031" lon="11.1215969" />
      <trkpt lat="46.0636896" lon="11.1216097" />
      <trkpt lat="46.0636714" lon="11.1216187" />
      <trkpt lat="46.0635818" lon="11.1216364" />
      <trkpt lat="46.0635139" lon="11.1216504" />
      <trkpt lat="46.0634593" lon="11.1216575" />
      <trkpt lat="46.0634195" lon="11.1216577" />
      <trkpt lat="46.0633774" lon="11.1216566" />
      <trkpt lat="46.0633050" lon="11.1216496" />
      <trkpt lat="46.0632278" lon="11.1216364" />
      <trkpt lat="46.0631477" lon="11.1216227" />
      <trkpt lat="46.0630001" lon="11.1215975" />
      <trkpt lat="46.0629289" lon="11.1215853" />
      <trkpt lat="46.0627951" lon="11.1215618" />
      <trkpt lat="46.0627006" lon="11.1215547" />
      <trkpt lat="46.0625750" lon="11.1215615" />
      <trkpt lat="46.0624493" lon="11.1215682" />
      <trkpt lat="46.0623301" lon="11.1215741" />
      <trkpt lat="46.0621585" lon="11.1215817" />
      <trkpt lat="46.0621261" lon="11.1215832" />
      <trkpt lat="46.0621128" lon="11.1215839" />
      <trkpt lat="46.0620860" lon="11.1215857" />
      <trkpt lat="46.0615823" lon="11.1216393" />
      <trkpt lat="46.0614434" lon="11.1216616" />
      <trkpt lat="46.0612400" lon="11.1216885" />
      <trkpt lat="46.0611813" lon="11.1216975" />
      <trkpt lat="46.0611687" lon="11.1216954" />
      <trkpt lat="46.0611545" lon="11.1216797" />
      <trkpt lat="46.0611390" lon="11.1216574" />
      <trkpt lat="46.0611287" lon="11.1216495" />
      <trkpt lat="46.0611102" lon="11.1216475" />
      <trkpt lat="46.0608566" lon="11.1216842" />
      <trkpt lat="46.0608331" lon="11.1216985" />
      <trkpt lat="46.0608049" lon="11.1217554" />
      <trkpt lat="46.0607888" lon="11.1217712" />
      <trkpt lat="46.0607618" lon="11.1217879" />
      <trkpt lat="46.0604380" lon="11.1219129" />
      <trkpt lat="46.0604081" lon="11.1219179" />
      <trkpt lat="46.0603740" lon="11.1219057" />
      <trkpt lat="46.0603479" lon="11.1219169" />
      <trkpt lat="46.0603033" lon="11.1219351" />
      <trkpt lat="46.0602999" lon="11.1219598" />
      <trkpt lat="46.0602896" lon="11.1219745" />
      <trkpt lat="46.0595453" lon="11.1222739" />
      <trkpt lat="46.0591554" lon="11.1224311" />
      <trkpt lat="46.0591658" lon="11.1224884" />
      <trkpt lat="46.0586257" lon="11.1227069" />
      <trkpt lat="46.0586033" lon="11.1227148" />
      <trkpt lat="46.0585490" lon="11.1227312" />
      <trkpt lat="46.0585492" lon="11.1227590" />
      <trkpt lat="46.0585434" lon="11.1227855" />
      <trkpt lat="46.0585321" lon="11.1228081" />
      <trkpt lat="46.0585166" lon="11.1228246" />
      <trkpt lat="46.0584983" lon="11.1228333" />
      <trkpt lat="46.0584790" lon="11.1228333" />
      <trkpt lat="46.0584589" lon="11.1228235" />
      <trkpt lat="46.0584424" lon="11.1228044" />
      <trkpt lat="46.0584313" lon="11.1227783" />
      <trkpt lat="46.0583966" lon="11.1227975" />
      <trkpt lat="46.0583323" lon="11.1228233" />
      <trkpt lat="46.0583245" lon="11.1227860" />
      <trkpt lat="46.0583210" lon="11.1227666" />
      <trkpt lat="46.0583062" lon="11.1227608" />
      <trkpt lat="46.0575143" lon="11.1230788" />
      <trkpt lat="46.0565985" lon="11.1234466" />
      <trkpt lat="46.0564849" lon="11.1228612" />
      <trkpt lat="46.0564777" lon="11.1228251" />
      <trkpt lat="46.0564723" lon="11.1227978" />
      <trkpt lat="46.0564652" lon="11.1227617" />
      <trkpt lat="46.0564254" lon="11.1227747" />
      <trkpt lat="46.0562976" lon="11.1221360" />
      <trkpt lat="46.0562499" lon="11.1221461" />
      <trkpt lat="46.0559737" lon="11.1222044" />
      <trkpt lat="46.0559202" lon="11.1222157" />
      <trkpt lat="46.0558941" lon="11.1222222" />
      <trkpt lat="46.0558950" lon="11.1222571" />
      <trkpt lat="46.0555884" lon="11.1223038" />
      <trkpt lat="46.0554659" lon="11.1223205" />
      <trkpt lat="46.0554546" lon="11.1221474" />
      <trkpt lat="46.0554260" lon="11.1217639" />
      <trkpt lat="46.0554205" lon="11.1216848" />
      <trkpt lat="46.0553979" lon="11.1213992" />
      <trkpt lat="46.0553502" lon="11.1206663" />
      <trkpt lat="46.0553188" lon="11.1203708" />
      <trkpt lat="46.0552909" lon="11.1203807" />
      <trkpt lat="46.0549608" lon="11.1204515" />
      <trkpt lat="46.0548024" lon="11.1205048" />
      <trkpt lat="46.0547759" lon="11.1205139" />
      <trkpt lat="46.0547190" lon="11.1205260" />
      <trkpt lat="46.0547023" lon="11.1205296" />
      <trkpt lat="46.0546852" lon="11.1205333" />
      <trkpt lat="46.0546697" lon="11.1205367" />
      <trkpt lat="46.0545704" lon="11.1205562" />
      <trkpt lat="46.0544297" lon="11.1205838" />
      <trkpt lat="46.0544214" lon="11.1205854" />
      <trkpt lat="46.0543504" lon="11.1205986" />
      <trkpt lat="46.0539482" lon="11.1207201" />
      <trkpt lat="46.0539097" lon="11.1207300" />
      <trkpt lat="46.0538773" lon="11.1207384" />
      <trkpt lat="46.0531720" lon="11.1208832" />
      <trkpt lat="46.0531229" lon="11.1208020" />
      <trkpt lat="46.0528887" lon="11.1208439" />
      <trkpt lat="46.0526118" lon="11.1208941" />
      <trkpt lat="46.0525814" lon="11.1208946" />
      <trkpt lat="46.0525459" lon="11.1208837" />
      <trkpt lat="46.0525428" lon="11.1209466" />
      <trkpt lat="46.0524555" lon="11.1209353" />
      <trkpt lat="46.0523551" lon="11.1207782" />
      <trkpt lat="46.0523116" lon="11.1206099" />
      <trkpt lat="46.0522552" lon="11.1201819" />
      <trkpt lat="46.0523116" lon="11.1206099" />
      <trkpt lat="46.0523551" lon="11.1207782" />
      <trkpt lat="46.0524555" lon="11.1209353" />
      <trkpt lat="46.0525428" lon="11.1209466" />
      <trkpt lat="46.0525459" lon="11.1208837" />
      <trkpt lat="46.0525219" lon="11.1208710" />
      <trkpt lat="46.0524986" lon="11.1208467" />
      <trkpt lat="46.0524490" lon="11.1207611" />
      <trkpt lat="46.0524198" lon="11.1206985" />
      <trkpt lat="46.0523927" lon="11.1205909" />
      <trkpt lat="46.0523398" lon="11.1202135" />
      <trkpt lat="46.0523280" lon="11.1201156" />
      <trkpt lat="46.0523373" lon="11.1200132" />
      <trkpt lat="46.0523629" lon="11.1199369" />
      <trkpt lat="46.0523881" lon="11.1198667" />
      <trkpt lat="46.0524201" lon="11.1198101" />
      <trkpt lat="46.0524519" lon="11.1197707" />
      <trkpt lat="46.0524930" lon="11.1197430" />
      <trkpt lat="46.0525402" lon="11.1197316" />
      <trkpt lat="46.0525837" lon="11.1197362" />
      <trkpt lat="46.0526325" lon="11.1197580" />
      <trkpt lat="46.0527074" lon="11.1198479" />
      <trkpt lat="46.0526593" lon="11.1193149" />
      <trkpt lat="46.0526488" lon="11.1191979" />
      <trkpt lat="46.0526540" lon="11.1190961" />
      <trkpt lat="46.0526415" lon="11.1190281" />
      <trkpt lat="46.0525266" lon="11.1186378" />
      <trkpt lat="46.0524594" lon="11.1184390" />
      <trkpt lat="46.0523031" lon="11.1179764" />
      <trkpt lat="46.0522466" lon="11.1178092" />
      <trkpt lat="46.0522312" lon="11.1177412" />
      <trkpt lat="46.0522293" lon="11.1176894" />
      <trkpt lat="46.0522321" lon="11.1176336" />
      <trkpt lat="46.0522443" lon="11.1175343" />
      <trkpt lat="46.0522704" lon="11.1174923" />
      <trkpt lat="46.0522895" lon="11.1174429" />
      <trkpt lat="46.0523004" lon="11.1173887" />
      <trkpt lat="46.0523421" lon="11.1173185" />
      <trkpt lat="46.0523752" lon="11.1172654" />
      <trkpt lat="46.0524112" lon="11.1172229" />
      <trkpt lat="46.0525103" lon="11.1171376" />
      <trkpt lat="46.0526588" lon="11.1170695" />
      <trkpt lat="46.0532885" lon="11.1167806" />
      <trkpt lat="46.0532773" lon="11.1167223" />
      <trkpt lat="46.0532925" lon="11.1167143" />
      <trkpt lat="46.0532999" lon="11.1167016" />
      <trkpt lat="46.0533040" lon="11.1166840" />
      <trkpt lat="46.0533000" lon="11.1166442" />
      <trkpt lat="46.0532911" lon="11.1166123" />
      <trkpt lat="46.0532334" lon="11.1162971" />
      <trkpt lat="46.0531856" lon="11.1161463" />
      <trkpt lat="46.0532285" lon="11.1161297" />
      <trkpt lat="46.0532739" lon="11.1162915" />
      <trkpt lat="46.0533371" lon="11.1166312" />
      <trkpt lat="46.0533723" lon="11.1166184" />
      <trkpt lat="46.0533915" lon="11.1166580" />
      <trkpt lat="46.0534125" lon="11.1166701" />
      <trkpt lat="46.0534378" lon="11.1166693" />
      <trkpt lat="46.0537637" lon="11.1165517" />
      <trkpt lat="46.0538980" lon="11.1165062" />
      <trkpt lat="46.0539780" lon="11.1164903" />
      <trkpt lat="46.0543539" lon="11.1164000" />
      <trkpt lat="46.0545161" lon="11.1163681" />
      <trkpt lat="46.0546153" lon="11.1163472" />
      <trkpt lat="46.0547135" lon="11.1163279" />
      <trkpt lat="46.0549899" lon="11.1162892" />
      <trkpt lat="46.0550256" lon="11.1162831" />
      <trkpt lat="46.0550615" lon="11.1162775" />
      <trkpt lat="46.0551570" lon="11.1162732" />
      <trkpt lat="46.0551726" lon="11.1162753" />
      <trkpt lat="46.0555059" lon="11.1162220" />
      <trkpt lat="46.0555640" lon="11.1162127" />
      <trkpt lat="46.0559332" lon="11.1161645" />
      <trkpt lat="46.0564387" lon="11.1160790" />
      <trkpt lat="46.0567822" lon="11.1160338" />
      <trkpt lat="46.0572246" lon="11.1159758" />
      <trkpt lat="46.0572450" lon="11.1159689" />
      <trkpt lat="46.0572696" lon="11.1159161" />
      <trkpt lat="46.0571982" lon="11.1153312" />
      <trkpt lat="46.0572360" lon="11.1153223" />
      <trkpt lat="46.0572834" lon="11.1153113" />
      <trkpt lat="46.0572807" lon="11.1152652" />
      <trkpt lat="46.0572862" lon="11.1152365" />
      <trkpt lat="46.0573002" lon="11.1152056" />
      <trkpt lat="46.0573142" lon="11.1151938" />
      <trkpt lat="46.0573628" lon="11.1151863" />
      <trkpt lat="46.0574084" lon="11.1151807" />
      <trkpt lat="46.0574124" lon="11.1152374" />
      <trkpt lat="46.0582241" lon="11.1151208" />
      <trkpt lat="46.0583221" lon="11.1151063" />
      <trkpt lat="46.0583790" lon="11.1150491" />
      <trkpt lat="46.0584373" lon="11.1150024" />
      <trkpt lat="46.0585353" lon="11.1149430" />
      <trkpt lat="46.0587620" lon="11.1149087" />
      <trkpt lat="46.0587594" lon="11.1148608" />
      <trkpt lat="46.0591061" lon="11.1148199" />
      <trkpt lat="46.0591472" lon="11.1148142" />
      <trkpt lat="46.0591393" lon="11.1144647" />
      <trkpt lat="46.0591340" lon="11.1140740" />
      <trkpt lat="46.0591315" lon="11.1139340" />
      <trkpt lat="46.0591207" lon="11.1135315" />
      <trkpt lat="46.0592298" lon="11.1135164" />
      <trkpt lat="46.0593995" lon="11.1134879" />
      <trkpt lat="46.0595687" lon="11.1134622" />
      <trkpt lat="46.0595129" lon="11.1127099" />
      <trkpt lat="46.0595011" lon="11.1125259" />
      <trkpt lat="46.0594860" lon="11.1122524" />
      <trkpt lat="46.0594812" lon="11.1121658" />
      <trkpt lat="46.0594804" lon="11.1121372" />
      <trkpt lat="46.0593801" lon="11.1106811" />
      <trkpt lat="46.0593786" lon="11.1106518" />
      <trkpt lat="46.0588364" lon="11.1106203" />
      <trkpt lat="46.0587372" lon="11.1106277" />
      <trkpt lat="46.0576678" lon="11.1104893" />
      <trkpt lat="46.0576039" lon="11.1104842" />
      <trkpt lat="46.0570523" lon="11.1104391" />
      <trkpt lat="46.0569474" lon="11.1104523" />
      <trkpt lat="46.0568297" lon="11.1104550" />
      <trkpt lat="46.0562816" lon="11.1103909" />
      <trkpt lat="46.0557334" lon="11.1103041" />
      <trkpt lat="46.0552287" lon="11.1102179" />
      <trkpt lat="46.0547259" lon="11.1101141" />
      <trkpt lat="46.0545647" lon="11.1100735" />
      <trkpt lat="46.0547259" lon="11.1101141" />
      <trkpt lat="46.0552287" lon="11.1102179" />
      <trkpt lat="46.0557334" lon="11.1103041" />
      <trkpt lat="46.0562816" lon="11.1103909" />
      <trkpt lat="46.0568297" lon="11.1104550" />
      <trkpt lat="46.0569474" lon="11.1104523" />
      <trkpt lat="46.0570523" lon="11.1104391" />
      <trkpt lat="46.0576039" lon="11.1104842" />
      <trkpt lat="46.0576678" lon="11.1104893" />
      <trkpt lat="46.0587372" lon="11.1106277" />
      <trkpt lat="46.0588364" lon="11.1106203" />
      <trkpt lat="46.0593786" lon="11.1106518" />
      <trkpt lat="46.0593801" lon="11.1106811" />
      <trkpt lat="46.0594804" lon="11.1121372" />
      <trkpt lat="46.0594812" lon="11.1121658" />
      <trkpt lat="46.0594860" lon="11.1122524" />
      <trkpt lat="46.0595011" lon="11.1125259" />
      <trkpt lat="46.0594765" lon="11.1125262" />
      <trkpt lat="46.0583952" lon="11.1124558" />
      <trkpt lat="46.0571265" lon="11.1123712" />
      <trkpt lat="46.0571223" lon="11.1124710" />
      <trkpt lat="46.0571199" lon="11.1125299" />
      <trkpt lat="46.0570728" lon="11.1125301" />
      <trkpt lat="46.0570464" lon="11.1125401" />
      <trkpt lat="46.0570314" lon="11.1125551" />
      <trkpt lat="46.0570090" lon="11.1125837" />
      <trkpt lat="46.0569863" lon="11.1126337" />
      <trkpt lat="46.0569723" lon="11.1127049" />
      <trkpt lat="46.0569236" lon="11.1127116" />
      <trkpt lat="46.0568799" lon="11.1127190" />
      <trkpt lat="46.0570981" lon="11.1145176" />
      <trkpt lat="46.0571430" lon="11.1148658" />
      <trkpt lat="46.0571608" lon="11.1150138" />
      <trkpt lat="46.0571982" lon="11.1153312" />
      <trkpt lat="46.0572696" lon="11.1159161" />
      <trkpt lat="46.0572450" lon="11.1159689" />
      <trkpt lat="46.0572246" lon="11.1159758" />
      <trkpt lat="46.0572450" lon="11.1159689" />
      <trkpt lat="46.0572696" lon="11.1159161" />
      <trkpt lat="46.0571982" lon="11.1153312" />
      <trkpt lat="46.0571608" lon="11.1150138" />
      <trkpt lat="46.0571978" lon="11.1150050" />
      <trkpt lat="46.0571895" lon="11.1149335" />
      <trkpt lat="46.0572287" lon="11.1149243" />
      <trkpt lat="46.0571890" lon="11.1145845" />
      <trkpt lat="46.0571920" lon="11.1145837" />
      <trkpt lat="46.0571965" lon="11.1145823" />
      <trkpt lat="46.0572441" lon="11.1145685" />
      <trkpt lat="46.0572723" lon="11.1149137" />
      <trkpt lat="46.0572367" lon="11.1149224" />
      <trkpt lat="46.0572287" lon="11.1149243" />
      <trkpt lat="46.0572387" lon="11.1149953" />
      <trkpt lat="46.0572590" lon="11.1150231" />
      <trkpt lat="46.0572825" lon="11.1150448" />
      <trkpt lat="46.0573176" lon="11.1150518" />
      <trkpt lat="46.0573522" lon="11.1150513" />
      <trkpt lat="46.0573570" lon="11.1151119" />
      <trkpt lat="46.0573628" lon="11.1151863" />
      <trkpt lat="46.0574084" lon="11.1151807" />
      <trkpt lat="46.0574124" lon="11.1152374" />
      <trkpt lat="46.0582241" lon="11.1151208" />
      <trkpt lat="46.0583221" lon="11.1151063" />
      <trkpt lat="46.0583836" lon="11.1151144" />
      <trkpt lat="46.0588293" lon="11.1154658" />
      <trkpt lat="46.0588386" lon="11.1155073" />
      <trkpt lat="46.0590480" lon="11.1156575" />
      <trkpt lat="46.0591141" lon="11.1156763" />
      <trkpt lat="46.0592462" lon="11.1157930" />
      <trkpt lat="46.0594035" lon="11.1159070" />
      <trkpt lat="46.0596214" lon="11.1159799" />
      <trkpt lat="46.0596135" lon="11.1160344" />
      <trkpt lat="46.0596417" lon="11.1160436" />
      <trkpt lat="46.0596660" lon="11.1160623" />
      <trkpt lat="46.0596863" lon="11.1160996" />
      <trkpt lat="46.0597036" lon="11.1161407" />
      <trkpt lat="46.0597149" lon="11.1161927" />
      <trkpt lat="46.0597234" lon="11.1162671" />
      <trkpt lat="46.0597404" lon="11.1165261" />
      <trkpt lat="46.0597506" lon="11.1166640" />
      <trkpt lat="46.0597721" lon="11.1168495" />
      <trkpt lat="46.0598661" lon="11.1175765" />
      <trkpt lat="46.0599290" lon="11.1175625" />
      <trkpt lat="46.0599681" lon="11.1175538" />
      <trkpt lat="46.0599589" lon="11.1174647" />
      <trkpt lat="46.0599705" lon="11.1174622" />
      <trkpt lat="46.0600425" lon="11.1174463" />
      <trkpt lat="46.0602641" lon="11.1173954" />
      <trkpt lat="46.0602676" lon="11.1174171" />
      <trkpt lat="46.0602714" lon="11.1174376" />
      <trkpt lat="46.0602930" lon="11.1175918" />
      <trkpt lat="46.0603147" lon="11.1177458" />
      <trkpt lat="46.0602992" lon="11.1178237" />
      <trkpt lat="46.0603224" lon="11.1179016" />
      <trkpt lat="46.0603833" lon="11.1179239" />
      <trkpt lat="46.0604118" lon="11.1181814" />
      <trkpt lat="46.0604211" lon="11.1182696" />
      <trkpt lat="46.0604315" lon="11.1182626" />
      <trkpt lat="46.0604512" lon="11.1182577" />
      <trkpt lat="46.0606490" lon="11.1182300" />
      <trkpt lat="46.0609065" lon="11.1181941" />
      <trkpt lat="46.0613604" lon="11.1181774" />
      <trkpt lat="46.0613563" lon="11.1181290" />
      <trkpt lat="46.0613592" lon="11.1181240" />
      <trkpt lat="46.0613013" lon="11.1174065" />
      <trkpt lat="46.0612750" lon="11.1170808" />
      <trkpt lat="46.0613057" lon="11.1170753" />
      <trkpt lat="46.0612985" lon="11.1169094" />
      <trkpt lat="46.0613082" lon="11.1168400" />
      <trkpt lat="46.0613498" lon="11.1168295" />
      <trkpt lat="46.0614958" lon="11.1167926" />
      <trkpt lat="46.0617513" lon="11.1167507" />
      <trkpt lat="46.0618143" lon="11.1167407" />
      <trkpt lat="46.0618330" lon="11.1167644" />
      <trkpt lat="46.0621527" lon="11.1167167" />
      <trkpt lat="46.0621757" lon="11.1170371" />
      <trkpt lat="46.0626678" lon="11.1169643" />
      <trkpt lat="46.0626978" lon="11.1173313" />
      <trkpt lat="46.0627561" lon="11.1180476" />
      <trkpt lat="46.0632585" lon="11.1179655" />
      <trkpt lat="46.0633965" lon="11.1179432" />
      <trkpt lat="46.0634638" lon="11.1179318" />
      <trkpt lat="46.0635304" lon="11.1187710" />
      <trkpt lat="46.0635312" lon="11.1187812" />
      <trkpt lat="46.0635531" lon="11.1190608" />
      <trkpt lat="46.0635553" lon="11.1190891" />
      <trkpt lat="46.0635716" lon="11.1192952" />
      <trkpt lat="46.0636739" lon="11.1193765" />
      <trkpt lat="46.0638476" lon="11.1195040" />
      <trkpt lat="46.0638679" lon="11.1195140" />
      <trkpt lat="46.0639015" lon="11.1195174" />
      <trkpt lat="46.0644326" lon="11.1194103" />
      <trkpt lat="46.0648990" lon="11.1192948" />
      <trkpt lat="46.0649181" lon="11.1192900" />
      <trkpt lat="46.0649545" lon="11.1192807" />
      <trkpt lat="46.0649924" lon="11.1192729" />
      <trkpt lat="46.0649945" lon="11.1192726" />
      <trkpt lat="46.0651907" lon="11.1192425" />
      <trkpt lat="46.0652034" lon="11.1192260" />
      <trkpt lat="46.0652385" lon="11.1192116" />
      <trkpt lat="46.0652869" lon="11.1191976" />
      <trkpt lat="46.0653169" lon="11.1192084" />
      <trkpt lat="46.0653255" lon="11.1193045" />
      <trkpt lat="46.0653328" lon="11.1193958" />
      <trkpt lat="46.0658652" lon="11.1192840" />
      <trkpt lat="46.0659053" lon="11.1192886" />
      <trkpt lat="46.0659594" lon="11.1192947" />
      <trkpt lat="46.0660439" lon="11.1192766" />
      <trkpt lat="46.0660727" lon="11.1192704" />
      <trkpt lat="46.0661009" lon="11.1192643" />
      <trkpt lat="46.0665858" lon="11.1191592" />
      <trkpt lat="46.0666065" lon="11.1191557" />
      <trkpt lat="46.0666578" lon="11.1196518" />
      <trkpt lat="46.0667099" lon="11.1201551" />
      <trkpt lat="46.0667816" lon="11.1201952" />
      <trkpt lat="46.0668249" lon="11.1206182" />
      <trkpt lat="46.0668711" lon="11.1210492" />
    </trkseg>
  </trk>
</gpx>
