<?xml version="1.0" encoding="UTF-8"?>
<gpx xmlns="http://www.topografix.com/GPX/1/1" version="1.1" creator="ShapeRoute route-engine">
  <metadata>
    <name>sun 5 km · 2026-10-05</name>
    <author>
      <name>ShapeRoute route-engine</name>
    </author>
    <copyright author="OpenStreetMap contributors">
      <license>https://opendatacommons.org/licenses/odbl/1-0/</license>
    </copyright>
    <link href="https://www.openstreetmap.org/copyright">
      <text>© OpenStreetMap contributors</text>
    </link>
    <time>2026-10-05T11:12:45Z</time>
  </metadata>
  <trk>
    <name>sun 5 km · 2026-10-05</name>
    <trkseg>
      <trkpt lat="46.0668711" lon="11.1210492" />
      <trkpt lat="46.0668249" lon="11.1206182" />
      <trkpt lat="46.0670289" lon="11.1205458" />
      <trkpt lat="46.0670637" lon="11.1207156" />
      <trkpt lat="46.0670730" lon="11.1209842" />
      <trkpt lat="46.0670745" lon="11.1210291" />
      <trkpt lat="46.0673165" lon="11.1210193" />
      <trkpt lat="46.0674358" lon="11.1209903" />
      <trkpt lat="46.0675759" lon="11.1209222" />
      <trkpt lat="46.0676386" lon="11.1208917" />
      <trkpt lat="46.0677393" lon="11.1208327" />
      <trkpt lat="46.0678148" lon="11.1207864" />
      <trkpt lat="46.0678457" lon="11.1207672" />
      <trkpt lat="46.0679032" lon="11.1207116" />
      <trkpt lat="46.0681018" lon="11.1205393" />
      <trkpt lat="46.0681669" lon="11.1204445" />
      <trkpt lat="46.0682945" lon="11.1202664" />
      <trkpt lat="46.0683846" lon="11.1201435" />
      <trkpt lat="46.0684504" lon="11.1200865" />
      <trkpt lat="46.0684776" lon="11.1200039" />
      <trkpt lat="46.0685273" lon="11.1200042" />
      <trkpt lat="46.0686285" lon="11.1199921" />
      <trkpt lat="46.0685273" lon="11.1200042" />
      <trkpt lat="46.0684776" lon="11.1200039" />
      <trkpt lat="46.0684504" lon="11.1200865" />
      <trkpt lat="46.0683846" lon="11.1201435" />
      <trkpt lat="46.0682945" lon="11.1202664" />
      <trkpt lat="46.0681669" lon="11.1204445" />
      <trkpt lat="46.0681018" lon="11.1205393" />
      <trkpt lat="46.0679032" lon="11.1207116" />
      <trkpt lat="46.0678457" lon="11.1207672" />
      <trkpt lat="46.0678148" lon="11.1207864" />
      <trkpt lat="46.0677393" lon="11.1208327" />
      <trkpt lat="46.0676386" lon="11.1208917" />
      <trkpt lat="46.0675759" lon="11.1209222" />
      <trkpt lat="46.0674358" lon="11.1209903" />
      <trkpt lat="46.0673165" lon="11.1210193" />
      <trkpt lat="46.0673167" lon="11.1210020" />
      <trkpt lat="46.0673093" lon="11.1209091" />
      <trkpt lat="46.0672915" lon="11.1207253" />
      <trkpt lat="46.0672643" lon="11.1204667" />
      <trkpt lat="46.0671281" lon="11.1204977" />
      <trkpt lat="46.0670559" lon="11.1205068" />
      <trkpt lat="46.0670444" lon="11.1205090" />
      <trkpt lat="46.0670289" lon="11.1205458" />
      <trkpt lat="46.0668249" lon="11.1206182" />
      <trkpt lat="46.0667620" lon="11.1206367" />
      <trkpt lat="46.0665892" lon="11.1206805" />
      <trkpt lat="46.0666026" lon="11.1208775" />
      <trkpt lat="46.0666107" lon="11.1209955" />
      <trkpt lat="46.0666115" lon="11.1210169" />
      <trkpt lat="46.0666602" lon="11.1210169" />
      <trkpt lat="46.0667526" lon="11.1210542" />
      <trkpt lat="46.0667024" lon="11.1213629" />
      <trkpt lat="46.0666701" lon="11.1215352" />
      <trkpt lat="46.0666789" lon="11.1217092" />
      <trkpt lat="46.0667274" lon="11.1218448" />
      <trkpt lat="46.0667304" lon="11.1218751" />
      <trkpt lat="46.0667697" lon="11.1219637" />
      <trkpt lat="46.0668675" lon="11.1221842" />
      <trkpt lat="46.0668704" lon="11.1222043" />
      <trkpt lat="46.0668726" lon="11.1222251" />
      <trkpt lat="46.0667963" lon="11.1222541" />
      <trkpt lat="46.0667787" lon="11.1222601" />
      <trkpt lat="46.0667357" lon="11.1222747" />
      <trkpt lat="46.0667414" lon="11.1223091" />
      <trkpt lat="46.0667532" lon="11.1223909" />
      <trkpt lat="46.0667715" lon="11.1225101" />
      <trkpt lat="46.0667729" lon="11.1225194" />
      <trkpt lat="46.0667810" lon="11.1225726" />
      <trkpt lat="46.0668548" lon="11.1230552" />
      <trkpt lat="46.0668872" lon="11.1232848" />
      <trkpt lat="46.0668905" lon="11.1233334" />
      <trkpt lat="46.0668986" lon="11.1233290" />
      <trkpt lat="46.0669188" lon="11.1233181" />
      <trkpt lat="46.0669670" lon="11.1232923" />
      <trkpt lat="46.0672635" lon="11.1232024" />
      <trkpt lat="46.0672653" lon="11.1232368" />
      <trkpt lat="46.0672686" lon="11.1232351" />
      <trkpt lat="46.0672810" lon="11.1232291" />
      <trkpt lat="46.0672821" lon="11.1232581" />
      <trkpt lat="46.0672873" lon="11.1232576" />
      <trkpt lat="46.0673011" lon="11.1232564" />
      <trkpt lat="46.0673146" lon="11.1232553" />
      <trkpt lat="46.0673183" lon="11.1232550" />
      <trkpt lat="46.0673371" lon="11.1232534" />
      <trkpt lat="46.0674008" lon="11.1232483" />
      <trkpt lat="46.0674156" lon="11.1232472" />
      <trkpt lat="46.0676659" lon="11.1232331" />
      <trkpt lat="46.0677631" lon="11.1232283" />
      <trkpt lat="46.0678077" lon="11.1232267" />
      <trkpt lat="46.0678142" lon="11.1235709" />
      <trkpt lat="46.0680250" lon="11.1235503" />
      <trkpt lat="46.0682343" lon="11.1235128" />
      <trkpt lat="46.0682565" lon="11.1234891" />
      <trkpt lat="46.0682805" lon="11.1238337" />
      <trkpt lat="46.0682827" lon="11.1238602" />
      <trkpt lat="46.0683326" lon="11.1238591" />
      <trkpt lat="46.0683961" lon="11.1238875" />
      <trkpt lat="46.0684313" lon="11.1239546" />
      <trkpt lat="46.0684440" lon="11.1241152" />
      <trkpt lat="46.0684454" lon="11.1242006" />
      <trkpt lat="46.0686231" lon="11.1241965" />
      <trkpt lat="46.0687049" lon="11.1242006" />
      <trkpt lat="46.0688347" lon="11.1242209" />
      <trkpt lat="46.0689066" lon="11.1242371" />
      <trkpt lat="46.0690279" lon="11.1242737" />
      <trkpt lat="46.0691991" lon="11.1243279" />
      <trkpt lat="46.0693021" lon="11.1243614" />
      <trkpt lat="46.0691991" lon="11.1243279" />
      <trkpt lat="46.0690279" lon="11.1242737" />
      <trkpt lat="46.0689066" lon="11.1242371" />
      <trkpt lat="46.0688347" lon="11.1242209" />
      <trkpt lat="46.0687049" lon="11.1242006" />
      <trkpt lat="46.0686231" lon="11.1241965" />
      <trkpt lat="46.0684454" lon="11.1242006" />
      <trkpt lat="46.0684440" lon="11.1241152" />
      <trkpt lat="46.0684313" lon="11.1239546" />
      <trkpt lat="46.0683961" lon="11.1238875" />
      <trkpt lat="46.0683326" lon="11.1238591" />
      <trkpt lat="46.0682827" lon="11.1238602" />
      <trkpt lat="46.0680942" lon="11.1238875" />
      <trkpt lat="46.0678422" lon="11.1239573" />
      <trkpt lat="46.0675978" lon="11.1240257" />
      <trkpt lat="46.0675213" lon="11.1240292" />
      <trkpt lat="46.0675978" lon="11.1240257" />
      <trkpt lat="46.0678422" lon="11.1239573" />
      <trkpt lat="46.0678400" lon="11.1239294" />
      <trkpt lat="46.0678397" lon="11.1239254" />
      <trkpt lat="46.0678150" lon="11.1236046" />
      <trkpt lat="46.0678148" lon="11.1236019" />
      <trkpt lat="46.0678142" lon="11.1235709" />
      <trkpt lat="46.0678077" lon="11.1232267" />
      <trkpt lat="46.0677631" lon="11.1232283" />
      <trkpt lat="46.0676659" lon="11.1232331" />
      <trkpt lat="46.0674156" lon="11.1232472" />
      <trkpt lat="46.0674008" lon="11.1232483" />
      <trkpt lat="46.0673371" lon="11.1232534" />
      <trkpt lat="46.0673183" lon="11.1232550" />
      <trkpt lat="46.0673146" lon="11.1232553" />
      <trkpt lat="46.0673011" lon="11.1232564" />
      <trkpt lat="46.0672873" lon="11.1232576" />
      <trkpt lat="46.0672821" lon="11.1232581" />
      <trkpt lat="46.0672847" lon="11.1233272" />
      <trkpt lat="46.0672949" lon="11.1236000" />
      <trkpt lat="46.0672843" lon="11.1236027" />
      <trkpt lat="46.0672766" lon="11.1236046" />
      <trkpt lat="46.0672770" lon="11.1236362" />
      <trkpt lat="46.0672773" lon="11.1236703" />
      <trkpt lat="46.0672835" lon="11.1236687" />
      <trkpt lat="46.0672953" lon="11.1236656" />
      <trkpt lat="46.0672974" lon="11.1236820" />
      <trkpt lat="46.0673423" lon="11.1240359" />
      <trkpt lat="46.0673490" lon="11.1240885" />
      <trkpt lat="46.0671006" lon="11.1241540" />
      <trkpt lat="46.0671042" lon="11.1241841" />
      <trkpt lat="46.0671085" lon="11.1242194" />
      <trkpt lat="46.0670867" lon="11.1242261" />
      <trkpt lat="46.0671291" lon="11.1248045" />
      <trkpt lat="46.0671577" lon="11.1249223" />
      <trkpt lat="46.0671883" lon="11.1251108" />
      <trkpt lat="46.0672104" lon="11.1253055" />
      <trkpt lat="46.0672112" lon="11.1253651" />
      <trkpt lat="46.0671801" lon="11.1253736" />
      <trkpt lat="46.0671955" lon="11.1255186" />
      <trkpt lat="46.0672169" lon="11.1256572" />
      <trkpt lat="46.0672654" lon="11.1262921" />
      <trkpt lat="46.0672389" lon="11.1262953" />
      <trkpt lat="46.0671660" lon="11.1262902" />
      <trkpt lat="46.0671498" lon="11.1263455" />
      <trkpt lat="46.0671169" lon="11.1262975" />
      <trkpt lat="46.0670185" lon="11.1262405" />
      <trkpt lat="46.0669662" lon="11.1262102" />
      <trkpt lat="46.0669358" lon="11.1261933" />
      <trkpt lat="46.0669026" lon="11.1261742" />
      <trkpt lat="46.0668746" lon="11.1261547" />
      <trkpt lat="46.0668475" lon="11.1261226" />
      <trkpt lat="46.0668298" lon="11.1260895" />
      <trkpt lat="46.0668168" lon="11.1260502" />
      <trkpt lat="46.0668092" lon="11.1259960" />
      <trkpt lat="46.0668109" lon="11.1259490" />
      <trkpt lat="46.0667623" lon="11.1259229" />
      <trkpt lat="46.0668109" lon="11.1259490" />
      <trkpt lat="46.0668092" lon="11.1259960" />
      <trkpt lat="46.0668168" lon="11.1260502" />
      <trkpt lat="46.0668298" lon="11.1260895" />
      <trkpt lat="46.0668475" lon="11.1261226" />
      <trkpt lat="46.0668746" lon="11.1261547" />
      <trkpt lat="46.0669026" lon="11.1261742" />
      <trkpt lat="46.0669358" lon="11.1261933" />
      <trkpt lat="46.0669662" lon="11.1262102" />
      <trkpt lat="46.0670185" lon="11.1262405" />
      <trkpt lat="46.0671169" lon="11.1262975" />
      <trkpt lat="46.0671498" lon="11.1263455" />
      <trkpt lat="46.0671303" lon="11.1264120" />
      <trkpt lat="46.0671142" lon="11.1264672" />
      <trkpt lat="46.0671094" lon="11.1264834" />
      <trkpt lat="46.0670913" lon="11.1265454" />
      <trkpt lat="46.0671094" lon="11.1265571" />
      <trkpt lat="46.0671428" lon="11.1265958" />
      <trkpt lat="46.0671749" lon="11.1266663" />
      <trkpt lat="46.0672108" lon="11.1267545" />
      <trkpt lat="46.0672267" lon="11.1268322" />
      <trkpt lat="46.0672801" lon="11.1270417" />
      <trkpt lat="46.0672478" lon="11.1273067" />
      <trkpt lat="46.0671701" lon="11.1277728" />
      <trkpt lat="46.0671617" lon="11.1278150" />
      <trkpt lat="46.0671509" lon="11.1278684" />
      <trkpt lat="46.0671397" lon="11.1279343" />
      <trkpt lat="46.0672226" lon="11.1279648" />
      <trkpt lat="46.0672549" lon="11.1279761" />
      <trkpt lat="46.0673063" lon="11.1279940" />
      <trkpt lat="46.0672549" lon="11.1279761" />
      <trkpt lat="46.0672226" lon="11.1279648" />
      <trkpt lat="46.0671397" lon="11.1279343" />
      <trkpt lat="46.0671509" lon="11.1278684" />
      <trkpt lat="46.0671617" lon="11.1278150" />
      <trkpt lat="46.0671701" lon="11.1277728" />
      <trkpt lat="46.0672478" lon="11.1273067" />
      <trkpt lat="46.0672801" lon="11.1270417" />
      <trkpt lat="46.0672267" lon="11.1268322" />
      <trkpt lat="46.0672108" lon="11.1267545" />
      <trkpt lat="46.0671749" lon="11.1266663" />
      <trkpt lat="46.0671428" lon="11.1265958" />
      <trkpt lat="46.0671094" lon="11.1265571" />
      <trkpt lat="46.0670913" lon="11.1265454" />
      <trkpt lat="46.0671094" lon="11.1264834" />
      <trkpt lat="46.0671142" lon="11.1264672" />
      <trkpt lat="46.0671303" lon="11.1264120" />
      <trkpt lat="46.0671498" lon="11.1263455" />
      <trkpt lat="46.0671169" lon="11.1262975" />
      <trkpt lat="46.0670185" lon="11.1262405" />
      <trkpt lat="46.0669662" lon="11.1262102" />
      <trkpt lat="46.0669358" lon="11.1261933" />
      <trkpt lat="46.0669026" lon="11.1261742" />
      <trkpt lat="46.0668746" lon="11.1261547" />
      <trkpt lat="46.0668475" lon="11.1261226" />
      <trkpt lat="46.0668298" lon="11.1260895" />
      <trkpt lat="46.0668168" lon="11.1260502" />
      <trkpt lat="46.0668092" lon="11.1259960" />
      <trkpt lat="46.0668109" lon="11.1259490" />
      <trkpt lat="46.0667623" lon="11.1259229" />
      <trkpt lat="46.0665128" lon="11.1257710" />
      <trkpt lat="46.0665218" lon="11.1260084" />
      <trkpt lat="46.0662258" lon="11.1258198" />
      <trkpt lat="46.0661835" lon="11.1257896" />
      <trkpt lat="46.0660046" lon="11.1256384" />
      <trkpt lat="46.0659888" lon="11.1256911" />
      <trkpt lat="46.0659575" lon="11.1257955" />
      <trkpt lat="46.0659342" lon="11.1258733" />
      <trkpt lat="46.0655998" lon="11.1256905" />
      <trkpt lat="46.0655916" lon="11.1257217" />
      <trkpt lat="46.0655362" lon="11.1256947" />
      <trkpt lat="46.0654740" lon="11.1256631" />
      <trkpt lat="46.0654903" lon="11.1255918" />
      <trkpt lat="46.0655076" lon="11.1255147" />
      <trkpt lat="46.0655181" lon="11.1254365" />
      <trkpt lat="46.0655188" lon="11.1253824" />
      <trkpt lat="46.0655140" lon="11.1253194" />
      <trkpt lat="46.0655045" lon="11.1252531" />
      <trkpt lat="46.0654839" lon="11.1251848" />
      <trkpt lat="46.0654602" lon="11.1251344" />
      <trkpt lat="46.0654350" lon="11.1250901" />
      <trkpt lat="46.0653855" lon="11.1249879" />
      <trkpt lat="46.0653514" lon="11.1249254" />
      <trkpt lat="46.0653182" lon="11.1248697" />
      <trkpt lat="46.0653241" lon="11.1248073" />
      <trkpt lat="46.0649462" lon="11.1246980" />
      <trkpt lat="46.0649069" lon="11.1246865" />
      <trkpt lat="46.0648934" lon="11.1247616" />
      <trkpt lat="46.0648439" lon="11.1247453" />
      <trkpt lat="46.0646625" lon="11.1257693" />
      <trkpt lat="46.0647192" lon="11.1257905" />
      <trkpt lat="46.0647134" lon="11.1258264" />
      <trkpt lat="46.0644047" lon="11.1277363" />
      <trkpt lat="46.0643624" lon="11.1277123" />
      <trkpt lat="46.0643459" lon="11.1277844" />
      <trkpt lat="46.0643297" lon="11.1278550" />
      <trkpt lat="46.0643429" lon="11.1278623" />
      <trkpt lat="46.0642108" lon="11.1286521" />
      <trkpt lat="46.0642053" lon="11.1286852" />
      <trkpt lat="46.0641991" lon="11.1287220" />
      <trkpt lat="46.0641830" lon="11.1288156" />
      <trkpt lat="46.0641796" lon="11.1288366" />
      <trkpt lat="46.0641733" lon="11.1288744" />
      <trkpt lat="46.0641614" lon="11.1289482" />
      <trkpt lat="46.0641733" lon="11.1288744" />
      <trkpt lat="46.0641796" lon="11.1288366" />
      <trkpt lat="46.0641830" lon="11.1288156" />
      <trkpt lat="46.0641991" lon="11.1287220" />
      <trkpt lat="46.0642053" lon="11.1286852" />
      <trkpt lat="46.0642108" lon="11.1286521" />
      <trkpt lat="46.0643429" lon="11.1278623" />
      <trkpt lat="46.0643297" lon="11.1278550" />
      <trkpt lat="46.0643459" lon="11.1277844" />
      <trkpt lat="46.0643624" lon="11.1277123" />
      <trkpt lat="46.0644047" lon="11.1277363" />
      <trkpt lat="46.0647134" lon="11.1258264" />
      <trkpt lat="46.0646563" lon="11.1258051" />
      <trkpt lat="46.0646625" lon="11.1257693" />
      <trkpt lat="46.0646134" lon="11.1257510" />
      <trkpt lat="46.0639138" lon="11.1254909" />
      <trkpt lat="46.0637707" lon="11.1256152" />
      <trkpt lat="46.0636225" lon="11.1256866" />
      <trkpt lat="46.0635632" lon="11.1257184" />
      <trkpt lat="46.0635292" lon="11.1254811" />
      <trkpt lat="46.0635123" lon="11.1253575" />
      <trkpt lat="46.0634804" lon="11.1252652" />
      <trkpt lat="46.0634617" lon="11.1251740" />
      <trkpt lat="46.0633898" lon="11.1251884" />
      <trkpt lat="46.0632458" lon="11.1252229" />
      <trkpt lat="46.0628939" lon="11.1253262" />
      <trkpt lat="46.0627661" lon="11.1253867" />
      <trkpt lat="46.0626657" lon="11.1254516" />
      <trkpt lat="46.0624140" lon="11.1255971" />
      <trkpt lat="46.0623724" lon="11.1256237" />
      <trkpt lat="46.0623814" lon="11.1256601" />
      <trkpt lat="46.0623313" lon="11.1256875" />
      <trkpt lat="46.0622931" lon="11.1257084" />
      <trkpt lat="46.0622980" lon="11.1257316" />
      <trkpt lat="46.0622971" lon="11.1257512" />
      <trkpt lat="46.0622923" lon="11.1257732" />
      <trkpt lat="46.0622829" lon="11.1257975" />
      <trkpt lat="46.0622666" lon="11.1258210" />
      <trkpt lat="46.0617535" lon="11.1263066" />
      <trkpt lat="46.0622666" lon="11.1258210" />
      <trkpt lat="46.0622829" lon="11.1257975" />
      <trkpt lat="46.0622923" lon="11.1257732" />
      <trkpt lat="46.0622971" lon="11.1257512" />
      <trkpt lat="46.0622980" lon="11.1257316" />
      <trkpt lat="46.0622931" lon="11.1257084" />
      <trkpt lat="46.0623313" lon="11.1256875" />
      <trkpt lat="46.0623814" lon="11.1256601" />
      <trkpt lat="46.0623724" lon="11.1256237" />
      <trkpt lat="46.0624140" lon="11.1255971" />
      <trkpt lat="46.0626657" lon="11.1254516" />
      <trkpt lat="46.0627661" lon="11.1253867" />
      <trkpt lat="46.0628939" lon="11.1253262" />
      <trkpt lat="46.0632458" lon="11.1252229" />
      <trkpt lat="46.0632933" lon="11.1250292" />
      <trkpt lat="46.0633147" lon="11.1249380" />
      <trkpt lat="46.0633371" lon="11.1248642" />
      <trkpt lat="46.0633603" lon="11.1247838" />
      <trkpt lat="46.0633818" lon="11.1246976" />
      <trkpt lat="46.0633695" lon="11.1245514" />
      <trkpt lat="46.0633606" lon="11.1244626" />
      <trkpt lat="46.0633533" lon="11.1243884" />
      <trkpt lat="46.0633537" lon="11.1243526" />
      <trkpt lat="46.0633555" lon="11.1241631" />
      <trkpt lat="46.0633733" lon="11.1238494" />
      <trkpt lat="46.0633715" lon="11.1237939" />
      <trkpt lat="46.0633615" lon="11.1236802" />
      <trkpt lat="46.0633564" lon="11.1236226" />
      <trkpt lat="46.0633491" lon="11.1235396" />
      <trkpt lat="46.0633083" lon="11.1235472" />
      <trkpt lat="46.0632753" lon="11.1235553" />
      <trkpt lat="46.0632716" lon="11.1235258" />
      <trkpt lat="46.0632434" lon="11.1233313" />
      <trkpt lat="46.0631926" lon="11.1231619" />
      <trkpt lat="46.0631418" lon="11.1226600" />
      <trkpt lat="46.0630987" lon="11.1226025" />
      <trkpt lat="46.0630900" lon="11.1222821" />
      <trkpt lat="46.0630769" lon="11.1218013" />
      <trkpt lat="46.0630750" lon="11.1216781" />
      <trkpt lat="46.0630008" lon="11.1216637" />
      <trkpt lat="46.0627849" lon="11.1216219" />
      <trkpt lat="46.0627290" lon="11.1216188" />
      <trkpt lat="46.0624505" lon="11.1216299" />
      <trkpt lat="46.0624410" lon="11.1216302" />
      <trkpt lat="46.0621711" lon="11.1216454" />
      <trkpt lat="46.0621300" lon="11.1216464" />
      <trkpt lat="46.0620871" lon="11.1216487" />
      <trkpt lat="46.0618911" lon="11.1216643" />
      <trkpt lat="46.0615861" lon="11.1217028" />
      <trkpt lat="46.0614464" lon="11.1217229" />
      <trkpt lat="46.0611718" lon="11.1217622" />
      <trkpt lat="46.0610024" lon="11.1217844" />
      <trkpt lat="46.0611718" lon="11.1217622" />
      <trkpt lat="46.0614464" lon="11.1217229" />
      <trkpt lat="46.0615861" lon="11.1217028" />
      <trkpt lat="46.0618911" lon="11.1216643" />
      <trkpt lat="46.0620871" lon="11.1216487" />
      <trkpt lat="46.0621300" lon="11.1216464" />
      <trkpt lat="46.0621711" lon="11.1216454" />
      <trkpt lat="46.0624410" lon="11.1216302" />
      <trkpt lat="46.0624505" lon="11.1216299" />
      <trkpt lat="46.0627290" lon="11.1216188" />
      <trkpt lat="46.0627849" lon="11.1216219" />
      <trkpt lat="46.0630008" lon="11.1216637" />
      <trkpt lat="46.0630001" lon="11.1215975" />
      <trkpt lat="46.0631477" lon="11.1216227" />
      <trkpt lat="46.0632278" lon="11.1216364" />
      <trkpt lat="46.0633050" lon="11.1216496" />
      <trkpt lat="46.0633774" lon="11.1216566" />
      <trkpt lat="46.0634195" lon="11.1216577" />
      <trkpt lat="46.0634593" lon="11.1216575" />
      <trkpt lat="46.0635139" lon="11.1216504" />
      <trkpt lat="46.0635818" lon="11.1216364" />
      <trkpt lat="46.0636714" lon="11.1216187" />
      <trkpt lat="46.0636896" lon="11.1216097" />
      <trkpt lat="46.0637031" lon="11.1215969" />
      <trkpt lat="46.0636553" lon="11.1208975" />
      <trkpt lat="46.0636534" lon="11.1208697" />
      <trkpt lat="46.0636766" lon="11.1208667" />
      <trkpt lat="46.0637099" lon="11.1208570" />
      <trkpt lat="46.0637139" lon="11.1208908" />
      <trkpt lat="46.0639162" lon="11.1208625" />
      <trkpt lat="46.0637139" lon="11.1208908" />
      <trkpt lat="46.0637099" lon="11.1208570" />
      <trkpt lat="46.0637055" lon="11.1208128" />
      <trkpt lat="46.0636924" lon="11.1208034" />
      <trkpt lat="46.0636561" lon="11.1203133" />
      <trkpt lat="46.0636202" lon="11.1197707" />
      <trkpt lat="46.0636003" lon="11.1197751" />
      <trkpt lat="46.0635783" lon="11.1197799" />
      <trkpt lat="46.0635728" lon="11.1197002" />
      <trkpt lat="46.0635700" lon="11.1196605" />
      <trkpt lat="46.0635681" lon="11.1196328" />
      <trkpt lat="46.0635551" lon="11.1194431" />
      <trkpt lat="46.0635446" lon="11.1194350" />
      <trkpt lat="46.0635400" lon="11.1193559" />
      <trkpt lat="46.0635348" lon="11.1192660" />
      <trkpt lat="46.0635716" lon="11.1192952" />
      <trkpt lat="46.0635553" lon="11.1190891" />
      <trkpt lat="46.0635531" lon="11.1190608" />
      <trkpt lat="46.0635312" lon="11.1187812" />
      <trkpt lat="46.0635304" lon="11.1187710" />
      <trkpt lat="46.0634638" lon="11.1179318" />
      <trkpt lat="46.0633965" lon="11.1179432" />
      <trkpt lat="46.0632585" lon="11.1179655" />
      <trkpt lat="46.0633965" lon="11.1179432" />
      <trkpt lat="46.0634638" lon="11.1179318" />
      <trkpt lat="46.0635304" lon="11.1187710" />
      <trkpt lat="46.0635312" lon="11.1187812" />
      <trkpt lat="46.0635531" lon="11.1190608" />
      <trkpt lat="46.0635553" lon="11.1190891" />
      <trkpt lat="46.0635716" lon="11.1192952" />
      <trkpt lat="46.0636739" lon="11.1193765" />
      <trkpt lat="46.0638476" lon="11.1195040" />
      <trkpt lat="46.0638679" lon="11.1195140" />
      <trkpt lat="46.0639015" lon="11.1195174" />
      <trkpt lat="46.0639080" lon="11.1196074" />
      <trkpt lat="46.0639165" lon="11.1197060" />
      <trkpt lat="46.0641474" lon="11.1196563" />
      <trkpt lat="46.0641708" lon="11.1196512" />
      <trkpt lat="46.0642270" lon="11.1196399" />
      <trkpt lat="46.0642591" lon="11.1196322" />
      <trkpt lat="46.0643459" lon="11.1196135" />
      <trkpt lat="46.0643852" lon="11.1196053" />
      <trkpt lat="46.0643978" lon="11.1196024" />
      <trkpt lat="46.0644295" lon="11.1195955" />
      <trkpt lat="46.0644531" lon="11.1195906" />
      <trkpt lat="46.0644817" lon="11.1195841" />
      <trkpt lat="46.0645264" lon="11.1195740" />
      <trkpt lat="46.0646833" lon="11.1195354" />
      <trkpt lat="46.0647060" lon="11.1195298" />
      <trkpt lat="46.0647339" lon="11.1195230" />
      <trkpt lat="46.0652460" lon="11.1194078" />
      <trkpt lat="46.0652508" lon="11.1194546" />
      <trkpt lat="46.0652785" lon="11.1194480" />
      <trkpt lat="46.0653303" lon="11.1194356" />
      <trkpt lat="46.0653264" lon="11.1193970" />
      <trkpt lat="46.0653328" lon="11.1193958" />
      <trkpt lat="46.0658652" lon="11.1192840" />
      <trkpt lat="46.0659053" lon="11.1192886" />
      <trkpt lat="46.0658933" lon="11.1191867" />
      <trkpt lat="46.0658904" lon="11.1190853" />
      <trkpt lat="46.0659097" lon="11.1190706" />
      <trkpt lat="46.0659410" lon="11.1190629" />
      <trkpt lat="46.0662010" lon="11.1190100" />
      <trkpt lat="46.0665603" lon="11.1189419" />
      <trkpt lat="46.0666159" lon="11.1189281" />
      <trkpt lat="46.0664861" lon="11.1175884" />
      <trkpt lat="46.0664740" lon="11.1175211" />
      <trkpt lat="46.0664548" lon="11.1175120" />
      <trkpt lat="46.0664518" lon="11.1174437" />
      <trkpt lat="46.0664548" lon="11.1175120" />
      <trkpt lat="46.0664740" lon="11.1175211" />
      <trkpt lat="46.0664861" lon="11.1175884" />
      <trkpt lat="46.0666159" lon="11.1189281" />
      <trkpt lat="46.0665603" lon="11.1189419" />
      <trkpt lat="46.0662010" lon="11.1190100" />
      <trkpt lat="46.0659410" lon="11.1190629" />
      <trkpt lat="46.0659097" lon="11.1190706" />
      <trkpt lat="46.0658904" lon="11.1190853" />
      <trkpt lat="46.0658933" lon="11.1191867" />
      <trkpt lat="46.0659053" lon="11.1192886" />
      <trkpt lat="46.0660099" lon="11.1201785" />
      <trkpt lat="46.0660309" lon="11.1203589" />
      <trkpt lat="46.0667816" lon="11.1201952" />
      <trkpt lat="46.0668249" lon="11.1206182" />
      <trkpt lat="46.0668711" lon="11.1210492" />
    </trkseg>
  </trk>
</gpx>
