<?xml version="1.0" encoding="UTF-8"?>
<gpx xmlns="http://www.topografix.com/GPX/1/1" version="1.1" creator="ShapeRoute route-engine">
  <metadata>
    <name>smiley 15 km · 2026-10-05</name>
    <author>
      <name>ShapeRoute route-engine</name>
    </author>
    <copyright author="OpenStreetMap contributors">
      <license>https://opendatacommons.org/licenses/odbl/1-0/</license>
    </copyright>
    <link href="https://www.openstreetmap.org/copyright">
      <text>© OpenStreetMap contributors</text>
    </link>
    <time>2026-10-05T12:28:56Z</time>
  </metadata>
  <wpt lat="45.4643695" lon="9.1897716">
    <name>Pause</name>
  </wpt>
  <wpt lat="45.4611214" lon="9.1834044">
    <name>Resume</name>
  </wpt>
  <wpt lat="45.4611214" lon="9.1834044">
    <name>Pause</name>
  </wpt>
  <wpt lat="45.4583450" lon="9.1885011">
    <name>Resume</name>
  </wpt>
  <wpt lat="45.4583450" lon="9.1885011">
    <name>Pause</name>
  </wpt>
  <wpt lat="45.4522376" lon="9.1886950">
    <name>Resume</name>
  </wpt>
  <trk>
    <name>smiley 15 km · 2026-10-05</name>
    <trkseg>
      <trkpt lat="45.4643695" lon="9.1897716" />
      <trkpt lat="45.4644313" lon="9.1898582" />
      <trkpt lat="45.4644741" lon="9.1898729" />
      <trkpt lat="45.4645046" lon="9.1898833" />
      <trkpt lat="45.4645446" lon="9.1898970" />
      <trkpt lat="45.4645546" lon="9.1899005" />
      <trkpt lat="45.4645542" lon="9.1899580" />
      <trkpt lat="45.4645497" lon="9.1899580" />
      <trkpt lat="45.4645497" lon="9.1899743" />
      <trkpt lat="45.4645490" lon="9.1902933" />
      <trkpt lat="45.4645233" lon="9.1902840" />
      <trkpt lat="45.4645236" lon="9.1902631" />
      <trkpt lat="45.4645242" lon="9.1902105" />
      <trkpt lat="45.4644926" lon="9.1902113" />
      <trkpt lat="45.4644924" lon="9.1901827" />
      <trkpt lat="45.4644913" lon="9.1900241" />
      <trkpt lat="45.4644264" lon="9.1900245" />
      <trkpt lat="45.4638736" lon="9.1900090" />
      <trkpt lat="45.4638731" lon="9.1900740" />
      <trkpt lat="45.4638729" lon="9.1901285" />
      <trkpt lat="45.4639022" lon="9.1901304" />
      <trkpt lat="45.4639110" lon="9.1901309" />
      <trkpt lat="45.4639105" lon="9.1901614" />
      <trkpt lat="45.4638623" lon="9.1901606" />
      <trkpt lat="45.4638381" lon="9.1901611" />
      <trkpt lat="45.4638372" lon="9.1902606" />
      <trkpt lat="45.4637484" lon="9.1902593" />
      <trkpt lat="45.4636960" lon="9.1902610" />
      <trkpt lat="45.4636927" lon="9.1905209" />
      <trkpt lat="45.4636917" lon="9.1905498" />
      <trkpt lat="45.4636889" lon="9.1913345" />
      <trkpt lat="45.4636891" lon="9.1913495" />
      <trkpt lat="45.4636995" lon="9.1921135" />
      <trkpt lat="45.4636519" lon="9.1921174" />
      <trkpt lat="45.4636525" lon="9.1921553" />
      <trkpt lat="45.4636255" lon="9.1921428" />
      <trkpt lat="45.4630144" lon="9.1921985" />
      <trkpt lat="45.4627750" lon="9.1923263" />
      <trkpt lat="45.4627743" lon="9.1923398" />
      <trkpt lat="45.4627723" lon="9.1923347" />
      <trkpt lat="45.4627624" lon="9.1922734" />
      <trkpt lat="45.4627073" lon="9.1923080" />
      <trkpt lat="45.4626454" lon="9.1923662" />
      <trkpt lat="45.4626372" lon="9.1923751" />
      <trkpt lat="45.4625569" lon="9.1924313" />
      <trkpt lat="45.4620932" lon="9.1927599" />
      <trkpt lat="45.4621256" lon="9.1928319" />
      <trkpt lat="45.4621325" lon="9.1928471" />
      <trkpt lat="45.4621488" lon="9.1929040" />
      <trkpt lat="45.4623754" lon="9.1933839" />
      <trkpt lat="45.4624950" lon="9.1936292" />
      <trkpt lat="45.4624808" lon="9.1936427" />
      <trkpt lat="45.4624603" lon="9.1936619" />
      <trkpt lat="45.4624586" lon="9.1936637" />
      <trkpt lat="45.4624534" lon="9.1936686" />
      <trkpt lat="45.4624322" lon="9.1936887" />
      <trkpt lat="45.4624173" lon="9.1937028" />
      <trkpt lat="45.4624130" lon="9.1937069" />
      <trkpt lat="45.4624005" lon="9.1937188" />
      <trkpt lat="45.4623871" lon="9.1937314" />
      <trkpt lat="45.4623766" lon="9.1937414" />
      <trkpt lat="45.4623716" lon="9.1937461" />
      <trkpt lat="45.4623597" lon="9.1937574" />
      <trkpt lat="45.4623475" lon="9.1937689" />
      <trkpt lat="45.4623318" lon="9.1937838" />
      <trkpt lat="45.4623222" lon="9.1937929" />
      <trkpt lat="45.4623476" lon="9.1938372" />
      <trkpt lat="45.4624435" lon="9.1941361" />
      <trkpt lat="45.4621288" lon="9.1944618" />
      <trkpt lat="45.4620850" lon="9.1945305" />
      <trkpt lat="45.4619207" lon="9.1948811" />
      <trkpt lat="45.4619072" lon="9.1949200" />
      <trkpt lat="45.4618883" lon="9.1949199" />
      <trkpt lat="45.4618293" lon="9.1948889" />
      <trkpt lat="45.4618267" lon="9.1948968" />
      <trkpt lat="45.4618124" lon="9.1949397" />
      <trkpt lat="45.4616129" lon="9.1948274" />
      <trkpt lat="45.4615690" lon="9.1948109" />
      <trkpt lat="45.4614141" lon="9.1947316" />
      <trkpt lat="45.4612283" lon="9.1946159" />
      <trkpt lat="45.4611752" lon="9.1945626" />
      <trkpt lat="45.4611614" lon="9.1945881" />
      <trkpt lat="45.4611295" lon="9.1946472" />
      <trkpt lat="45.4611251" lon="9.1946431" />
      <trkpt lat="45.4610472" lon="9.1945683" />
      <trkpt lat="45.4610313" lon="9.1946008" />
      <trkpt lat="45.4609822" lon="9.1946974" />
      <trkpt lat="45.4609585" lon="9.1947476" />
      <trkpt lat="45.4608246" lon="9.1950317" />
      <trkpt lat="45.4607613" lon="9.1951662" />
      <trkpt lat="45.4605798" lon="9.1949868" />
      <trkpt lat="45.4603860" lon="9.1948116" />
      <trkpt lat="45.4601792" lon="9.1952570" />
      <trkpt lat="45.4599804" lon="9.1950637" />
      <trkpt lat="45.4598226" lon="9.1954140" />
      <trkpt lat="45.4598222" lon="9.1954150" />
      <trkpt lat="45.4598143" lon="9.1954363" />
      <trkpt lat="45.4595179" lon="9.1951536" />
      <trkpt lat="45.4595099" lon="9.1951705" />
      <trkpt lat="45.4595003" lon="9.1951910" />
      <trkpt lat="45.4594787" lon="9.1952365" />
      <trkpt lat="45.4594520" lon="9.1952935" />
      <trkpt lat="45.4594387" lon="9.1952995" />
      <trkpt lat="45.4589974" lon="9.1948765" />
      <trkpt lat="45.4589944" lon="9.1949011" />
      <trkpt lat="45.4589919" lon="9.1949211" />
      <trkpt lat="45.4586622" lon="9.1956333" />
      <trkpt lat="45.4586292" lon="9.1957045" />
      <trkpt lat="45.4583834" lon="9.1961895" />
      <trkpt lat="45.4583464" lon="9.1962487" />
      <trkpt lat="45.4583141" lon="9.1962803" />
      <trkpt lat="45.4582396" lon="9.1963501" />
      <trkpt lat="45.4581199" lon="9.1963015" />
      <trkpt lat="45.4580864" lon="9.1962970" />
      <trkpt lat="45.4580436" lon="9.1962964" />
      <trkpt lat="45.4579237" lon="9.1963329" />
      <trkpt lat="45.4578496" lon="9.1963412" />
      <trkpt lat="45.4577452" lon="9.1962584" />
      <trkpt lat="45.4576286" lon="9.1962843" />
      <trkpt lat="45.4576728" lon="9.1971287" />
      <trkpt lat="45.4574359" lon="9.1971748" />
      <trkpt lat="45.4573791" lon="9.1971892" />
      <trkpt lat="45.4573320" lon="9.1972188" />
      <trkpt lat="45.4565642" lon="9.1973669" />
      <trkpt lat="45.4565383" lon="9.1974929" />
      <trkpt lat="45.4564554" lon="9.1975261" />
      <trkpt lat="45.4564080" lon="9.1975512" />
      <trkpt lat="45.4563927" lon="9.1975578" />
      <trkpt lat="45.4563829" lon="9.1974957" />
      <trkpt lat="45.4563802" lon="9.1974965" />
      <trkpt lat="45.4563605" lon="9.1975027" />
      <trkpt lat="45.4563461" lon="9.1975073" />
      <trkpt lat="45.4563383" lon="9.1975098" />
      <trkpt lat="45.4563224" lon="9.1975148" />
      <trkpt lat="45.4563168" lon="9.1975166" />
      <trkpt lat="45.4562049" lon="9.1968080" />
      <trkpt lat="45.4561405" lon="9.1964001" />
      <trkpt lat="45.4560994" lon="9.1961392" />
      <trkpt lat="45.4560587" lon="9.1961118" />
      <trkpt lat="45.4560744" lon="9.1960790" />
      <trkpt lat="45.4560396" lon="9.1959483" />
      <trkpt lat="45.4560284" lon="9.1959041" />
      <trkpt lat="45.4560201" lon="9.1958707" />
      <trkpt lat="45.4559558" lon="9.1957621" />
      <trkpt lat="45.4558553" lon="9.1955964" />
      <trkpt lat="45.4556672" lon="9.1956491" />
      <trkpt lat="45.4551717" lon="9.1957880" />
      <trkpt lat="45.4546629" lon="9.1958842" />
      <trkpt lat="45.4543697" lon="9.1959610" />
      <trkpt lat="45.4541000" lon="9.1960425" />
      <trkpt lat="45.4538060" lon="9.1961853" />
      <trkpt lat="45.4536953" lon="9.1962902" />
      <trkpt lat="45.4536904" lon="9.1962789" />
      <trkpt lat="45.4536831" lon="9.1962614" />
      <trkpt lat="45.4536728" lon="9.1962366" />
      <trkpt lat="45.4536703" lon="9.1962307" />
      <trkpt lat="45.4525805" lon="9.1974191" />
      <trkpt lat="45.4525363" lon="9.1974170" />
      <trkpt lat="45.4524516" lon="9.1974166" />
      <trkpt lat="45.4522324" lon="9.1974155" />
      <trkpt lat="45.4521900" lon="9.1974153" />
      <trkpt lat="45.4521524" lon="9.1966021" />
      <trkpt lat="45.4521778" lon="9.1965826" />
      <trkpt lat="45.4521748" lon="9.1965536" />
      <trkpt lat="45.4521729" lon="9.1965327" />
      <trkpt lat="45.4521707" lon="9.1965121" />
      <trkpt lat="45.4521697" lon="9.1964962" />
      <trkpt lat="45.4521612" lon="9.1964206" />
      <trkpt lat="45.4521612" lon="9.1964050" />
      <trkpt lat="45.4521494" lon="9.1963839" />
      <trkpt lat="45.4521162" lon="9.1963856" />
      <trkpt lat="45.4520523" lon="9.1963941" />
      <trkpt lat="45.4520234" lon="9.1963974" />
      <trkpt lat="45.4520002" lon="9.1964001" />
      <trkpt lat="45.4519665" lon="9.1964041" />
      <trkpt lat="45.4518665" lon="9.1964157" />
      <trkpt lat="45.4518338" lon="9.1964195" />
      <trkpt lat="45.4517923" lon="9.1964220" />
      <trkpt lat="45.4517905" lon="9.1954501" />
      <trkpt lat="45.4517857" lon="9.1951705" />
      <trkpt lat="45.4517718" lon="9.1941642" />
      <trkpt lat="45.4510329" lon="9.1942137" />
      <trkpt lat="45.4510316" lon="9.1942011" />
      <trkpt lat="45.4510300" lon="9.1941686" />
      <trkpt lat="45.4509509" lon="9.1941719" />
      <trkpt lat="45.4509339" lon="9.1941732" />
      <trkpt lat="45.4509248" lon="9.1941742" />
      <trkpt lat="45.4508545" lon="9.1941811" />
      <trkpt lat="45.4502851" lon="9.1942339" />
      <trkpt lat="45.4502056" lon="9.1942413" />
      <trkpt lat="45.4501625" lon="9.1940434" />
      <trkpt lat="45.4501587" lon="9.1939964" />
      <trkpt lat="45.4501525" lon="9.1939195" />
      <trkpt lat="45.4500906" lon="9.1931574" />
      <trkpt lat="45.4500661" lon="9.1928545" />
      <trkpt lat="45.4500174" lon="9.1928584" />
      <trkpt lat="45.4499725" lon="9.1922937" />
      <trkpt lat="45.4499421" lon="9.1919166" />
      <trkpt lat="45.4498764" lon="9.1906198" />
      <trkpt lat="45.4498164" lon="9.1906246" />
      <trkpt lat="45.4491201" lon="9.1906857" />
      <trkpt lat="45.4491032" lon="9.1906870" />
      <trkpt lat="45.4490674" lon="9.1906895" />
      <trkpt lat="45.4490440" lon="9.1906914" />
      <trkpt lat="45.4490213" lon="9.1906931" />
      <trkpt lat="45.4484974" lon="9.1907328" />
      <trkpt lat="45.4484008" lon="9.1907380" />
      <trkpt lat="45.4484208" lon="9.1916391" />
      <trkpt lat="45.4483267" lon="9.1916501" />
      <trkpt lat="45.4483005" lon="9.1907185" />
      <trkpt lat="45.4482999" lon="9.1906990" />
      <trkpt lat="45.4482972" lon="9.1906192" />
      <trkpt lat="45.4482947" lon="9.1905288" />
      <trkpt lat="45.4482944" lon="9.1904910" />
      <trkpt lat="45.4481698" lon="9.1892688" />
      <trkpt lat="45.4481676" lon="9.1892474" />
      <trkpt lat="45.4481624" lon="9.1891956" />
      <trkpt lat="45.4481576" lon="9.1891460" />
      <trkpt lat="45.4481541" lon="9.1891094" />
      <trkpt lat="45.4480737" lon="9.1890442" />
      <trkpt lat="45.4480599" lon="9.1890357" />
      <trkpt lat="45.4480272" lon="9.1890814" />
      <trkpt lat="45.4479885" lon="9.1891109" />
      <trkpt lat="45.4479217" lon="9.1891421" />
      <trkpt lat="45.4478639" lon="9.1891622" />
      <trkpt lat="45.4477865" lon="9.1891714" />
      <trkpt lat="45.4477581" lon="9.1891795" />
      <trkpt lat="45.4477211" lon="9.1891911" />
      <trkpt lat="45.4476612" lon="9.1892020" />
      <trkpt lat="45.4475823" lon="9.1892030" />
      <trkpt lat="45.4475367" lon="9.1891908" />
      <trkpt lat="45.4475100" lon="9.1891715" />
      <trkpt lat="45.4474792" lon="9.1891449" />
      <trkpt lat="45.4474435" lon="9.1890973" />
      <trkpt lat="45.4474184" lon="9.1890409" />
      <trkpt lat="45.4473938" lon="9.1889791" />
      <trkpt lat="45.4473809" lon="9.1889073" />
      <trkpt lat="45.4473727" lon="9.1888272" />
      <trkpt lat="45.4473786" lon="9.1887521" />
      <trkpt lat="45.4473903" lon="9.1886819" />
      <trkpt lat="45.4474137" lon="9.1886185" />
      <trkpt lat="45.4474454" lon="9.1885768" />
      <trkpt lat="45.4474817" lon="9.1885517" />
      <trkpt lat="45.4475227" lon="9.1885350" />
      <trkpt lat="45.4475742" lon="9.1885317" />
      <trkpt lat="45.4476152" lon="9.1885617" />
      <trkpt lat="45.4476456" lon="9.1886085" />
      <trkpt lat="45.4476632" lon="9.1886569" />
      <trkpt lat="45.4476726" lon="9.1887170" />
      <trkpt lat="45.4476691" lon="9.1887888" />
      <trkpt lat="45.4476609" lon="9.1888673" />
      <trkpt lat="45.4476609" lon="9.1889240" />
      <trkpt lat="45.4476656" lon="9.1889941" />
      <trkpt lat="45.4476820" lon="9.1890392" />
      <trkpt lat="45.4477147" lon="9.1890659" />
      <trkpt lat="45.4477534" lon="9.1890626" />
      <trkpt lat="45.4477827" lon="9.1890542" />
      <trkpt lat="45.4478061" lon="9.1890342" />
      <trkpt lat="45.4478342" lon="9.1889875" />
      <trkpt lat="45.4478600" lon="9.1889524" />
      <trkpt lat="45.4478951" lon="9.1889023" />
      <trkpt lat="45.4479209" lon="9.1888773" />
      <trkpt lat="45.4479631" lon="9.1888439" />
      <trkpt lat="45.4479958" lon="9.1888322" />
      <trkpt lat="45.4480333" lon="9.1888372" />
      <trkpt lat="45.4480591" lon="9.1888656" />
      <trkpt lat="45.4480767" lon="9.1889123" />
      <trkpt lat="45.4480814" lon="9.1889608" />
      <trkpt lat="45.4480795" lon="9.1890092" />
      <trkpt lat="45.4480599" lon="9.1890357" />
      <trkpt lat="45.4480737" lon="9.1890442" />
      <trkpt lat="45.4481541" lon="9.1891094" />
      <trkpt lat="45.4481520" lon="9.1890873" />
      <trkpt lat="45.4479350" lon="9.1868454" />
      <trkpt lat="45.4478833" lon="9.1868697" />
      <trkpt lat="45.4478548" lon="9.1867359" />
      <trkpt lat="45.4478403" lon="9.1866680" />
      <trkpt lat="45.4478235" lon="9.1865896" />
      <trkpt lat="45.4478214" lon="9.1865795" />
      <trkpt lat="45.4478193" lon="9.1865695" />
      <trkpt lat="45.4478068" lon="9.1865112" />
      <trkpt lat="45.4477902" lon="9.1864336" />
      <trkpt lat="45.4477796" lon="9.1863835" />
      <trkpt lat="45.4476552" lon="9.1864452" />
      <trkpt lat="45.4475475" lon="9.1864914" />
      <trkpt lat="45.4475301" lon="9.1864847" />
      <trkpt lat="45.4475236" lon="9.1864870" />
      <trkpt lat="45.4474951" lon="9.1864973" />
      <trkpt lat="45.4474912" lon="9.1864691" />
      <trkpt lat="45.4474367" lon="9.1860289" />
      <trkpt lat="45.4474344" lon="9.1860233" />
      <trkpt lat="45.4474122" lon="9.1859792" />
      <trkpt lat="45.4474036" lon="9.1859706" />
      <trkpt lat="45.4473791" lon="9.1859570" />
      <trkpt lat="45.4473741" lon="9.1859580" />
      <trkpt lat="45.4473651" lon="9.1859548" />
      <trkpt lat="45.4473607" lon="9.1859549" />
      <trkpt lat="45.4470937" lon="9.1860141" />
      <trkpt lat="45.4470893" lon="9.1860157" />
      <trkpt lat="45.4470827" lon="9.1860173" />
      <trkpt lat="45.4470150" lon="9.1860317" />
      <trkpt lat="45.4469490" lon="9.1854210" />
      <trkpt lat="45.4469255" lon="9.1853363" />
      <trkpt lat="45.4469001" lon="9.1852867" />
      <trkpt lat="45.4468751" lon="9.1852553" />
      <trkpt lat="45.4468466" lon="9.1852356" />
      <trkpt lat="45.4468151" lon="9.1852158" />
      <trkpt lat="45.4468110" lon="9.1851673" />
      <trkpt lat="45.4467872" lon="9.1851071" />
      <trkpt lat="45.4467579" lon="9.1850660" />
      <trkpt lat="45.4467308" lon="9.1850555" />
      <trkpt lat="45.4467364" lon="9.1850223" />
      <trkpt lat="45.4467378" lon="9.1850115" />
      <trkpt lat="45.4467138" lon="9.1850055" />
      <trkpt lat="45.4467169" lon="9.1849891" />
      <trkpt lat="45.4467196" lon="9.1849655" />
      <trkpt lat="45.4467253" lon="9.1849296" />
      <trkpt lat="45.4467280" lon="9.1849122" />
      <trkpt lat="45.4467315" lon="9.1848880" />
      <trkpt lat="45.4468415" lon="9.1849180" />
      <trkpt lat="45.4468451" lon="9.1847181" />
      <trkpt lat="45.4467898" lon="9.1840216" />
      <trkpt lat="45.4467202" lon="9.1832641" />
      <trkpt lat="45.4467956" lon="9.1832483" />
      <trkpt lat="45.4466834" lon="9.1822093" />
      <trkpt lat="45.4466723" lon="9.1822086" />
      <trkpt lat="45.4466700" lon="9.1821916" />
      <trkpt lat="45.4466638" lon="9.1821455" />
      <trkpt lat="45.4466593" lon="9.1821126" />
      <trkpt lat="45.4466551" lon="9.1820812" />
      <trkpt lat="45.4466411" lon="9.1820464" />
      <trkpt lat="45.4465210" lon="9.1809829" />
      <trkpt lat="45.4464763" lon="9.1806154" />
      <trkpt lat="45.4464899" lon="9.1806029" />
      <trkpt lat="45.4464839" lon="9.1805367" />
      <trkpt lat="45.4464798" lon="9.1805007" />
      <trkpt lat="45.4464766" lon="9.1804719" />
      <trkpt lat="45.4464739" lon="9.1804484" />
      <trkpt lat="45.4464650" lon="9.1804370" />
      <trkpt lat="45.4463968" lon="9.1798295" />
      <trkpt lat="45.4463639" lon="9.1795201" />
      <trkpt lat="45.4463765" lon="9.1795042" />
      <trkpt lat="45.4463766" lon="9.1794771" />
      <trkpt lat="45.4463782" lon="9.1794349" />
      <trkpt lat="45.4463771" lon="9.1793796" />
      <trkpt lat="45.4463772" lon="9.1793591" />
      <trkpt lat="45.4464471" lon="9.1793601" />
      <trkpt lat="45.4464664" lon="9.1793597" />
      <trkpt lat="45.4465037" lon="9.1793589" />
      <trkpt lat="45.4465276" lon="9.1793583" />
      <trkpt lat="45.4465481" lon="9.1793578" />
      <trkpt lat="45.4465662" lon="9.1793574" />
      <trkpt lat="45.4467868" lon="9.1793776" />
      <trkpt lat="45.4468004" lon="9.1793797" />
      <trkpt lat="45.4468080" lon="9.1793809" />
      <trkpt lat="45.4468500" lon="9.1793874" />
      <trkpt lat="45.4468946" lon="9.1793943" />
      <trkpt lat="45.4469058" lon="9.1793960" />
      <trkpt lat="45.4472649" lon="9.1794349" />
      <trkpt lat="45.4472677" lon="9.1793947" />
      <trkpt lat="45.4473331" lon="9.1781475" />
      <trkpt lat="45.4473661" lon="9.1781511" />
      <trkpt lat="45.4473956" lon="9.1781544" />
      <trkpt lat="45.4474022" lon="9.1780197" />
      <trkpt lat="45.4474038" lon="9.1779861" />
      <trkpt lat="45.4474269" lon="9.1774996" />
      <trkpt lat="45.4474377" lon="9.1772212" />
      <trkpt lat="45.4474434" lon="9.1770917" />
      <trkpt lat="45.4473721" lon="9.1770687" />
      <trkpt lat="45.4473775" lon="9.1770484" />
      <trkpt lat="45.4473795" lon="9.1770411" />
      <trkpt lat="45.4474205" lon="9.1770487" />
      <trkpt lat="45.4474774" lon="9.1770621" />
      <trkpt lat="45.4474991" lon="9.1768925" />
      <trkpt lat="45.4475638" lon="9.1769086" />
      <trkpt lat="45.4476486" lon="9.1769270" />
      <trkpt lat="45.4476493" lon="9.1769208" />
      <trkpt lat="45.4476520" lon="9.1768984" />
      <trkpt lat="45.4476558" lon="9.1768653" />
      <trkpt lat="45.4476572" lon="9.1768539" />
      <trkpt lat="45.4476232" lon="9.1768455" />
      <trkpt lat="45.4476157" lon="9.1768214" />
      <trkpt lat="45.4476164" lon="9.1767960" />
      <trkpt lat="45.4476279" lon="9.1763721" />
      <trkpt lat="45.4476430" lon="9.1752470" />
      <trkpt lat="45.4476533" lon="9.1752201" />
      <trkpt lat="45.4488421" lon="9.1752798" />
      <trkpt lat="45.4488421" lon="9.1752429" />
      <trkpt lat="45.4488421" lon="9.1752088" />
      <trkpt lat="45.4488421" lon="9.1751799" />
      <trkpt lat="45.4488421" lon="9.1751605" />
      <trkpt lat="45.4488642" lon="9.1751323" />
      <trkpt lat="45.4488816" lon="9.1751333" />
      <trkpt lat="45.4489040" lon="9.1751346" />
      <trkpt lat="45.4488973" lon="9.1734480" />
      <trkpt lat="45.4489525" lon="9.1734469" />
      <trkpt lat="45.4490170" lon="9.1734457" />
      <trkpt lat="45.4492765" lon="9.1734395" />
      <trkpt lat="45.4493190" lon="9.1733374" />
      <trkpt lat="45.4493377" lon="9.1733359" />
      <trkpt lat="45.4493632" lon="9.1733342" />
      <trkpt lat="45.4493686" lon="9.1732923" />
      <trkpt lat="45.4493808" lon="9.1732389" />
      <trkpt lat="45.4493927" lon="9.1731474" />
      <trkpt lat="45.4494077" lon="9.1731484" />
      <trkpt lat="45.4494273" lon="9.1731496" />
      <trkpt lat="45.4494275" lon="9.1731300" />
      <trkpt lat="45.4494338" lon="9.1731124" />
      <trkpt lat="45.4494435" lon="9.1731059" />
      <trkpt lat="45.4494535" lon="9.1731060" />
      <trkpt lat="45.4496459" lon="9.1731085" />
      <trkpt lat="45.4496850" lon="9.1730964" />
      <trkpt lat="45.4497134" lon="9.1730760" />
      <trkpt lat="45.4497389" lon="9.1730372" />
      <trkpt lat="45.4497595" lon="9.1729890" />
      <trkpt lat="45.4497674" lon="9.1729430" />
      <trkpt lat="45.4497759" lon="9.1727761" />
      <trkpt lat="45.4497801" lon="9.1727239" />
      <trkpt lat="45.4497916" lon="9.1726855" />
      <trkpt lat="45.4498139" lon="9.1726688" />
      <trkpt lat="45.4498424" lon="9.1726686" />
      <trkpt lat="45.4499222" lon="9.1726806" />
      <trkpt lat="45.4499565" lon="9.1726962" />
      <trkpt lat="45.4500384" lon="9.1728095" />
      <trkpt lat="45.4500900" lon="9.1728659" />
      <trkpt lat="45.4502525" lon="9.1730481" />
      <trkpt lat="45.4502628" lon="9.1730301" />
      <trkpt lat="45.4501091" lon="9.1728387" />
      <trkpt lat="45.4500900" lon="9.1728659" />
      <trkpt lat="45.4500384" lon="9.1728095" />
      <trkpt lat="45.4500457" lon="9.1727986" />
      <trkpt lat="45.4500629" lon="9.1727734" />
      <trkpt lat="45.4500796" lon="9.1727482" />
      <trkpt lat="45.4500845" lon="9.1727410" />
      <trkpt lat="45.4500823" lon="9.1726976" />
      <trkpt lat="45.4500778" lon="9.1723193" />
      <trkpt lat="45.4500951" lon="9.1723025" />
      <trkpt lat="45.4509333" lon="9.1714923" />
      <trkpt lat="45.4509354" lon="9.1715023" />
      <trkpt lat="45.4509648" lon="9.1714758" />
      <trkpt lat="45.4509982" lon="9.1714485" />
      <trkpt lat="45.4509919" lon="9.1714168" />
      <trkpt lat="45.4509824" lon="9.1713703" />
      <trkpt lat="45.4509781" lon="9.1713491" />
      <trkpt lat="45.4511057" lon="9.1712264" />
      <trkpt lat="45.4511099" lon="9.1712478" />
      <trkpt lat="45.4511175" lon="9.1712847" />
      <trkpt lat="45.4511375" lon="9.1712736" />
      <trkpt lat="45.4511561" lon="9.1712552" />
      <trkpt lat="45.4523151" lon="9.1701344" />
      <trkpt lat="45.4523231" lon="9.1701259" />
      <trkpt lat="45.4523728" lon="9.1700764" />
      <trkpt lat="45.4524017" lon="9.1700615" />
      <trkpt lat="45.4524439" lon="9.1700703" />
      <trkpt lat="45.4525023" lon="9.1700941" />
      <trkpt lat="45.4525183" lon="9.1700991" />
      <trkpt lat="45.4525254" lon="9.1700655" />
      <trkpt lat="45.4527011" lon="9.1701127" />
      <trkpt lat="45.4527053" lon="9.1700851" />
      <trkpt lat="45.4527088" lon="9.1700645" />
      <trkpt lat="45.4527121" lon="9.1700449" />
      <trkpt lat="45.4528166" lon="9.1700810" />
      <trkpt lat="45.4529505" lon="9.1701298" />
      <trkpt lat="45.4530089" lon="9.1701517" />
      <trkpt lat="45.4530754" lon="9.1701762" />
      <trkpt lat="45.4531013" lon="9.1701869" />
      <trkpt lat="45.4531457" lon="9.1702026" />
      <trkpt lat="45.4532037" lon="9.1702209" />
      <trkpt lat="45.4532173" lon="9.1702252" />
      <trkpt lat="45.4532382" lon="9.1702327" />
      <trkpt lat="45.4533556" lon="9.1702795" />
      <trkpt lat="45.4533689" lon="9.1702852" />
      <trkpt lat="45.4534374" lon="9.1703116" />
      <trkpt lat="45.4534957" lon="9.1703338" />
      <trkpt lat="45.4535674" lon="9.1703604" />
      <trkpt lat="45.4536487" lon="9.1703912" />
      <trkpt lat="45.4536879" lon="9.1704074" />
      <trkpt lat="45.4537128" lon="9.1704185" />
      <trkpt lat="45.4537484" lon="9.1704392" />
      <trkpt lat="45.4537455" lon="9.1704258" />
      <trkpt lat="45.4537409" lon="9.1703978" />
      <trkpt lat="45.4537382" lon="9.1703795" />
      <trkpt lat="45.4537346" lon="9.1703506" />
      <trkpt lat="45.4537309" lon="9.1703172" />
      <trkpt lat="45.4537274" lon="9.1702733" />
      <trkpt lat="45.4537263" lon="9.1702044" />
      <trkpt lat="45.4537826" lon="9.1699001" />
      <trkpt lat="45.4537519" lon="9.1698680" />
      <trkpt lat="45.4537612" lon="9.1698542" />
      <trkpt lat="45.4538962" lon="9.1698640" />
      <trkpt lat="45.4542785" lon="9.1698702" />
      <trkpt lat="45.4545417" lon="9.1698663" />
      <trkpt lat="45.4548189" lon="9.1698463" />
      <trkpt lat="45.4548483" lon="9.1698445" />
      <trkpt lat="45.4548468" lon="9.1698276" />
      <trkpt lat="45.4548218" lon="9.1696795" />
      <trkpt lat="45.4548118" lon="9.1696203" />
      <trkpt lat="45.4548071" lon="9.1695926" />
      <trkpt lat="45.4548015" lon="9.1695597" />
      <trkpt lat="45.4547889" lon="9.1694849" />
      <trkpt lat="45.4547927" lon="9.1694748" />
      <trkpt lat="45.4548354" lon="9.1694767" />
      <trkpt lat="45.4549696" lon="9.1694703" />
      <trkpt lat="45.4552376" lon="9.1694451" />
      <trkpt lat="45.4554617" lon="9.1693953" />
      <trkpt lat="45.4557903" lon="9.1693026" />
      <trkpt lat="45.4558425" lon="9.1693378" />
      <trkpt lat="45.4558689" lon="9.1694155" />
      <trkpt lat="45.4558804" lon="9.1694139" />
      <trkpt lat="45.4559073" lon="9.1694101" />
      <trkpt lat="45.4559531" lon="9.1694037" />
      <trkpt lat="45.4559559" lon="9.1694057" />
      <trkpt lat="45.4559627" lon="9.1693930" />
      <trkpt lat="45.4564024" lon="9.1690908" />
      <trkpt lat="45.4566580" lon="9.1688503" />
      <trkpt lat="45.4568009" lon="9.1687129" />
      <trkpt lat="45.4568636" lon="9.1687140" />
      <trkpt lat="45.4568642" lon="9.1687434" />
      <trkpt lat="45.4568626" lon="9.1687869" />
      <trkpt lat="45.4568922" lon="9.1688685" />
      <trkpt lat="45.4569754" lon="9.1690950" />
      <trkpt lat="45.4569811" lon="9.1691863" />
      <trkpt lat="45.4569992" lon="9.1691845" />
      <trkpt lat="45.4570254" lon="9.1691819" />
      <trkpt lat="45.4570570" lon="9.1691788" />
      <trkpt lat="45.4570629" lon="9.1691782" />
      <trkpt lat="45.4570720" lon="9.1691773" />
      <trkpt lat="45.4570851" lon="9.1691760" />
      <trkpt lat="45.4570965" lon="9.1691749" />
      <trkpt lat="45.4571125" lon="9.1691733" />
      <trkpt lat="45.4571263" lon="9.1691719" />
      <trkpt lat="45.4571330" lon="9.1691712" />
      <trkpt lat="45.4571407" lon="9.1691705" />
      <trkpt lat="45.4571577" lon="9.1691688" />
      <trkpt lat="45.4571740" lon="9.1691672" />
      <trkpt lat="45.4571868" lon="9.1691659" />
      <trkpt lat="45.4572096" lon="9.1691825" />
      <trkpt lat="45.4572104" lon="9.1692177" />
      <trkpt lat="45.4572113" lon="9.1692667" />
      <trkpt lat="45.4572117" lon="9.1692863" />
      <trkpt lat="45.4572126" lon="9.1693257" />
      <trkpt lat="45.4572141" lon="9.1693906" />
      <trkpt lat="45.4572144" lon="9.1694027" />
      <trkpt lat="45.4572434" lon="9.1693480" />
      <trkpt lat="45.4572561" lon="9.1693298" />
      <trkpt lat="45.4577425" lon="9.1699759" />
      <trkpt lat="45.4579764" lon="9.1696115" />
      <trkpt lat="45.4579805" lon="9.1696133" />
      <trkpt lat="45.4580021" lon="9.1696140" />
      <trkpt lat="45.4580086" lon="9.1696053" />
      <trkpt lat="45.4580499" lon="9.1695376" />
      <trkpt lat="45.4580543" lon="9.1695307" />
      <trkpt lat="45.4581356" lon="9.1693982" />
      <trkpt lat="45.4582377" lon="9.1694944" />
      <trkpt lat="45.4584123" lon="9.1696588" />
      <trkpt lat="45.4585353" lon="9.1696406" />
      <trkpt lat="45.4585714" lon="9.1696352" />
      <trkpt lat="45.4585853" lon="9.1696343" />
      <trkpt lat="45.4586451" lon="9.1696264" />
      <trkpt lat="45.4586674" lon="9.1696239" />
      <trkpt lat="45.4586209" lon="9.1697142" />
      <trkpt lat="45.4587606" lon="9.1698666" />
      <trkpt lat="45.4587730" lon="9.1698806" />
      <trkpt lat="45.4587809" lon="9.1698895" />
      <trkpt lat="45.4594119" lon="9.1705962" />
      <trkpt lat="45.4594354" lon="9.1706226" />
      <trkpt lat="45.4594469" lon="9.1706349" />
      <trkpt lat="45.4594652" lon="9.1706545" />
      <trkpt lat="45.4594870" lon="9.1706786" />
      <trkpt lat="45.4595018" lon="9.1706955" />
      <trkpt lat="45.4600080" lon="9.1712466" />
      <trkpt lat="45.4600754" lon="9.1713209" />
      <trkpt lat="45.4600857" lon="9.1713326" />
      <trkpt lat="45.4601092" lon="9.1713593" />
      <trkpt lat="45.4601200" lon="9.1713735" />
      <trkpt lat="45.4601250" lon="9.1713837" />
      <trkpt lat="45.4601760" lon="9.1714427" />
      <trkpt lat="45.4605618" lon="9.1718762" />
      <trkpt lat="45.4606201" lon="9.1719327" />
      <trkpt lat="45.4610430" lon="9.1724023" />
      <trkpt lat="45.4612170" lon="9.1725927" />
      <trkpt lat="45.4612588" lon="9.1726412" />
      <trkpt lat="45.4613876" lon="9.1727847" />
      <trkpt lat="45.4616487" lon="9.1730776" />
      <trkpt lat="45.4616676" lon="9.1730972" />
      <trkpt lat="45.4618312" lon="9.1732823" />
      <trkpt lat="45.4619130" lon="9.1733742" />
      <trkpt lat="45.4619476" lon="9.1733995" />
      <trkpt lat="45.4620874" lon="9.1734392" />
      <trkpt lat="45.4623276" lon="9.1735057" />
      <trkpt lat="45.4623865" lon="9.1735392" />
      <trkpt lat="45.4624144" lon="9.1735538" />
      <trkpt lat="45.4624455" lon="9.1735710" />
      <trkpt lat="45.4626409" lon="9.1737008" />
      <trkpt lat="45.4626353" lon="9.1737199" />
      <trkpt lat="45.4626187" lon="9.1737700" />
      <trkpt lat="45.4625976" lon="9.1738485" />
      <trkpt lat="45.4628334" lon="9.1739942" />
      <trkpt lat="45.4629800" lon="9.1740696" />
      <trkpt lat="45.4631292" lon="9.1741499" />
      <trkpt lat="45.4633469" lon="9.1742688" />
      <trkpt lat="45.4637299" lon="9.1744839" />
      <trkpt lat="45.4638968" lon="9.1745747" />
      <trkpt lat="45.4639348" lon="9.1745953" />
      <trkpt lat="45.4639267" lon="9.1746314" />
      <trkpt lat="45.4639232" lon="9.1746471" />
      <trkpt lat="45.4638139" lon="9.1751298" />
      <trkpt lat="45.4638117" lon="9.1751415" />
      <trkpt lat="45.4638028" lon="9.1751898" />
      <trkpt lat="45.4639222" lon="9.1752385" />
      <trkpt lat="45.4639676" lon="9.1752607" />
      <trkpt lat="45.4640816" lon="9.1754122" />
      <trkpt lat="45.4640674" lon="9.1754365" />
      <trkpt lat="45.4640587" lon="9.1754656" />
      <trkpt lat="45.4640561" lon="9.1754970" />
      <trkpt lat="45.4640600" lon="9.1755281" />
      <trkpt lat="45.4640699" lon="9.1755564" />
      <trkpt lat="45.4640851" lon="9.1755794" />
      <trkpt lat="45.4641043" lon="9.1755953" />
      <trkpt lat="45.4641295" lon="9.1756030" />
      <trkpt lat="45.4641551" lon="9.1755984" />
      <trkpt lat="45.4641782" lon="9.1755819" />
      <trkpt lat="45.4642123" lon="9.1756765" />
      <trkpt lat="45.4649146" lon="9.1771322" />
      <trkpt lat="45.4650155" lon="9.1773414" />
      <trkpt lat="45.4650648" lon="9.1774426" />
      <trkpt lat="45.4653056" lon="9.1779552" />
      <trkpt lat="45.4653453" lon="9.1780187" />
      <trkpt lat="45.4653822" lon="9.1780598" />
      <trkpt lat="45.4654557" lon="9.1780884" />
      <trkpt lat="45.4655329" lon="9.1781129" />
      <trkpt lat="45.4656461" lon="9.1781511" />
      <trkpt lat="45.4656891" lon="9.1781678" />
      <trkpt lat="45.4656803" lon="9.1782255" />
      <trkpt lat="45.4656780" lon="9.1782410" />
      <trkpt lat="45.4656737" lon="9.1782788" />
      <trkpt lat="45.4656589" lon="9.1784093" />
      <trkpt lat="45.4656583" lon="9.1788172" />
      <trkpt lat="45.4656674" lon="9.1790380" />
      <trkpt lat="45.4656681" lon="9.1790589" />
      <trkpt lat="45.4656679" lon="9.1790830" />
      <trkpt lat="45.4656671" lon="9.1791195" />
      <trkpt lat="45.4656675" lon="9.1791487" />
      <trkpt lat="45.4656665" lon="9.1791901" />
      <trkpt lat="45.4656547" lon="9.1796571" />
      <trkpt lat="45.4656299" lon="9.1797701" />
      <trkpt lat="45.4655889" lon="9.1803058" />
      <trkpt lat="45.4655878" lon="9.1803387" />
      <trkpt lat="45.4655838" lon="9.1803732" />
      <trkpt lat="45.4655820" lon="9.1803966" />
      <trkpt lat="45.4656295" lon="9.1804066" />
      <trkpt lat="45.4656435" lon="9.1804106" />
      <trkpt lat="45.4656389" lon="9.1804960" />
      <trkpt lat="45.4656433" lon="9.1806346" />
      <trkpt lat="45.4656483" lon="9.1807043" />
      <trkpt lat="45.4656601" lon="9.1808546" />
      <trkpt lat="45.4656902" lon="9.1813079" />
      <trkpt lat="45.4656950" lon="9.1813802" />
      <trkpt lat="45.4657131" lon="9.1816590" />
      <trkpt lat="45.4657367" lon="9.1820221" />
      <trkpt lat="45.4657496" lon="9.1822206" />
      <trkpt lat="45.4657310" lon="9.1822700" />
      <trkpt lat="45.4657135" lon="9.1822949" />
      <trkpt lat="45.4657000" lon="9.1823010" />
      <trkpt lat="45.4656998" lon="9.1823256" />
      <trkpt lat="45.4656998" lon="9.1823278" />
      <trkpt lat="45.4657081" lon="9.1823799" />
      <trkpt lat="45.4658210" lon="9.1837096" />
      <trkpt lat="45.4658225" lon="9.1837268" />
      <trkpt lat="45.4658664" lon="9.1842387" />
      <trkpt lat="45.4659140" lon="9.1847693" />
      <trkpt lat="45.4658997" lon="9.1848110" />
      <trkpt lat="45.4659005" lon="9.1848170" />
      <trkpt lat="45.4659127" lon="9.1849032" />
      <trkpt lat="45.4659217" lon="9.1849678" />
      <trkpt lat="45.4659230" lon="9.1849768" />
      <trkpt lat="45.4659286" lon="9.1849833" />
      <trkpt lat="45.4659403" lon="9.1850861" />
      <trkpt lat="45.4659387" lon="9.1851033" />
      <trkpt lat="45.4655888" lon="9.1855745" />
      <trkpt lat="45.4655718" lon="9.1855981" />
      <trkpt lat="45.4655480" lon="9.1856311" />
      <trkpt lat="45.4653575" lon="9.1858954" />
      <trkpt lat="45.4653356" lon="9.1859216" />
      <trkpt lat="45.4653080" lon="9.1859548" />
      <trkpt lat="45.4652610" lon="9.1860108" />
      <trkpt lat="45.4651796" lon="9.1860562" />
      <trkpt lat="45.4651745" lon="9.1860634" />
      <trkpt lat="45.4651736" lon="9.1860646" />
      <trkpt lat="45.4651506" lon="9.1860965" />
      <trkpt lat="45.4651236" lon="9.1861341" />
      <trkpt lat="45.4651107" lon="9.1861522" />
      <trkpt lat="45.4650844" lon="9.1862544" />
      <trkpt lat="45.4650978" lon="9.1862834" />
      <trkpt lat="45.4651074" lon="9.1863040" />
      <trkpt lat="45.4651400" lon="9.1863743" />
      <trkpt lat="45.4650563" lon="9.1864843" />
      <trkpt lat="45.4650457" lon="9.1864982" />
      <trkpt lat="45.4649560" lon="9.1866142" />
      <trkpt lat="45.4648399" lon="9.1867711" />
      <trkpt lat="45.4647645" lon="9.1868710" />
      <trkpt lat="45.4647103" lon="9.1869402" />
      <trkpt lat="45.4646760" lon="9.1869840" />
      <trkpt lat="45.4646077" lon="9.1870785" />
      <trkpt lat="45.4645714" lon="9.1871288" />
      <trkpt lat="45.4645807" lon="9.1871436" />
      <trkpt lat="45.4645949" lon="9.1871662" />
      <trkpt lat="45.4646000" lon="9.1871726" />
      <trkpt lat="45.4646056" lon="9.1871799" />
      <trkpt lat="45.4647017" lon="9.1873002" />
      <trkpt lat="45.4647607" lon="9.1873469" />
      <trkpt lat="45.4647557" lon="9.1873590" />
      <trkpt lat="45.4645036" lon="9.1879721" />
      <trkpt lat="45.4645732" lon="9.1880317" />
      <trkpt lat="45.4647389" lon="9.1881562" />
      <trkpt lat="45.4647715" lon="9.1881806" />
      <trkpt lat="45.4647589" lon="9.1882120" />
      <trkpt lat="45.4647496" lon="9.1882352" />
      <trkpt lat="45.4646578" lon="9.1884650" />
      <trkpt lat="45.4646489" lon="9.1884649" />
      <trkpt lat="45.4646011" lon="9.1884658" />
      <trkpt lat="45.4645117" lon="9.1884662" />
      <trkpt lat="45.4645116" lon="9.1884809" />
      <trkpt lat="45.4645224" lon="9.1884811" />
      <trkpt lat="45.4645478" lon="9.1884814" />
      <trkpt lat="45.4645817" lon="9.1884816" />
      <trkpt lat="45.4647199" lon="9.1884860" />
      <trkpt lat="45.4647019" lon="9.1885788" />
      <trkpt lat="45.4646514" lon="9.1889880" />
      <trkpt lat="45.4646537" lon="9.1891261" />
      <trkpt lat="45.4646499" lon="9.1893273" />
      <trkpt lat="45.4646497" lon="9.1893463" />
      <trkpt lat="45.4645594" lon="9.1894058" />
      <trkpt lat="45.4645554" lon="9.1894275" />
      <trkpt lat="45.4645550" lon="9.1894735" />
      <trkpt lat="45.4645550" lon="9.1894793" />
      <trkpt lat="45.4645546" lon="9.1895206" />
      <trkpt lat="45.4645546" lon="9.1895295" />
      <trkpt lat="45.4645542" lon="9.1895730" />
      <trkpt lat="45.4645579" lon="9.1895821" />
      <trkpt lat="45.4645576" lon="9.1896132" />
      <trkpt lat="45.4645553" lon="9.1897951" />
      <trkpt lat="45.4645547" lon="9.1898439" />
      <trkpt lat="45.4645471" lon="9.1898437" />
      <trkpt lat="45.4645044" lon="9.1898425" />
      <trkpt lat="45.4644741" lon="9.1898729" />
      <trkpt lat="45.4644313" lon="9.1898582" />
      <trkpt lat="45.4643695" lon="9.1897716" />
      <trkpt lat="45.4641536" lon="9.1896431" />
      <trkpt lat="45.4641046" lon="9.1895113" />
      <trkpt lat="45.4641115" lon="9.1890703" />
      <trkpt lat="45.4641126" lon="9.1889477" />
      <trkpt lat="45.4641127" lon="9.1889147" />
      <trkpt lat="45.4640993" lon="9.1889147" />
      <trkpt lat="45.4638167" lon="9.1889146" />
      <trkpt lat="45.4638002" lon="9.1889146" />
      <trkpt lat="45.4638000" lon="9.1889344" />
      <trkpt lat="45.4637998" lon="9.1889533" />
      <trkpt lat="45.4637982" lon="9.1890213" />
      <trkpt lat="45.4637319" lon="9.1890225" />
      <trkpt lat="45.4637329" lon="9.1889492" />
      <trkpt lat="45.4637332" lon="9.1889265" />
      <trkpt lat="45.4637335" lon="9.1889066" />
      <trkpt lat="45.4637338" lon="9.1888841" />
      <trkpt lat="45.4637344" lon="9.1888372" />
      <trkpt lat="45.4636879" lon="9.1888363" />
      <trkpt lat="45.4636880" lon="9.1888097" />
      <trkpt lat="45.4636880" lon="9.1887996" />
      <trkpt lat="45.4636706" lon="9.1887812" />
      <trkpt lat="45.4636714" lon="9.1886805" />
      <trkpt lat="45.4636713" lon="9.1885837" />
      <trkpt lat="45.4636712" lon="9.1885745" />
      <trkpt lat="45.4636369" lon="9.1885741" />
      <trkpt lat="45.4635982" lon="9.1885736" />
      <trkpt lat="45.4635933" lon="9.1885635" />
      <trkpt lat="45.4635843" lon="9.1885356" />
      <trkpt lat="45.4635790" lon="9.1885192" />
      <trkpt lat="45.4635267" lon="9.1885191" />
      <trkpt lat="45.4632950" lon="9.1885189" />
      <trkpt lat="45.4632051" lon="9.1885178" />
      <trkpt lat="45.4628780" lon="9.1885136" />
      <trkpt lat="45.4628394" lon="9.1885131" />
      <trkpt lat="45.4628393" lon="9.1884922" />
      <trkpt lat="45.4628391" lon="9.1884746" />
      <trkpt lat="45.4628388" lon="9.1884389" />
      <trkpt lat="45.4627756" lon="9.1884203" />
      <trkpt lat="45.4627054" lon="9.1882123" />
      <trkpt lat="45.4626709" lon="9.1881100" />
      <trkpt lat="45.4626563" lon="9.1880668" />
      <trkpt lat="45.4623633" lon="9.1872663" />
      <trkpt lat="45.4623698" lon="9.1871741" />
      <trkpt lat="45.4625165" lon="9.1869724" />
      <trkpt lat="45.4625815" lon="9.1869703" />
      <trkpt lat="45.4625557" lon="9.1869368" />
      <trkpt lat="45.4625385" lon="9.1869146" />
      <trkpt lat="45.4625170" lon="9.1868867" />
      <trkpt lat="45.4625118" lon="9.1868800" />
      <trkpt lat="45.4624978" lon="9.1868642" />
      <trkpt lat="45.4623136" lon="9.1866341" />
      <trkpt lat="45.4621205" lon="9.1864044" />
      <trkpt lat="45.4620906" lon="9.1863638" />
      <trkpt lat="45.4620823" lon="9.1863545" />
      <trkpt lat="45.4620736" lon="9.1863439" />
      <trkpt lat="45.4620602" lon="9.1863268" />
      <trkpt lat="45.4620618" lon="9.1863240" />
      <trkpt lat="45.4620502" lon="9.1862800" />
      <trkpt lat="45.4618809" lon="9.1860732" />
      <trkpt lat="45.4618299" lon="9.1860079" />
      <trkpt lat="45.4616249" lon="9.1857232" />
      <trkpt lat="45.4616182" lon="9.1857141" />
      <trkpt lat="45.4616087" lon="9.1857014" />
      <trkpt lat="45.4616397" lon="9.1856649" />
      <trkpt lat="45.4616490" lon="9.1856540" />
      <trkpt lat="45.4615911" lon="9.1855672" />
      <trkpt lat="45.4615077" lon="9.1854471" />
      <trkpt lat="45.4615344" lon="9.1853633" />
      <trkpt lat="45.4615063" lon="9.1853274" />
      <trkpt lat="45.4615012" lon="9.1853209" />
      <trkpt lat="45.4615180" lon="9.1853152" />
      <trkpt lat="45.4615332" lon="9.1852993" />
      <trkpt lat="45.4615697" lon="9.1851826" />
      <trkpt lat="45.4616238" lon="9.1850099" />
      <trkpt lat="45.4616723" lon="9.1848619" />
      <trkpt lat="45.4617768" lon="9.1846661" />
      <trkpt lat="45.4619214" lon="9.1844190" />
      <trkpt lat="45.4619615" lon="9.1843443" />
      <trkpt lat="45.4619608" lon="9.1843238" />
      <trkpt lat="45.4619519" lon="9.1843054" />
      <trkpt lat="45.4619582" lon="9.1842920" />
      <trkpt lat="45.4619637" lon="9.1842827" />
      <trkpt lat="45.4616063" lon="9.1838949" />
      <trkpt lat="45.4614457" lon="9.1837174" />
      <trkpt lat="45.4613157" lon="9.1836004" />
      <trkpt lat="45.4612378" lon="9.1835308" />
      <trkpt lat="45.4611147" lon="9.1834132" />
      <trkpt lat="45.4611214" lon="9.1834044" />
      <trkpt lat="45.4611147" lon="9.1834132" />
      <trkpt lat="45.4610867" lon="9.1833814" />
      <trkpt lat="45.4608230" lon="9.1830750" />
      <trkpt lat="45.4607814" lon="9.1830427" />
      <trkpt lat="45.4607828" lon="9.1830004" />
      <trkpt lat="45.4607832" lon="9.1829873" />
      <trkpt lat="45.4607643" lon="9.1829277" />
      <trkpt lat="45.4607346" lon="9.1825571" />
      <trkpt lat="45.4607157" lon="9.1823991" />
      <trkpt lat="45.4606904" lon="9.1824068" />
      <trkpt lat="45.4606585" lon="9.1824164" />
      <trkpt lat="45.4606417" lon="9.1824215" />
      <trkpt lat="45.4606243" lon="9.1824267" />
      <trkpt lat="45.4606022" lon="9.1824334" />
      <trkpt lat="45.4605689" lon="9.1824442" />
      <trkpt lat="45.4605712" lon="9.1824688" />
      <trkpt lat="45.4599955" lon="9.1827482" />
      <trkpt lat="45.4600102" lon="9.1827715" />
      <trkpt lat="45.4600175" lon="9.1827973" />
      <trkpt lat="45.4599414" lon="9.1828341" />
      <trkpt lat="45.4598788" lon="9.1827745" />
      <trkpt lat="45.4598677" lon="9.1827639" />
      <trkpt lat="45.4597742" lon="9.1829611" />
      <trkpt lat="45.4597015" lon="9.1831342" />
      <trkpt lat="45.4595396" lon="9.1830152" />
      <trkpt lat="45.4594816" lon="9.1829722" />
      <trkpt lat="45.4594499" lon="9.1830509" />
      <trkpt lat="45.4593864" lon="9.1830028" />
      <trkpt lat="45.4594112" lon="9.1829468" />
      <trkpt lat="45.4594248" lon="9.1829160" />
      <trkpt lat="45.4589294" lon="9.1825134" />
      <trkpt lat="45.4589106" lon="9.1824648" />
      <trkpt lat="45.4590065" lon="9.1821431" />
      <trkpt lat="45.4590361" lon="9.1821042" />
      <trkpt lat="45.4591003" lon="9.1820899" />
      <trkpt lat="45.4591017" lon="9.1820738" />
      <trkpt lat="45.4591073" lon="9.1820072" />
      <trkpt lat="45.4591118" lon="9.1819543" />
      <trkpt lat="45.4591151" lon="9.1819171" />
      <trkpt lat="45.4590950" lon="9.1818883" />
      <trkpt lat="45.4590727" lon="9.1818873" />
      <trkpt lat="45.4590347" lon="9.1818855" />
      <trkpt lat="45.4590019" lon="9.1818840" />
      <trkpt lat="45.4589892" lon="9.1818834" />
      <trkpt lat="45.4589976" lon="9.1818467" />
      <trkpt lat="45.4589995" lon="9.1818283" />
      <trkpt lat="45.4590459" lon="9.1812491" />
      <trkpt lat="45.4590253" lon="9.1812452" />
      <trkpt lat="45.4590047" lon="9.1812412" />
      <trkpt lat="45.4590045" lon="9.1812143" />
      <trkpt lat="45.4590041" lon="9.1811515" />
      <trkpt lat="45.4590040" lon="9.1811388" />
      <trkpt lat="45.4590039" lon="9.1811267" />
      <trkpt lat="45.4590038" lon="9.1811069" />
      <trkpt lat="45.4590038" lon="9.1811062" />
      <trkpt lat="45.4590036" lon="9.1810818" />
      <trkpt lat="45.4590036" lon="9.1810730" />
      <trkpt lat="45.4590112" lon="9.1810616" />
      <trkpt lat="45.4589936" lon="9.1808552" />
      <trkpt lat="45.4589618" lon="9.1806175" />
      <trkpt lat="45.4588823" lon="9.1802727" />
      <trkpt lat="45.4588673" lon="9.1801453" />
      <trkpt lat="45.4588542" lon="9.1799143" />
      <trkpt lat="45.4588510" lon="9.1794521" />
      <trkpt lat="45.4588218" lon="9.1794529" />
      <trkpt lat="45.4588208" lon="9.1792096" />
      <trkpt lat="45.4588509" lon="9.1792093" />
      <trkpt lat="45.4589076" lon="9.1787936" />
      <trkpt lat="45.4589206" lon="9.1786987" />
      <trkpt lat="45.4589955" lon="9.1782766" />
      <trkpt lat="45.4590049" lon="9.1782970" />
      <trkpt lat="45.4590175" lon="9.1783242" />
      <trkpt lat="45.4590447" lon="9.1783829" />
      <trkpt lat="45.4590476" lon="9.1783892" />
      <trkpt lat="45.4590533" lon="9.1783984" />
      <trkpt lat="45.4590729" lon="9.1783808" />
      <trkpt lat="45.4591175" lon="9.1783399" />
      <trkpt lat="45.4591291" lon="9.1783293" />
      <trkpt lat="45.4591399" lon="9.1783194" />
      <trkpt lat="45.4591639" lon="9.1782974" />
      <trkpt lat="45.4591952" lon="9.1782688" />
      <trkpt lat="45.4592016" lon="9.1782629" />
      <trkpt lat="45.4591820" lon="9.1782111" />
      <trkpt lat="45.4591831" lon="9.1781704" />
      <trkpt lat="45.4592024" lon="9.1781409" />
      <trkpt lat="45.4594933" lon="9.1778660" />
      <trkpt lat="45.4596038" lon="9.1777588" />
      <trkpt lat="45.4598155" lon="9.1777267" />
      <trkpt lat="45.4602288" lon="9.1776573" />
      <trkpt lat="45.4602962" lon="9.1776465" />
      <trkpt lat="45.4603418" lon="9.1776936" />
      <trkpt lat="45.4603801" lon="9.1779380" />
      <trkpt lat="45.4607136" lon="9.1795612" />
      <trkpt lat="45.4607191" lon="9.1795593" />
      <trkpt lat="45.4607321" lon="9.1795549" />
      <trkpt lat="45.4607577" lon="9.1795486" />
      <trkpt lat="45.4607634" lon="9.1795442" />
      <trkpt lat="45.4607923" lon="9.1795828" />
      <trkpt lat="45.4607988" lon="9.1796053" />
      <trkpt lat="45.4608048" lon="9.1796461" />
      <trkpt lat="45.4608086" lon="9.1796736" />
      <trkpt lat="45.4608169" lon="9.1796972" />
      <trkpt lat="45.4612411" lon="9.1799165" />
      <trkpt lat="45.4614052" lon="9.1799741" />
      <trkpt lat="45.4614177" lon="9.1800108" />
      <trkpt lat="45.4615318" lon="9.1803987" />
      <trkpt lat="45.4615453" lon="9.1806860" />
      <trkpt lat="45.4615281" lon="9.1806888" />
      <trkpt lat="45.4615287" lon="9.1806990" />
      <trkpt lat="45.4615301" lon="9.1807303" />
      <trkpt lat="45.4615315" lon="9.1807550" />
      <trkpt lat="45.4615311" lon="9.1807656" />
      <trkpt lat="45.4615382" lon="9.1807877" />
      <trkpt lat="45.4615509" lon="9.1812076" />
      <trkpt lat="45.4615528" lon="9.1812426" />
      <trkpt lat="45.4615398" lon="9.1812571" />
      <trkpt lat="45.4615303" lon="9.1812577" />
      <trkpt lat="45.4615416" lon="9.1814652" />
      <trkpt lat="45.4615418" lon="9.1814698" />
      <trkpt lat="45.4615435" lon="9.1815015" />
      <trkpt lat="45.4615450" lon="9.1815310" />
      <trkpt lat="45.4615437" lon="9.1815333" />
      <trkpt lat="45.4615664" lon="9.1815340" />
      <trkpt lat="45.4615721" lon="9.1815825" />
      <trkpt lat="45.4616247" lon="9.1819298" />
      <trkpt lat="45.4616494" lon="9.1821380" />
      <trkpt lat="45.4616732" lon="9.1823751" />
      <trkpt lat="45.4616752" lon="9.1823896" />
      <trkpt lat="45.4616763" lon="9.1823979" />
      <trkpt lat="45.4616773" lon="9.1824051" />
      <trkpt lat="45.4614654" lon="9.1824676" />
      <trkpt lat="45.4614231" lon="9.1825171" />
      <trkpt lat="45.4613895" lon="9.1825548" />
      <trkpt lat="45.4613666" lon="9.1826177" />
      <trkpt lat="45.4613509" lon="9.1827396" />
      <trkpt lat="45.4612960" lon="9.1829641" />
      <trkpt lat="45.4611867" lon="9.1832476" />
      <trkpt lat="45.4611214" lon="9.1834044" />
      <trkpt lat="45.4611147" lon="9.1834132" />
      <trkpt lat="45.4610867" lon="9.1833814" />
      <trkpt lat="45.4608230" lon="9.1830750" />
      <trkpt lat="45.4607814" lon="9.1830427" />
      <trkpt lat="45.4607799" lon="9.1830882" />
      <trkpt lat="45.4607795" lon="9.1831033" />
      <trkpt lat="45.4607592" lon="9.1831696" />
      <trkpt lat="45.4607524" lon="9.1831707" />
      <trkpt lat="45.4607363" lon="9.1831731" />
      <trkpt lat="45.4607193" lon="9.1831757" />
      <trkpt lat="45.4607672" lon="9.1835546" />
      <trkpt lat="45.4608135" lon="9.1838995" />
      <trkpt lat="45.4607994" lon="9.1839049" />
      <trkpt lat="45.4607504" lon="9.1839176" />
      <trkpt lat="45.4607529" lon="9.1839573" />
      <trkpt lat="45.4607532" lon="9.1839622" />
      <trkpt lat="45.4607641" lon="9.1839965" />
      <trkpt lat="45.4609409" lon="9.1846089" />
      <trkpt lat="45.4611084" lon="9.1849421" />
      <trkpt lat="45.4611102" lon="9.1849518" />
      <trkpt lat="45.4611147" lon="9.1849611" />
      <trkpt lat="45.4611221" lon="9.1849756" />
      <trkpt lat="45.4611284" lon="9.1849892" />
      <trkpt lat="45.4611313" lon="9.1849951" />
      <trkpt lat="45.4610272" lon="9.1850785" />
      <trkpt lat="45.4607756" lon="9.1852595" />
      <trkpt lat="45.4600962" lon="9.1856591" />
      <trkpt lat="45.4600565" lon="9.1857541" />
      <trkpt lat="45.4600452" lon="9.1857959" />
      <trkpt lat="45.4600464" lon="9.1858224" />
      <trkpt lat="45.4600562" lon="9.1858802" />
      <trkpt lat="45.4601933" lon="9.1863761" />
      <trkpt lat="45.4601890" lon="9.1863784" />
      <trkpt lat="45.4601615" lon="9.1863925" />
      <trkpt lat="45.4601645" lon="9.1864068" />
      <trkpt lat="45.4601317" lon="9.1864250" />
      <trkpt lat="45.4599032" lon="9.1865541" />
      <trkpt lat="45.4597056" lon="9.1866784" />
      <trkpt lat="45.4595453" lon="9.1867792" />
      <trkpt lat="45.4595005" lon="9.1868140" />
      <trkpt lat="45.4593684" lon="9.1869166" />
      <trkpt lat="45.4592731" lon="9.1869973" />
      <trkpt lat="45.4590073" lon="9.1872260" />
      <trkpt lat="45.4587320" lon="9.1874374" />
      <trkpt lat="45.4585548" lon="9.1876294" />
      <trkpt lat="45.4585220" lon="9.1876173" />
      <trkpt lat="45.4585152" lon="9.1876148" />
      <trkpt lat="45.4583253" lon="9.1876098" />
      <trkpt lat="45.4582882" lon="9.1876689" />
      <trkpt lat="45.4582824" lon="9.1876902" />
      <trkpt lat="45.4582788" lon="9.1877107" />
      <trkpt lat="45.4582774" lon="9.1877349" />
      <trkpt lat="45.4582834" lon="9.1877938" />
      <trkpt lat="45.4582467" lon="9.1877902" />
      <trkpt lat="45.4582355" lon="9.1877892" />
      <trkpt lat="45.4581917" lon="9.1877669" />
      <trkpt lat="45.4581229" lon="9.1877392" />
      <trkpt lat="45.4576411" lon="9.1877175" />
      <trkpt lat="45.4576251" lon="9.1877173" />
      <trkpt lat="45.4576245" lon="9.1877397" />
      <trkpt lat="45.4576184" lon="9.1879494" />
      <trkpt lat="45.4576099" lon="9.1882435" />
      <trkpt lat="45.4576088" lon="9.1882800" />
      <trkpt lat="45.4576172" lon="9.1885695" />
      <trkpt lat="45.4576447" lon="9.1885901" />
      <trkpt lat="45.4576661" lon="9.1885923" />
      <trkpt lat="45.4578514" lon="9.1885976" />
      <trkpt lat="45.4580244" lon="9.1885638" />
      <trkpt lat="45.4580484" lon="9.1885591" />
      <trkpt lat="45.4581526" lon="9.1885387" />
      <trkpt lat="45.4583450" lon="9.1885011" />
      <trkpt lat="45.4581526" lon="9.1885387" />
      <trkpt lat="45.4580484" lon="9.1885591" />
      <trkpt lat="45.4580244" lon="9.1885638" />
      <trkpt lat="45.4578514" lon="9.1885976" />
      <trkpt lat="45.4576661" lon="9.1885923" />
      <trkpt lat="45.4576447" lon="9.1885901" />
      <trkpt lat="45.4576172" lon="9.1885695" />
      <trkpt lat="45.4576088" lon="9.1882800" />
      <trkpt lat="45.4575141" lon="9.1882440" />
      <trkpt lat="45.4574147" lon="9.1882390" />
      <trkpt lat="45.4573852" lon="9.1888177" />
      <trkpt lat="45.4573934" lon="9.1890845" />
      <trkpt lat="45.4574939" lon="9.1896772" />
      <trkpt lat="45.4575193" lon="9.1898391" />
      <trkpt lat="45.4575378" lon="9.1899738" />
      <trkpt lat="45.4575460" lon="9.1899899" />
      <trkpt lat="45.4575696" lon="9.1899843" />
      <trkpt lat="45.4575781" lon="9.1899916" />
      <trkpt lat="45.4575843" lon="9.1900272" />
      <trkpt lat="45.4580727" lon="9.1899111" />
      <trkpt lat="45.4581177" lon="9.1903228" />
      <trkpt lat="45.4581773" lon="9.1903459" />
      <trkpt lat="45.4582586" lon="9.1904173" />
      <trkpt lat="45.4584827" lon="9.1906068" />
      <trkpt lat="45.4587228" lon="9.1908664" />
      <trkpt lat="45.4586895" lon="9.1909117" />
      <trkpt lat="45.4583585" lon="9.1914629" />
      <trkpt lat="45.4583868" lon="9.1914958" />
      <trkpt lat="45.4584217" lon="9.1915362" />
      <trkpt lat="45.4584134" lon="9.1915686" />
      <trkpt lat="45.4585160" lon="9.1916952" />
      <trkpt lat="45.4585128" lon="9.1917002" />
      <trkpt lat="45.4584914" lon="9.1917343" />
      <trkpt lat="45.4584717" lon="9.1917657" />
      <trkpt lat="45.4584687" lon="9.1917705" />
      <trkpt lat="45.4583447" lon="9.1916233" />
      <trkpt lat="45.4581232" lon="9.1913604" />
      <trkpt lat="45.4576665" lon="9.1909397" />
      <trkpt lat="45.4576383" lon="9.1909377" />
      <trkpt lat="45.4573333" lon="9.1910257" />
      <trkpt lat="45.4573193" lon="9.1909284" />
      <trkpt lat="45.4572810" lon="9.1907363" />
      <trkpt lat="45.4572698" lon="9.1906942" />
      <trkpt lat="45.4572601" lon="9.1907050" />
      <trkpt lat="45.4572348" lon="9.1907169" />
      <trkpt lat="45.4572167" lon="9.1907254" />
      <trkpt lat="45.4571724" lon="9.1907463" />
      <trkpt lat="45.4571536" lon="9.1907551" />
      <trkpt lat="45.4571434" lon="9.1907599" />
      <trkpt lat="45.4571286" lon="9.1907668" />
      <trkpt lat="45.4571174" lon="9.1907713" />
      <trkpt lat="45.4570416" lon="9.1908077" />
      <trkpt lat="45.4570306" lon="9.1908129" />
      <trkpt lat="45.4571062" lon="9.1911492" />
      <trkpt lat="45.4568926" lon="9.1910789" />
      <trkpt lat="45.4557805" lon="9.1907576" />
      <trkpt lat="45.4557062" lon="9.1907377" />
      <trkpt lat="45.4554580" lon="9.1906713" />
      <trkpt lat="45.4554462" lon="9.1906681" />
      <trkpt lat="45.4554404" lon="9.1899943" />
      <trkpt lat="45.4554206" lon="9.1899960" />
      <trkpt lat="45.4554000" lon="9.1899959" />
      <trkpt lat="45.4553602" lon="9.1899946" />
      <trkpt lat="45.4553396" lon="9.1899939" />
      <trkpt lat="45.4553537" lon="9.1899776" />
      <trkpt lat="45.4553793" lon="9.1899448" />
      <trkpt lat="45.4554992" lon="9.1880861" />
      <trkpt lat="45.4554997" lon="9.1880530" />
      <trkpt lat="45.4555011" lon="9.1879703" />
      <trkpt lat="45.4555017" lon="9.1879338" />
      <trkpt lat="45.4555109" lon="9.1879228" />
      <trkpt lat="45.4555499" lon="9.1873743" />
      <trkpt lat="45.4555587" lon="9.1873760" />
      <trkpt lat="45.4555640" lon="9.1873768" />
      <trkpt lat="45.4555940" lon="9.1873814" />
      <trkpt lat="45.4556133" lon="9.1873844" />
      <trkpt lat="45.4559577" lon="9.1874703" />
      <trkpt lat="45.4559672" lon="9.1875053" />
      <trkpt lat="45.4559813" lon="9.1875071" />
      <trkpt lat="45.4560173" lon="9.1875113" />
      <trkpt lat="45.4560539" lon="9.1875160" />
      <trkpt lat="45.4560651" lon="9.1875173" />
      <trkpt lat="45.4561029" lon="9.1875221" />
      <trkpt lat="45.4561091" lon="9.1875228" />
      <trkpt lat="45.4561284" lon="9.1875098" />
      <trkpt lat="45.4561906" lon="9.1875167" />
      <trkpt lat="45.4562056" lon="9.1875185" />
      <trkpt lat="45.4562185" lon="9.1875199" />
      <trkpt lat="45.4562341" lon="9.1875216" />
      <trkpt lat="45.4562484" lon="9.1875232" />
      <trkpt lat="45.4563447" lon="9.1875340" />
      <trkpt lat="45.4563448" lon="9.1875339" />
      <trkpt lat="45.4563450" lon="9.1875337" />
      <trkpt lat="45.4563603" lon="9.1875349" />
      <trkpt lat="45.4570920" lon="9.1875765" />
      <trkpt lat="45.4571172" lon="9.1875688" />
      <trkpt lat="45.4572183" lon="9.1875819" />
      <trkpt lat="45.4573146" lon="9.1875907" />
      <trkpt lat="45.4573373" lon="9.1876375" />
      <trkpt lat="45.4573392" lon="9.1876688" />
      <trkpt lat="45.4573450" lon="9.1876715" />
      <trkpt lat="45.4573835" lon="9.1876892" />
      <trkpt lat="45.4574277" lon="9.1877104" />
      <trkpt lat="45.4574358" lon="9.1877127" />
      <trkpt lat="45.4574542" lon="9.1877136" />
      <trkpt lat="45.4575318" lon="9.1877159" />
      <trkpt lat="45.4575310" lon="9.1877323" />
      <trkpt lat="45.4575240" lon="9.1879458" />
      <trkpt lat="45.4576184" lon="9.1879494" />
      <trkpt lat="45.4576099" lon="9.1882435" />
      <trkpt lat="45.4576088" lon="9.1882800" />
      <trkpt lat="45.4576172" lon="9.1885695" />
      <trkpt lat="45.4576447" lon="9.1885901" />
      <trkpt lat="45.4576661" lon="9.1885923" />
      <trkpt lat="45.4578514" lon="9.1885976" />
      <trkpt lat="45.4580244" lon="9.1885638" />
      <trkpt lat="45.4580484" lon="9.1885591" />
      <trkpt lat="45.4581526" lon="9.1885387" />
      <trkpt lat="45.4583450" lon="9.1885011" />
      <trkpt lat="45.4581526" lon="9.1885387" />
      <trkpt lat="45.4580484" lon="9.1885591" />
      <trkpt lat="45.4580244" lon="9.1885638" />
      <trkpt lat="45.4578514" lon="9.1885976" />
      <trkpt lat="45.4576661" lon="9.1885923" />
      <trkpt lat="45.4576447" lon="9.1885901" />
      <trkpt lat="45.4576172" lon="9.1885695" />
      <trkpt lat="45.4576088" lon="9.1882800" />
      <trkpt lat="45.4575141" lon="9.1882440" />
      <trkpt lat="45.4575142" lon="9.1882413" />
      <trkpt lat="45.4575240" lon="9.1879458" />
      <trkpt lat="45.4575310" lon="9.1877323" />
      <trkpt lat="45.4575318" lon="9.1877159" />
      <trkpt lat="45.4574542" lon="9.1877136" />
      <trkpt lat="45.4574358" lon="9.1877127" />
      <trkpt lat="45.4574277" lon="9.1877104" />
      <trkpt lat="45.4573835" lon="9.1876892" />
      <trkpt lat="45.4573450" lon="9.1876715" />
      <trkpt lat="45.4573392" lon="9.1876688" />
      <trkpt lat="45.4573373" lon="9.1876375" />
      <trkpt lat="45.4573146" lon="9.1875907" />
      <trkpt lat="45.4572183" lon="9.1875819" />
      <trkpt lat="45.4571172" lon="9.1875688" />
      <trkpt lat="45.4570920" lon="9.1875765" />
      <trkpt lat="45.4563603" lon="9.1875349" />
      <trkpt lat="45.4563450" lon="9.1875337" />
      <trkpt lat="45.4563448" lon="9.1875339" />
      <trkpt lat="45.4563447" lon="9.1875340" />
      <trkpt lat="45.4562484" lon="9.1875232" />
      <trkpt lat="45.4562341" lon="9.1875216" />
      <trkpt lat="45.4562185" lon="9.1875199" />
      <trkpt lat="45.4562056" lon="9.1875185" />
      <trkpt lat="45.4561906" lon="9.1875167" />
      <trkpt lat="45.4561284" lon="9.1875098" />
      <trkpt lat="45.4561091" lon="9.1875228" />
      <trkpt lat="45.4561029" lon="9.1875221" />
      <trkpt lat="45.4560651" lon="9.1875173" />
      <trkpt lat="45.4560539" lon="9.1875160" />
      <trkpt lat="45.4560173" lon="9.1875113" />
      <trkpt lat="45.4559813" lon="9.1875071" />
      <trkpt lat="45.4559672" lon="9.1875053" />
      <trkpt lat="45.4559577" lon="9.1874703" />
      <trkpt lat="45.4556133" lon="9.1873844" />
      <trkpt lat="45.4555940" lon="9.1873814" />
      <trkpt lat="45.4555640" lon="9.1873768" />
      <trkpt lat="45.4555587" lon="9.1873760" />
      <trkpt lat="45.4555499" lon="9.1873743" />
      <trkpt lat="45.4555463" lon="9.1873535" />
      <trkpt lat="45.4555358" lon="9.1873429" />
      <trkpt lat="45.4552861" lon="9.1873179" />
      <trkpt lat="45.4552677" lon="9.1873171" />
      <trkpt lat="45.4547029" lon="9.1872090" />
      <trkpt lat="45.4546689" lon="9.1872050" />
      <trkpt lat="45.4545939" lon="9.1871777" />
      <trkpt lat="45.4541994" lon="9.1871252" />
      <trkpt lat="45.4540471" lon="9.1871056" />
      <trkpt lat="45.4540188" lon="9.1871414" />
      <trkpt lat="45.4540037" lon="9.1871365" />
      <trkpt lat="45.4539750" lon="9.1871271" />
      <trkpt lat="45.4539409" lon="9.1871221" />
      <trkpt lat="45.4539229" lon="9.1871176" />
      <trkpt lat="45.4539189" lon="9.1870980" />
      <trkpt lat="45.4537089" lon="9.1870674" />
      <trkpt lat="45.4535196" lon="9.1870388" />
      <trkpt lat="45.4533937" lon="9.1870201" />
      <trkpt lat="45.4533772" lon="9.1870185" />
      <trkpt lat="45.4533507" lon="9.1870210" />
      <trkpt lat="45.4533433" lon="9.1870201" />
      <trkpt lat="45.4533243" lon="9.1870163" />
      <trkpt lat="45.4532952" lon="9.1870137" />
      <trkpt lat="45.4532727" lon="9.1870117" />
      <trkpt lat="45.4525207" lon="9.1868892" />
      <trkpt lat="45.4524803" lon="9.1869418" />
      <trkpt lat="45.4524259" lon="9.1872224" />
      <trkpt lat="45.4523082" lon="9.1878346" />
      <trkpt lat="45.4522402" lon="9.1885766" />
      <trkpt lat="45.4522475" lon="9.1886055" />
      <trkpt lat="45.4522464" lon="9.1886151" />
      <trkpt lat="45.4522428" lon="9.1886476" />
      <trkpt lat="45.4522407" lon="9.1886673" />
      <trkpt lat="45.4522376" lon="9.1886950" />
      <trkpt lat="45.4522407" lon="9.1886673" />
      <trkpt lat="45.4522428" lon="9.1886476" />
      <trkpt lat="45.4522109" lon="9.1886413" />
      <trkpt lat="45.4522748" lon="9.1879932" />
      <trkpt lat="45.4522092" lon="9.1879766" />
      <trkpt lat="45.4521900" lon="9.1879718" />
      <trkpt lat="45.4521967" lon="9.1879009" />
      <trkpt lat="45.4523718" lon="9.1869192" />
      <trkpt lat="45.4523207" lon="9.1869089" />
      <trkpt lat="45.4523101" lon="9.1869067" />
      <trkpt lat="45.4522821" lon="9.1869011" />
      <trkpt lat="45.4522499" lon="9.1868946" />
      <trkpt lat="45.4522164" lon="9.1868855" />
      <trkpt lat="45.4522287" lon="9.1868091" />
      <trkpt lat="45.4522376" lon="9.1867536" />
      <trkpt lat="45.4522406" lon="9.1867345" />
      <trkpt lat="45.4522435" lon="9.1867149" />
      <trkpt lat="45.4522613" lon="9.1866202" />
      <trkpt lat="45.4522566" lon="9.1865994" />
      <trkpt lat="45.4522647" lon="9.1865905" />
      <trkpt lat="45.4522753" lon="9.1864632" />
      <trkpt lat="45.4522583" lon="9.1864452" />
      <trkpt lat="45.4520811" lon="9.1862918" />
      <trkpt lat="45.4520044" lon="9.1865150" />
      <trkpt lat="45.4519997" lon="9.1865254" />
      <trkpt lat="45.4519707" lon="9.1865054" />
      <trkpt lat="45.4519563" lon="9.1864678" />
      <trkpt lat="45.4519374" lon="9.1864306" />
      <trkpt lat="45.4519223" lon="9.1863773" />
      <trkpt lat="45.4519070" lon="9.1863742" />
      <trkpt lat="45.4518845" lon="9.1863697" />
      <trkpt lat="45.4518746" lon="9.1863677" />
      <trkpt lat="45.4518586" lon="9.1863645" />
      <trkpt lat="45.4518561" lon="9.1863640" />
      <trkpt lat="45.4518471" lon="9.1863622" />
      <trkpt lat="45.4518397" lon="9.1863607" />
      <trkpt lat="45.4518024" lon="9.1863532" />
      <trkpt lat="45.4517806" lon="9.1863488" />
      <trkpt lat="45.4518274" lon="9.1858157" />
      <trkpt lat="45.4518121" lon="9.1857872" />
      <trkpt lat="45.4518168" lon="9.1857553" />
      <trkpt lat="45.4518209" lon="9.1857088" />
      <trkpt lat="45.4518238" lon="9.1856767" />
      <trkpt lat="45.4518272" lon="9.1856382" />
      <trkpt lat="45.4518436" lon="9.1856224" />
      <trkpt lat="45.4518899" lon="9.1850350" />
      <trkpt lat="45.4518571" lon="9.1849905" />
      <trkpt lat="45.4518666" lon="9.1849656" />
      <trkpt lat="45.4518841" lon="9.1849198" />
      <trkpt lat="45.4518941" lon="9.1848935" />
      <trkpt lat="45.4518988" lon="9.1848185" />
      <trkpt lat="45.4519043" lon="9.1847298" />
      <trkpt lat="45.4519090" lon="9.1846527" />
      <trkpt lat="45.4519120" lon="9.1846049" />
      <trkpt lat="45.4519127" lon="9.1845938" />
      <trkpt lat="45.4519140" lon="9.1845766" />
      <trkpt lat="45.4519144" lon="9.1845674" />
      <trkpt lat="45.4519147" lon="9.1845618" />
      <trkpt lat="45.4519153" lon="9.1845513" />
      <trkpt lat="45.4519458" lon="9.1845330" />
      <trkpt lat="45.4519921" lon="9.1845052" />
      <trkpt lat="45.4519996" lon="9.1845007" />
      <trkpt lat="45.4520200" lon="9.1844848" />
      <trkpt lat="45.4520591" lon="9.1844544" />
      <trkpt lat="45.4520701" lon="9.1844442" />
      <trkpt lat="45.4521583" lon="9.1833278" />
      <trkpt lat="45.4523214" lon="9.1811455" />
      <trkpt lat="45.4523535" lon="9.1811141" />
      <trkpt lat="45.4523550" lon="9.1810832" />
      <trkpt lat="45.4523584" lon="9.1810388" />
      <trkpt lat="45.4523639" lon="9.1809798" />
      <trkpt lat="45.4523773" lon="9.1807897" />
      <trkpt lat="45.4523819" lon="9.1807293" />
      <trkpt lat="45.4523838" lon="9.1807043" />
      <trkpt lat="45.4523847" lon="9.1806916" />
      <trkpt lat="45.4523862" lon="9.1806720" />
      <trkpt lat="45.4523893" lon="9.1806320" />
      <trkpt lat="45.4523910" lon="9.1805956" />
      <trkpt lat="45.4523918" lon="9.1805718" />
      <trkpt lat="45.4523940" lon="9.1805330" />
      <trkpt lat="45.4523957" lon="9.1804985" />
      <trkpt lat="45.4524012" lon="9.1803880" />
      <trkpt lat="45.4524024" lon="9.1803636" />
      <trkpt lat="45.4524037" lon="9.1803371" />
      <trkpt lat="45.4524040" lon="9.1803307" />
      <trkpt lat="45.4524208" lon="9.1800816" />
      <trkpt lat="45.4524215" lon="9.1800696" />
      <trkpt lat="45.4524228" lon="9.1800452" />
      <trkpt lat="45.4524256" lon="9.1799929" />
      <trkpt lat="45.4524263" lon="9.1799803" />
      <trkpt lat="45.4524271" lon="9.1799683" />
      <trkpt lat="45.4524930" lon="9.1799673" />
      <trkpt lat="45.4525972" lon="9.1799942" />
      <trkpt lat="45.4526378" lon="9.1797047" />
      <trkpt lat="45.4526859" lon="9.1790764" />
      <trkpt lat="45.4528588" lon="9.1791087" />
      <trkpt lat="45.4529262" lon="9.1797873" />
      <trkpt lat="45.4529650" lon="9.1797949" />
      <trkpt lat="45.4529756" lon="9.1797995" />
      <trkpt lat="45.4529831" lon="9.1796978" />
      <trkpt lat="45.4529907" lon="9.1795959" />
      <trkpt lat="45.4529982" lon="9.1794940" />
      <trkpt lat="45.4529850" lon="9.1793160" />
      <trkpt lat="45.4529791" lon="9.1792366" />
      <trkpt lat="45.4529288" lon="9.1785597" />
      <trkpt lat="45.4529502" lon="9.1785544" />
      <trkpt lat="45.4529696" lon="9.1785496" />
      <trkpt lat="45.4529934" lon="9.1785433" />
      <trkpt lat="45.4530186" lon="9.1785367" />
      <trkpt lat="45.4530472" lon="9.1785292" />
      <trkpt lat="45.4530473" lon="9.1785149" />
      <trkpt lat="45.4530483" lon="9.1785006" />
      <trkpt lat="45.4530511" lon="9.1784871" />
      <trkpt lat="45.4530559" lon="9.1784753" />
      <trkpt lat="45.4530632" lon="9.1784658" />
      <trkpt lat="45.4530717" lon="9.1784593" />
      <trkpt lat="45.4530807" lon="9.1784539" />
      <trkpt lat="45.4530900" lon="9.1784487" />
      <trkpt lat="45.4530881" lon="9.1784174" />
      <trkpt lat="45.4530857" lon="9.1783856" />
      <trkpt lat="45.4530820" lon="9.1783006" />
      <trkpt lat="45.4531947" lon="9.1782804" />
      <trkpt lat="45.4535234" lon="9.1781372" />
      <trkpt lat="45.4541158" lon="9.1778138" />
      <trkpt lat="45.4542035" lon="9.1776735" />
      <trkpt lat="45.4542149" lon="9.1776513" />
      <trkpt lat="45.4542455" lon="9.1776101" />
      <trkpt lat="45.4542619" lon="9.1775606" />
      <trkpt lat="45.4542652" lon="9.1775432" />
      <trkpt lat="45.4542939" lon="9.1775364" />
      <trkpt lat="45.4543179" lon="9.1775141" />
      <trkpt lat="45.4547001" lon="9.1769595" />
      <trkpt lat="45.4547187" lon="9.1769830" />
      <trkpt lat="45.4547278" lon="9.1769963" />
      <trkpt lat="45.4547926" lon="9.1769029" />
      <trkpt lat="45.4549373" lon="9.1766944" />
      <trkpt lat="45.4549735" lon="9.1766445" />
      <trkpt lat="45.4549941" lon="9.1766675" />
      <trkpt lat="45.4550061" lon="9.1766938" />
      <trkpt lat="45.4555275" lon="9.1759574" />
      <trkpt lat="45.4555167" lon="9.1759424" />
      <trkpt lat="45.4554863" lon="9.1759005" />
      <trkpt lat="45.4555190" lon="9.1758502" />
      <trkpt lat="45.4555581" lon="9.1758004" />
      <trkpt lat="45.4559382" lon="9.1752529" />
      <trkpt lat="45.4559527" lon="9.1752713" />
      <trkpt lat="45.4559684" lon="9.1752906" />
      <trkpt lat="45.4560013" lon="9.1752756" />
      <trkpt lat="45.4566635" lon="9.1762394" />
      <trkpt lat="45.4566704" lon="9.1762308" />
      <trkpt lat="45.4566861" lon="9.1762051" />
      <trkpt lat="45.4566973" lon="9.1761867" />
      <trkpt lat="45.4567004" lon="9.1761671" />
      <trkpt lat="45.4567201" lon="9.1761659" />
      <trkpt lat="45.4571404" lon="9.1755843" />
    </trkseg>
  </trk>
</gpx>
