<?xml version="1.0" encoding="UTF-8"?>
<gpx xmlns="http://www.topografix.com/GPX/1/1" version="1.1" creator="ShapeRoute route-engine">
  <metadata>
    <name>pumpkin 15 km · 2026-09-25</name>
    <author>
      <name>ShapeRoute route-engine</name>
    </author>
    <copyright author="OpenStreetMap contributors">
      <license>https://opendatacommons.org/licenses/odbl/1-0/</license>
    </copyright>
    <link href="https://www.openstreetmap.org/copyright">
      <text>© OpenStreetMap contributors</text>
    </link>
    <time>2026-09-25T23:29:56Z</time>
  </metadata>
  <trk>
    <name>pumpkin 15 km · 2026-09-25</name>
    <trkseg>
      <trkpt lat="46.0123552" lon="11.2985082" />
      <trkpt lat="46.0127099" lon="11.2988315" />
      <trkpt lat="46.0127193" lon="11.2987950" />
      <trkpt lat="46.0128564" lon="11.2988935" />
      <trkpt lat="46.0129549" lon="11.2989829" />
      <trkpt lat="46.0131011" lon="11.2992585" />
      <trkpt lat="46.0129920" lon="11.2994181" />
      <trkpt lat="46.0130152" lon="11.2995155" />
      <trkpt lat="46.0131631" lon="11.2997923" />
      <trkpt lat="46.0133640" lon="11.3000599" />
      <trkpt lat="46.0135307" lon="11.3002820" />
      <trkpt lat="46.0136300" lon="11.3003277" />
      <trkpt lat="46.0137103" lon="11.3003368" />
      <trkpt lat="46.0137990" lon="11.3002881" />
      <trkpt lat="46.0139448" lon="11.3002023" />
      <trkpt lat="46.0136191" lon="11.3007836" />
      <trkpt lat="46.0134381" lon="11.3011068" />
      <trkpt lat="46.0131872" lon="11.3015350" />
      <trkpt lat="46.0130588" lon="11.3019822" />
      <trkpt lat="46.0135551" lon="11.3022875" />
      <trkpt lat="46.0137742" lon="11.3024673" />
      <trkpt lat="46.0139875" lon="11.3026424" />
      <trkpt lat="46.0138450" lon="11.3030331" />
      <trkpt lat="46.0137912" lon="11.3032090" />
      <trkpt lat="46.0137485" lon="11.3033721" />
      <trkpt lat="46.0140056" lon="11.3035487" />
      <trkpt lat="46.0141446" lon="11.3036802" />
      <trkpt lat="46.0139686" lon="11.3042444" />
      <trkpt lat="46.0139211" lon="11.3044210" />
      <trkpt lat="46.0136996" lon="11.3055082" />
      <trkpt lat="46.0136046" lon="11.3054330" />
      <trkpt lat="46.0134104" lon="11.3053479" />
      <trkpt lat="46.0130363" lon="11.3051489" />
      <trkpt lat="46.0127990" lon="11.3049468" />
      <trkpt lat="46.0127931" lon="11.3047943" />
      <trkpt lat="46.0127644" lon="11.3045046" />
      <trkpt lat="46.0127044" lon="11.3040536" />
      <trkpt lat="46.0127396" lon="11.3036685" />
      <trkpt lat="46.0127603" lon="11.3035217" />
      <trkpt lat="46.0127143" lon="11.3035197" />
      <trkpt lat="46.0125647" lon="11.3035184" />
      <trkpt lat="46.0124641" lon="11.3035155" />
      <trkpt lat="46.0123698" lon="11.3034913" />
      <trkpt lat="46.0122138" lon="11.3034024" />
      <trkpt lat="46.0120643" lon="11.3033270" />
      <trkpt lat="46.0120087" lon="11.3032976" />
      <trkpt lat="46.0119908" lon="11.3032882" />
      <trkpt lat="46.0119735" lon="11.3032791" />
      <trkpt lat="46.0118052" lon="11.3032175" />
      <trkpt lat="46.0117371" lon="11.3032074" />
      <trkpt lat="46.0117136" lon="11.3032249" />
      <trkpt lat="46.0116328" lon="11.3033272" />
      <trkpt lat="46.0115685" lon="11.3033874" />
      <trkpt lat="46.0113727" lon="11.3034152" />
      <trkpt lat="46.0112763" lon="11.3034178" />
      <trkpt lat="46.0110488" lon="11.3033779" />
      <trkpt lat="46.0110293" lon="11.3033696" />
      <trkpt lat="46.0107514" lon="11.3031831" />
      <trkpt lat="46.0106617" lon="11.3033547" />
      <trkpt lat="46.0105931" lon="11.3034706" />
      <trkpt lat="46.0104574" lon="11.3033467" />
      <trkpt lat="46.0103653" lon="11.3033064" />
      <trkpt lat="46.0101244" lon="11.3031866" />
      <trkpt lat="46.0100840" lon="11.3031553" />
      <trkpt lat="46.0100490" lon="11.3031043" />
      <trkpt lat="46.0100029" lon="11.3029118" />
      <trkpt lat="46.0099654" lon="11.3027323" />
      <trkpt lat="46.0099138" lon="11.3026079" />
      <trkpt lat="46.0099002" lon="11.3026136" />
      <trkpt lat="46.0095734" lon="11.3027502" />
      <trkpt lat="46.0094482" lon="11.3027916" />
      <trkpt lat="46.0093379" lon="11.3028040" />
      <trkpt lat="46.0093094" lon="11.3030807" />
      <trkpt lat="46.0092604" lon="11.3035556" />
      <trkpt lat="46.0092489" lon="11.3036691" />
      <trkpt lat="46.0091325" lon="11.3048142" />
      <trkpt lat="46.0090765" lon="11.3053648" />
      <trkpt lat="46.0090647" lon="11.3054807" />
      <trkpt lat="46.0090526" lon="11.3056160" />
      <trkpt lat="46.0090411" lon="11.3057455" />
      <trkpt lat="46.0089895" lon="11.3063234" />
      <trkpt lat="46.0089556" lon="11.3067025" />
      <trkpt lat="46.0089532" lon="11.3067296" />
      <trkpt lat="46.0089556" lon="11.3067025" />
      <trkpt lat="46.0089895" lon="11.3063234" />
      <trkpt lat="46.0090411" lon="11.3057455" />
      <trkpt lat="46.0090526" lon="11.3056160" />
      <trkpt lat="46.0090647" lon="11.3054807" />
      <trkpt lat="46.0091651" lon="11.3053743" />
      <trkpt lat="46.0092062" lon="11.3053093" />
      <trkpt lat="46.0092857" lon="11.3051897" />
      <trkpt lat="46.0094566" lon="11.3050861" />
      <trkpt lat="46.0095401" lon="11.3049402" />
      <trkpt lat="46.0096533" lon="11.3047943" />
      <trkpt lat="46.0097487" lon="11.3046398" />
      <trkpt lat="46.0098799" lon="11.3045025" />
      <trkpt lat="46.0099759" lon="11.3044174" />
      <trkpt lat="46.0100810" lon="11.3043519" />
      <trkpt lat="46.0101375" lon="11.3042450" />
      <trkpt lat="46.0101583" lon="11.3042096" />
      <trkpt lat="46.0105931" lon="11.3034706" />
      <trkpt lat="46.0106617" lon="11.3033547" />
      <trkpt lat="46.0107514" lon="11.3031831" />
      <trkpt lat="46.0109980" lon="11.3026461" />
      <trkpt lat="46.0111195" lon="11.3024808" />
      <trkpt lat="46.0111961" lon="11.3024347" />
      <trkpt lat="46.0113093" lon="11.3025375" />
      <trkpt lat="46.0115724" lon="11.3026949" />
      <trkpt lat="46.0117195" lon="11.3027829" />
      <trkpt lat="46.0118040" lon="11.3028461" />
      <trkpt lat="46.0120175" lon="11.3030194" />
      <trkpt lat="46.0120576" lon="11.3030517" />
      <trkpt lat="46.0119735" lon="11.3032791" />
      <trkpt lat="46.0119908" lon="11.3032882" />
      <trkpt lat="46.0120087" lon="11.3032976" />
      <trkpt lat="46.0120643" lon="11.3033270" />
      <trkpt lat="46.0122138" lon="11.3034024" />
      <trkpt lat="46.0123698" lon="11.3034913" />
      <trkpt lat="46.0124641" lon="11.3035155" />
      <trkpt lat="46.0125647" lon="11.3035184" />
      <trkpt lat="46.0127143" lon="11.3035197" />
      <trkpt lat="46.0127603" lon="11.3035217" />
      <trkpt lat="46.0127396" lon="11.3036685" />
      <trkpt lat="46.0127044" lon="11.3040536" />
      <trkpt lat="46.0127644" lon="11.3045046" />
      <trkpt lat="46.0127931" lon="11.3047943" />
      <trkpt lat="46.0127990" lon="11.3049468" />
      <trkpt lat="46.0130363" lon="11.3051489" />
      <trkpt lat="46.0134104" lon="11.3053479" />
      <trkpt lat="46.0136046" lon="11.3054330" />
      <trkpt lat="46.0136996" lon="11.3055082" />
      <trkpt lat="46.0139211" lon="11.3044210" />
      <trkpt lat="46.0139686" lon="11.3042444" />
      <trkpt lat="46.0141446" lon="11.3036802" />
      <trkpt lat="46.0143095" lon="11.3038059" />
      <trkpt lat="46.0144313" lon="11.3038947" />
      <trkpt lat="46.0144747" lon="11.3039626" />
      <trkpt lat="46.0146628" lon="11.3041178" />
      <trkpt lat="46.0147318" lon="11.3041906" />
      <trkpt lat="46.0148201" lon="11.3043045" />
      <trkpt lat="46.0148422" lon="11.3043504" />
      <trkpt lat="46.0150062" lon="11.3046932" />
      <trkpt lat="46.0151013" lon="11.3048752" />
      <trkpt lat="46.0151850" lon="11.3050411" />
      <trkpt lat="46.0152822" lon="11.3052221" />
      <trkpt lat="46.0155139" lon="11.3054905" />
      <trkpt lat="46.0157910" lon="11.3057765" />
      <trkpt lat="46.0159255" lon="11.3059359" />
      <trkpt lat="46.0159825" lon="11.3070263" />
      <trkpt lat="46.0160195" lon="11.3078855" />
      <trkpt lat="46.0160623" lon="11.3082000" />
      <trkpt lat="46.0161589" lon="11.3085639" />
      <trkpt lat="46.0166100" lon="11.3096126" />
      <trkpt lat="46.0167447" lon="11.3099256" />
      <trkpt lat="46.0168531" lon="11.3101777" />
      <trkpt lat="46.0164436" lon="11.3101138" />
      <trkpt lat="46.0161098" lon="11.3099253" />
      <trkpt lat="46.0158237" lon="11.3097536" />
      <trkpt lat="46.0155435" lon="11.3096935" />
      <trkpt lat="46.0151755" lon="11.3095997" />
      <trkpt lat="46.0150426" lon="11.3094836" />
      <trkpt lat="46.0149739" lon="11.3093695" />
      <trkpt lat="46.0149467" lon="11.3092691" />
      <trkpt lat="46.0149346" lon="11.3091044" />
      <trkpt lat="46.0149375" lon="11.3089053" />
      <trkpt lat="46.0149682" lon="11.3086612" />
      <trkpt lat="46.0149475" lon="11.3085481" />
      <trkpt lat="46.0148886" lon="11.3084980" />
      <trkpt lat="46.0147663" lon="11.3085009" />
      <trkpt lat="46.0145486" lon="11.3085446" />
      <trkpt lat="46.0143280" lon="11.3085730" />
      <trkpt lat="46.0141429" lon="11.3085671" />
      <trkpt lat="46.0137875" lon="11.3085719" />
      <trkpt lat="46.0137052" lon="11.3085868" />
      <trkpt lat="46.0136430" lon="11.3086202" />
      <trkpt lat="46.0136139" lon="11.3086583" />
      <trkpt lat="46.0135936" lon="11.3086788" />
      <trkpt lat="46.0135640" lon="11.3086957" />
      <trkpt lat="46.0135413" lon="11.3086948" />
      <trkpt lat="46.0135225" lon="11.3086854" />
      <trkpt lat="46.0134812" lon="11.3086513" />
      <trkpt lat="46.0134568" lon="11.3086278" />
      <trkpt lat="46.0134044" lon="11.3085949" />
      <trkpt lat="46.0133450" lon="11.3085849" />
      <trkpt lat="46.0132950" lon="11.3086265" />
      <trkpt lat="46.0132379" lon="11.3086679" />
      <trkpt lat="46.0131735" lon="11.3087524" />
      <trkpt lat="46.0131139" lon="11.3088596" />
      <trkpt lat="46.0130617" lon="11.3091225" />
      <trkpt lat="46.0130319" lon="11.3092083" />
      <trkpt lat="46.0129761" lon="11.3092566" />
      <trkpt lat="46.0128792" lon="11.3092834" />
      <trkpt lat="46.0124877" lon="11.3093217" />
      <trkpt lat="46.0125112" lon="11.3095719" />
      <trkpt lat="46.0125396" lon="11.3096631" />
      <trkpt lat="46.0126642" lon="11.3100298" />
      <trkpt lat="46.0127460" lon="11.3101784" />
      <trkpt lat="46.0128927" lon="11.3103255" />
      <trkpt lat="46.0132149" lon="11.3105430" />
      <trkpt lat="46.0128927" lon="11.3103255" />
      <trkpt lat="46.0127460" lon="11.3101784" />
      <trkpt lat="46.0126642" lon="11.3100298" />
      <trkpt lat="46.0125396" lon="11.3096631" />
      <trkpt lat="46.0125112" lon="11.3095719" />
      <trkpt lat="46.0124877" lon="11.3093217" />
      <trkpt lat="46.0123477" lon="11.3093205" />
      <trkpt lat="46.0121885" lon="11.3093191" />
      <trkpt lat="46.0121068" lon="11.3093195" />
      <trkpt lat="46.0120910" lon="11.3093193" />
      <trkpt lat="46.0119086" lon="11.3093218" />
      <trkpt lat="46.0117912" lon="11.3093198" />
      <trkpt lat="46.0117285" lon="11.3093139" />
      <trkpt lat="46.0115957" lon="11.3092885" />
      <trkpt lat="46.0113540" lon="11.3092369" />
      <trkpt lat="46.0112065" lon="11.3092161" />
      <trkpt lat="46.0110982" lon="11.3092079" />
      <trkpt lat="46.0110743" lon="11.3092062" />
      <trkpt lat="46.0105969" lon="11.3092274" />
      <trkpt lat="46.0105999" lon="11.3097167" />
      <trkpt lat="46.0106237" lon="11.3098884" />
      <trkpt lat="46.0106833" lon="11.3100343" />
      <trkpt lat="46.0107072" lon="11.3102059" />
      <trkpt lat="46.0107490" lon="11.3107772" />
      <trkpt lat="46.0107599" lon="11.3108730" />
      <trkpt lat="46.0107896" lon="11.3112799" />
      <trkpt lat="46.0107626" lon="11.3114794" />
      <trkpt lat="46.0107489" lon="11.3116393" />
      <trkpt lat="46.0108293" lon="11.3120168" />
      <trkpt lat="46.0106446" lon="11.3121399" />
      <trkpt lat="46.0108723" lon="11.3128341" />
      <trkpt lat="46.0111170" lon="11.3138034" />
      <trkpt lat="46.0108825" lon="11.3138825" />
      <trkpt lat="46.0108088" lon="11.3138984" />
      <trkpt lat="46.0107976" lon="11.3139582" />
      <trkpt lat="46.0108886" lon="11.3144610" />
      <trkpt lat="46.0106283" lon="11.3147260" />
      <trkpt lat="46.0108886" lon="11.3144610" />
      <trkpt lat="46.0107976" lon="11.3139582" />
      <trkpt lat="46.0108088" lon="11.3138984" />
      <trkpt lat="46.0107191" lon="11.3137336" />
      <trkpt lat="46.0103150" lon="11.3129338" />
      <trkpt lat="46.0101811" lon="11.3126513" />
      <trkpt lat="46.0100407" lon="11.3123551" />
      <trkpt lat="46.0100260" lon="11.3123266" />
      <trkpt lat="46.0100043" lon="11.3122845" />
      <trkpt lat="46.0098652" lon="11.3120149" />
      <trkpt lat="46.0098528" lon="11.3119847" />
      <trkpt lat="46.0097121" lon="11.3116421" />
      <trkpt lat="46.0095716" lon="11.3109346" />
      <trkpt lat="46.0094338" lon="11.3102144" />
      <trkpt lat="46.0095716" lon="11.3109346" />
      <trkpt lat="46.0097121" lon="11.3116421" />
      <trkpt lat="46.0098528" lon="11.3119847" />
      <trkpt lat="46.0098652" lon="11.3120149" />
      <trkpt lat="46.0100043" lon="11.3122845" />
      <trkpt lat="46.0100260" lon="11.3123266" />
      <trkpt lat="46.0100407" lon="11.3123551" />
      <trkpt lat="46.0100890" lon="11.3123661" />
      <trkpt lat="46.0102028" lon="11.3123793" />
      <trkpt lat="46.0102978" lon="11.3123331" />
      <trkpt lat="46.0103468" lon="11.3123058" />
      <trkpt lat="46.0106446" lon="11.3121399" />
      <trkpt lat="46.0108293" lon="11.3120168" />
      <trkpt lat="46.0109155" lon="11.3119592" />
      <trkpt lat="46.0111544" lon="11.3119172" />
      <trkpt lat="46.0113099" lon="11.3119234" />
      <trkpt lat="46.0114134" lon="11.3118904" />
      <trkpt lat="46.0115386" lon="11.3118246" />
      <trkpt lat="46.0117628" lon="11.3135423" />
      <trkpt lat="46.0119632" lon="11.3134631" />
      <trkpt lat="46.0120941" lon="11.3134365" />
      <trkpt lat="46.0121874" lon="11.3134327" />
      <trkpt lat="46.0122690" lon="11.3134494" />
      <trkpt lat="46.0123586" lon="11.3134967" />
      <trkpt lat="46.0126415" lon="11.3136326" />
      <trkpt lat="46.0128110" lon="11.3137171" />
      <trkpt lat="46.0128944" lon="11.3137494" />
      <trkpt lat="46.0129807" lon="11.3137517" />
      <trkpt lat="46.0130782" lon="11.3137293" />
      <trkpt lat="46.0133271" lon="11.3136518" />
      <trkpt lat="46.0131658" lon="11.3128957" />
      <trkpt lat="46.0130312" lon="11.3120209" />
      <trkpt lat="46.0126642" lon="11.3100298" />
      <trkpt lat="46.0127460" lon="11.3101784" />
      <trkpt lat="46.0128927" lon="11.3103255" />
      <trkpt lat="46.0132149" lon="11.3105430" />
      <trkpt lat="46.0128927" lon="11.3103255" />
      <trkpt lat="46.0127460" lon="11.3101784" />
      <trkpt lat="46.0126642" lon="11.3100298" />
      <trkpt lat="46.0130312" lon="11.3120209" />
      <trkpt lat="46.0131658" lon="11.3128957" />
      <trkpt lat="46.0133271" lon="11.3136518" />
      <trkpt lat="46.0135245" lon="11.3143214" />
      <trkpt lat="46.0135590" lon="11.3144756" />
      <trkpt lat="46.0137896" lon="11.3155063" />
      <trkpt lat="46.0138404" lon="11.3156680" />
      <trkpt lat="46.0139534" lon="11.3158835" />
      <trkpt lat="46.0141538" lon="11.3161173" />
      <trkpt lat="46.0144307" lon="11.3163372" />
      <trkpt lat="46.0145098" lon="11.3164072" />
      <trkpt lat="46.0146092" lon="11.3165448" />
      <trkpt lat="46.0146948" lon="11.3166976" />
      <trkpt lat="46.0146805" lon="11.3168091" />
      <trkpt lat="46.0147372" lon="11.3170096" />
      <trkpt lat="46.0148061" lon="11.3172537" />
      <trkpt lat="46.0148349" lon="11.3176091" />
      <trkpt lat="46.0148521" lon="11.3177686" />
      <trkpt lat="46.0148506" lon="11.3180519" />
      <trkpt lat="46.0148332" lon="11.3182306" />
      <trkpt lat="46.0148106" lon="11.3183394" />
      <trkpt lat="46.0146133" lon="11.3182669" />
      <trkpt lat="46.0143082" lon="11.3182566" />
      <trkpt lat="46.0142613" lon="11.3182485" />
      <trkpt lat="46.0142106" lon="11.3182397" />
      <trkpt lat="46.0139994" lon="11.3181689" />
      <trkpt lat="46.0137604" lon="11.3180580" />
      <trkpt lat="46.0137276" lon="11.3181457" />
      <trkpt lat="46.0136931" lon="11.3182379" />
      <trkpt lat="46.0135583" lon="11.3187308" />
      <trkpt lat="46.0135405" lon="11.3187823" />
      <trkpt lat="46.0134956" lon="11.3189123" />
      <trkpt lat="46.0134417" lon="11.3190154" />
      <trkpt lat="46.0133891" lon="11.3190775" />
      <trkpt lat="46.0133763" lon="11.3190926" />
      <trkpt lat="46.0132023" lon="11.3191660" />
      <trkpt lat="46.0130420" lon="11.3191867" />
      <trkpt lat="46.0129080" lon="11.3192330" />
      <trkpt lat="46.0127248" lon="11.3193919" />
      <trkpt lat="46.0126416" lon="11.3193976" />
      <trkpt lat="46.0124432" lon="11.3193425" />
      <trkpt lat="46.0121107" lon="11.3193324" />
      <trkpt lat="46.0121283" lon="11.3194106" />
      <trkpt lat="46.0117018" lon="11.3197390" />
      <trkpt lat="46.0114670" lon="11.3199691" />
      <trkpt lat="46.0112406" lon="11.3201735" />
      <trkpt lat="46.0109794" lon="11.3204505" />
      <trkpt lat="46.0107664" lon="11.3206245" />
      <trkpt lat="46.0106770" lon="11.3206931" />
      <trkpt lat="46.0104807" lon="11.3208489" />
      <trkpt lat="46.0102661" lon="11.3209777" />
      <trkpt lat="46.0100079" lon="11.3211017" />
      <trkpt lat="46.0097847" lon="11.3205667" />
      <trkpt lat="46.0095114" lon="11.3198769" />
      <trkpt lat="46.0094134" lon="11.3195938" />
      <trkpt lat="46.0093069" lon="11.3191934" />
      <trkpt lat="46.0080687" lon="11.3194383" />
      <trkpt lat="46.0079378" lon="11.3191646" />
      <trkpt lat="46.0079043" lon="11.3191195" />
      <trkpt lat="46.0078576" lon="11.3190566" />
      <trkpt lat="46.0078471" lon="11.3190383" />
      <trkpt lat="46.0078035" lon="11.3189629" />
      <trkpt lat="46.0078333" lon="11.3182906" />
      <trkpt lat="46.0078157" lon="11.3163702" />
      <trkpt lat="46.0078223" lon="11.3160792" />
      <trkpt lat="46.0078423" lon="11.3158250" />
      <trkpt lat="46.0079104" lon="11.3154873" />
      <trkpt lat="46.0077865" lon="11.3151823" />
      <trkpt lat="46.0075841" lon="11.3147094" />
      <trkpt lat="46.0074869" lon="11.3145440" />
      <trkpt lat="46.0073510" lon="11.3143670" />
      <trkpt lat="46.0072132" lon="11.3142093" />
      <trkpt lat="46.0071157" lon="11.3140977" />
      <trkpt lat="46.0069796" lon="11.3139292" />
      <trkpt lat="46.0068800" lon="11.3137078" />
      <trkpt lat="46.0066783" lon="11.3133403" />
      <trkpt lat="46.0065170" lon="11.3129414" />
      <trkpt lat="46.0063929" lon="11.3125168" />
      <trkpt lat="46.0062950" lon="11.3122830" />
      <trkpt lat="46.0061855" lon="11.3120538" />
      <trkpt lat="46.0061022" lon="11.3119027" />
      <trkpt lat="46.0060253" lon="11.3116822" />
      <trkpt lat="46.0059674" lon="11.3113690" />
      <trkpt lat="46.0059227" lon="11.3110900" />
      <trkpt lat="46.0059244" lon="11.3105553" />
      <trkpt lat="46.0059619" lon="11.3101459" />
      <trkpt lat="46.0059920" lon="11.3097992" />
      <trkpt lat="46.0060156" lon="11.3093371" />
      <trkpt lat="46.0060374" lon="11.3087424" />
      <trkpt lat="46.0060505" lon="11.3083411" />
      <trkpt lat="46.0060297" lon="11.3074341" />
      <trkpt lat="46.0060375" lon="11.3068731" />
      <trkpt lat="46.0059868" lon="11.3066405" />
      <trkpt lat="46.0059288" lon="11.3071873" />
      <trkpt lat="46.0058804" lon="11.3075429" />
      <trkpt lat="46.0058203" lon="11.3077677" />
      <trkpt lat="46.0057341" lon="11.3079688" />
      <trkpt lat="46.0056023" lon="11.3081476" />
      <trkpt lat="46.0054187" lon="11.3083960" />
      <trkpt lat="46.0052770" lon="11.3084969" />
      <trkpt lat="46.0052570" lon="11.3085037" />
      <trkpt lat="46.0051424" lon="11.3085430" />
      <trkpt lat="46.0049840" lon="11.3085627" />
      <trkpt lat="46.0047705" lon="11.3085896" />
      <trkpt lat="46.0045028" lon="11.3086190" />
      <trkpt lat="46.0044071" lon="11.3086441" />
      <trkpt lat="46.0043032" lon="11.3086805" />
      <trkpt lat="46.0040299" lon="11.3089548" />
      <trkpt lat="46.0039405" lon="11.3090423" />
      <trkpt lat="46.0038448" lon="11.3092298" />
      <trkpt lat="46.0039405" lon="11.3090423" />
      <trkpt lat="46.0040299" lon="11.3089548" />
      <trkpt lat="46.0043032" lon="11.3086805" />
      <trkpt lat="46.0044071" lon="11.3086441" />
      <trkpt lat="46.0045028" lon="11.3086190" />
      <trkpt lat="46.0047705" lon="11.3085896" />
      <trkpt lat="46.0049840" lon="11.3085627" />
      <trkpt lat="46.0051424" lon="11.3085430" />
      <trkpt lat="46.0052570" lon="11.3085037" />
      <trkpt lat="46.0052770" lon="11.3084969" />
      <trkpt lat="46.0054187" lon="11.3083960" />
      <trkpt lat="46.0056023" lon="11.3081476" />
      <trkpt lat="46.0057341" lon="11.3079688" />
      <trkpt lat="46.0058203" lon="11.3077677" />
      <trkpt lat="46.0058804" lon="11.3075429" />
      <trkpt lat="46.0059288" lon="11.3071873" />
      <trkpt lat="46.0059868" lon="11.3066405" />
      <trkpt lat="46.0060319" lon="11.3062139" />
      <trkpt lat="46.0060831" lon="11.3059050" />
      <trkpt lat="46.0061578" lon="11.3057958" />
      <trkpt lat="46.0062213" lon="11.3057159" />
      <trkpt lat="46.0062429" lon="11.3056829" />
      <trkpt lat="46.0063120" lon="11.3055513" />
      <trkpt lat="46.0065026" lon="11.3051581" />
      <trkpt lat="46.0065466" lon="11.3051152" />
      <trkpt lat="46.0065975" lon="11.3050846" />
      <trkpt lat="46.0067208" lon="11.3050712" />
      <trkpt lat="46.0071910" lon="11.3051534" />
      <trkpt lat="46.0074884" lon="11.3052053" />
      <trkpt lat="46.0073430" lon="11.3061002" />
      <trkpt lat="46.0076858" lon="11.3062259" />
      <trkpt lat="46.0079350" lon="11.3063275" />
      <trkpt lat="46.0082661" lon="11.3064320" />
      <trkpt lat="46.0083271" lon="11.3064780" />
      <trkpt lat="46.0082414" lon="11.3073453" />
      <trkpt lat="46.0080468" lon="11.3095756" />
      <trkpt lat="46.0078327" lon="11.3095652" />
      <trkpt lat="46.0076377" lon="11.3095508" />
      <trkpt lat="46.0075469" lon="11.3095633" />
      <trkpt lat="46.0071849" lon="11.3096916" />
      <trkpt lat="46.0071390" lon="11.3096988" />
      <trkpt lat="46.0070612" lon="11.3096731" />
      <trkpt lat="46.0071390" lon="11.3096988" />
      <trkpt lat="46.0071849" lon="11.3096916" />
      <trkpt lat="46.0075469" lon="11.3095633" />
      <trkpt lat="46.0076377" lon="11.3095508" />
      <trkpt lat="46.0078327" lon="11.3095652" />
      <trkpt lat="46.0080468" lon="11.3095756" />
      <trkpt lat="46.0082414" lon="11.3073453" />
      <trkpt lat="46.0083271" lon="11.3064780" />
      <trkpt lat="46.0082661" lon="11.3064320" />
      <trkpt lat="46.0079350" lon="11.3063275" />
      <trkpt lat="46.0076858" lon="11.3062259" />
      <trkpt lat="46.0073430" lon="11.3061002" />
      <trkpt lat="46.0074884" lon="11.3052053" />
      <trkpt lat="46.0077349" lon="11.3052484" />
      <trkpt lat="46.0077830" lon="11.3052568" />
      <trkpt lat="46.0084263" lon="11.3053692" />
      <trkpt lat="46.0084434" lon="11.3051875" />
      <trkpt lat="46.0086273" lon="11.3032364" />
      <trkpt lat="46.0086999" lon="11.3026574" />
      <trkpt lat="46.0087248" lon="11.3024947" />
      <trkpt lat="46.0087503" lon="11.3023826" />
      <trkpt lat="46.0087248" lon="11.3024947" />
      <trkpt lat="46.0086999" lon="11.3026574" />
      <trkpt lat="46.0086273" lon="11.3032364" />
      <trkpt lat="46.0084434" lon="11.3051875" />
      <trkpt lat="46.0084263" lon="11.3053692" />
      <trkpt lat="46.0084093" lon="11.3055594" />
      <trkpt lat="46.0083271" lon="11.3064780" />
      <trkpt lat="46.0082414" lon="11.3073453" />
      <trkpt lat="46.0080468" lon="11.3095756" />
      <trkpt lat="46.0080464" lon="11.3096269" />
      <trkpt lat="46.0080458" lon="11.3096974" />
      <trkpt lat="46.0080447" lon="11.3098215" />
      <trkpt lat="46.0080561" lon="11.3099425" />
      <trkpt lat="46.0080908" lon="11.3103122" />
      <trkpt lat="46.0081771" lon="11.3109370" />
      <trkpt lat="46.0081889" lon="11.3110227" />
      <trkpt lat="46.0083373" lon="11.3120961" />
      <trkpt lat="46.0083716" lon="11.3123548" />
      <trkpt lat="46.0083970" lon="11.3125461" />
      <trkpt lat="46.0084138" lon="11.3126652" />
      <trkpt lat="46.0084349" lon="11.3128150" />
      <trkpt lat="46.0084138" lon="11.3126652" />
      <trkpt lat="46.0083970" lon="11.3125461" />
      <trkpt lat="46.0083716" lon="11.3123548" />
      <trkpt lat="46.0083373" lon="11.3120961" />
      <trkpt lat="46.0081889" lon="11.3110227" />
      <trkpt lat="46.0081771" lon="11.3109370" />
      <trkpt lat="46.0080908" lon="11.3103122" />
      <trkpt lat="46.0080561" lon="11.3099425" />
      <trkpt lat="46.0080447" lon="11.3098215" />
      <trkpt lat="46.0080458" lon="11.3096974" />
      <trkpt lat="46.0080464" lon="11.3096269" />
      <trkpt lat="46.0080468" lon="11.3095756" />
      <trkpt lat="46.0078327" lon="11.3095652" />
      <trkpt lat="46.0076377" lon="11.3095508" />
      <trkpt lat="46.0075469" lon="11.3095633" />
      <trkpt lat="46.0071849" lon="11.3096916" />
      <trkpt lat="46.0071390" lon="11.3096988" />
      <trkpt lat="46.0070612" lon="11.3096731" />
      <trkpt lat="46.0071390" lon="11.3096988" />
      <trkpt lat="46.0071849" lon="11.3096916" />
      <trkpt lat="46.0075469" lon="11.3095633" />
      <trkpt lat="46.0076377" lon="11.3095508" />
      <trkpt lat="46.0078327" lon="11.3095652" />
      <trkpt lat="46.0080468" lon="11.3095756" />
      <trkpt lat="46.0082414" lon="11.3073453" />
      <trkpt lat="46.0083271" lon="11.3064780" />
      <trkpt lat="46.0082661" lon="11.3064320" />
      <trkpt lat="46.0079350" lon="11.3063275" />
      <trkpt lat="46.0076858" lon="11.3062259" />
      <trkpt lat="46.0073430" lon="11.3061002" />
      <trkpt lat="46.0074884" lon="11.3052053" />
      <trkpt lat="46.0071910" lon="11.3051534" />
      <trkpt lat="46.0067208" lon="11.3050712" />
      <trkpt lat="46.0065975" lon="11.3050846" />
      <trkpt lat="46.0065466" lon="11.3051152" />
      <trkpt lat="46.0065026" lon="11.3051581" />
      <trkpt lat="46.0063120" lon="11.3055513" />
      <trkpt lat="46.0062429" lon="11.3056829" />
      <trkpt lat="46.0062213" lon="11.3057159" />
      <trkpt lat="46.0061578" lon="11.3057958" />
      <trkpt lat="46.0060831" lon="11.3059050" />
      <trkpt lat="46.0060319" lon="11.3062139" />
      <trkpt lat="46.0059868" lon="11.3066405" />
      <trkpt lat="46.0059288" lon="11.3071873" />
      <trkpt lat="46.0058804" lon="11.3075429" />
      <trkpt lat="46.0058203" lon="11.3077677" />
      <trkpt lat="46.0057341" lon="11.3079688" />
      <trkpt lat="46.0056023" lon="11.3081476" />
      <trkpt lat="46.0054187" lon="11.3083960" />
      <trkpt lat="46.0052770" lon="11.3084969" />
      <trkpt lat="46.0052570" lon="11.3085037" />
      <trkpt lat="46.0051424" lon="11.3085430" />
      <trkpt lat="46.0049840" lon="11.3085627" />
      <trkpt lat="46.0047705" lon="11.3085896" />
      <trkpt lat="46.0045028" lon="11.3086190" />
      <trkpt lat="46.0044071" lon="11.3086441" />
      <trkpt lat="46.0043032" lon="11.3086805" />
      <trkpt lat="46.0040299" lon="11.3089548" />
      <trkpt lat="46.0039405" lon="11.3090423" />
      <trkpt lat="46.0038448" lon="11.3092298" />
      <trkpt lat="46.0039405" lon="11.3090423" />
      <trkpt lat="46.0040299" lon="11.3089548" />
      <trkpt lat="46.0043032" lon="11.3086805" />
      <trkpt lat="46.0044071" lon="11.3086441" />
      <trkpt lat="46.0045028" lon="11.3086190" />
      <trkpt lat="46.0047705" lon="11.3085896" />
      <trkpt lat="46.0049840" lon="11.3085627" />
      <trkpt lat="46.0051424" lon="11.3085430" />
      <trkpt lat="46.0052570" lon="11.3085037" />
      <trkpt lat="46.0052770" lon="11.3084969" />
      <trkpt lat="46.0054187" lon="11.3083960" />
      <trkpt lat="46.0056023" lon="11.3081476" />
      <trkpt lat="46.0057341" lon="11.3079688" />
      <trkpt lat="46.0058203" lon="11.3077677" />
      <trkpt lat="46.0058804" lon="11.3075429" />
      <trkpt lat="46.0059288" lon="11.3071873" />
      <trkpt lat="46.0059868" lon="11.3066405" />
      <trkpt lat="46.0060319" lon="11.3062139" />
      <trkpt lat="46.0060831" lon="11.3059050" />
      <trkpt lat="46.0060439" lon="11.3056937" />
      <trkpt lat="46.0060391" lon="11.3055819" />
      <trkpt lat="46.0060451" lon="11.3053913" />
      <trkpt lat="46.0060983" lon="11.3049590" />
      <trkpt lat="46.0061198" lon="11.3047827" />
      <trkpt lat="46.0061697" lon="11.3043730" />
      <trkpt lat="46.0061854" lon="11.3042582" />
      <trkpt lat="46.0062066" lon="11.3041748" />
      <trkpt lat="46.0062972" lon="11.3038449" />
      <trkpt lat="46.0063762" lon="11.3035226" />
      <trkpt lat="46.0063797" lon="11.3035108" />
      <trkpt lat="46.0064759" lon="11.3031605" />
      <trkpt lat="46.0065081" lon="11.3030335" />
      <trkpt lat="46.0066162" lon="11.3026200" />
      <trkpt lat="46.0067126" lon="11.3022732" />
      <trkpt lat="46.0067834" lon="11.3020980" />
      <trkpt lat="46.0068944" lon="11.3018899" />
      <trkpt lat="46.0070144" lon="11.3017272" />
      <trkpt lat="46.0070569" lon="11.3016486" />
      <trkpt lat="46.0070491" lon="11.3016431" />
      <trkpt lat="46.0070405" lon="11.3016340" />
      <trkpt lat="46.0070332" lon="11.3016226" />
      <trkpt lat="46.0070277" lon="11.3016094" />
      <trkpt lat="46.0070241" lon="11.3015950" />
      <trkpt lat="46.0070224" lon="11.3015798" />
      <trkpt lat="46.0070229" lon="11.3015644" />
      <trkpt lat="46.0070255" lon="11.3015494" />
      <trkpt lat="46.0070300" lon="11.3015355" />
      <trkpt lat="46.0070357" lon="11.3015240" />
      <trkpt lat="46.0070442" lon="11.3015127" />
      <trkpt lat="46.0070533" lon="11.3015047" />
      <trkpt lat="46.0070634" lon="11.3014994" />
      <trkpt lat="46.0070739" lon="11.3014971" />
      <trkpt lat="46.0070846" lon="11.3014978" />
      <trkpt lat="46.0070950" lon="11.3015015" />
      <trkpt lat="46.0071047" lon="11.3015080" />
      <trkpt lat="46.0071148" lon="11.3015190" />
      <trkpt lat="46.0071213" lon="11.3015131" />
      <trkpt lat="46.0071272" lon="11.3015076" />
      <trkpt lat="46.0072818" lon="11.3013815" />
      <trkpt lat="46.0078069" lon="11.3010941" />
      <trkpt lat="46.0080384" lon="11.3009880" />
      <trkpt lat="46.0080981" lon="11.3009575" />
      <trkpt lat="46.0081156" lon="11.3009486" />
      <trkpt lat="46.0081833" lon="11.3007954" />
      <trkpt lat="46.0083690" lon="11.3003535" />
      <trkpt lat="46.0085907" lon="11.2997702" />
      <trkpt lat="46.0086613" lon="11.2996130" />
      <trkpt lat="46.0083716" lon="11.2994631" />
      <trkpt lat="46.0087983" lon="11.2984184" />
      <trkpt lat="46.0086230" lon="11.2982644" />
      <trkpt lat="46.0089354" lon="11.2976279" />
      <trkpt lat="46.0089850" lon="11.2975267" />
      <trkpt lat="46.0090480" lon="11.2977699" />
      <trkpt lat="46.0091039" lon="11.2979094" />
      <trkpt lat="46.0091656" lon="11.2980281" />
      <trkpt lat="46.0092317" lon="11.2981169" />
      <trkpt lat="46.0092880" lon="11.2981822" />
      <trkpt lat="46.0094346" lon="11.2983049" />
      <trkpt lat="46.0095394" lon="11.2983507" />
      <trkpt lat="46.0096438" lon="11.2983759" />
      <trkpt lat="46.0098825" lon="11.2984367" />
      <trkpt lat="46.0099589" lon="11.2984611" />
      <trkpt lat="46.0099647" lon="11.2984635" />
      <trkpt lat="46.0100365" lon="11.2984927" />
      <trkpt lat="46.0100762" lon="11.2985089" />
      <trkpt lat="46.0101575" lon="11.2985629" />
      <trkpt lat="46.0101817" lon="11.2985380" />
      <trkpt lat="46.0102101" lon="11.2985252" />
      <trkpt lat="46.0102411" lon="11.2984343" />
      <trkpt lat="46.0102422" lon="11.2983790" />
      <trkpt lat="46.0108845" lon="11.2973714" />
      <trkpt lat="46.0110949" lon="11.2970250" />
      <trkpt lat="46.0111781" lon="11.2968399" />
      <trkpt lat="46.0112568" lon="11.2970649" />
      <trkpt lat="46.0112181" lon="11.2971112" />
      <trkpt lat="46.0116123" lon="11.2977853" />
      <trkpt lat="46.0115764" lon="11.2979707" />
      <trkpt lat="46.0115587" lon="11.2979934" />
      <trkpt lat="46.0116728" lon="11.2981556" />
      <trkpt lat="46.0118028" lon="11.2983483" />
      <trkpt lat="46.0118824" lon="11.2985225" />
      <trkpt lat="46.0120860" lon="11.2982428" />
      <trkpt lat="46.0122052" lon="11.2981248" />
      <trkpt lat="46.0122499" lon="11.2982214" />
      <trkpt lat="46.0122424" lon="11.2983394" />
      <trkpt lat="46.0123552" lon="11.2985082" />
    </trkseg>
  </trk>
</gpx>
