<?xml version="1.0" encoding="UTF-8"?>
<gpx xmlns="http://www.topografix.com/GPX/1/1" version="1.1" creator="ShapeRoute route-engine">
  <metadata>
    <name>rabbit_head 15 km · 2026-09-26</name>
    <author>
      <name>ShapeRoute route-engine</name>
    </author>
    <copyright author="OpenStreetMap contributors">
      <license>https://opendatacommons.org/licenses/odbl/1-0/</license>
    </copyright>
    <link href="https://www.openstreetmap.org/copyright">
      <text>© OpenStreetMap contributors</text>
    </link>
    <time>2026-09-26T06:35:06Z</time>
  </metadata>
  <trk>
    <name>rabbit_head 15 km · 2026-09-26</name>
    <trkseg>
      <trkpt lat="45.4643695" lon="9.1897716" />
      <trkpt lat="45.4644313" lon="9.1898582" />
      <trkpt lat="45.4644741" lon="9.1898729" />
      <trkpt lat="45.4645046" lon="9.1898833" />
      <trkpt lat="45.4645446" lon="9.1898970" />
      <trkpt lat="45.4645546" lon="9.1899005" />
      <trkpt lat="45.4645542" lon="9.1899580" />
      <trkpt lat="45.4645591" lon="9.1899581" />
      <trkpt lat="45.4646367" lon="9.1899591" />
      <trkpt lat="45.4646498" lon="9.1907690" />
      <trkpt lat="45.4646367" lon="9.1899591" />
      <trkpt lat="45.4646353" lon="9.1898647" />
      <trkpt lat="45.4645891" lon="9.1898632" />
      <trkpt lat="45.4645900" lon="9.1899176" />
      <trkpt lat="45.4645905" lon="9.1900674" />
      <trkpt lat="45.4646189" lon="9.1900818" />
      <trkpt lat="45.4646185" lon="9.1901205" />
      <trkpt lat="45.4646180" lon="9.1901380" />
      <trkpt lat="45.4646177" lon="9.1901722" />
      <trkpt lat="45.4646380" lon="9.1901870" />
      <trkpt lat="45.4646378" lon="9.1902372" />
      <trkpt lat="45.4646376" lon="9.1902500" />
      <trkpt lat="45.4646377" lon="9.1902705" />
      <trkpt lat="45.4646652" lon="9.1903590" />
      <trkpt lat="45.4646642" lon="9.1904112" />
      <trkpt lat="45.4646621" lon="9.1904786" />
      <trkpt lat="45.4647559" lon="9.1906084" />
      <trkpt lat="45.4647643" lon="9.1907699" />
      <trkpt lat="45.4648336" lon="9.1907690" />
      <trkpt lat="45.4649417" lon="9.1907691" />
      <trkpt lat="45.4649955" lon="9.1907679" />
      <trkpt lat="45.4649955" lon="9.1907749" />
      <trkpt lat="45.4649955" lon="9.1907816" />
      <trkpt lat="45.4649958" lon="9.1908180" />
      <trkpt lat="45.4650063" lon="9.1908178" />
      <trkpt lat="45.4655683" lon="9.1908105" />
      <trkpt lat="45.4655760" lon="9.1908105" />
      <trkpt lat="45.4656127" lon="9.1908102" />
      <trkpt lat="45.4656131" lon="9.1907635" />
      <trkpt lat="45.4658150" lon="9.1907649" />
      <trkpt lat="45.4658665" lon="9.1907643" />
      <trkpt lat="45.4659350" lon="9.1908475" />
      <trkpt lat="45.4659541" lon="9.1908131" />
      <trkpt lat="45.4660304" lon="9.1909037" />
      <trkpt lat="45.4660482" lon="9.1908736" />
      <trkpt lat="45.4661236" lon="9.1907498" />
      <trkpt lat="45.4661480" lon="9.1907788" />
      <trkpt lat="45.4661683" lon="9.1908029" />
      <trkpt lat="45.4664131" lon="9.1910960" />
      <trkpt lat="45.4665187" lon="9.1910906" />
      <trkpt lat="45.4666614" lon="9.1911756" />
      <trkpt lat="45.4666918" lon="9.1911944" />
      <trkpt lat="45.4667157" lon="9.1912083" />
      <trkpt lat="45.4667279" lon="9.1912150" />
      <trkpt lat="45.4668281" lon="9.1909644" />
      <trkpt lat="45.4668404" lon="9.1909689" />
      <trkpt lat="45.4668943" lon="9.1909886" />
      <trkpt lat="45.4669325" lon="9.1910025" />
      <trkpt lat="45.4669459" lon="9.1910074" />
      <trkpt lat="45.4673672" lon="9.1901182" />
      <trkpt lat="45.4673857" lon="9.1900783" />
      <trkpt lat="45.4673919" lon="9.1900712" />
      <trkpt lat="45.4673980" lon="9.1900685" />
      <trkpt lat="45.4674048" lon="9.1900702" />
      <trkpt lat="45.4674103" lon="9.1900735" />
      <trkpt lat="45.4674187" lon="9.1900808" />
      <trkpt lat="45.4674409" lon="9.1901068" />
      <trkpt lat="45.4676082" lon="9.1902944" />
      <trkpt lat="45.4677684" lon="9.1904739" />
      <trkpt lat="45.4678774" lon="9.1905869" />
      <trkpt lat="45.4682125" lon="9.1909344" />
      <trkpt lat="45.4683925" lon="9.1911214" />
      <trkpt lat="45.4683960" lon="9.1911249" />
      <trkpt lat="45.4684034" lon="9.1911323" />
      <trkpt lat="45.4684179" lon="9.1911468" />
      <trkpt lat="45.4684196" lon="9.1911485" />
      <trkpt lat="45.4685634" lon="9.1912677" />
      <trkpt lat="45.4686940" lon="9.1913818" />
      <trkpt lat="45.4689281" lon="9.1915862" />
      <trkpt lat="45.4689875" lon="9.1916448" />
      <trkpt lat="45.4690432" lon="9.1917080" />
      <trkpt lat="45.4690732" lon="9.1917449" />
      <trkpt lat="45.4690748" lon="9.1917420" />
      <trkpt lat="45.4690888" lon="9.1917174" />
      <trkpt lat="45.4690937" lon="9.1917088" />
      <trkpt lat="45.4693869" lon="9.1920348" />
      <trkpt lat="45.4693936" lon="9.1920205" />
      <trkpt lat="45.4694101" lon="9.1919871" />
      <trkpt lat="45.4694200" lon="9.1919985" />
      <trkpt lat="45.4696795" lon="9.1922784" />
      <trkpt lat="45.4700115" lon="9.1926347" />
      <trkpt lat="45.4700541" lon="9.1926365" />
      <trkpt lat="45.4700670" lon="9.1926516" />
      <trkpt lat="45.4701425" lon="9.1927322" />
      <trkpt lat="45.4701605" lon="9.1927513" />
      <trkpt lat="45.4701882" lon="9.1927806" />
      <trkpt lat="45.4701963" lon="9.1927892" />
      <trkpt lat="45.4702097" lon="9.1928034" />
      <trkpt lat="45.4702490" lon="9.1928409" />
      <trkpt lat="45.4704812" lon="9.1930845" />
      <trkpt lat="45.4707344" lon="9.1933387" />
      <trkpt lat="45.4707526" lon="9.1933059" />
      <trkpt lat="45.4707908" lon="9.1933466" />
      <trkpt lat="45.4708147" lon="9.1933720" />
      <trkpt lat="45.4708543" lon="9.1934142" />
      <trkpt lat="45.4708655" lon="9.1934261" />
      <trkpt lat="45.4708665" lon="9.1934468" />
      <trkpt lat="45.4709456" lon="9.1935301" />
      <trkpt lat="45.4713139" lon="9.1938964" />
      <trkpt lat="45.4717064" lon="9.1943513" />
      <trkpt lat="45.4720047" lon="9.1947221" />
      <trkpt lat="45.4720339" lon="9.1946948" />
      <trkpt lat="45.4720372" lon="9.1946955" />
      <trkpt lat="45.4720829" lon="9.1947045" />
      <trkpt lat="45.4720811" lon="9.1947146" />
      <trkpt lat="45.4720847" lon="9.1947322" />
      <trkpt lat="45.4720924" lon="9.1947460" />
      <trkpt lat="45.4721060" lon="9.1947597" />
      <trkpt lat="45.4721394" lon="9.1947893" />
      <trkpt lat="45.4721580" lon="9.1948101" />
      <trkpt lat="45.4721743" lon="9.1948289" />
      <trkpt lat="45.4722051" lon="9.1948643" />
      <trkpt lat="45.4722223" lon="9.1948833" />
      <trkpt lat="45.4722981" lon="9.1949690" />
      <trkpt lat="45.4723165" lon="9.1949876" />
      <trkpt lat="45.4723530" lon="9.1950141" />
      <trkpt lat="45.4723802" lon="9.1950270" />
      <trkpt lat="45.4724251" lon="9.1950429" />
      <trkpt lat="45.4724587" lon="9.1950555" />
      <trkpt lat="45.4724360" lon="9.1950920" />
      <trkpt lat="45.4724186" lon="9.1951208" />
      <trkpt lat="45.4724326" lon="9.1951362" />
      <trkpt lat="45.4724832" lon="9.1951425" />
      <trkpt lat="45.4724800" lon="9.1951729" />
      <trkpt lat="45.4724791" lon="9.1951865" />
      <trkpt lat="45.4724776" lon="9.1952107" />
      <trkpt lat="45.4724767" lon="9.1952245" />
      <trkpt lat="45.4724773" lon="9.1952911" />
      <trkpt lat="45.4724860" lon="9.1953273" />
      <trkpt lat="45.4724981" lon="9.1953584" />
      <trkpt lat="45.4725216" lon="9.1954137" />
      <trkpt lat="45.4725370" lon="9.1954513" />
      <trkpt lat="45.4725507" lon="9.1954892" />
      <trkpt lat="45.4725300" lon="9.1954874" />
      <trkpt lat="45.4724860" lon="9.1954829" />
      <trkpt lat="45.4724754" lon="9.1955004" />
      <trkpt lat="45.4724625" lon="9.1955216" />
      <trkpt lat="45.4724498" lon="9.1955423" />
      <trkpt lat="45.4722959" lon="9.1953485" />
      <trkpt lat="45.4722609" lon="9.1953585" />
      <trkpt lat="45.4722454" lon="9.1953379" />
      <trkpt lat="45.4722056" lon="9.1952786" />
      <trkpt lat="45.4721685" lon="9.1952232" />
      <trkpt lat="45.4721569" lon="9.1952088" />
      <trkpt lat="45.4720885" lon="9.1953009" />
      <trkpt lat="45.4719902" lon="9.1954188" />
      <trkpt lat="45.4719685" lon="9.1954447" />
      <trkpt lat="45.4719439" lon="9.1954742" />
      <trkpt lat="45.4718594" lon="9.1955755" />
      <trkpt lat="45.4714092" lon="9.1961189" />
      <trkpt lat="45.4713781" lon="9.1961560" />
      <trkpt lat="45.4712640" lon="9.1962947" />
      <trkpt lat="45.4707474" lon="9.1969185" />
      <trkpt lat="45.4706510" lon="9.1970313" />
      <trkpt lat="45.4705989" lon="9.1970921" />
      <trkpt lat="45.4706072" lon="9.1971063" />
      <trkpt lat="45.4706222" lon="9.1971320" />
      <trkpt lat="45.4706425" lon="9.1971661" />
      <trkpt lat="45.4706782" lon="9.1972277" />
      <trkpt lat="45.4706861" lon="9.1972411" />
      <trkpt lat="45.4706686" lon="9.1972924" />
      <trkpt lat="45.4706520" lon="9.1973124" />
      <trkpt lat="45.4706092" lon="9.1973638" />
      <trkpt lat="45.4705634" lon="9.1974190" />
      <trkpt lat="45.4705495" lon="9.1974347" />
      <trkpt lat="45.4705370" lon="9.1974297" />
      <trkpt lat="45.4705223" lon="9.1974375" />
      <trkpt lat="45.4704159" lon="9.1975689" />
      <trkpt lat="45.4704033" lon="9.1975853" />
      <trkpt lat="45.4703445" lon="9.1976617" />
      <trkpt lat="45.4702976" lon="9.1977227" />
      <trkpt lat="45.4702835" lon="9.1977410" />
      <trkpt lat="45.4700808" lon="9.1979880" />
      <trkpt lat="45.4700275" lon="9.1980457" />
      <trkpt lat="45.4699576" lon="9.1981219" />
      <trkpt lat="45.4699112" lon="9.1981724" />
      <trkpt lat="45.4698978" lon="9.1981624" />
      <trkpt lat="45.4698549" lon="9.1981303" />
      <trkpt lat="45.4698184" lon="9.1981031" />
      <trkpt lat="45.4697925" lon="9.1980838" />
      <trkpt lat="45.4697798" lon="9.1980761" />
      <trkpt lat="45.4697550" lon="9.1980788" />
      <trkpt lat="45.4695192" lon="9.1976650" />
      <trkpt lat="45.4695167" lon="9.1976554" />
      <trkpt lat="45.4695086" lon="9.1976623" />
      <trkpt lat="45.4694750" lon="9.1976909" />
      <trkpt lat="45.4694426" lon="9.1977185" />
      <trkpt lat="45.4694367" lon="9.1977235" />
      <trkpt lat="45.4694431" lon="9.1977316" />
      <trkpt lat="45.4695039" lon="9.1978462" />
      <trkpt lat="45.4696837" lon="9.1981583" />
      <trkpt lat="45.4696798" lon="9.1981890" />
      <trkpt lat="45.4694877" lon="9.1984074" />
      <trkpt lat="45.4694454" lon="9.1984555" />
      <trkpt lat="45.4692605" lon="9.1986667" />
      <trkpt lat="45.4690009" lon="9.1989247" />
      <trkpt lat="45.4689584" lon="9.1989670" />
      <trkpt lat="45.4688136" lon="9.1991183" />
      <trkpt lat="45.4687710" lon="9.1991082" />
      <trkpt lat="45.4684803" lon="9.1988285" />
      <trkpt lat="45.4684551" lon="9.1988022" />
      <trkpt lat="45.4684410" lon="9.1987908" />
      <trkpt lat="45.4680917" lon="9.1984924" />
      <trkpt lat="45.4678973" lon="9.1983264" />
      <trkpt lat="45.4676822" lon="9.1981426" />
      <trkpt lat="45.4671054" lon="9.1977550" />
      <trkpt lat="45.4670758" lon="9.1977334" />
      <trkpt lat="45.4670168" lon="9.1976916" />
      <trkpt lat="45.4669681" lon="9.1976606" />
      <trkpt lat="45.4669578" lon="9.1976280" />
      <trkpt lat="45.4668753" lon="9.1976137" />
      <trkpt lat="45.4668534" lon="9.1976118" />
      <trkpt lat="45.4668213" lon="9.1976068" />
      <trkpt lat="45.4667746" lon="9.1975995" />
      <trkpt lat="45.4667595" lon="9.1975998" />
      <trkpt lat="45.4663885" lon="9.1975716" />
      <trkpt lat="45.4663306" lon="9.1975147" />
      <trkpt lat="45.4661742" lon="9.1973149" />
      <trkpt lat="45.4661503" lon="9.1972880" />
      <trkpt lat="45.4661121" lon="9.1972281" />
      <trkpt lat="45.4661097" lon="9.1972278" />
      <trkpt lat="45.4660600" lon="9.1972000" />
      <trkpt lat="45.4660153" lon="9.1971505" />
      <trkpt lat="45.4659713" lon="9.1970729" />
      <trkpt lat="45.4658937" lon="9.1969149" />
      <trkpt lat="45.4658585" lon="9.1969483" />
      <trkpt lat="45.4658351" lon="9.1969649" />
      <trkpt lat="45.4656979" lon="9.1970576" />
      <trkpt lat="45.4655896" lon="9.1972035" />
      <trkpt lat="45.4654985" lon="9.1973708" />
      <trkpt lat="45.4654780" lon="9.1974124" />
      <trkpt lat="45.4654650" lon="9.1973984" />
      <trkpt lat="45.4654316" lon="9.1973642" />
      <trkpt lat="45.4652863" lon="9.1972246" />
      <trkpt lat="45.4652680" lon="9.1972044" />
      <trkpt lat="45.4652510" lon="9.1971846" />
      <trkpt lat="45.4649740" lon="9.1969013" />
      <trkpt lat="45.4647802" lon="9.1967158" />
      <trkpt lat="45.4647339" lon="9.1966672" />
      <trkpt lat="45.4647264" lon="9.1966593" />
      <trkpt lat="45.4646172" lon="9.1965560" />
      <trkpt lat="45.4645856" lon="9.1965247" />
      <trkpt lat="45.4645534" lon="9.1964921" />
      <trkpt lat="45.4644960" lon="9.1964348" />
      <trkpt lat="45.4644690" lon="9.1964135" />
      <trkpt lat="45.4643045" lon="9.1962430" />
      <trkpt lat="45.4641344" lon="9.1960719" />
      <trkpt lat="45.4639734" lon="9.1959096" />
      <trkpt lat="45.4639469" lon="9.1958894" />
      <trkpt lat="45.4639496" lon="9.1957856" />
      <trkpt lat="45.4638424" lon="9.1957922" />
      <trkpt lat="45.4638128" lon="9.1957820" />
      <trkpt lat="45.4636906" lon="9.1957157" />
      <trkpt lat="45.4636802" lon="9.1957118" />
      <trkpt lat="45.4636601" lon="9.1957043" />
      <trkpt lat="45.4636264" lon="9.1956918" />
      <trkpt lat="45.4636208" lon="9.1956897" />
      <trkpt lat="45.4635812" lon="9.1956869" />
      <trkpt lat="45.4634666" lon="9.1955674" />
      <trkpt lat="45.4634565" lon="9.1955569" />
      <trkpt lat="45.4633487" lon="9.1953998" />
      <trkpt lat="45.4633059" lon="9.1953319" />
      <trkpt lat="45.4632512" lon="9.1952261" />
      <trkpt lat="45.4631715" lon="9.1950363" />
      <trkpt lat="45.4631517" lon="9.1949716" />
      <trkpt lat="45.4631291" lon="9.1949181" />
      <trkpt lat="45.4630590" lon="9.1949651" />
      <trkpt lat="45.4630414" lon="9.1949771" />
      <trkpt lat="45.4630043" lon="9.1949901" />
      <trkpt lat="45.4629900" lon="9.1949950" />
      <trkpt lat="45.4629510" lon="9.1950045" />
      <trkpt lat="45.4629436" lon="9.1950063" />
      <trkpt lat="45.4629274" lon="9.1950103" />
      <trkpt lat="45.4629171" lon="9.1950128" />
      <trkpt lat="45.4628689" lon="9.1950245" />
      <trkpt lat="45.4628195" lon="9.1950332" />
      <trkpt lat="45.4628102" lon="9.1949573" />
      <trkpt lat="45.4626674" lon="9.1949849" />
      <trkpt lat="45.4626679" lon="9.1950802" />
      <trkpt lat="45.4625104" lon="9.1950756" />
      <trkpt lat="45.4624820" lon="9.1950767" />
      <trkpt lat="45.4623722" lon="9.1950738" />
      <trkpt lat="45.4623004" lon="9.1950742" />
      <trkpt lat="45.4621775" lon="9.1950406" />
      <trkpt lat="45.4621788" lon="9.1950796" />
      <trkpt lat="45.4620642" lon="9.1950114" />
      <trkpt lat="45.4619224" lon="9.1949879" />
      <trkpt lat="45.4618658" lon="9.1949796" />
      <trkpt lat="45.4618502" lon="9.1950213" />
      <trkpt lat="45.4618010" lon="9.1951317" />
      <trkpt lat="45.4617001" lon="9.1953736" />
      <trkpt lat="45.4615690" lon="9.1955584" />
      <trkpt lat="45.4615237" lon="9.1955888" />
      <trkpt lat="45.4614814" lon="9.1955955" />
      <trkpt lat="45.4614235" lon="9.1956391" />
      <trkpt lat="45.4613601" lon="9.1956287" />
      <trkpt lat="45.4613608" lon="9.1956416" />
      <trkpt lat="45.4613576" lon="9.1956637" />
      <trkpt lat="45.4613456" lon="9.1956856" />
      <trkpt lat="45.4611009" lon="9.1959758" />
      <trkpt lat="45.4608010" lon="9.1963368" />
      <trkpt lat="45.4607844" lon="9.1963347" />
      <trkpt lat="45.4603384" lon="9.1959217" />
      <trkpt lat="45.4599570" lon="9.1955685" />
      <trkpt lat="45.4598143" lon="9.1954363" />
      <trkpt lat="45.4595179" lon="9.1951536" />
      <trkpt lat="45.4593386" lon="9.1949872" />
      <trkpt lat="45.4590641" lon="9.1947247" />
      <trkpt lat="45.4586870" lon="9.1943722" />
      <trkpt lat="45.4585993" lon="9.1942919" />
      <trkpt lat="45.4585246" lon="9.1942185" />
      <trkpt lat="45.4585814" lon="9.1940946" />
      <trkpt lat="45.4586087" lon="9.1941627" />
      <trkpt lat="45.4586825" lon="9.1942264" />
      <trkpt lat="45.4586924" lon="9.1942035" />
      <trkpt lat="45.4586909" lon="9.1941823" />
      <trkpt lat="45.4587337" lon="9.1940857" />
      <trkpt lat="45.4587821" lon="9.1939750" />
      <trkpt lat="45.4588460" lon="9.1938301" />
      <trkpt lat="45.4588342" lon="9.1938191" />
      <trkpt lat="45.4589364" lon="9.1936238" />
      <trkpt lat="45.4589482" lon="9.1935991" />
      <trkpt lat="45.4589507" lon="9.1935938" />
      <trkpt lat="45.4589540" lon="9.1935868" />
      <trkpt lat="45.4589580" lon="9.1935784" />
      <trkpt lat="45.4592667" lon="9.1929298" />
      <trkpt lat="45.4592721" lon="9.1928927" />
      <trkpt lat="45.4593051" lon="9.1929284" />
      <trkpt lat="45.4593404" lon="9.1929640" />
      <trkpt lat="45.4594021" lon="9.1928034" />
      <trkpt lat="45.4594085" lon="9.1927850" />
      <trkpt lat="45.4594369" lon="9.1927628" />
      <trkpt lat="45.4594995" lon="9.1927870" />
      <trkpt lat="45.4600015" lon="9.1929811" />
      <trkpt lat="45.4599972" lon="9.1930126" />
      <trkpt lat="45.4599712" lon="9.1931604" />
      <trkpt lat="45.4600488" lon="9.1932953" />
      <trkpt lat="45.4600930" lon="9.1933894" />
      <trkpt lat="45.4601644" lon="9.1934833" />
      <trkpt lat="45.4602966" lon="9.1936599" />
      <trkpt lat="45.4603188" lon="9.1937004" />
      <trkpt lat="45.4602756" lon="9.1938534" />
      <trkpt lat="45.4603964" lon="9.1939653" />
      <trkpt lat="45.4610472" lon="9.1945683" />
      <trkpt lat="45.4611251" lon="9.1946431" />
      <trkpt lat="45.4611295" lon="9.1946472" />
      <trkpt lat="45.4611614" lon="9.1945881" />
      <trkpt lat="45.4611752" lon="9.1945626" />
      <trkpt lat="45.4612283" lon="9.1946159" />
      <trkpt lat="45.4614141" lon="9.1947316" />
      <trkpt lat="45.4615690" lon="9.1948109" />
      <trkpt lat="45.4616129" lon="9.1948274" />
      <trkpt lat="45.4618124" lon="9.1949397" />
      <trkpt lat="45.4618658" lon="9.1949796" />
      <trkpt lat="45.4619224" lon="9.1949879" />
      <trkpt lat="45.4620642" lon="9.1950114" />
      <trkpt lat="45.4621788" lon="9.1950796" />
      <trkpt lat="45.4621775" lon="9.1950406" />
      <trkpt lat="45.4623004" lon="9.1950742" />
      <trkpt lat="45.4623722" lon="9.1950738" />
      <trkpt lat="45.4623715" lon="9.1950994" />
      <trkpt lat="45.4623722" lon="9.1951570" />
      <trkpt lat="45.4623796" lon="9.1953633" />
      <trkpt lat="45.4623815" lon="9.1954346" />
      <trkpt lat="45.4623886" lon="9.1956074" />
      <trkpt lat="45.4623902" lon="9.1956597" />
      <trkpt lat="45.4623933" lon="9.1957454" />
      <trkpt lat="45.4624003" lon="9.1959471" />
      <trkpt lat="45.4624227" lon="9.1959996" />
      <trkpt lat="45.4624225" lon="9.1960176" />
      <trkpt lat="45.4624410" lon="9.1963240" />
      <trkpt lat="45.4624194" lon="9.1964962" />
      <trkpt lat="45.4622561" lon="9.1968600" />
      <trkpt lat="45.4622698" lon="9.1968734" />
      <trkpt lat="45.4622986" lon="9.1969017" />
      <trkpt lat="45.4623218" lon="9.1969245" />
      <trkpt lat="45.4623321" lon="9.1969347" />
      <trkpt lat="45.4626941" lon="9.1972726" />
      <trkpt lat="45.4626906" lon="9.1972786" />
      <trkpt lat="45.4626760" lon="9.1973095" />
      <trkpt lat="45.4626566" lon="9.1973505" />
      <trkpt lat="45.4626546" lon="9.1973539" />
      <trkpt lat="45.4626329" lon="9.1973898" />
      <trkpt lat="45.4625377" lon="9.1975782" />
      <trkpt lat="45.4624089" lon="9.1978084" />
      <trkpt lat="45.4623919" lon="9.1978188" />
      <trkpt lat="45.4623628" lon="9.1978195" />
      <trkpt lat="45.4623489" lon="9.1978352" />
      <trkpt lat="45.4623405" lon="9.1978486" />
      <trkpt lat="45.4623315" lon="9.1978631" />
      <trkpt lat="45.4623133" lon="9.1978926" />
      <trkpt lat="45.4622935" lon="9.1979245" />
      <trkpt lat="45.4622721" lon="9.1979590" />
      <trkpt lat="45.4622626" lon="9.1979744" />
      <trkpt lat="45.4622624" lon="9.1980088" />
      <trkpt lat="45.4621733" lon="9.1982624" />
      <trkpt lat="45.4621033" lon="9.1982984" />
      <trkpt lat="45.4616038" lon="9.1983756" />
      <trkpt lat="45.4609889" lon="9.1984672" />
      <trkpt lat="45.4609893" lon="9.1984783" />
      <trkpt lat="45.4609897" lon="9.1984903" />
      <trkpt lat="45.4609904" lon="9.1985033" />
      <trkpt lat="45.4609912" lon="9.1985406" />
      <trkpt lat="45.4609788" lon="9.1985775" />
      <trkpt lat="45.4609688" lon="9.1985784" />
      <trkpt lat="45.4609200" lon="9.1985826" />
      <trkpt lat="45.4608976" lon="9.1985845" />
      <trkpt lat="45.4608908" lon="9.1985851" />
      <trkpt lat="45.4608741" lon="9.1985603" />
      <trkpt lat="45.4608739" lon="9.1985570" />
      <trkpt lat="45.4608718" lon="9.1985086" />
      <trkpt lat="45.4608709" lon="9.1984996" />
      <trkpt lat="45.4608702" lon="9.1984910" />
      <trkpt lat="45.4603967" lon="9.1985637" />
      <trkpt lat="45.4603115" lon="9.1985777" />
      <trkpt lat="45.4597987" lon="9.1986527" />
      <trkpt lat="45.4597734" lon="9.1986108" />
      <trkpt lat="45.4597677" lon="9.1986113" />
      <trkpt lat="45.4597487" lon="9.1986129" />
      <trkpt lat="45.4597537" lon="9.1987063" />
      <trkpt lat="45.4597014" lon="9.1987172" />
      <trkpt lat="45.4595559" lon="9.1987407" />
      <trkpt lat="45.4592504" lon="9.1987901" />
      <trkpt lat="45.4591702" lon="9.1988033" />
      <trkpt lat="45.4590463" lon="9.1988206" />
      <trkpt lat="45.4588539" lon="9.1988534" />
      <trkpt lat="45.4585599" lon="9.1989036" />
      <trkpt lat="45.4585186" lon="9.1989100" />
      <trkpt lat="45.4584878" lon="9.1989148" />
      <trkpt lat="45.4577737" lon="9.1990257" />
      <trkpt lat="45.4577253" lon="9.1990327" />
      <trkpt lat="45.4566914" lon="9.1991810" />
      <trkpt lat="45.4566867" lon="9.1991511" />
      <trkpt lat="45.4566829" lon="9.1991271" />
      <trkpt lat="45.4566459" lon="9.1991223" />
      <trkpt lat="45.4566434" lon="9.1991045" />
      <trkpt lat="45.4566314" lon="9.1991062" />
      <trkpt lat="45.4566187" lon="9.1991085" />
      <trkpt lat="45.4566070" lon="9.1991107" />
      <trkpt lat="45.4565948" lon="9.1991132" />
      <trkpt lat="45.4565746" lon="9.1991174" />
      <trkpt lat="45.4565729" lon="9.1991178" />
      <trkpt lat="45.4565507" lon="9.1991377" />
      <trkpt lat="45.4565171" lon="9.1991468" />
      <trkpt lat="45.4564899" lon="9.1991335" />
      <trkpt lat="45.4562126" lon="9.1992123" />
      <trkpt lat="45.4558602" lon="9.1993091" />
      <trkpt lat="45.4550054" lon="9.1995364" />
      <trkpt lat="45.4550072" lon="9.1995498" />
      <trkpt lat="45.4550120" lon="9.1995863" />
      <trkpt lat="45.4550155" lon="9.1996123" />
      <trkpt lat="45.4550173" lon="9.1996261" />
      <trkpt lat="45.4558719" lon="9.1993957" />
      <trkpt lat="45.4565661" lon="9.1992427" />
      <trkpt lat="45.4565638" lon="9.1992170" />
      <trkpt lat="45.4565605" lon="9.1992046" />
      <trkpt lat="45.4565550" lon="9.1991672" />
      <trkpt lat="45.4565507" lon="9.1991377" />
      <trkpt lat="45.4565729" lon="9.1991178" />
      <trkpt lat="45.4565299" lon="9.1988653" />
      <trkpt lat="45.4563168" lon="9.1975166" />
      <trkpt lat="45.4562049" lon="9.1968080" />
      <trkpt lat="45.4561405" lon="9.1964001" />
      <trkpt lat="45.4560994" lon="9.1961392" />
      <trkpt lat="45.4560587" lon="9.1961118" />
      <trkpt lat="45.4560744" lon="9.1960790" />
      <trkpt lat="45.4560396" lon="9.1959483" />
      <trkpt lat="45.4560284" lon="9.1959041" />
      <trkpt lat="45.4560201" lon="9.1958707" />
      <trkpt lat="45.4559558" lon="9.1957621" />
      <trkpt lat="45.4558553" lon="9.1955964" />
      <trkpt lat="45.4556672" lon="9.1956491" />
      <trkpt lat="45.4551717" lon="9.1957880" />
      <trkpt lat="45.4546629" lon="9.1958842" />
      <trkpt lat="45.4543697" lon="9.1959610" />
      <trkpt lat="45.4541000" lon="9.1960425" />
      <trkpt lat="45.4538060" lon="9.1961853" />
      <trkpt lat="45.4536953" lon="9.1962902" />
      <trkpt lat="45.4536904" lon="9.1962789" />
      <trkpt lat="45.4536831" lon="9.1962614" />
      <trkpt lat="45.4536728" lon="9.1962366" />
      <trkpt lat="45.4536703" lon="9.1962307" />
      <trkpt lat="45.4525805" lon="9.1974191" />
      <trkpt lat="45.4525363" lon="9.1974170" />
      <trkpt lat="45.4524516" lon="9.1974166" />
      <trkpt lat="45.4522324" lon="9.1974155" />
      <trkpt lat="45.4521900" lon="9.1974153" />
      <trkpt lat="45.4521524" lon="9.1966021" />
      <trkpt lat="45.4521778" lon="9.1965826" />
      <trkpt lat="45.4521748" lon="9.1965536" />
      <trkpt lat="45.4521729" lon="9.1965327" />
      <trkpt lat="45.4521707" lon="9.1965121" />
      <trkpt lat="45.4521697" lon="9.1964962" />
      <trkpt lat="45.4521612" lon="9.1964206" />
      <trkpt lat="45.4521612" lon="9.1964050" />
      <trkpt lat="45.4521494" lon="9.1963839" />
      <trkpt lat="45.4521524" lon="9.1959767" />
      <trkpt lat="45.4521546" lon="9.1942868" />
      <trkpt lat="45.4521465" lon="9.1942842" />
      <trkpt lat="45.4521170" lon="9.1942821" />
      <trkpt lat="45.4521168" lon="9.1941688" />
      <trkpt lat="45.4520749" lon="9.1941690" />
      <trkpt lat="45.4520414" lon="9.1941731" />
      <trkpt lat="45.4520349" lon="9.1928543" />
      <trkpt lat="45.4520343" lon="9.1927311" />
      <trkpt lat="45.4520294" lon="9.1911302" />
      <trkpt lat="45.4520666" lon="9.1911389" />
      <trkpt lat="45.4520745" lon="9.1911408" />
      <trkpt lat="45.4520819" lon="9.1911425" />
      <trkpt lat="45.4521131" lon="9.1911498" />
      <trkpt lat="45.4521247" lon="9.1911525" />
      <trkpt lat="45.4521348" lon="9.1911549" />
      <trkpt lat="45.4521645" lon="9.1911051" />
      <trkpt lat="45.4528411" lon="9.1913774" />
      <trkpt lat="45.4528450" lon="9.1913568" />
      <trkpt lat="45.4528599" lon="9.1912887" />
      <trkpt lat="45.4528719" lon="9.1912386" />
      <trkpt lat="45.4528770" lon="9.1912173" />
      <trkpt lat="45.4530340" lon="9.1910691" />
      <trkpt lat="45.4531190" lon="9.1897792" />
      <trkpt lat="45.4531043" lon="9.1897515" />
      <trkpt lat="45.4531046" lon="9.1897449" />
      <trkpt lat="45.4531074" lon="9.1896891" />
      <trkpt lat="45.4531086" lon="9.1896649" />
      <trkpt lat="45.4531090" lon="9.1896572" />
      <trkpt lat="45.4531188" lon="9.1896415" />
      <trkpt lat="45.4531727" lon="9.1888925" />
      <trkpt lat="45.4531674" lon="9.1888829" />
      <trkpt lat="45.4531602" lon="9.1888760" />
      <trkpt lat="45.4531606" lon="9.1888690" />
      <trkpt lat="45.4531629" lon="9.1888300" />
      <trkpt lat="45.4531654" lon="9.1887888" />
      <trkpt lat="45.4531662" lon="9.1887758" />
      <trkpt lat="45.4531654" lon="9.1887888" />
      <trkpt lat="45.4531629" lon="9.1888300" />
      <trkpt lat="45.4531606" lon="9.1888690" />
      <trkpt lat="45.4531602" lon="9.1888760" />
      <trkpt lat="45.4531674" lon="9.1888829" />
      <trkpt lat="45.4531727" lon="9.1888925" />
      <trkpt lat="45.4531793" lon="9.1888934" />
      <trkpt lat="45.4531987" lon="9.1888958" />
      <trkpt lat="45.4531536" lon="9.1896485" />
      <trkpt lat="45.4531872" lon="9.1896563" />
      <trkpt lat="45.4531945" lon="9.1896580" />
      <trkpt lat="45.4532091" lon="9.1896799" />
      <trkpt lat="45.4535953" lon="9.1897660" />
      <trkpt lat="45.4544631" lon="9.1899660" />
      <trkpt lat="45.4544923" lon="9.1899219" />
      <trkpt lat="45.4545153" lon="9.1899217" />
      <trkpt lat="45.4545362" lon="9.1899226" />
      <trkpt lat="45.4545534" lon="9.1899250" />
      <trkpt lat="45.4545699" lon="9.1899293" />
      <trkpt lat="45.4545656" lon="9.1899740" />
      <trkpt lat="45.4545719" lon="9.1899824" />
      <trkpt lat="45.4545711" lon="9.1899945" />
      <trkpt lat="45.4545688" lon="9.1900255" />
      <trkpt lat="45.4545675" lon="9.1900492" />
      <trkpt lat="45.4545632" lon="9.1900783" />
      <trkpt lat="45.4545978" lon="9.1900767" />
      <trkpt lat="45.4553439" lon="9.1901388" />
      <trkpt lat="45.4553581" lon="9.1901650" />
      <trkpt lat="45.4553593" lon="9.1901303" />
      <trkpt lat="45.4553593" lon="9.1900755" />
      <trkpt lat="45.4553942" lon="9.1900777" />
      <trkpt lat="45.4554000" lon="9.1899959" />
      <trkpt lat="45.4554206" lon="9.1899960" />
      <trkpt lat="45.4554404" lon="9.1899943" />
      <trkpt lat="45.4554462" lon="9.1906681" />
      <trkpt lat="45.4554580" lon="9.1906713" />
      <trkpt lat="45.4557062" lon="9.1907377" />
      <trkpt lat="45.4557805" lon="9.1907576" />
      <trkpt lat="45.4568926" lon="9.1910789" />
      <trkpt lat="45.4571062" lon="9.1911492" />
      <trkpt lat="45.4570306" lon="9.1908129" />
      <trkpt lat="45.4570416" lon="9.1908077" />
      <trkpt lat="45.4571174" lon="9.1907713" />
      <trkpt lat="45.4571286" lon="9.1907668" />
      <trkpt lat="45.4571434" lon="9.1907599" />
      <trkpt lat="45.4571536" lon="9.1907551" />
      <trkpt lat="45.4571724" lon="9.1907463" />
      <trkpt lat="45.4572167" lon="9.1907254" />
      <trkpt lat="45.4572348" lon="9.1907169" />
      <trkpt lat="45.4571289" lon="9.1903815" />
      <trkpt lat="45.4570556" lon="9.1901480" />
      <trkpt lat="45.4570251" lon="9.1900799" />
      <trkpt lat="45.4568248" lon="9.1895011" />
      <trkpt lat="45.4570251" lon="9.1900799" />
      <trkpt lat="45.4570556" lon="9.1901480" />
      <trkpt lat="45.4571289" lon="9.1903815" />
      <trkpt lat="45.4572348" lon="9.1907169" />
      <trkpt lat="45.4572167" lon="9.1907254" />
      <trkpt lat="45.4571724" lon="9.1907463" />
      <trkpt lat="45.4571536" lon="9.1907551" />
      <trkpt lat="45.4571434" lon="9.1907599" />
      <trkpt lat="45.4571286" lon="9.1907668" />
      <trkpt lat="45.4571174" lon="9.1907713" />
      <trkpt lat="45.4570416" lon="9.1908077" />
      <trkpt lat="45.4570306" lon="9.1908129" />
      <trkpt lat="45.4571062" lon="9.1911492" />
      <trkpt lat="45.4568926" lon="9.1910789" />
      <trkpt lat="45.4557805" lon="9.1907576" />
      <trkpt lat="45.4557062" lon="9.1907377" />
      <trkpt lat="45.4554580" lon="9.1906713" />
      <trkpt lat="45.4554462" lon="9.1906681" />
      <trkpt lat="45.4554404" lon="9.1899943" />
      <trkpt lat="45.4554206" lon="9.1899960" />
      <trkpt lat="45.4554000" lon="9.1899959" />
      <trkpt lat="45.4553602" lon="9.1899946" />
      <trkpt lat="45.4553396" lon="9.1899939" />
      <trkpt lat="45.4553173" lon="9.1900174" />
      <trkpt lat="45.4552561" lon="9.1900328" />
      <trkpt lat="45.4545719" lon="9.1899824" />
      <trkpt lat="45.4545711" lon="9.1899945" />
      <trkpt lat="45.4545688" lon="9.1900255" />
      <trkpt lat="45.4545239" lon="9.1900227" />
      <trkpt lat="45.4544853" lon="9.1900152" />
      <trkpt lat="45.4535908" lon="9.1897998" />
      <trkpt lat="45.4532069" lon="9.1897079" />
      <trkpt lat="45.4531505" lon="9.1896940" />
      <trkpt lat="45.4531074" lon="9.1896891" />
      <trkpt lat="45.4521548" lon="9.1895747" />
      <trkpt lat="45.4521538" lon="9.1895389" />
      <trkpt lat="45.4521536" lon="9.1895272" />
      <trkpt lat="45.4521479" lon="9.1894961" />
      <trkpt lat="45.4522221" lon="9.1887083" />
      <trkpt lat="45.4522173" lon="9.1887073" />
      <trkpt lat="45.4522042" lon="9.1887046" />
      <trkpt lat="45.4522077" lon="9.1886717" />
      <trkpt lat="45.4522109" lon="9.1886413" />
      <trkpt lat="45.4522748" lon="9.1879932" />
      <trkpt lat="45.4522858" lon="9.1878817" />
      <trkpt lat="45.4524569" lon="9.1869364" />
      <trkpt lat="45.4524750" lon="9.1868280" />
      <trkpt lat="45.4524779" lon="9.1868065" />
      <trkpt lat="45.4524796" lon="9.1867864" />
      <trkpt lat="45.4524887" lon="9.1866801" />
      <trkpt lat="45.4525396" lon="9.1860233" />
      <trkpt lat="45.4525864" lon="9.1854426" />
      <trkpt lat="45.4526130" lon="9.1850825" />
      <trkpt lat="45.4526421" lon="9.1846050" />
      <trkpt lat="45.4526588" lon="9.1844826" />
      <trkpt lat="45.4526659" lon="9.1843326" />
      <trkpt lat="45.4527096" lon="9.1837409" />
      <trkpt lat="45.4527177" lon="9.1836505" />
      <trkpt lat="45.4527863" lon="9.1827607" />
      <trkpt lat="45.4528232" lon="9.1822609" />
      <trkpt lat="45.4528088" lon="9.1821228" />
      <trkpt lat="45.4527902" lon="9.1818940" />
      <trkpt lat="45.4528142" lon="9.1816725" />
      <trkpt lat="45.4528213" lon="9.1816214" />
      <trkpt lat="45.4528302" lon="9.1815698" />
      <trkpt lat="45.4528412" lon="9.1815197" />
      <trkpt lat="45.4528533" lon="9.1814696" />
      <trkpt lat="45.4528652" lon="9.1814205" />
      <trkpt lat="45.4528764" lon="9.1813694" />
      <trkpt lat="45.4528864" lon="9.1813184" />
      <trkpt lat="45.4528953" lon="9.1812668" />
      <trkpt lat="45.4529091" lon="9.1811909" />
      <trkpt lat="45.4529351" lon="9.1811934" />
      <trkpt lat="45.4529416" lon="9.1811940" />
      <trkpt lat="45.4529773" lon="9.1810604" />
      <trkpt lat="45.4529824" lon="9.1810461" />
      <trkpt lat="45.4529921" lon="9.1810236" />
      <trkpt lat="45.4530017" lon="9.1809920" />
      <trkpt lat="45.4530049" lon="9.1809828" />
      <trkpt lat="45.4529907" lon="9.1809222" />
      <trkpt lat="45.4530421" lon="9.1806552" />
      <trkpt lat="45.4531006" lon="9.1804171" />
      <trkpt lat="45.4531439" lon="9.1803763" />
      <trkpt lat="45.4531451" lon="9.1803612" />
      <trkpt lat="45.4531480" lon="9.1803325" />
      <trkpt lat="45.4531496" lon="9.1803114" />
      <trkpt lat="45.4532851" lon="9.1803318" />
      <trkpt lat="45.4533736" lon="9.1803458" />
      <trkpt lat="45.4539137" lon="9.1804294" />
      <trkpt lat="45.4542187" lon="9.1804696" />
      <trkpt lat="45.4542680" lon="9.1804770" />
      <trkpt lat="45.4549455" lon="9.1805732" />
      <trkpt lat="45.4552028" lon="9.1806084" />
      <trkpt lat="45.4552583" lon="9.1806157" />
      <trkpt lat="45.4557237" lon="9.1806796" />
      <trkpt lat="45.4561151" lon="9.1807356" />
      <trkpt lat="45.4561586" lon="9.1807429" />
      <trkpt lat="45.4563531" lon="9.1807653" />
      <trkpt lat="45.4565663" lon="9.1808058" />
      <trkpt lat="45.4570107" lon="9.1808927" />
      <trkpt lat="45.4572979" lon="9.1809255" />
      <trkpt lat="45.4573996" lon="9.1809352" />
      <trkpt lat="45.4574121" lon="9.1809350" />
      <trkpt lat="45.4574309" lon="9.1809354" />
      <trkpt lat="45.4574474" lon="9.1809358" />
      <trkpt lat="45.4574566" lon="9.1809360" />
      <trkpt lat="45.4574670" lon="9.1809375" />
      <trkpt lat="45.4575831" lon="9.1809625" />
      <trkpt lat="45.4576261" lon="9.1809698" />
      <trkpt lat="45.4577357" lon="9.1809693" />
      <trkpt lat="45.4577632" lon="9.1809649" />
      <trkpt lat="45.4578352" lon="9.1809602" />
      <trkpt lat="45.4578968" lon="9.1809641" />
      <trkpt lat="45.4585739" lon="9.1810460" />
      <trkpt lat="45.4586330" lon="9.1810642" />
      <trkpt lat="45.4586574" lon="9.1810717" />
      <trkpt lat="45.4586960" lon="9.1810848" />
      <trkpt lat="45.4587733" lon="9.1811075" />
      <trkpt lat="45.4588589" lon="9.1811223" />
      <trkpt lat="45.4590039" lon="9.1811267" />
      <trkpt lat="45.4590290" lon="9.1811286" />
      <trkpt lat="45.4590999" lon="9.1811313" />
      <trkpt lat="45.4593106" lon="9.1811401" />
      <trkpt lat="45.4593392" lon="9.1811589" />
      <trkpt lat="45.4594260" lon="9.1812162" />
      <trkpt lat="45.4595813" lon="9.1812440" />
      <trkpt lat="45.4598869" lon="9.1812800" />
      <trkpt lat="45.4599922" lon="9.1813020" />
      <trkpt lat="45.4600470" lon="9.1813068" />
      <trkpt lat="45.4600558" lon="9.1813820" />
      <trkpt lat="45.4600578" lon="9.1813991" />
      <trkpt lat="45.4600910" lon="9.1814254" />
      <trkpt lat="45.4601047" lon="9.1814372" />
      <trkpt lat="45.4601284" lon="9.1814575" />
      <trkpt lat="45.4601615" lon="9.1814860" />
      <trkpt lat="45.4601665" lon="9.1814903" />
      <trkpt lat="45.4602824" lon="9.1815919" />
      <trkpt lat="45.4603491" lon="9.1816762" />
      <trkpt lat="45.4603833" lon="9.1817277" />
      <trkpt lat="45.4603904" lon="9.1817384" />
      <trkpt lat="45.4604039" lon="9.1817643" />
      <trkpt lat="45.4604325" lon="9.1818192" />
      <trkpt lat="45.4604842" lon="9.1817769" />
      <trkpt lat="45.4604966" lon="9.1817668" />
      <trkpt lat="45.4605111" lon="9.1817549" />
      <trkpt lat="45.4605254" lon="9.1817432" />
      <trkpt lat="45.4605580" lon="9.1817165" />
      <trkpt lat="45.4605671" lon="9.1817091" />
      <trkpt lat="45.4605682" lon="9.1816627" />
      <trkpt lat="45.4606296" lon="9.1816137" />
      <trkpt lat="45.4607730" lon="9.1815809" />
      <trkpt lat="45.4610395" lon="9.1815417" />
      <trkpt lat="45.4610964" lon="9.1815406" />
      <trkpt lat="45.4614569" lon="9.1815339" />
      <trkpt lat="45.4615437" lon="9.1815333" />
      <trkpt lat="45.4615664" lon="9.1815340" />
      <trkpt lat="45.4615721" lon="9.1815825" />
      <trkpt lat="45.4616247" lon="9.1819298" />
      <trkpt lat="45.4616494" lon="9.1821380" />
      <trkpt lat="45.4616732" lon="9.1823751" />
      <trkpt lat="45.4616820" lon="9.1823738" />
      <trkpt lat="45.4616982" lon="9.1823713" />
      <trkpt lat="45.4617176" lon="9.1823685" />
      <trkpt lat="45.4617242" lon="9.1823675" />
      <trkpt lat="45.4617630" lon="9.1828641" />
      <trkpt lat="45.4617982" lon="9.1829617" />
      <trkpt lat="45.4618809" lon="9.1830942" />
      <trkpt lat="45.4619551" lon="9.1831609" />
      <trkpt lat="45.4621968" lon="9.1833983" />
      <trkpt lat="45.4623985" lon="9.1835224" />
      <trkpt lat="45.4624589" lon="9.1835252" />
      <trkpt lat="45.4624547" lon="9.1835334" />
      <trkpt lat="45.4624319" lon="9.1835787" />
      <trkpt lat="45.4623697" lon="9.1835366" />
      <trkpt lat="45.4622562" lon="9.1834631" />
      <trkpt lat="45.4620022" lon="9.1832590" />
      <trkpt lat="45.4618518" lon="9.1831055" />
      <trkpt lat="45.4617791" lon="9.1829856" />
      <trkpt lat="45.4617524" lon="9.1828959" />
      <trkpt lat="45.4617467" lon="9.1828410" />
      <trkpt lat="45.4617013" lon="9.1823988" />
      <trkpt lat="45.4616773" lon="9.1824051" />
      <trkpt lat="45.4614654" lon="9.1824676" />
      <trkpt lat="45.4614231" lon="9.1825171" />
      <trkpt lat="45.4613895" lon="9.1825548" />
      <trkpt lat="45.4613666" lon="9.1826177" />
      <trkpt lat="45.4613509" lon="9.1827396" />
      <trkpt lat="45.4612960" lon="9.1829641" />
      <trkpt lat="45.4611867" lon="9.1832476" />
      <trkpt lat="45.4611214" lon="9.1834044" />
      <trkpt lat="45.4611147" lon="9.1834132" />
      <trkpt lat="45.4610867" lon="9.1833814" />
      <trkpt lat="45.4608230" lon="9.1830750" />
      <trkpt lat="45.4607814" lon="9.1830427" />
      <trkpt lat="45.4607799" lon="9.1830882" />
      <trkpt lat="45.4607795" lon="9.1831033" />
      <trkpt lat="45.4607592" lon="9.1831696" />
      <trkpt lat="45.4607524" lon="9.1831707" />
      <trkpt lat="45.4607363" lon="9.1831731" />
      <trkpt lat="45.4607193" lon="9.1831757" />
      <trkpt lat="45.4607056" lon="9.1831782" />
      <trkpt lat="45.4606831" lon="9.1831821" />
      <trkpt lat="45.4606649" lon="9.1831850" />
      <trkpt lat="45.4607054" lon="9.1835203" />
      <trkpt lat="45.4607588" lon="9.1838368" />
      <trkpt lat="45.4607467" lon="9.1838578" />
      <trkpt lat="45.4605807" lon="9.1838849" />
      <trkpt lat="45.4603305" lon="9.1838999" />
      <trkpt lat="45.4603120" lon="9.1839089" />
      <trkpt lat="45.4602905" lon="9.1839241" />
      <trkpt lat="45.4599160" lon="9.1840978" />
      <trkpt lat="45.4599216" lon="9.1840980" />
      <trkpt lat="45.4599259" lon="9.1841119" />
      <trkpt lat="45.4598976" lon="9.1841279" />
      <trkpt lat="45.4598731" lon="9.1841180" />
      <trkpt lat="45.4598534" lon="9.1841078" />
      <trkpt lat="45.4597076" lon="9.1842068" />
      <trkpt lat="45.4596918" lon="9.1841968" />
      <trkpt lat="45.4596779" lon="9.1841735" />
      <trkpt lat="45.4596527" lon="9.1840979" />
      <trkpt lat="45.4596450" lon="9.1840554" />
      <trkpt lat="45.4596032" lon="9.1840114" />
      <trkpt lat="45.4595879" lon="9.1840242" />
      <trkpt lat="45.4595843" lon="9.1840266" />
      <trkpt lat="45.4595660" lon="9.1839748" />
      <trkpt lat="45.4595052" lon="9.1838828" />
      <trkpt lat="45.4594672" lon="9.1838815" />
      <trkpt lat="45.4590398" lon="9.1848296" />
      <trkpt lat="45.4590435" lon="9.1848447" />
      <trkpt lat="45.4590365" lon="9.1848385" />
      <trkpt lat="45.4590272" lon="9.1848270" />
      <trkpt lat="45.4590062" lon="9.1848739" />
      <trkpt lat="45.4589660" lon="9.1848422" />
      <trkpt lat="45.4589543" lon="9.1848644" />
      <trkpt lat="45.4586055" lon="9.1855989" />
      <trkpt lat="45.4584747" lon="9.1858693" />
      <trkpt lat="45.4584454" lon="9.1859248" />
      <trkpt lat="45.4584515" lon="9.1859307" />
      <trkpt lat="45.4583101" lon="9.1862192" />
      <trkpt lat="45.4583142" lon="9.1862488" />
      <trkpt lat="45.4586509" lon="9.1867294" />
      <trkpt lat="45.4589640" lon="9.1871622" />
      <trkpt lat="45.4589618" lon="9.1871636" />
      <trkpt lat="45.4589537" lon="9.1871690" />
      <trkpt lat="45.4589747" lon="9.1871914" />
      <trkpt lat="45.4590073" lon="9.1872260" />
      <trkpt lat="45.4590229" lon="9.1872426" />
      <trkpt lat="45.4590304" lon="9.1872506" />
      <trkpt lat="45.4593414" lon="9.1877568" />
      <trkpt lat="45.4593610" lon="9.1878111" />
      <trkpt lat="45.4593719" lon="9.1878604" />
      <trkpt lat="45.4594221" lon="9.1878789" />
      <trkpt lat="45.4594453" lon="9.1878824" />
      <trkpt lat="45.4594670" lon="9.1879006" />
      <trkpt lat="45.4595289" lon="9.1879255" />
      <trkpt lat="45.4598747" lon="9.1880284" />
      <trkpt lat="45.4601107" lon="9.1880986" />
      <trkpt lat="45.4601572" lon="9.1881114" />
      <trkpt lat="45.4601594" lon="9.1880774" />
      <trkpt lat="45.4601610" lon="9.1880674" />
      <trkpt lat="45.4601845" lon="9.1880743" />
      <trkpt lat="45.4602007" lon="9.1880801" />
      <trkpt lat="45.4602414" lon="9.1880946" />
      <trkpt lat="45.4602503" lon="9.1880978" />
      <trkpt lat="45.4602808" lon="9.1879066" />
      <trkpt lat="45.4602981" lon="9.1877762" />
      <trkpt lat="45.4605498" lon="9.1876046" />
      <trkpt lat="45.4607312" lon="9.1876011" />
      <trkpt lat="45.4607312" lon="9.1875952" />
      <trkpt lat="45.4607308" lon="9.1875704" />
      <trkpt lat="45.4607301" lon="9.1875303" />
      <trkpt lat="45.4607346" lon="9.1875215" />
      <trkpt lat="45.4607708" lon="9.1875202" />
      <trkpt lat="45.4606999" lon="9.1866900" />
      <trkpt lat="45.4607148" lon="9.1865658" />
      <trkpt lat="45.4606967" lon="9.1863513" />
      <trkpt lat="45.4602280" lon="9.1863916" />
      <trkpt lat="45.4601409" lon="9.1864371" />
      <trkpt lat="45.4601363" lon="9.1864395" />
      <trkpt lat="45.4601358" lon="9.1864397" />
      <trkpt lat="45.4601351" lon="9.1864373" />
      <trkpt lat="45.4601317" lon="9.1864250" />
      <trkpt lat="45.4601645" lon="9.1864068" />
      <trkpt lat="45.4601615" lon="9.1863925" />
      <trkpt lat="45.4601890" lon="9.1863784" />
      <trkpt lat="45.4601933" lon="9.1863761" />
      <trkpt lat="45.4604409" lon="9.1863169" />
      <trkpt lat="45.4605718" lon="9.1863392" />
      <trkpt lat="45.4608314" lon="9.1862749" />
      <trkpt lat="45.4611080" lon="9.1861292" />
      <trkpt lat="45.4611085" lon="9.1860312" />
      <trkpt lat="45.4610525" lon="9.1855580" />
      <trkpt lat="45.4610640" lon="9.1855520" />
      <trkpt lat="45.4610798" lon="9.1855497" />
      <trkpt lat="45.4611505" lon="9.1860006" />
      <trkpt lat="45.4611587" lon="9.1860507" />
      <trkpt lat="45.4612629" lon="9.1860093" />
      <trkpt lat="45.4613197" lon="9.1859827" />
      <trkpt lat="45.4613546" lon="9.1859516" />
      <trkpt lat="45.4614123" lon="9.1858897" />
      <trkpt lat="45.4615851" lon="9.1856698" />
      <trkpt lat="45.4615938" lon="9.1856815" />
      <trkpt lat="45.4616087" lon="9.1857014" />
      <trkpt lat="45.4616397" lon="9.1856649" />
      <trkpt lat="45.4616490" lon="9.1856540" />
      <trkpt lat="45.4615911" lon="9.1855672" />
      <trkpt lat="45.4615077" lon="9.1854471" />
      <trkpt lat="45.4615344" lon="9.1853633" />
      <trkpt lat="45.4615574" lon="9.1852908" />
      <trkpt lat="45.4616714" lon="9.1849107" />
      <trkpt lat="45.4617743" lon="9.1847020" />
      <trkpt lat="45.4619825" lon="9.1843775" />
      <trkpt lat="45.4620219" lon="9.1843160" />
      <trkpt lat="45.4620888" lon="9.1843345" />
      <trkpt lat="45.4625121" lon="9.1844545" />
      <trkpt lat="45.4625507" lon="9.1845046" />
      <trkpt lat="45.4628771" lon="9.1846038" />
      <trkpt lat="45.4629348" lon="9.1846775" />
      <trkpt lat="45.4629699" lon="9.1846310" />
      <trkpt lat="45.4632481" lon="9.1842784" />
      <trkpt lat="45.4635055" lon="9.1838543" />
      <trkpt lat="45.4635490" lon="9.1838253" />
      <trkpt lat="45.4635970" lon="9.1837705" />
      <trkpt lat="45.4640634" lon="9.1832413" />
      <trkpt lat="45.4642521" lon="9.1830374" />
      <trkpt lat="45.4644348" lon="9.1830080" />
      <trkpt lat="45.4645593" lon="9.1829808" />
      <trkpt lat="45.4648947" lon="9.1829079" />
      <trkpt lat="45.4649159" lon="9.1828944" />
      <trkpt lat="45.4649445" lon="9.1828775" />
      <trkpt lat="45.4649965" lon="9.1828154" />
      <trkpt lat="45.4650620" lon="9.1827121" />
      <trkpt lat="45.4651049" lon="9.1826240" />
      <trkpt lat="45.4651394" lon="9.1825443" />
      <trkpt lat="45.4651773" lon="9.1824281" />
      <trkpt lat="45.4652452" lon="9.1822066" />
      <trkpt lat="45.4652624" lon="9.1821891" />
      <trkpt lat="45.4652940" lon="9.1821842" />
      <trkpt lat="45.4654063" lon="9.1822301" />
      <trkpt lat="45.4655674" lon="9.1822825" />
      <trkpt lat="45.4657000" lon="9.1823010" />
      <trkpt lat="45.4657135" lon="9.1822949" />
      <trkpt lat="45.4657310" lon="9.1822700" />
      <trkpt lat="45.4657496" lon="9.1822206" />
      <trkpt lat="45.4657367" lon="9.1820221" />
      <trkpt lat="45.4657436" lon="9.1820217" />
      <trkpt lat="45.4657910" lon="9.1820187" />
      <trkpt lat="45.4658005" lon="9.1822169" />
      <trkpt lat="45.4658025" lon="9.1822596" />
      <trkpt lat="45.4658029" lon="9.1822681" />
      <trkpt lat="45.4659613" lon="9.1822527" />
      <trkpt lat="45.4660346" lon="9.1822455" />
      <trkpt lat="45.4662241" lon="9.1822349" />
      <trkpt lat="45.4663512" lon="9.1822294" />
      <trkpt lat="45.4663546" lon="9.1823038" />
      <trkpt lat="45.4663683" lon="9.1823018" />
      <trkpt lat="45.4663804" lon="9.1823001" />
      <trkpt lat="45.4663982" lon="9.1822976" />
      <trkpt lat="45.4664539" lon="9.1823018" />
      <trkpt lat="45.4666102" lon="9.1823241" />
      <trkpt lat="45.4666266" lon="9.1823151" />
      <trkpt lat="45.4666892" lon="9.1823689" />
      <trkpt lat="45.4668397" lon="9.1824081" />
      <trkpt lat="45.4669282" lon="9.1824415" />
      <trkpt lat="45.4670168" lon="9.1824327" />
      <trkpt lat="45.4670850" lon="9.1824192" />
      <trkpt lat="45.4671852" lon="9.1827733" />
      <trkpt lat="45.4671993" lon="9.1827398" />
      <trkpt lat="45.4672046" lon="9.1827355" />
      <trkpt lat="45.4672099" lon="9.1827312" />
      <trkpt lat="45.4672172" lon="9.1827242" />
      <trkpt lat="45.4672299" lon="9.1827675" />
      <trkpt lat="45.4676087" lon="9.1825527" />
      <trkpt lat="45.4676437" lon="9.1825223" />
      <trkpt lat="45.4677020" lon="9.1824585" />
      <trkpt lat="45.4677043" lon="9.1824632" />
      <trkpt lat="45.4677142" lon="9.1824952" />
      <trkpt lat="45.4677232" lon="9.1825238" />
      <trkpt lat="45.4677271" lon="9.1825364" />
      <trkpt lat="45.4677829" lon="9.1826182" />
      <trkpt lat="45.4677987" lon="9.1825744" />
      <trkpt lat="45.4678248" lon="9.1824992" />
      <trkpt lat="45.4678330" lon="9.1824809" />
      <trkpt lat="45.4678453" lon="9.1824564" />
      <trkpt lat="45.4678600" lon="9.1824313" />
      <trkpt lat="45.4678742" lon="9.1824372" />
      <trkpt lat="45.4678958" lon="9.1824676" />
      <trkpt lat="45.4679524" lon="9.1825471" />
      <trkpt lat="45.4679813" lon="9.1825777" />
      <trkpt lat="45.4680174" lon="9.1825306" />
      <trkpt lat="45.4683795" lon="9.1819945" />
      <trkpt lat="45.4684181" lon="9.1819380" />
      <trkpt lat="45.4685810" lon="9.1821722" />
      <trkpt lat="45.4685876" lon="9.1821640" />
      <trkpt lat="45.4686182" lon="9.1821229" />
      <trkpt lat="45.4686396" lon="9.1820941" />
      <trkpt lat="45.4686531" lon="9.1820779" />
      <trkpt lat="45.4686785" lon="9.1821181" />
      <trkpt lat="45.4686953" lon="9.1821440" />
      <trkpt lat="45.4687079" lon="9.1821287" />
      <trkpt lat="45.4690284" lon="9.1817469" />
      <trkpt lat="45.4690406" lon="9.1817041" />
      <trkpt lat="45.4690612" lon="9.1816684" />
      <trkpt lat="45.4690692" lon="9.1816546" />
      <trkpt lat="45.4691198" lon="9.1817085" />
      <trkpt lat="45.4691970" lon="9.1817769" />
      <trkpt lat="45.4692350" lon="9.1818072" />
      <trkpt lat="45.4692550" lon="9.1818232" />
      <trkpt lat="45.4692976" lon="9.1818573" />
      <trkpt lat="45.4694180" lon="9.1819418" />
      <trkpt lat="45.4695077" lon="9.1819904" />
      <trkpt lat="45.4696145" lon="9.1820384" />
      <trkpt lat="45.4697274" lon="9.1820773" />
      <trkpt lat="45.4698346" lon="9.1821014" />
      <trkpt lat="45.4699569" lon="9.1821175" />
      <trkpt lat="45.4699976" lon="9.1821257" />
      <trkpt lat="45.4700546" lon="9.1821344" />
      <trkpt lat="45.4701059" lon="9.1821341" />
      <trkpt lat="45.4702105" lon="9.1821074" />
      <trkpt lat="45.4703566" lon="9.1820773" />
      <trkpt lat="45.4704576" lon="9.1820453" />
      <trkpt lat="45.4705569" lon="9.1820008" />
      <trkpt lat="45.4706457" lon="9.1819501" />
      <trkpt lat="45.4707163" lon="9.1818992" />
      <trkpt lat="45.4708164" lon="9.1818305" />
      <trkpt lat="45.4708959" lon="9.1817557" />
      <trkpt lat="45.4709979" lon="9.1816521" />
      <trkpt lat="45.4710623" lon="9.1815804" />
      <trkpt lat="45.4711160" lon="9.1815177" />
      <trkpt lat="45.4711433" lon="9.1815580" />
      <trkpt lat="45.4711612" lon="9.1815842" />
      <trkpt lat="45.4716088" lon="9.1822752" />
      <trkpt lat="45.4716031" lon="9.1822999" />
      <trkpt lat="45.4716150" lon="9.1823339" />
      <trkpt lat="45.4716471" lon="9.1824310" />
      <trkpt lat="45.4716582" lon="9.1824609" />
      <trkpt lat="45.4716737" lon="9.1825024" />
      <trkpt lat="45.4716893" lon="9.1825470" />
      <trkpt lat="45.4716977" lon="9.1825711" />
      <trkpt lat="45.4717015" lon="9.1825819" />
      <trkpt lat="45.4717114" lon="9.1825761" />
      <trkpt lat="45.4717160" lon="9.1825718" />
      <trkpt lat="45.4717213" lon="9.1825673" />
      <trkpt lat="45.4717626" lon="9.1825305" />
      <trkpt lat="45.4717780" lon="9.1825183" />
      <trkpt lat="45.4717943" lon="9.1825023" />
      <trkpt lat="45.4718024" lon="9.1824951" />
      <trkpt lat="45.4718484" lon="9.1824542" />
      <trkpt lat="45.4718781" lon="9.1824277" />
      <trkpt lat="45.4718882" lon="9.1824187" />
      <trkpt lat="45.4718937" lon="9.1824138" />
      <trkpt lat="45.4718966" lon="9.1824112" />
      <trkpt lat="45.4719034" lon="9.1824052" />
      <trkpt lat="45.4719152" lon="9.1825344" />
      <trkpt lat="45.4719232" lon="9.1825691" />
      <trkpt lat="45.4719360" lon="9.1825993" />
      <trkpt lat="45.4719402" lon="9.1826306" />
      <trkpt lat="45.4719774" lon="9.1829056" />
      <trkpt lat="45.4719836" lon="9.1829461" />
      <trkpt lat="45.4719898" lon="9.1829867" />
      <trkpt lat="45.4719951" lon="9.1830211" />
      <trkpt lat="45.4719976" lon="9.1830372" />
      <trkpt lat="45.4723256" lon="9.1829454" />
      <trkpt lat="45.4727869" lon="9.1827862" />
      <trkpt lat="45.4728044" lon="9.1827950" />
      <trkpt lat="45.4728937" lon="9.1832149" />
      <trkpt lat="45.4729344" lon="9.1836221" />
      <trkpt lat="45.4729419" lon="9.1836915" />
      <trkpt lat="45.4723868" lon="9.1837824" />
      <trkpt lat="45.4721924" lon="9.1838207" />
      <trkpt lat="45.4721998" lon="9.1838805" />
      <trkpt lat="45.4722020" lon="9.1838983" />
      <trkpt lat="45.4722089" lon="9.1839528" />
      <trkpt lat="45.4722124" lon="9.1839812" />
      <trkpt lat="45.4721923" lon="9.1839851" />
      <trkpt lat="45.4721798" lon="9.1840079" />
      <trkpt lat="45.4721721" lon="9.1840138" />
      <trkpt lat="45.4721374" lon="9.1840198" />
      <trkpt lat="45.4721096" lon="9.1840247" />
      <trkpt lat="45.4721013" lon="9.1840262" />
      <trkpt lat="45.4721987" lon="9.1843792" />
      <trkpt lat="45.4720913" lon="9.1844198" />
      <trkpt lat="45.4720048" lon="9.1840264" />
      <trkpt lat="45.4719945" lon="9.1840302" />
      <trkpt lat="45.4716819" lon="9.1841359" />
      <trkpt lat="45.4716792" lon="9.1841364" />
      <trkpt lat="45.4716752" lon="9.1841387" />
      <trkpt lat="45.4716700" lon="9.1841415" />
      <trkpt lat="45.4716658" lon="9.1841438" />
      <trkpt lat="45.4714336" lon="9.1842410" />
      <trkpt lat="45.4714302" lon="9.1842429" />
      <trkpt lat="45.4714169" lon="9.1842505" />
      <trkpt lat="45.4714092" lon="9.1842553" />
      <trkpt lat="45.4714034" lon="9.1842519" />
      <trkpt lat="45.4713817" lon="9.1842338" />
      <trkpt lat="45.4709724" lon="9.1843977" />
      <trkpt lat="45.4708757" lon="9.1844326" />
      <trkpt lat="45.4705686" lon="9.1846241" />
      <trkpt lat="45.4705224" lon="9.1846541" />
      <trkpt lat="45.4703351" lon="9.1847797" />
      <trkpt lat="45.4703280" lon="9.1847927" />
      <trkpt lat="45.4703326" lon="9.1848299" />
      <trkpt lat="45.4703043" lon="9.1848616" />
      <trkpt lat="45.4702880" lon="9.1848798" />
      <trkpt lat="45.4702786" lon="9.1848903" />
      <trkpt lat="45.4702549" lon="9.1849169" />
      <trkpt lat="45.4702324" lon="9.1848515" />
      <trkpt lat="45.4701624" lon="9.1848969" />
      <trkpt lat="45.4701750" lon="9.1849431" />
      <trkpt lat="45.4703359" lon="9.1855238" />
      <trkpt lat="45.4701928" lon="9.1856026" />
      <trkpt lat="45.4701884" lon="9.1856048" />
      <trkpt lat="45.4701466" lon="9.1856277" />
      <trkpt lat="45.4703622" lon="9.1864658" />
      <trkpt lat="45.4703626" lon="9.1864672" />
      <trkpt lat="45.4703426" lon="9.1864735" />
      <trkpt lat="45.4696193" lon="9.1867294" />
      <trkpt lat="45.4691534" lon="9.1869204" />
      <trkpt lat="45.4691546" lon="9.1869287" />
      <trkpt lat="45.4691571" lon="9.1869461" />
      <trkpt lat="45.4691203" lon="9.1869591" />
      <trkpt lat="45.4691514" lon="9.1873741" />
      <trkpt lat="45.4691515" lon="9.1873766" />
      <trkpt lat="45.4691526" lon="9.1873935" />
      <trkpt lat="45.4691282" lon="9.1873973" />
      <trkpt lat="45.4691194" lon="9.1873986" />
      <trkpt lat="45.4691630" lon="9.1881272" />
      <trkpt lat="45.4691472" lon="9.1881307" />
      <trkpt lat="45.4691382" lon="9.1881313" />
      <trkpt lat="45.4691295" lon="9.1881328" />
      <trkpt lat="45.4691341" lon="9.1882023" />
      <trkpt lat="45.4691074" lon="9.1882095" />
      <trkpt lat="45.4691013" lon="9.1882111" />
      <trkpt lat="45.4689349" lon="9.1882655" />
      <trkpt lat="45.4686546" lon="9.1884137" />
      <trkpt lat="45.4686528" lon="9.1884150" />
      <trkpt lat="45.4686369" lon="9.1884262" />
      <trkpt lat="45.4686279" lon="9.1884323" />
      <trkpt lat="45.4686199" lon="9.1884379" />
      <trkpt lat="45.4683318" lon="9.1886017" />
      <trkpt lat="45.4682228" lon="9.1887707" />
      <trkpt lat="45.4678601" lon="9.1893125" />
      <trkpt lat="45.4674977" lon="9.1898434" />
      <trkpt lat="45.4674846" lon="9.1898598" />
      <trkpt lat="45.4674784" lon="9.1898654" />
      <trkpt lat="45.4674715" lon="9.1898684" />
      <trkpt lat="45.4674661" lon="9.1898686" />
      <trkpt lat="45.4674613" lon="9.1898666" />
      <trkpt lat="45.4674577" lon="9.1898640" />
      <trkpt lat="45.4674090" lon="9.1898087" />
      <trkpt lat="45.4673834" lon="9.1897779" />
      <trkpt lat="45.4672789" lon="9.1896442" />
      <trkpt lat="45.4671946" lon="9.1895285" />
      <trkpt lat="45.4671878" lon="9.1895185" />
      <trkpt lat="45.4671886" lon="9.1895228" />
      <trkpt lat="45.4671681" lon="9.1894970" />
      <trkpt lat="45.4670413" lon="9.1893372" />
      <trkpt lat="45.4670302" lon="9.1893233" />
      <trkpt lat="45.4670113" lon="9.1893010" />
      <trkpt lat="45.4670014" lon="9.1892886" />
      <trkpt lat="45.4669885" lon="9.1892725" />
      <trkpt lat="45.4669756" lon="9.1892616" />
      <trkpt lat="45.4668132" lon="9.1891007" />
      <trkpt lat="45.4665703" lon="9.1888832" />
      <trkpt lat="45.4665607" lon="9.1888747" />
      <trkpt lat="45.4665284" lon="9.1889236" />
      <trkpt lat="45.4665170" lon="9.1889408" />
      <trkpt lat="45.4664971" lon="9.1889226" />
      <trkpt lat="45.4664073" lon="9.1888404" />
      <trkpt lat="45.4662217" lon="9.1886687" />
      <trkpt lat="45.4661744" lon="9.1886277" />
      <trkpt lat="45.4660871" lon="9.1885523" />
      <trkpt lat="45.4660659" lon="9.1885520" />
      <trkpt lat="45.4658485" lon="9.1885484" />
      <trkpt lat="45.4656716" lon="9.1885469" />
      <trkpt lat="45.4655566" lon="9.1885445" />
      <trkpt lat="45.4651429" lon="9.1885409" />
      <trkpt lat="45.4649516" lon="9.1885434" />
      <trkpt lat="45.4648234" lon="9.1885464" />
      <trkpt lat="45.4648243" lon="9.1885985" />
      <trkpt lat="45.4648244" lon="9.1886045" />
      <trkpt lat="45.4648240" lon="9.1886223" />
      <trkpt lat="45.4648219" lon="9.1887820" />
      <trkpt lat="45.4648231" lon="9.1890382" />
      <trkpt lat="45.4647852" lon="9.1890432" />
      <trkpt lat="45.4647694" lon="9.1890380" />
      <trkpt lat="45.4647691" lon="9.1890685" />
      <trkpt lat="45.4647697" lon="9.1891591" />
      <trkpt lat="45.4647696" lon="9.1892209" />
      <trkpt lat="45.4647267" lon="9.1892186" />
      <trkpt lat="45.4646537" lon="9.1891261" />
      <trkpt lat="45.4646499" lon="9.1893273" />
      <trkpt lat="45.4646497" lon="9.1893463" />
      <trkpt lat="45.4645594" lon="9.1894058" />
      <trkpt lat="45.4645554" lon="9.1894275" />
      <trkpt lat="45.4645550" lon="9.1894735" />
      <trkpt lat="45.4645550" lon="9.1894793" />
      <trkpt lat="45.4645546" lon="9.1895206" />
      <trkpt lat="45.4645546" lon="9.1895295" />
      <trkpt lat="45.4645542" lon="9.1895730" />
      <trkpt lat="45.4645579" lon="9.1895821" />
      <trkpt lat="45.4645576" lon="9.1896132" />
      <trkpt lat="45.4645553" lon="9.1897951" />
      <trkpt lat="45.4645547" lon="9.1898439" />
      <trkpt lat="45.4645471" lon="9.1898437" />
      <trkpt lat="45.4645044" lon="9.1898425" />
      <trkpt lat="45.4644741" lon="9.1898729" />
      <trkpt lat="45.4644313" lon="9.1898582" />
      <trkpt lat="45.4643695" lon="9.1897716" />
    </trkseg>
  </trk>
</gpx>
