<?xml version="1.0" encoding="UTF-8"?>
<gpx xmlns="http://www.topografix.com/GPX/1/1" version="1.1" creator="ShapeRoute route-engine">
  <metadata>
    <name>HUB 15 km trento round</name>
    <author>
      <name>ShapeRoute route-engine</name>
    </author>
    <copyright author="OpenStreetMap contributors">
      <license>https://opendatacommons.org/licenses/odbl/1-0/</license>
    </copyright>
    <link href="https://www.openstreetmap.org/copyright">
      <text>© OpenStreetMap contributors</text>
    </link>
    <time>2026-10-02T11:11:10Z</time>
  </metadata>
  <trk>
    <name>HUB 15 km trento round</name>
    <trkseg>
      <trkpt lat="46.0668711" lon="11.1210492" />
      <trkpt lat="46.0667705" lon="11.1210629" />
      <trkpt lat="46.0667526" lon="11.1210542" />
      <trkpt lat="46.0667024" lon="11.1213629" />
      <trkpt lat="46.0666701" lon="11.1215352" />
      <trkpt lat="46.0666789" lon="11.1217092" />
      <trkpt lat="46.0667274" lon="11.1218448" />
      <trkpt lat="46.0667304" lon="11.1218751" />
      <trkpt lat="46.0667697" lon="11.1219637" />
      <trkpt lat="46.0668675" lon="11.1221842" />
      <trkpt lat="46.0668704" lon="11.1222043" />
      <trkpt lat="46.0668726" lon="11.1222251" />
      <trkpt lat="46.0667963" lon="11.1222541" />
      <trkpt lat="46.0667787" lon="11.1222601" />
      <trkpt lat="46.0667357" lon="11.1222747" />
      <trkpt lat="46.0667414" lon="11.1223091" />
      <trkpt lat="46.0667532" lon="11.1223909" />
      <trkpt lat="46.0667715" lon="11.1225101" />
      <trkpt lat="46.0667729" lon="11.1225194" />
      <trkpt lat="46.0667810" lon="11.1225726" />
      <trkpt lat="46.0668548" lon="11.1230552" />
      <trkpt lat="46.0668872" lon="11.1232848" />
      <trkpt lat="46.0668905" lon="11.1233334" />
      <trkpt lat="46.0668935" lon="11.1233766" />
      <trkpt lat="46.0669433" lon="11.1237737" />
      <trkpt lat="46.0669933" lon="11.1241724" />
      <trkpt lat="46.0669974" lon="11.1242205" />
      <trkpt lat="46.0670012" lon="11.1242659" />
      <trkpt lat="46.0670305" lon="11.1244447" />
      <trkpt lat="46.0670340" lon="11.1244675" />
      <trkpt lat="46.0670305" lon="11.1244447" />
      <trkpt lat="46.0670012" lon="11.1242659" />
      <trkpt lat="46.0669974" lon="11.1242205" />
      <trkpt lat="46.0669933" lon="11.1241724" />
      <trkpt lat="46.0669433" lon="11.1237737" />
      <trkpt lat="46.0668935" lon="11.1233766" />
      <trkpt lat="46.0668905" lon="11.1233334" />
      <trkpt lat="46.0668986" lon="11.1233290" />
      <trkpt lat="46.0669188" lon="11.1233181" />
      <trkpt lat="46.0669670" lon="11.1232923" />
      <trkpt lat="46.0672635" lon="11.1232024" />
      <trkpt lat="46.0672653" lon="11.1232368" />
      <trkpt lat="46.0672686" lon="11.1232351" />
      <trkpt lat="46.0672810" lon="11.1232291" />
      <trkpt lat="46.0672821" lon="11.1232581" />
      <trkpt lat="46.0672873" lon="11.1232576" />
      <trkpt lat="46.0673011" lon="11.1232564" />
      <trkpt lat="46.0673146" lon="11.1232553" />
      <trkpt lat="46.0673183" lon="11.1232550" />
      <trkpt lat="46.0673371" lon="11.1232534" />
      <trkpt lat="46.0674008" lon="11.1232483" />
      <trkpt lat="46.0674156" lon="11.1232472" />
      <trkpt lat="46.0676659" lon="11.1232331" />
      <trkpt lat="46.0677631" lon="11.1232283" />
      <trkpt lat="46.0678077" lon="11.1232267" />
      <trkpt lat="46.0678084" lon="11.1230699" />
      <trkpt lat="46.0678154" lon="11.1230007" />
      <trkpt lat="46.0679498" lon="11.1229741" />
      <trkpt lat="46.0681832" lon="11.1229244" />
      <trkpt lat="46.0682031" lon="11.1229202" />
      <trkpt lat="46.0681489" lon="11.1225470" />
      <trkpt lat="46.0685802" lon="11.1225918" />
      <trkpt lat="46.0688087" lon="11.1225689" />
      <trkpt lat="46.0690210" lon="11.1225351" />
      <trkpt lat="46.0689171" lon="11.1220222" />
      <trkpt lat="46.0688448" lon="11.1212725" />
      <trkpt lat="46.0688409" lon="11.1212316" />
      <trkpt lat="46.0688387" lon="11.1211858" />
      <trkpt lat="46.0688365" lon="11.1211527" />
      <trkpt lat="46.0687499" lon="11.1204587" />
      <trkpt lat="46.0687388" lon="11.1203760" />
      <trkpt lat="46.0687020" lon="11.1201725" />
      <trkpt lat="46.0686963" lon="11.1201124" />
      <trkpt lat="46.0686941" lon="11.1200894" />
      <trkpt lat="46.0686922" lon="11.1200685" />
      <trkpt lat="46.0686910" lon="11.1200385" />
      <trkpt lat="46.0685313" lon="11.1200706" />
      <trkpt lat="46.0685273" lon="11.1200042" />
      <trkpt lat="46.0686285" lon="11.1199921" />
      <trkpt lat="46.0687055" lon="11.1199855" />
      <trkpt lat="46.0687688" lon="11.1199699" />
      <trkpt lat="46.0687784" lon="11.1199700" />
      <trkpt lat="46.0688097" lon="11.1199685" />
      <trkpt lat="46.0688503" lon="11.1199666" />
      <trkpt lat="46.0688785" lon="11.1199652" />
      <trkpt lat="46.0688928" lon="11.1199633" />
      <trkpt lat="46.0689900" lon="11.1199487" />
      <trkpt lat="46.0690484" lon="11.1199429" />
      <trkpt lat="46.0691086" lon="11.1199380" />
      <trkpt lat="46.0691667" lon="11.1199367" />
      <trkpt lat="46.0692352" lon="11.1199271" />
      <trkpt lat="46.0693982" lon="11.1198734" />
      <trkpt lat="46.0694763" lon="11.1198434" />
      <trkpt lat="46.0695220" lon="11.1198116" />
      <trkpt lat="46.0695223" lon="11.1198626" />
      <trkpt lat="46.0697429" lon="11.1198297" />
      <trkpt lat="46.0700021" lon="11.1197557" />
      <trkpt lat="46.0700053" lon="11.1197976" />
      <trkpt lat="46.0700337" lon="11.1198021" />
      <trkpt lat="46.0700585" lon="11.1200224" />
      <trkpt lat="46.0701087" lon="11.1200099" />
      <trkpt lat="46.0701965" lon="11.1199880" />
      <trkpt lat="46.0702609" lon="11.1206156" />
      <trkpt lat="46.0703911" lon="11.1205907" />
      <trkpt lat="46.0704219" lon="11.1206145" />
      <trkpt lat="46.0704688" lon="11.1207212" />
      <trkpt lat="46.0704977" lon="11.1208011" />
      <trkpt lat="46.0705556" lon="11.1207774" />
      <trkpt lat="46.0707008" lon="11.1207313" />
      <trkpt lat="46.0707490" lon="11.1207293" />
      <trkpt lat="46.0708300" lon="11.1207393" />
      <trkpt lat="46.0709364" lon="11.1207311" />
      <trkpt lat="46.0709509" lon="11.1208545" />
      <trkpt lat="46.0709558" lon="11.1208960" />
      <trkpt lat="46.0709770" lon="11.1211108" />
      <trkpt lat="46.0709800" lon="11.1211393" />
      <trkpt lat="46.0709933" lon="11.1212422" />
      <trkpt lat="46.0714042" lon="11.1211368" />
      <trkpt lat="46.0714094" lon="11.1210971" />
      <trkpt lat="46.0714182" lon="11.1210689" />
      <trkpt lat="46.0714280" lon="11.1210421" />
      <trkpt lat="46.0714484" lon="11.1210274" />
      <trkpt lat="46.0714778" lon="11.1210315" />
      <trkpt lat="46.0715831" lon="11.1210789" />
      <trkpt lat="46.0716174" lon="11.1210984" />
      <trkpt lat="46.0716533" lon="11.1211213" />
      <trkpt lat="46.0716908" lon="11.1211467" />
      <trkpt lat="46.0717867" lon="11.1212118" />
      <trkpt lat="46.0718835" lon="11.1212826" />
      <trkpt lat="46.0719258" lon="11.1212714" />
      <trkpt lat="46.0719838" lon="11.1212590" />
      <trkpt lat="46.0720342" lon="11.1211990" />
      <trkpt lat="46.0720729" lon="11.1211343" />
      <trkpt lat="46.0721142" lon="11.1211621" />
      <trkpt lat="46.0721465" lon="11.1211839" />
      <trkpt lat="46.0721592" lon="11.1211924" />
      <trkpt lat="46.0721744" lon="11.1212022" />
      <trkpt lat="46.0720810" lon="11.1215120" />
      <trkpt lat="46.0722703" lon="11.1216368" />
      <trkpt lat="46.0726591" lon="11.1218861" />
      <trkpt lat="46.0726938" lon="11.1219095" />
      <trkpt lat="46.0727113" lon="11.1218552" />
      <trkpt lat="46.0728266" lon="11.1214975" />
      <trkpt lat="46.0727113" lon="11.1218552" />
      <trkpt lat="46.0726938" lon="11.1219095" />
      <trkpt lat="46.0726591" lon="11.1218861" />
      <trkpt lat="46.0722703" lon="11.1216368" />
      <trkpt lat="46.0720810" lon="11.1215120" />
      <trkpt lat="46.0720560" lon="11.1214732" />
      <trkpt lat="46.0720298" lon="11.1214493" />
      <trkpt lat="46.0719313" lon="11.1213497" />
      <trkpt lat="46.0719062" lon="11.1213170" />
      <trkpt lat="46.0718835" lon="11.1212826" />
      <trkpt lat="46.0717867" lon="11.1212118" />
      <trkpt lat="46.0716908" lon="11.1211467" />
      <trkpt lat="46.0716533" lon="11.1211213" />
      <trkpt lat="46.0716174" lon="11.1210984" />
      <trkpt lat="46.0715831" lon="11.1210789" />
      <trkpt lat="46.0714778" lon="11.1210315" />
      <trkpt lat="46.0714484" lon="11.1210274" />
      <trkpt lat="46.0714280" lon="11.1210421" />
      <trkpt lat="46.0714182" lon="11.1210689" />
      <trkpt lat="46.0714094" lon="11.1210971" />
      <trkpt lat="46.0714042" lon="11.1211368" />
      <trkpt lat="46.0709933" lon="11.1212422" />
      <trkpt lat="46.0709093" lon="11.1212701" />
      <trkpt lat="46.0708739" lon="11.1212929" />
      <trkpt lat="46.0708428" lon="11.1213207" />
      <trkpt lat="46.0706077" lon="11.1213808" />
      <trkpt lat="46.0705431" lon="11.1214010" />
      <trkpt lat="46.0703902" lon="11.1214490" />
      <trkpt lat="46.0703665" lon="11.1214519" />
      <trkpt lat="46.0703515" lon="11.1214390" />
      <trkpt lat="46.0703324" lon="11.1214444" />
      <trkpt lat="46.0702645" lon="11.1214627" />
      <trkpt lat="46.0702164" lon="11.1214756" />
      <trkpt lat="46.0702108" lon="11.1214249" />
      <trkpt lat="46.0701289" lon="11.1206585" />
      <trkpt lat="46.0700585" lon="11.1200224" />
      <trkpt lat="46.0700337" lon="11.1198021" />
      <trkpt lat="46.0700053" lon="11.1197976" />
      <trkpt lat="46.0700021" lon="11.1197557" />
      <trkpt lat="46.0697429" lon="11.1198297" />
      <trkpt lat="46.0695223" lon="11.1198626" />
      <trkpt lat="46.0695220" lon="11.1198116" />
      <trkpt lat="46.0694763" lon="11.1198434" />
      <trkpt lat="46.0693982" lon="11.1198734" />
      <trkpt lat="46.0692352" lon="11.1199271" />
      <trkpt lat="46.0691667" lon="11.1199367" />
      <trkpt lat="46.0691086" lon="11.1199380" />
      <trkpt lat="46.0690484" lon="11.1199429" />
      <trkpt lat="46.0689900" lon="11.1199487" />
      <trkpt lat="46.0688928" lon="11.1199633" />
      <trkpt lat="46.0688785" lon="11.1199652" />
      <trkpt lat="46.0688503" lon="11.1199666" />
      <trkpt lat="46.0688097" lon="11.1199685" />
      <trkpt lat="46.0687784" lon="11.1199700" />
      <trkpt lat="46.0687688" lon="11.1199699" />
      <trkpt lat="46.0687055" lon="11.1199855" />
      <trkpt lat="46.0686285" lon="11.1199921" />
      <trkpt lat="46.0685273" lon="11.1200042" />
      <trkpt lat="46.0685313" lon="11.1200706" />
      <trkpt lat="46.0686910" lon="11.1200385" />
      <trkpt lat="46.0686922" lon="11.1200685" />
      <trkpt lat="46.0686941" lon="11.1200894" />
      <trkpt lat="46.0686963" lon="11.1201124" />
      <trkpt lat="46.0687020" lon="11.1201725" />
      <trkpt lat="46.0687388" lon="11.1203760" />
      <trkpt lat="46.0687499" lon="11.1204587" />
      <trkpt lat="46.0688365" lon="11.1211527" />
      <trkpt lat="46.0688387" lon="11.1211858" />
      <trkpt lat="46.0688409" lon="11.1212316" />
      <trkpt lat="46.0688448" lon="11.1212725" />
      <trkpt lat="46.0689171" lon="11.1220222" />
      <trkpt lat="46.0690210" lon="11.1225351" />
      <trkpt lat="46.0688087" lon="11.1225689" />
      <trkpt lat="46.0685802" lon="11.1225918" />
      <trkpt lat="46.0681489" lon="11.1225470" />
      <trkpt lat="46.0682031" lon="11.1229202" />
      <trkpt lat="46.0681832" lon="11.1229244" />
      <trkpt lat="46.0679498" lon="11.1229741" />
      <trkpt lat="46.0678154" lon="11.1230007" />
      <trkpt lat="46.0678084" lon="11.1230699" />
      <trkpt lat="46.0678077" lon="11.1232267" />
      <trkpt lat="46.0678142" lon="11.1235709" />
      <trkpt lat="46.0678148" lon="11.1236019" />
      <trkpt lat="46.0678150" lon="11.1236046" />
      <trkpt lat="46.0678397" lon="11.1239254" />
      <trkpt lat="46.0678400" lon="11.1239294" />
      <trkpt lat="46.0678422" lon="11.1239573" />
      <trkpt lat="46.0680942" lon="11.1238875" />
      <trkpt lat="46.0682827" lon="11.1238602" />
      <trkpt lat="46.0682835" lon="11.1238873" />
      <trkpt lat="46.0683250" lon="11.1239053" />
      <trkpt lat="46.0683541" lon="11.1239478" />
      <trkpt lat="46.0683766" lon="11.1242292" />
      <trkpt lat="46.0683684" lon="11.1245203" />
      <trkpt lat="46.0683518" lon="11.1247826" />
      <trkpt lat="46.0683737" lon="11.1252392" />
      <trkpt lat="46.0683943" lon="11.1252914" />
      <trkpt lat="46.0685395" lon="11.1255528" />
      <trkpt lat="46.0687920" lon="11.1259214" />
      <trkpt lat="46.0689309" lon="11.1259038" />
      <trkpt lat="46.0689600" lon="11.1258922" />
      <trkpt lat="46.0690129" lon="11.1258657" />
      <trkpt lat="46.0691138" lon="11.1260443" />
      <trkpt lat="46.0692044" lon="11.1261221" />
      <trkpt lat="46.0693249" lon="11.1262450" />
      <trkpt lat="46.0694048" lon="11.1263618" />
      <trkpt lat="46.0694294" lon="11.1265151" />
      <trkpt lat="46.0695425" lon="11.1268253" />
      <trkpt lat="46.0696122" lon="11.1270587" />
      <trkpt lat="46.0696661" lon="11.1271122" />
      <trkpt lat="46.0697280" lon="11.1271826" />
      <trkpt lat="46.0698044" lon="11.1272466" />
      <trkpt lat="46.0698554" lon="11.1272697" />
      <trkpt lat="46.0699224" lon="11.1272592" />
      <trkpt lat="46.0699625" lon="11.1272466" />
      <trkpt lat="46.0699820" lon="11.1273093" />
      <trkpt lat="46.0700069" lon="11.1273936" />
      <trkpt lat="46.0701274" lon="11.1272407" />
      <trkpt lat="46.0701335" lon="11.1272571" />
      <trkpt lat="46.0701441" lon="11.1272813" />
      <trkpt lat="46.0701562" lon="11.1272723" />
      <trkpt lat="46.0701817" lon="11.1272534" />
      <trkpt lat="46.0705964" lon="11.1270153" />
      <trkpt lat="46.0706278" lon="11.1269972" />
      <trkpt lat="46.0706385" lon="11.1269912" />
      <trkpt lat="46.0706575" lon="11.1269811" />
      <trkpt lat="46.0707283" lon="11.1269408" />
      <trkpt lat="46.0707206" lon="11.1269124" />
      <trkpt lat="46.0711449" lon="11.1266642" />
      <trkpt lat="46.0713815" lon="11.1265238" />
      <trkpt lat="46.0714189" lon="11.1266206" />
      <trkpt lat="46.0714872" lon="11.1267992" />
      <trkpt lat="46.0714934" lon="11.1268168" />
      <trkpt lat="46.0715052" lon="11.1268096" />
      <trkpt lat="46.0715479" lon="11.1267832" />
      <trkpt lat="46.0717852" lon="11.1265459" />
      <trkpt lat="46.0718527" lon="11.1264306" />
      <trkpt lat="46.0718616" lon="11.1263904" />
      <trkpt lat="46.0718504" lon="11.1262323" />
      <trkpt lat="46.0718397" lon="11.1261925" />
      <trkpt lat="46.0718195" lon="11.1261313" />
      <trkpt lat="46.0718057" lon="11.1260913" />
      <trkpt lat="46.0719279" lon="11.1259983" />
      <trkpt lat="46.0719595" lon="11.1259970" />
      <trkpt lat="46.0720236" lon="11.1260184" />
      <trkpt lat="46.0720402" lon="11.1259968" />
      <trkpt lat="46.0720594" lon="11.1259585" />
      <trkpt lat="46.0720743" lon="11.1259287" />
      <trkpt lat="46.0720801" lon="11.1259174" />
      <trkpt lat="46.0720949" lon="11.1258874" />
      <trkpt lat="46.0721792" lon="11.1254450" />
      <trkpt lat="46.0721976" lon="11.1253427" />
      <trkpt lat="46.0722208" lon="11.1252132" />
      <trkpt lat="46.0723085" lon="11.1252311" />
      <trkpt lat="46.0727195" lon="11.1253147" />
      <trkpt lat="46.0730716" lon="11.1253856" />
      <trkpt lat="46.0730708" lon="11.1254399" />
      <trkpt lat="46.0730743" lon="11.1254858" />
      <trkpt lat="46.0731016" lon="11.1259478" />
      <trkpt lat="46.0731191" lon="11.1259433" />
      <trkpt lat="46.0731403" lon="11.1262707" />
      <trkpt lat="46.0731479" lon="11.1263231" />
      <trkpt lat="46.0732126" lon="11.1263558" />
      <trkpt lat="46.0732588" lon="11.1263713" />
      <trkpt lat="46.0734632" lon="11.1262868" />
      <trkpt lat="46.0734779" lon="11.1263623" />
      <trkpt lat="46.0734632" lon="11.1262868" />
      <trkpt lat="46.0732588" lon="11.1263713" />
      <trkpt lat="46.0732126" lon="11.1263558" />
      <trkpt lat="46.0731479" lon="11.1263231" />
      <trkpt lat="46.0731403" lon="11.1262707" />
      <trkpt lat="46.0731191" lon="11.1259433" />
      <trkpt lat="46.0731016" lon="11.1259478" />
      <trkpt lat="46.0730743" lon="11.1254858" />
      <trkpt lat="46.0730708" lon="11.1254399" />
      <trkpt lat="46.0730716" lon="11.1253856" />
      <trkpt lat="46.0727195" lon="11.1253147" />
      <trkpt lat="46.0723085" lon="11.1252311" />
      <trkpt lat="46.0722208" lon="11.1252132" />
      <trkpt lat="46.0721976" lon="11.1253427" />
      <trkpt lat="46.0721792" lon="11.1254450" />
      <trkpt lat="46.0720949" lon="11.1258874" />
      <trkpt lat="46.0720801" lon="11.1259174" />
      <trkpt lat="46.0720743" lon="11.1259287" />
      <trkpt lat="46.0720594" lon="11.1259585" />
      <trkpt lat="46.0720402" lon="11.1259968" />
      <trkpt lat="46.0720236" lon="11.1260184" />
      <trkpt lat="46.0719595" lon="11.1259970" />
      <trkpt lat="46.0719279" lon="11.1259983" />
      <trkpt lat="46.0718057" lon="11.1260913" />
      <trkpt lat="46.0718195" lon="11.1261313" />
      <trkpt lat="46.0718397" lon="11.1261925" />
      <trkpt lat="46.0718504" lon="11.1262323" />
      <trkpt lat="46.0718616" lon="11.1263904" />
      <trkpt lat="46.0718527" lon="11.1264306" />
      <trkpt lat="46.0717852" lon="11.1265459" />
      <trkpt lat="46.0715479" lon="11.1267832" />
      <trkpt lat="46.0715052" lon="11.1268096" />
      <trkpt lat="46.0714934" lon="11.1268168" />
      <trkpt lat="46.0714872" lon="11.1267992" />
      <trkpt lat="46.0714189" lon="11.1266206" />
      <trkpt lat="46.0713815" lon="11.1265238" />
      <trkpt lat="46.0711449" lon="11.1266642" />
      <trkpt lat="46.0707206" lon="11.1269124" />
      <trkpt lat="46.0707283" lon="11.1269408" />
      <trkpt lat="46.0706575" lon="11.1269811" />
      <trkpt lat="46.0706385" lon="11.1269912" />
      <trkpt lat="46.0706278" lon="11.1269972" />
      <trkpt lat="46.0705964" lon="11.1270153" />
      <trkpt lat="46.0701817" lon="11.1272534" />
      <trkpt lat="46.0701562" lon="11.1272723" />
      <trkpt lat="46.0701441" lon="11.1272813" />
      <trkpt lat="46.0701335" lon="11.1272571" />
      <trkpt lat="46.0701274" lon="11.1272407" />
      <trkpt lat="46.0700069" lon="11.1273936" />
      <trkpt lat="46.0699719" lon="11.1274335" />
      <trkpt lat="46.0699578" lon="11.1274338" />
      <trkpt lat="46.0699232" lon="11.1274344" />
      <trkpt lat="46.0698926" lon="11.1274261" />
      <trkpt lat="46.0698063" lon="11.1273526" />
      <trkpt lat="46.0696463" lon="11.1273383" />
      <trkpt lat="46.0696063" lon="11.1273552" />
      <trkpt lat="46.0695235" lon="11.1274062" />
      <trkpt lat="46.0694686" lon="11.1274491" />
      <trkpt lat="46.0694193" lon="11.1274531" />
      <trkpt lat="46.0693663" lon="11.1274464" />
      <trkpt lat="46.0693272" lon="11.1274236" />
      <trkpt lat="46.0692890" lon="11.1273941" />
      <trkpt lat="46.0692285" lon="11.1273740" />
      <trkpt lat="46.0691985" lon="11.1273747" />
      <trkpt lat="46.0691635" lon="11.1273946" />
      <trkpt lat="46.0691395" lon="11.1274461" />
      <trkpt lat="46.0691298" lon="11.1275184" />
      <trkpt lat="46.0691062" lon="11.1275184" />
      <trkpt lat="46.0690840" lon="11.1275180" />
      <trkpt lat="46.0690747" lon="11.1275186" />
      <trkpt lat="46.0690710" lon="11.1275307" />
      <trkpt lat="46.0690596" lon="11.1276035" />
      <trkpt lat="46.0690164" lon="11.1275628" />
      <trkpt lat="46.0690389" lon="11.1274728" />
      <trkpt lat="46.0690084" lon="11.1274366" />
      <trkpt lat="46.0689932" lon="11.1274221" />
      <trkpt lat="46.0689714" lon="11.1274003" />
      <trkpt lat="46.0689301" lon="11.1273622" />
      <trkpt lat="46.0689909" lon="11.1271350" />
      <trkpt lat="46.0689982" lon="11.1270959" />
      <trkpt lat="46.0679303" lon="11.1265300" />
      <trkpt lat="46.0689982" lon="11.1270959" />
      <trkpt lat="46.0689909" lon="11.1271350" />
      <trkpt lat="46.0689301" lon="11.1273622" />
      <trkpt lat="46.0689714" lon="11.1274003" />
      <trkpt lat="46.0689932" lon="11.1274221" />
      <trkpt lat="46.0690084" lon="11.1274366" />
      <trkpt lat="46.0690389" lon="11.1274728" />
      <trkpt lat="46.0690164" lon="11.1275628" />
      <trkpt lat="46.0690596" lon="11.1276035" />
      <trkpt lat="46.0690489" lon="11.1276466" />
      <trkpt lat="46.0690390" lon="11.1277020" />
      <trkpt lat="46.0690366" lon="11.1277209" />
      <trkpt lat="46.0690337" lon="11.1277504" />
      <trkpt lat="46.0690618" lon="11.1278118" />
      <trkpt lat="46.0690471" lon="11.1279563" />
      <trkpt lat="46.0687319" lon="11.1280364" />
      <trkpt lat="46.0686772" lon="11.1280533" />
      <trkpt lat="46.0686317" lon="11.1281072" />
      <trkpt lat="46.0686258" lon="11.1281142" />
      <trkpt lat="46.0685786" lon="11.1281982" />
      <trkpt lat="46.0685295" lon="11.1283095" />
      <trkpt lat="46.0685219" lon="11.1285303" />
      <trkpt lat="46.0685361" lon="11.1288688" />
      <trkpt lat="46.0685377" lon="11.1288878" />
      <trkpt lat="46.0685353" lon="11.1289018" />
      <trkpt lat="46.0685237" lon="11.1289151" />
      <trkpt lat="46.0685043" lon="11.1289206" />
      <trkpt lat="46.0682176" lon="11.1289792" />
      <trkpt lat="46.0681926" lon="11.1289843" />
      <trkpt lat="46.0682011" lon="11.1290129" />
      <trkpt lat="46.0682492" lon="11.1291994" />
      <trkpt lat="46.0682952" lon="11.1293883" />
      <trkpt lat="46.0683023" lon="11.1294154" />
      <trkpt lat="46.0682864" lon="11.1294242" />
      <trkpt lat="46.0682805" lon="11.1293978" />
      <trkpt lat="46.0682679" lon="11.1293437" />
      <trkpt lat="46.0682925" lon="11.1293320" />
      <trkpt lat="46.0683123" lon="11.1294097" />
      <trkpt lat="46.0683302" lon="11.1294010" />
      <trkpt lat="46.0683501" lon="11.1293914" />
      <trkpt lat="46.0684046" lon="11.1294416" />
      <trkpt lat="46.0683669" lon="11.1294680" />
      <trkpt lat="46.0683048" lon="11.1295341" />
      <trkpt lat="46.0682635" lon="11.1296235" />
      <trkpt lat="46.0682152" lon="11.1298106" />
      <trkpt lat="46.0682000" lon="11.1298692" />
      <trkpt lat="46.0681476" lon="11.1299694" />
      <trkpt lat="46.0681217" lon="11.1300830" />
      <trkpt lat="46.0680592" lon="11.1303525" />
      <trkpt lat="46.0680228" lon="11.1306852" />
      <trkpt lat="46.0680182" lon="11.1307638" />
      <trkpt lat="46.0680034" lon="11.1308440" />
      <trkpt lat="46.0679772" lon="11.1309209" />
      <trkpt lat="46.0679520" lon="11.1309920" />
      <trkpt lat="46.0678830" lon="11.1311669" />
      <trkpt lat="46.0679660" lon="11.1314044" />
      <trkpt lat="46.0679883" lon="11.1314393" />
      <trkpt lat="46.0680656" lon="11.1315179" />
      <trkpt lat="46.0680966" lon="11.1315533" />
      <trkpt lat="46.0681255" lon="11.1315863" />
      <trkpt lat="46.0681894" lon="11.1316591" />
      <trkpt lat="46.0683358" lon="11.1317598" />
      <trkpt lat="46.0685203" lon="11.1318954" />
      <trkpt lat="46.0685321" lon="11.1319109" />
      <trkpt lat="46.0686823" lon="11.1321086" />
      <trkpt lat="46.0687477" lon="11.1321876" />
      <trkpt lat="46.0686958" lon="11.1322530" />
      <trkpt lat="46.0682366" lon="11.1326973" />
      <trkpt lat="46.0686958" lon="11.1322530" />
      <trkpt lat="46.0687477" lon="11.1321876" />
      <trkpt lat="46.0688921" lon="11.1323618" />
      <trkpt lat="46.0690428" lon="11.1324866" />
      <trkpt lat="46.0692278" lon="11.1325915" />
      <trkpt lat="46.0693210" lon="11.1326859" />
      <trkpt lat="46.0694575" lon="11.1327188" />
      <trkpt lat="46.0696373" lon="11.1329262" />
      <trkpt lat="46.0698294" lon="11.1331279" />
      <trkpt lat="46.0699178" lon="11.1332668" />
      <trkpt lat="46.0700210" lon="11.1333681" />
      <trkpt lat="46.0701221" lon="11.1334207" />
      <trkpt lat="46.0705241" lon="11.1335203" />
      <trkpt lat="46.0706348" lon="11.1336393" />
      <trkpt lat="46.0707196" lon="11.1338490" />
      <trkpt lat="46.0707519" lon="11.1338460" />
      <trkpt lat="46.0709099" lon="11.1338289" />
      <trkpt lat="46.0709909" lon="11.1338182" />
      <trkpt lat="46.0712584" lon="11.1337956" />
      <trkpt lat="46.0712629" lon="11.1337943" />
      <trkpt lat="46.0714904" lon="11.1337297" />
      <trkpt lat="46.0715938" lon="11.1336994" />
      <trkpt lat="46.0719843" lon="11.1335966" />
      <trkpt lat="46.0723899" lon="11.1335256" />
      <trkpt lat="46.0725259" lon="11.1334516" />
      <trkpt lat="46.0726929" lon="11.1334621" />
      <trkpt lat="46.0728916" lon="11.1334880" />
      <trkpt lat="46.0730993" lon="11.1335475" />
      <trkpt lat="46.0732555" lon="11.1336049" />
      <trkpt lat="46.0733394" lon="11.1337431" />
      <trkpt lat="46.0733665" lon="11.1338483" />
      <trkpt lat="46.0733777" lon="11.1340011" />
      <trkpt lat="46.0734265" lon="11.1340567" />
      <trkpt lat="46.0734454" lon="11.1339440" />
      <trkpt lat="46.0734770" lon="11.1338546" />
      <trkpt lat="46.0735283" lon="11.1337329" />
      <trkpt lat="46.0735628" lon="11.1336439" />
      <trkpt lat="46.0736182" lon="11.1336332" />
      <trkpt lat="46.0742665" lon="11.1335076" />
      <trkpt lat="46.0750773" lon="11.1331600" />
      <trkpt lat="46.0752112" lon="11.1330992" />
      <trkpt lat="46.0754499" lon="11.1329997" />
      <trkpt lat="46.0752112" lon="11.1330992" />
      <trkpt lat="46.0750773" lon="11.1331600" />
      <trkpt lat="46.0742665" lon="11.1335076" />
      <trkpt lat="46.0736182" lon="11.1336332" />
      <trkpt lat="46.0735628" lon="11.1336439" />
      <trkpt lat="46.0735283" lon="11.1337329" />
      <trkpt lat="46.0734770" lon="11.1338546" />
      <trkpt lat="46.0734454" lon="11.1339440" />
      <trkpt lat="46.0734265" lon="11.1340567" />
      <trkpt lat="46.0734399" lon="11.1341453" />
      <trkpt lat="46.0734812" lon="11.1341873" />
      <trkpt lat="46.0735600" lon="11.1342044" />
      <trkpt lat="46.0735886" lon="11.1342095" />
      <trkpt lat="46.0736234" lon="11.1342253" />
      <trkpt lat="46.0736425" lon="11.1342824" />
      <trkpt lat="46.0736965" lon="11.1344537" />
      <trkpt lat="46.0737202" lon="11.1345342" />
      <trkpt lat="46.0738249" lon="11.1345257" />
      <trkpt lat="46.0740348" lon="11.1344504" />
      <trkpt lat="46.0740802" lon="11.1344165" />
      <trkpt lat="46.0743106" lon="11.1343774" />
      <trkpt lat="46.0746050" lon="11.1343386" />
      <trkpt lat="46.0747360" lon="11.1343586" />
      <trkpt lat="46.0749410" lon="11.1344321" />
      <trkpt lat="46.0750730" lon="11.1344619" />
      <trkpt lat="46.0751455" lon="11.1344115" />
      <trkpt lat="46.0756583" lon="11.1351939" />
      <trkpt lat="46.0757217" lon="11.1352906" />
      <trkpt lat="46.0753457" lon="11.1361392" />
      <trkpt lat="46.0751791" lon="11.1364057" />
      <trkpt lat="46.0751588" lon="11.1365343" />
      <trkpt lat="46.0751011" lon="11.1365647" />
      <trkpt lat="46.0750804" lon="11.1366130" />
      <trkpt lat="46.0750752" lon="11.1366973" />
      <trkpt lat="46.0750581" lon="11.1366994" />
      <trkpt lat="46.0749711" lon="11.1367069" />
      <trkpt lat="46.0746562" lon="11.1366373" />
      <trkpt lat="46.0745655" lon="11.1366369" />
      <trkpt lat="46.0745196" lon="11.1366560" />
      <trkpt lat="46.0744338" lon="11.1366517" />
      <trkpt lat="46.0743371" lon="11.1366147" />
      <trkpt lat="46.0742772" lon="11.1366139" />
      <trkpt lat="46.0742412" lon="11.1365918" />
      <trkpt lat="46.0741793" lon="11.1365862" />
      <trkpt lat="46.0740415" lon="11.1365167" />
      <trkpt lat="46.0740065" lon="11.1364595" />
      <trkpt lat="46.0739459" lon="11.1364175" />
      <trkpt lat="46.0739526" lon="11.1364950" />
      <trkpt lat="46.0739777" lon="11.1365803" />
      <trkpt lat="46.0740037" lon="11.1366356" />
      <trkpt lat="46.0740433" lon="11.1366833" />
      <trkpt lat="46.0740070" lon="11.1366945" />
      <trkpt lat="46.0736938" lon="11.1366195" />
      <trkpt lat="46.0731277" lon="11.1365649" />
      <trkpt lat="46.0725438" lon="11.1364458" />
      <trkpt lat="46.0724731" lon="11.1363891" />
      <trkpt lat="46.0723194" lon="11.1362691" />
      <trkpt lat="46.0722195" lon="11.1361960" />
      <trkpt lat="46.0720926" lon="11.1360993" />
      <trkpt lat="46.0719826" lon="11.1360063" />
      <trkpt lat="46.0719069" lon="11.1359223" />
      <trkpt lat="46.0716583" lon="11.1358569" />
      <trkpt lat="46.0716315" lon="11.1358498" />
      <trkpt lat="46.0714450" lon="11.1357780" />
      <trkpt lat="46.0713438" lon="11.1357090" />
      <trkpt lat="46.0712326" lon="11.1354768" />
      <trkpt lat="46.0711365" lon="11.1352796" />
      <trkpt lat="46.0710552" lon="11.1351316" />
      <trkpt lat="46.0709837" lon="11.1350352" />
      <trkpt lat="46.0708948" lon="11.1349245" />
      <trkpt lat="46.0708550" lon="11.1348788" />
      <trkpt lat="46.0708341" lon="11.1348351" />
      <trkpt lat="46.0708290" lon="11.1347986" />
      <trkpt lat="46.0708231" lon="11.1342690" />
      <trkpt lat="46.0708207" lon="11.1341930" />
      <trkpt lat="46.0708130" lon="11.1341216" />
      <trkpt lat="46.0707708" lon="11.1339881" />
      <trkpt lat="46.0707196" lon="11.1338490" />
      <trkpt lat="46.0707519" lon="11.1338460" />
      <trkpt lat="46.0709099" lon="11.1338289" />
      <trkpt lat="46.0709909" lon="11.1338182" />
      <trkpt lat="46.0712584" lon="11.1337956" />
      <trkpt lat="46.0712629" lon="11.1337943" />
      <trkpt lat="46.0714904" lon="11.1337297" />
      <trkpt lat="46.0715938" lon="11.1336994" />
      <trkpt lat="46.0719843" lon="11.1335966" />
      <trkpt lat="46.0715938" lon="11.1336994" />
      <trkpt lat="46.0714904" lon="11.1337297" />
      <trkpt lat="46.0712629" lon="11.1337943" />
      <trkpt lat="46.0713089" lon="11.1340984" />
      <trkpt lat="46.0713317" lon="11.1341715" />
      <trkpt lat="46.0713396" lon="11.1341970" />
      <trkpt lat="46.0713857" lon="11.1342352" />
      <trkpt lat="46.0714685" lon="11.1342412" />
      <trkpt lat="46.0715996" lon="11.1342123" />
      <trkpt lat="46.0715913" lon="11.1342499" />
      <trkpt lat="46.0715913" lon="11.1343277" />
      <trkpt lat="46.0716076" lon="11.1343767" />
      <trkpt lat="46.0716362" lon="11.1343920" />
      <trkpt lat="46.0717486" lon="11.1343140" />
      <trkpt lat="46.0718691" lon="11.1342253" />
      <trkpt lat="46.0719081" lon="11.1341932" />
      <trkpt lat="46.0720260" lon="11.1341701" />
      <trkpt lat="46.0720925" lon="11.1341401" />
      <trkpt lat="46.0721276" lon="11.1341441" />
      <trkpt lat="46.0721905" lon="11.1344987" />
      <trkpt lat="46.0720081" lon="11.1346315" />
      <trkpt lat="46.0719795" lon="11.1347027" />
      <trkpt lat="46.0719737" lon="11.1347173" />
      <trkpt lat="46.0717941" lon="11.1348367" />
      <trkpt lat="46.0717271" lon="11.1347951" />
      <trkpt lat="46.0716322" lon="11.1348541" />
      <trkpt lat="46.0715187" lon="11.1349399" />
      <trkpt lat="46.0713140" lon="11.1349842" />
      <trkpt lat="46.0712470" lon="11.1349399" />
      <trkpt lat="46.0710805" lon="11.1348809" />
      <trkpt lat="46.0709744" lon="11.1348729" />
      <trkpt lat="46.0708981" lon="11.1346610" />
      <trkpt lat="46.0709465" lon="11.1345389" />
      <trkpt lat="46.0711112" lon="11.1344156" />
      <trkpt lat="46.0712722" lon="11.1342774" />
      <trkpt lat="46.0713317" lon="11.1341715" />
      <trkpt lat="46.0713089" lon="11.1340984" />
      <trkpt lat="46.0712629" lon="11.1337943" />
      <trkpt lat="46.0712584" lon="11.1337956" />
      <trkpt lat="46.0709909" lon="11.1338182" />
      <trkpt lat="46.0709099" lon="11.1338289" />
      <trkpt lat="46.0707519" lon="11.1338460" />
      <trkpt lat="46.0707196" lon="11.1338490" />
      <trkpt lat="46.0706348" lon="11.1336393" />
      <trkpt lat="46.0705241" lon="11.1335203" />
      <trkpt lat="46.0701221" lon="11.1334207" />
      <trkpt lat="46.0700210" lon="11.1333681" />
      <trkpt lat="46.0699178" lon="11.1332668" />
      <trkpt lat="46.0698294" lon="11.1331279" />
      <trkpt lat="46.0696373" lon="11.1329262" />
      <trkpt lat="46.0694575" lon="11.1327188" />
      <trkpt lat="46.0693210" lon="11.1326859" />
      <trkpt lat="46.0692278" lon="11.1325915" />
      <trkpt lat="46.0690428" lon="11.1324866" />
      <trkpt lat="46.0688921" lon="11.1323618" />
      <trkpt lat="46.0687477" lon="11.1321876" />
      <trkpt lat="46.0686823" lon="11.1321086" />
      <trkpt lat="46.0685321" lon="11.1319109" />
      <trkpt lat="46.0685203" lon="11.1318954" />
      <trkpt lat="46.0683358" lon="11.1317598" />
      <trkpt lat="46.0681894" lon="11.1316591" />
      <trkpt lat="46.0681255" lon="11.1315863" />
      <trkpt lat="46.0680966" lon="11.1315533" />
      <trkpt lat="46.0680656" lon="11.1315179" />
      <trkpt lat="46.0679883" lon="11.1314393" />
      <trkpt lat="46.0679660" lon="11.1314044" />
      <trkpt lat="46.0678830" lon="11.1311669" />
      <trkpt lat="46.0679520" lon="11.1309920" />
      <trkpt lat="46.0679772" lon="11.1309209" />
      <trkpt lat="46.0680034" lon="11.1308440" />
      <trkpt lat="46.0680182" lon="11.1307638" />
      <trkpt lat="46.0680228" lon="11.1306852" />
      <trkpt lat="46.0680592" lon="11.1303525" />
      <trkpt lat="46.0681217" lon="11.1300830" />
      <trkpt lat="46.0681476" lon="11.1299694" />
      <trkpt lat="46.0682000" lon="11.1298692" />
      <trkpt lat="46.0682152" lon="11.1298106" />
      <trkpt lat="46.0682635" lon="11.1296235" />
      <trkpt lat="46.0683048" lon="11.1295341" />
      <trkpt lat="46.0683669" lon="11.1294680" />
      <trkpt lat="46.0684046" lon="11.1294416" />
      <trkpt lat="46.0683501" lon="11.1293914" />
      <trkpt lat="46.0683302" lon="11.1294010" />
      <trkpt lat="46.0683123" lon="11.1294097" />
      <trkpt lat="46.0682925" lon="11.1293320" />
      <trkpt lat="46.0682679" lon="11.1293437" />
      <trkpt lat="46.0682805" lon="11.1293978" />
      <trkpt lat="46.0682864" lon="11.1294242" />
      <trkpt lat="46.0683023" lon="11.1294154" />
      <trkpt lat="46.0682952" lon="11.1293883" />
      <trkpt lat="46.0682492" lon="11.1291994" />
      <trkpt lat="46.0682011" lon="11.1290129" />
      <trkpt lat="46.0681926" lon="11.1289843" />
      <trkpt lat="46.0681550" lon="11.1288650" />
      <trkpt lat="46.0680624" lon="11.1287669" />
      <trkpt lat="46.0679736" lon="11.1286626" />
      <trkpt lat="46.0678157" lon="11.1284547" />
      <trkpt lat="46.0678499" lon="11.1284430" />
      <trkpt lat="46.0677309" lon="11.1281714" />
      <trkpt lat="46.0676972" lon="11.1279647" />
      <trkpt lat="46.0675698" lon="11.1282843" />
      <trkpt lat="46.0674041" lon="11.1281471" />
      <trkpt lat="46.0674591" lon="11.1279752" />
      <trkpt lat="46.0674753" lon="11.1278541" />
      <trkpt lat="46.0674621" lon="11.1276608" />
      <trkpt lat="46.0674317" lon="11.1274771" />
      <trkpt lat="46.0674463" lon="11.1273902" />
      <trkpt lat="46.0674624" lon="11.1272949" />
      <trkpt lat="46.0674389" lon="11.1272505" />
      <trkpt lat="46.0674589" lon="11.1270980" />
      <trkpt lat="46.0674142" lon="11.1270839" />
      <trkpt lat="46.0673797" lon="11.1270731" />
      <trkpt lat="46.0673959" lon="11.1269904" />
      <trkpt lat="46.0674238" lon="11.1268989" />
      <trkpt lat="46.0674573" lon="11.1268523" />
      <trkpt lat="46.0675112" lon="11.1268155" />
      <trkpt lat="46.0675228" lon="11.1267715" />
      <trkpt lat="46.0675385" lon="11.1267116" />
      <trkpt lat="46.0675525" lon="11.1266584" />
      <trkpt lat="46.0675131" lon="11.1266040" />
      <trkpt lat="46.0675110" lon="11.1265653" />
      <trkpt lat="46.0675158" lon="11.1265438" />
      <trkpt lat="46.0675366" lon="11.1264538" />
      <trkpt lat="46.0675929" lon="11.1263359" />
      <trkpt lat="46.0675748" lon="11.1263186" />
      <trkpt lat="46.0678665" lon="11.1257547" />
      <trkpt lat="46.0682312" lon="11.1253579" />
      <trkpt lat="46.0683737" lon="11.1252392" />
      <trkpt lat="46.0683518" lon="11.1247826" />
      <trkpt lat="46.0683684" lon="11.1245203" />
      <trkpt lat="46.0683766" lon="11.1242292" />
      <trkpt lat="46.0683541" lon="11.1239478" />
      <trkpt lat="46.0683250" lon="11.1239053" />
      <trkpt lat="46.0682835" lon="11.1238873" />
      <trkpt lat="46.0682827" lon="11.1238602" />
      <trkpt lat="46.0680942" lon="11.1238875" />
      <trkpt lat="46.0678422" lon="11.1239573" />
      <trkpt lat="46.0678400" lon="11.1239294" />
      <trkpt lat="46.0678397" lon="11.1239254" />
      <trkpt lat="46.0678150" lon="11.1236046" />
      <trkpt lat="46.0678148" lon="11.1236019" />
      <trkpt lat="46.0678142" lon="11.1235709" />
      <trkpt lat="46.0678077" lon="11.1232267" />
      <trkpt lat="46.0677631" lon="11.1232283" />
      <trkpt lat="46.0676659" lon="11.1232331" />
      <trkpt lat="46.0674156" lon="11.1232472" />
      <trkpt lat="46.0674008" lon="11.1232483" />
      <trkpt lat="46.0673371" lon="11.1232534" />
      <trkpt lat="46.0673183" lon="11.1232550" />
      <trkpt lat="46.0673146" lon="11.1232553" />
      <trkpt lat="46.0673011" lon="11.1232564" />
      <trkpt lat="46.0672873" lon="11.1232576" />
      <trkpt lat="46.0672821" lon="11.1232581" />
      <trkpt lat="46.0672810" lon="11.1232291" />
      <trkpt lat="46.0672686" lon="11.1232351" />
      <trkpt lat="46.0672653" lon="11.1232368" />
      <trkpt lat="46.0672635" lon="11.1232024" />
      <trkpt lat="46.0669670" lon="11.1232923" />
      <trkpt lat="46.0669188" lon="11.1233181" />
      <trkpt lat="46.0668986" lon="11.1233290" />
      <trkpt lat="46.0668905" lon="11.1233334" />
      <trkpt lat="46.0668872" lon="11.1232848" />
      <trkpt lat="46.0668548" lon="11.1230552" />
      <trkpt lat="46.0667810" lon="11.1225726" />
      <trkpt lat="46.0667729" lon="11.1225194" />
      <trkpt lat="46.0667715" lon="11.1225101" />
      <trkpt lat="46.0667532" lon="11.1223909" />
      <trkpt lat="46.0667414" lon="11.1223091" />
      <trkpt lat="46.0667357" lon="11.1222747" />
      <trkpt lat="46.0667787" lon="11.1222601" />
      <trkpt lat="46.0667963" lon="11.1222541" />
      <trkpt lat="46.0668726" lon="11.1222251" />
      <trkpt lat="46.0668704" lon="11.1222043" />
      <trkpt lat="46.0668675" lon="11.1221842" />
      <trkpt lat="46.0667697" lon="11.1219637" />
      <trkpt lat="46.0667304" lon="11.1218751" />
      <trkpt lat="46.0667274" lon="11.1218448" />
      <trkpt lat="46.0666789" lon="11.1217092" />
      <trkpt lat="46.0666701" lon="11.1215352" />
      <trkpt lat="46.0667024" lon="11.1213629" />
      <trkpt lat="46.0667526" lon="11.1210542" />
      <trkpt lat="46.0667705" lon="11.1210629" />
      <trkpt lat="46.0668711" lon="11.1210492" />
      <trkpt lat="46.0668249" lon="11.1206182" />
      <trkpt lat="46.0667816" lon="11.1201952" />
      <trkpt lat="46.0667099" lon="11.1201551" />
      <trkpt lat="46.0666578" lon="11.1196518" />
      <trkpt lat="46.0666065" lon="11.1191557" />
      <trkpt lat="46.0665858" lon="11.1191592" />
      <trkpt lat="46.0665730" lon="11.1190499" />
      <trkpt lat="46.0665603" lon="11.1189419" />
      <trkpt lat="46.0666159" lon="11.1189281" />
      <trkpt lat="46.0666683" lon="11.1189188" />
      <trkpt lat="46.0667342" lon="11.1188998" />
      <trkpt lat="46.0666330" lon="11.1180667" />
      <trkpt lat="46.0666307" lon="11.1180277" />
      <trkpt lat="46.0666285" lon="11.1179842" />
      <trkpt lat="46.0667493" lon="11.1179620" />
      <trkpt lat="46.0667703" lon="11.1179548" />
      <trkpt lat="46.0667761" lon="11.1178900" />
      <trkpt lat="46.0668118" lon="11.1178589" />
      <trkpt lat="46.0667789" lon="11.1174952" />
      <trkpt lat="46.0667739" lon="11.1174353" />
      <trkpt lat="46.0667908" lon="11.1174322" />
      <trkpt lat="46.0668072" lon="11.1174293" />
      <trkpt lat="46.0672590" lon="11.1173435" />
      <trkpt lat="46.0672751" lon="11.1173904" />
      <trkpt lat="46.0673250" lon="11.1173773" />
      <trkpt lat="46.0673714" lon="11.1173666" />
      <trkpt lat="46.0673657" lon="11.1173220" />
      <trkpt lat="46.0673924" lon="11.1173160" />
      <trkpt lat="46.0677990" lon="11.1172250" />
      <trkpt lat="46.0679110" lon="11.1172221" />
      <trkpt lat="46.0680139" lon="11.1171602" />
      <trkpt lat="46.0680121" lon="11.1171283" />
      <trkpt lat="46.0681191" lon="11.1171294" />
      <trkpt lat="46.0681601" lon="11.1171031" />
      <trkpt lat="46.0686021" lon="11.1169041" />
      <trkpt lat="46.0688130" lon="11.1168193" />
      <trkpt lat="46.0688625" lon="11.1168212" />
      <trkpt lat="46.0689420" lon="11.1168633" />
      <trkpt lat="46.0690898" lon="11.1169530" />
      <trkpt lat="46.0694474" lon="11.1171906" />
      <trkpt lat="46.0696085" lon="11.1174443" />
      <trkpt lat="46.0697728" lon="11.1176277" />
      <trkpt lat="46.0697925" lon="11.1176638" />
      <trkpt lat="46.0698052" lon="11.1177080" />
      <trkpt lat="46.0698162" lon="11.1177869" />
      <trkpt lat="46.0698214" lon="11.1178923" />
      <trkpt lat="46.0698227" lon="11.1180755" />
      <trkpt lat="46.0698565" lon="11.1180693" />
      <trkpt lat="46.0698926" lon="11.1180856" />
      <trkpt lat="46.0699602" lon="11.1180863" />
      <trkpt lat="46.0699644" lon="11.1181025" />
      <trkpt lat="46.0699803" lon="11.1181633" />
      <trkpt lat="46.0700084" lon="11.1181540" />
      <trkpt lat="46.0699905" lon="11.1180483" />
      <trkpt lat="46.0699871" lon="11.1179668" />
      <trkpt lat="46.0699908" lon="11.1179414" />
      <trkpt lat="46.0700269" lon="11.1179061" />
      <trkpt lat="46.0700294" lon="11.1178856" />
      <trkpt lat="46.0700305" lon="11.1178362" />
      <trkpt lat="46.0700369" lon="11.1177882" />
      <trkpt lat="46.0700431" lon="11.1177476" />
      <trkpt lat="46.0700527" lon="11.1177069" />
      <trkpt lat="46.0700861" lon="11.1176034" />
      <trkpt lat="46.0701805" lon="11.1173050" />
      <trkpt lat="46.0702169" lon="11.1171918" />
      <trkpt lat="46.0702287" lon="11.1171541" />
      <trkpt lat="46.0702367" lon="11.1170213" />
      <trkpt lat="46.0702292" lon="11.1169470" />
      <trkpt lat="46.0702123" lon="11.1168786" />
      <trkpt lat="46.0701743" lon="11.1167917" />
      <trkpt lat="46.0701363" lon="11.1167225" />
      <trkpt lat="46.0701165" lon="11.1166890" />
      <trkpt lat="46.0700680" lon="11.1166069" />
      <trkpt lat="46.0700236" lon="11.1165374" />
      <trkpt lat="46.0700000" lon="11.1164941" />
      <trkpt lat="46.0699495" lon="11.1164167" />
      <trkpt lat="46.0699884" lon="11.1163713" />
      <trkpt lat="46.0700203" lon="11.1163341" />
      <trkpt lat="46.0700091" lon="11.1162886" />
      <trkpt lat="46.0700003" lon="11.1162009" />
      <trkpt lat="46.0700032" lon="11.1161537" />
      <trkpt lat="46.0700146" lon="11.1161265" />
      <trkpt lat="46.0700459" lon="11.1161000" />
      <trkpt lat="46.0700453" lon="11.1160451" />
      <trkpt lat="46.0700586" lon="11.1159035" />
      <trkpt lat="46.0700662" lon="11.1158228" />
      <trkpt lat="46.0700117" lon="11.1157886" />
      <trkpt lat="46.0699948" lon="11.1157680" />
      <trkpt lat="46.0699441" lon="11.1157384" />
      <trkpt lat="46.0698998" lon="11.1157127" />
      <trkpt lat="46.0699151" lon="11.1156990" />
      <trkpt lat="46.0702467" lon="11.1144529" />
      <trkpt lat="46.0702508" lon="11.1144356" />
      <trkpt lat="46.0702350" lon="11.1143612" />
      <trkpt lat="46.0702262" lon="11.1143187" />
      <trkpt lat="46.0702122" lon="11.1142749" />
      <trkpt lat="46.0701963" lon="11.1142414" />
      <trkpt lat="46.0701713" lon="11.1142018" />
      <trkpt lat="46.0701826" lon="11.1141474" />
      <trkpt lat="46.0701933" lon="11.1141300" />
      <trkpt lat="46.0702038" lon="11.1140736" />
      <trkpt lat="46.0702044" lon="11.1140479" />
      <trkpt lat="46.0702044" lon="11.1139869" />
      <trkpt lat="46.0701824" lon="11.1139941" />
      <trkpt lat="46.0701414" lon="11.1139943" />
      <trkpt lat="46.0701004" lon="11.1139878" />
      <trkpt lat="46.0698971" lon="11.1138947" />
      <trkpt lat="46.0699068" lon="11.1138839" />
      <trkpt lat="46.0699847" lon="11.1137969" />
      <trkpt lat="46.0700069" lon="11.1137728" />
      <trkpt lat="46.0699470" lon="11.1136398" />
      <trkpt lat="46.0698966" lon="11.1135082" />
      <trkpt lat="46.0698938" lon="11.1134943" />
      <trkpt lat="46.0698903" lon="11.1134740" />
      <trkpt lat="46.0698841" lon="11.1134535" />
      <trkpt lat="46.0698001" lon="11.1132688" />
      <trkpt lat="46.0697160" lon="11.1130809" />
      <trkpt lat="46.0696460" lon="11.1129212" />
      <trkpt lat="46.0695575" lon="11.1127267" />
      <trkpt lat="46.0694822" lon="11.1125557" />
      <trkpt lat="46.0694648" lon="11.1125839" />
      <trkpt lat="46.0693956" lon="11.1124485" />
      <trkpt lat="46.0692510" lon="11.1125033" />
      <trkpt lat="46.0692286" lon="11.1124675" />
      <trkpt lat="46.0691773" lon="11.1125242" />
      <trkpt lat="46.0691520" lon="11.1125519" />
      <trkpt lat="46.0690593" lon="11.1126534" />
      <trkpt lat="46.0689406" lon="11.1127735" />
      <trkpt lat="46.0687933" lon="11.1129260" />
      <trkpt lat="46.0688901" lon="11.1131189" />
      <trkpt lat="46.0688916" lon="11.1131872" />
      <trkpt lat="46.0688633" lon="11.1132603" />
      <trkpt lat="46.0688728" lon="11.1133145" />
      <trkpt lat="46.0688742" lon="11.1133928" />
      <trkpt lat="46.0688616" lon="11.1134384" />
      <trkpt lat="46.0687718" lon="11.1133981" />
      <trkpt lat="46.0686253" lon="11.1133238" />
      <trkpt lat="46.0685193" lon="11.1132700" />
      <trkpt lat="46.0685063" lon="11.1132629" />
      <trkpt lat="46.0685121" lon="11.1132361" />
      <trkpt lat="46.0685128" lon="11.1131975" />
      <trkpt lat="46.0685085" lon="11.1131533" />
      <trkpt lat="46.0684969" lon="11.1130964" />
      <trkpt lat="46.0684835" lon="11.1130467" />
      <trkpt lat="46.0683564" lon="11.1127915" />
      <trkpt lat="46.0681223" lon="11.1126059" />
      <trkpt lat="46.0681958" lon="11.1125499" />
      <trkpt lat="46.0682241" lon="11.1125259" />
      <trkpt lat="46.0678257" lon="11.1117174" />
      <trkpt lat="46.0676980" lon="11.1114593" />
      <trkpt lat="46.0675851" lon="11.1115627" />
      <trkpt lat="46.0675665" lon="11.1115761" />
      <trkpt lat="46.0675460" lon="11.1115895" />
      <trkpt lat="46.0675265" lon="11.1115975" />
      <trkpt lat="46.0675042" lon="11.1116002" />
      <trkpt lat="46.0674885" lon="11.1115995" />
      <trkpt lat="46.0674558" lon="11.1115667" />
      <trkpt lat="46.0674167" lon="11.1115291" />
      <trkpt lat="46.0671228" lon="11.1115270" />
      <trkpt lat="46.0666321" lon="11.1115017" />
      <trkpt lat="46.0664282" lon="11.1114932" />
      <trkpt lat="46.0666321" lon="11.1115017" />
      <trkpt lat="46.0671228" lon="11.1115270" />
      <trkpt lat="46.0674167" lon="11.1115291" />
      <trkpt lat="46.0674558" lon="11.1115667" />
      <trkpt lat="46.0674885" lon="11.1115995" />
      <trkpt lat="46.0675042" lon="11.1116002" />
      <trkpt lat="46.0675265" lon="11.1115975" />
      <trkpt lat="46.0675460" lon="11.1115895" />
      <trkpt lat="46.0675665" lon="11.1115761" />
      <trkpt lat="46.0675851" lon="11.1115627" />
      <trkpt lat="46.0676980" lon="11.1114593" />
      <trkpt lat="46.0678257" lon="11.1117174" />
      <trkpt lat="46.0682241" lon="11.1125259" />
      <trkpt lat="46.0681958" lon="11.1125499" />
      <trkpt lat="46.0681223" lon="11.1126059" />
      <trkpt lat="46.0683564" lon="11.1127915" />
      <trkpt lat="46.0684835" lon="11.1130467" />
      <trkpt lat="46.0684969" lon="11.1130964" />
      <trkpt lat="46.0685085" lon="11.1131533" />
      <trkpt lat="46.0685128" lon="11.1131975" />
      <trkpt lat="46.0685121" lon="11.1132361" />
      <trkpt lat="46.0685063" lon="11.1132629" />
      <trkpt lat="46.0685193" lon="11.1132700" />
      <trkpt lat="46.0686253" lon="11.1133238" />
      <trkpt lat="46.0687718" lon="11.1133981" />
      <trkpt lat="46.0688616" lon="11.1134384" />
      <trkpt lat="46.0688742" lon="11.1133928" />
      <trkpt lat="46.0688728" lon="11.1133145" />
      <trkpt lat="46.0688633" lon="11.1132603" />
      <trkpt lat="46.0688916" lon="11.1131872" />
      <trkpt lat="46.0688901" lon="11.1131189" />
      <trkpt lat="46.0687933" lon="11.1129260" />
      <trkpt lat="46.0689406" lon="11.1127735" />
      <trkpt lat="46.0690593" lon="11.1126534" />
      <trkpt lat="46.0691520" lon="11.1125519" />
      <trkpt lat="46.0691773" lon="11.1125242" />
      <trkpt lat="46.0692286" lon="11.1124675" />
      <trkpt lat="46.0692510" lon="11.1125033" />
      <trkpt lat="46.0693956" lon="11.1124485" />
      <trkpt lat="46.0694648" lon="11.1125839" />
      <trkpt lat="46.0694822" lon="11.1125557" />
      <trkpt lat="46.0695575" lon="11.1127267" />
      <trkpt lat="46.0696460" lon="11.1129212" />
      <trkpt lat="46.0697160" lon="11.1130809" />
      <trkpt lat="46.0698001" lon="11.1132688" />
      <trkpt lat="46.0698237" lon="11.1132449" />
      <trkpt lat="46.0698039" lon="11.1131995" />
      <trkpt lat="46.0694819" lon="11.1124795" />
      <trkpt lat="46.0694749" lon="11.1124507" />
      <trkpt lat="46.0694766" lon="11.1124185" />
      <trkpt lat="46.0694892" lon="11.1123979" />
      <trkpt lat="46.0695200" lon="11.1123774" />
      <trkpt lat="46.0695621" lon="11.1123584" />
      <trkpt lat="46.0698340" lon="11.1122175" />
      <trkpt lat="46.0699575" lon="11.1121507" />
      <trkpt lat="46.0700153" lon="11.1121170" />
      <trkpt lat="46.0700745" lon="11.1120853" />
      <trkpt lat="46.0702743" lon="11.1119716" />
      <trkpt lat="46.0704794" lon="11.1118659" />
      <trkpt lat="46.0705169" lon="11.1118466" />
      <trkpt lat="46.0705292" lon="11.1118991" />
      <trkpt lat="46.0706025" lon="11.1118700" />
      <trkpt lat="46.0706390" lon="11.1118595" />
      <trkpt lat="46.0706371" lon="11.1118408" />
      <trkpt lat="46.0706259" lon="11.1117047" />
      <trkpt lat="46.0706692" lon="11.1116933" />
      <trkpt lat="46.0707551" lon="11.1116742" />
      <trkpt lat="46.0707652" lon="11.1116704" />
      <trkpt lat="46.0707753" lon="11.1116652" />
      <trkpt lat="46.0707853" lon="11.1116534" />
      <trkpt lat="46.0708125" lon="11.1116088" />
      <trkpt lat="46.0708662" lon="11.1115122" />
      <trkpt lat="46.0709182" lon="11.1114140" />
      <trkpt lat="46.0709785" lon="11.1112871" />
      <trkpt lat="46.0710434" lon="11.1111486" />
      <trkpt lat="46.0710774" lon="11.1110492" />
      <trkpt lat="46.0711156" lon="11.1108963" />
      <trkpt lat="46.0711395" lon="11.1107560" />
      <trkpt lat="46.0712623" lon="11.1105396" />
      <trkpt lat="46.0713295" lon="11.1104178" />
      <trkpt lat="46.0713405" lon="11.1104227" />
      <trkpt lat="46.0713655" lon="11.1104406" />
      <trkpt lat="46.0713405" lon="11.1104227" />
      <trkpt lat="46.0713295" lon="11.1104178" />
      <trkpt lat="46.0712623" lon="11.1105396" />
      <trkpt lat="46.0711395" lon="11.1107560" />
      <trkpt lat="46.0711156" lon="11.1108963" />
      <trkpt lat="46.0710774" lon="11.1110492" />
      <trkpt lat="46.0710434" lon="11.1111486" />
      <trkpt lat="46.0709785" lon="11.1112871" />
      <trkpt lat="46.0709182" lon="11.1114140" />
      <trkpt lat="46.0708662" lon="11.1115122" />
      <trkpt lat="46.0708125" lon="11.1116088" />
      <trkpt lat="46.0707853" lon="11.1116534" />
      <trkpt lat="46.0707753" lon="11.1116652" />
      <trkpt lat="46.0707652" lon="11.1116704" />
      <trkpt lat="46.0707551" lon="11.1116742" />
      <trkpt lat="46.0706692" lon="11.1116933" />
      <trkpt lat="46.0706259" lon="11.1117047" />
      <trkpt lat="46.0706371" lon="11.1118408" />
      <trkpt lat="46.0706390" lon="11.1118595" />
      <trkpt lat="46.0706025" lon="11.1118700" />
      <trkpt lat="46.0705292" lon="11.1118991" />
      <trkpt lat="46.0705169" lon="11.1118466" />
      <trkpt lat="46.0704794" lon="11.1118659" />
      <trkpt lat="46.0702743" lon="11.1119716" />
      <trkpt lat="46.0700745" lon="11.1120853" />
      <trkpt lat="46.0700153" lon="11.1121170" />
      <trkpt lat="46.0699575" lon="11.1121507" />
      <trkpt lat="46.0698340" lon="11.1122175" />
      <trkpt lat="46.0695621" lon="11.1123584" />
      <trkpt lat="46.0695200" lon="11.1123774" />
      <trkpt lat="46.0694892" lon="11.1123979" />
      <trkpt lat="46.0694766" lon="11.1124185" />
      <trkpt lat="46.0694749" lon="11.1124507" />
      <trkpt lat="46.0694819" lon="11.1124795" />
      <trkpt lat="46.0698039" lon="11.1131995" />
      <trkpt lat="46.0698237" lon="11.1132449" />
      <trkpt lat="46.0698001" lon="11.1132688" />
      <trkpt lat="46.0698841" lon="11.1134535" />
      <trkpt lat="46.0698903" lon="11.1134740" />
      <trkpt lat="46.0698938" lon="11.1134943" />
      <trkpt lat="46.0698966" lon="11.1135082" />
      <trkpt lat="46.0699470" lon="11.1136398" />
      <trkpt lat="46.0700069" lon="11.1137728" />
      <trkpt lat="46.0699847" lon="11.1137969" />
      <trkpt lat="46.0699068" lon="11.1138839" />
      <trkpt lat="46.0698971" lon="11.1138947" />
      <trkpt lat="46.0701004" lon="11.1139878" />
      <trkpt lat="46.0701414" lon="11.1139943" />
      <trkpt lat="46.0701824" lon="11.1139941" />
      <trkpt lat="46.0702044" lon="11.1139869" />
      <trkpt lat="46.0702044" lon="11.1140479" />
      <trkpt lat="46.0702038" lon="11.1140736" />
      <trkpt lat="46.0701933" lon="11.1141300" />
      <trkpt lat="46.0701826" lon="11.1141474" />
      <trkpt lat="46.0701713" lon="11.1142018" />
      <trkpt lat="46.0701963" lon="11.1142414" />
      <trkpt lat="46.0702122" lon="11.1142749" />
      <trkpt lat="46.0702262" lon="11.1143187" />
      <trkpt lat="46.0702350" lon="11.1143612" />
      <trkpt lat="46.0702508" lon="11.1144356" />
      <trkpt lat="46.0702467" lon="11.1144529" />
      <trkpt lat="46.0699151" lon="11.1156990" />
      <trkpt lat="46.0698998" lon="11.1157127" />
      <trkpt lat="46.0699441" lon="11.1157384" />
      <trkpt lat="46.0699948" lon="11.1157680" />
      <trkpt lat="46.0700117" lon="11.1157886" />
      <trkpt lat="46.0700662" lon="11.1158228" />
      <trkpt lat="46.0700586" lon="11.1159035" />
      <trkpt lat="46.0700453" lon="11.1160451" />
      <trkpt lat="46.0700459" lon="11.1161000" />
      <trkpt lat="46.0700146" lon="11.1161265" />
      <trkpt lat="46.0700032" lon="11.1161537" />
      <trkpt lat="46.0700003" lon="11.1162009" />
      <trkpt lat="46.0700091" lon="11.1162886" />
      <trkpt lat="46.0700203" lon="11.1163341" />
      <trkpt lat="46.0699884" lon="11.1163713" />
      <trkpt lat="46.0699495" lon="11.1164167" />
      <trkpt lat="46.0699884" lon="11.1163713" />
      <trkpt lat="46.0700203" lon="11.1163341" />
      <trkpt lat="46.0700091" lon="11.1162886" />
      <trkpt lat="46.0700003" lon="11.1162009" />
      <trkpt lat="46.0700032" lon="11.1161537" />
      <trkpt lat="46.0700146" lon="11.1161265" />
      <trkpt lat="46.0700459" lon="11.1161000" />
      <trkpt lat="46.0700821" lon="11.1160980" />
      <trkpt lat="46.0701230" lon="11.1161111" />
      <trkpt lat="46.0701994" lon="11.1161355" />
      <trkpt lat="46.0704171" lon="11.1162428" />
      <trkpt lat="46.0704444" lon="11.1162556" />
      <trkpt lat="46.0704682" lon="11.1161518" />
      <trkpt lat="46.0711357" lon="11.1164538" />
      <trkpt lat="46.0712674" lon="11.1165005" />
      <trkpt lat="46.0713418" lon="11.1165274" />
      <trkpt lat="46.0714062" lon="11.1165521" />
      <trkpt lat="46.0714646" lon="11.1165715" />
      <trkpt lat="46.0717788" lon="11.1166762" />
      <trkpt lat="46.0724563" lon="11.1169019" />
      <trkpt lat="46.0717788" lon="11.1166762" />
      <trkpt lat="46.0714646" lon="11.1165715" />
      <trkpt lat="46.0714062" lon="11.1165521" />
      <trkpt lat="46.0713418" lon="11.1165274" />
      <trkpt lat="46.0712674" lon="11.1165005" />
      <trkpt lat="46.0711357" lon="11.1164538" />
      <trkpt lat="46.0704682" lon="11.1161518" />
      <trkpt lat="46.0704444" lon="11.1162556" />
      <trkpt lat="46.0704171" lon="11.1162428" />
      <trkpt lat="46.0701994" lon="11.1161355" />
      <trkpt lat="46.0701230" lon="11.1161111" />
      <trkpt lat="46.0700821" lon="11.1160980" />
      <trkpt lat="46.0700459" lon="11.1161000" />
      <trkpt lat="46.0700146" lon="11.1161265" />
      <trkpt lat="46.0700032" lon="11.1161537" />
      <trkpt lat="46.0700003" lon="11.1162009" />
      <trkpt lat="46.0700091" lon="11.1162886" />
      <trkpt lat="46.0700203" lon="11.1163341" />
      <trkpt lat="46.0699884" lon="11.1163713" />
      <trkpt lat="46.0699495" lon="11.1164167" />
      <trkpt lat="46.0700000" lon="11.1164941" />
      <trkpt lat="46.0700236" lon="11.1165374" />
      <trkpt lat="46.0700680" lon="11.1166069" />
      <trkpt lat="46.0701165" lon="11.1166890" />
      <trkpt lat="46.0701363" lon="11.1167225" />
      <trkpt lat="46.0701743" lon="11.1167917" />
      <trkpt lat="46.0702123" lon="11.1168786" />
      <trkpt lat="46.0702292" lon="11.1169470" />
      <trkpt lat="46.0702367" lon="11.1170213" />
      <trkpt lat="46.0702287" lon="11.1171541" />
      <trkpt lat="46.0702169" lon="11.1171918" />
      <trkpt lat="46.0701805" lon="11.1173050" />
      <trkpt lat="46.0700861" lon="11.1176034" />
      <trkpt lat="46.0700527" lon="11.1177069" />
      <trkpt lat="46.0700431" lon="11.1177476" />
      <trkpt lat="46.0700369" lon="11.1177882" />
      <trkpt lat="46.0700305" lon="11.1178362" />
      <trkpt lat="46.0700294" lon="11.1178856" />
      <trkpt lat="46.0700269" lon="11.1179061" />
      <trkpt lat="46.0699908" lon="11.1179414" />
      <trkpt lat="46.0699871" lon="11.1179668" />
      <trkpt lat="46.0699905" lon="11.1180483" />
      <trkpt lat="46.0700084" lon="11.1181540" />
      <trkpt lat="46.0699803" lon="11.1181633" />
      <trkpt lat="46.0699644" lon="11.1181025" />
      <trkpt lat="46.0699602" lon="11.1180863" />
      <trkpt lat="46.0698926" lon="11.1180856" />
      <trkpt lat="46.0698565" lon="11.1180693" />
      <trkpt lat="46.0698227" lon="11.1180755" />
      <trkpt lat="46.0698214" lon="11.1178923" />
      <trkpt lat="46.0698162" lon="11.1177869" />
      <trkpt lat="46.0698052" lon="11.1177080" />
      <trkpt lat="46.0697925" lon="11.1176638" />
      <trkpt lat="46.0697728" lon="11.1176277" />
      <trkpt lat="46.0696085" lon="11.1174443" />
      <trkpt lat="46.0694474" lon="11.1171906" />
      <trkpt lat="46.0690898" lon="11.1169530" />
      <trkpt lat="46.0689420" lon="11.1168633" />
      <trkpt lat="46.0688625" lon="11.1168212" />
      <trkpt lat="46.0688130" lon="11.1168193" />
      <trkpt lat="46.0686021" lon="11.1169041" />
      <trkpt lat="46.0681601" lon="11.1171031" />
      <trkpt lat="46.0681191" lon="11.1171294" />
      <trkpt lat="46.0680121" lon="11.1171283" />
      <trkpt lat="46.0680139" lon="11.1171602" />
      <trkpt lat="46.0679110" lon="11.1172221" />
      <trkpt lat="46.0677990" lon="11.1172250" />
      <trkpt lat="46.0673924" lon="11.1173160" />
      <trkpt lat="46.0673657" lon="11.1173220" />
      <trkpt lat="46.0673714" lon="11.1173666" />
      <trkpt lat="46.0673250" lon="11.1173773" />
      <trkpt lat="46.0672751" lon="11.1173904" />
      <trkpt lat="46.0672590" lon="11.1173435" />
      <trkpt lat="46.0668072" lon="11.1174293" />
      <trkpt lat="46.0667908" lon="11.1174322" />
      <trkpt lat="46.0667739" lon="11.1174353" />
      <trkpt lat="46.0667789" lon="11.1174952" />
      <trkpt lat="46.0668118" lon="11.1178589" />
      <trkpt lat="46.0667761" lon="11.1178900" />
      <trkpt lat="46.0667703" lon="11.1179548" />
      <trkpt lat="46.0667493" lon="11.1179620" />
      <trkpt lat="46.0666285" lon="11.1179842" />
      <trkpt lat="46.0666307" lon="11.1180277" />
      <trkpt lat="46.0666330" lon="11.1180667" />
      <trkpt lat="46.0667342" lon="11.1188998" />
      <trkpt lat="46.0666683" lon="11.1189188" />
      <trkpt lat="46.0666159" lon="11.1189281" />
      <trkpt lat="46.0665603" lon="11.1189419" />
      <trkpt lat="46.0665730" lon="11.1190499" />
      <trkpt lat="46.0665858" lon="11.1191592" />
      <trkpt lat="46.0666065" lon="11.1191557" />
      <trkpt lat="46.0666578" lon="11.1196518" />
      <trkpt lat="46.0667099" lon="11.1201551" />
      <trkpt lat="46.0667816" lon="11.1201952" />
      <trkpt lat="46.0668249" lon="11.1206182" />
      <trkpt lat="46.0668711" lon="11.1210492" />
    </trkseg>
  </trk>
</gpx>
