<?xml version="1.0" encoding="UTF-8"?>
<gpx xmlns="http://www.topografix.com/GPX/1/1" version="1.1" creator="ShapeRoute route-engine">
  <metadata>
    <name>drop 10 km · 2026-10-03</name>
    <author>
      <name>ShapeRoute route-engine</name>
    </author>
    <copyright author="OpenStreetMap contributors">
      <license>https://opendatacommons.org/licenses/odbl/1-0/</license>
    </copyright>
    <link href="https://www.openstreetmap.org/copyright">
      <text>© OpenStreetMap contributors</text>
    </link>
    <time>2026-10-03T20:00:25Z</time>
  </metadata>
  <trk>
    <name>drop 10 km · 2026-10-03</name>
    <trkseg>
      <trkpt lat="45.4643695" lon="9.1897716" />
      <trkpt lat="45.4644313" lon="9.1898582" />
      <trkpt lat="45.4644741" lon="9.1898729" />
      <trkpt lat="45.4645046" lon="9.1898833" />
      <trkpt lat="45.4645446" lon="9.1898970" />
      <trkpt lat="45.4645546" lon="9.1899005" />
      <trkpt lat="45.4645542" lon="9.1899580" />
      <trkpt lat="45.4645497" lon="9.1899580" />
      <trkpt lat="45.4645497" lon="9.1899743" />
      <trkpt lat="45.4645490" lon="9.1902933" />
      <trkpt lat="45.4645233" lon="9.1902840" />
      <trkpt lat="45.4645236" lon="9.1902631" />
      <trkpt lat="45.4645242" lon="9.1902105" />
      <trkpt lat="45.4644926" lon="9.1902113" />
      <trkpt lat="45.4644924" lon="9.1901827" />
      <trkpt lat="45.4644913" lon="9.1900241" />
      <trkpt lat="45.4644264" lon="9.1900245" />
      <trkpt lat="45.4638736" lon="9.1900090" />
      <trkpt lat="45.4638731" lon="9.1900740" />
      <trkpt lat="45.4638729" lon="9.1901285" />
      <trkpt lat="45.4639022" lon="9.1901304" />
      <trkpt lat="45.4639110" lon="9.1901309" />
      <trkpt lat="45.4639105" lon="9.1901614" />
      <trkpt lat="45.4638623" lon="9.1901606" />
      <trkpt lat="45.4638381" lon="9.1901611" />
      <trkpt lat="45.4638372" lon="9.1902606" />
      <trkpt lat="45.4637484" lon="9.1902593" />
      <trkpt lat="45.4636960" lon="9.1902610" />
      <trkpt lat="45.4635805" lon="9.1899838" />
      <trkpt lat="45.4635770" lon="9.1901104" />
      <trkpt lat="45.4635767" lon="9.1901213" />
      <trkpt lat="45.4635766" lon="9.1901391" />
      <trkpt lat="45.4635759" lon="9.1902779" />
      <trkpt lat="45.4635823" lon="9.1904952" />
      <trkpt lat="45.4635351" lon="9.1904945" />
      <trkpt lat="45.4634818" lon="9.1904937" />
      <trkpt lat="45.4633485" lon="9.1904926" />
      <trkpt lat="45.4632413" lon="9.1904873" />
      <trkpt lat="45.4630269" lon="9.1906925" />
      <trkpt lat="45.4631914" lon="9.1911022" />
      <trkpt lat="45.4631707" lon="9.1911184" />
      <trkpt lat="45.4629247" lon="9.1913089" />
      <trkpt lat="45.4627660" lon="9.1914450" />
      <trkpt lat="45.4626124" lon="9.1915835" />
      <trkpt lat="45.4625364" lon="9.1916461" />
      <trkpt lat="45.4625304" lon="9.1916511" />
      <trkpt lat="45.4625224" lon="9.1916596" />
      <trkpt lat="45.4625006" lon="9.1916037" />
      <trkpt lat="45.4624615" lon="9.1915360" />
      <trkpt lat="45.4624063" lon="9.1914573" />
      <trkpt lat="45.4623070" lon="9.1912982" />
      <trkpt lat="45.4622526" lon="9.1912573" />
      <trkpt lat="45.4622413" lon="9.1912748" />
      <trkpt lat="45.4622182" lon="9.1913109" />
      <trkpt lat="45.4621870" lon="9.1913590" />
      <trkpt lat="45.4621757" lon="9.1913766" />
      <trkpt lat="45.4621536" lon="9.1913843" />
      <trkpt lat="45.4621163" lon="9.1914103" />
      <trkpt lat="45.4616459" lon="9.1921043" />
      <trkpt lat="45.4616353" lon="9.1921326" />
      <trkpt lat="45.4616273" lon="9.1921178" />
      <trkpt lat="45.4616086" lon="9.1920919" />
      <trkpt lat="45.4615836" lon="9.1920574" />
      <trkpt lat="45.4615805" lon="9.1920531" />
      <trkpt lat="45.4615708" lon="9.1920510" />
      <trkpt lat="45.4613255" lon="9.1916998" />
      <trkpt lat="45.4612928" lon="9.1917441" />
      <trkpt lat="45.4611903" lon="9.1915937" />
      <trkpt lat="45.4610995" lon="9.1914606" />
      <trkpt lat="45.4610611" lon="9.1915164" />
      <trkpt lat="45.4610484" lon="9.1915352" />
      <trkpt lat="45.4610390" lon="9.1915486" />
      <trkpt lat="45.4609923" lon="9.1916149" />
      <trkpt lat="45.4609138" lon="9.1915063" />
      <trkpt lat="45.4608880" lon="9.1915422" />
      <trkpt lat="45.4608761" lon="9.1915587" />
      <trkpt lat="45.4609452" lon="9.1916338" />
      <trkpt lat="45.4609325" lon="9.1916561" />
      <trkpt lat="45.4608366" lon="9.1918072" />
      <trkpt lat="45.4605164" lon="9.1930436" />
      <trkpt lat="45.4605126" lon="9.1930419" />
      <trkpt lat="45.4604952" lon="9.1930342" />
      <trkpt lat="45.4604709" lon="9.1930236" />
      <trkpt lat="45.4604693" lon="9.1930217" />
      <trkpt lat="45.4604491" lon="9.1930434" />
      <trkpt lat="45.4595205" lon="9.1926837" />
      <trkpt lat="45.4593651" lon="9.1926235" />
      <trkpt lat="45.4592409" lon="9.1924782" />
      <trkpt lat="45.4592541" lon="9.1923905" />
      <trkpt lat="45.4591822" lon="9.1922774" />
      <trkpt lat="45.4591516" lon="9.1923128" />
      <trkpt lat="45.4591307" lon="9.1923719" />
      <trkpt lat="45.4590588" lon="9.1924059" />
      <trkpt lat="45.4590002" lon="9.1924120" />
      <trkpt lat="45.4589904" lon="9.1924129" />
      <trkpt lat="45.4589880" lon="9.1924347" />
      <trkpt lat="45.4590720" lon="9.1925171" />
      <trkpt lat="45.4590908" lon="9.1925912" />
      <trkpt lat="45.4590782" lon="9.1926316" />
      <trkpt lat="45.4591538" lon="9.1927195" />
      <trkpt lat="45.4591378" lon="9.1927504" />
      <trkpt lat="45.4592721" lon="9.1928927" />
      <trkpt lat="45.4592667" lon="9.1929298" />
      <trkpt lat="45.4589580" lon="9.1935784" />
      <trkpt lat="45.4589540" lon="9.1935868" />
      <trkpt lat="45.4589507" lon="9.1935938" />
      <trkpt lat="45.4589482" lon="9.1935991" />
      <trkpt lat="45.4589364" lon="9.1936238" />
      <trkpt lat="45.4588342" lon="9.1938191" />
      <trkpt lat="45.4588460" lon="9.1938301" />
      <trkpt lat="45.4587821" lon="9.1939750" />
      <trkpt lat="45.4587337" lon="9.1940857" />
      <trkpt lat="45.4586909" lon="9.1941823" />
      <trkpt lat="45.4586924" lon="9.1942035" />
      <trkpt lat="45.4587482" lon="9.1946843" />
      <trkpt lat="45.4587767" lon="9.1947119" />
      <trkpt lat="45.4588002" lon="9.1947347" />
      <trkpt lat="45.4589919" lon="9.1949211" />
      <trkpt lat="45.4586622" lon="9.1956333" />
      <trkpt lat="45.4586292" lon="9.1957045" />
      <trkpt lat="45.4583834" lon="9.1961895" />
      <trkpt lat="45.4583464" lon="9.1962487" />
      <trkpt lat="45.4583141" lon="9.1962803" />
      <trkpt lat="45.4582396" lon="9.1963501" />
      <trkpt lat="45.4581199" lon="9.1963015" />
      <trkpt lat="45.4580864" lon="9.1962970" />
      <trkpt lat="45.4580436" lon="9.1962964" />
      <trkpt lat="45.4579237" lon="9.1963329" />
      <trkpt lat="45.4578496" lon="9.1963412" />
      <trkpt lat="45.4577452" lon="9.1962584" />
      <trkpt lat="45.4576286" lon="9.1962843" />
      <trkpt lat="45.4576728" lon="9.1971287" />
      <trkpt lat="45.4574359" lon="9.1971748" />
      <trkpt lat="45.4573791" lon="9.1971892" />
      <trkpt lat="45.4573320" lon="9.1972188" />
      <trkpt lat="45.4565642" lon="9.1973669" />
      <trkpt lat="45.4565383" lon="9.1974929" />
      <trkpt lat="45.4564554" lon="9.1975261" />
      <trkpt lat="45.4564080" lon="9.1975512" />
      <trkpt lat="45.4563927" lon="9.1975578" />
      <trkpt lat="45.4563829" lon="9.1974957" />
      <trkpt lat="45.4563802" lon="9.1974965" />
      <trkpt lat="45.4563605" lon="9.1975027" />
      <trkpt lat="45.4563461" lon="9.1975073" />
      <trkpt lat="45.4563383" lon="9.1975098" />
      <trkpt lat="45.4563224" lon="9.1975148" />
      <trkpt lat="45.4563168" lon="9.1975166" />
      <trkpt lat="45.4562049" lon="9.1968080" />
      <trkpt lat="45.4561405" lon="9.1964001" />
      <trkpt lat="45.4560994" lon="9.1961392" />
      <trkpt lat="45.4560587" lon="9.1961118" />
      <trkpt lat="45.4560744" lon="9.1960790" />
      <trkpt lat="45.4560396" lon="9.1959483" />
      <trkpt lat="45.4560284" lon="9.1959041" />
      <trkpt lat="45.4560201" lon="9.1958707" />
      <trkpt lat="45.4559558" lon="9.1957621" />
      <trkpt lat="45.4558553" lon="9.1955964" />
      <trkpt lat="45.4556672" lon="9.1956491" />
      <trkpt lat="45.4551717" lon="9.1957880" />
      <trkpt lat="45.4546629" lon="9.1958842" />
      <trkpt lat="45.4543697" lon="9.1959610" />
      <trkpt lat="45.4541000" lon="9.1960425" />
      <trkpt lat="45.4538060" lon="9.1961853" />
      <trkpt lat="45.4536953" lon="9.1962902" />
      <trkpt lat="45.4535817" lon="9.1963980" />
      <trkpt lat="45.4532801" lon="9.1967270" />
      <trkpt lat="45.4526359" lon="9.1974329" />
      <trkpt lat="45.4526342" lon="9.1974464" />
      <trkpt lat="45.4526308" lon="9.1974500" />
      <trkpt lat="45.4526214" lon="9.1974600" />
      <trkpt lat="45.4525964" lon="9.1974866" />
      <trkpt lat="45.4525914" lon="9.1974919" />
      <trkpt lat="45.4531601" lon="9.1986245" />
      <trkpt lat="45.4527290" lon="9.1993391" />
      <trkpt lat="45.4527122" lon="9.1993445" />
      <trkpt lat="45.4527035" lon="9.1993586" />
      <trkpt lat="45.4526790" lon="9.1993982" />
      <trkpt lat="45.4526531" lon="9.1994400" />
      <trkpt lat="45.4526467" lon="9.1994504" />
      <trkpt lat="45.4523389" lon="9.1990487" />
      <trkpt lat="45.4523029" lon="9.1990065" />
      <trkpt lat="45.4522588" lon="9.1989546" />
      <trkpt lat="45.4522167" lon="9.1989632" />
      <trkpt lat="45.4521726" lon="9.1989692" />
      <trkpt lat="45.4521695" lon="9.1990417" />
      <trkpt lat="45.4520990" lon="9.1998538" />
      <trkpt lat="45.4520663" lon="9.1998486" />
      <trkpt lat="45.4520316" lon="9.1998432" />
      <trkpt lat="45.4519937" lon="9.1998372" />
      <trkpt lat="45.4519731" lon="9.1998339" />
      <trkpt lat="45.4519420" lon="9.1998290" />
      <trkpt lat="45.4519183" lon="9.1998252" />
      <trkpt lat="45.4518917" lon="9.1998210" />
      <trkpt lat="45.4518695" lon="9.2001089" />
      <trkpt lat="45.4516460" lon="9.2000772" />
      <trkpt lat="45.4516460" lon="9.2000913" />
      <trkpt lat="45.4515780" lon="9.2001241" />
      <trkpt lat="45.4515574" lon="9.2001366" />
      <trkpt lat="45.4512595" lon="9.2003291" />
      <trkpt lat="45.4512404" lon="9.2003500" />
      <trkpt lat="45.4512287" lon="9.2003772" />
      <trkpt lat="45.4512243" lon="9.2004107" />
      <trkpt lat="45.4512222" lon="9.2006152" />
      <trkpt lat="45.4512180" lon="9.2010156" />
      <trkpt lat="45.4511812" lon="9.2010150" />
      <trkpt lat="45.4511348" lon="9.2010145" />
      <trkpt lat="45.4510119" lon="9.2010130" />
      <trkpt lat="45.4510123" lon="9.2009831" />
      <trkpt lat="45.4510114" lon="9.2009660" />
      <trkpt lat="45.4509921" lon="9.2009224" />
      <trkpt lat="45.4509926" lon="9.2006332" />
      <trkpt lat="45.4509790" lon="9.2006330" />
      <trkpt lat="45.4509468" lon="9.2006322" />
      <trkpt lat="45.4509332" lon="9.2006324" />
      <trkpt lat="45.4508791" lon="9.2006320" />
      <trkpt lat="45.4508578" lon="9.2006317" />
      <trkpt lat="45.4508576" lon="9.2006840" />
      <trkpt lat="45.4498638" lon="9.2014530" />
      <trkpt lat="45.4498493" lon="9.2014424" />
      <trkpt lat="45.4493627" lon="9.2001670" />
      <trkpt lat="45.4493600" lon="9.2001643" />
      <trkpt lat="45.4493073" lon="9.2001294" />
      <trkpt lat="45.4492601" lon="9.2000982" />
      <trkpt lat="45.4492542" lon="9.2000943" />
      <trkpt lat="45.4492410" lon="9.2000822" />
      <trkpt lat="45.4488929" lon="9.2001073" />
      <trkpt lat="45.4488379" lon="9.2001104" />
      <trkpt lat="45.4488377" lon="9.2001037" />
      <trkpt lat="45.4488367" lon="9.2000542" />
      <trkpt lat="45.4488358" lon="9.2000101" />
      <trkpt lat="45.4488355" lon="9.1999964" />
      <trkpt lat="45.4488215" lon="9.1999565" />
      <trkpt lat="45.4487924" lon="9.1999593" />
      <trkpt lat="45.4487705" lon="9.1999614" />
      <trkpt lat="45.4487110" lon="9.1999671" />
      <trkpt lat="45.4486611" lon="9.1999719" />
      <trkpt lat="45.4486399" lon="9.1999739" />
      <trkpt lat="45.4485956" lon="9.1999782" />
      <trkpt lat="45.4485965" lon="9.2000090" />
      <trkpt lat="45.4485970" lon="9.2000259" />
      <trkpt lat="45.4485980" lon="9.2000650" />
      <trkpt lat="45.4485998" lon="9.2001100" />
      <trkpt lat="45.4486002" lon="9.2001257" />
      <trkpt lat="45.4478599" lon="9.2001742" />
      <trkpt lat="45.4478605" lon="9.2001935" />
      <trkpt lat="45.4478460" lon="9.2001939" />
      <trkpt lat="45.4478059" lon="9.2001949" />
      <trkpt lat="45.4477688" lon="9.2001959" />
      <trkpt lat="45.4477570" lon="9.2001962" />
      <trkpt lat="45.4477486" lon="9.2001787" />
      <trkpt lat="45.4476731" lon="9.2001833" />
      <trkpt lat="45.4476631" lon="9.2002062" />
      <trkpt lat="45.4476591" lon="9.2002027" />
      <trkpt lat="45.4476445" lon="9.2001898" />
      <trkpt lat="45.4475771" lon="9.2001304" />
      <trkpt lat="45.4475434" lon="9.2001007" />
      <trkpt lat="45.4475196" lon="9.2000798" />
      <trkpt lat="45.4477333" lon="9.1996155" />
      <trkpt lat="45.4477095" lon="9.1990710" />
      <trkpt lat="45.4476615" lon="9.1979636" />
      <trkpt lat="45.4476596" lon="9.1979545" />
      <trkpt lat="45.4476554" lon="9.1979473" />
      <trkpt lat="45.4476498" lon="9.1979429" />
      <trkpt lat="45.4476425" lon="9.1979421" />
      <trkpt lat="45.4467825" lon="9.1981765" />
      <trkpt lat="45.4466839" lon="9.1982056" />
      <trkpt lat="45.4466663" lon="9.1982519" />
      <trkpt lat="45.4466538" lon="9.1982548" />
      <trkpt lat="45.4465998" lon="9.1982674" />
      <trkpt lat="45.4465749" lon="9.1982732" />
      <trkpt lat="45.4465546" lon="9.1982779" />
      <trkpt lat="45.4465369" lon="9.1982821" />
      <trkpt lat="45.4465015" lon="9.1982903" />
      <trkpt lat="45.4464678" lon="9.1982982" />
      <trkpt lat="45.4464269" lon="9.1983065" />
      <trkpt lat="45.4463932" lon="9.1983141" />
      <trkpt lat="45.4463486" lon="9.1983231" />
      <trkpt lat="45.4463363" lon="9.1983252" />
      <trkpt lat="45.4463279" lon="9.1983171" />
      <trkpt lat="45.4463259" lon="9.1982939" />
      <trkpt lat="45.4463187" lon="9.1982122" />
      <trkpt lat="45.4463134" lon="9.1981297" />
      <trkpt lat="45.4463122" lon="9.1981105" />
      <trkpt lat="45.4463100" lon="9.1980738" />
      <trkpt lat="45.4463081" lon="9.1980432" />
      <trkpt lat="45.4463050" lon="9.1979768" />
      <trkpt lat="45.4462998" lon="9.1979066" />
      <trkpt lat="45.4462981" lon="9.1978784" />
      <trkpt lat="45.4453419" lon="9.1981479" />
      <trkpt lat="45.4451416" lon="9.1982024" />
      <trkpt lat="45.4437986" lon="9.1985807" />
      <trkpt lat="45.4435115" lon="9.1986605" />
      <trkpt lat="45.4434988" lon="9.1986549" />
      <trkpt lat="45.4434706" lon="9.1986087" />
      <trkpt lat="45.4434273" lon="9.1985372" />
      <trkpt lat="45.4434409" lon="9.1985067" />
      <trkpt lat="45.4434724" lon="9.1983324" />
      <trkpt lat="45.4436129" lon="9.1976067" />
      <trkpt lat="45.4435949" lon="9.1975993" />
      <trkpt lat="45.4435779" lon="9.1975923" />
      <trkpt lat="45.4436075" lon="9.1974231" />
      <trkpt lat="45.4435794" lon="9.1974125" />
      <trkpt lat="45.4435821" lon="9.1973979" />
      <trkpt lat="45.4435842" lon="9.1973865" />
      <trkpt lat="45.4436804" lon="9.1968716" />
      <trkpt lat="45.4436280" lon="9.1968506" />
      <trkpt lat="45.4436470" lon="9.1967480" />
      <trkpt lat="45.4436868" lon="9.1965323" />
      <trkpt lat="45.4437265" lon="9.1963175" />
      <trkpt lat="45.4437681" lon="9.1960926" />
      <trkpt lat="45.4437989" lon="9.1959259" />
      <trkpt lat="45.4437100" lon="9.1959263" />
      <trkpt lat="45.4437048" lon="9.1957303" />
      <trkpt lat="45.4438367" lon="9.1957211" />
      <trkpt lat="45.4438526" lon="9.1956349" />
      <trkpt lat="45.4438716" lon="9.1955324" />
      <trkpt lat="45.4439274" lon="9.1955501" />
      <trkpt lat="45.4439344" lon="9.1955109" />
      <trkpt lat="45.4439641" lon="9.1953575" />
      <trkpt lat="45.4439665" lon="9.1953411" />
      <trkpt lat="45.4439667" lon="9.1953257" />
      <trkpt lat="45.4439646" lon="9.1953005" />
      <trkpt lat="45.4439603" lon="9.1952763" />
      <trkpt lat="45.4439518" lon="9.1952455" />
      <trkpt lat="45.4439498" lon="9.1952282" />
      <trkpt lat="45.4439504" lon="9.1952093" />
      <trkpt lat="45.4439589" lon="9.1951650" />
      <trkpt lat="45.4439904" lon="9.1950182" />
      <trkpt lat="45.4439927" lon="9.1950015" />
      <trkpt lat="45.4439917" lon="9.1949939" />
      <trkpt lat="45.4439882" lon="9.1949880" />
      <trkpt lat="45.4439829" lon="9.1949853" />
      <trkpt lat="45.4437985" lon="9.1950175" />
      <trkpt lat="45.4435246" lon="9.1950148" />
      <trkpt lat="45.4434698" lon="9.1950476" />
      <trkpt lat="45.4434662" lon="9.1950194" />
      <trkpt lat="45.4434613" lon="9.1949818" />
      <trkpt lat="45.4434587" lon="9.1949618" />
      <trkpt lat="45.4434553" lon="9.1949359" />
      <trkpt lat="45.4434510" lon="9.1949028" />
      <trkpt lat="45.4433996" lon="9.1948979" />
      <trkpt lat="45.4433595" lon="9.1948938" />
      <trkpt lat="45.4433534" lon="9.1948814" />
      <trkpt lat="45.4433463" lon="9.1948700" />
      <trkpt lat="45.4433385" lon="9.1948598" />
      <trkpt lat="45.4433298" lon="9.1948509" />
      <trkpt lat="45.4433206" lon="9.1948434" />
      <trkpt lat="45.4433108" lon="9.1948374" />
      <trkpt lat="45.4432950" lon="9.1947197" />
      <trkpt lat="45.4432709" lon="9.1945584" />
      <trkpt lat="45.4432516" lon="9.1937317" />
      <trkpt lat="45.4432507" lon="9.1936911" />
      <trkpt lat="45.4432189" lon="9.1936919" />
      <trkpt lat="45.4431208" lon="9.1936945" />
      <trkpt lat="45.4428563" lon="9.1937098" />
      <trkpt lat="45.4427534" lon="9.1937158" />
      <trkpt lat="45.4422423" lon="9.1937454" />
      <trkpt lat="45.4422363" lon="9.1935014" />
      <trkpt lat="45.4422032" lon="9.1921441" />
      <trkpt lat="45.4421973" lon="9.1919028" />
      <trkpt lat="45.4421921" lon="9.1916900" />
      <trkpt lat="45.4421745" lon="9.1909665" />
      <trkpt lat="45.4421735" lon="9.1909325" />
      <trkpt lat="45.4421730" lon="9.1909142" />
      <trkpt lat="45.4421708" lon="9.1908384" />
      <trkpt lat="45.4420823" lon="9.1908495" />
      <trkpt lat="45.4420148" lon="9.1908813" />
      <trkpt lat="45.4419508" lon="9.1909422" />
      <trkpt lat="45.4418868" lon="9.1910057" />
      <trkpt lat="45.4418041" lon="9.1910425" />
      <trkpt lat="45.4417227" lon="9.1910544" />
      <trkpt lat="45.4416576" lon="9.1910463" />
      <trkpt lat="45.4415906" lon="9.1910410" />
      <trkpt lat="45.4416014" lon="9.1909886" />
      <trkpt lat="45.4416052" lon="9.1909702" />
      <trkpt lat="45.4416006" lon="9.1909675" />
      <trkpt lat="45.4414762" lon="9.1908936" />
      <trkpt lat="45.4414465" lon="9.1908219" />
      <trkpt lat="45.4414198" lon="9.1907678" />
      <trkpt lat="45.4413925" lon="9.1907448" />
      <trkpt lat="45.4414089" lon="9.1906986" />
      <trkpt lat="45.4414160" lon="9.1906737" />
      <trkpt lat="45.4414344" lon="9.1906159" />
      <trkpt lat="45.4414558" lon="9.1905506" />
      <trkpt lat="45.4414755" lon="9.1904873" />
      <trkpt lat="45.4416859" lon="9.1898273" />
      <trkpt lat="45.4417065" lon="9.1897630" />
      <trkpt lat="45.4416866" lon="9.1897499" />
      <trkpt lat="45.4417410" lon="9.1895474" />
      <trkpt lat="45.4418023" lon="9.1894275" />
      <trkpt lat="45.4421115" lon="9.1889514" />
      <trkpt lat="45.4422052" lon="9.1888540" />
      <trkpt lat="45.4424350" lon="9.1884957" />
      <trkpt lat="45.4424598" lon="9.1884284" />
      <trkpt lat="45.4424592" lon="9.1883855" />
      <trkpt lat="45.4424534" lon="9.1883594" />
      <trkpt lat="45.4424409" lon="9.1882762" />
      <trkpt lat="45.4424727" lon="9.1882463" />
      <trkpt lat="45.4424881" lon="9.1882208" />
      <trkpt lat="45.4425080" lon="9.1881632" />
      <trkpt lat="45.4425164" lon="9.1881121" />
      <trkpt lat="45.4425178" lon="9.1880028" />
      <trkpt lat="45.4425172" lon="9.1878802" />
      <trkpt lat="45.4426107" lon="9.1878858" />
      <trkpt lat="45.4426109" lon="9.1878427" />
      <trkpt lat="45.4426110" lon="9.1878172" />
      <trkpt lat="45.4426113" lon="9.1877631" />
      <trkpt lat="45.4426117" lon="9.1877018" />
      <trkpt lat="45.4426119" lon="9.1876542" />
      <trkpt lat="45.4422845" lon="9.1876499" />
      <trkpt lat="45.4421156" lon="9.1876481" />
      <trkpt lat="45.4418800" lon="9.1876447" />
      <trkpt lat="45.4418798" lon="9.1876308" />
      <trkpt lat="45.4417891" lon="9.1859255" />
      <trkpt lat="45.4417865" lon="9.1859100" />
      <trkpt lat="45.4418858" lon="9.1858976" />
      <trkpt lat="45.4423692" lon="9.1858327" />
      <trkpt lat="45.4426980" lon="9.1857916" />
      <trkpt lat="45.4429776" lon="9.1857532" />
      <trkpt lat="45.4431143" lon="9.1857339" />
      <trkpt lat="45.4432015" lon="9.1857225" />
      <trkpt lat="45.4432441" lon="9.1857059" />
      <trkpt lat="45.4433065" lon="9.1856623" />
      <trkpt lat="45.4433627" lon="9.1854962" />
      <trkpt lat="45.4433394" lon="9.1851045" />
      <trkpt lat="45.4433231" lon="9.1848811" />
      <trkpt lat="45.4433507" lon="9.1848436" />
      <trkpt lat="45.4435573" lon="9.1848106" />
      <trkpt lat="45.4435773" lon="9.1848122" />
      <trkpt lat="45.4435913" lon="9.1848166" />
      <trkpt lat="45.4435889" lon="9.1847931" />
      <trkpt lat="45.4435820" lon="9.1847234" />
      <trkpt lat="45.4435734" lon="9.1846374" />
      <trkpt lat="45.4435707" lon="9.1846105" />
      <trkpt lat="45.4435877" lon="9.1845703" />
      <trkpt lat="45.4431732" lon="9.1832100" />
      <trkpt lat="45.4431672" lon="9.1831875" />
      <trkpt lat="45.4431709" lon="9.1831789" />
      <trkpt lat="45.4431898" lon="9.1831343" />
      <trkpt lat="45.4432095" lon="9.1830875" />
      <trkpt lat="45.4432162" lon="9.1830718" />
      <trkpt lat="45.4432691" lon="9.1830677" />
      <trkpt lat="45.4435285" lon="9.1829088" />
      <trkpt lat="45.4440873" lon="9.1827867" />
      <trkpt lat="45.4440838" lon="9.1827735" />
      <trkpt lat="45.4440570" lon="9.1826899" />
      <trkpt lat="45.4440429" lon="9.1826458" />
      <trkpt lat="45.4440374" lon="9.1826287" />
      <trkpt lat="45.4440452" lon="9.1826100" />
      <trkpt lat="45.4440621" lon="9.1826055" />
      <trkpt lat="45.4441017" lon="9.1825952" />
      <trkpt lat="45.4441348" lon="9.1825865" />
      <trkpt lat="45.4441682" lon="9.1825778" />
      <trkpt lat="45.4442025" lon="9.1825688" />
      <trkpt lat="45.4442355" lon="9.1825602" />
      <trkpt lat="45.4442730" lon="9.1825504" />
      <trkpt lat="45.4443115" lon="9.1825403" />
      <trkpt lat="45.4443506" lon="9.1825301" />
      <trkpt lat="45.4443717" lon="9.1825246" />
      <trkpt lat="45.4443884" lon="9.1825627" />
      <trkpt lat="45.4447356" lon="9.1824956" />
      <trkpt lat="45.4452609" lon="9.1823779" />
      <trkpt lat="45.4452593" lon="9.1823634" />
      <trkpt lat="45.4453000" lon="9.1823546" />
      <trkpt lat="45.4453234" lon="9.1823495" />
      <trkpt lat="45.4453443" lon="9.1823450" />
      <trkpt lat="45.4453670" lon="9.1823401" />
      <trkpt lat="45.4452691" lon="9.1814294" />
      <trkpt lat="45.4452094" lon="9.1808950" />
      <trkpt lat="45.4452174" lon="9.1808783" />
      <trkpt lat="45.4456699" lon="9.1807830" />
      <trkpt lat="45.4459617" lon="9.1807179" />
      <trkpt lat="45.4463732" lon="9.1806261" />
      <trkpt lat="45.4463760" lon="9.1806383" />
      <trkpt lat="45.4464173" lon="9.1806289" />
      <trkpt lat="45.4464236" lon="9.1806275" />
      <trkpt lat="45.4464608" lon="9.1806189" />
      <trkpt lat="45.4464763" lon="9.1806154" />
      <trkpt lat="45.4464899" lon="9.1806029" />
      <trkpt lat="45.4464839" lon="9.1805367" />
      <trkpt lat="45.4464798" lon="9.1805007" />
      <trkpt lat="45.4464766" lon="9.1804719" />
      <trkpt lat="45.4464739" lon="9.1804484" />
      <trkpt lat="45.4473129" lon="9.1802659" />
      <trkpt lat="45.4473158" lon="9.1803030" />
      <trkpt lat="45.4473170" lon="9.1803173" />
      <trkpt lat="45.4473649" lon="9.1803078" />
      <trkpt lat="45.4474187" lon="9.1802960" />
      <trkpt lat="45.4473707" lon="9.1797641" />
      <trkpt lat="45.4473615" lon="9.1796617" />
      <trkpt lat="45.4474240" lon="9.1796634" />
      <trkpt lat="45.4474711" lon="9.1796501" />
      <trkpt lat="45.4474902" lon="9.1796125" />
      <trkpt lat="45.4485513" lon="9.1797299" />
      <trkpt lat="45.4487168" lon="9.1797628" />
      <trkpt lat="45.4487699" lon="9.1797687" />
      <trkpt lat="45.4488026" lon="9.1797732" />
      <trkpt lat="45.4488092" lon="9.1797742" />
      <trkpt lat="45.4488457" lon="9.1797796" />
      <trkpt lat="45.4488704" lon="9.1797832" />
      <trkpt lat="45.4488958" lon="9.1797870" />
      <trkpt lat="45.4489150" lon="9.1797899" />
      <trkpt lat="45.4496307" lon="9.1799095" />
      <trkpt lat="45.4497404" lon="9.1799272" />
      <trkpt lat="45.4501908" lon="9.1799858" />
      <trkpt lat="45.4502356" lon="9.1799908" />
      <trkpt lat="45.4505987" lon="9.1800233" />
      <trkpt lat="45.4510864" lon="9.1800669" />
      <trkpt lat="45.4512214" lon="9.1800843" />
      <trkpt lat="45.4512943" lon="9.1800937" />
      <trkpt lat="45.4517058" lon="9.1801598" />
      <trkpt lat="45.4518700" lon="9.1801862" />
      <trkpt lat="45.4519376" lon="9.1801973" />
      <trkpt lat="45.4519866" lon="9.1802348" />
      <trkpt lat="45.4520002" lon="9.1803022" />
      <trkpt lat="45.4520126" lon="9.1803021" />
      <trkpt lat="45.4520320" lon="9.1803019" />
      <trkpt lat="45.4520636" lon="9.1803017" />
      <trkpt lat="45.4520729" lon="9.1803015" />
      <trkpt lat="45.4521038" lon="9.1803012" />
      <trkpt lat="45.4521456" lon="9.1803021" />
      <trkpt lat="45.4521509" lon="9.1803015" />
      <trkpt lat="45.4521665" lon="9.1803005" />
      <trkpt lat="45.4521995" lon="9.1803484" />
      <trkpt lat="45.4522086" lon="9.1803897" />
      <trkpt lat="45.4522104" lon="9.1804310" />
      <trkpt lat="45.4521926" lon="9.1805814" />
      <trkpt lat="45.4522233" lon="9.1805893" />
      <trkpt lat="45.4522353" lon="9.1805924" />
      <trkpt lat="45.4522490" lon="9.1805959" />
      <trkpt lat="45.4522800" lon="9.1806034" />
      <trkpt lat="45.4522855" lon="9.1806048" />
      <trkpt lat="45.4523070" lon="9.1806108" />
      <trkpt lat="45.4523186" lon="9.1806137" />
      <trkpt lat="45.4523365" lon="9.1806183" />
      <trkpt lat="45.4523500" lon="9.1806218" />
      <trkpt lat="45.4523637" lon="9.1806258" />
      <trkpt lat="45.4523893" lon="9.1806320" />
      <trkpt lat="45.4523910" lon="9.1805956" />
      <trkpt lat="45.4523918" lon="9.1805718" />
      <trkpt lat="45.4524073" lon="9.1805664" />
      <trkpt lat="45.4524468" lon="9.1805396" />
      <trkpt lat="45.4525373" lon="9.1804787" />
      <trkpt lat="45.4525484" lon="9.1804712" />
      <trkpt lat="45.4526738" lon="9.1803938" />
      <trkpt lat="45.4527053" lon="9.1803723" />
      <trkpt lat="45.4527532" lon="9.1803500" />
      <trkpt lat="45.4528173" lon="9.1803348" />
      <trkpt lat="45.4528826" lon="9.1803338" />
      <trkpt lat="45.4529231" lon="9.1803366" />
      <trkpt lat="45.4529319" lon="9.1803372" />
      <trkpt lat="45.4529679" lon="9.1803061" />
      <trkpt lat="45.4529881" lon="9.1802886" />
      <trkpt lat="45.4530678" lon="9.1802998" />
      <trkpt lat="45.4531496" lon="9.1803114" />
      <trkpt lat="45.4532851" lon="9.1803318" />
      <trkpt lat="45.4532898" lon="9.1803519" />
      <trkpt lat="45.4532978" lon="9.1803863" />
      <trkpt lat="45.4533104" lon="9.1804415" />
      <trkpt lat="45.4533293" lon="9.1805104" />
      <trkpt lat="45.4534828" lon="9.1811021" />
      <trkpt lat="45.4534945" lon="9.1811412" />
      <trkpt lat="45.4535265" lon="9.1812578" />
      <trkpt lat="45.4536751" lon="9.1817634" />
      <trkpt lat="45.4537704" lon="9.1819223" />
      <trkpt lat="45.4538620" lon="9.1820751" />
      <trkpt lat="45.4541199" lon="9.1825050" />
      <trkpt lat="45.4543489" lon="9.1827078" />
      <trkpt lat="45.4548868" lon="9.1831837" />
      <trkpt lat="45.4549860" lon="9.1832593" />
      <trkpt lat="45.4554052" lon="9.1835786" />
      <trkpt lat="45.4554175" lon="9.1835914" />
      <trkpt lat="45.4554748" lon="9.1835995" />
      <trkpt lat="45.4554740" lon="9.1835701" />
      <trkpt lat="45.4555007" lon="9.1835931" />
      <trkpt lat="45.4555194" lon="9.1836272" />
      <trkpt lat="45.4555245" lon="9.1836455" />
      <trkpt lat="45.4559488" lon="9.1837019" />
      <trkpt lat="45.4564457" lon="9.1834758" />
      <trkpt lat="45.4566918" lon="9.1834929" />
      <trkpt lat="45.4566998" lon="9.1834722" />
      <trkpt lat="45.4567261" lon="9.1834771" />
      <trkpt lat="45.4567873" lon="9.1835159" />
      <trkpt lat="45.4568299" lon="9.1835426" />
      <trkpt lat="45.4568414" lon="9.1835499" />
      <trkpt lat="45.4568650" lon="9.1835648" />
      <trkpt lat="45.4569211" lon="9.1835963" />
      <trkpt lat="45.4569406" lon="9.1836073" />
      <trkpt lat="45.4569457" lon="9.1836508" />
      <trkpt lat="45.4571498" lon="9.1837722" />
      <trkpt lat="45.4572907" lon="9.1837891" />
      <trkpt lat="45.4574087" lon="9.1838033" />
      <trkpt lat="45.4574053" lon="9.1838754" />
      <trkpt lat="45.4579209" lon="9.1839257" />
      <trkpt lat="45.4579315" lon="9.1839267" />
      <trkpt lat="45.4579702" lon="9.1839647" />
      <trkpt lat="45.4580830" lon="9.1841842" />
      <trkpt lat="45.4581956" lon="9.1843901" />
      <trkpt lat="45.4583888" lon="9.1843890" />
      <trkpt lat="45.4584758" lon="9.1843971" />
      <trkpt lat="45.4585082" lon="9.1844010" />
      <trkpt lat="45.4585184" lon="9.1844007" />
      <trkpt lat="45.4585288" lon="9.1844648" />
      <trkpt lat="45.4587707" lon="9.1846669" />
      <trkpt lat="45.4588125" lon="9.1846974" />
      <trkpt lat="45.4589660" lon="9.1848422" />
      <trkpt lat="45.4590062" lon="9.1848739" />
      <trkpt lat="45.4593540" lon="9.1851620" />
      <trkpt lat="45.4594306" lon="9.1852341" />
      <trkpt lat="45.4596446" lon="9.1854356" />
      <trkpt lat="45.4599233" lon="9.1856945" />
      <trkpt lat="45.4599565" lon="9.1857252" />
      <trkpt lat="45.4600075" lon="9.1858125" />
      <trkpt lat="45.4601615" lon="9.1863925" />
      <trkpt lat="45.4601645" lon="9.1864068" />
      <trkpt lat="45.4601317" lon="9.1864250" />
      <trkpt lat="45.4601351" lon="9.1864373" />
      <trkpt lat="45.4601358" lon="9.1864397" />
      <trkpt lat="45.4601363" lon="9.1864395" />
      <trkpt lat="45.4601409" lon="9.1864371" />
      <trkpt lat="45.4602280" lon="9.1863916" />
      <trkpt lat="45.4606967" lon="9.1863513" />
      <trkpt lat="45.4607148" lon="9.1865658" />
      <trkpt lat="45.4606999" lon="9.1866900" />
      <trkpt lat="45.4607708" lon="9.1875202" />
      <trkpt lat="45.4607346" lon="9.1875215" />
      <trkpt lat="45.4607301" lon="9.1875303" />
      <trkpt lat="45.4607308" lon="9.1875704" />
      <trkpt lat="45.4607312" lon="9.1875952" />
      <trkpt lat="45.4607312" lon="9.1876011" />
      <trkpt lat="45.4607441" lon="9.1876012" />
      <trkpt lat="45.4607903" lon="9.1879879" />
      <trkpt lat="45.4607949" lon="9.1880024" />
      <trkpt lat="45.4608037" lon="9.1880753" />
      <trkpt lat="45.4608081" lon="9.1881501" />
      <trkpt lat="45.4608072" lon="9.1882007" />
      <trkpt lat="45.4608201" lon="9.1882044" />
      <trkpt lat="45.4608293" lon="9.1882066" />
      <trkpt lat="45.4608532" lon="9.1882109" />
      <trkpt lat="45.4608797" lon="9.1882158" />
      <trkpt lat="45.4608958" lon="9.1882187" />
      <trkpt lat="45.4610420" lon="9.1882814" />
      <trkpt lat="45.4610869" lon="9.1883090" />
      <trkpt lat="45.4612129" lon="9.1883608" />
      <trkpt lat="45.4613522" lon="9.1883922" />
      <trkpt lat="45.4613923" lon="9.1884132" />
      <trkpt lat="45.4617297" lon="9.1884365" />
      <trkpt lat="45.4619162" lon="9.1884342" />
      <trkpt lat="45.4626733" lon="9.1884445" />
      <trkpt lat="45.4626842" lon="9.1884188" />
      <trkpt lat="45.4627041" lon="9.1884191" />
      <trkpt lat="45.4627262" lon="9.1884192" />
      <trkpt lat="45.4627610" lon="9.1884201" />
      <trkpt lat="45.4627756" lon="9.1884203" />
      <trkpt lat="45.4628388" lon="9.1884389" />
      <trkpt lat="45.4628391" lon="9.1884746" />
      <trkpt lat="45.4628393" lon="9.1884922" />
      <trkpt lat="45.4628394" lon="9.1885131" />
      <trkpt lat="45.4628780" lon="9.1885136" />
      <trkpt lat="45.4632051" lon="9.1885178" />
      <trkpt lat="45.4632950" lon="9.1885189" />
      <trkpt lat="45.4635267" lon="9.1885191" />
      <trkpt lat="45.4635790" lon="9.1885192" />
      <trkpt lat="45.4635843" lon="9.1885356" />
      <trkpt lat="45.4635933" lon="9.1885635" />
      <trkpt lat="45.4635982" lon="9.1885736" />
      <trkpt lat="45.4636369" lon="9.1885741" />
      <trkpt lat="45.4636712" lon="9.1885745" />
      <trkpt lat="45.4636713" lon="9.1885837" />
      <trkpt lat="45.4636714" lon="9.1886805" />
      <trkpt lat="45.4636706" lon="9.1887812" />
      <trkpt lat="45.4636880" lon="9.1887996" />
      <trkpt lat="45.4636880" lon="9.1888097" />
      <trkpt lat="45.4636879" lon="9.1888363" />
      <trkpt lat="45.4637344" lon="9.1888372" />
      <trkpt lat="45.4637338" lon="9.1888841" />
      <trkpt lat="45.4637335" lon="9.1889066" />
      <trkpt lat="45.4637332" lon="9.1889265" />
      <trkpt lat="45.4637329" lon="9.1889492" />
      <trkpt lat="45.4637319" lon="9.1890225" />
      <trkpt lat="45.4637982" lon="9.1890213" />
      <trkpt lat="45.4637998" lon="9.1889533" />
      <trkpt lat="45.4638000" lon="9.1889344" />
      <trkpt lat="45.4638002" lon="9.1889146" />
      <trkpt lat="45.4638167" lon="9.1889146" />
      <trkpt lat="45.4640993" lon="9.1889147" />
      <trkpt lat="45.4641127" lon="9.1889147" />
      <trkpt lat="45.4641126" lon="9.1889477" />
      <trkpt lat="45.4641115" lon="9.1890703" />
      <trkpt lat="45.4641046" lon="9.1895113" />
      <trkpt lat="45.4641536" lon="9.1896431" />
      <trkpt lat="45.4643695" lon="9.1897716" />
    </trkseg>
  </trk>
</gpx>
