<?xml version="1.0" encoding="UTF-8"?>
<gpx xmlns="http://www.topografix.com/GPX/1/1" version="1.1" creator="ShapeRoute route-engine">
  <metadata>
    <name>HURRY 15 km milano block</name>
    <author>
      <name>ShapeRoute route-engine</name>
    </author>
    <copyright author="OpenStreetMap contributors">
      <license>https://opendatacommons.org/licenses/odbl/1-0/</license>
    </copyright>
    <link href="https://www.openstreetmap.org/copyright">
      <text>© OpenStreetMap contributors</text>
    </link>
    <time>2026-09-26T06:44:05Z</time>
  </metadata>
  <trk>
    <name>HURRY 15 km milano block</name>
    <trkseg>
      <trkpt lat="45.4643695" lon="9.1897716" />
      <trkpt lat="45.4644313" lon="9.1898582" />
      <trkpt lat="45.4644741" lon="9.1898729" />
      <trkpt lat="45.4645044" lon="9.1898425" />
      <trkpt lat="45.4645471" lon="9.1898437" />
      <trkpt lat="45.4645547" lon="9.1898439" />
      <trkpt lat="45.4645547" lon="9.1898629" />
      <trkpt lat="45.4645891" lon="9.1898632" />
      <trkpt lat="45.4645892" lon="9.1898476" />
      <trkpt lat="45.4645894" lon="9.1898161" />
      <trkpt lat="45.4645895" lon="9.1898041" />
      <trkpt lat="45.4645897" lon="9.1897690" />
      <trkpt lat="45.4646058" lon="9.1897460" />
      <trkpt lat="45.4646652" lon="9.1897485" />
      <trkpt lat="45.4646857" lon="9.1897645" />
      <trkpt lat="45.4646926" lon="9.1898024" />
      <trkpt lat="45.4646924" lon="9.1898648" />
      <trkpt lat="45.4646869" lon="9.1898648" />
      <trkpt lat="45.4646887" lon="9.1899578" />
      <trkpt lat="45.4647068" lon="9.1899577" />
      <trkpt lat="45.4647072" lon="9.1899825" />
      <trkpt lat="45.4647043" lon="9.1902113" />
      <trkpt lat="45.4646754" lon="9.1903204" />
      <trkpt lat="45.4646652" lon="9.1903590" />
      <trkpt lat="45.4646642" lon="9.1904112" />
      <trkpt lat="45.4646621" lon="9.1904786" />
      <trkpt lat="45.4647559" lon="9.1906084" />
      <trkpt lat="45.4647643" lon="9.1907699" />
      <trkpt lat="45.4648336" lon="9.1907690" />
      <trkpt lat="45.4649417" lon="9.1907691" />
      <trkpt lat="45.4649955" lon="9.1907679" />
      <trkpt lat="45.4649955" lon="9.1907749" />
      <trkpt lat="45.4649955" lon="9.1907816" />
      <trkpt lat="45.4649958" lon="9.1908180" />
      <trkpt lat="45.4650063" lon="9.1908178" />
      <trkpt lat="45.4655683" lon="9.1908105" />
      <trkpt lat="45.4655760" lon="9.1908105" />
      <trkpt lat="45.4656127" lon="9.1908102" />
      <trkpt lat="45.4656131" lon="9.1907635" />
      <trkpt lat="45.4658150" lon="9.1907649" />
      <trkpt lat="45.4658665" lon="9.1907643" />
      <trkpt lat="45.4659350" lon="9.1908475" />
      <trkpt lat="45.4659541" lon="9.1908131" />
      <trkpt lat="45.4660304" lon="9.1909037" />
      <trkpt lat="45.4660482" lon="9.1908736" />
      <trkpt lat="45.4661236" lon="9.1907498" />
      <trkpt lat="45.4661970" lon="9.1906285" />
      <trkpt lat="45.4663289" lon="9.1904106" />
      <trkpt lat="45.4665254" lon="9.1900996" />
      <trkpt lat="45.4665440" lon="9.1900713" />
      <trkpt lat="45.4665589" lon="9.1900900" />
      <trkpt lat="45.4665747" lon="9.1901091" />
      <trkpt lat="45.4668229" lon="9.1900476" />
      <trkpt lat="45.4669037" lon="9.1900297" />
      <trkpt lat="45.4669106" lon="9.1900575" />
      <trkpt lat="45.4669227" lon="9.1900813" />
      <trkpt lat="45.4669392" lon="9.1900992" />
      <trkpt lat="45.4669585" lon="9.1901097" />
      <trkpt lat="45.4669791" lon="9.1901120" />
      <trkpt lat="45.4670010" lon="9.1901048" />
      <trkpt lat="45.4670204" lon="9.1900882" />
      <trkpt lat="45.4670351" lon="9.1900639" />
      <trkpt lat="45.4670439" lon="9.1900343" />
      <trkpt lat="45.4670458" lon="9.1900023" />
      <trkpt lat="45.4671379" lon="9.1899836" />
      <trkpt lat="45.4672617" lon="9.1899583" />
      <trkpt lat="45.4672740" lon="9.1899558" />
      <trkpt lat="45.4672755" lon="9.1899502" />
      <trkpt lat="45.4672760" lon="9.1899447" />
      <trkpt lat="45.4672753" lon="9.1899382" />
      <trkpt lat="45.4672738" lon="9.1899321" />
      <trkpt lat="45.4672591" lon="9.1899119" />
      <trkpt lat="45.4672663" lon="9.1899069" />
      <trkpt lat="45.4672754" lon="9.1899007" />
      <trkpt lat="45.4672890" lon="9.1898913" />
      <trkpt lat="45.4673022" lon="9.1898822" />
      <trkpt lat="45.4673276" lon="9.1899056" />
      <trkpt lat="45.4673586" lon="9.1899336" />
      <trkpt lat="45.4673917" lon="9.1899608" />
      <trkpt lat="45.4674225" lon="9.1899833" />
      <trkpt lat="45.4674472" lon="9.1900080" />
      <trkpt lat="45.4674688" lon="9.1900294" />
      <trkpt lat="45.4674800" lon="9.1900172" />
      <trkpt lat="45.4675568" lon="9.1899333" />
      <trkpt lat="45.4675603" lon="9.1899387" />
      <trkpt lat="45.4675655" lon="9.1899466" />
      <trkpt lat="45.4675582" lon="9.1899571" />
      <trkpt lat="45.4675536" lon="9.1899671" />
      <trkpt lat="45.4675514" lon="9.1899785" />
      <trkpt lat="45.4675519" lon="9.1899918" />
      <trkpt lat="45.4675546" lon="9.1899994" />
      <trkpt lat="45.4675584" lon="9.1900062" />
      <trkpt lat="45.4675695" lon="9.1900192" />
      <trkpt lat="45.4676541" lon="9.1901199" />
      <trkpt lat="45.4677778" lon="9.1902671" />
      <trkpt lat="45.4682997" lon="9.1907968" />
      <trkpt lat="45.4682908" lon="9.1908109" />
      <trkpt lat="45.4682669" lon="9.1908485" />
      <trkpt lat="45.4682587" lon="9.1908613" />
      <trkpt lat="45.4682507" lon="9.1908740" />
      <trkpt lat="45.4682208" lon="9.1909212" />
      <trkpt lat="45.4682125" lon="9.1909344" />
      <trkpt lat="45.4683925" lon="9.1911214" />
      <trkpt lat="45.4683960" lon="9.1911249" />
      <trkpt lat="45.4684034" lon="9.1911323" />
      <trkpt lat="45.4684179" lon="9.1911468" />
      <trkpt lat="45.4684196" lon="9.1911485" />
      <trkpt lat="45.4685634" lon="9.1912677" />
      <trkpt lat="45.4686940" lon="9.1913818" />
      <trkpt lat="45.4689281" lon="9.1915862" />
      <trkpt lat="45.4689875" lon="9.1916448" />
      <trkpt lat="45.4690432" lon="9.1917080" />
      <trkpt lat="45.4690732" lon="9.1917449" />
      <trkpt lat="45.4690748" lon="9.1917420" />
      <trkpt lat="45.4690888" lon="9.1917174" />
      <trkpt lat="45.4690937" lon="9.1917088" />
      <trkpt lat="45.4693869" lon="9.1920348" />
      <trkpt lat="45.4693936" lon="9.1920205" />
      <trkpt lat="45.4694101" lon="9.1919871" />
      <trkpt lat="45.4694200" lon="9.1919985" />
      <trkpt lat="45.4696795" lon="9.1922784" />
      <trkpt lat="45.4700115" lon="9.1926347" />
      <trkpt lat="45.4700045" lon="9.1926526" />
      <trkpt lat="45.4699836" lon="9.1927118" />
      <trkpt lat="45.4699785" lon="9.1927326" />
      <trkpt lat="45.4699567" lon="9.1927711" />
      <trkpt lat="45.4699511" lon="9.1927811" />
      <trkpt lat="45.4699604" lon="9.1928486" />
      <trkpt lat="45.4699765" lon="9.1928646" />
      <trkpt lat="45.4699960" lon="9.1928841" />
      <trkpt lat="45.4696553" lon="9.1934401" />
      <trkpt lat="45.4695731" lon="9.1935704" />
      <trkpt lat="45.4694052" lon="9.1938365" />
      <trkpt lat="45.4692323" lon="9.1940490" />
      <trkpt lat="45.4689957" lon="9.1943399" />
      <trkpt lat="45.4682072" lon="9.1952675" />
      <trkpt lat="45.4681888" lon="9.1952370" />
      <trkpt lat="45.4681822" lon="9.1952261" />
      <trkpt lat="45.4681659" lon="9.1952454" />
      <trkpt lat="45.4681579" lon="9.1952440" />
      <trkpt lat="45.4681513" lon="9.1952327" />
      <trkpt lat="45.4679060" lon="9.1948023" />
      <trkpt lat="45.4677551" lon="9.1945502" />
      <trkpt lat="45.4677528" lon="9.1945304" />
      <trkpt lat="45.4677559" lon="9.1945177" />
      <trkpt lat="45.4677550" lon="9.1945010" />
      <trkpt lat="45.4677474" lon="9.1944842" />
      <trkpt lat="45.4677436" lon="9.1944771" />
      <trkpt lat="45.4677401" lon="9.1944722" />
      <trkpt lat="45.4677211" lon="9.1944801" />
      <trkpt lat="45.4677025" lon="9.1944664" />
      <trkpt lat="45.4672540" lon="9.1936987" />
      <trkpt lat="45.4672500" lon="9.1937037" />
      <trkpt lat="45.4672239" lon="9.1937370" />
      <trkpt lat="45.4672057" lon="9.1937140" />
      <trkpt lat="45.4671836" lon="9.1936972" />
      <trkpt lat="45.4671599" lon="9.1936905" />
      <trkpt lat="45.4671339" lon="9.1936958" />
      <trkpt lat="45.4670213" lon="9.1937473" />
      <trkpt lat="45.4670011" lon="9.1937506" />
      <trkpt lat="45.4669816" lon="9.1937506" />
      <trkpt lat="45.4669762" lon="9.1938690" />
      <trkpt lat="45.4669299" lon="9.1938659" />
      <trkpt lat="45.4669038" lon="9.1938641" />
      <trkpt lat="45.4669052" lon="9.1938178" />
      <trkpt lat="45.4668995" lon="9.1937104" />
      <trkpt lat="45.4667272" lon="9.1930123" />
      <trkpt lat="45.4665460" lon="9.1931278" />
      <trkpt lat="45.4665013" lon="9.1931603" />
      <trkpt lat="45.4661673" lon="9.1933495" />
      <trkpt lat="45.4655389" lon="9.1937061" />
      <trkpt lat="45.4655273" lon="9.1937138" />
      <trkpt lat="45.4655102" lon="9.1936575" />
      <trkpt lat="45.4655006" lon="9.1936260" />
      <trkpt lat="45.4654731" lon="9.1937634" />
      <trkpt lat="45.4650889" lon="9.1939783" />
      <trkpt lat="45.4650994" lon="9.1940150" />
      <trkpt lat="45.4651035" lon="9.1940266" />
      <trkpt lat="45.4651110" lon="9.1940574" />
      <trkpt lat="45.4650840" lon="9.1940777" />
      <trkpt lat="45.4650659" lon="9.1940991" />
      <trkpt lat="45.4650350" lon="9.1941188" />
      <trkpt lat="45.4651569" lon="9.1945855" />
      <trkpt lat="45.4651731" lon="9.1946401" />
      <trkpt lat="45.4653060" lon="9.1950883" />
      <trkpt lat="45.4654030" lon="9.1954196" />
      <trkpt lat="45.4653658" lon="9.1954446" />
      <trkpt lat="45.4653539" lon="9.1954526" />
      <trkpt lat="45.4653400" lon="9.1954620" />
      <trkpt lat="45.4654905" lon="9.1959644" />
      <trkpt lat="45.4655398" lon="9.1961287" />
      <trkpt lat="45.4655512" lon="9.1961668" />
      <trkpt lat="45.4655555" lon="9.1961811" />
      <trkpt lat="45.4656468" lon="9.1964456" />
      <trkpt lat="45.4657043" lon="9.1965899" />
      <trkpt lat="45.4657151" lon="9.1966160" />
      <trkpt lat="45.4655912" lon="9.1967168" />
      <trkpt lat="45.4654785" lon="9.1968095" />
      <trkpt lat="45.4653944" lon="9.1969394" />
      <trkpt lat="45.4653325" lon="9.1970788" />
      <trkpt lat="45.4652976" lon="9.1971508" />
      <trkpt lat="45.4652717" lon="9.1972016" />
      <trkpt lat="45.4652680" lon="9.1972044" />
      <trkpt lat="45.4652863" lon="9.1972246" />
      <trkpt lat="45.4654316" lon="9.1973642" />
      <trkpt lat="45.4654650" lon="9.1973984" />
      <trkpt lat="45.4654780" lon="9.1974124" />
      <trkpt lat="45.4654936" lon="9.1974252" />
      <trkpt lat="45.4654900" lon="9.1974377" />
      <trkpt lat="45.4654634" lon="9.1974949" />
      <trkpt lat="45.4653845" lon="9.1974176" />
      <trkpt lat="45.4653590" lon="9.1973926" />
      <trkpt lat="45.4653257" lon="9.1974589" />
      <trkpt lat="45.4652945" lon="9.1975211" />
      <trkpt lat="45.4653130" lon="9.1975398" />
      <trkpt lat="45.4653981" lon="9.1976262" />
      <trkpt lat="45.4653699" lon="9.1976840" />
      <trkpt lat="45.4654627" lon="9.1977784" />
      <trkpt lat="45.4655210" lon="9.1978128" />
      <trkpt lat="45.4655628" lon="9.1978316" />
      <trkpt lat="45.4656186" lon="9.1978548" />
      <trkpt lat="45.4656330" lon="9.1978608" />
      <trkpt lat="45.4656305" lon="9.1980675" />
      <trkpt lat="45.4656290" lon="9.1981158" />
      <trkpt lat="45.4656284" lon="9.1981374" />
      <trkpt lat="45.4656205" lon="9.1982164" />
      <trkpt lat="45.4656766" lon="9.1982225" />
      <trkpt lat="45.4657547" lon="9.1982586" />
      <trkpt lat="45.4658084" lon="9.1983358" />
      <trkpt lat="45.4658213" lon="9.1983535" />
      <trkpt lat="45.4657817" lon="9.1991403" />
      <trkpt lat="45.4657740" lon="9.1993532" />
      <trkpt lat="45.4658138" lon="9.1993309" />
      <trkpt lat="45.4658392" lon="9.1993108" />
      <trkpt lat="45.4658570" lon="9.1993029" />
      <trkpt lat="45.4658897" lon="9.1992929" />
      <trkpt lat="45.4659093" lon="9.1992913" />
      <trkpt lat="45.4661227" lon="9.1992366" />
      <trkpt lat="45.4661616" lon="9.1992266" />
      <trkpt lat="45.4665151" lon="9.1991360" />
      <trkpt lat="45.4665574" lon="9.1991255" />
      <trkpt lat="45.4667445" lon="9.1990773" />
      <trkpt lat="45.4667480" lon="9.1991218" />
      <trkpt lat="45.4667507" lon="9.1991556" />
      <trkpt lat="45.4667598" lon="9.1991745" />
      <trkpt lat="45.4667690" lon="9.1991732" />
      <trkpt lat="45.4667771" lon="9.1991720" />
      <trkpt lat="45.4668129" lon="9.1991668" />
      <trkpt lat="45.4668402" lon="9.1991628" />
      <trkpt lat="45.4668438" lon="9.1991623" />
      <trkpt lat="45.4668443" lon="9.1991686" />
      <trkpt lat="45.4668440" lon="9.1991847" />
      <trkpt lat="45.4668725" lon="9.1994214" />
      <trkpt lat="45.4669543" lon="9.1999980" />
      <trkpt lat="45.4669684" lon="9.2001107" />
      <trkpt lat="45.4669962" lon="9.2001104" />
      <trkpt lat="45.4671425" lon="9.2000921" />
      <trkpt lat="45.4676437" lon="9.1997396" />
      <trkpt lat="45.4676528" lon="9.1997661" />
      <trkpt lat="45.4675451" lon="9.1998442" />
      <trkpt lat="45.4672176" lon="9.2000888" />
      <trkpt lat="45.4671720" lon="9.2001207" />
      <trkpt lat="45.4669998" lon="9.2001506" />
      <trkpt lat="45.4670006" lon="9.2001664" />
      <trkpt lat="45.4670011" lon="9.2001779" />
      <trkpt lat="45.4669837" lon="9.2001899" />
      <trkpt lat="45.4670144" lon="9.2004208" />
      <trkpt lat="45.4670537" lon="9.2004376" />
      <trkpt lat="45.4671872" lon="9.2004020" />
      <trkpt lat="45.4672598" lon="9.2003687" />
      <trkpt lat="45.4674083" lon="9.2002661" />
      <trkpt lat="45.4680870" lon="9.1997594" />
      <trkpt lat="45.4682304" lon="9.1996532" />
      <trkpt lat="45.4683023" lon="9.1995897" />
      <trkpt lat="45.4684803" lon="9.1994493" />
      <trkpt lat="45.4686627" lon="9.1992717" />
      <trkpt lat="45.4686702" lon="9.1992791" />
      <trkpt lat="45.4686961" lon="9.1993049" />
      <trkpt lat="45.4687226" lon="9.1993313" />
      <trkpt lat="45.4687797" lon="9.1993878" />
      <trkpt lat="45.4687907" lon="9.1993987" />
      <trkpt lat="45.4688492" lon="9.1993849" />
      <trkpt lat="45.4688531" lon="9.1993786" />
      <trkpt lat="45.4688792" lon="9.1993429" />
      <trkpt lat="45.4688827" lon="9.1993381" />
      <trkpt lat="45.4689251" lon="9.1992740" />
      <trkpt lat="45.4689320" lon="9.1992653" />
      <trkpt lat="45.4689631" lon="9.1992995" />
      <trkpt lat="45.4689900" lon="9.1993276" />
      <trkpt lat="45.4690134" lon="9.1993503" />
      <trkpt lat="45.4691481" lon="9.1994807" />
      <trkpt lat="45.4691861" lon="9.1995149" />
      <trkpt lat="45.4693047" lon="9.1996150" />
      <trkpt lat="45.4696106" lon="9.1998699" />
      <trkpt lat="45.4698311" lon="9.2000834" />
      <trkpt lat="45.4698806" lon="9.2001313" />
      <trkpt lat="45.4699928" lon="9.2002440" />
      <trkpt lat="45.4699849" lon="9.2002580" />
      <trkpt lat="45.4699778" lon="9.2002709" />
      <trkpt lat="45.4699369" lon="9.2003460" />
      <trkpt lat="45.4699120" lon="9.2003918" />
      <trkpt lat="45.4699038" lon="9.2004070" />
      <trkpt lat="45.4698975" lon="9.2004185" />
      <trkpt lat="45.4704772" lon="9.2010766" />
      <trkpt lat="45.4704835" lon="9.2011514" />
      <trkpt lat="45.4700680" lon="9.2016139" />
      <trkpt lat="45.4700838" lon="9.2016376" />
      <trkpt lat="45.4701325" lon="9.2017105" />
      <trkpt lat="45.4701653" lon="9.2017585" />
      <trkpt lat="45.4701876" lon="9.2017985" />
      <trkpt lat="45.4702040" lon="9.2018356" />
      <trkpt lat="45.4703182" lon="9.2026106" />
      <trkpt lat="45.4703073" lon="9.2026138" />
      <trkpt lat="45.4703102" lon="9.2026357" />
      <trkpt lat="45.4703154" lon="9.2026751" />
      <trkpt lat="45.4703217" lon="9.2027229" />
      <trkpt lat="45.4703243" lon="9.2027433" />
      <trkpt lat="45.4703055" lon="9.2027485" />
      <trkpt lat="45.4693159" lon="9.2030965" />
      <trkpt lat="45.4692996" lon="9.2031469" />
      <trkpt lat="45.4694064" lon="9.2038610" />
      <trkpt lat="45.4693956" lon="9.2038658" />
      <trkpt lat="45.4693599" lon="9.2038818" />
      <trkpt lat="45.4693228" lon="9.2038984" />
      <trkpt lat="45.4692762" lon="9.2039192" />
      <trkpt lat="45.4692553" lon="9.2039676" />
      <trkpt lat="45.4689371" lon="9.2040633" />
      <trkpt lat="45.4685233" lon="9.2041962" />
      <trkpt lat="45.4681565" lon="9.2043156" />
      <trkpt lat="45.4676666" lon="9.2044737" />
      <trkpt lat="45.4676049" lon="9.2043995" />
      <trkpt lat="45.4675848" lon="9.2043386" />
      <trkpt lat="45.4675730" lon="9.2043086" />
      <trkpt lat="45.4675288" lon="9.2040615" />
      <trkpt lat="45.4673366" lon="9.2029324" />
      <trkpt lat="45.4675288" lon="9.2040615" />
      <trkpt lat="45.4675730" lon="9.2043086" />
      <trkpt lat="45.4675848" lon="9.2043386" />
      <trkpt lat="45.4675720" lon="9.2043416" />
      <trkpt lat="45.4675677" lon="9.2043434" />
      <trkpt lat="45.4675568" lon="9.2043470" />
      <trkpt lat="45.4675087" lon="9.2043638" />
      <trkpt lat="45.4674520" lon="9.2043836" />
      <trkpt lat="45.4671270" lon="9.2044886" />
      <trkpt lat="45.4665402" lon="9.2046035" />
      <trkpt lat="45.4665423" lon="9.2046361" />
      <trkpt lat="45.4665452" lon="9.2046815" />
      <trkpt lat="45.4665461" lon="9.2046962" />
      <trkpt lat="45.4665516" lon="9.2047834" />
      <trkpt lat="45.4665518" lon="9.2047867" />
      <trkpt lat="45.4665359" lon="9.2047889" />
      <trkpt lat="45.4665664" lon="9.2053016" />
      <trkpt lat="45.4665852" lon="9.2056910" />
      <trkpt lat="45.4665889" lon="9.2057591" />
      <trkpt lat="45.4666057" lon="9.2057818" />
      <trkpt lat="45.4666272" lon="9.2057798" />
      <trkpt lat="45.4666278" lon="9.2057899" />
      <trkpt lat="45.4666304" lon="9.2058313" />
      <trkpt lat="45.4666332" lon="9.2058755" />
      <trkpt lat="45.4666409" lon="9.2059972" />
      <trkpt lat="45.4666451" lon="9.2060632" />
      <trkpt lat="45.4666492" lon="9.2061291" />
      <trkpt lat="45.4666540" lon="9.2061744" />
      <trkpt lat="45.4666573" lon="9.2062216" />
      <trkpt lat="45.4657982" lon="9.2063579" />
      <trkpt lat="45.4653128" lon="9.2064345" />
      <trkpt lat="45.4652994" lon="9.2064604" />
      <trkpt lat="45.4652859" lon="9.2064863" />
      <trkpt lat="45.4653114" lon="9.2070715" />
      <trkpt lat="45.4653272" lon="9.2070926" />
      <trkpt lat="45.4653602" lon="9.2070892" />
      <trkpt lat="45.4653610" lon="9.2071241" />
      <trkpt lat="45.4653611" lon="9.2071284" />
      <trkpt lat="45.4653612" lon="9.2071327" />
      <trkpt lat="45.4653620" lon="9.2071733" />
      <trkpt lat="45.4653625" lon="9.2071971" />
      <trkpt lat="45.4653632" lon="9.2072282" />
      <trkpt lat="45.4653635" lon="9.2072434" />
      <trkpt lat="45.4654014" lon="9.2072400" />
      <trkpt lat="45.4654028" lon="9.2072706" />
      <trkpt lat="45.4654035" lon="9.2072846" />
      <trkpt lat="45.4654045" lon="9.2073065" />
      <trkpt lat="45.4654055" lon="9.2073300" />
      <trkpt lat="45.4654091" lon="9.2074065" />
      <trkpt lat="45.4656097" lon="9.2073863" />
      <trkpt lat="45.4656244" lon="9.2074526" />
      <trkpt lat="45.4656273" lon="9.2074653" />
      <trkpt lat="45.4658128" lon="9.2082973" />
      <trkpt lat="45.4656273" lon="9.2074653" />
      <trkpt lat="45.4656244" lon="9.2074526" />
      <trkpt lat="45.4661533" lon="9.2073981" />
      <trkpt lat="45.4664853" lon="9.2073638" />
      <trkpt lat="45.4665057" lon="9.2073841" />
      <trkpt lat="45.4665205" lon="9.2086280" />
      <trkpt lat="45.4665310" lon="9.2086272" />
      <trkpt lat="45.4665644" lon="9.2086245" />
      <trkpt lat="45.4665995" lon="9.2086231" />
      <trkpt lat="45.4666182" lon="9.2086215" />
      <trkpt lat="45.4666368" lon="9.2086336" />
      <trkpt lat="45.4676927" lon="9.2085817" />
      <trkpt lat="45.4677075" lon="9.2085805" />
      <trkpt lat="45.4677087" lon="9.2086850" />
      <trkpt lat="45.4677982" lon="9.2086817" />
      <trkpt lat="45.4678512" lon="9.2086796" />
      <trkpt lat="45.4678757" lon="9.2086789" />
      <trkpt lat="45.4679113" lon="9.2086779" />
      <trkpt lat="45.4679271" lon="9.2086774" />
      <trkpt lat="45.4679989" lon="9.2086747" />
      <trkpt lat="45.4680514" lon="9.2086722" />
      <trkpt lat="45.4680511" lon="9.2086116" />
      <trkpt lat="45.4680510" lon="9.2085851" />
      <trkpt lat="45.4680587" lon="9.2085848" />
      <trkpt lat="45.4680777" lon="9.2085841" />
      <trkpt lat="45.4686628" lon="9.2085637" />
      <trkpt lat="45.4691438" lon="9.2085378" />
      <trkpt lat="45.4691190" lon="9.2071170" />
      <trkpt lat="45.4691366" lon="9.2071150" />
      <trkpt lat="45.4691795" lon="9.2071101" />
      <trkpt lat="45.4692199" lon="9.2071055" />
      <trkpt lat="45.4692318" lon="9.2071042" />
      <trkpt lat="45.4692426" lon="9.2070862" />
      <trkpt lat="45.4692611" lon="9.2070835" />
      <trkpt lat="45.4692583" lon="9.2070330" />
      <trkpt lat="45.4692572" lon="9.2070137" />
      <trkpt lat="45.4692546" lon="9.2069669" />
      <trkpt lat="45.4692176" lon="9.2069715" />
      <trkpt lat="45.4692162" lon="9.2069334" />
      <trkpt lat="45.4692143" lon="9.2068785" />
      <trkpt lat="45.4692136" lon="9.2068576" />
      <trkpt lat="45.4692126" lon="9.2068280" />
      <trkpt lat="45.4692110" lon="9.2067839" />
      <trkpt lat="45.4692099" lon="9.2067508" />
      <trkpt lat="45.4692089" lon="9.2067231" />
      <trkpt lat="45.4706172" lon="9.2065964" />
      <trkpt lat="45.4692089" lon="9.2067231" />
      <trkpt lat="45.4692099" lon="9.2067508" />
      <trkpt lat="45.4692110" lon="9.2067839" />
      <trkpt lat="45.4692126" lon="9.2068280" />
      <trkpt lat="45.4692136" lon="9.2068576" />
      <trkpt lat="45.4692143" lon="9.2068785" />
      <trkpt lat="45.4692162" lon="9.2069334" />
      <trkpt lat="45.4692176" lon="9.2069715" />
      <trkpt lat="45.4692546" lon="9.2069669" />
      <trkpt lat="45.4692572" lon="9.2070137" />
      <trkpt lat="45.4692583" lon="9.2070330" />
      <trkpt lat="45.4692611" lon="9.2070835" />
      <trkpt lat="45.4692426" lon="9.2070862" />
      <trkpt lat="45.4692318" lon="9.2071042" />
      <trkpt lat="45.4692199" lon="9.2071055" />
      <trkpt lat="45.4691795" lon="9.2071101" />
      <trkpt lat="45.4691366" lon="9.2071150" />
      <trkpt lat="45.4691190" lon="9.2071170" />
      <trkpt lat="45.4691438" lon="9.2085378" />
      <trkpt lat="45.4691565" lon="9.2085374" />
      <trkpt lat="45.4691951" lon="9.2085360" />
      <trkpt lat="45.4692401" lon="9.2085343" />
      <trkpt lat="45.4692547" lon="9.2085338" />
      <trkpt lat="45.4692550" lon="9.2085613" />
      <trkpt lat="45.4692556" lon="9.2086262" />
      <trkpt lat="45.4692562" lon="9.2086861" />
      <trkpt lat="45.4692565" lon="9.2087124" />
      <trkpt lat="45.4692706" lon="9.2101034" />
      <trkpt lat="45.4692958" lon="9.2101259" />
      <trkpt lat="45.4699564" lon="9.2101164" />
      <trkpt lat="45.4699567" lon="9.2101371" />
      <trkpt lat="45.4699574" lon="9.2101856" />
      <trkpt lat="45.4699584" lon="9.2102565" />
      <trkpt lat="45.4699587" lon="9.2102791" />
      <trkpt lat="45.4705295" lon="9.2102726" />
      <trkpt lat="45.4705947" lon="9.2102727" />
      <trkpt lat="45.4706352" lon="9.2102722" />
      <trkpt lat="45.4705947" lon="9.2102727" />
      <trkpt lat="45.4705295" lon="9.2102726" />
      <trkpt lat="45.4699587" lon="9.2102791" />
      <trkpt lat="45.4699584" lon="9.2102565" />
      <trkpt lat="45.4699574" lon="9.2101856" />
      <trkpt lat="45.4699567" lon="9.2101371" />
      <trkpt lat="45.4699564" lon="9.2101164" />
      <trkpt lat="45.4692958" lon="9.2101259" />
      <trkpt lat="45.4692706" lon="9.2101034" />
      <trkpt lat="45.4692565" lon="9.2087124" />
      <trkpt lat="45.4692562" lon="9.2086861" />
      <trkpt lat="45.4692556" lon="9.2086262" />
      <trkpt lat="45.4692550" lon="9.2085613" />
      <trkpt lat="45.4692547" lon="9.2085338" />
      <trkpt lat="45.4692401" lon="9.2085343" />
      <trkpt lat="45.4691951" lon="9.2085360" />
      <trkpt lat="45.4691565" lon="9.2085374" />
      <trkpt lat="45.4691438" lon="9.2085378" />
      <trkpt lat="45.4686628" lon="9.2085637" />
      <trkpt lat="45.4680777" lon="9.2085841" />
      <trkpt lat="45.4680587" lon="9.2085848" />
      <trkpt lat="45.4680510" lon="9.2085851" />
      <trkpt lat="45.4680511" lon="9.2086116" />
      <trkpt lat="45.4680514" lon="9.2086722" />
      <trkpt lat="45.4679989" lon="9.2086747" />
      <trkpt lat="45.4679271" lon="9.2086774" />
      <trkpt lat="45.4679113" lon="9.2086779" />
      <trkpt lat="45.4678757" lon="9.2086789" />
      <trkpt lat="45.4678512" lon="9.2086796" />
      <trkpt lat="45.4677982" lon="9.2086817" />
      <trkpt lat="45.4677087" lon="9.2086850" />
      <trkpt lat="45.4677075" lon="9.2085805" />
      <trkpt lat="45.4676927" lon="9.2085817" />
      <trkpt lat="45.4666368" lon="9.2086336" />
      <trkpt lat="45.4666182" lon="9.2086215" />
      <trkpt lat="45.4665995" lon="9.2086231" />
      <trkpt lat="45.4665644" lon="9.2086245" />
      <trkpt lat="45.4665310" lon="9.2086272" />
      <trkpt lat="45.4665205" lon="9.2086280" />
      <trkpt lat="45.4665057" lon="9.2073841" />
      <trkpt lat="45.4664853" lon="9.2073638" />
      <trkpt lat="45.4661533" lon="9.2073981" />
      <trkpt lat="45.4656244" lon="9.2074526" />
      <trkpt lat="45.4656097" lon="9.2073863" />
      <trkpt lat="45.4654091" lon="9.2074065" />
      <trkpt lat="45.4654055" lon="9.2073300" />
      <trkpt lat="45.4654045" lon="9.2073065" />
      <trkpt lat="45.4654035" lon="9.2072846" />
      <trkpt lat="45.4654028" lon="9.2072706" />
      <trkpt lat="45.4654014" lon="9.2072400" />
      <trkpt lat="45.4653635" lon="9.2072434" />
      <trkpt lat="45.4653632" lon="9.2072282" />
      <trkpt lat="45.4653625" lon="9.2071971" />
      <trkpt lat="45.4653620" lon="9.2071733" />
      <trkpt lat="45.4653612" lon="9.2071327" />
      <trkpt lat="45.4653611" lon="9.2071284" />
      <trkpt lat="45.4653610" lon="9.2071241" />
      <trkpt lat="45.4653602" lon="9.2070892" />
      <trkpt lat="45.4653272" lon="9.2070926" />
      <trkpt lat="45.4653114" lon="9.2070715" />
      <trkpt lat="45.4652859" lon="9.2064863" />
      <trkpt lat="45.4652994" lon="9.2064604" />
      <trkpt lat="45.4653128" lon="9.2064345" />
      <trkpt lat="45.4657982" lon="9.2063579" />
      <trkpt lat="45.4657945" lon="9.2063102" />
      <trkpt lat="45.4657850" lon="9.2062699" />
      <trkpt lat="45.4657820" lon="9.2062199" />
      <trkpt lat="45.4657811" lon="9.2062067" />
      <trkpt lat="45.4657754" lon="9.2061177" />
      <trkpt lat="45.4657681" lon="9.2060045" />
      <trkpt lat="45.4657672" lon="9.2059907" />
      <trkpt lat="45.4657638" lon="9.2059383" />
      <trkpt lat="45.4657614" lon="9.2059003" />
      <trkpt lat="45.4657577" lon="9.2058436" />
      <trkpt lat="45.4657209" lon="9.2058488" />
      <trkpt lat="45.4656565" lon="9.2049884" />
      <trkpt lat="45.4656449" lon="9.2049917" />
      <trkpt lat="45.4656261" lon="9.2049956" />
      <trkpt lat="45.4656185" lon="9.2048861" />
      <trkpt lat="45.4656109" lon="9.2047776" />
      <trkpt lat="45.4656362" lon="9.2047747" />
      <trkpt lat="45.4656411" lon="9.2047678" />
      <trkpt lat="45.4655861" lon="9.2040008" />
      <trkpt lat="45.4656007" lon="9.2039836" />
      <trkpt lat="45.4659504" lon="9.2038841" />
      <trkpt lat="45.4662658" lon="9.2037903" />
      <trkpt lat="45.4662650" lon="9.2037814" />
      <trkpt lat="45.4662617" lon="9.2037424" />
      <trkpt lat="45.4662582" lon="9.2037025" />
      <trkpt lat="45.4662570" lon="9.2036889" />
      <trkpt lat="45.4662636" lon="9.2036712" />
      <trkpt lat="45.4662080" lon="9.2032859" />
      <trkpt lat="45.4661620" lon="9.2030327" />
      <trkpt lat="45.4661112" lon="9.2027873" />
      <trkpt lat="45.4661742" lon="9.2027610" />
      <trkpt lat="45.4662064" lon="9.2027475" />
      <trkpt lat="45.4662361" lon="9.2027351" />
      <trkpt lat="45.4663017" lon="9.2027077" />
      <trkpt lat="45.4662957" lon="9.2026738" />
      <trkpt lat="45.4662824" lon="9.2026139" />
      <trkpt lat="45.4671435" lon="9.2022678" />
      <trkpt lat="45.4671409" lon="9.2022568" />
      <trkpt lat="45.4671319" lon="9.2022175" />
      <trkpt lat="45.4671232" lon="9.2021798" />
      <trkpt lat="45.4671186" lon="9.2021645" />
      <trkpt lat="45.4671241" lon="9.2021394" />
      <trkpt lat="45.4670945" lon="9.2017691" />
      <trkpt lat="45.4670551" lon="9.2013452" />
      <trkpt lat="45.4670361" lon="9.2011309" />
      <trkpt lat="45.4669922" lon="9.2006856" />
      <trkpt lat="45.4669977" lon="9.2006858" />
      <trkpt lat="45.4670086" lon="9.2006845" />
      <trkpt lat="45.4670396" lon="9.2006792" />
      <trkpt lat="45.4670500" lon="9.2006738" />
      <trkpt lat="45.4670987" lon="9.2006253" />
      <trkpt lat="45.4670947" lon="9.2006088" />
      <trkpt lat="45.4670736" lon="9.2005221" />
      <trkpt lat="45.4670664" lon="9.2004907" />
      <trkpt lat="45.4670570" lon="9.2004512" />
      <trkpt lat="45.4670537" lon="9.2004376" />
      <trkpt lat="45.4670144" lon="9.2004208" />
      <trkpt lat="45.4669837" lon="9.2001899" />
      <trkpt lat="45.4670011" lon="9.2001779" />
      <trkpt lat="45.4670006" lon="9.2001664" />
      <trkpt lat="45.4669998" lon="9.2001506" />
      <trkpt lat="45.4669972" lon="9.2001217" />
      <trkpt lat="45.4669962" lon="9.2001104" />
      <trkpt lat="45.4669684" lon="9.2001107" />
      <trkpt lat="45.4669543" lon="9.1999980" />
      <trkpt lat="45.4668725" lon="9.1994214" />
      <trkpt lat="45.4668440" lon="9.1991847" />
      <trkpt lat="45.4668443" lon="9.1991686" />
      <trkpt lat="45.4668438" lon="9.1991623" />
      <trkpt lat="45.4668402" lon="9.1991628" />
      <trkpt lat="45.4668129" lon="9.1991668" />
      <trkpt lat="45.4667771" lon="9.1991720" />
      <trkpt lat="45.4667690" lon="9.1991732" />
      <trkpt lat="45.4667598" lon="9.1991745" />
      <trkpt lat="45.4667507" lon="9.1991556" />
      <trkpt lat="45.4667480" lon="9.1991218" />
      <trkpt lat="45.4667445" lon="9.1990773" />
      <trkpt lat="45.4665574" lon="9.1991255" />
      <trkpt lat="45.4665151" lon="9.1991360" />
      <trkpt lat="45.4661616" lon="9.1992266" />
      <trkpt lat="45.4661227" lon="9.1992366" />
      <trkpt lat="45.4659093" lon="9.1992913" />
      <trkpt lat="45.4658897" lon="9.1992929" />
      <trkpt lat="45.4658570" lon="9.1993029" />
      <trkpt lat="45.4658392" lon="9.1993108" />
      <trkpt lat="45.4658138" lon="9.1993309" />
      <trkpt lat="45.4657740" lon="9.1993532" />
      <trkpt lat="45.4657817" lon="9.1991403" />
      <trkpt lat="45.4658213" lon="9.1983535" />
      <trkpt lat="45.4658084" lon="9.1983358" />
      <trkpt lat="45.4657547" lon="9.1982586" />
      <trkpt lat="45.4656766" lon="9.1982225" />
      <trkpt lat="45.4656205" lon="9.1982164" />
      <trkpt lat="45.4656284" lon="9.1981374" />
      <trkpt lat="45.4656290" lon="9.1981158" />
      <trkpt lat="45.4656305" lon="9.1980675" />
      <trkpt lat="45.4656330" lon="9.1978608" />
      <trkpt lat="45.4656186" lon="9.1978548" />
      <trkpt lat="45.4655628" lon="9.1978316" />
      <trkpt lat="45.4655210" lon="9.1978128" />
      <trkpt lat="45.4654627" lon="9.1977784" />
      <trkpt lat="45.4653699" lon="9.1976840" />
      <trkpt lat="45.4653981" lon="9.1976262" />
      <trkpt lat="45.4653130" lon="9.1975398" />
      <trkpt lat="45.4652945" lon="9.1975211" />
      <trkpt lat="45.4653257" lon="9.1974589" />
      <trkpt lat="45.4653590" lon="9.1973926" />
      <trkpt lat="45.4653845" lon="9.1974176" />
      <trkpt lat="45.4654634" lon="9.1974949" />
      <trkpt lat="45.4654900" lon="9.1974377" />
      <trkpt lat="45.4654936" lon="9.1974252" />
      <trkpt lat="45.4654780" lon="9.1974124" />
      <trkpt lat="45.4654650" lon="9.1973984" />
      <trkpt lat="45.4654316" lon="9.1973642" />
      <trkpt lat="45.4652863" lon="9.1972246" />
      <trkpt lat="45.4652680" lon="9.1972044" />
      <trkpt lat="45.4652717" lon="9.1972016" />
      <trkpt lat="45.4652976" lon="9.1971508" />
      <trkpt lat="45.4653325" lon="9.1970788" />
      <trkpt lat="45.4653944" lon="9.1969394" />
      <trkpt lat="45.4654785" lon="9.1968095" />
      <trkpt lat="45.4655912" lon="9.1967168" />
      <trkpt lat="45.4657151" lon="9.1966160" />
      <trkpt lat="45.4657043" lon="9.1965899" />
      <trkpt lat="45.4656468" lon="9.1964456" />
      <trkpt lat="45.4655555" lon="9.1961811" />
      <trkpt lat="45.4655512" lon="9.1961668" />
      <trkpt lat="45.4655398" lon="9.1961287" />
      <trkpt lat="45.4654905" lon="9.1959644" />
      <trkpt lat="45.4653400" lon="9.1954620" />
      <trkpt lat="45.4653539" lon="9.1954526" />
      <trkpt lat="45.4653658" lon="9.1954446" />
      <trkpt lat="45.4654030" lon="9.1954196" />
      <trkpt lat="45.4653060" lon="9.1950883" />
      <trkpt lat="45.4651731" lon="9.1946401" />
      <trkpt lat="45.4651569" lon="9.1945855" />
      <trkpt lat="45.4650350" lon="9.1941188" />
      <trkpt lat="45.4650659" lon="9.1940991" />
      <trkpt lat="45.4650840" lon="9.1940777" />
      <trkpt lat="45.4651110" lon="9.1940574" />
      <trkpt lat="45.4651035" lon="9.1940266" />
      <trkpt lat="45.4650994" lon="9.1940150" />
      <trkpt lat="45.4650889" lon="9.1939783" />
      <trkpt lat="45.4654731" lon="9.1937634" />
      <trkpt lat="45.4655006" lon="9.1936260" />
      <trkpt lat="45.4655102" lon="9.1936575" />
      <trkpt lat="45.4655273" lon="9.1937138" />
      <trkpt lat="45.4655389" lon="9.1937061" />
      <trkpt lat="45.4661673" lon="9.1933495" />
      <trkpt lat="45.4665013" lon="9.1931603" />
      <trkpt lat="45.4665460" lon="9.1931278" />
      <trkpt lat="45.4667272" lon="9.1930123" />
      <trkpt lat="45.4667478" lon="9.1929911" />
      <trkpt lat="45.4667725" lon="9.1929656" />
      <trkpt lat="45.4668101" lon="9.1929268" />
      <trkpt lat="45.4668283" lon="9.1929081" />
      <trkpt lat="45.4668192" lon="9.1928814" />
      <trkpt lat="45.4667960" lon="9.1928131" />
      <trkpt lat="45.4667754" lon="9.1927526" />
      <trkpt lat="45.4667671" lon="9.1927284" />
      <trkpt lat="45.4668817" lon="9.1926629" />
      <trkpt lat="45.4669426" lon="9.1925007" />
      <trkpt lat="45.4669462" lon="9.1924713" />
      <trkpt lat="45.4670104" lon="9.1917909" />
      <trkpt lat="45.4670030" lon="9.1916877" />
      <trkpt lat="45.4669271" lon="9.1915083" />
      <trkpt lat="45.4667714" lon="9.1912790" />
      <trkpt lat="45.4667279" lon="9.1912150" />
      <trkpt lat="45.4667157" lon="9.1912083" />
      <trkpt lat="45.4666918" lon="9.1911944" />
      <trkpt lat="45.4666614" lon="9.1911756" />
      <trkpt lat="45.4665187" lon="9.1910906" />
      <trkpt lat="45.4664131" lon="9.1910960" />
      <trkpt lat="45.4661683" lon="9.1908029" />
      <trkpt lat="45.4661480" lon="9.1907788" />
      <trkpt lat="45.4661236" lon="9.1907498" />
      <trkpt lat="45.4660482" lon="9.1908736" />
      <trkpt lat="45.4660304" lon="9.1909037" />
      <trkpt lat="45.4659541" lon="9.1908131" />
      <trkpt lat="45.4659350" lon="9.1908475" />
      <trkpt lat="45.4658665" lon="9.1907643" />
      <trkpt lat="45.4658150" lon="9.1907649" />
      <trkpt lat="45.4656131" lon="9.1907635" />
      <trkpt lat="45.4656127" lon="9.1908102" />
      <trkpt lat="45.4655760" lon="9.1908105" />
      <trkpt lat="45.4655683" lon="9.1908105" />
      <trkpt lat="45.4650063" lon="9.1908178" />
      <trkpt lat="45.4649958" lon="9.1908180" />
      <trkpt lat="45.4649955" lon="9.1907816" />
      <trkpt lat="45.4649955" lon="9.1907749" />
      <trkpt lat="45.4649955" lon="9.1907679" />
      <trkpt lat="45.4649417" lon="9.1907691" />
      <trkpt lat="45.4648336" lon="9.1907690" />
      <trkpt lat="45.4647643" lon="9.1907699" />
      <trkpt lat="45.4647559" lon="9.1906084" />
      <trkpt lat="45.4646621" lon="9.1904786" />
      <trkpt lat="45.4646642" lon="9.1904112" />
      <trkpt lat="45.4646652" lon="9.1903590" />
      <trkpt lat="45.4646754" lon="9.1903204" />
      <trkpt lat="45.4647043" lon="9.1902113" />
      <trkpt lat="45.4647072" lon="9.1899825" />
      <trkpt lat="45.4647068" lon="9.1899577" />
      <trkpt lat="45.4646887" lon="9.1899578" />
      <trkpt lat="45.4646869" lon="9.1898648" />
      <trkpt lat="45.4646924" lon="9.1898648" />
      <trkpt lat="45.4646926" lon="9.1898024" />
      <trkpt lat="45.4646857" lon="9.1897645" />
      <trkpt lat="45.4646652" lon="9.1897485" />
      <trkpt lat="45.4646058" lon="9.1897460" />
      <trkpt lat="45.4645897" lon="9.1897690" />
      <trkpt lat="45.4645895" lon="9.1898041" />
      <trkpt lat="45.4645894" lon="9.1898161" />
      <trkpt lat="45.4645892" lon="9.1898476" />
      <trkpt lat="45.4645891" lon="9.1898632" />
      <trkpt lat="45.4645547" lon="9.1898629" />
      <trkpt lat="45.4645547" lon="9.1898439" />
      <trkpt lat="45.4645471" lon="9.1898437" />
      <trkpt lat="45.4645044" lon="9.1898425" />
      <trkpt lat="45.4644741" lon="9.1898729" />
      <trkpt lat="45.4644313" lon="9.1898582" />
      <trkpt lat="45.4643695" lon="9.1897716" />
      <trkpt lat="45.4643626" lon="9.1896728" />
      <trkpt lat="45.4643635" lon="9.1895749" />
      <trkpt lat="45.4643720" lon="9.1889427" />
      <trkpt lat="45.4643722" lon="9.1888592" />
      <trkpt lat="45.4643723" lon="9.1888159" />
      <trkpt lat="45.4643724" lon="9.1887782" />
      <trkpt lat="45.4643724" lon="9.1887658" />
      <trkpt lat="45.4640733" lon="9.1887653" />
      <trkpt lat="45.4640732" lon="9.1887261" />
      <trkpt lat="45.4640730" lon="9.1885803" />
      <trkpt lat="45.4639940" lon="9.1885801" />
      <trkpt lat="45.4639323" lon="9.1885800" />
      <trkpt lat="45.4639325" lon="9.1887286" />
      <trkpt lat="45.4639324" lon="9.1887626" />
      <trkpt lat="45.4639324" lon="9.1887924" />
      <trkpt lat="45.4639324" lon="9.1888020" />
      <trkpt lat="45.4641133" lon="9.1888034" />
      <trkpt lat="45.4641131" lon="9.1888335" />
      <trkpt lat="45.4641128" lon="9.1889054" />
      <trkpt lat="45.4641127" lon="9.1889147" />
      <trkpt lat="45.4640993" lon="9.1889147" />
      <trkpt lat="45.4638167" lon="9.1889146" />
      <trkpt lat="45.4638002" lon="9.1889146" />
      <trkpt lat="45.4638000" lon="9.1889344" />
      <trkpt lat="45.4637998" lon="9.1889533" />
      <trkpt lat="45.4637982" lon="9.1890213" />
      <trkpt lat="45.4637319" lon="9.1890225" />
      <trkpt lat="45.4637329" lon="9.1889492" />
      <trkpt lat="45.4637332" lon="9.1889265" />
      <trkpt lat="45.4637335" lon="9.1889066" />
      <trkpt lat="45.4637338" lon="9.1888841" />
      <trkpt lat="45.4637344" lon="9.1888372" />
      <trkpt lat="45.4637362" lon="9.1887051" />
      <trkpt lat="45.4637368" lon="9.1886597" />
      <trkpt lat="45.4637017" lon="9.1885182" />
      <trkpt lat="45.4636976" lon="9.1884988" />
      <trkpt lat="45.4636687" lon="9.1883914" />
      <trkpt lat="45.4637155" lon="9.1881595" />
      <trkpt lat="45.4637869" lon="9.1880588" />
      <trkpt lat="45.4638130" lon="9.1880219" />
      <trkpt lat="45.4638410" lon="9.1879824" />
      <trkpt lat="45.4638534" lon="9.1879133" />
      <trkpt lat="45.4640458" lon="9.1876546" />
      <trkpt lat="45.4640503" lon="9.1876143" />
      <trkpt lat="45.4637986" lon="9.1871957" />
      <trkpt lat="45.4637096" lon="9.1870552" />
      <trkpt lat="45.4636940" lon="9.1870276" />
      <trkpt lat="45.4636711" lon="9.1870547" />
      <trkpt lat="45.4636540" lon="9.1870283" />
      <trkpt lat="45.4636356" lon="9.1869996" />
      <trkpt lat="45.4636189" lon="9.1869739" />
      <trkpt lat="45.4636160" lon="9.1869693" />
      <trkpt lat="45.4637075" lon="9.1868512" />
      <trkpt lat="45.4639535" lon="9.1865186" />
      <trkpt lat="45.4639629" lon="9.1865036" />
      <trkpt lat="45.4639822" lon="9.1864730" />
      <trkpt lat="45.4639948" lon="9.1864529" />
      <trkpt lat="45.4639955" lon="9.1864518" />
      <trkpt lat="45.4640124" lon="9.1864160" />
      <trkpt lat="45.4640244" lon="9.1864194" />
      <trkpt lat="45.4645027" lon="9.1854960" />
      <trkpt lat="45.4645321" lon="9.1854333" />
      <trkpt lat="45.4645140" lon="9.1852547" />
      <trkpt lat="45.4645051" lon="9.1852421" />
      <trkpt lat="45.4641755" lon="9.1847441" />
      <trkpt lat="45.4641500" lon="9.1847118" />
      <trkpt lat="45.4641328" lon="9.1846971" />
      <trkpt lat="45.4641062" lon="9.1846898" />
      <trkpt lat="45.4640858" lon="9.1846654" />
      <trkpt lat="45.4640621" lon="9.1846372" />
      <trkpt lat="45.4640397" lon="9.1846104" />
      <trkpt lat="45.4640324" lon="9.1846009" />
      <trkpt lat="45.4640674" lon="9.1845321" />
      <trkpt lat="45.4640628" lon="9.1845173" />
      <trkpt lat="45.4635760" lon="9.1839169" />
      <trkpt lat="45.4635800" lon="9.1839142" />
      <trkpt lat="45.4636026" lon="9.1838996" />
      <trkpt lat="45.4636255" lon="9.1838867" />
      <trkpt lat="45.4636394" lon="9.1838754" />
      <trkpt lat="45.4636398" lon="9.1838373" />
      <trkpt lat="45.4636268" lon="9.1838167" />
      <trkpt lat="45.4635970" lon="9.1837705" />
      <trkpt lat="45.4635840" lon="9.1837502" />
      <trkpt lat="45.4635814" lon="9.1837283" />
      <trkpt lat="45.4635622" lon="9.1837232" />
      <trkpt lat="45.4635251" lon="9.1836636" />
      <trkpt lat="45.4634845" lon="9.1836108" />
      <trkpt lat="45.4633599" lon="9.1831624" />
      <trkpt lat="45.4632978" lon="9.1829252" />
      <trkpt lat="45.4632804" lon="9.1828588" />
      <trkpt lat="45.4632023" lon="9.1825682" />
      <trkpt lat="45.4632606" lon="9.1825218" />
      <trkpt lat="45.4633418" lon="9.1824702" />
      <trkpt lat="45.4634246" lon="9.1824205" />
      <trkpt lat="45.4634314" lon="9.1823875" />
      <trkpt lat="45.4634798" lon="9.1823508" />
      <trkpt lat="45.4635537" lon="9.1822897" />
      <trkpt lat="45.4635524" lon="9.1822867" />
      <trkpt lat="45.4635460" lon="9.1822722" />
      <trkpt lat="45.4636177" lon="9.1822244" />
      <trkpt lat="45.4636494" lon="9.1822044" />
      <trkpt lat="45.4637311" lon="9.1821529" />
      <trkpt lat="45.4638790" lon="9.1820598" />
      <trkpt lat="45.4640194" lon="9.1819714" />
      <trkpt lat="45.4642040" lon="9.1819277" />
      <trkpt lat="45.4642757" lon="9.1819282" />
      <trkpt lat="45.4644448" lon="9.1819257" />
      <trkpt lat="45.4645875" lon="9.1819235" />
      <trkpt lat="45.4647436" lon="9.1818899" />
      <trkpt lat="45.4647428" lon="9.1818676" />
      <trkpt lat="45.4647425" lon="9.1818589" />
      <trkpt lat="45.4647587" lon="9.1818543" />
      <trkpt lat="45.4648360" lon="9.1818093" />
      <trkpt lat="45.4649604" lon="9.1816476" />
      <trkpt lat="45.4653880" lon="9.1809804" />
      <trkpt lat="45.4654339" lon="9.1809100" />
      <trkpt lat="45.4654426" lon="9.1807138" />
      <trkpt lat="45.4654885" lon="9.1807385" />
      <trkpt lat="45.4655172" lon="9.1806653" />
      <trkpt lat="45.4655696" lon="9.1805314" />
      <trkpt lat="45.4655801" lon="9.1804172" />
      <trkpt lat="45.4655820" lon="9.1803966" />
      <trkpt lat="45.4655838" lon="9.1803732" />
      <trkpt lat="45.4655878" lon="9.1803387" />
      <trkpt lat="45.4655889" lon="9.1803058" />
      <trkpt lat="45.4656299" lon="9.1797701" />
      <trkpt lat="45.4656547" lon="9.1796571" />
      <trkpt lat="45.4656665" lon="9.1791901" />
      <trkpt lat="45.4656675" lon="9.1791487" />
      <trkpt lat="45.4656671" lon="9.1791195" />
      <trkpt lat="45.4656679" lon="9.1790830" />
      <trkpt lat="45.4656681" lon="9.1790589" />
      <trkpt lat="45.4656674" lon="9.1790380" />
      <trkpt lat="45.4656583" lon="9.1788172" />
      <trkpt lat="45.4656589" lon="9.1784093" />
      <trkpt lat="45.4656737" lon="9.1782788" />
      <trkpt lat="45.4656780" lon="9.1782410" />
      <trkpt lat="45.4656803" lon="9.1782255" />
      <trkpt lat="45.4656891" lon="9.1781678" />
      <trkpt lat="45.4656973" lon="9.1781136" />
      <trkpt lat="45.4656986" lon="9.1781048" />
      <trkpt lat="45.4657040" lon="9.1780688" />
      <trkpt lat="45.4656669" lon="9.1780486" />
      <trkpt lat="45.4656652" lon="9.1780455" />
      <trkpt lat="45.4656499" lon="9.1780244" />
      <trkpt lat="45.4656351" lon="9.1780039" />
      <trkpt lat="45.4656337" lon="9.1780019" />
      <trkpt lat="45.4656195" lon="9.1779814" />
      <trkpt lat="45.4656083" lon="9.1779988" />
      <trkpt lat="45.4655793" lon="9.1780058" />
      <trkpt lat="45.4654633" lon="9.1780121" />
      <trkpt lat="45.4653740" lon="9.1779133" />
      <trkpt lat="45.4653030" lon="9.1778310" />
      <trkpt lat="45.4649497" lon="9.1770978" />
      <trkpt lat="45.4649146" lon="9.1771322" />
      <trkpt lat="45.4642123" lon="9.1756765" />
      <trkpt lat="45.4641880" lon="9.1757024" />
      <trkpt lat="45.4641864" lon="9.1757042" />
      <trkpt lat="45.4641549" lon="9.1756992" />
      <trkpt lat="45.4636901" lon="9.1761287" />
      <trkpt lat="45.4641549" lon="9.1756992" />
      <trkpt lat="45.4641864" lon="9.1757042" />
      <trkpt lat="45.4641880" lon="9.1757024" />
      <trkpt lat="45.4642123" lon="9.1756765" />
      <trkpt lat="45.4642486" lon="9.1756407" />
      <trkpt lat="45.4642564" lon="9.1756335" />
      <trkpt lat="45.4642765" lon="9.1754080" />
      <trkpt lat="45.4645614" lon="9.1754631" />
      <trkpt lat="45.4646539" lon="9.1754626" />
      <trkpt lat="45.4653488" lon="9.1758014" />
      <trkpt lat="45.4654931" lon="9.1758862" />
      <trkpt lat="45.4655026" lon="9.1759005" />
      <trkpt lat="45.4655046" lon="9.1758934" />
      <trkpt lat="45.4655158" lon="9.1758551" />
      <trkpt lat="45.4655398" lon="9.1758736" />
      <trkpt lat="45.4657341" lon="9.1757570" />
      <trkpt lat="45.4657488" lon="9.1757476" />
      <trkpt lat="45.4657674" lon="9.1757833" />
      <trkpt lat="45.4657729" lon="9.1757939" />
      <trkpt lat="45.4657928" lon="9.1757945" />
      <trkpt lat="45.4658662" lon="9.1758512" />
      <trkpt lat="45.4658773" lon="9.1758744" />
      <trkpt lat="45.4658805" lon="9.1759052" />
      <trkpt lat="45.4658909" lon="9.1759095" />
      <trkpt lat="45.4659421" lon="9.1759305" />
      <trkpt lat="45.4659555" lon="9.1759373" />
      <trkpt lat="45.4659603" lon="9.1759397" />
      <trkpt lat="45.4659692" lon="9.1759443" />
      <trkpt lat="45.4659811" lon="9.1759502" />
      <trkpt lat="45.4660097" lon="9.1759643" />
      <trkpt lat="45.4660353" lon="9.1759776" />
      <trkpt lat="45.4660458" lon="9.1759829" />
      <trkpt lat="45.4661334" lon="9.1759442" />
      <trkpt lat="45.4661378" lon="9.1759290" />
      <trkpt lat="45.4661610" lon="9.1758484" />
      <trkpt lat="45.4661664" lon="9.1758296" />
      <trkpt lat="45.4661705" lon="9.1758153" />
      <trkpt lat="45.4661754" lon="9.1757982" />
      <trkpt lat="45.4661767" lon="9.1757935" />
      <trkpt lat="45.4662029" lon="9.1757025" />
      <trkpt lat="45.4662060" lon="9.1756918" />
      <trkpt lat="45.4662029" lon="9.1757025" />
      <trkpt lat="45.4661767" lon="9.1757935" />
      <trkpt lat="45.4661754" lon="9.1757982" />
      <trkpt lat="45.4661705" lon="9.1758153" />
      <trkpt lat="45.4661664" lon="9.1758296" />
      <trkpt lat="45.4661610" lon="9.1758484" />
      <trkpt lat="45.4661378" lon="9.1759290" />
      <trkpt lat="45.4661334" lon="9.1759442" />
      <trkpt lat="45.4660458" lon="9.1759829" />
      <trkpt lat="45.4660353" lon="9.1759776" />
      <trkpt lat="45.4660097" lon="9.1759643" />
      <trkpt lat="45.4659811" lon="9.1759502" />
      <trkpt lat="45.4659692" lon="9.1759443" />
      <trkpt lat="45.4659603" lon="9.1759397" />
      <trkpt lat="45.4659555" lon="9.1759373" />
      <trkpt lat="45.4659421" lon="9.1759305" />
      <trkpt lat="45.4658909" lon="9.1759095" />
      <trkpt lat="45.4658805" lon="9.1759052" />
      <trkpt lat="45.4658773" lon="9.1758744" />
      <trkpt lat="45.4658662" lon="9.1758512" />
      <trkpt lat="45.4657928" lon="9.1757945" />
      <trkpt lat="45.4657729" lon="9.1757939" />
      <trkpt lat="45.4657674" lon="9.1757833" />
      <trkpt lat="45.4657488" lon="9.1757476" />
      <trkpt lat="45.4657341" lon="9.1757570" />
      <trkpt lat="45.4655398" lon="9.1758736" />
      <trkpt lat="45.4655158" lon="9.1758551" />
      <trkpt lat="45.4655046" lon="9.1758934" />
      <trkpt lat="45.4655026" lon="9.1759005" />
      <trkpt lat="45.4655475" lon="9.1759680" />
      <trkpt lat="45.4655523" lon="9.1761892" />
      <trkpt lat="45.4655501" lon="9.1764015" />
      <trkpt lat="45.4656220" lon="9.1764042" />
      <trkpt lat="45.4656590" lon="9.1764056" />
      <trkpt lat="45.4659311" lon="9.1764556" />
      <trkpt lat="45.4659751" lon="9.1768703" />
      <trkpt lat="45.4659388" lon="9.1773255" />
      <trkpt lat="45.4657886" lon="9.1777190" />
      <trkpt lat="45.4656195" lon="9.1779814" />
      <trkpt lat="45.4656337" lon="9.1780019" />
      <trkpt lat="45.4656351" lon="9.1780039" />
      <trkpt lat="45.4656499" lon="9.1780244" />
      <trkpt lat="45.4656652" lon="9.1780455" />
      <trkpt lat="45.4656669" lon="9.1780486" />
      <trkpt lat="45.4657040" lon="9.1780688" />
      <trkpt lat="45.4656986" lon="9.1781048" />
      <trkpt lat="45.4656973" lon="9.1781136" />
      <trkpt lat="45.4656891" lon="9.1781678" />
      <trkpt lat="45.4656803" lon="9.1782255" />
      <trkpt lat="45.4656780" lon="9.1782410" />
      <trkpt lat="45.4656737" lon="9.1782788" />
      <trkpt lat="45.4656589" lon="9.1784093" />
      <trkpt lat="45.4656583" lon="9.1788172" />
      <trkpt lat="45.4656674" lon="9.1790380" />
      <trkpt lat="45.4656681" lon="9.1790589" />
      <trkpt lat="45.4656679" lon="9.1790830" />
      <trkpt lat="45.4656671" lon="9.1791195" />
      <trkpt lat="45.4656675" lon="9.1791487" />
      <trkpt lat="45.4656665" lon="9.1791901" />
      <trkpt lat="45.4656547" lon="9.1796571" />
      <trkpt lat="45.4656299" lon="9.1797701" />
      <trkpt lat="45.4655889" lon="9.1803058" />
      <trkpt lat="45.4655878" lon="9.1803387" />
      <trkpt lat="45.4655838" lon="9.1803732" />
      <trkpt lat="45.4655820" lon="9.1803966" />
      <trkpt lat="45.4655801" lon="9.1804172" />
      <trkpt lat="45.4655696" lon="9.1805314" />
      <trkpt lat="45.4655172" lon="9.1806653" />
      <trkpt lat="45.4655696" lon="9.1805314" />
      <trkpt lat="45.4655801" lon="9.1804172" />
      <trkpt lat="45.4655820" lon="9.1803966" />
      <trkpt lat="45.4655838" lon="9.1803732" />
      <trkpt lat="45.4655878" lon="9.1803387" />
      <trkpt lat="45.4656146" lon="9.1803259" />
      <trkpt lat="45.4656369" lon="9.1803141" />
      <trkpt lat="45.4656477" lon="9.1803101" />
      <trkpt lat="45.4656667" lon="9.1803010" />
      <trkpt lat="45.4657091" lon="9.1802807" />
      <trkpt lat="45.4657214" lon="9.1802748" />
      <trkpt lat="45.4657262" lon="9.1803245" />
      <trkpt lat="45.4657543" lon="9.1803939" />
      <trkpt lat="45.4657699" lon="9.1804120" />
      <trkpt lat="45.4659914" lon="9.1805565" />
      <trkpt lat="45.4659966" lon="9.1805597" />
      <trkpt lat="45.4660122" lon="9.1805691" />
      <trkpt lat="45.4660573" lon="9.1805965" />
      <trkpt lat="45.4660628" lon="9.1805998" />
      <trkpt lat="45.4667462" lon="9.1812225" />
      <trkpt lat="45.4660628" lon="9.1805998" />
      <trkpt lat="45.4660573" lon="9.1805965" />
      <trkpt lat="45.4660122" lon="9.1805691" />
      <trkpt lat="45.4659966" lon="9.1805597" />
      <trkpt lat="45.4659914" lon="9.1805565" />
      <trkpt lat="45.4657699" lon="9.1804120" />
      <trkpt lat="45.4657543" lon="9.1803939" />
      <trkpt lat="45.4657262" lon="9.1803245" />
      <trkpt lat="45.4657214" lon="9.1802748" />
      <trkpt lat="45.4657091" lon="9.1802807" />
      <trkpt lat="45.4656667" lon="9.1803010" />
      <trkpt lat="45.4656477" lon="9.1803101" />
      <trkpt lat="45.4656369" lon="9.1803141" />
      <trkpt lat="45.4656146" lon="9.1803259" />
      <trkpt lat="45.4655878" lon="9.1803387" />
      <trkpt lat="45.4655838" lon="9.1803732" />
      <trkpt lat="45.4655820" lon="9.1803966" />
      <trkpt lat="45.4655801" lon="9.1804172" />
      <trkpt lat="45.4655696" lon="9.1805314" />
      <trkpt lat="45.4655172" lon="9.1806653" />
      <trkpt lat="45.4654885" lon="9.1807385" />
      <trkpt lat="45.4654426" lon="9.1807138" />
      <trkpt lat="45.4654339" lon="9.1809100" />
      <trkpt lat="45.4653880" lon="9.1809804" />
      <trkpt lat="45.4649604" lon="9.1816476" />
      <trkpt lat="45.4648360" lon="9.1818093" />
      <trkpt lat="45.4647587" lon="9.1818543" />
      <trkpt lat="45.4647425" lon="9.1818589" />
      <trkpt lat="45.4647428" lon="9.1818676" />
      <trkpt lat="45.4647436" lon="9.1818899" />
      <trkpt lat="45.4645875" lon="9.1819235" />
      <trkpt lat="45.4644448" lon="9.1819257" />
      <trkpt lat="45.4642757" lon="9.1819282" />
      <trkpt lat="45.4642040" lon="9.1819277" />
      <trkpt lat="45.4640194" lon="9.1819714" />
      <trkpt lat="45.4638790" lon="9.1820598" />
      <trkpt lat="45.4637311" lon="9.1821529" />
      <trkpt lat="45.4636494" lon="9.1822044" />
      <trkpt lat="45.4636177" lon="9.1822244" />
      <trkpt lat="45.4635460" lon="9.1822722" />
      <trkpt lat="45.4635524" lon="9.1822867" />
      <trkpt lat="45.4635537" lon="9.1822897" />
      <trkpt lat="45.4634798" lon="9.1823508" />
      <trkpt lat="45.4634314" lon="9.1823875" />
      <trkpt lat="45.4634246" lon="9.1824205" />
      <trkpt lat="45.4633418" lon="9.1824702" />
      <trkpt lat="45.4632606" lon="9.1825218" />
      <trkpt lat="45.4632023" lon="9.1825682" />
      <trkpt lat="45.4632804" lon="9.1828588" />
      <trkpt lat="45.4632978" lon="9.1829252" />
      <trkpt lat="45.4633599" lon="9.1831624" />
      <trkpt lat="45.4634845" lon="9.1836108" />
      <trkpt lat="45.4635251" lon="9.1836636" />
      <trkpt lat="45.4635622" lon="9.1837232" />
      <trkpt lat="45.4635814" lon="9.1837283" />
      <trkpt lat="45.4635840" lon="9.1837502" />
      <trkpt lat="45.4635970" lon="9.1837705" />
      <trkpt lat="45.4636268" lon="9.1838167" />
      <trkpt lat="45.4636398" lon="9.1838373" />
      <trkpt lat="45.4636394" lon="9.1838754" />
      <trkpt lat="45.4636255" lon="9.1838867" />
      <trkpt lat="45.4636026" lon="9.1838996" />
      <trkpt lat="45.4635800" lon="9.1839142" />
      <trkpt lat="45.4635760" lon="9.1839169" />
      <trkpt lat="45.4640628" lon="9.1845173" />
      <trkpt lat="45.4640674" lon="9.1845321" />
      <trkpt lat="45.4640324" lon="9.1846009" />
      <trkpt lat="45.4640397" lon="9.1846104" />
      <trkpt lat="45.4640621" lon="9.1846372" />
      <trkpt lat="45.4640858" lon="9.1846654" />
      <trkpt lat="45.4641062" lon="9.1846898" />
      <trkpt lat="45.4641328" lon="9.1846971" />
      <trkpt lat="45.4641500" lon="9.1847118" />
      <trkpt lat="45.4641755" lon="9.1847441" />
      <trkpt lat="45.4645051" lon="9.1852421" />
      <trkpt lat="45.4645140" lon="9.1852547" />
      <trkpt lat="45.4645321" lon="9.1854333" />
      <trkpt lat="45.4645027" lon="9.1854960" />
      <trkpt lat="45.4640244" lon="9.1864194" />
      <trkpt lat="45.4640124" lon="9.1864160" />
      <trkpt lat="45.4640244" lon="9.1864194" />
      <trkpt lat="45.4645027" lon="9.1854960" />
      <trkpt lat="45.4645321" lon="9.1854333" />
      <trkpt lat="45.4645140" lon="9.1852547" />
      <trkpt lat="45.4645051" lon="9.1852421" />
      <trkpt lat="45.4645121" lon="9.1852314" />
      <trkpt lat="45.4645459" lon="9.1851800" />
      <trkpt lat="45.4645753" lon="9.1851353" />
      <trkpt lat="45.4645892" lon="9.1851142" />
      <trkpt lat="45.4647592" lon="9.1853860" />
      <trkpt lat="45.4647721" lon="9.1853891" />
      <trkpt lat="45.4647776" lon="9.1853873" />
      <trkpt lat="45.4652731" lon="9.1851557" />
      <trkpt lat="45.4652746" lon="9.1851277" />
      <trkpt lat="45.4652882" lon="9.1851205" />
      <trkpt lat="45.4653216" lon="9.1851028" />
      <trkpt lat="45.4653663" lon="9.1850792" />
      <trkpt lat="45.4653785" lon="9.1850727" />
      <trkpt lat="45.4653916" lon="9.1850791" />
      <trkpt lat="45.4658997" lon="9.1848110" />
      <trkpt lat="45.4659140" lon="9.1847693" />
      <trkpt lat="45.4658664" lon="9.1842387" />
      <trkpt lat="45.4658225" lon="9.1837268" />
      <trkpt lat="45.4658317" lon="9.1837248" />
      <trkpt lat="45.4658550" lon="9.1837199" />
      <trkpt lat="45.4658729" lon="9.1837161" />
      <trkpt lat="45.4658812" lon="9.1837141" />
      <trkpt lat="45.4658912" lon="9.1837122" />
      <trkpt lat="45.4659030" lon="9.1837088" />
      <trkpt lat="45.4659007" lon="9.1836760" />
      <trkpt lat="45.4658994" lon="9.1836511" />
      <trkpt lat="45.4659185" lon="9.1836423" />
      <trkpt lat="45.4660330" lon="9.1835896" />
      <trkpt lat="45.4661398" lon="9.1835158" />
      <trkpt lat="45.4661707" lon="9.1834965" />
      <trkpt lat="45.4665082" lon="9.1832590" />
      <trkpt lat="45.4665279" lon="9.1832633" />
      <trkpt lat="45.4665645" lon="9.1832434" />
      <trkpt lat="45.4666021" lon="9.1832244" />
      <trkpt lat="45.4667028" lon="9.1833853" />
      <trkpt lat="45.4668626" lon="9.1836411" />
      <trkpt lat="45.4669092" lon="9.1837099" />
      <trkpt lat="45.4669323" lon="9.1837440" />
      <trkpt lat="45.4669592" lon="9.1837835" />
      <trkpt lat="45.4669323" lon="9.1837440" />
      <trkpt lat="45.4669092" lon="9.1837099" />
      <trkpt lat="45.4668626" lon="9.1836411" />
      <trkpt lat="45.4667028" lon="9.1833853" />
      <trkpt lat="45.4666021" lon="9.1832244" />
      <trkpt lat="45.4665645" lon="9.1832434" />
      <trkpt lat="45.4665279" lon="9.1832633" />
      <trkpt lat="45.4665082" lon="9.1832590" />
      <trkpt lat="45.4661707" lon="9.1834965" />
      <trkpt lat="45.4661398" lon="9.1835158" />
      <trkpt lat="45.4660330" lon="9.1835896" />
      <trkpt lat="45.4659185" lon="9.1836423" />
      <trkpt lat="45.4658994" lon="9.1836511" />
      <trkpt lat="45.4659007" lon="9.1836760" />
      <trkpt lat="45.4659030" lon="9.1837088" />
      <trkpt lat="45.4658912" lon="9.1837122" />
      <trkpt lat="45.4658812" lon="9.1837141" />
      <trkpt lat="45.4658729" lon="9.1837161" />
      <trkpt lat="45.4658550" lon="9.1837199" />
      <trkpt lat="45.4658317" lon="9.1837248" />
      <trkpt lat="45.4658225" lon="9.1837268" />
      <trkpt lat="45.4658664" lon="9.1842387" />
      <trkpt lat="45.4659140" lon="9.1847693" />
      <trkpt lat="45.4658997" lon="9.1848110" />
      <trkpt lat="45.4653916" lon="9.1850791" />
      <trkpt lat="45.4653785" lon="9.1850727" />
      <trkpt lat="45.4653663" lon="9.1850792" />
      <trkpt lat="45.4653216" lon="9.1851028" />
      <trkpt lat="45.4652882" lon="9.1851205" />
      <trkpt lat="45.4652746" lon="9.1851277" />
      <trkpt lat="45.4652731" lon="9.1851557" />
      <trkpt lat="45.4647776" lon="9.1853873" />
      <trkpt lat="45.4647721" lon="9.1853891" />
      <trkpt lat="45.4647592" lon="9.1853860" />
      <trkpt lat="45.4645892" lon="9.1851142" />
      <trkpt lat="45.4645753" lon="9.1851353" />
      <trkpt lat="45.4645459" lon="9.1851800" />
      <trkpt lat="45.4645121" lon="9.1852314" />
      <trkpt lat="45.4645051" lon="9.1852421" />
      <trkpt lat="45.4645140" lon="9.1852547" />
      <trkpt lat="45.4645321" lon="9.1854333" />
      <trkpt lat="45.4645027" lon="9.1854960" />
      <trkpt lat="45.4640244" lon="9.1864194" />
      <trkpt lat="45.4640124" lon="9.1864160" />
      <trkpt lat="45.4639955" lon="9.1864518" />
      <trkpt lat="45.4639948" lon="9.1864529" />
      <trkpt lat="45.4639822" lon="9.1864730" />
      <trkpt lat="45.4639629" lon="9.1865036" />
      <trkpt lat="45.4639535" lon="9.1865186" />
      <trkpt lat="45.4637075" lon="9.1868512" />
      <trkpt lat="45.4636160" lon="9.1869693" />
      <trkpt lat="45.4636189" lon="9.1869739" />
      <trkpt lat="45.4636356" lon="9.1869996" />
      <trkpt lat="45.4636540" lon="9.1870283" />
      <trkpt lat="45.4636711" lon="9.1870547" />
      <trkpt lat="45.4636940" lon="9.1870276" />
      <trkpt lat="45.4637096" lon="9.1870552" />
      <trkpt lat="45.4637986" lon="9.1871957" />
      <trkpt lat="45.4640503" lon="9.1876143" />
      <trkpt lat="45.4640458" lon="9.1876546" />
      <trkpt lat="45.4638534" lon="9.1879133" />
      <trkpt lat="45.4638410" lon="9.1879824" />
      <trkpt lat="45.4638130" lon="9.1880219" />
      <trkpt lat="45.4637869" lon="9.1880588" />
      <trkpt lat="45.4637155" lon="9.1881595" />
      <trkpt lat="45.4636687" lon="9.1883914" />
      <trkpt lat="45.4636976" lon="9.1884988" />
      <trkpt lat="45.4637017" lon="9.1885182" />
      <trkpt lat="45.4637368" lon="9.1886597" />
      <trkpt lat="45.4637362" lon="9.1887051" />
      <trkpt lat="45.4637344" lon="9.1888372" />
      <trkpt lat="45.4637338" lon="9.1888841" />
      <trkpt lat="45.4637335" lon="9.1889066" />
      <trkpt lat="45.4637332" lon="9.1889265" />
      <trkpt lat="45.4637329" lon="9.1889492" />
      <trkpt lat="45.4637319" lon="9.1890225" />
      <trkpt lat="45.4637982" lon="9.1890213" />
      <trkpt lat="45.4637998" lon="9.1889533" />
      <trkpt lat="45.4638000" lon="9.1889344" />
      <trkpt lat="45.4638002" lon="9.1889146" />
      <trkpt lat="45.4638167" lon="9.1889146" />
      <trkpt lat="45.4640993" lon="9.1889147" />
      <trkpt lat="45.4641127" lon="9.1889147" />
      <trkpt lat="45.4641126" lon="9.1889477" />
      <trkpt lat="45.4643720" lon="9.1889427" />
      <trkpt lat="45.4645017" lon="9.1889404" />
      <trkpt lat="45.4645847" lon="9.1889780" />
      <trkpt lat="45.4647157" lon="9.1891780" />
      <trkpt lat="45.4647157" lon="9.1892937" />
      <trkpt lat="45.4647148" lon="9.1893529" />
      <trkpt lat="45.4647149" lon="9.1894904" />
      <trkpt lat="45.4647154" lon="9.1895613" />
      <trkpt lat="45.4647153" lon="9.1896132" />
      <trkpt lat="45.4647024" lon="9.1896129" />
      <trkpt lat="45.4647029" lon="9.1895899" />
      <trkpt lat="45.4647069" lon="9.1895827" />
      <trkpt lat="45.4647073" lon="9.1895392" />
      <trkpt lat="45.4647074" lon="9.1895303" />
      <trkpt lat="45.4647077" lon="9.1894890" />
      <trkpt lat="45.4647078" lon="9.1894832" />
      <trkpt lat="45.4647082" lon="9.1894371" />
      <trkpt lat="45.4647041" lon="9.1894177" />
      <trkpt lat="45.4646497" lon="9.1893463" />
      <trkpt lat="45.4646499" lon="9.1893273" />
      <trkpt lat="45.4646537" lon="9.1891261" />
      <trkpt lat="45.4647267" lon="9.1892186" />
      <trkpt lat="45.4647267" lon="9.1892868" />
      <trkpt lat="45.4648485" lon="9.1892874" />
      <trkpt lat="45.4648555" lon="9.1892875" />
      <trkpt lat="45.4648556" lon="9.1893038" />
      <trkpt lat="45.4649102" lon="9.1893067" />
      <trkpt lat="45.4655431" lon="9.1893182" />
      <trkpt lat="45.4656089" lon="9.1893183" />
      <trkpt lat="45.4664449" lon="9.1893225" />
      <trkpt lat="45.4665703" lon="9.1891261" />
      <trkpt lat="45.4665764" lon="9.1891166" />
      <trkpt lat="45.4665946" lon="9.1891078" />
      <trkpt lat="45.4668742" lon="9.1894276" />
      <trkpt lat="45.4668796" lon="9.1894196" />
      <trkpt lat="45.4669126" lon="9.1893652" />
      <trkpt lat="45.4669184" lon="9.1893557" />
      <trkpt lat="45.4669297" lon="9.1893372" />
      <trkpt lat="45.4669579" lon="9.1892908" />
      <trkpt lat="45.4669756" lon="9.1892616" />
      <trkpt lat="45.4669885" lon="9.1892725" />
      <trkpt lat="45.4670014" lon="9.1892886" />
      <trkpt lat="45.4670113" lon="9.1893010" />
      <trkpt lat="45.4670302" lon="9.1893233" />
      <trkpt lat="45.4670413" lon="9.1893372" />
      <trkpt lat="45.4671681" lon="9.1894970" />
      <trkpt lat="45.4671886" lon="9.1895228" />
      <trkpt lat="45.4671878" lon="9.1895185" />
      <trkpt lat="45.4671946" lon="9.1895285" />
      <trkpt lat="45.4672789" lon="9.1896442" />
      <trkpt lat="45.4673834" lon="9.1897779" />
      <trkpt lat="45.4674090" lon="9.1898087" />
      <trkpt lat="45.4674577" lon="9.1898640" />
      <trkpt lat="45.4674613" lon="9.1898666" />
      <trkpt lat="45.4674661" lon="9.1898686" />
      <trkpt lat="45.4674715" lon="9.1898684" />
      <trkpt lat="45.4674784" lon="9.1898654" />
      <trkpt lat="45.4674846" lon="9.1898598" />
      <trkpt lat="45.4674977" lon="9.1898434" />
      <trkpt lat="45.4675073" lon="9.1898581" />
      <trkpt lat="45.4675293" lon="9.1898917" />
      <trkpt lat="45.4682648" lon="9.1888499" />
      <trkpt lat="45.4675293" lon="9.1898917" />
      <trkpt lat="45.4675073" lon="9.1898581" />
      <trkpt lat="45.4674977" lon="9.1898434" />
      <trkpt lat="45.4674846" lon="9.1898598" />
      <trkpt lat="45.4674784" lon="9.1898654" />
      <trkpt lat="45.4674715" lon="9.1898684" />
      <trkpt lat="45.4674661" lon="9.1898686" />
      <trkpt lat="45.4674613" lon="9.1898666" />
      <trkpt lat="45.4674577" lon="9.1898640" />
      <trkpt lat="45.4674090" lon="9.1898087" />
      <trkpt lat="45.4673834" lon="9.1897779" />
      <trkpt lat="45.4672789" lon="9.1896442" />
      <trkpt lat="45.4671946" lon="9.1895285" />
      <trkpt lat="45.4671878" lon="9.1895185" />
      <trkpt lat="45.4671886" lon="9.1895228" />
      <trkpt lat="45.4671681" lon="9.1894970" />
      <trkpt lat="45.4670413" lon="9.1893372" />
      <trkpt lat="45.4670302" lon="9.1893233" />
      <trkpt lat="45.4670113" lon="9.1893010" />
      <trkpt lat="45.4670014" lon="9.1892886" />
      <trkpt lat="45.4669885" lon="9.1892725" />
      <trkpt lat="45.4669756" lon="9.1892616" />
      <trkpt lat="45.4669579" lon="9.1892908" />
      <trkpt lat="45.4669297" lon="9.1893372" />
      <trkpt lat="45.4669184" lon="9.1893557" />
      <trkpt lat="45.4669126" lon="9.1893652" />
      <trkpt lat="45.4668796" lon="9.1894196" />
      <trkpt lat="45.4668742" lon="9.1894276" />
      <trkpt lat="45.4665946" lon="9.1891078" />
      <trkpt lat="45.4665764" lon="9.1891166" />
      <trkpt lat="45.4665703" lon="9.1891261" />
      <trkpt lat="45.4664449" lon="9.1893225" />
      <trkpt lat="45.4656089" lon="9.1893183" />
      <trkpt lat="45.4655431" lon="9.1893182" />
      <trkpt lat="45.4649102" lon="9.1893067" />
      <trkpt lat="45.4648556" lon="9.1893038" />
      <trkpt lat="45.4648555" lon="9.1892875" />
      <trkpt lat="45.4648485" lon="9.1892874" />
      <trkpt lat="45.4647267" lon="9.1892868" />
      <trkpt lat="45.4647267" lon="9.1892186" />
      <trkpt lat="45.4646537" lon="9.1891261" />
      <trkpt lat="45.4646499" lon="9.1893273" />
      <trkpt lat="45.4646497" lon="9.1893463" />
      <trkpt lat="45.4646490" lon="9.1895528" />
      <trkpt lat="45.4646152" lon="9.1896494" />
      <trkpt lat="45.4646065" lon="9.1896748" />
      <trkpt lat="45.4646058" lon="9.1897460" />
      <trkpt lat="45.4645897" lon="9.1897690" />
      <trkpt lat="45.4645895" lon="9.1898041" />
      <trkpt lat="45.4645894" lon="9.1898161" />
      <trkpt lat="45.4645892" lon="9.1898476" />
      <trkpt lat="45.4645891" lon="9.1898632" />
      <trkpt lat="45.4645547" lon="9.1898629" />
      <trkpt lat="45.4645547" lon="9.1898439" />
      <trkpt lat="45.4645471" lon="9.1898437" />
      <trkpt lat="45.4645044" lon="9.1898425" />
      <trkpt lat="45.4644741" lon="9.1898729" />
      <trkpt lat="45.4644313" lon="9.1898582" />
      <trkpt lat="45.4643695" lon="9.1897716" />
    </trkseg>
  </trk>
</gpx>
