<?xml version="1.0" encoding="UTF-8"?>
<gpx xmlns="http://www.topografix.com/GPX/1/1" version="1.1" creator="ShapeRoute route-engine">
  <metadata>
    <name>cloud 10 km · 2026-10-03</name>
    <author>
      <name>ShapeRoute route-engine</name>
    </author>
    <copyright author="OpenStreetMap contributors">
      <license>https://opendatacommons.org/licenses/odbl/1-0/</license>
    </copyright>
    <link href="https://www.openstreetmap.org/copyright">
      <text>© OpenStreetMap contributors</text>
    </link>
    <time>2026-10-03T20:00:40Z</time>
  </metadata>
  <trk>
    <name>cloud 10 km · 2026-10-03</name>
    <trkseg>
      <trkpt lat="45.4643695" lon="9.1897716" />
      <trkpt lat="45.4643626" lon="9.1896728" />
      <trkpt lat="45.4643635" lon="9.1895749" />
      <trkpt lat="45.4643720" lon="9.1889427" />
      <trkpt lat="45.4643722" lon="9.1888592" />
      <trkpt lat="45.4640097" lon="9.1888631" />
      <trkpt lat="45.4639928" lon="9.1888622" />
      <trkpt lat="45.4639924" lon="9.1888982" />
      <trkpt lat="45.4639923" lon="9.1889049" />
      <trkpt lat="45.4639919" lon="9.1889393" />
      <trkpt lat="45.4639917" lon="9.1889593" />
      <trkpt lat="45.4639910" lon="9.1890236" />
      <trkpt lat="45.4639341" lon="9.1890226" />
      <trkpt lat="45.4637982" lon="9.1890213" />
      <trkpt lat="45.4637319" lon="9.1890225" />
      <trkpt lat="45.4637329" lon="9.1889492" />
      <trkpt lat="45.4637332" lon="9.1889265" />
      <trkpt lat="45.4637335" lon="9.1889066" />
      <trkpt lat="45.4637338" lon="9.1888841" />
      <trkpt lat="45.4637344" lon="9.1888372" />
      <trkpt lat="45.4637362" lon="9.1887051" />
      <trkpt lat="45.4637368" lon="9.1886597" />
      <trkpt lat="45.4637017" lon="9.1885182" />
      <trkpt lat="45.4636976" lon="9.1884988" />
      <trkpt lat="45.4636687" lon="9.1883914" />
      <trkpt lat="45.4637155" lon="9.1881595" />
      <trkpt lat="45.4637869" lon="9.1880588" />
      <trkpt lat="45.4638130" lon="9.1880219" />
      <trkpt lat="45.4638410" lon="9.1879824" />
      <trkpt lat="45.4638534" lon="9.1879133" />
      <trkpt lat="45.4640458" lon="9.1876546" />
      <trkpt lat="45.4640503" lon="9.1876143" />
      <trkpt lat="45.4640568" lon="9.1876040" />
      <trkpt lat="45.4640786" lon="9.1875692" />
      <trkpt lat="45.4640993" lon="9.1875364" />
      <trkpt lat="45.4641065" lon="9.1875249" />
      <trkpt lat="45.4641254" lon="9.1875222" />
      <trkpt lat="45.4642176" lon="9.1874028" />
      <trkpt lat="45.4643507" lon="9.1872304" />
      <trkpt lat="45.4643957" lon="9.1871721" />
      <trkpt lat="45.4643960" lon="9.1871475" />
      <trkpt lat="45.4642282" lon="9.1869129" />
      <trkpt lat="45.4640490" lon="9.1866652" />
      <trkpt lat="45.4640364" lon="9.1866526" />
      <trkpt lat="45.4640477" lon="9.1866330" />
      <trkpt lat="45.4640573" lon="9.1866178" />
      <trkpt lat="45.4640723" lon="9.1865927" />
      <trkpt lat="45.4640886" lon="9.1865669" />
      <trkpt lat="45.4641068" lon="9.1865370" />
      <trkpt lat="45.4640959" lon="9.1865034" />
      <trkpt lat="45.4643241" lon="9.1860559" />
      <trkpt lat="45.4644654" lon="9.1857791" />
      <trkpt lat="45.4645713" lon="9.1855714" />
      <trkpt lat="45.4645670" lon="9.1855666" />
      <trkpt lat="45.4645128" lon="9.1855071" />
      <trkpt lat="45.4645027" lon="9.1854960" />
      <trkpt lat="45.4645321" lon="9.1854333" />
      <trkpt lat="45.4645140" lon="9.1852547" />
      <trkpt lat="45.4645051" lon="9.1852421" />
      <trkpt lat="45.4645121" lon="9.1852314" />
      <trkpt lat="45.4645459" lon="9.1851800" />
      <trkpt lat="45.4645753" lon="9.1851353" />
      <trkpt lat="45.4645892" lon="9.1851142" />
      <trkpt lat="45.4645578" lon="9.1850677" />
      <trkpt lat="45.4644566" lon="9.1843103" />
      <trkpt lat="45.4644239" lon="9.1840450" />
      <trkpt lat="45.4643870" lon="9.1837618" />
      <trkpt lat="45.4643915" lon="9.1837410" />
      <trkpt lat="45.4643891" lon="9.1837183" />
      <trkpt lat="45.4643143" lon="9.1837395" />
      <trkpt lat="45.4642502" lon="9.1831713" />
      <trkpt lat="45.4642521" lon="9.1830374" />
      <trkpt lat="45.4643350" lon="9.1828400" />
      <trkpt lat="45.4645250" lon="9.1825206" />
      <trkpt lat="45.4648062" lon="9.1820494" />
      <trkpt lat="45.4648003" lon="9.1820381" />
      <trkpt lat="45.4648054" lon="9.1820275" />
      <trkpt lat="45.4647512" lon="9.1819069" />
      <trkpt lat="45.4647466" lon="9.1818980" />
      <trkpt lat="45.4647436" lon="9.1818899" />
      <trkpt lat="45.4647428" lon="9.1818676" />
      <trkpt lat="45.4647425" lon="9.1818589" />
      <trkpt lat="45.4645940" lon="9.1819030" />
      <trkpt lat="45.4645874" lon="9.1817365" />
      <trkpt lat="45.4645932" lon="9.1817256" />
      <trkpt lat="45.4646223" lon="9.1817227" />
      <trkpt lat="45.4646132" lon="9.1815485" />
      <trkpt lat="45.4645926" lon="9.1811521" />
      <trkpt lat="45.4645502" lon="9.1807285" />
      <trkpt lat="45.4645132" lon="9.1807339" />
      <trkpt lat="45.4644856" lon="9.1804364" />
      <trkpt lat="45.4643896" lon="9.1804516" />
      <trkpt lat="45.4643420" lon="9.1804594" />
      <trkpt lat="45.4642672" lon="9.1805588" />
      <trkpt lat="45.4641819" lon="9.1806268" />
      <trkpt lat="45.4641426" lon="9.1806670" />
      <trkpt lat="45.4641337" lon="9.1806781" />
      <trkpt lat="45.4641296" lon="9.1806851" />
      <trkpt lat="45.4641266" lon="9.1806933" />
      <trkpt lat="45.4641266" lon="9.1807056" />
      <trkpt lat="45.4641266" lon="9.1807210" />
      <trkpt lat="45.4641282" lon="9.1807339" />
      <trkpt lat="45.4641306" lon="9.1807443" />
      <trkpt lat="45.4641334" lon="9.1807518" />
      <trkpt lat="45.4641301" lon="9.1807545" />
      <trkpt lat="45.4641216" lon="9.1807614" />
      <trkpt lat="45.4641104" lon="9.1807387" />
      <trkpt lat="45.4641116" lon="9.1806990" />
      <trkpt lat="45.4641130" lon="9.1806668" />
      <trkpt lat="45.4641223" lon="9.1806029" />
      <trkpt lat="45.4641283" lon="9.1804973" />
      <trkpt lat="45.4641264" lon="9.1804243" />
      <trkpt lat="45.4641080" lon="9.1801063" />
      <trkpt lat="45.4640531" lon="9.1794310" />
      <trkpt lat="45.4640491" lon="9.1793433" />
      <trkpt lat="45.4640476" lon="9.1793108" />
      <trkpt lat="45.4639609" lon="9.1793179" />
      <trkpt lat="45.4639547" lon="9.1792781" />
      <trkpt lat="45.4638392" lon="9.1785376" />
      <trkpt lat="45.4638385" lon="9.1784845" />
      <trkpt lat="45.4638494" lon="9.1784140" />
      <trkpt lat="45.4638255" lon="9.1783600" />
      <trkpt lat="45.4634815" lon="9.1776648" />
      <trkpt lat="45.4634158" lon="9.1775592" />
      <trkpt lat="45.4631940" lon="9.1771010" />
      <trkpt lat="45.4630678" lon="9.1768280" />
      <trkpt lat="45.4630943" lon="9.1768015" />
      <trkpt lat="45.4631019" lon="9.1767939" />
      <trkpt lat="45.4630997" lon="9.1767521" />
      <trkpt lat="45.4630981" lon="9.1767232" />
      <trkpt lat="45.4634010" lon="9.1764382" />
      <trkpt lat="45.4636901" lon="9.1761287" />
      <trkpt lat="45.4636888" lon="9.1761261" />
      <trkpt lat="45.4636699" lon="9.1760880" />
      <trkpt lat="45.4636633" lon="9.1760746" />
      <trkpt lat="45.4636553" lon="9.1760530" />
      <trkpt lat="45.4636755" lon="9.1760365" />
      <trkpt lat="45.4636486" lon="9.1759457" />
      <trkpt lat="45.4637969" lon="9.1752147" />
      <trkpt lat="45.4637212" lon="9.1751799" />
      <trkpt lat="45.4637258" lon="9.1751589" />
      <trkpt lat="45.4638028" lon="9.1751898" />
      <trkpt lat="45.4638117" lon="9.1751415" />
      <trkpt lat="45.4638139" lon="9.1751298" />
      <trkpt lat="45.4639232" lon="9.1746471" />
      <trkpt lat="45.4639267" lon="9.1746314" />
      <trkpt lat="45.4639348" lon="9.1745953" />
      <trkpt lat="45.4639588" lon="9.1745138" />
      <trkpt lat="45.4639731" lon="9.1744598" />
      <trkpt lat="45.4639784" lon="9.1744396" />
      <trkpt lat="45.4642958" lon="9.1732714" />
      <trkpt lat="45.4643027" lon="9.1732492" />
      <trkpt lat="45.4642873" lon="9.1732114" />
      <trkpt lat="45.4639604" lon="9.1730228" />
      <trkpt lat="45.4633016" lon="9.1726427" />
      <trkpt lat="45.4629165" lon="9.1724206" />
      <trkpt lat="45.4628194" lon="9.1723511" />
      <trkpt lat="45.4628301" lon="9.1723156" />
      <trkpt lat="45.4628368" lon="9.1722933" />
      <trkpt lat="45.4631765" lon="9.1711447" />
      <trkpt lat="45.4632216" lon="9.1709949" />
      <trkpt lat="45.4632508" lon="9.1708904" />
      <trkpt lat="45.4634363" lon="9.1702833" />
      <trkpt lat="45.4634437" lon="9.1702590" />
      <trkpt lat="45.4636005" lon="9.1697454" />
      <trkpt lat="45.4636253" lon="9.1697210" />
      <trkpt lat="45.4636291" lon="9.1697082" />
      <trkpt lat="45.4636462" lon="9.1696508" />
      <trkpt lat="45.4636608" lon="9.1696019" />
      <trkpt lat="45.4636637" lon="9.1695922" />
      <trkpt lat="45.4636557" lon="9.1695741" />
      <trkpt lat="45.4638206" lon="9.1689996" />
      <trkpt lat="45.4638398" lon="9.1689428" />
      <trkpt lat="45.4638612" lon="9.1689317" />
      <trkpt lat="45.4638708" lon="9.1689221" />
      <trkpt lat="45.4638756" lon="9.1689049" />
      <trkpt lat="45.4638889" lon="9.1688614" />
      <trkpt lat="45.4638913" lon="9.1688536" />
      <trkpt lat="45.4639253" lon="9.1687378" />
      <trkpt lat="45.4639276" lon="9.1687309" />
      <trkpt lat="45.4639477" lon="9.1686687" />
      <trkpt lat="45.4639639" lon="9.1686190" />
      <trkpt lat="45.4639682" lon="9.1686058" />
      <trkpt lat="45.4641946" lon="9.1678295" />
      <trkpt lat="45.4642064" lon="9.1678038" />
      <trkpt lat="45.4642193" lon="9.1677864" />
      <trkpt lat="45.4642275" lon="9.1677576" />
      <trkpt lat="45.4642418" lon="9.1677074" />
      <trkpt lat="45.4642587" lon="9.1676480" />
      <trkpt lat="45.4642621" lon="9.1676337" />
      <trkpt lat="45.4642887" lon="9.1675396" />
      <trkpt lat="45.4645281" lon="9.1667861" />
      <trkpt lat="45.4648265" lon="9.1657445" />
      <trkpt lat="45.4648040" lon="9.1657353" />
      <trkpt lat="45.4647363" lon="9.1657077" />
      <trkpt lat="45.4646912" lon="9.1656854" />
      <trkpt lat="45.4646682" lon="9.1656735" />
      <trkpt lat="45.4642830" lon="9.1655595" />
      <trkpt lat="45.4640495" lon="9.1654638" />
      <trkpt lat="45.4636026" lon="9.1653251" />
      <trkpt lat="45.4635722" lon="9.1653758" />
      <trkpt lat="45.4635542" lon="9.1653662" />
      <trkpt lat="45.4635257" lon="9.1653510" />
      <trkpt lat="45.4635215" lon="9.1653488" />
      <trkpt lat="45.4635000" lon="9.1653374" />
      <trkpt lat="45.4634900" lon="9.1653321" />
      <trkpt lat="45.4634742" lon="9.1653237" />
      <trkpt lat="45.4634718" lon="9.1653596" />
      <trkpt lat="45.4631665" lon="9.1658721" />
      <trkpt lat="45.4628852" lon="9.1652134" />
      <trkpt lat="45.4629902" lon="9.1651157" />
      <trkpt lat="45.4631467" lon="9.1651802" />
      <trkpt lat="45.4631707" lon="9.1651901" />
      <trkpt lat="45.4631792" lon="9.1651417" />
      <trkpt lat="45.4631884" lon="9.1650908" />
      <trkpt lat="45.4631993" lon="9.1650272" />
      <trkpt lat="45.4632160" lon="9.1649324" />
      <trkpt lat="45.4632310" lon="9.1648471" />
      <trkpt lat="45.4632411" lon="9.1647897" />
      <trkpt lat="45.4632523" lon="9.1647256" />
      <trkpt lat="45.4633321" lon="9.1647539" />
      <trkpt lat="45.4633793" lon="9.1647384" />
      <trkpt lat="45.4634701" lon="9.1641471" />
      <trkpt lat="45.4634537" lon="9.1641255" />
      <trkpt lat="45.4634556" lon="9.1641141" />
      <trkpt lat="45.4634591" lon="9.1640932" />
      <trkpt lat="45.4634648" lon="9.1640586" />
      <trkpt lat="45.4634658" lon="9.1640525" />
      <trkpt lat="45.4634667" lon="9.1640472" />
      <trkpt lat="45.4634710" lon="9.1640214" />
      <trkpt lat="45.4634757" lon="9.1639932" />
      <trkpt lat="45.4634815" lon="9.1639583" />
      <trkpt lat="45.4634196" lon="9.1639340" />
      <trkpt lat="45.4634447" lon="9.1638041" />
      <trkpt lat="45.4634479" lon="9.1637744" />
      <trkpt lat="45.4634366" lon="9.1637419" />
      <trkpt lat="45.4634535" lon="9.1637280" />
      <trkpt lat="45.4634905" lon="9.1636979" />
      <trkpt lat="45.4635168" lon="9.1636763" />
      <trkpt lat="45.4635356" lon="9.1636610" />
      <trkpt lat="45.4634948" lon="9.1635387" />
      <trkpt lat="45.4633375" lon="9.1630716" />
      <trkpt lat="45.4629462" lon="9.1619486" />
      <trkpt lat="45.4629466" lon="9.1618799" />
      <trkpt lat="45.4629409" lon="9.1618575" />
      <trkpt lat="45.4629216" lon="9.1617809" />
      <trkpt lat="45.4629157" lon="9.1617577" />
      <trkpt lat="45.4629112" lon="9.1617400" />
      <trkpt lat="45.4638466" lon="9.1610909" />
      <trkpt lat="45.4639054" lon="9.1608958" />
      <trkpt lat="45.4639153" lon="9.1608876" />
      <trkpt lat="45.4639474" lon="9.1608613" />
      <trkpt lat="45.4639857" lon="9.1608299" />
      <trkpt lat="45.4639896" lon="9.1608267" />
      <trkpt lat="45.4640847" lon="9.1608639" />
      <trkpt lat="45.4649017" lon="9.1590407" />
      <trkpt lat="45.4648846" lon="9.1589395" />
      <trkpt lat="45.4649022" lon="9.1588627" />
      <trkpt lat="45.4649200" lon="9.1588710" />
      <trkpt lat="45.4649243" lon="9.1588503" />
      <trkpt lat="45.4649304" lon="9.1588216" />
      <trkpt lat="45.4649442" lon="9.1587564" />
      <trkpt lat="45.4649505" lon="9.1587257" />
      <trkpt lat="45.4649572" lon="9.1586936" />
      <trkpt lat="45.4649617" lon="9.1586716" />
      <trkpt lat="45.4649653" lon="9.1586402" />
      <trkpt lat="45.4649675" lon="9.1586202" />
      <trkpt lat="45.4649718" lon="9.1585823" />
      <trkpt lat="45.4649978" lon="9.1584710" />
      <trkpt lat="45.4650042" lon="9.1584607" />
      <trkpt lat="45.4650164" lon="9.1584413" />
      <trkpt lat="45.4650199" lon="9.1584201" />
      <trkpt lat="45.4650251" lon="9.1583877" />
      <trkpt lat="45.4650303" lon="9.1583554" />
      <trkpt lat="45.4650375" lon="9.1583105" />
      <trkpt lat="45.4650397" lon="9.1582965" />
      <trkpt lat="45.4650692" lon="9.1583065" />
      <trkpt lat="45.4650875" lon="9.1583134" />
      <trkpt lat="45.4651027" lon="9.1583109" />
      <trkpt lat="45.4651245" lon="9.1582907" />
      <trkpt lat="45.4651616" lon="9.1582822" />
      <trkpt lat="45.4651699" lon="9.1582803" />
      <trkpt lat="45.4652448" lon="9.1582883" />
      <trkpt lat="45.4652564" lon="9.1582984" />
      <trkpt lat="45.4652838" lon="9.1583224" />
      <trkpt lat="45.4653354" lon="9.1583673" />
      <trkpt lat="45.4653402" lon="9.1583715" />
      <trkpt lat="45.4654693" lon="9.1580791" />
      <trkpt lat="45.4659902" lon="9.1569221" />
      <trkpt lat="45.4663170" lon="9.1569714" />
      <trkpt lat="45.4666676" lon="9.1570290" />
      <trkpt lat="45.4666687" lon="9.1570146" />
      <trkpt lat="45.4666712" lon="9.1569804" />
      <trkpt lat="45.4666736" lon="9.1569475" />
      <trkpt lat="45.4666744" lon="9.1569369" />
      <trkpt lat="45.4666794" lon="9.1569325" />
      <trkpt lat="45.4667292" lon="9.1562693" />
      <trkpt lat="45.4667210" lon="9.1562532" />
      <trkpt lat="45.4667230" lon="9.1562268" />
      <trkpt lat="45.4667270" lon="9.1561743" />
      <trkpt lat="45.4667297" lon="9.1561401" />
      <trkpt lat="45.4667304" lon="9.1561308" />
      <trkpt lat="45.4667638" lon="9.1558016" />
      <trkpt lat="45.4667848" lon="9.1555688" />
      <trkpt lat="45.4667938" lon="9.1554683" />
      <trkpt lat="45.4668035" lon="9.1554668" />
      <trkpt lat="45.4668569" lon="9.1554588" />
      <trkpt lat="45.4668688" lon="9.1554570" />
      <trkpt lat="45.4668845" lon="9.1554546" />
      <trkpt lat="45.4669466" lon="9.1554453" />
      <trkpt lat="45.4669544" lon="9.1554441" />
      <trkpt lat="45.4669697" lon="9.1554257" />
      <trkpt lat="45.4674273" lon="9.1554556" />
      <trkpt lat="45.4674616" lon="9.1554720" />
      <trkpt lat="45.4674771" lon="9.1554729" />
      <trkpt lat="45.4677649" lon="9.1554774" />
      <trkpt lat="45.4678325" lon="9.1554780" />
      <trkpt lat="45.4678492" lon="9.1554761" />
      <trkpt lat="45.4679069" lon="9.1554694" />
      <trkpt lat="45.4679643" lon="9.1554628" />
      <trkpt lat="45.4679864" lon="9.1554602" />
      <trkpt lat="45.4680007" lon="9.1554643" />
      <trkpt lat="45.4680354" lon="9.1554741" />
      <trkpt lat="45.4680718" lon="9.1554844" />
      <trkpt lat="45.4680744" lon="9.1554851" />
      <trkpt lat="45.4681162" lon="9.1554408" />
      <trkpt lat="45.4681605" lon="9.1554308" />
      <trkpt lat="45.4684784" lon="9.1554413" />
      <trkpt lat="45.4685484" lon="9.1554724" />
      <trkpt lat="45.4686222" lon="9.1554801" />
      <trkpt lat="45.4687075" lon="9.1554890" />
      <trkpt lat="45.4687612" lon="9.1554945" />
      <trkpt lat="45.4687755" lon="9.1554960" />
      <trkpt lat="45.4697368" lon="9.1555600" />
      <trkpt lat="45.4697577" lon="9.1555895" />
      <trkpt lat="45.4697730" lon="9.1555807" />
      <trkpt lat="45.4698038" lon="9.1555628" />
      <trkpt lat="45.4698294" lon="9.1555481" />
      <trkpt lat="45.4698455" lon="9.1555387" />
      <trkpt lat="45.4698587" lon="9.1555023" />
      <trkpt lat="45.4699617" lon="9.1555122" />
      <trkpt lat="45.4699889" lon="9.1556291" />
      <trkpt lat="45.4699860" lon="9.1556811" />
      <trkpt lat="45.4699819" lon="9.1557095" />
      <trkpt lat="45.4699882" lon="9.1557145" />
      <trkpt lat="45.4699957" lon="9.1557205" />
      <trkpt lat="45.4700021" lon="9.1557249" />
      <trkpt lat="45.4700391" lon="9.1557505" />
      <trkpt lat="45.4700573" lon="9.1557641" />
      <trkpt lat="45.4701076" lon="9.1557891" />
      <trkpt lat="45.4701331" lon="9.1557984" />
      <trkpt lat="45.4701591" lon="9.1558132" />
      <trkpt lat="45.4701683" lon="9.1558185" />
      <trkpt lat="45.4701883" lon="9.1558268" />
      <trkpt lat="45.4702128" lon="9.1558370" />
      <trkpt lat="45.4705070" lon="9.1558545" />
      <trkpt lat="45.4705558" lon="9.1558070" />
      <trkpt lat="45.4705731" lon="9.1557885" />
      <trkpt lat="45.4706575" lon="9.1559169" />
      <trkpt lat="45.4708320" lon="9.1561315" />
      <trkpt lat="45.4708752" lon="9.1562000" />
      <trkpt lat="45.4709338" lon="9.1562864" />
      <trkpt lat="45.4715904" lon="9.1572693" />
      <trkpt lat="45.4716478" lon="9.1571997" />
      <trkpt lat="45.4716593" lon="9.1571858" />
      <trkpt lat="45.4717154" lon="9.1572129" />
      <trkpt lat="45.4726558" lon="9.1572469" />
      <trkpt lat="45.4730108" lon="9.1572721" />
      <trkpt lat="45.4730255" lon="9.1572733" />
      <trkpt lat="45.4730616" lon="9.1572749" />
      <trkpt lat="45.4731077" lon="9.1572769" />
      <trkpt lat="45.4731057" lon="9.1573574" />
      <trkpt lat="45.4732647" lon="9.1573685" />
      <trkpt lat="45.4732863" lon="9.1573883" />
      <trkpt lat="45.4732973" lon="9.1574188" />
      <trkpt lat="45.4732962" lon="9.1574688" />
      <trkpt lat="45.4733226" lon="9.1574700" />
      <trkpt lat="45.4733385" lon="9.1574707" />
      <trkpt lat="45.4733580" lon="9.1574716" />
      <trkpt lat="45.4733689" lon="9.1574719" />
      <trkpt lat="45.4733853" lon="9.1574729" />
      <trkpt lat="45.4733955" lon="9.1574736" />
      <trkpt lat="45.4734477" lon="9.1574754" />
      <trkpt lat="45.4734896" lon="9.1574768" />
      <trkpt lat="45.4735342" lon="9.1574784" />
      <trkpt lat="45.4735844" lon="9.1574841" />
      <trkpt lat="45.4736470" lon="9.1574846" />
      <trkpt lat="45.4736618" lon="9.1574851" />
      <trkpt lat="45.4737006" lon="9.1574864" />
      <trkpt lat="45.4737309" lon="9.1574874" />
      <trkpt lat="45.4737417" lon="9.1574878" />
      <trkpt lat="45.4737511" lon="9.1574884" />
      <trkpt lat="45.4737414" lon="9.1583457" />
      <trkpt lat="45.4737413" lon="9.1583504" />
      <trkpt lat="45.4737411" lon="9.1583604" />
      <trkpt lat="45.4737404" lon="9.1584014" />
      <trkpt lat="45.4737398" lon="9.1584332" />
      <trkpt lat="45.4737397" lon="9.1584402" />
      <trkpt lat="45.4737397" lon="9.1584431" />
      <trkpt lat="45.4737390" lon="9.1587009" />
      <trkpt lat="45.4737441" lon="9.1588908" />
      <trkpt lat="45.4737892" lon="9.1590799" />
      <trkpt lat="45.4738541" lon="9.1591939" />
      <trkpt lat="45.4739218" lon="9.1592637" />
      <trkpt lat="45.4740215" lon="9.1593227" />
      <trkpt lat="45.4741231" lon="9.1593763" />
      <trkpt lat="45.4743926" lon="9.1593942" />
      <trkpt lat="45.4743992" lon="9.1594509" />
      <trkpt lat="45.4744035" lon="9.1594885" />
      <trkpt lat="45.4747301" lon="9.1595066" />
      <trkpt lat="45.4747269" lon="9.1596433" />
      <trkpt lat="45.4750513" lon="9.1596622" />
      <trkpt lat="45.4751302" lon="9.1596674" />
      <trkpt lat="45.4751529" lon="9.1596687" />
      <trkpt lat="45.4751496" lon="9.1597753" />
      <trkpt lat="45.4751476" lon="9.1598400" />
      <trkpt lat="45.4751450" lon="9.1599228" />
      <trkpt lat="45.4751430" lon="9.1599880" />
      <trkpt lat="45.4751784" lon="9.1599903" />
      <trkpt lat="45.4751768" lon="9.1600442" />
      <trkpt lat="45.4751761" lon="9.1600657" />
      <trkpt lat="45.4751744" lon="9.1601220" />
      <trkpt lat="45.4751741" lon="9.1601306" />
      <trkpt lat="45.4751733" lon="9.1601596" />
      <trkpt lat="45.4751415" lon="9.1613906" />
      <trkpt lat="45.4751300" lon="9.1614074" />
      <trkpt lat="45.4751529" lon="9.1614182" />
      <trkpt lat="45.4751969" lon="9.1614382" />
      <trkpt lat="45.4752390" lon="9.1614578" />
      <trkpt lat="45.4752536" lon="9.1614646" />
      <trkpt lat="45.4752580" lon="9.1614665" />
      <trkpt lat="45.4752529" lon="9.1614966" />
      <trkpt lat="45.4752419" lon="9.1615662" />
      <trkpt lat="45.4752310" lon="9.1616293" />
      <trkpt lat="45.4752271" lon="9.1616536" />
      <trkpt lat="45.4751740" lon="9.1616411" />
      <trkpt lat="45.4746335" lon="9.1623561" />
      <trkpt lat="45.4747937" lon="9.1626038" />
      <trkpt lat="45.4749390" lon="9.1628278" />
      <trkpt lat="45.4752447" lon="9.1632988" />
      <trkpt lat="45.4751983" lon="9.1633547" />
      <trkpt lat="45.4752241" lon="9.1633925" />
      <trkpt lat="45.4752301" lon="9.1634009" />
      <trkpt lat="45.4752584" lon="9.1634425" />
      <trkpt lat="45.4752611" lon="9.1634467" />
      <trkpt lat="45.4752715" lon="9.1634627" />
      <trkpt lat="45.4752803" lon="9.1634752" />
      <trkpt lat="45.4752930" lon="9.1634935" />
      <trkpt lat="45.4753065" lon="9.1635134" />
      <trkpt lat="45.4753183" lon="9.1635321" />
      <trkpt lat="45.4753407" lon="9.1635674" />
      <trkpt lat="45.4753494" lon="9.1635778" />
      <trkpt lat="45.4756460" lon="9.1639413" />
      <trkpt lat="45.4759582" lon="9.1644417" />
      <trkpt lat="45.4760105" lon="9.1643652" />
      <trkpt lat="45.4760716" lon="9.1643330" />
      <trkpt lat="45.4761208" lon="9.1643351" />
      <trkpt lat="45.4761694" lon="9.1643666" />
      <trkpt lat="45.4762202" lon="9.1644350" />
      <trkpt lat="45.4762888" lon="9.1645262" />
      <trkpt lat="45.4763337" lon="9.1645794" />
      <trkpt lat="45.4765832" lon="9.1646858" />
      <trkpt lat="45.4766292" lon="9.1647059" />
      <trkpt lat="45.4766519" lon="9.1647559" />
      <trkpt lat="45.4767073" lon="9.1647421" />
      <trkpt lat="45.4768813" lon="9.1647474" />
      <trkpt lat="45.4769462" lon="9.1647421" />
      <trkpt lat="45.4770116" lon="9.1647117" />
      <trkpt lat="45.4773443" lon="9.1644477" />
      <trkpt lat="45.4775742" lon="9.1645431" />
      <trkpt lat="45.4775885" lon="9.1645833" />
      <trkpt lat="45.4776107" lon="9.1646188" />
      <trkpt lat="45.4776733" lon="9.1646949" />
      <trkpt lat="45.4777200" lon="9.1647642" />
      <trkpt lat="45.4777510" lon="9.1648353" />
      <trkpt lat="45.4777723" lon="9.1649165" />
      <trkpt lat="45.4777940" lon="9.1650171" />
      <trkpt lat="45.4778107" lon="9.1651363" />
      <trkpt lat="45.4778125" lon="9.1651788" />
      <trkpt lat="45.4778114" lon="9.1652179" />
      <trkpt lat="45.4778100" lon="9.1652381" />
      <trkpt lat="45.4778078" lon="9.1652590" />
      <trkpt lat="45.4778036" lon="9.1652803" />
      <trkpt lat="45.4777974" lon="9.1652999" />
      <trkpt lat="45.4777801" lon="9.1653295" />
      <trkpt lat="45.4777599" lon="9.1653543" />
      <trkpt lat="45.4776953" lon="9.1654049" />
      <trkpt lat="45.4776560" lon="9.1654509" />
      <trkpt lat="45.4776778" lon="9.1654987" />
      <trkpt lat="45.4770437" lon="9.1660557" />
      <trkpt lat="45.4770652" lon="9.1660890" />
      <trkpt lat="45.4770685" lon="9.1660938" />
      <trkpt lat="45.4771942" lon="9.1662890" />
      <trkpt lat="45.4772469" lon="9.1663652" />
      <trkpt lat="45.4777328" lon="9.1671325" />
      <trkpt lat="45.4777532" lon="9.1671368" />
      <trkpt lat="45.4777589" lon="9.1671453" />
      <trkpt lat="45.4777822" lon="9.1671800" />
      <trkpt lat="45.4778149" lon="9.1672287" />
      <trkpt lat="45.4778190" lon="9.1672348" />
      <trkpt lat="45.4778168" lon="9.1672750" />
      <trkpt lat="45.4783751" lon="9.1681087" />
      <trkpt lat="45.4784081" lon="9.1681085" />
      <trkpt lat="45.4784184" lon="9.1681240" />
      <trkpt lat="45.4784255" lon="9.1681345" />
      <trkpt lat="45.4784551" lon="9.1681789" />
      <trkpt lat="45.4784632" lon="9.1681911" />
      <trkpt lat="45.4784449" lon="9.1682149" />
      <trkpt lat="45.4784518" lon="9.1682258" />
      <trkpt lat="45.4784597" lon="9.1682381" />
      <trkpt lat="45.4784650" lon="9.1682465" />
      <trkpt lat="45.4784827" lon="9.1682757" />
      <trkpt lat="45.4784871" lon="9.1682830" />
      <trkpt lat="45.4784915" lon="9.1682887" />
      <trkpt lat="45.4785366" lon="9.1683582" />
      <trkpt lat="45.4785749" lon="9.1684173" />
      <trkpt lat="45.4785805" lon="9.1684244" />
      <trkpt lat="45.4785943" lon="9.1684469" />
      <trkpt lat="45.4785994" lon="9.1684552" />
      <trkpt lat="45.4786407" lon="9.1685226" />
      <trkpt lat="45.4786446" lon="9.1685290" />
      <trkpt lat="45.4786530" lon="9.1685425" />
      <trkpt lat="45.4786964" lon="9.1686132" />
      <trkpt lat="45.4787021" lon="9.1686225" />
      <trkpt lat="45.4787275" lon="9.1686639" />
      <trkpt lat="45.4787547" lon="9.1687131" />
      <trkpt lat="45.4787687" lon="9.1687309" />
      <trkpt lat="45.4788325" lon="9.1688354" />
      <trkpt lat="45.4788434" lon="9.1688225" />
      <trkpt lat="45.4788474" lon="9.1688285" />
      <trkpt lat="45.4788520" lon="9.1688356" />
      <trkpt lat="45.4788774" lon="9.1688737" />
      <trkpt lat="45.4789143" lon="9.1689294" />
      <trkpt lat="45.4789205" lon="9.1689388" />
      <trkpt lat="45.4789196" lon="9.1689607" />
      <trkpt lat="45.4794873" lon="9.1698080" />
      <trkpt lat="45.4794954" lon="9.1698209" />
      <trkpt lat="45.4795517" lon="9.1699104" />
      <trkpt lat="45.4795919" lon="9.1699744" />
      <trkpt lat="45.4796093" lon="9.1700020" />
      <trkpt lat="45.4796055" lon="9.1700810" />
      <trkpt lat="45.4801701" lon="9.1709460" />
      <trkpt lat="45.4803067" lon="9.1711599" />
      <trkpt lat="45.4803012" lon="9.1711718" />
      <trkpt lat="45.4802759" lon="9.1712268" />
      <trkpt lat="45.4802932" lon="9.1712556" />
      <trkpt lat="45.4803192" lon="9.1712964" />
      <trkpt lat="45.4803048" lon="9.1713229" />
      <trkpt lat="45.4803475" lon="9.1713918" />
      <trkpt lat="45.4806660" lon="9.1719085" />
      <trkpt lat="45.4806957" lon="9.1719566" />
      <trkpt lat="45.4807402" lon="9.1719284" />
      <trkpt lat="45.4809518" lon="9.1722558" />
      <trkpt lat="45.4810914" lon="9.1724759" />
      <trkpt lat="45.4811204" lon="9.1728362" />
      <trkpt lat="45.4811381" lon="9.1730556" />
      <trkpt lat="45.4811396" lon="9.1730742" />
      <trkpt lat="45.4811259" lon="9.1730925" />
      <trkpt lat="45.4811269" lon="9.1731039" />
      <trkpt lat="45.4811303" lon="9.1731369" />
      <trkpt lat="45.4811344" lon="9.1731780" />
      <trkpt lat="45.4811350" lon="9.1731943" />
      <trkpt lat="45.4811485" lon="9.1732809" />
      <trkpt lat="45.4811887" lon="9.1738211" />
      <trkpt lat="45.4812078" lon="9.1740441" />
      <trkpt lat="45.4812605" lon="9.1746586" />
      <trkpt lat="45.4812520" lon="9.1746594" />
      <trkpt lat="45.4812532" lon="9.1746857" />
      <trkpt lat="45.4812542" lon="9.1747167" />
      <trkpt lat="45.4812549" lon="9.1747414" />
      <trkpt lat="45.4812558" lon="9.1747697" />
      <trkpt lat="45.4812684" lon="9.1747682" />
      <trkpt lat="45.4812718" lon="9.1748143" />
      <trkpt lat="45.4813452" lon="9.1758106" />
      <trkpt lat="45.4813563" lon="9.1759613" />
      <trkpt lat="45.4813959" lon="9.1764998" />
      <trkpt lat="45.4814009" lon="9.1765671" />
      <trkpt lat="45.4814471" lon="9.1771943" />
      <trkpt lat="45.4814494" lon="9.1772215" />
      <trkpt lat="45.4814507" lon="9.1772371" />
      <trkpt lat="45.4814550" lon="9.1772875" />
      <trkpt lat="45.4814569" lon="9.1773095" />
      <trkpt lat="45.4814961" lon="9.1778131" />
      <trkpt lat="45.4811222" lon="9.1778205" />
      <trkpt lat="45.4807642" lon="9.1778722" />
      <trkpt lat="45.4803504" lon="9.1779282" />
      <trkpt lat="45.4803518" lon="9.1779498" />
      <trkpt lat="45.4803526" lon="9.1779640" />
      <trkpt lat="45.4803541" lon="9.1779882" />
      <trkpt lat="45.4803547" lon="9.1779974" />
      <trkpt lat="45.4803375" lon="9.1780002" />
      <trkpt lat="45.4803319" lon="9.1780365" />
      <trkpt lat="45.4805297" lon="9.1794334" />
      <trkpt lat="45.4805238" lon="9.1794355" />
      <trkpt lat="45.4804921" lon="9.1794469" />
      <trkpt lat="45.4804685" lon="9.1794557" />
      <trkpt lat="45.4804584" lon="9.1794594" />
      <trkpt lat="45.4804623" lon="9.1794895" />
      <trkpt lat="45.4804562" lon="9.1794996" />
      <trkpt lat="45.4803823" lon="9.1795268" />
      <trkpt lat="45.4803836" lon="9.1795345" />
      <trkpt lat="45.4803869" lon="9.1795533" />
      <trkpt lat="45.4803907" lon="9.1795747" />
      <trkpt lat="45.4803938" lon="9.1795920" />
      <trkpt lat="45.4803996" lon="9.1796246" />
      <trkpt lat="45.4803971" lon="9.1796236" />
      <trkpt lat="45.4804039" lon="9.1796651" />
      <trkpt lat="45.4804042" lon="9.1797262" />
      <trkpt lat="45.4802229" lon="9.1804281" />
      <trkpt lat="45.4800948" lon="9.1809390" />
      <trkpt lat="45.4800834" lon="9.1809865" />
      <trkpt lat="45.4800272" lon="9.1810027" />
      <trkpt lat="45.4799354" lon="9.1809848" />
      <trkpt lat="45.4799333" lon="9.1810045" />
      <trkpt lat="45.4799297" lon="9.1810410" />
      <trkpt lat="45.4799280" lon="9.1810588" />
      <trkpt lat="45.4799258" lon="9.1810781" />
      <trkpt lat="45.4799211" lon="9.1811197" />
      <trkpt lat="45.4799172" lon="9.1811561" />
      <trkpt lat="45.4799446" lon="9.1811635" />
      <trkpt lat="45.4798879" lon="9.1816614" />
      <trkpt lat="45.4798520" lon="9.1816622" />
      <trkpt lat="45.4798456" lon="9.1816934" />
      <trkpt lat="45.4798381" lon="9.1817297" />
      <trkpt lat="45.4798323" lon="9.1817592" />
      <trkpt lat="45.4798230" lon="9.1818035" />
      <trkpt lat="45.4798214" lon="9.1818113" />
      <trkpt lat="45.4798163" lon="9.1818353" />
      <trkpt lat="45.4798107" lon="9.1818625" />
      <trkpt lat="45.4797871" lon="9.1819991" />
      <trkpt lat="45.4797809" lon="9.1820345" />
      <trkpt lat="45.4785755" lon="9.1816274" />
      <trkpt lat="45.4785680" lon="9.1816680" />
      <trkpt lat="45.4785621" lon="9.1817004" />
      <trkpt lat="45.4785436" lon="9.1818149" />
      <trkpt lat="45.4785203" lon="9.1818773" />
      <trkpt lat="45.4784854" lon="9.1819309" />
      <trkpt lat="45.4784417" lon="9.1819669" />
      <trkpt lat="45.4783686" lon="9.1819909" />
      <trkpt lat="45.4783316" lon="9.1819885" />
      <trkpt lat="45.4782921" lon="9.1819719" />
      <trkpt lat="45.4782522" lon="9.1819455" />
      <trkpt lat="45.4782137" lon="9.1821315" />
      <trkpt lat="45.4781786" lon="9.1823004" />
      <trkpt lat="45.4780464" lon="9.1823692" />
      <trkpt lat="45.4780401" lon="9.1824018" />
      <trkpt lat="45.4779270" lon="9.1829955" />
      <trkpt lat="45.4779369" lon="9.1829983" />
      <trkpt lat="45.4779597" lon="9.1830046" />
      <trkpt lat="45.4779572" lon="9.1830244" />
      <trkpt lat="45.4779498" lon="9.1830812" />
      <trkpt lat="45.4779440" lon="9.1831266" />
      <trkpt lat="45.4779404" lon="9.1831546" />
      <trkpt lat="45.4778981" lon="9.1833334" />
      <trkpt lat="45.4778823" lon="9.1833753" />
      <trkpt lat="45.4778724" lon="9.1834073" />
      <trkpt lat="45.4778498" lon="9.1834694" />
      <trkpt lat="45.4778460" lon="9.1834798" />
      <trkpt lat="45.4778505" lon="9.1834852" />
      <trkpt lat="45.4778527" lon="9.1835554" />
      <trkpt lat="45.4778013" lon="9.1838552" />
      <trkpt lat="45.4777527" lon="9.1841048" />
      <trkpt lat="45.4777454" lon="9.1841497" />
      <trkpt lat="45.4777442" lon="9.1841493" />
      <trkpt lat="45.4777148" lon="9.1841385" />
      <trkpt lat="45.4777123" lon="9.1841542" />
      <trkpt lat="45.4776959" lon="9.1842399" />
      <trkpt lat="45.4776786" lon="9.1842767" />
      <trkpt lat="45.4776632" lon="9.1844038" />
      <trkpt lat="45.4776623" lon="9.1844128" />
      <trkpt lat="45.4776510" lon="9.1844096" />
      <trkpt lat="45.4776304" lon="9.1844049" />
      <trkpt lat="45.4772623" lon="9.1843241" />
      <trkpt lat="45.4772618" lon="9.1843240" />
      <trkpt lat="45.4772455" lon="9.1843185" />
      <trkpt lat="45.4766687" lon="9.1841179" />
      <trkpt lat="45.4766567" lon="9.1840914" />
      <trkpt lat="45.4766493" lon="9.1840881" />
      <trkpt lat="45.4766130" lon="9.1840719" />
      <trkpt lat="45.4765965" lon="9.1841387" />
      <trkpt lat="45.4765888" lon="9.1841714" />
      <trkpt lat="45.4765851" lon="9.1841872" />
      <trkpt lat="45.4765706" lon="9.1842486" />
      <trkpt lat="45.4765662" lon="9.1842672" />
      <trkpt lat="45.4765337" lon="9.1844044" />
      <trkpt lat="45.4764515" lon="9.1847929" />
      <trkpt lat="45.4763352" lon="9.1852472" />
      <trkpt lat="45.4764037" lon="9.1854051" />
      <trkpt lat="45.4764863" lon="9.1855983" />
      <trkpt lat="45.4765086" lon="9.1856468" />
      <trkpt lat="45.4765254" lon="9.1856855" />
      <trkpt lat="45.4764597" lon="9.1857437" />
      <trkpt lat="45.4762558" lon="9.1859282" />
      <trkpt lat="45.4757703" lon="9.1863709" />
      <trkpt lat="45.4754446" lon="9.1866716" />
      <trkpt lat="45.4754631" lon="9.1867123" />
      <trkpt lat="45.4754714" lon="9.1867306" />
      <trkpt lat="45.4754217" lon="9.1867778" />
      <trkpt lat="45.4754111" lon="9.1870622" />
      <trkpt lat="45.4754275" lon="9.1870826" />
      <trkpt lat="45.4754270" lon="9.1870932" />
      <trkpt lat="45.4754253" lon="9.1871325" />
      <trkpt lat="45.4754235" lon="9.1871761" />
      <trkpt lat="45.4754226" lon="9.1871960" />
      <trkpt lat="45.4754036" lon="9.1872254" />
      <trkpt lat="45.4753923" lon="9.1876261" />
      <trkpt lat="45.4753806" lon="9.1882677" />
      <trkpt lat="45.4753896" lon="9.1883031" />
      <trkpt lat="45.4753893" lon="9.1883077" />
      <trkpt lat="45.4753890" lon="9.1883240" />
      <trkpt lat="45.4753800" lon="9.1884318" />
      <trkpt lat="45.4753734" lon="9.1885204" />
      <trkpt lat="45.4753712" lon="9.1885500" />
      <trkpt lat="45.4753529" lon="9.1885629" />
      <trkpt lat="45.4752691" lon="9.1892463" />
      <trkpt lat="45.4752747" lon="9.1892801" />
      <trkpt lat="45.4752933" lon="9.1892893" />
      <trkpt lat="45.4752921" lon="9.1892996" />
      <trkpt lat="45.4752876" lon="9.1893382" />
      <trkpt lat="45.4752790" lon="9.1894121" />
      <trkpt lat="45.4752748" lon="9.1894492" />
      <trkpt lat="45.4752425" lon="9.1897896" />
      <trkpt lat="45.4752078" lon="9.1900792" />
      <trkpt lat="45.4752263" lon="9.1901012" />
      <trkpt lat="45.4752235" lon="9.1901170" />
      <trkpt lat="45.4752170" lon="9.1901535" />
      <trkpt lat="45.4752098" lon="9.1901933" />
      <trkpt lat="45.4752078" lon="9.1902044" />
      <trkpt lat="45.4751792" lon="9.1901983" />
      <trkpt lat="45.4751563" lon="9.1902210" />
      <trkpt lat="45.4751497" lon="9.1902222" />
      <trkpt lat="45.4751218" lon="9.1902150" />
      <trkpt lat="45.4750883" lon="9.1902047" />
      <trkpt lat="45.4750761" lon="9.1902010" />
      <trkpt lat="45.4750401" lon="9.1904509" />
      <trkpt lat="45.4749658" lon="9.1911168" />
      <trkpt lat="45.4749258" lon="9.1914753" />
      <trkpt lat="45.4749121" lon="9.1914920" />
      <trkpt lat="45.4749100" lon="9.1915128" />
      <trkpt lat="45.4749096" lon="9.1915173" />
      <trkpt lat="45.4745679" lon="9.1914542" />
      <trkpt lat="45.4744694" lon="9.1915021" />
      <trkpt lat="45.4743373" lon="9.1914759" />
      <trkpt lat="45.4736400" lon="9.1913369" />
      <trkpt lat="45.4736340" lon="9.1914018" />
      <trkpt lat="45.4736361" lon="9.1914378" />
      <trkpt lat="45.4735741" lon="9.1914259" />
      <trkpt lat="45.4735416" lon="9.1914196" />
      <trkpt lat="45.4731623" lon="9.1913455" />
      <trkpt lat="45.4731419" lon="9.1913661" />
      <trkpt lat="45.4731334" lon="9.1913638" />
      <trkpt lat="45.4730780" lon="9.1913491" />
      <trkpt lat="45.4730312" lon="9.1913363" />
      <trkpt lat="45.4730266" lon="9.1913351" />
      <trkpt lat="45.4730149" lon="9.1913320" />
      <trkpt lat="45.4730055" lon="9.1913179" />
      <trkpt lat="45.4728615" lon="9.1912823" />
      <trkpt lat="45.4728565" lon="9.1912853" />
      <trkpt lat="45.4728505" lon="9.1912898" />
      <trkpt lat="45.4728142" lon="9.1914858" />
      <trkpt lat="45.4727053" lon="9.1920852" />
      <trkpt lat="45.4726496" lon="9.1924008" />
      <trkpt lat="45.4726230" lon="9.1925629" />
      <trkpt lat="45.4725926" lon="9.1925537" />
      <trkpt lat="45.4725581" lon="9.1925410" />
      <trkpt lat="45.4725465" lon="9.1925867" />
      <trkpt lat="45.4723433" lon="9.1926073" />
      <trkpt lat="45.4721445" lon="9.1926203" />
      <trkpt lat="45.4720423" lon="9.1926387" />
      <trkpt lat="45.4718625" lon="9.1926825" />
      <trkpt lat="45.4714891" lon="9.1926464" />
      <trkpt lat="45.4713039" lon="9.1925958" />
      <trkpt lat="45.4712901" lon="9.1925715" />
      <trkpt lat="45.4712778" lon="9.1925544" />
      <trkpt lat="45.4712051" lon="9.1925279" />
      <trkpt lat="45.4711668" lon="9.1925139" />
      <trkpt lat="45.4711345" lon="9.1925148" />
      <trkpt lat="45.4711101" lon="9.1925069" />
      <trkpt lat="45.4707840" lon="9.1923391" />
      <trkpt lat="45.4706541" lon="9.1922716" />
      <trkpt lat="45.4706372" lon="9.1922613" />
      <trkpt lat="45.4706234" lon="9.1923119" />
      <trkpt lat="45.4706110" lon="9.1923031" />
      <trkpt lat="45.4705523" lon="9.1922597" />
      <trkpt lat="45.4704947" lon="9.1922194" />
      <trkpt lat="45.4704579" lon="9.1922356" />
      <trkpt lat="45.4703404" lon="9.1922872" />
      <trkpt lat="45.4702645" lon="9.1924290" />
      <trkpt lat="45.4702516" lon="9.1924725" />
      <trkpt lat="45.4702383" lon="9.1924969" />
      <trkpt lat="45.4702338" lon="9.1925075" />
      <trkpt lat="45.4702248" lon="9.1925001" />
      <trkpt lat="45.4702211" lon="9.1925067" />
      <trkpt lat="45.4701997" lon="9.1925452" />
      <trkpt lat="45.4701898" lon="9.1925630" />
      <trkpt lat="45.4701817" lon="9.1925777" />
      <trkpt lat="45.4701651" lon="9.1926075" />
      <trkpt lat="45.4701553" lon="9.1926251" />
      <trkpt lat="45.4701313" lon="9.1926684" />
      <trkpt lat="45.4701014" lon="9.1926364" />
      <trkpt lat="45.4701384" lon="9.1925655" />
      <trkpt lat="45.4701202" lon="9.1925453" />
      <trkpt lat="45.4701087" lon="9.1925692" />
      <trkpt lat="45.4700778" lon="9.1926294" />
      <trkpt lat="45.4700670" lon="9.1926516" />
      <trkpt lat="45.4700541" lon="9.1926365" />
      <trkpt lat="45.4700115" lon="9.1926347" />
      <trkpt lat="45.4696795" lon="9.1922784" />
      <trkpt lat="45.4694200" lon="9.1919985" />
      <trkpt lat="45.4694101" lon="9.1919871" />
      <trkpt lat="45.4693936" lon="9.1920205" />
      <trkpt lat="45.4693869" lon="9.1920348" />
      <trkpt lat="45.4690937" lon="9.1917088" />
      <trkpt lat="45.4690781" lon="9.1916915" />
      <trkpt lat="45.4690642" lon="9.1916772" />
      <trkpt lat="45.4689737" lon="9.1915842" />
      <trkpt lat="45.4687116" lon="9.1913372" />
      <trkpt lat="45.4686721" lon="9.1912906" />
      <trkpt lat="45.4684445" lon="9.1910524" />
      <trkpt lat="45.4682956" lon="9.1908986" />
      <trkpt lat="45.4682587" lon="9.1908613" />
      <trkpt lat="45.4680732" lon="9.1906724" />
      <trkpt lat="45.4677584" lon="9.1903404" />
      <trkpt lat="45.4674927" lon="9.1900531" />
      <trkpt lat="45.4674688" lon="9.1900294" />
      <trkpt lat="45.4674472" lon="9.1900080" />
      <trkpt lat="45.4674225" lon="9.1899833" />
      <trkpt lat="45.4673917" lon="9.1899608" />
      <trkpt lat="45.4673586" lon="9.1899336" />
      <trkpt lat="45.4673276" lon="9.1899056" />
      <trkpt lat="45.4673022" lon="9.1898822" />
      <trkpt lat="45.4672890" lon="9.1898913" />
      <trkpt lat="45.4672754" lon="9.1899007" />
      <trkpt lat="45.4672663" lon="9.1899069" />
      <trkpt lat="45.4672591" lon="9.1899119" />
      <trkpt lat="45.4671261" lon="9.1897446" />
      <trkpt lat="45.4670736" lon="9.1898292" />
      <trkpt lat="45.4670499" lon="9.1898090" />
      <trkpt lat="45.4670241" lon="9.1897948" />
      <trkpt lat="45.4669970" lon="9.1897873" />
      <trkpt lat="45.4669663" lon="9.1897866" />
      <trkpt lat="45.4669419" lon="9.1897927" />
      <trkpt lat="45.4669155" lon="9.1898056" />
      <trkpt lat="45.4668911" lon="9.1898248" />
      <trkpt lat="45.4668695" lon="9.1898498" />
      <trkpt lat="45.4668513" lon="9.1898798" />
      <trkpt lat="45.4667733" lon="9.1897890" />
      <trkpt lat="45.4667497" lon="9.1897587" />
      <trkpt lat="45.4667367" lon="9.1897447" />
      <trkpt lat="45.4665605" lon="9.1900449" />
      <trkpt lat="45.4665392" lon="9.1900178" />
      <trkpt lat="45.4664632" lon="9.1900269" />
      <trkpt lat="45.4664257" lon="9.1900265" />
      <trkpt lat="45.4663725" lon="9.1900268" />
      <trkpt lat="45.4660513" lon="9.1900267" />
      <trkpt lat="45.4657805" lon="9.1900258" />
      <trkpt lat="45.4657697" lon="9.1900266" />
      <trkpt lat="45.4657212" lon="9.1900266" />
      <trkpt lat="45.4656114" lon="9.1900265" />
      <trkpt lat="45.4654945" lon="9.1900265" />
      <trkpt lat="45.4654441" lon="9.1900265" />
      <trkpt lat="45.4654339" lon="9.1900265" />
      <trkpt lat="45.4651742" lon="9.1900264" />
      <trkpt lat="45.4648584" lon="9.1900262" />
      <trkpt lat="45.4648210" lon="9.1900262" />
      <trkpt lat="45.4647525" lon="9.1900262" />
      <trkpt lat="45.4646839" lon="9.1900289" />
      <trkpt lat="45.4646838" lon="9.1900001" />
      <trkpt lat="45.4646403" lon="9.1899929" />
      <trkpt lat="45.4645483" lon="9.1899914" />
      <trkpt lat="45.4645262" lon="9.1899918" />
      <trkpt lat="45.4645259" lon="9.1900682" />
      <trkpt lat="45.4645266" lon="9.1901537" />
      <trkpt lat="45.4645252" lon="9.1901826" />
      <trkpt lat="45.4645242" lon="9.1902105" />
      <trkpt lat="45.4645236" lon="9.1902631" />
      <trkpt lat="45.4645233" lon="9.1902840" />
      <trkpt lat="45.4645490" lon="9.1902933" />
      <trkpt lat="45.4645497" lon="9.1899743" />
      <trkpt lat="45.4645497" lon="9.1899580" />
      <trkpt lat="45.4645542" lon="9.1899580" />
      <trkpt lat="45.4645546" lon="9.1899005" />
      <trkpt lat="45.4645446" lon="9.1898970" />
      <trkpt lat="45.4645046" lon="9.1898833" />
      <trkpt lat="45.4644741" lon="9.1898729" />
      <trkpt lat="45.4644313" lon="9.1898582" />
      <trkpt lat="45.4643695" lon="9.1897716" />
    </trkseg>
  </trk>
</gpx>
