<?xml version="1.0" encoding="UTF-8"?>
<gpx xmlns="http://www.topografix.com/GPX/1/1" version="1.1" creator="ShapeRoute route-engine">
  <metadata>
    <name>rabbit_head 15 km · 2026-10-04</name>
    <author>
      <name>ShapeRoute route-engine</name>
    </author>
    <copyright author="OpenStreetMap contributors">
      <license>https://opendatacommons.org/licenses/odbl/1-0/</license>
    </copyright>
    <link href="https://www.openstreetmap.org/copyright">
      <text>© OpenStreetMap contributors</text>
    </link>
    <time>2026-10-04T16:56:37Z</time>
  </metadata>
  <wpt lat="46.0668711" lon="11.1210492">
    <name>Pause</name>
  </wpt>
  <wpt lat="46.0656615" lon="11.1248850">
    <name>Resume</name>
  </wpt>
  <wpt lat="46.0656615" lon="11.1248850">
    <name>Pause</name>
  </wpt>
  <wpt lat="46.0642415" lon="11.1204564">
    <name>Resume</name>
  </wpt>
  <trk>
    <name>rabbit_head 15 km · 2026-10-04</name>
    <trkseg>
      <trkpt lat="46.0668711" lon="11.1210492" />
      <trkpt lat="46.0667705" lon="11.1210629" />
      <trkpt lat="46.0667526" lon="11.1210542" />
      <trkpt lat="46.0667024" lon="11.1213629" />
      <trkpt lat="46.0666701" lon="11.1215352" />
      <trkpt lat="46.0666789" lon="11.1217092" />
      <trkpt lat="46.0667274" lon="11.1218448" />
      <trkpt lat="46.0667304" lon="11.1218751" />
      <trkpt lat="46.0667697" lon="11.1219637" />
      <trkpt lat="46.0668675" lon="11.1221842" />
      <trkpt lat="46.0668704" lon="11.1222043" />
      <trkpt lat="46.0668726" lon="11.1222251" />
      <trkpt lat="46.0667963" lon="11.1222541" />
      <trkpt lat="46.0667787" lon="11.1222601" />
      <trkpt lat="46.0667357" lon="11.1222747" />
      <trkpt lat="46.0667414" lon="11.1223091" />
      <trkpt lat="46.0667532" lon="11.1223909" />
      <trkpt lat="46.0667715" lon="11.1225101" />
      <trkpt lat="46.0667729" lon="11.1225194" />
      <trkpt lat="46.0667810" lon="11.1225726" />
      <trkpt lat="46.0668548" lon="11.1230552" />
      <trkpt lat="46.0668872" lon="11.1232848" />
      <trkpt lat="46.0668905" lon="11.1233334" />
      <trkpt lat="46.0668986" lon="11.1233290" />
      <trkpt lat="46.0669188" lon="11.1233181" />
      <trkpt lat="46.0669670" lon="11.1232923" />
      <trkpt lat="46.0672635" lon="11.1232024" />
      <trkpt lat="46.0672653" lon="11.1232368" />
      <trkpt lat="46.0672686" lon="11.1232351" />
      <trkpt lat="46.0672810" lon="11.1232291" />
      <trkpt lat="46.0672821" lon="11.1232581" />
      <trkpt lat="46.0672873" lon="11.1232576" />
      <trkpt lat="46.0673011" lon="11.1232564" />
      <trkpt lat="46.0673146" lon="11.1232553" />
      <trkpt lat="46.0673183" lon="11.1232550" />
      <trkpt lat="46.0673371" lon="11.1232534" />
      <trkpt lat="46.0674008" lon="11.1232483" />
      <trkpt lat="46.0674156" lon="11.1232472" />
      <trkpt lat="46.0676659" lon="11.1232331" />
      <trkpt lat="46.0677631" lon="11.1232283" />
      <trkpt lat="46.0678077" lon="11.1232267" />
      <trkpt lat="46.0678084" lon="11.1230699" />
      <trkpt lat="46.0678154" lon="11.1230007" />
      <trkpt lat="46.0679498" lon="11.1229741" />
      <trkpt lat="46.0681832" lon="11.1229244" />
      <trkpt lat="46.0682031" lon="11.1229202" />
      <trkpt lat="46.0681489" lon="11.1225470" />
      <trkpt lat="46.0685802" lon="11.1225918" />
      <trkpt lat="46.0688087" lon="11.1225689" />
      <trkpt lat="46.0690210" lon="11.1225351" />
      <trkpt lat="46.0693306" lon="11.1224874" />
      <trkpt lat="46.0695838" lon="11.1225012" />
      <trkpt lat="46.0698051" lon="11.1225938" />
      <trkpt lat="46.0697220" lon="11.1217857" />
      <trkpt lat="46.0696940" lon="11.1215142" />
      <trkpt lat="46.0696745" lon="11.1212388" />
      <trkpt lat="46.0695156" lon="11.1212370" />
      <trkpt lat="46.0690418" lon="11.1212454" />
      <trkpt lat="46.0688448" lon="11.1212725" />
      <trkpt lat="46.0688409" lon="11.1212316" />
      <trkpt lat="46.0688387" lon="11.1211858" />
      <trkpt lat="46.0688365" lon="11.1211527" />
      <trkpt lat="46.0687499" lon="11.1204587" />
      <trkpt lat="46.0687388" lon="11.1203760" />
      <trkpt lat="46.0687020" lon="11.1201725" />
      <trkpt lat="46.0686963" lon="11.1201124" />
      <trkpt lat="46.0686941" lon="11.1200894" />
      <trkpt lat="46.0686922" lon="11.1200685" />
      <trkpt lat="46.0686910" lon="11.1200385" />
      <trkpt lat="46.0685313" lon="11.1200706" />
      <trkpt lat="46.0685273" lon="11.1200042" />
      <trkpt lat="46.0686285" lon="11.1199921" />
      <trkpt lat="46.0687055" lon="11.1199855" />
      <trkpt lat="46.0687688" lon="11.1199699" />
      <trkpt lat="46.0687784" lon="11.1199700" />
      <trkpt lat="46.0688097" lon="11.1199685" />
      <trkpt lat="46.0688503" lon="11.1199666" />
      <trkpt lat="46.0688785" lon="11.1199652" />
      <trkpt lat="46.0688928" lon="11.1199633" />
      <trkpt lat="46.0689900" lon="11.1199487" />
      <trkpt lat="46.0690484" lon="11.1199429" />
      <trkpt lat="46.0691086" lon="11.1199380" />
      <trkpt lat="46.0691667" lon="11.1199367" />
      <trkpt lat="46.0692352" lon="11.1199271" />
      <trkpt lat="46.0693982" lon="11.1198734" />
      <trkpt lat="46.0694763" lon="11.1198434" />
      <trkpt lat="46.0695220" lon="11.1198116" />
      <trkpt lat="46.0695493" lon="11.1198090" />
      <trkpt lat="46.0695787" lon="11.1198028" />
      <trkpt lat="46.0699049" lon="11.1197056" />
      <trkpt lat="46.0699981" lon="11.1197027" />
      <trkpt lat="46.0700021" lon="11.1197557" />
      <trkpt lat="46.0700053" lon="11.1197976" />
      <trkpt lat="46.0700337" lon="11.1198021" />
      <trkpt lat="46.0700585" lon="11.1200224" />
      <trkpt lat="46.0701087" lon="11.1200099" />
      <trkpt lat="46.0701965" lon="11.1199880" />
      <trkpt lat="46.0702609" lon="11.1206156" />
      <trkpt lat="46.0703911" lon="11.1205907" />
      <trkpt lat="46.0704219" lon="11.1206145" />
      <trkpt lat="46.0704688" lon="11.1207212" />
      <trkpt lat="46.0704977" lon="11.1208011" />
      <trkpt lat="46.0705556" lon="11.1207774" />
      <trkpt lat="46.0707008" lon="11.1207313" />
      <trkpt lat="46.0707490" lon="11.1207293" />
      <trkpt lat="46.0708300" lon="11.1207393" />
      <trkpt lat="46.0709364" lon="11.1207311" />
      <trkpt lat="46.0709509" lon="11.1208545" />
      <trkpt lat="46.0709558" lon="11.1208960" />
      <trkpt lat="46.0709770" lon="11.1211108" />
      <trkpt lat="46.0709800" lon="11.1211393" />
      <trkpt lat="46.0709933" lon="11.1212422" />
      <trkpt lat="46.0714042" lon="11.1211368" />
      <trkpt lat="46.0714094" lon="11.1210971" />
      <trkpt lat="46.0714182" lon="11.1210689" />
      <trkpt lat="46.0714280" lon="11.1210421" />
      <trkpt lat="46.0714484" lon="11.1210274" />
      <trkpt lat="46.0714778" lon="11.1210315" />
      <trkpt lat="46.0715831" lon="11.1210789" />
      <trkpt lat="46.0716174" lon="11.1210984" />
      <trkpt lat="46.0716533" lon="11.1211213" />
      <trkpt lat="46.0716908" lon="11.1211467" />
      <trkpt lat="46.0717867" lon="11.1212118" />
      <trkpt lat="46.0718835" lon="11.1212826" />
      <trkpt lat="46.0719062" lon="11.1213170" />
      <trkpt lat="46.0719313" lon="11.1213497" />
      <trkpt lat="46.0720298" lon="11.1214493" />
      <trkpt lat="46.0720560" lon="11.1214732" />
      <trkpt lat="46.0720810" lon="11.1215120" />
      <trkpt lat="46.0722703" lon="11.1216368" />
      <trkpt lat="46.0726591" lon="11.1218861" />
      <trkpt lat="46.0726938" lon="11.1219095" />
      <trkpt lat="46.0730062" lon="11.1221203" />
      <trkpt lat="46.0730243" lon="11.1221312" />
      <trkpt lat="46.0730456" lon="11.1221453" />
      <trkpt lat="46.0730738" lon="11.1221640" />
      <trkpt lat="46.0731482" lon="11.1222134" />
      <trkpt lat="46.0742175" lon="11.1229026" />
      <trkpt lat="46.0741923" lon="11.1229763" />
      <trkpt lat="46.0741784" lon="11.1230172" />
      <trkpt lat="46.0741592" lon="11.1230768" />
      <trkpt lat="46.0741701" lon="11.1230924" />
      <trkpt lat="46.0741806" lon="11.1231220" />
      <trkpt lat="46.0742617" lon="11.1237102" />
      <trkpt lat="46.0742853" lon="11.1238254" />
      <trkpt lat="46.0742990" lon="11.1239239" />
      <trkpt lat="46.0743116" lon="11.1240141" />
      <trkpt lat="46.0743158" lon="11.1240526" />
      <trkpt lat="46.0743162" lon="11.1240737" />
      <trkpt lat="46.0743119" lon="11.1240881" />
      <trkpt lat="46.0743203" lon="11.1241571" />
      <trkpt lat="46.0743308" lon="11.1242438" />
      <trkpt lat="46.0743381" lon="11.1242486" />
      <trkpt lat="46.0743449" lon="11.1242560" />
      <trkpt lat="46.0743529" lon="11.1242752" />
      <trkpt lat="46.0743593" lon="11.1243010" />
      <trkpt lat="46.0743853" lon="11.1245078" />
      <trkpt lat="46.0744119" lon="11.1247181" />
      <trkpt lat="46.0744240" lon="11.1248285" />
      <trkpt lat="46.0744248" lon="11.1248384" />
      <trkpt lat="46.0744263" lon="11.1249352" />
      <trkpt lat="46.0744276" lon="11.1250102" />
      <trkpt lat="46.0744467" lon="11.1250478" />
      <trkpt lat="46.0744495" lon="11.1250996" />
      <trkpt lat="46.0744269" lon="11.1251494" />
      <trkpt lat="46.0742862" lon="11.1252110" />
      <trkpt lat="46.0742901" lon="11.1252486" />
      <trkpt lat="46.0742936" lon="11.1252822" />
      <trkpt lat="46.0738766" lon="11.1254193" />
      <trkpt lat="46.0738438" lon="11.1254301" />
      <trkpt lat="46.0737043" lon="11.1254537" />
      <trkpt lat="46.0736762" lon="11.1254607" />
      <trkpt lat="46.0734031" lon="11.1254700" />
      <trkpt lat="46.0731690" lon="11.1254454" />
      <trkpt lat="46.0731565" lon="11.1254463" />
      <trkpt lat="46.0731516" lon="11.1254532" />
      <trkpt lat="46.0731515" lon="11.1254814" />
      <trkpt lat="46.0731643" lon="11.1258956" />
      <trkpt lat="46.0731185" lon="11.1259103" />
      <trkpt lat="46.0731191" lon="11.1259433" />
      <trkpt lat="46.0731016" lon="11.1259478" />
      <trkpt lat="46.0730743" lon="11.1254858" />
      <trkpt lat="46.0730708" lon="11.1254399" />
      <trkpt lat="46.0730716" lon="11.1253856" />
      <trkpt lat="46.0727195" lon="11.1253147" />
      <trkpt lat="46.0723085" lon="11.1252311" />
      <trkpt lat="46.0722208" lon="11.1252132" />
      <trkpt lat="46.0721976" lon="11.1253427" />
      <trkpt lat="46.0721792" lon="11.1254450" />
      <trkpt lat="46.0720949" lon="11.1258874" />
      <trkpt lat="46.0720801" lon="11.1259174" />
      <trkpt lat="46.0720743" lon="11.1259287" />
      <trkpt lat="46.0720594" lon="11.1259585" />
      <trkpt lat="46.0720402" lon="11.1259968" />
      <trkpt lat="46.0720236" lon="11.1260184" />
      <trkpt lat="46.0719595" lon="11.1259970" />
      <trkpt lat="46.0719279" lon="11.1259983" />
      <trkpt lat="46.0718057" lon="11.1260913" />
      <trkpt lat="46.0715224" lon="11.1262776" />
      <trkpt lat="46.0714852" lon="11.1263054" />
      <trkpt lat="46.0710568" lon="11.1266140" />
      <trkpt lat="46.0709749" lon="11.1266699" />
      <trkpt lat="46.0709037" lon="11.1267087" />
      <trkpt lat="46.0706168" lon="11.1268395" />
      <trkpt lat="46.0705058" lon="11.1269002" />
      <trkpt lat="46.0701576" lon="11.1272025" />
      <trkpt lat="46.0701274" lon="11.1272407" />
      <trkpt lat="46.0700069" lon="11.1273936" />
      <trkpt lat="46.0699719" lon="11.1274335" />
      <trkpt lat="46.0699578" lon="11.1274338" />
      <trkpt lat="46.0699232" lon="11.1274344" />
      <trkpt lat="46.0698926" lon="11.1274261" />
      <trkpt lat="46.0698063" lon="11.1273526" />
      <trkpt lat="46.0696463" lon="11.1273383" />
      <trkpt lat="46.0696063" lon="11.1273552" />
      <trkpt lat="46.0695235" lon="11.1274062" />
      <trkpt lat="46.0694686" lon="11.1274491" />
      <trkpt lat="46.0694193" lon="11.1274531" />
      <trkpt lat="46.0693663" lon="11.1274464" />
      <trkpt lat="46.0693272" lon="11.1274236" />
      <trkpt lat="46.0692890" lon="11.1273941" />
      <trkpt lat="46.0692285" lon="11.1273740" />
      <trkpt lat="46.0691985" lon="11.1273747" />
      <trkpt lat="46.0691635" lon="11.1273946" />
      <trkpt lat="46.0691395" lon="11.1274461" />
      <trkpt lat="46.0691298" lon="11.1275184" />
      <trkpt lat="46.0691062" lon="11.1275184" />
      <trkpt lat="46.0690840" lon="11.1275180" />
      <trkpt lat="46.0690747" lon="11.1275186" />
      <trkpt lat="46.0690710" lon="11.1275307" />
      <trkpt lat="46.0690596" lon="11.1276035" />
      <trkpt lat="46.0690164" lon="11.1275628" />
      <trkpt lat="46.0690389" lon="11.1274728" />
      <trkpt lat="46.0690084" lon="11.1274366" />
      <trkpt lat="46.0689932" lon="11.1274221" />
      <trkpt lat="46.0689714" lon="11.1274003" />
      <trkpt lat="46.0689301" lon="11.1273622" />
      <trkpt lat="46.0689194" lon="11.1273983" />
      <trkpt lat="46.0689113" lon="11.1274118" />
      <trkpt lat="46.0689005" lon="11.1274117" />
      <trkpt lat="46.0675525" lon="11.1266584" />
      <trkpt lat="46.0675385" lon="11.1267116" />
      <trkpt lat="46.0675228" lon="11.1267715" />
      <trkpt lat="46.0675112" lon="11.1268155" />
      <trkpt lat="46.0674573" lon="11.1268523" />
      <trkpt lat="46.0674238" lon="11.1268989" />
      <trkpt lat="46.0673959" lon="11.1269904" />
      <trkpt lat="46.0673797" lon="11.1270731" />
      <trkpt lat="46.0673525" lon="11.1270645" />
      <trkpt lat="46.0672801" lon="11.1270417" />
      <trkpt lat="46.0672478" lon="11.1273067" />
      <trkpt lat="46.0671701" lon="11.1277728" />
      <trkpt lat="46.0671617" lon="11.1278150" />
      <trkpt lat="46.0671509" lon="11.1278684" />
      <trkpt lat="46.0667700" lon="11.1276702" />
      <trkpt lat="46.0667460" lon="11.1276611" />
      <trkpt lat="46.0664215" lon="11.1288729" />
      <trkpt lat="46.0663816" lon="11.1288471" />
      <trkpt lat="46.0663544" lon="11.1288314" />
      <trkpt lat="46.0663345" lon="11.1289105" />
      <trkpt lat="46.0663240" lon="11.1289545" />
      <trkpt lat="46.0657225" lon="11.1286354" />
      <trkpt lat="46.0656486" lon="11.1285962" />
      <trkpt lat="46.0650763" lon="11.1282832" />
      <trkpt lat="46.0649902" lon="11.1282361" />
      <trkpt lat="46.0649274" lon="11.1282017" />
      <trkpt lat="46.0649203" lon="11.1282300" />
      <trkpt lat="46.0646867" lon="11.1291487" />
      <trkpt lat="46.0646163" lon="11.1294270" />
      <trkpt lat="46.0645738" lon="11.1295950" />
      <trkpt lat="46.0645117" lon="11.1298516" />
      <trkpt lat="46.0643975" lon="11.1303232" />
      <trkpt lat="46.0643886" lon="11.1303664" />
      <trkpt lat="46.0643810" lon="11.1304035" />
      <trkpt lat="46.0643782" lon="11.1304176" />
      <trkpt lat="46.0643312" lon="11.1309593" />
      <trkpt lat="46.0643277" lon="11.1310006" />
      <trkpt lat="46.0643248" lon="11.1310385" />
      <trkpt lat="46.0642751" lon="11.1310378" />
      <trkpt lat="46.0642660" lon="11.1311712" />
      <trkpt lat="46.0640542" lon="11.1311967" />
      <trkpt lat="46.0638505" lon="11.1312711" />
      <trkpt lat="46.0638292" lon="11.1312810" />
      <trkpt lat="46.0638530" lon="11.1312157" />
      <trkpt lat="46.0638587" lon="11.1311565" />
      <trkpt lat="46.0638479" lon="11.1310841" />
      <trkpt lat="46.0638130" lon="11.1310138" />
      <trkpt lat="46.0637262" lon="11.1309860" />
      <trkpt lat="46.0636034" lon="11.1309419" />
      <trkpt lat="46.0632391" lon="11.1308112" />
      <trkpt lat="46.0630206" lon="11.1307328" />
      <trkpt lat="46.0629175" lon="11.1307925" />
      <trkpt lat="46.0628075" lon="11.1307325" />
      <trkpt lat="46.0627362" lon="11.1306650" />
      <trkpt lat="46.0626905" lon="11.1306028" />
      <trkpt lat="46.0626514" lon="11.1306581" />
      <trkpt lat="46.0626054" lon="11.1305882" />
      <trkpt lat="46.0621955" lon="11.1299818" />
      <trkpt lat="46.0620072" lon="11.1302360" />
      <trkpt lat="46.0619028" lon="11.1300830" />
      <trkpt lat="46.0616172" lon="11.1304680" />
      <trkpt lat="46.0615713" lon="11.1305001" />
      <trkpt lat="46.0614939" lon="11.1306083" />
      <trkpt lat="46.0611427" lon="11.1301344" />
      <trkpt lat="46.0611232" lon="11.1301720" />
      <trkpt lat="46.0610424" lon="11.1300545" />
      <trkpt lat="46.0610009" lon="11.1299950" />
      <trkpt lat="46.0609740" lon="11.1299560" />
      <trkpt lat="46.0606803" lon="11.1295211" />
      <trkpt lat="46.0604501" lon="11.1291803" />
      <trkpt lat="46.0602997" lon="11.1289644" />
      <trkpt lat="46.0602269" lon="11.1288582" />
      <trkpt lat="46.0602050" lon="11.1288262" />
      <trkpt lat="46.0598300" lon="11.1282789" />
      <trkpt lat="46.0597850" lon="11.1282180" />
      <trkpt lat="46.0591635" lon="11.1273036" />
      <trkpt lat="46.0590732" lon="11.1271445" />
      <trkpt lat="46.0590349" lon="11.1271380" />
      <trkpt lat="46.0590244" lon="11.1271318" />
      <trkpt lat="46.0590008" lon="11.1270867" />
      <trkpt lat="46.0589778" lon="11.1270429" />
      <trkpt lat="46.0589527" lon="11.1270133" />
      <trkpt lat="46.0589224" lon="11.1269997" />
      <trkpt lat="46.0588897" lon="11.1269858" />
      <trkpt lat="46.0589036" lon="11.1269719" />
      <trkpt lat="46.0589311" lon="11.1269398" />
      <trkpt lat="46.0588911" lon="11.1268848" />
      <trkpt lat="46.0587747" lon="11.1267065" />
      <trkpt lat="46.0587081" lon="11.1266351" />
      <trkpt lat="46.0586921" lon="11.1266284" />
      <trkpt lat="46.0586813" lon="11.1266261" />
      <trkpt lat="46.0586698" lon="11.1266261" />
      <trkpt lat="46.0586623" lon="11.1266225" />
      <trkpt lat="46.0583284" lon="11.1263150" />
      <trkpt lat="46.0577668" lon="11.1257904" />
      <trkpt lat="46.0578741" lon="11.1255407" />
      <trkpt lat="46.0579003" lon="11.1254811" />
      <trkpt lat="46.0579538" lon="11.1255362" />
      <trkpt lat="46.0579717" lon="11.1254582" />
      <trkpt lat="46.0580007" lon="11.1254332" />
      <trkpt lat="46.0580170" lon="11.1254037" />
      <trkpt lat="46.0583531" lon="11.1246930" />
      <trkpt lat="46.0587443" lon="11.1245194" />
      <trkpt lat="46.0587569" lon="11.1245876" />
      <trkpt lat="46.0588271" lon="11.1249646" />
      <trkpt lat="46.0588379" lon="11.1250618" />
      <trkpt lat="46.0588704" lon="11.1257479" />
      <trkpt lat="46.0588819" lon="11.1259864" />
      <trkpt lat="46.0588846" lon="11.1260221" />
      <trkpt lat="46.0588819" lon="11.1259864" />
      <trkpt lat="46.0588704" lon="11.1257479" />
      <trkpt lat="46.0588379" lon="11.1250618" />
      <trkpt lat="46.0588271" lon="11.1249646" />
      <trkpt lat="46.0587569" lon="11.1245876" />
      <trkpt lat="46.0587443" lon="11.1245194" />
      <trkpt lat="46.0587351" lon="11.1244701" />
      <trkpt lat="46.0587021" lon="11.1243002" />
      <trkpt lat="46.0585714" lon="11.1236272" />
      <trkpt lat="46.0585618" lon="11.1235804" />
      <trkpt lat="46.0585714" lon="11.1236272" />
      <trkpt lat="46.0587021" lon="11.1243002" />
      <trkpt lat="46.0587351" lon="11.1244701" />
      <trkpt lat="46.0587443" lon="11.1245194" />
      <trkpt lat="46.0587776" lon="11.1245044" />
      <trkpt lat="46.0588061" lon="11.1244923" />
      <trkpt lat="46.0588207" lon="11.1245214" />
      <trkpt lat="46.0588697" lon="11.1246075" />
      <trkpt lat="46.0590252" lon="11.1248198" />
      <trkpt lat="46.0590600" lon="11.1247922" />
      <trkpt lat="46.0591513" lon="11.1249189" />
      <trkpt lat="46.0592819" lon="11.1250938" />
      <trkpt lat="46.0593294" lon="11.1250392" />
      <trkpt lat="46.0594861" lon="11.1249628" />
      <trkpt lat="46.0595869" lon="11.1248403" />
      <trkpt lat="46.0598002" lon="11.1246926" />
      <trkpt lat="46.0597862" lon="11.1239038" />
      <trkpt lat="46.0597828" lon="11.1236924" />
      <trkpt lat="46.0597866" lon="11.1235602" />
      <trkpt lat="46.0597862" lon="11.1231377" />
      <trkpt lat="46.0598169" lon="11.1231249" />
      <trkpt lat="46.0601353" lon="11.1229922" />
      <trkpt lat="46.0601569" lon="11.1229832" />
      <trkpt lat="46.0604823" lon="11.1228476" />
      <trkpt lat="46.0605971" lon="11.1234256" />
      <trkpt lat="46.0606457" lon="11.1236712" />
      <trkpt lat="46.0607042" lon="11.1239462" />
      <trkpt lat="46.0607230" lon="11.1240345" />
      <trkpt lat="46.0607726" lon="11.1242613" />
      <trkpt lat="46.0608179" lon="11.1244644" />
      <trkpt lat="46.0608477" lon="11.1245912" />
      <trkpt lat="46.0608681" lon="11.1246846" />
      <trkpt lat="46.0609066" lon="11.1246665" />
      <trkpt lat="46.0609351" lon="11.1246532" />
      <trkpt lat="46.0609461" lon="11.1246480" />
      <trkpt lat="46.0609544" lon="11.1246578" />
      <trkpt lat="46.0609648" lon="11.1246601" />
      <trkpt lat="46.0609940" lon="11.1246318" />
      <trkpt lat="46.0610477" lon="11.1247577" />
      <trkpt lat="46.0610867" lon="11.1248491" />
      <trkpt lat="46.0617312" lon="11.1241897" />
      <trkpt lat="46.0617742" lon="11.1241470" />
      <trkpt lat="46.0617880" lon="11.1241457" />
      <trkpt lat="46.0618018" lon="11.1241549" />
      <trkpt lat="46.0618884" lon="11.1241103" />
      <trkpt lat="46.0619488" lon="11.1240793" />
      <trkpt lat="46.0620044" lon="11.1240464" />
      <trkpt lat="46.0621371" lon="11.1240100" />
      <trkpt lat="46.0621322" lon="11.1239552" />
      <trkpt lat="46.0621276" lon="11.1239028" />
      <trkpt lat="46.0621196" lon="11.1238157" />
      <trkpt lat="46.0625659" lon="11.1237170" />
      <trkpt lat="46.0625912" lon="11.1237114" />
      <trkpt lat="46.0626627" lon="11.1236956" />
      <trkpt lat="46.0626879" lon="11.1236900" />
      <trkpt lat="46.0632487" lon="11.1235607" />
      <trkpt lat="46.0632753" lon="11.1235553" />
      <trkpt lat="46.0632716" lon="11.1235258" />
      <trkpt lat="46.0632434" lon="11.1233313" />
      <trkpt lat="46.0631926" lon="11.1231619" />
      <trkpt lat="46.0631418" lon="11.1226600" />
      <trkpt lat="46.0630987" lon="11.1226025" />
      <trkpt lat="46.0630900" lon="11.1222821" />
      <trkpt lat="46.0630769" lon="11.1218013" />
      <trkpt lat="46.0630750" lon="11.1216781" />
      <trkpt lat="46.0630008" lon="11.1216637" />
      <trkpt lat="46.0627849" lon="11.1216219" />
      <trkpt lat="46.0627290" lon="11.1216188" />
      <trkpt lat="46.0624505" lon="11.1216299" />
      <trkpt lat="46.0624410" lon="11.1216302" />
      <trkpt lat="46.0621711" lon="11.1216454" />
      <trkpt lat="46.0621300" lon="11.1216464" />
      <trkpt lat="46.0620871" lon="11.1216487" />
      <trkpt lat="46.0618911" lon="11.1216643" />
      <trkpt lat="46.0615861" lon="11.1217028" />
      <trkpt lat="46.0614464" lon="11.1217229" />
      <trkpt lat="46.0611718" lon="11.1217622" />
      <trkpt lat="46.0610024" lon="11.1217844" />
      <trkpt lat="46.0609143" lon="11.1217977" />
      <trkpt lat="46.0608533" lon="11.1218096" />
      <trkpt lat="46.0607979" lon="11.1218270" />
      <trkpt lat="46.0607096" lon="11.1218637" />
      <trkpt lat="46.0604187" lon="11.1219731" />
      <trkpt lat="46.0604230" lon="11.1219955" />
      <trkpt lat="46.0604256" lon="11.1220091" />
      <trkpt lat="46.0604197" lon="11.1220190" />
      <trkpt lat="46.0604182" lon="11.1220324" />
      <trkpt lat="46.0604215" lon="11.1220500" />
      <trkpt lat="46.0604562" lon="11.1221496" />
      <trkpt lat="46.0605047" lon="11.1223975" />
      <trkpt lat="46.0606655" lon="11.1232213" />
      <trkpt lat="46.0606981" lon="11.1233855" />
      <trkpt lat="46.0606392" lon="11.1234094" />
      <trkpt lat="46.0605971" lon="11.1234256" />
      <trkpt lat="46.0604823" lon="11.1228476" />
      <trkpt lat="46.0601569" lon="11.1229832" />
      <trkpt lat="46.0601353" lon="11.1229922" />
      <trkpt lat="46.0598169" lon="11.1231249" />
      <trkpt lat="46.0597862" lon="11.1231377" />
      <trkpt lat="46.0597866" lon="11.1235602" />
      <trkpt lat="46.0597828" lon="11.1236924" />
      <trkpt lat="46.0597862" lon="11.1239038" />
      <trkpt lat="46.0598002" lon="11.1246926" />
      <trkpt lat="46.0595869" lon="11.1248403" />
      <trkpt lat="46.0594861" lon="11.1249628" />
      <trkpt lat="46.0593294" lon="11.1250392" />
      <trkpt lat="46.0592819" lon="11.1250938" />
      <trkpt lat="46.0591513" lon="11.1249189" />
      <trkpt lat="46.0590600" lon="11.1247922" />
      <trkpt lat="46.0590252" lon="11.1248198" />
      <trkpt lat="46.0588697" lon="11.1246075" />
      <trkpt lat="46.0588207" lon="11.1245214" />
      <trkpt lat="46.0588061" lon="11.1244923" />
      <trkpt lat="46.0587776" lon="11.1245044" />
      <trkpt lat="46.0587443" lon="11.1245194" />
      <trkpt lat="46.0583531" lon="11.1246930" />
      <trkpt lat="46.0576941" lon="11.1239286" />
      <trkpt lat="46.0578345" lon="11.1238631" />
      <trkpt lat="46.0585618" lon="11.1235804" />
      <trkpt lat="46.0585476" lon="11.1235112" />
      <trkpt lat="46.0584227" lon="11.1228911" />
      <trkpt lat="46.0584199" lon="11.1228643" />
      <trkpt lat="46.0584084" lon="11.1228464" />
      <trkpt lat="46.0583844" lon="11.1228497" />
      <trkpt lat="46.0583410" lon="11.1228663" />
      <trkpt lat="46.0583323" lon="11.1228233" />
      <trkpt lat="46.0583245" lon="11.1227860" />
      <trkpt lat="46.0583210" lon="11.1227666" />
      <trkpt lat="46.0583806" lon="11.1227438" />
      <trkpt lat="46.0583857" lon="11.1227331" />
      <trkpt lat="46.0583853" lon="11.1227177" />
      <trkpt lat="46.0583665" lon="11.1226155" />
      <trkpt lat="46.0583463" lon="11.1225134" />
      <trkpt lat="46.0582824" lon="11.1221902" />
      <trkpt lat="46.0582744" lon="11.1221495" />
      <trkpt lat="46.0582626" lon="11.1220895" />
      <trkpt lat="46.0581951" lon="11.1217461" />
      <trkpt lat="46.0581812" lon="11.1216752" />
      <trkpt lat="46.0581808" lon="11.1216264" />
      <trkpt lat="46.0580881" lon="11.1211423" />
      <trkpt lat="46.0580085" lon="11.1207268" />
      <trkpt lat="46.0580018" lon="11.1206927" />
      <trkpt lat="46.0579967" lon="11.1206670" />
      <trkpt lat="46.0579898" lon="11.1206318" />
      <trkpt lat="46.0578706" lon="11.1200364" />
      <trkpt lat="46.0579274" lon="11.1200138" />
      <trkpt lat="46.0578976" lon="11.1198612" />
      <trkpt lat="46.0578798" lon="11.1197670" />
      <trkpt lat="46.0578888" lon="11.1196753" />
      <trkpt lat="46.0579095" lon="11.1195900" />
      <trkpt lat="46.0579310" lon="11.1195295" />
      <trkpt lat="46.0579520" lon="11.1194712" />
      <trkpt lat="46.0579751" lon="11.1194141" />
      <trkpt lat="46.0580289" lon="11.1193886" />
      <trkpt lat="46.0585235" lon="11.1191879" />
      <trkpt lat="46.0587415" lon="11.1190992" />
      <trkpt lat="46.0587263" lon="11.1190237" />
      <trkpt lat="46.0587439" lon="11.1190117" />
      <trkpt lat="46.0587557" lon="11.1189958" />
      <trkpt lat="46.0587640" lon="11.1189806" />
      <trkpt lat="46.0587747" lon="11.1189530" />
      <trkpt lat="46.0587799" lon="11.1189305" />
      <trkpt lat="46.0587823" lon="11.1188985" />
      <trkpt lat="46.0587817" lon="11.1188735" />
      <trkpt lat="46.0587801" lon="11.1188571" />
      <trkpt lat="46.0587843" lon="11.1188424" />
      <trkpt lat="46.0587989" lon="11.1188321" />
      <trkpt lat="46.0588162" lon="11.1188260" />
      <trkpt lat="46.0588447" lon="11.1188180" />
      <trkpt lat="46.0588661" lon="11.1188079" />
      <trkpt lat="46.0588731" lon="11.1188006" />
      <trkpt lat="46.0588776" lon="11.1187888" />
      <trkpt lat="46.0588847" lon="11.1187594" />
      <trkpt lat="46.0588981" lon="11.1187034" />
      <trkpt lat="46.0589314" lon="11.1187191" />
      <trkpt lat="46.0589295" lon="11.1186394" />
      <trkpt lat="46.0588698" lon="11.1177998" />
      <trkpt lat="46.0586376" lon="11.1178342" />
      <trkpt lat="46.0586472" lon="11.1179341" />
      <trkpt lat="46.0586687" lon="11.1179403" />
      <trkpt lat="46.0586877" lon="11.1179560" />
      <trkpt lat="46.0587023" lon="11.1179796" />
      <trkpt lat="46.0587109" lon="11.1180086" />
      <trkpt lat="46.0587126" lon="11.1180401" />
      <trkpt lat="46.0587073" lon="11.1180708" />
      <trkpt lat="46.0586955" lon="11.1180974" />
      <trkpt lat="46.0586785" lon="11.1181172" />
      <trkpt lat="46.0586579" lon="11.1181282" />
      <trkpt lat="46.0587118" lon="11.1182712" />
      <trkpt lat="46.0587770" lon="11.1184070" />
      <trkpt lat="46.0589295" lon="11.1186394" />
      <trkpt lat="46.0589314" lon="11.1187191" />
      <trkpt lat="46.0590468" lon="11.1187740" />
      <trkpt lat="46.0591235" lon="11.1187874" />
      <trkpt lat="46.0595088" lon="11.1189267" />
      <trkpt lat="46.0595686" lon="11.1189463" />
      <trkpt lat="46.0595955" lon="11.1189419" />
      <trkpt lat="46.0596156" lon="11.1189352" />
      <trkpt lat="46.0596311" lon="11.1189300" />
      <trkpt lat="46.0596616" lon="11.1189111" />
      <trkpt lat="46.0596874" lon="11.1188861" />
      <trkpt lat="46.0597131" lon="11.1188336" />
      <trkpt lat="46.0597443" lon="11.1187786" />
      <trkpt lat="46.0597807" lon="11.1187380" />
      <trkpt lat="46.0598419" lon="11.1187024" />
      <trkpt lat="46.0598790" lon="11.1186719" />
      <trkpt lat="46.0598898" lon="11.1186566" />
      <trkpt lat="46.0599034" lon="11.1186373" />
      <trkpt lat="46.0599183" lon="11.1185811" />
      <trkpt lat="46.0599230" lon="11.1185401" />
      <trkpt lat="46.0598831" lon="11.1177082" />
      <trkpt lat="46.0598661" lon="11.1175765" />
      <trkpt lat="46.0599290" lon="11.1175625" />
      <trkpt lat="46.0599681" lon="11.1175538" />
      <trkpt lat="46.0599589" lon="11.1174647" />
      <trkpt lat="46.0599515" lon="11.1174071" />
      <trkpt lat="46.0598634" lon="11.1167743" />
      <trkpt lat="46.0598461" lon="11.1166042" />
      <trkpt lat="46.0598405" lon="11.1165199" />
      <trkpt lat="46.0598234" lon="11.1162616" />
      <trkpt lat="46.0598127" lon="11.1161536" />
      <trkpt lat="46.0598161" lon="11.1161189" />
      <trkpt lat="46.0598248" lon="11.1160878" />
      <trkpt lat="46.0598315" lon="11.1160757" />
      <trkpt lat="46.0598381" lon="11.1160636" />
      <trkpt lat="46.0598533" lon="11.1160417" />
      <trkpt lat="46.0598724" lon="11.1160321" />
      <trkpt lat="46.0598921" lon="11.1160271" />
      <trkpt lat="46.0598890" lon="11.1159596" />
      <trkpt lat="46.0598837" lon="11.1158425" />
      <trkpt lat="46.0602448" lon="11.1157977" />
      <trkpt lat="46.0607404" lon="11.1157208" />
      <trkpt lat="46.0611979" lon="11.1156496" />
      <trkpt lat="46.0611849" lon="11.1154325" />
      <trkpt lat="46.0611985" lon="11.1154306" />
      <trkpt lat="46.0612120" lon="11.1154287" />
      <trkpt lat="46.0612313" lon="11.1154259" />
      <trkpt lat="46.0612433" lon="11.1154242" />
      <trkpt lat="46.0612420" lon="11.1154014" />
      <trkpt lat="46.0612428" lon="11.1153787" />
      <trkpt lat="46.0612475" lon="11.1153646" />
      <trkpt lat="46.0612554" lon="11.1153612" />
      <trkpt lat="46.0614148" lon="11.1153383" />
      <trkpt lat="46.0617811" lon="11.1152857" />
      <trkpt lat="46.0621952" lon="11.1152262" />
      <trkpt lat="46.0623235" lon="11.1152078" />
      <trkpt lat="46.0623258" lon="11.1152459" />
      <trkpt lat="46.0623980" lon="11.1152361" />
      <trkpt lat="46.0624451" lon="11.1152295" />
      <trkpt lat="46.0624545" lon="11.1152502" />
      <trkpt lat="46.0624630" lon="11.1153766" />
      <trkpt lat="46.0624812" lon="11.1153737" />
      <trkpt lat="46.0624821" lon="11.1153882" />
      <trkpt lat="46.0624850" lon="11.1154315" />
      <trkpt lat="46.0624877" lon="11.1154771" />
      <trkpt lat="46.0625755" lon="11.1154629" />
      <trkpt lat="46.0627135" lon="11.1154394" />
      <trkpt lat="46.0628553" lon="11.1154153" />
      <trkpt lat="46.0628905" lon="11.1154105" />
      <trkpt lat="46.0630226" lon="11.1153925" />
      <trkpt lat="46.0630418" lon="11.1153936" />
      <trkpt lat="46.0630686" lon="11.1154094" />
      <trkpt lat="46.0630948" lon="11.1154337" />
      <trkpt lat="46.0631258" lon="11.1154721" />
      <trkpt lat="46.0632164" lon="11.1156132" />
      <trkpt lat="46.0632900" lon="11.1157231" />
      <trkpt lat="46.0633201" lon="11.1160412" />
      <trkpt lat="46.0633696" lon="11.1167056" />
      <trkpt lat="46.0633950" lon="11.1170509" />
      <trkpt lat="46.0634299" lon="11.1169932" />
      <trkpt lat="46.0635353" lon="11.1168949" />
      <trkpt lat="46.0641805" lon="11.1167941" />
      <trkpt lat="46.0644674" lon="11.1167469" />
      <trkpt lat="46.0645052" lon="11.1167422" />
      <trkpt lat="46.0645336" lon="11.1167401" />
      <trkpt lat="46.0645821" lon="11.1167575" />
      <trkpt lat="46.0648460" lon="11.1166995" />
      <trkpt lat="46.0649438" lon="11.1166932" />
      <trkpt lat="46.0650448" lon="11.1167071" />
      <trkpt lat="46.0651046" lon="11.1172245" />
      <trkpt lat="46.0651532" lon="11.1172758" />
      <trkpt lat="46.0651934" lon="11.1177089" />
      <trkpt lat="46.0652397" lon="11.1176989" />
      <trkpt lat="46.0652417" lon="11.1176356" />
      <trkpt lat="46.0661013" lon="11.1174434" />
      <trkpt lat="46.0664459" lon="11.1173714" />
      <trkpt lat="46.0664553" lon="11.1173406" />
      <trkpt lat="46.0664518" lon="11.1172941" />
      <trkpt lat="46.0664295" lon="11.1170349" />
      <trkpt lat="46.0664216" lon="11.1169920" />
      <trkpt lat="46.0664228" lon="11.1169318" />
      <trkpt lat="46.0664265" lon="11.1168526" />
      <trkpt lat="46.0664206" lon="11.1167830" />
      <trkpt lat="46.0663304" lon="11.1158787" />
      <trkpt lat="46.0662859" lon="11.1154964" />
      <trkpt lat="46.0662780" lon="11.1154225" />
      <trkpt lat="46.0662149" lon="11.1148160" />
      <trkpt lat="46.0662068" lon="11.1148053" />
      <trkpt lat="46.0661796" lon="11.1145362" />
      <trkpt lat="46.0662432" lon="11.1145505" />
      <trkpt lat="46.0663055" lon="11.1145612" />
      <trkpt lat="46.0663315" lon="11.1145516" />
      <trkpt lat="46.0663506" lon="11.1145446" />
      <trkpt lat="46.0663840" lon="11.1145473" />
      <trkpt lat="46.0664895" lon="11.1145858" />
      <trkpt lat="46.0668587" lon="11.1147689" />
      <trkpt lat="46.0669080" lon="11.1147934" />
      <trkpt lat="46.0669565" lon="11.1148188" />
      <trkpt lat="46.0677254" lon="11.1152228" />
      <trkpt lat="46.0677326" lon="11.1152266" />
      <trkpt lat="46.0677902" lon="11.1152526" />
      <trkpt lat="46.0679464" lon="11.1153270" />
      <trkpt lat="46.0679492" lon="11.1152645" />
      <trkpt lat="46.0679464" lon="11.1152036" />
      <trkpt lat="46.0679385" lon="11.1151351" />
      <trkpt lat="46.0679274" lon="11.1150878" />
      <trkpt lat="46.0679084" lon="11.1150043" />
      <trkpt lat="46.0679737" lon="11.1149448" />
      <trkpt lat="46.0680238" lon="11.1149118" />
      <trkpt lat="46.0680942" lon="11.1149057" />
      <trkpt lat="46.0682075" lon="11.1149285" />
      <trkpt lat="46.0682349" lon="11.1148330" />
      <trkpt lat="46.0684652" lon="11.1149557" />
      <trkpt lat="46.0693015" lon="11.1154028" />
      <trkpt lat="46.0695281" lon="11.1155240" />
      <trkpt lat="46.0698128" lon="11.1156739" />
      <trkpt lat="46.0698998" lon="11.1157127" />
      <trkpt lat="46.0699151" lon="11.1156990" />
      <trkpt lat="46.0702467" lon="11.1144529" />
      <trkpt lat="46.0702508" lon="11.1144356" />
      <trkpt lat="46.0702350" lon="11.1143612" />
      <trkpt lat="46.0702262" lon="11.1143187" />
      <trkpt lat="46.0702122" lon="11.1142749" />
      <trkpt lat="46.0701963" lon="11.1142414" />
      <trkpt lat="46.0701713" lon="11.1142018" />
      <trkpt lat="46.0701555" lon="11.1141871" />
      <trkpt lat="46.0701270" lon="11.1141662" />
      <trkpt lat="46.0701061" lon="11.1141508" />
      <trkpt lat="46.0700735" lon="11.1141344" />
      <trkpt lat="46.0699724" lon="11.1140894" />
      <trkpt lat="46.0699342" lon="11.1141162" />
      <trkpt lat="46.0692827" lon="11.1138365" />
      <trkpt lat="46.0692891" lon="11.1138032" />
      <trkpt lat="46.0693007" lon="11.1137442" />
      <trkpt lat="46.0693165" lon="11.1136571" />
      <trkpt lat="46.0693345" lon="11.1135667" />
      <trkpt lat="46.0693442" lon="11.1135415" />
      <trkpt lat="46.0693600" lon="11.1135294" />
      <trkpt lat="46.0693740" lon="11.1135254" />
      <trkpt lat="46.0693963" lon="11.1135240" />
      <trkpt lat="46.0694187" lon="11.1135240" />
      <trkpt lat="46.0694559" lon="11.1135254" />
      <trkpt lat="46.0695438" lon="11.1135398" />
      <trkpt lat="46.0696193" lon="11.1134541" />
      <trkpt lat="46.0696727" lon="11.1134020" />
      <trkpt lat="46.0696877" lon="11.1133875" />
      <trkpt lat="46.0697929" lon="11.1132763" />
      <trkpt lat="46.0698001" lon="11.1132688" />
      <trkpt lat="46.0698237" lon="11.1132449" />
      <trkpt lat="46.0699337" lon="11.1134881" />
      <trkpt lat="46.0700424" lon="11.1137402" />
      <trkpt lat="46.0700647" lon="11.1137245" />
      <trkpt lat="46.0702578" lon="11.1136080" />
      <trkpt lat="46.0703578" lon="11.1135531" />
      <trkpt lat="46.0703913" lon="11.1135338" />
      <trkpt lat="46.0704501" lon="11.1135005" />
      <trkpt lat="46.0704730" lon="11.1134880" />
      <trkpt lat="46.0704990" lon="11.1134751" />
      <trkpt lat="46.0706116" lon="11.1134177" />
      <trkpt lat="46.0707114" lon="11.1133647" />
      <trkpt lat="46.0707246" lon="11.1133446" />
      <trkpt lat="46.0707789" lon="11.1132401" />
      <trkpt lat="46.0708070" lon="11.1131605" />
      <trkpt lat="46.0708180" lon="11.1130716" />
      <trkpt lat="46.0708255" lon="11.1129959" />
      <trkpt lat="46.0708128" lon="11.1129679" />
      <trkpt lat="46.0708090" lon="11.1129404" />
      <trkpt lat="46.0708027" lon="11.1129052" />
      <trkpt lat="46.0708625" lon="11.1128898" />
      <trkpt lat="46.0708861" lon="11.1128809" />
      <trkpt lat="46.0709044" lon="11.1128543" />
      <trkpt lat="46.0709429" lon="11.1127975" />
      <trkpt lat="46.0709759" lon="11.1127520" />
      <trkpt lat="46.0710044" lon="11.1128120" />
      <trkpt lat="46.0711426" lon="11.1130964" />
      <trkpt lat="46.0711659" lon="11.1131444" />
      <trkpt lat="46.0711916" lon="11.1131957" />
      <trkpt lat="46.0712260" lon="11.1132822" />
      <trkpt lat="46.0712590" lon="11.1133721" />
      <trkpt lat="46.0712858" lon="11.1134671" />
      <trkpt lat="46.0713211" lon="11.1136075" />
      <trkpt lat="46.0713250" lon="11.1136230" />
      <trkpt lat="46.0713294" lon="11.1136394" />
      <trkpt lat="46.0713398" lon="11.1136831" />
      <trkpt lat="46.0713254" lon="11.1136882" />
      <trkpt lat="46.0713602" lon="11.1138424" />
      <trkpt lat="46.0713938" lon="11.1138528" />
      <trkpt lat="46.0714336" lon="11.1138651" />
      <trkpt lat="46.0714317" lon="11.1139002" />
      <trkpt lat="46.0714368" lon="11.1139694" />
      <trkpt lat="46.0714436" lon="11.1140303" />
      <trkpt lat="46.0715779" lon="11.1145882" />
      <trkpt lat="46.0716577" lon="11.1149227" />
      <trkpt lat="46.0716679" lon="11.1149335" />
      <trkpt lat="46.0716795" lon="11.1149328" />
      <trkpt lat="46.0716942" lon="11.1149288" />
      <trkpt lat="46.0717047" lon="11.1149261" />
      <trkpt lat="46.0717255" lon="11.1149214" />
      <trkpt lat="46.0717453" lon="11.1149588" />
      <trkpt lat="46.0717718" lon="11.1150156" />
      <trkpt lat="46.0716846" lon="11.1150533" />
      <trkpt lat="46.0716622" lon="11.1150668" />
      <trkpt lat="46.0716521" lon="11.1150762" />
      <trkpt lat="46.0716469" lon="11.1150926" />
      <trkpt lat="46.0716519" lon="11.1151115" />
      <trkpt lat="46.0716632" lon="11.1151227" />
      <trkpt lat="46.0716843" lon="11.1151327" />
      <trkpt lat="46.0716777" lon="11.1151800" />
      <trkpt lat="46.0716701" lon="11.1152371" />
      <trkpt lat="46.0715462" lon="11.1151968" />
      <trkpt lat="46.0714778" lon="11.1151767" />
      <trkpt lat="46.0714751" lon="11.1151881" />
      <trkpt lat="46.0714713" lon="11.1152069" />
      <trkpt lat="46.0712489" lon="11.1150973" />
      <trkpt lat="46.0711800" lon="11.1150634" />
      <trkpt lat="46.0711622" lon="11.1150542" />
      <trkpt lat="46.0709446" lon="11.1149414" />
      <trkpt lat="46.0708185" lon="11.1148581" />
      <trkpt lat="46.0707959" lon="11.1148434" />
      <trkpt lat="46.0708009" lon="11.1148281" />
      <trkpt lat="46.0708045" lon="11.1148160" />
      <trkpt lat="46.0707833" lon="11.1147994" />
      <trkpt lat="46.0705116" lon="11.1145755" />
      <trkpt lat="46.0704564" lon="11.1145311" />
      <trkpt lat="46.0703770" lon="11.1144800" />
      <trkpt lat="46.0703535" lon="11.1144784" />
      <trkpt lat="46.0703420" lon="11.1144768" />
      <trkpt lat="46.0703300" lon="11.1144739" />
      <trkpt lat="46.0703250" lon="11.1144890" />
      <trkpt lat="46.0699886" lon="11.1157401" />
      <trkpt lat="46.0699948" lon="11.1157680" />
      <trkpt lat="46.0700117" lon="11.1157886" />
      <trkpt lat="46.0700662" lon="11.1158228" />
      <trkpt lat="46.0703724" lon="11.1159815" />
      <trkpt lat="46.0708611" lon="11.1162327" />
      <trkpt lat="46.0712454" lon="11.1164070" />
      <trkpt lat="46.0713598" lon="11.1164541" />
      <trkpt lat="46.0713418" lon="11.1165274" />
      <trkpt lat="46.0713277" lon="11.1165796" />
      <trkpt lat="46.0712817" lon="11.1167688" />
      <trkpt lat="46.0712955" lon="11.1168323" />
      <trkpt lat="46.0712609" lon="11.1168561" />
      <trkpt lat="46.0712343" lon="11.1168743" />
      <trkpt lat="46.0712076" lon="11.1169920" />
      <trkpt lat="46.0712106" lon="11.1170208" />
      <trkpt lat="46.0711922" lon="11.1171072" />
      <trkpt lat="46.0711833" lon="11.1171508" />
      <trkpt lat="46.0711002" lon="11.1171209" />
      <trkpt lat="46.0710414" lon="11.1171481" />
      <trkpt lat="46.0709924" lon="11.1171707" />
      <trkpt lat="46.0707303" lon="11.1170747" />
      <trkpt lat="46.0705294" lon="11.1172114" />
      <trkpt lat="46.0704377" lon="11.1171721" />
      <trkpt lat="46.0704056" lon="11.1171552" />
      <trkpt lat="46.0704216" lon="11.1170936" />
      <trkpt lat="46.0703845" lon="11.1170776" />
      <trkpt lat="46.0703597" lon="11.1171696" />
      <trkpt lat="46.0703117" lon="11.1172218" />
      <trkpt lat="46.0703201" lon="11.1171936" />
      <trkpt lat="46.0702731" lon="11.1171733" />
      <trkpt lat="46.0702287" lon="11.1171541" />
      <trkpt lat="46.0702169" lon="11.1171918" />
      <trkpt lat="46.0701805" lon="11.1173050" />
      <trkpt lat="46.0700861" lon="11.1176034" />
      <trkpt lat="46.0700527" lon="11.1177069" />
      <trkpt lat="46.0700431" lon="11.1177476" />
      <trkpt lat="46.0700369" lon="11.1177882" />
      <trkpt lat="46.0700305" lon="11.1178362" />
      <trkpt lat="46.0700294" lon="11.1178856" />
      <trkpt lat="46.0700269" lon="11.1179061" />
      <trkpt lat="46.0699908" lon="11.1179414" />
      <trkpt lat="46.0699871" lon="11.1179668" />
      <trkpt lat="46.0699905" lon="11.1180483" />
      <trkpt lat="46.0700084" lon="11.1181540" />
      <trkpt lat="46.0699803" lon="11.1181633" />
      <trkpt lat="46.0699644" lon="11.1181025" />
      <trkpt lat="46.0699602" lon="11.1180863" />
      <trkpt lat="46.0698926" lon="11.1180856" />
      <trkpt lat="46.0698565" lon="11.1180693" />
      <trkpt lat="46.0698227" lon="11.1180755" />
      <trkpt lat="46.0697905" lon="11.1180822" />
      <trkpt lat="46.0697890" lon="11.1181478" />
      <trkpt lat="46.0696831" lon="11.1182181" />
      <trkpt lat="46.0695917" lon="11.1182747" />
      <trkpt lat="46.0695171" lon="11.1183209" />
      <trkpt lat="46.0693555" lon="11.1183905" />
      <trkpt lat="46.0691264" lon="11.1184447" />
      <trkpt lat="46.0690201" lon="11.1184690" />
      <trkpt lat="46.0689868" lon="11.1184789" />
      <trkpt lat="46.0689348" lon="11.1184936" />
      <trkpt lat="46.0689395" lon="11.1185380" />
      <trkpt lat="46.0689449" lon="11.1186015" />
      <trkpt lat="46.0688008" lon="11.1186481" />
      <trkpt lat="46.0686992" lon="11.1186809" />
      <trkpt lat="46.0686577" lon="11.1186973" />
      <trkpt lat="46.0685256" lon="11.1187261" />
      <trkpt lat="46.0684756" lon="11.1187320" />
      <trkpt lat="46.0684245" lon="11.1187328" />
      <trkpt lat="46.0684165" lon="11.1187327" />
      <trkpt lat="46.0684127" lon="11.1186739" />
      <trkpt lat="46.0683351" lon="11.1186769" />
      <trkpt lat="46.0683328" lon="11.1186343" />
      <trkpt lat="46.0683173" lon="11.1186358" />
      <trkpt lat="46.0682864" lon="11.1186372" />
      <trkpt lat="46.0681920" lon="11.1186465" />
      <trkpt lat="46.0681899" lon="11.1186247" />
      <trkpt lat="46.0681607" lon="11.1186015" />
      <trkpt lat="46.0680470" lon="11.1186253" />
      <trkpt lat="46.0679842" lon="11.1186414" />
      <trkpt lat="46.0679622" lon="11.1186402" />
      <trkpt lat="46.0679402" lon="11.1186298" />
      <trkpt lat="46.0675618" lon="11.1187115" />
      <trkpt lat="46.0675393" lon="11.1187487" />
      <trkpt lat="46.0675032" lon="11.1187574" />
      <trkpt lat="46.0674919" lon="11.1187364" />
      <trkpt lat="46.0674557" lon="11.1187456" />
      <trkpt lat="46.0674093" lon="11.1187503" />
      <trkpt lat="46.0674005" lon="11.1187747" />
      <trkpt lat="46.0669803" lon="11.1188542" />
      <trkpt lat="46.0667342" lon="11.1188998" />
      <trkpt lat="46.0667443" lon="11.1190130" />
      <trkpt lat="46.0667536" lon="11.1191108" />
      <trkpt lat="46.0667377" lon="11.1191227" />
      <trkpt lat="46.0667870" lon="11.1196244" />
      <trkpt lat="46.0668415" lon="11.1201785" />
      <trkpt lat="46.0667816" lon="11.1201952" />
      <trkpt lat="46.0668249" lon="11.1206182" />
      <trkpt lat="46.0668711" lon="11.1210492" />
      <trkpt lat="46.0667705" lon="11.1210629" />
      <trkpt lat="46.0667526" lon="11.1210542" />
      <trkpt lat="46.0667024" lon="11.1213629" />
      <trkpt lat="46.0666701" lon="11.1215352" />
      <trkpt lat="46.0666789" lon="11.1217092" />
      <trkpt lat="46.0667274" lon="11.1218448" />
      <trkpt lat="46.0667304" lon="11.1218751" />
      <trkpt lat="46.0667210" lon="11.1219626" />
      <trkpt lat="46.0667229" lon="11.1219913" />
      <trkpt lat="46.0667249" lon="11.1220591" />
      <trkpt lat="46.0667287" lon="11.1221612" />
      <trkpt lat="46.0667350" lon="11.1222603" />
      <trkpt lat="46.0667357" lon="11.1222747" />
      <trkpt lat="46.0667414" lon="11.1223091" />
      <trkpt lat="46.0665753" lon="11.1223823" />
      <trkpt lat="46.0665144" lon="11.1224055" />
      <trkpt lat="46.0663604" lon="11.1225220" />
      <trkpt lat="46.0663306" lon="11.1225479" />
      <trkpt lat="46.0662774" lon="11.1225941" />
      <trkpt lat="46.0662400" lon="11.1226907" />
      <trkpt lat="46.0660796" lon="11.1227720" />
      <trkpt lat="46.0657344" lon="11.1229534" />
      <trkpt lat="46.0655279" lon="11.1230558" />
      <trkpt lat="46.0656080" lon="11.1235626" />
      <trkpt lat="46.0656326" lon="11.1239012" />
      <trkpt lat="46.0656609" lon="11.1239761" />
      <trkpt lat="46.0656958" lon="11.1246657" />
      <trkpt lat="46.0657009" lon="11.1247688" />
      <trkpt lat="46.0656894" lon="11.1248307" />
      <trkpt lat="46.0656615" lon="11.1248850" />
      <trkpt lat="46.0656223" lon="11.1249238" />
      <trkpt lat="46.0657065" lon="11.1254149" />
      <trkpt lat="46.0657986" lon="11.1255218" />
      <trkpt lat="46.0659888" lon="11.1256911" />
      <trkpt lat="46.0659575" lon="11.1257955" />
      <trkpt lat="46.0659342" lon="11.1258733" />
      <trkpt lat="46.0662441" lon="11.1260428" />
      <trkpt lat="46.0662124" lon="11.1261632" />
      <trkpt lat="46.0659664" lon="11.1270981" />
      <trkpt lat="46.0659180" lon="11.1272752" />
      <trkpt lat="46.0659004" lon="11.1273426" />
      <trkpt lat="46.0657014" lon="11.1281023" />
      <trkpt lat="46.0656360" lon="11.1283556" />
      <trkpt lat="46.0656221" lon="11.1283866" />
      <trkpt lat="46.0655989" lon="11.1283923" />
      <trkpt lat="46.0650283" lon="11.1280830" />
      <trkpt lat="46.0650092" lon="11.1281598" />
      <trkpt lat="46.0649902" lon="11.1282361" />
      <trkpt lat="46.0649274" lon="11.1282017" />
      <trkpt lat="46.0649203" lon="11.1282300" />
      <trkpt lat="46.0649057" lon="11.1282221" />
      <trkpt lat="46.0648723" lon="11.1282038" />
      <trkpt lat="46.0647866" lon="11.1281574" />
      <trkpt lat="46.0647932" lon="11.1281318" />
      <trkpt lat="46.0643990" lon="11.1279089" />
      <trkpt lat="46.0643773" lon="11.1278908" />
      <trkpt lat="46.0643429" lon="11.1278623" />
      <trkpt lat="46.0643297" lon="11.1278550" />
      <trkpt lat="46.0643459" lon="11.1277844" />
      <trkpt lat="46.0643624" lon="11.1277123" />
      <trkpt lat="46.0638484" lon="11.1274271" />
      <trkpt lat="46.0638498" lon="11.1273627" />
      <trkpt lat="46.0638621" lon="11.1269919" />
      <trkpt lat="46.0638372" lon="11.1268839" />
      <trkpt lat="46.0638179" lon="11.1267528" />
      <trkpt lat="46.0638088" lon="11.1266506" />
      <trkpt lat="46.0638263" lon="11.1263174" />
      <trkpt lat="46.0638265" lon="11.1262053" />
      <trkpt lat="46.0638147" lon="11.1260861" />
      <trkpt lat="46.0637368" lon="11.1258643" />
      <trkpt lat="46.0636423" lon="11.1257467" />
      <trkpt lat="46.0636225" lon="11.1256866" />
      <trkpt lat="46.0637707" lon="11.1256152" />
      <trkpt lat="46.0639138" lon="11.1254909" />
      <trkpt lat="46.0646134" lon="11.1257510" />
      <trkpt lat="46.0646625" lon="11.1257693" />
      <trkpt lat="46.0648439" lon="11.1247453" />
      <trkpt lat="46.0648934" lon="11.1247616" />
      <trkpt lat="46.0649069" lon="11.1246865" />
      <trkpt lat="46.0649462" lon="11.1246980" />
      <trkpt lat="46.0653241" lon="11.1248073" />
      <trkpt lat="46.0653182" lon="11.1248697" />
      <trkpt lat="46.0653773" lon="11.1248850" />
      <trkpt lat="46.0654415" lon="11.1249032" />
      <trkpt lat="46.0655194" lon="11.1248566" />
      <trkpt lat="46.0655574" lon="11.1248374" />
      <trkpt lat="46.0656350" lon="11.1248287" />
      <trkpt lat="46.0656446" lon="11.1248534" />
      <trkpt lat="46.0656615" lon="11.1248850" />
      <trkpt lat="46.0656446" lon="11.1248534" />
      <trkpt lat="46.0656350" lon="11.1248287" />
      <trkpt lat="46.0655574" lon="11.1248374" />
      <trkpt lat="46.0655194" lon="11.1248566" />
      <trkpt lat="46.0654415" lon="11.1249032" />
      <trkpt lat="46.0653773" lon="11.1248850" />
      <trkpt lat="46.0653755" lon="11.1248520" />
      <trkpt lat="46.0653856" lon="11.1246724" />
      <trkpt lat="46.0653466" lon="11.1239397" />
      <trkpt lat="46.0653359" lon="11.1235567" />
      <trkpt lat="46.0653260" lon="11.1234646" />
      <trkpt lat="46.0653114" lon="11.1233933" />
      <trkpt lat="46.0652906" lon="11.1233292" />
      <trkpt lat="46.0652698" lon="11.1232964" />
      <trkpt lat="46.0652500" lon="11.1232780" />
      <trkpt lat="46.0652181" lon="11.1232654" />
      <trkpt lat="46.0651859" lon="11.1232588" />
      <trkpt lat="46.0651559" lon="11.1232583" />
      <trkpt lat="46.0651514" lon="11.1231779" />
      <trkpt lat="46.0651035" lon="11.1231638" />
      <trkpt lat="46.0650668" lon="11.1231370" />
      <trkpt lat="46.0649340" lon="11.1231560" />
      <trkpt lat="46.0648698" lon="11.1231693" />
      <trkpt lat="46.0648250" lon="11.1226524" />
      <trkpt lat="46.0647932" lon="11.1226581" />
      <trkpt lat="46.0647609" lon="11.1226638" />
      <trkpt lat="46.0647448" lon="11.1224723" />
      <trkpt lat="46.0647355" lon="11.1223630" />
      <trkpt lat="46.0647169" lon="11.1221426" />
      <trkpt lat="46.0647231" lon="11.1221160" />
      <trkpt lat="46.0647213" lon="11.1220952" />
      <trkpt lat="46.0647014" lon="11.1218623" />
      <trkpt lat="46.0646977" lon="11.1218420" />
      <trkpt lat="46.0646469" lon="11.1215649" />
      <trkpt lat="46.0646401" lon="11.1215279" />
      <trkpt lat="46.0646368" lon="11.1215196" />
      <trkpt lat="46.0646307" lon="11.1215162" />
      <trkpt lat="46.0645715" lon="11.1215283" />
      <trkpt lat="46.0645577" lon="11.1214758" />
      <trkpt lat="46.0645414" lon="11.1214142" />
      <trkpt lat="46.0645259" lon="11.1211184" />
      <trkpt lat="46.0645248" lon="11.1210973" />
      <trkpt lat="46.0645237" lon="11.1210780" />
      <trkpt lat="46.0645093" lon="11.1208030" />
      <trkpt lat="46.0644719" lon="11.1208030" />
      <trkpt lat="46.0644698" lon="11.1207609" />
      <trkpt lat="46.0644680" lon="11.1207244" />
      <trkpt lat="46.0642803" lon="11.1207486" />
      <trkpt lat="46.0642771" lon="11.1207102" />
      <trkpt lat="46.0642603" lon="11.1205038" />
      <trkpt lat="46.0642415" lon="11.1204564" />
      <trkpt lat="46.0642074" lon="11.1200353" />
      <trkpt lat="46.0642040" lon="11.1199931" />
      <trkpt lat="46.0641708" lon="11.1196512" />
      <trkpt lat="46.0642270" lon="11.1196399" />
      <trkpt lat="46.0642591" lon="11.1196322" />
      <trkpt lat="46.0643459" lon="11.1196135" />
      <trkpt lat="46.0643852" lon="11.1196053" />
      <trkpt lat="46.0643978" lon="11.1196024" />
      <trkpt lat="46.0644295" lon="11.1195955" />
      <trkpt lat="46.0644332" lon="11.1194960" />
      <trkpt lat="46.0644326" lon="11.1194103" />
      <trkpt lat="46.0648990" lon="11.1192948" />
      <trkpt lat="46.0649181" lon="11.1192900" />
      <trkpt lat="46.0649277" lon="11.1190183" />
      <trkpt lat="46.0649697" lon="11.1190123" />
      <trkpt lat="46.0650475" lon="11.1174509" />
      <trkpt lat="46.0650668" lon="11.1173069" />
      <trkpt lat="46.0651046" lon="11.1172245" />
      <trkpt lat="46.0650448" lon="11.1167071" />
      <trkpt lat="46.0649438" lon="11.1166932" />
      <trkpt lat="46.0648460" lon="11.1166995" />
      <trkpt lat="46.0645821" lon="11.1167575" />
      <trkpt lat="46.0645336" lon="11.1167401" />
      <trkpt lat="46.0645052" lon="11.1167422" />
      <trkpt lat="46.0644674" lon="11.1167469" />
      <trkpt lat="46.0641805" lon="11.1167941" />
      <trkpt lat="46.0635353" lon="11.1168949" />
      <trkpt lat="46.0634299" lon="11.1169932" />
      <trkpt lat="46.0633950" lon="11.1170509" />
      <trkpt lat="46.0634638" lon="11.1179318" />
      <trkpt lat="46.0633965" lon="11.1179432" />
      <trkpt lat="46.0632585" lon="11.1179655" />
      <trkpt lat="46.0627561" lon="11.1180476" />
      <trkpt lat="46.0626978" lon="11.1173313" />
      <trkpt lat="46.0626678" lon="11.1169643" />
      <trkpt lat="46.0621757" lon="11.1170371" />
      <trkpt lat="46.0621527" lon="11.1167167" />
      <trkpt lat="46.0618330" lon="11.1167644" />
      <trkpt lat="46.0618770" lon="11.1168203" />
      <trkpt lat="46.0618998" lon="11.1170957" />
      <trkpt lat="46.0619577" lon="11.1171628" />
      <trkpt lat="46.0619896" lon="11.1175736" />
      <trkpt lat="46.0620017" lon="11.1177148" />
      <trkpt lat="46.0620138" lon="11.1178375" />
      <trkpt lat="46.0620256" lon="11.1181078" />
      <trkpt lat="46.0620628" lon="11.1185561" />
      <trkpt lat="46.0620768" lon="11.1186213" />
      <trkpt lat="46.0621289" lon="11.1186766" />
      <trkpt lat="46.0621460" lon="11.1189084" />
      <trkpt lat="46.0621434" lon="11.1189993" />
      <trkpt lat="46.0622231" lon="11.1190085" />
      <trkpt lat="46.0623649" lon="11.1190100" />
      <trkpt lat="46.0624647" lon="11.1189964" />
      <trkpt lat="46.0624680" lon="11.1190822" />
      <trkpt lat="46.0624700" lon="11.1191342" />
      <trkpt lat="46.0624147" lon="11.1191413" />
      <trkpt lat="46.0624188" lon="11.1192059" />
      <trkpt lat="46.0624198" lon="11.1192204" />
      <trkpt lat="46.0624228" lon="11.1192674" />
      <trkpt lat="46.0625129" lon="11.1192575" />
      <trkpt lat="46.0625097" lon="11.1192088" />
      <trkpt lat="46.0626564" lon="11.1191723" />
      <trkpt lat="46.0630506" lon="11.1191321" />
      <trkpt lat="46.0630946" lon="11.1191565" />
      <trkpt lat="46.0631523" lon="11.1191907" />
      <trkpt lat="46.0631822" lon="11.1192234" />
      <trkpt lat="46.0632082" lon="11.1196665" />
      <trkpt lat="46.0633968" lon="11.1196407" />
      <trkpt lat="46.0633996" lon="11.1196838" />
      <trkpt lat="46.0635104" lon="11.1196687" />
      <trkpt lat="46.0635529" lon="11.1196629" />
      <trkpt lat="46.0635700" lon="11.1196605" />
      <trkpt lat="46.0635728" lon="11.1197002" />
      <trkpt lat="46.0635783" lon="11.1197799" />
      <trkpt lat="46.0636003" lon="11.1197751" />
      <trkpt lat="46.0636202" lon="11.1197707" />
      <trkpt lat="46.0636561" lon="11.1203133" />
      <trkpt lat="46.0636924" lon="11.1208034" />
      <trkpt lat="46.0637055" lon="11.1208128" />
      <trkpt lat="46.0639261" lon="11.1207751" />
      <trkpt lat="46.0639399" lon="11.1207926" />
      <trkpt lat="46.0642803" lon="11.1207486" />
      <trkpt lat="46.0642771" lon="11.1207102" />
      <trkpt lat="46.0642603" lon="11.1205038" />
      <trkpt lat="46.0642415" lon="11.1204564" />
    </trkseg>
  </trk>
</gpx>
