<?xml version="1.0" encoding="UTF-8"?>
<gpx xmlns="http://www.topografix.com/GPX/1/1" version="1.1" creator="ShapeRoute route-engine">
  <metadata>
    <name>horse 15 km · 2026-09-23</name>
    <author>
      <name>ShapeRoute route-engine</name>
    </author>
    <copyright author="OpenStreetMap contributors">
      <license>https://opendatacommons.org/licenses/odbl/1-0/</license>
    </copyright>
    <link href="https://www.openstreetmap.org/copyright">
      <text>© OpenStreetMap contributors</text>
    </link>
    <time>2026-09-23T22:58:08Z</time>
  </metadata>
  <trk>
    <name>horse 15 km · 2026-09-23</name>
    <trkseg>
      <trkpt lat="46.0668711" lon="11.1210492" />
      <trkpt lat="46.0668249" lon="11.1206182" />
      <trkpt lat="46.0667816" lon="11.1201952" />
      <trkpt lat="46.0667099" lon="11.1201551" />
      <trkpt lat="46.0666578" lon="11.1196518" />
      <trkpt lat="46.0666065" lon="11.1191557" />
      <trkpt lat="46.0665858" lon="11.1191592" />
      <trkpt lat="46.0665730" lon="11.1190499" />
      <trkpt lat="46.0665603" lon="11.1189419" />
      <trkpt lat="46.0662010" lon="11.1190100" />
      <trkpt lat="46.0661983" lon="11.1189869" />
      <trkpt lat="46.0661771" lon="11.1187627" />
      <trkpt lat="46.0663323" lon="11.1187328" />
      <trkpt lat="46.0662572" lon="11.1180490" />
      <trkpt lat="46.0657416" lon="11.1181445" />
      <trkpt lat="46.0657136" lon="11.1179214" />
      <trkpt lat="46.0656986" lon="11.1178019" />
      <trkpt lat="46.0656829" lon="11.1176769" />
      <trkpt lat="46.0656754" lon="11.1176028" />
      <trkpt lat="46.0652397" lon="11.1176989" />
      <trkpt lat="46.0651934" lon="11.1177089" />
      <trkpt lat="46.0651532" lon="11.1172758" />
      <trkpt lat="46.0651046" lon="11.1172245" />
      <trkpt lat="46.0650448" lon="11.1167071" />
      <trkpt lat="46.0649622" lon="11.1166372" />
      <trkpt lat="46.0647410" lon="11.1164795" />
      <trkpt lat="46.0645793" lon="11.1164075" />
      <trkpt lat="46.0645429" lon="11.1163936" />
      <trkpt lat="46.0645256" lon="11.1165274" />
      <trkpt lat="46.0645052" lon="11.1167422" />
      <trkpt lat="46.0644674" lon="11.1167469" />
      <trkpt lat="46.0641805" lon="11.1167941" />
      <trkpt lat="46.0635353" lon="11.1168949" />
      <trkpt lat="46.0634299" lon="11.1169932" />
      <trkpt lat="46.0633950" lon="11.1170509" />
      <trkpt lat="46.0633696" lon="11.1167056" />
      <trkpt lat="46.0633201" lon="11.1160412" />
      <trkpt lat="46.0632900" lon="11.1157231" />
      <trkpt lat="46.0633201" lon="11.1160412" />
      <trkpt lat="46.0633696" lon="11.1167056" />
      <trkpt lat="46.0633950" lon="11.1170509" />
      <trkpt lat="46.0634638" lon="11.1179318" />
      <trkpt lat="46.0635304" lon="11.1187710" />
      <trkpt lat="46.0635312" lon="11.1187812" />
      <trkpt lat="46.0635531" lon="11.1190608" />
      <trkpt lat="46.0635553" lon="11.1190891" />
      <trkpt lat="46.0635716" lon="11.1192952" />
      <trkpt lat="46.0636739" lon="11.1193765" />
      <trkpt lat="46.0638476" lon="11.1195040" />
      <trkpt lat="46.0638679" lon="11.1195140" />
      <trkpt lat="46.0639015" lon="11.1195174" />
      <trkpt lat="46.0639080" lon="11.1196074" />
      <trkpt lat="46.0639165" lon="11.1197060" />
      <trkpt lat="46.0641474" lon="11.1196563" />
      <trkpt lat="46.0641708" lon="11.1196512" />
      <trkpt lat="46.0642040" lon="11.1199931" />
      <trkpt lat="46.0642074" lon="11.1200353" />
      <trkpt lat="46.0642415" lon="11.1204564" />
      <trkpt lat="46.0642603" lon="11.1205038" />
      <trkpt lat="46.0642771" lon="11.1207102" />
      <trkpt lat="46.0642803" lon="11.1207486" />
      <trkpt lat="46.0644680" lon="11.1207244" />
      <trkpt lat="46.0644698" lon="11.1207609" />
      <trkpt lat="46.0644719" lon="11.1208030" />
      <trkpt lat="46.0645093" lon="11.1208030" />
      <trkpt lat="46.0645237" lon="11.1210780" />
      <trkpt lat="46.0645248" lon="11.1210973" />
      <trkpt lat="46.0645259" lon="11.1211184" />
      <trkpt lat="46.0645414" lon="11.1214142" />
      <trkpt lat="46.0645577" lon="11.1214758" />
      <trkpt lat="46.0645715" lon="11.1215283" />
      <trkpt lat="46.0646307" lon="11.1215162" />
      <trkpt lat="46.0646368" lon="11.1215196" />
      <trkpt lat="46.0646401" lon="11.1215279" />
      <trkpt lat="46.0646469" lon="11.1215649" />
      <trkpt lat="46.0646977" lon="11.1218420" />
      <trkpt lat="46.0647014" lon="11.1218623" />
      <trkpt lat="46.0647213" lon="11.1220952" />
      <trkpt lat="46.0647231" lon="11.1221160" />
      <trkpt lat="46.0647169" lon="11.1221426" />
      <trkpt lat="46.0647355" lon="11.1223630" />
      <trkpt lat="46.0647448" lon="11.1224723" />
      <trkpt lat="46.0647609" lon="11.1226638" />
      <trkpt lat="46.0648047" lon="11.1231821" />
      <trkpt lat="46.0648067" lon="11.1232069" />
      <trkpt lat="46.0648025" lon="11.1232197" />
      <trkpt lat="46.0647892" lon="11.1232285" />
      <trkpt lat="46.0647165" lon="11.1232431" />
      <trkpt lat="46.0645944" lon="11.1232574" />
      <trkpt lat="46.0645542" lon="11.1232607" />
      <trkpt lat="46.0643963" lon="11.1232760" />
      <trkpt lat="46.0642256" lon="11.1233062" />
      <trkpt lat="46.0639387" lon="11.1233923" />
      <trkpt lat="46.0638742" lon="11.1234404" />
      <trkpt lat="46.0638789" lon="11.1234916" />
      <trkpt lat="46.0638860" lon="11.1235660" />
      <trkpt lat="46.0635299" lon="11.1237173" />
      <trkpt lat="46.0634735" lon="11.1237412" />
      <trkpt lat="46.0633715" lon="11.1237939" />
      <trkpt lat="46.0633733" lon="11.1238494" />
      <trkpt lat="46.0633555" lon="11.1241631" />
      <trkpt lat="46.0633537" lon="11.1243526" />
      <trkpt lat="46.0633533" lon="11.1243884" />
      <trkpt lat="46.0633606" lon="11.1244626" />
      <trkpt lat="46.0633695" lon="11.1245514" />
      <trkpt lat="46.0633818" lon="11.1246976" />
      <trkpt lat="46.0633603" lon="11.1247838" />
      <trkpt lat="46.0633371" lon="11.1248642" />
      <trkpt lat="46.0633147" lon="11.1249380" />
      <trkpt lat="46.0632933" lon="11.1250292" />
      <trkpt lat="46.0632458" lon="11.1252229" />
      <trkpt lat="46.0628939" lon="11.1253262" />
      <trkpt lat="46.0627661" lon="11.1253867" />
      <trkpt lat="46.0626657" lon="11.1254516" />
      <trkpt lat="46.0624140" lon="11.1255971" />
      <trkpt lat="46.0623724" lon="11.1256237" />
      <trkpt lat="46.0623814" lon="11.1256601" />
      <trkpt lat="46.0623313" lon="11.1256875" />
      <trkpt lat="46.0622931" lon="11.1257084" />
      <trkpt lat="46.0622980" lon="11.1257316" />
      <trkpt lat="46.0622971" lon="11.1257512" />
      <trkpt lat="46.0622923" lon="11.1257732" />
      <trkpt lat="46.0622829" lon="11.1257975" />
      <trkpt lat="46.0622666" lon="11.1258210" />
      <trkpt lat="46.0617535" lon="11.1263066" />
      <trkpt lat="46.0617401" lon="11.1263092" />
      <trkpt lat="46.0617280" lon="11.1263081" />
      <trkpt lat="46.0617189" lon="11.1263032" />
      <trkpt lat="46.0617098" lon="11.1263121" />
      <trkpt lat="46.0616697" lon="11.1263513" />
      <trkpt lat="46.0616283" lon="11.1263941" />
      <trkpt lat="46.0616334" lon="11.1264055" />
      <trkpt lat="46.0616335" lon="11.1264194" />
      <trkpt lat="46.0616272" lon="11.1264252" />
      <trkpt lat="46.0616131" lon="11.1264388" />
      <trkpt lat="46.0614900" lon="11.1265572" />
      <trkpt lat="46.0607006" lon="11.1273165" />
      <trkpt lat="46.0607283" lon="11.1273770" />
      <trkpt lat="46.0606810" lon="11.1274203" />
      <trkpt lat="46.0606403" lon="11.1274586" />
      <trkpt lat="46.0605580" lon="11.1275393" />
      <trkpt lat="46.0598806" lon="11.1282058" />
      <trkpt lat="46.0598474" lon="11.1281528" />
      <trkpt lat="46.0598125" lon="11.1281676" />
      <trkpt lat="46.0597850" lon="11.1282180" />
      <trkpt lat="46.0591635" lon="11.1273036" />
      <trkpt lat="46.0590732" lon="11.1271445" />
      <trkpt lat="46.0590349" lon="11.1271380" />
      <trkpt lat="46.0590244" lon="11.1271318" />
      <trkpt lat="46.0590008" lon="11.1270867" />
      <trkpt lat="46.0589783" lon="11.1271051" />
      <trkpt lat="46.0589748" lon="11.1271079" />
      <trkpt lat="46.0589724" lon="11.1271099" />
      <trkpt lat="46.0589412" lon="11.1270785" />
      <trkpt lat="46.0589212" lon="11.1270694" />
      <trkpt lat="46.0589008" lon="11.1270798" />
      <trkpt lat="46.0588891" lon="11.1270924" />
      <trkpt lat="46.0587541" lon="11.1272559" />
      <trkpt lat="46.0587512" lon="11.1272621" />
      <trkpt lat="46.0587537" lon="11.1272716" />
      <trkpt lat="46.0587722" lon="11.1273023" />
      <trkpt lat="46.0587553" lon="11.1273261" />
      <trkpt lat="46.0587476" lon="11.1273363" />
      <trkpt lat="46.0587374" lon="11.1273493" />
      <trkpt lat="46.0587263" lon="11.1273404" />
      <trkpt lat="46.0587177" lon="11.1273350" />
      <trkpt lat="46.0587038" lon="11.1273300" />
      <trkpt lat="46.0586910" lon="11.1273390" />
      <trkpt lat="46.0585513" lon="11.1275167" />
      <trkpt lat="46.0584963" lon="11.1275867" />
      <trkpt lat="46.0583989" lon="11.1277106" />
      <trkpt lat="46.0583104" lon="11.1278553" />
      <trkpt lat="46.0582812" lon="11.1279055" />
      <trkpt lat="46.0582588" lon="11.1279454" />
      <trkpt lat="46.0581570" lon="11.1281106" />
      <trkpt lat="46.0580131" lon="11.1283510" />
      <trkpt lat="46.0577601" lon="11.1287825" />
      <trkpt lat="46.0577390" lon="11.1288192" />
      <trkpt lat="46.0577268" lon="11.1288392" />
      <trkpt lat="46.0577219" lon="11.1288465" />
      <trkpt lat="46.0576096" lon="11.1290374" />
      <trkpt lat="46.0573955" lon="11.1293954" />
      <trkpt lat="46.0572156" lon="11.1296968" />
      <trkpt lat="46.0571954" lon="11.1297320" />
      <trkpt lat="46.0571843" lon="11.1297672" />
      <trkpt lat="46.0571808" lon="11.1297965" />
      <trkpt lat="46.0571907" lon="11.1298324" />
      <trkpt lat="46.0572028" lon="11.1298550" />
      <trkpt lat="46.0572204" lon="11.1298838" />
      <trkpt lat="46.0571989" lon="11.1299202" />
      <trkpt lat="46.0571728" lon="11.1299600" />
      <trkpt lat="46.0571459" lon="11.1299260" />
      <trkpt lat="46.0571261" lon="11.1299144" />
      <trkpt lat="46.0571051" lon="11.1299124" />
      <trkpt lat="46.0570843" lon="11.1299194" />
      <trkpt lat="46.0570694" lon="11.1299327" />
      <trkpt lat="46.0570322" lon="11.1299960" />
      <trkpt lat="46.0569830" lon="11.1300797" />
      <trkpt lat="46.0568288" lon="11.1303421" />
      <trkpt lat="46.0566655" lon="11.1306201" />
      <trkpt lat="46.0565942" lon="11.1307377" />
      <trkpt lat="46.0565694" lon="11.1307980" />
      <trkpt lat="46.0565635" lon="11.1308197" />
      <trkpt lat="46.0565523" lon="11.1308611" />
      <trkpt lat="46.0565368" lon="11.1309420" />
      <trkpt lat="46.0565324" lon="11.1310202" />
      <trkpt lat="46.0565324" lon="11.1311029" />
      <trkpt lat="46.0565445" lon="11.1312048" />
      <trkpt lat="46.0565715" lon="11.1312992" />
      <trkpt lat="46.0566025" lon="11.1313595" />
      <trkpt lat="46.0566190" lon="11.1313815" />
      <trkpt lat="46.0566751" lon="11.1314565" />
      <trkpt lat="46.0568122" lon="11.1316045" />
      <trkpt lat="46.0568198" lon="11.1316120" />
      <trkpt lat="46.0569662" lon="11.1317564" />
      <trkpt lat="46.0569508" lon="11.1317899" />
      <trkpt lat="46.0569354" lon="11.1318233" />
      <trkpt lat="46.0569217" lon="11.1318530" />
      <trkpt lat="46.0569081" lon="11.1318826" />
      <trkpt lat="46.0569377" lon="11.1319145" />
      <trkpt lat="46.0569672" lon="11.1319464" />
      <trkpt lat="46.0569974" lon="11.1319767" />
      <trkpt lat="46.0571926" lon="11.1321725" />
      <trkpt lat="46.0575647" lon="11.1325440" />
      <trkpt lat="46.0575852" lon="11.1325674" />
      <trkpt lat="46.0575937" lon="11.1325826" />
      <trkpt lat="46.0575937" lon="11.1326025" />
      <trkpt lat="46.0575883" lon="11.1327584" />
      <trkpt lat="46.0575862" lon="11.1328149" />
      <trkpt lat="46.0576096" lon="11.1328742" />
      <trkpt lat="46.0576431" lon="11.1329590" />
      <trkpt lat="46.0576757" lon="11.1329969" />
      <trkpt lat="46.0576887" lon="11.1330047" />
      <trkpt lat="46.0575681" lon="11.1334865" />
      <trkpt lat="46.0575462" lon="11.1335751" />
      <trkpt lat="46.0575283" lon="11.1336468" />
      <trkpt lat="46.0574895" lon="11.1338219" />
      <trkpt lat="46.0574670" lon="11.1339036" />
      <trkpt lat="46.0574374" lon="11.1339919" />
      <trkpt lat="46.0574268" lon="11.1340213" />
      <trkpt lat="46.0574128" lon="11.1340597" />
      <trkpt lat="46.0573797" lon="11.1341439" />
      <trkpt lat="46.0573462" lon="11.1342194" />
      <trkpt lat="46.0572865" lon="11.1343411" />
      <trkpt lat="46.0572139" lon="11.1344663" />
      <trkpt lat="46.0571468" lon="11.1345759" />
      <trkpt lat="46.0570906" lon="11.1346598" />
      <trkpt lat="46.0571131" lon="11.1347191" />
      <trkpt lat="46.0571556" lon="11.1346751" />
      <trkpt lat="46.0572844" lon="11.1344985" />
      <trkpt lat="46.0573726" lon="11.1343361" />
      <trkpt lat="46.0574286" lon="11.1342052" />
      <trkpt lat="46.0574793" lon="11.1340734" />
      <trkpt lat="46.0575985" lon="11.1336202" />
      <trkpt lat="46.0576203" lon="11.1335437" />
      <trkpt lat="46.0577451" lon="11.1330420" />
      <trkpt lat="46.0577748" lon="11.1330586" />
      <trkpt lat="46.0577848" lon="11.1330629" />
      <trkpt lat="46.0578092" lon="11.1330794" />
      <trkpt lat="46.0578350" lon="11.1330844" />
      <trkpt lat="46.0578791" lon="11.1330673" />
      <trkpt lat="46.0579158" lon="11.1330444" />
      <trkpt lat="46.0579619" lon="11.1329975" />
      <trkpt lat="46.0579703" lon="11.1329841" />
      <trkpt lat="46.0579998" lon="11.1329923" />
      <trkpt lat="46.0580094" lon="11.1329519" />
      <trkpt lat="46.0580179" lon="11.1329138" />
      <trkpt lat="46.0580306" lon="11.1328612" />
      <trkpt lat="46.0583769" lon="11.1330087" />
      <trkpt lat="46.0586360" lon="11.1331044" />
      <trkpt lat="46.0586818" lon="11.1331110" />
      <trkpt lat="46.0588431" lon="11.1331307" />
      <trkpt lat="46.0590681" lon="11.1331501" />
      <trkpt lat="46.0593621" lon="11.1331795" />
      <trkpt lat="46.0596670" lon="11.1332103" />
      <trkpt lat="46.0596787" lon="11.1332099" />
      <trkpt lat="46.0596877" lon="11.1332025" />
      <trkpt lat="46.0596912" lon="11.1331860" />
      <trkpt lat="46.0596935" lon="11.1331703" />
      <trkpt lat="46.0597326" lon="11.1331739" />
      <trkpt lat="46.0597606" lon="11.1331783" />
      <trkpt lat="46.0597595" lon="11.1331940" />
      <trkpt lat="46.0597600" lon="11.1332120" />
      <trkpt lat="46.0597700" lon="11.1332247" />
      <trkpt lat="46.0598147" lon="11.1332292" />
      <trkpt lat="46.0602127" lon="11.1332925" />
      <trkpt lat="46.0602412" lon="11.1332910" />
      <trkpt lat="46.0602523" lon="11.1332824" />
      <trkpt lat="46.0602577" lon="11.1332703" />
      <trkpt lat="46.0602862" lon="11.1332752" />
      <trkpt lat="46.0603242" lon="11.1332779" />
      <trkpt lat="46.0603285" lon="11.1332906" />
      <trkpt lat="46.0603378" lon="11.1333032" />
      <trkpt lat="46.0607970" lon="11.1333795" />
      <trkpt lat="46.0608053" lon="11.1333708" />
      <trkpt lat="46.0608359" lon="11.1333736" />
      <trkpt lat="46.0608645" lon="11.1333786" />
      <trkpt lat="46.0608870" lon="11.1333828" />
      <trkpt lat="46.0611801" lon="11.1334178" />
      <trkpt lat="46.0613695" lon="11.1334442" />
      <trkpt lat="46.0614382" lon="11.1334496" />
      <trkpt lat="46.0614811" lon="11.1334468" />
      <trkpt lat="46.0615391" lon="11.1334429" />
      <trkpt lat="46.0616024" lon="11.1334304" />
      <trkpt lat="46.0616551" lon="11.1334143" />
      <trkpt lat="46.0616669" lon="11.1334107" />
      <trkpt lat="46.0617203" lon="11.1333696" />
      <trkpt lat="46.0617618" lon="11.1333124" />
      <trkpt lat="46.0618220" lon="11.1332185" />
      <trkpt lat="46.0618338" lon="11.1331799" />
      <trkpt lat="46.0618559" lon="11.1331433" />
      <trkpt lat="46.0619225" lon="11.1332358" />
      <trkpt lat="46.0619864" lon="11.1333197" />
      <trkpt lat="46.0622160" lon="11.1336476" />
      <trkpt lat="46.0622679" lon="11.1337218" />
      <trkpt lat="46.0624155" lon="11.1339336" />
      <trkpt lat="46.0627630" lon="11.1344324" />
      <trkpt lat="46.0629520" lon="11.1347179" />
      <trkpt lat="46.0629316" lon="11.1347486" />
      <trkpt lat="46.0627621" lon="11.1345177" />
      <trkpt lat="46.0627322" lon="11.1344744" />
      <trkpt lat="46.0625081" lon="11.1348081" />
      <trkpt lat="46.0624754" lon="11.1348748" />
      <trkpt lat="46.0623180" lon="11.1354315" />
      <trkpt lat="46.0623426" lon="11.1354487" />
      <trkpt lat="46.0624443" lon="11.1355183" />
      <trkpt lat="46.0625595" lon="11.1356153" />
      <trkpt lat="46.0626246" lon="11.1356817" />
      <trkpt lat="46.0627778" lon="11.1358520" />
      <trkpt lat="46.0628263" lon="11.1358533" />
      <trkpt lat="46.0628416" lon="11.1358957" />
      <trkpt lat="46.0628621" lon="11.1359507" />
      <trkpt lat="46.0628585" lon="11.1359598" />
      <trkpt lat="46.0628595" lon="11.1359746" />
      <trkpt lat="46.0628707" lon="11.1360076" />
      <trkpt lat="46.0628792" lon="11.1360455" />
      <trkpt lat="46.0628823" lon="11.1361027" />
      <trkpt lat="46.0628776" lon="11.1361623" />
      <trkpt lat="46.0628595" lon="11.1362101" />
      <trkpt lat="46.0628359" lon="11.1362712" />
      <trkpt lat="46.0626662" lon="11.1363977" />
      <trkpt lat="46.0622132" lon="11.1367294" />
      <trkpt lat="46.0621447" lon="11.1367745" />
      <trkpt lat="46.0620814" lon="11.1368136" />
      <trkpt lat="46.0620233" lon="11.1368443" />
      <trkpt lat="46.0619089" lon="11.1368943" />
      <trkpt lat="46.0617279" lon="11.1369431" />
      <trkpt lat="46.0615438" lon="11.1370079" />
      <trkpt lat="46.0615403" lon="11.1369863" />
      <trkpt lat="46.0615290" lon="11.1369905" />
      <trkpt lat="46.0613574" lon="11.1370576" />
      <trkpt lat="46.0612307" lon="11.1371853" />
      <trkpt lat="46.0611738" lon="11.1372161" />
      <trkpt lat="46.0611454" lon="11.1373002" />
      <trkpt lat="46.0610228" lon="11.1374549" />
      <trkpt lat="46.0610091" lon="11.1375070" />
      <trkpt lat="46.0611517" lon="11.1375847" />
      <trkpt lat="46.0611709" lon="11.1376187" />
      <trkpt lat="46.0610518" lon="11.1376704" />
      <trkpt lat="46.0610410" lon="11.1377129" />
      <trkpt lat="46.0611079" lon="11.1377738" />
      <trkpt lat="46.0611256" lon="11.1378342" />
      <trkpt lat="46.0610636" lon="11.1379149" />
      <trkpt lat="46.0609697" lon="11.1379434" />
      <trkpt lat="46.0608906" lon="11.1380227" />
      <trkpt lat="46.0608952" lon="11.1381229" />
      <trkpt lat="46.0607369" lon="11.1382324" />
      <trkpt lat="46.0606145" lon="11.1382739" />
      <trkpt lat="46.0605754" lon="11.1382871" />
      <trkpt lat="46.0604235" lon="11.1383328" />
      <trkpt lat="46.0602715" lon="11.1384195" />
      <trkpt lat="46.0602050" lon="11.1384560" />
      <trkpt lat="46.0601005" lon="11.1384377" />
      <trkpt lat="46.0599676" lon="11.1383921" />
      <trkpt lat="46.0595928" lon="11.1380522" />
      <trkpt lat="46.0594564" lon="11.1379254" />
      <trkpt lat="46.0592231" lon="11.1378223" />
      <trkpt lat="46.0591153" lon="11.1378001" />
      <trkpt lat="46.0589703" lon="11.1378355" />
      <trkpt lat="46.0588770" lon="11.1378790" />
      <trkpt lat="46.0588595" lon="11.1378871" />
      <trkpt lat="46.0586639" lon="11.1380152" />
      <trkpt lat="46.0584846" lon="11.1381366" />
      <trkpt lat="46.0583143" lon="11.1382999" />
      <trkpt lat="46.0583542" lon="11.1384048" />
      <trkpt lat="46.0583861" lon="11.1384599" />
      <trkpt lat="46.0584096" lon="11.1385006" />
      <trkpt lat="46.0584599" lon="11.1385489" />
      <trkpt lat="46.0585413" lon="11.1385931" />
      <trkpt lat="46.0587176" lon="11.1386400" />
      <trkpt lat="46.0587605" lon="11.1386991" />
      <trkpt lat="46.0588572" lon="11.1387889" />
      <trkpt lat="46.0589038" lon="11.1388519" />
      <trkpt lat="46.0589298" lon="11.1389163" />
      <trkpt lat="46.0589294" lon="11.1389282" />
      <trkpt lat="46.0589280" lon="11.1389726" />
      <trkpt lat="46.0589001" lon="11.1391228" />
      <trkpt lat="46.0588572" lon="11.1393012" />
      <trkpt lat="46.0588591" lon="11.1394353" />
      <trkpt lat="46.0588824" lon="11.1394796" />
      <trkpt lat="46.0589819" lon="11.1395654" />
      <trkpt lat="46.0592490" lon="11.1397277" />
      <trkpt lat="46.0595077" lon="11.1398873" />
      <trkpt lat="46.0597590" lon="11.1400656" />
      <trkpt lat="46.0598446" lon="11.1401635" />
      <trkpt lat="46.0599107" lon="11.1403204" />
      <trkpt lat="46.0598446" lon="11.1401635" />
      <trkpt lat="46.0597590" lon="11.1400656" />
      <trkpt lat="46.0595077" lon="11.1398873" />
      <trkpt lat="46.0592490" lon="11.1397277" />
      <trkpt lat="46.0589819" lon="11.1395654" />
      <trkpt lat="46.0588824" lon="11.1394796" />
      <trkpt lat="46.0588591" lon="11.1394353" />
      <trkpt lat="46.0588572" lon="11.1393012" />
      <trkpt lat="46.0589001" lon="11.1391228" />
      <trkpt lat="46.0589280" lon="11.1389726" />
      <trkpt lat="46.0589294" lon="11.1389282" />
      <trkpt lat="46.0589298" lon="11.1389163" />
      <trkpt lat="46.0589038" lon="11.1388519" />
      <trkpt lat="46.0588572" lon="11.1387889" />
      <trkpt lat="46.0587605" lon="11.1386991" />
      <trkpt lat="46.0587176" lon="11.1386400" />
      <trkpt lat="46.0585413" lon="11.1385931" />
      <trkpt lat="46.0584599" lon="11.1385489" />
      <trkpt lat="46.0584096" lon="11.1385006" />
      <trkpt lat="46.0583861" lon="11.1384599" />
      <trkpt lat="46.0583542" lon="11.1384048" />
      <trkpt lat="46.0583143" lon="11.1382999" />
      <trkpt lat="46.0580246" lon="11.1386369" />
      <trkpt lat="46.0579782" lon="11.1387448" />
      <trkpt lat="46.0579782" lon="11.1390331" />
      <trkpt lat="46.0581207" lon="11.1397679" />
      <trkpt lat="46.0583654" lon="11.1403033" />
      <trkpt lat="46.0585557" lon="11.1406080" />
      <trkpt lat="46.0587399" lon="11.1409475" />
      <trkpt lat="46.0588094" lon="11.1410955" />
      <trkpt lat="46.0588752" lon="11.1412518" />
      <trkpt lat="46.0588815" lon="11.1413663" />
      <trkpt lat="46.0588879" lon="11.1419823" />
      <trkpt lat="46.0588815" lon="11.1413663" />
      <trkpt lat="46.0588752" lon="11.1412518" />
      <trkpt lat="46.0588094" lon="11.1410955" />
      <trkpt lat="46.0587399" lon="11.1409475" />
      <trkpt lat="46.0585557" lon="11.1406080" />
      <trkpt lat="46.0583654" lon="11.1403033" />
      <trkpt lat="46.0581207" lon="11.1397679" />
      <trkpt lat="46.0579782" lon="11.1390331" />
      <trkpt lat="46.0579782" lon="11.1387448" />
      <trkpt lat="46.0580246" lon="11.1386369" />
      <trkpt lat="46.0578197" lon="11.1387354" />
      <trkpt lat="46.0577060" lon="11.1387946" />
      <trkpt lat="46.0576391" lon="11.1386461" />
      <trkpt lat="46.0575775" lon="11.1386515" />
      <trkpt lat="46.0574991" lon="11.1386340" />
      <trkpt lat="46.0574366" lon="11.1385762" />
      <trkpt lat="46.0573843" lon="11.1385654" />
      <trkpt lat="46.0573536" lon="11.1386256" />
      <trkpt lat="46.0573322" lon="11.1386397" />
      <trkpt lat="46.0572244" lon="11.1386255" />
      <trkpt lat="46.0571517" lon="11.1385982" />
      <trkpt lat="46.0570462" lon="11.1385631" />
      <trkpt lat="46.0569792" lon="11.1385531" />
      <trkpt lat="46.0569446" lon="11.1385577" />
      <trkpt lat="46.0568925" lon="11.1386845" />
      <trkpt lat="46.0568674" lon="11.1387336" />
      <trkpt lat="46.0567259" lon="11.1387537" />
      <trkpt lat="46.0566424" lon="11.1386969" />
      <trkpt lat="46.0565475" lon="11.1386370" />
      <trkpt lat="46.0566436" lon="11.1387888" />
      <trkpt lat="46.0567268" lon="11.1390276" />
      <trkpt lat="46.0567281" lon="11.1391139" />
      <trkpt lat="46.0566905" lon="11.1391929" />
      <trkpt lat="46.0566647" lon="11.1391783" />
      <trkpt lat="46.0566400" lon="11.1391944" />
      <trkpt lat="46.0565719" lon="11.1392036" />
      <trkpt lat="46.0564683" lon="11.1391608" />
      <trkpt lat="46.0563717" lon="11.1391180" />
      <trkpt lat="46.0562751" lon="11.1391189" />
      <trkpt lat="46.0562245" lon="11.1391508" />
      <trkpt lat="46.0561564" lon="11.1391575" />
      <trkpt lat="46.0560988" lon="11.1391508" />
      <trkpt lat="46.0560685" lon="11.1391700" />
      <trkpt lat="46.0560639" lon="11.1392044" />
      <trkpt lat="46.0561046" lon="11.1392984" />
      <trkpt lat="46.0561704" lon="11.1394065" />
      <trkpt lat="46.0562309" lon="11.1394577" />
      <trkpt lat="46.0562641" lon="11.1394636" />
      <trkpt lat="46.0562914" lon="11.1394460" />
      <trkpt lat="46.0563281" lon="11.1393671" />
      <trkpt lat="46.0563444" lon="11.1393411" />
      <trkpt lat="46.0563834" lon="11.1393466" />
      <trkpt lat="46.0564176" lon="11.1393745" />
      <trkpt lat="46.0564078" lon="11.1394203" />
      <trkpt lat="46.0563095" lon="11.1395365" />
      <trkpt lat="46.0561697" lon="11.1395884" />
      <trkpt lat="46.0561293" lon="11.1395602" />
      <trkpt lat="46.0560359" lon="11.1394704" />
      <trkpt lat="46.0559406" lon="11.1393455" />
      <trkpt lat="46.0559107" lon="11.1392108" />
      <trkpt lat="46.0559034" lon="11.1390876" />
      <trkpt lat="46.0558814" lon="11.1390260" />
      <trkpt lat="46.0558490" lon="11.1390137" />
      <trkpt lat="46.0557012" lon="11.1390735" />
      <trkpt lat="46.0556005" lon="11.1390243" />
      <trkpt lat="46.0553173" lon="11.1388763" />
      <trkpt lat="46.0550934" lon="11.1387506" />
      <trkpt lat="46.0549315" lon="11.1386703" />
      <trkpt lat="46.0548694" lon="11.1385703" />
      <trkpt lat="46.0548402" lon="11.1386448" />
      <trkpt lat="46.0548166" lon="11.1386900" />
      <trkpt lat="46.0547865" lon="11.1386721" />
      <trkpt lat="46.0547727" lon="11.1386888" />
      <trkpt lat="46.0548956" lon="11.1389023" />
      <trkpt lat="46.0549668" lon="11.1390220" />
      <trkpt lat="46.0550153" lon="11.1391708" />
      <trkpt lat="46.0550774" lon="11.1394124" />
      <trkpt lat="46.0550056" lon="11.1395039" />
      <trkpt lat="46.0549025" lon="11.1395447" />
      <trkpt lat="46.0547432" lon="11.1395677" />
      <trkpt lat="46.0545711" lon="11.1396280" />
      <trkpt lat="46.0545013" lon="11.1397236" />
      <trkpt lat="46.0543987" lon="11.1400683" />
      <trkpt lat="46.0543174" lon="11.1402559" />
      <trkpt lat="46.0542306" lon="11.1403460" />
      <trkpt lat="46.0541201" lon="11.1403777" />
      <trkpt lat="46.0540409" lon="11.1403829" />
      <trkpt lat="46.0539300" lon="11.1403919" />
      <trkpt lat="46.0538081" lon="11.1404491" />
      <trkpt lat="46.0537307" lon="11.1405459" />
      <trkpt lat="46.0536830" lon="11.1406517" />
      <trkpt lat="46.0536487" lon="11.1408360" />
      <trkpt lat="46.0536486" lon="11.1410493" />
      <trkpt lat="46.0537026" lon="11.1416942" />
      <trkpt lat="46.0537290" lon="11.1418176" />
      <trkpt lat="46.0538031" lon="11.1419455" />
      <trkpt lat="46.0539041" lon="11.1420457" />
      <trkpt lat="46.0540321" lon="11.1422698" />
      <trkpt lat="46.0540872" lon="11.1424493" />
      <trkpt lat="46.0541097" lon="11.1427126" />
      <trkpt lat="46.0540920" lon="11.1429547" />
      <trkpt lat="46.0541642" lon="11.1430340" />
      <trkpt lat="46.0542754" lon="11.1431737" />
      <trkpt lat="46.0544166" lon="11.1434453" />
      <trkpt lat="46.0551776" lon="11.1450400" />
      <trkpt lat="46.0551937" lon="11.1451002" />
      <trkpt lat="46.0552070" lon="11.1453166" />
      <trkpt lat="46.0552166" lon="11.1455842" />
      <trkpt lat="46.0551949" lon="11.1462116" />
      <trkpt lat="46.0552541" lon="11.1465876" />
      <trkpt lat="46.0552973" lon="11.1467190" />
      <trkpt lat="46.0553991" lon="11.1467982" />
      <trkpt lat="46.0556722" lon="11.1470494" />
      <trkpt lat="46.0558155" lon="11.1472439" />
      <trkpt lat="46.0558848" lon="11.1474872" />
      <trkpt lat="46.0559050" lon="11.1477689" />
      <trkpt lat="46.0558651" lon="11.1489169" />
      <trkpt lat="46.0558953" lon="11.1489214" />
      <trkpt lat="46.0560940" lon="11.1489513" />
      <trkpt lat="46.0562873" lon="11.1489832" />
      <trkpt lat="46.0564645" lon="11.1490113" />
      <trkpt lat="46.0565525" lon="11.1490292" />
      <trkpt lat="46.0566784" lon="11.1490642" />
      <trkpt lat="46.0567695" lon="11.1490916" />
      <trkpt lat="46.0567606" lon="11.1491512" />
      <trkpt lat="46.0567516" lon="11.1492107" />
      <trkpt lat="46.0568995" lon="11.1492628" />
      <trkpt lat="46.0570066" lon="11.1493067" />
      <trkpt lat="46.0570533" lon="11.1493272" />
      <trkpt lat="46.0571515" lon="11.1493756" />
      <trkpt lat="46.0572648" lon="11.1494403" />
      <trkpt lat="46.0574220" lon="11.1495372" />
      <trkpt lat="46.0575117" lon="11.1495928" />
      <trkpt lat="46.0576684" lon="11.1496897" />
      <trkpt lat="46.0578877" lon="11.1498244" />
      <trkpt lat="46.0581545" lon="11.1499870" />
      <trkpt lat="46.0584279" lon="11.1501551" />
      <trkpt lat="46.0585824" lon="11.1502484" />
      <trkpt lat="46.0586682" lon="11.1502906" />
      <trkpt lat="46.0587222" lon="11.1503170" />
      <trkpt lat="46.0588119" lon="11.1503544" />
      <trkpt lat="46.0589514" lon="11.1503979" />
      <trkpt lat="46.0590885" lon="11.1504214" />
      <trkpt lat="46.0592403" lon="11.1504343" />
      <trkpt lat="46.0594945" lon="11.1504525" />
      <trkpt lat="46.0599903" lon="11.1504840" />
      <trkpt lat="46.0606064" lon="11.1505225" />
      <trkpt lat="46.0609177" lon="11.1505436" />
      <trkpt lat="46.0614788" lon="11.1505761" />
      <trkpt lat="46.0615874" lon="11.1505750" />
      <trkpt lat="46.0617114" lon="11.1505684" />
      <trkpt lat="46.0617066" lon="11.1504995" />
      <trkpt lat="46.0617033" lon="11.1504522" />
      <trkpt lat="46.0617554" lon="11.1504446" />
      <trkpt lat="46.0617664" lon="11.1504317" />
      <trkpt lat="46.0617717" lon="11.1503950" />
      <trkpt lat="46.0618016" lon="11.1503778" />
      <trkpt lat="46.0617813" lon="11.1503225" />
      <trkpt lat="46.0617398" lon="11.1502637" />
      <trkpt lat="46.0616458" lon="11.1502074" />
      <trkpt lat="46.0615024" lon="11.1501284" />
      <trkpt lat="46.0615070" lon="11.1500151" />
      <trkpt lat="46.0614839" lon="11.1499741" />
      <trkpt lat="46.0614742" lon="11.1496453" />
      <trkpt lat="46.0614740" lon="11.1495299" />
      <trkpt lat="46.0614736" lon="11.1492012" />
      <trkpt lat="46.0613993" lon="11.1490150" />
      <trkpt lat="46.0613120" lon="11.1489034" />
      <trkpt lat="46.0612363" lon="11.1488458" />
      <trkpt lat="46.0612183" lon="11.1488441" />
      <trkpt lat="46.0611046" lon="11.1487493" />
      <trkpt lat="46.0609753" lon="11.1486246" />
      <trkpt lat="46.0609502" lon="11.1485253" />
      <trkpt lat="46.0609632" lon="11.1480989" />
      <trkpt lat="46.0610088" lon="11.1473773" />
      <trkpt lat="46.0609725" lon="11.1469629" />
      <trkpt lat="46.0609874" lon="11.1468892" />
      <trkpt lat="46.0609132" lon="11.1467828" />
      <trkpt lat="46.0609228" lon="11.1465622" />
      <trkpt lat="46.0609362" lon="11.1464601" />
      <trkpt lat="46.0610758" lon="11.1463305" />
      <trkpt lat="46.0612978" lon="11.1461540" />
      <trkpt lat="46.0615944" lon="11.1459086" />
      <trkpt lat="46.0620096" lon="11.1455198" />
      <trkpt lat="46.0622545" lon="11.1454894" />
      <trkpt lat="46.0623751" lon="11.1454867" />
      <trkpt lat="46.0626965" lon="11.1455722" />
      <trkpt lat="46.0628113" lon="11.1448690" />
      <trkpt lat="46.0628860" lon="11.1445739" />
      <trkpt lat="46.0627582" lon="11.1441662" />
      <trkpt lat="46.0627378" lon="11.1440503" />
      <trkpt lat="46.0627340" lon="11.1436980" />
      <trkpt lat="46.0627510" lon="11.1434371" />
      <trkpt lat="46.0627573" lon="11.1433427" />
      <trkpt lat="46.0628064" lon="11.1433368" />
      <trkpt lat="46.0629605" lon="11.1433813" />
      <trkpt lat="46.0631589" lon="11.1434498" />
      <trkpt lat="46.0632960" lon="11.1434461" />
      <trkpt lat="46.0633210" lon="11.1434989" />
      <trkpt lat="46.0633161" lon="11.1436308" />
      <trkpt lat="46.0633780" lon="11.1438154" />
      <trkpt lat="46.0634585" lon="11.1440609" />
      <trkpt lat="46.0635648" lon="11.1443188" />
      <trkpt lat="46.0636062" lon="11.1443883" />
      <trkpt lat="46.0637003" lon="11.1445359" />
      <trkpt lat="46.0637956" lon="11.1445757" />
      <trkpt lat="46.0641007" lon="11.1446670" />
      <trkpt lat="46.0642846" lon="11.1448074" />
      <trkpt lat="46.0644091" lon="11.1448571" />
      <trkpt lat="46.0644785" lon="11.1448596" />
      <trkpt lat="46.0644867" lon="11.1448599" />
      <trkpt lat="46.0645225" lon="11.1448612" />
      <trkpt lat="46.0646109" lon="11.1450585" />
      <trkpt lat="46.0647002" lon="11.1451980" />
      <trkpt lat="46.0648688" lon="11.1453929" />
      <trkpt lat="46.0655848" lon="11.1462251" />
      <trkpt lat="46.0656770" lon="11.1463245" />
      <trkpt lat="46.0657013" lon="11.1462774" />
      <trkpt lat="46.0657934" lon="11.1463786" />
      <trkpt lat="46.0658600" lon="11.1464404" />
      <trkpt lat="46.0660682" lon="11.1466607" />
      <trkpt lat="46.0661206" lon="11.1467401" />
      <trkpt lat="46.0661318" lon="11.1467683" />
      <trkpt lat="46.0661384" lon="11.1467852" />
      <trkpt lat="46.0661948" lon="11.1468053" />
      <trkpt lat="46.0662224" lon="11.1468256" />
      <trkpt lat="46.0662435" lon="11.1468538" />
      <trkpt lat="46.0662612" lon="11.1468976" />
      <trkpt lat="46.0662786" lon="11.1469877" />
      <trkpt lat="46.0663293" lon="11.1473004" />
      <trkpt lat="46.0663783" lon="11.1475654" />
      <trkpt lat="46.0664109" lon="11.1476428" />
      <trkpt lat="46.0665699" lon="11.1476653" />
      <trkpt lat="46.0666644" lon="11.1476743" />
      <trkpt lat="46.0666652" lon="11.1476349" />
      <trkpt lat="46.0666708" lon="11.1476179" />
      <trkpt lat="46.0666844" lon="11.1476009" />
      <trkpt lat="46.0667093" lon="11.1475911" />
      <trkpt lat="46.0672972" lon="11.1476625" />
      <trkpt lat="46.0674169" lon="11.1477221" />
      <trkpt lat="46.0674953" lon="11.1477714" />
      <trkpt lat="46.0674169" lon="11.1477221" />
      <trkpt lat="46.0672972" lon="11.1476625" />
      <trkpt lat="46.0667093" lon="11.1475911" />
      <trkpt lat="46.0666844" lon="11.1476009" />
      <trkpt lat="46.0666708" lon="11.1476179" />
      <trkpt lat="46.0666652" lon="11.1476349" />
      <trkpt lat="46.0666644" lon="11.1476743" />
      <trkpt lat="46.0668071" lon="11.1476878" />
      <trkpt lat="46.0668534" lon="11.1477207" />
      <trkpt lat="46.0668875" lon="11.1477850" />
      <trkpt lat="46.0668966" lon="11.1481362" />
      <trkpt lat="46.0669643" lon="11.1483632" />
      <trkpt lat="46.0670434" lon="11.1484527" />
      <trkpt lat="46.0671300" lon="11.1485483" />
      <trkpt lat="46.0671092" lon="11.1485850" />
      <trkpt lat="46.0671900" lon="11.1486683" />
      <trkpt lat="46.0672346" lon="11.1487015" />
      <trkpt lat="46.0672854" lon="11.1487667" />
      <trkpt lat="46.0673654" lon="11.1489125" />
      <trkpt lat="46.0673661" lon="11.1489818" />
      <trkpt lat="46.0673671" lon="11.1490275" />
      <trkpt lat="46.0673886" lon="11.1490405" />
      <trkpt lat="46.0674135" lon="11.1490633" />
      <trkpt lat="46.0674373" lon="11.1491017" />
      <trkpt lat="46.0674684" lon="11.1492036" />
      <trkpt lat="46.0675097" lon="11.1494074" />
      <trkpt lat="46.0674946" lon="11.1502759" />
      <trkpt lat="46.0674843" lon="11.1503336" />
      <trkpt lat="46.0674763" lon="11.1503603" />
      <trkpt lat="46.0674607" lon="11.1503944" />
      <trkpt lat="46.0674331" lon="11.1504223" />
      <trkpt lat="46.0673941" lon="11.1504334" />
      <trkpt lat="46.0672506" lon="11.1504295" />
      <trkpt lat="46.0672500" lon="11.1504860" />
      <trkpt lat="46.0672500" lon="11.1505174" />
      <trkpt lat="46.0672500" lon="11.1505303" />
      <trkpt lat="46.0673434" lon="11.1505330" />
      <trkpt lat="46.0674365" lon="11.1505356" />
      <trkpt lat="46.0675236" lon="11.1505381" />
      <trkpt lat="46.0679034" lon="11.1505657" />
      <trkpt lat="46.0682235" lon="11.1506071" />
      <trkpt lat="46.0683190" lon="11.1506355" />
      <trkpt lat="46.0683636" lon="11.1506782" />
      <trkpt lat="46.0683881" lon="11.1507148" />
      <trkpt lat="46.0684041" lon="11.1507697" />
      <trkpt lat="46.0684130" lon="11.1508259" />
      <trkpt lat="46.0684252" lon="11.1508713" />
      <trkpt lat="46.0684501" lon="11.1509228" />
      <trkpt lat="46.0684671" lon="11.1509587" />
      <trkpt lat="46.0684749" lon="11.1509983" />
      <trkpt lat="46.0684792" lon="11.1510383" />
      <trkpt lat="46.0685265" lon="11.1510534" />
      <trkpt lat="46.0685775" lon="11.1510688" />
      <trkpt lat="46.0686415" lon="11.1509490" />
      <trkpt lat="46.0686631" lon="11.1509179" />
      <trkpt lat="46.0686889" lon="11.1508997" />
      <trkpt lat="46.0687068" lon="11.1508952" />
      <trkpt lat="46.0687175" lon="11.1508553" />
      <trkpt lat="46.0687402" lon="11.1508778" />
      <trkpt lat="46.0688645" lon="11.1509958" />
      <trkpt lat="46.0690225" lon="11.1511511" />
      <trkpt lat="46.0691967" lon="11.1512855" />
      <trkpt lat="46.0694274" lon="11.1514254" />
      <trkpt lat="46.0696136" lon="11.1514918" />
      <trkpt lat="46.0699381" lon="11.1515218" />
      <trkpt lat="46.0701223" lon="11.1515985" />
      <trkpt lat="46.0701952" lon="11.1516039" />
      <trkpt lat="46.0703589" lon="11.1516438" />
      <trkpt lat="46.0704283" lon="11.1516869" />
      <trkpt lat="46.0704741" lon="11.1517494" />
      <trkpt lat="46.0705345" lon="11.1518512" />
      <trkpt lat="46.0705730" lon="11.1519583" />
      <trkpt lat="46.0706618" lon="11.1522706" />
      <trkpt lat="46.0707737" lon="11.1526585" />
      <trkpt lat="46.0708442" lon="11.1528790" />
      <trkpt lat="46.0708870" lon="11.1529097" />
      <trkpt lat="46.0709298" lon="11.1529404" />
      <trkpt lat="46.0710391" lon="11.1530548" />
      <trkpt lat="46.0711466" lon="11.1531610" />
      <trkpt lat="46.0712276" lon="11.1532431" />
      <trkpt lat="46.0712687" lon="11.1532727" />
      <trkpt lat="46.0712924" lon="11.1532753" />
      <trkpt lat="46.0713233" lon="11.1532582" />
      <trkpt lat="46.0713601" lon="11.1532292" />
      <trkpt lat="46.0713869" lon="11.1532244" />
      <trkpt lat="46.0714453" lon="11.1532485" />
      <trkpt lat="46.0715097" lon="11.1533032" />
      <trkpt lat="46.0715394" lon="11.1532934" />
      <trkpt lat="46.0715716" lon="11.1533299" />
      <trkpt lat="46.0716408" lon="11.1534072" />
      <trkpt lat="46.0716994" lon="11.1534749" />
      <trkpt lat="46.0717968" lon="11.1535721" />
      <trkpt lat="46.0719001" lon="11.1536311" />
      <trkpt lat="46.0720266" lon="11.1536633" />
      <trkpt lat="46.0721010" lon="11.1536487" />
      <trkpt lat="46.0722039" lon="11.1535954" />
      <trkpt lat="46.0722894" lon="11.1535065" />
      <trkpt lat="46.0723750" lon="11.1533813" />
      <trkpt lat="46.0724314" lon="11.1533033" />
      <trkpt lat="46.0724555" lon="11.1532765" />
      <trkpt lat="46.0725627" lon="11.1532206" />
      <trkpt lat="46.0725800" lon="11.1532194" />
      <trkpt lat="46.0726039" lon="11.1532277" />
      <trkpt lat="46.0726571" lon="11.1532220" />
      <trkpt lat="46.0726440" lon="11.1531970" />
      <trkpt lat="46.0726183" lon="11.1531457" />
      <trkpt lat="46.0726936" lon="11.1530971" />
      <trkpt lat="46.0727280" lon="11.1530617" />
      <trkpt lat="46.0727535" lon="11.1530179" />
      <trkpt lat="46.0727769" lon="11.1529376" />
      <trkpt lat="46.0727866" lon="11.1530106" />
      <trkpt lat="46.0728561" lon="11.1527662" />
      <trkpt lat="46.0728750" lon="11.1527238" />
      <trkpt lat="46.0729050" lon="11.1526889" />
      <trkpt lat="46.0729434" lon="11.1526615" />
      <trkpt lat="46.0730029" lon="11.1526494" />
      <trkpt lat="46.0730718" lon="11.1526350" />
      <trkpt lat="46.0731187" lon="11.1526122" />
      <trkpt lat="46.0731397" lon="11.1526054" />
      <trkpt lat="46.0731592" lon="11.1526069" />
      <trkpt lat="46.0731836" lon="11.1525705" />
      <trkpt lat="46.0732018" lon="11.1525432" />
      <trkpt lat="46.0732013" lon="11.1525075" />
      <trkpt lat="46.0732103" lon="11.1524431" />
      <trkpt lat="46.0732171" lon="11.1523664" />
      <trkpt lat="46.0732113" lon="11.1523057" />
      <trkpt lat="46.0731945" lon="11.1522413" />
      <trkpt lat="46.0731687" lon="11.1521904" />
      <trkpt lat="46.0730703" lon="11.1520774" />
      <trkpt lat="46.0730350" lon="11.1520296" />
      <trkpt lat="46.0730213" lon="11.1519939" />
      <trkpt lat="46.0730139" lon="11.1519416" />
      <trkpt lat="46.0730192" lon="11.1519067" />
      <trkpt lat="46.0730350" lon="11.1518756" />
      <trkpt lat="46.0730582" lon="11.1518559" />
      <trkpt lat="46.0730908" lon="11.1518475" />
      <trkpt lat="46.0731203" lon="11.1518612" />
      <trkpt lat="46.0731534" lon="11.1518930" />
      <trkpt lat="46.0732155" lon="11.1519765" />
      <trkpt lat="46.0732376" lon="11.1520175" />
      <trkpt lat="46.0732560" lon="11.1520744" />
      <trkpt lat="46.0733371" lon="11.1523915" />
      <trkpt lat="46.0733534" lon="11.1524264" />
      <trkpt lat="46.0733808" lon="11.1524620" />
      <trkpt lat="46.0734092" lon="11.1524840" />
      <trkpt lat="46.0734450" lon="11.1524939" />
      <trkpt lat="46.0734781" lon="11.1524886" />
      <trkpt lat="46.0735081" lon="11.1524749" />
      <trkpt lat="46.0735318" lon="11.1524491" />
      <trkpt lat="46.0735518" lon="11.1524104" />
      <trkpt lat="46.0735655" lon="11.1523619" />
      <trkpt lat="46.0735702" lon="11.1523118" />
      <trkpt lat="46.0735671" lon="11.1521282" />
      <trkpt lat="46.0735681" lon="11.1520721" />
      <trkpt lat="46.0735617" lon="11.1520581" />
      <trkpt lat="46.0735422" lon="11.1520154" />
      <trkpt lat="46.0735545" lon="11.1519535" />
      <trkpt lat="46.0735772" lon="11.1518722" />
      <trkpt lat="46.0736034" lon="11.1517746" />
      <trkpt lat="46.0736296" lon="11.1517666" />
      <trkpt lat="46.0736417" lon="11.1517564" />
      <trkpt lat="46.0736738" lon="11.1516633" />
      <trkpt lat="46.0737075" lon="11.1515758" />
      <trkpt lat="46.0737470" lon="11.1514946" />
      <trkpt lat="46.0737908" lon="11.1514269" />
      <trkpt lat="46.0738265" lon="11.1513755" />
      <trkpt lat="46.0738370" lon="11.1513101" />
      <trkpt lat="46.0738513" lon="11.1512777" />
      <trkpt lat="46.0738561" lon="11.1512187" />
      <trkpt lat="46.0738384" lon="11.1509548" />
      <trkpt lat="46.0738340" lon="11.1507583" />
      <trkpt lat="46.0738242" lon="11.1505689" />
      <trkpt lat="46.0738172" lon="11.1504916" />
      <trkpt lat="46.0738137" lon="11.1504478" />
      <trkpt lat="46.0738097" lon="11.1504015" />
      <trkpt lat="46.0738862" lon="11.1503298" />
      <trkpt lat="46.0738706" lon="11.1502968" />
      <trkpt lat="46.0738382" lon="11.1502821" />
      <trkpt lat="46.0738120" lon="11.1502872" />
      <trkpt lat="46.0737739" lon="11.1503230" />
      <trkpt lat="46.0736544" lon="11.1504341" />
      <trkpt lat="46.0736142" lon="11.1504548" />
      <trkpt lat="46.0735869" lon="11.1504493" />
      <trkpt lat="46.0733836" lon="11.1503761" />
      <trkpt lat="46.0733050" lon="11.1503409" />
      <trkpt lat="46.0732329" lon="11.1503096" />
      <trkpt lat="46.0732057" lon="11.1502803" />
      <trkpt lat="46.0731947" lon="11.1502638" />
      <trkpt lat="46.0731917" lon="11.1502589" />
      <trkpt lat="46.0730926" lon="11.1500983" />
      <trkpt lat="46.0730427" lon="11.1499477" />
      <trkpt lat="46.0729939" lon="11.1497925" />
      <trkpt lat="46.0729745" lon="11.1495145" />
      <trkpt lat="46.0729688" lon="11.1491988" />
      <trkpt lat="46.0729670" lon="11.1490796" />
      <trkpt lat="46.0729800" lon="11.1489351" />
      <trkpt lat="46.0729981" lon="11.1487979" />
      <trkpt lat="46.0730226" lon="11.1486574" />
      <trkpt lat="46.0730693" lon="11.1484486" />
      <trkpt lat="46.0730830" lon="11.1483800" />
      <trkpt lat="46.0731692" lon="11.1480321" />
      <trkpt lat="46.0731986" lon="11.1479102" />
      <trkpt lat="46.0732164" lon="11.1478455" />
      <trkpt lat="46.0732805" lon="11.1477023" />
      <trkpt lat="46.0733438" lon="11.1475583" />
      <trkpt lat="46.0734074" lon="11.1474537" />
      <trkpt lat="46.0735472" lon="11.1472740" />
      <trkpt lat="46.0736122" lon="11.1471970" />
      <trkpt lat="46.0737449" lon="11.1470891" />
      <trkpt lat="46.0735461" lon="11.1465863" />
      <trkpt lat="46.0735009" lon="11.1463767" />
      <trkpt lat="46.0734851" lon="11.1461152" />
      <trkpt lat="46.0734412" lon="11.1460030" />
      <trkpt lat="46.0734280" lon="11.1459040" />
      <trkpt lat="46.0733955" lon="11.1458117" />
      <trkpt lat="46.0735093" lon="11.1457023" />
      <trkpt lat="46.0736262" lon="11.1455782" />
      <trkpt lat="46.0737543" lon="11.1452917" />
      <trkpt lat="46.0736262" lon="11.1455782" />
      <trkpt lat="46.0735093" lon="11.1457023" />
      <trkpt lat="46.0733955" lon="11.1458117" />
      <trkpt lat="46.0732753" lon="11.1458230" />
      <trkpt lat="46.0731777" lon="11.1458097" />
      <trkpt lat="46.0728240" lon="11.1455798" />
      <trkpt lat="46.0724511" lon="11.1453808" />
      <trkpt lat="46.0722420" lon="11.1452069" />
      <trkpt lat="46.0721097" lon="11.1449138" />
      <trkpt lat="46.0719547" lon="11.1446627" />
      <trkpt lat="46.0718429" lon="11.1444076" />
      <trkpt lat="46.0717608" lon="11.1442938" />
      <trkpt lat="46.0715739" lon="11.1440350" />
      <trkpt lat="46.0714213" lon="11.1437950" />
      <trkpt lat="46.0713181" lon="11.1437050" />
      <trkpt lat="46.0712810" lon="11.1437052" />
      <trkpt lat="46.0712865" lon="11.1434135" />
      <trkpt lat="46.0713148" lon="11.1431290" />
      <trkpt lat="46.0713724" lon="11.1428343" />
      <trkpt lat="46.0711277" lon="11.1429477" />
      <trkpt lat="46.0711215" lon="11.1426222" />
      <trkpt lat="46.0711122" lon="11.1425557" />
      <trkpt lat="46.0711041" lon="11.1419230" />
      <trkpt lat="46.0710441" lon="11.1419159" />
      <trkpt lat="46.0709691" lon="11.1418826" />
      <trkpt lat="46.0709092" lon="11.1418329" />
      <trkpt lat="46.0708788" lon="11.1417755" />
      <trkpt lat="46.0708571" lon="11.1417037" />
      <trkpt lat="46.0708434" lon="11.1416373" />
      <trkpt lat="46.0708409" lon="11.1415691" />
      <trkpt lat="46.0708652" lon="11.1414634" />
      <trkpt lat="46.0708925" lon="11.1413770" />
      <trkpt lat="46.0709661" lon="11.1411999" />
      <trkpt lat="46.0710240" lon="11.1410608" />
      <trkpt lat="46.0710522" lon="11.1408921" />
      <trkpt lat="46.0710480" lon="11.1406377" />
      <trkpt lat="46.0710119" lon="11.1404317" />
      <trkpt lat="46.0708080" lon="11.1399502" />
      <trkpt lat="46.0707864" lon="11.1399090" />
      <trkpt lat="46.0708294" lon="11.1397909" />
      <trkpt lat="46.0708698" lon="11.1395958" />
      <trkpt lat="46.0709027" lon="11.1393985" />
      <trkpt lat="46.0709272" lon="11.1392991" />
      <trkpt lat="46.0709652" lon="11.1391790" />
      <trkpt lat="46.0710293" lon="11.1390123" />
      <trkpt lat="46.0710055" lon="11.1389695" />
      <trkpt lat="46.0709834" lon="11.1389369" />
      <trkpt lat="46.0710097" lon="11.1388892" />
      <trkpt lat="46.0709747" lon="11.1388432" />
      <trkpt lat="46.0709660" lon="11.1388318" />
      <trkpt lat="46.0709193" lon="11.1387895" />
      <trkpt lat="46.0706095" lon="11.1385811" />
      <trkpt lat="46.0704281" lon="11.1383898" />
      <trkpt lat="46.0702877" lon="11.1382010" />
      <trkpt lat="46.0701465" lon="11.1379445" />
      <trkpt lat="46.0699840" lon="11.1377090" />
      <trkpt lat="46.0698888" lon="11.1376158" />
      <trkpt lat="46.0698198" lon="11.1375402" />
      <trkpt lat="46.0698819" lon="11.1374977" />
      <trkpt lat="46.0698694" lon="11.1374476" />
      <trkpt lat="46.0698995" lon="11.1374341" />
      <trkpt lat="46.0699539" lon="11.1374010" />
      <trkpt lat="46.0700015" lon="11.1373544" />
      <trkpt lat="46.0700311" lon="11.1373137" />
      <trkpt lat="46.0700562" lon="11.1372681" />
      <trkpt lat="46.0700731" lon="11.1372285" />
      <trkpt lat="46.0700862" lon="11.1371888" />
      <trkpt lat="46.0701005" lon="11.1371255" />
      <trkpt lat="46.0701079" lon="11.1370594" />
      <trkpt lat="46.0701083" lon="11.1369993" />
      <trkpt lat="46.0701035" lon="11.1369437" />
      <trkpt lat="46.0700934" lon="11.1368884" />
      <trkpt lat="46.0700814" lon="11.1368451" />
      <trkpt lat="46.0700654" lon="11.1368017" />
      <trkpt lat="46.0700491" lon="11.1367671" />
      <trkpt lat="46.0700316" lon="11.1367366" />
      <trkpt lat="46.0700129" lon="11.1367095" />
      <trkpt lat="46.0699946" lon="11.1366871" />
      <trkpt lat="46.0699752" lon="11.1366670" />
      <trkpt lat="46.0699538" lon="11.1366485" />
      <trkpt lat="46.0699320" lon="11.1366330" />
      <trkpt lat="46.0699344" lon="11.1365686" />
      <trkpt lat="46.0699407" lon="11.1363890" />
      <trkpt lat="46.0699395" lon="11.1360514" />
      <trkpt lat="46.0701224" lon="11.1360461" />
      <trkpt lat="46.0701295" lon="11.1364642" />
      <trkpt lat="46.0701192" lon="11.1365820" />
      <trkpt lat="46.0702114" lon="11.1365416" />
      <trkpt lat="46.0703298" lon="11.1364896" />
      <trkpt lat="46.0705297" lon="11.1364286" />
      <trkpt lat="46.0706039" lon="11.1364254" />
      <trkpt lat="46.0711071" lon="11.1364341" />
      <trkpt lat="46.0711575" lon="11.1364492" />
      <trkpt lat="46.0711961" lon="11.1364608" />
      <trkpt lat="46.0715862" lon="11.1365663" />
      <trkpt lat="46.0716956" lon="11.1365394" />
      <trkpt lat="46.0717016" lon="11.1364402" />
      <trkpt lat="46.0716892" lon="11.1363300" />
      <trkpt lat="46.0716212" lon="11.1362493" />
      <trkpt lat="46.0715230" lon="11.1362552" />
      <trkpt lat="46.0713696" lon="11.1362658" />
      <trkpt lat="46.0712101" lon="11.1362043" />
      <trkpt lat="46.0711008" lon="11.1361519" />
      <trkpt lat="46.0710268" lon="11.1360779" />
      <trkpt lat="46.0709615" lon="11.1359821" />
      <trkpt lat="46.0709278" lon="11.1358668" />
      <trkpt lat="46.0709283" lon="11.1356937" />
      <trkpt lat="46.0709723" lon="11.1355488" />
      <trkpt lat="46.0710022" lon="11.1354809" />
      <trkpt lat="46.0710282" lon="11.1354218" />
      <trkpt lat="46.0711365" lon="11.1352796" />
      <trkpt lat="46.0710552" lon="11.1351316" />
      <trkpt lat="46.0709837" lon="11.1350352" />
      <trkpt lat="46.0708948" lon="11.1349245" />
      <trkpt lat="46.0708550" lon="11.1348788" />
      <trkpt lat="46.0708341" lon="11.1348351" />
      <trkpt lat="46.0708290" lon="11.1347986" />
      <trkpt lat="46.0708231" lon="11.1342690" />
      <trkpt lat="46.0708207" lon="11.1341930" />
      <trkpt lat="46.0708130" lon="11.1341216" />
      <trkpt lat="46.0707708" lon="11.1339881" />
      <trkpt lat="46.0707196" lon="11.1338490" />
      <trkpt lat="46.0706348" lon="11.1336393" />
      <trkpt lat="46.0705241" lon="11.1335203" />
      <trkpt lat="46.0701221" lon="11.1334207" />
      <trkpt lat="46.0700210" lon="11.1333681" />
      <trkpt lat="46.0699178" lon="11.1332668" />
      <trkpt lat="46.0698294" lon="11.1331279" />
      <trkpt lat="46.0696373" lon="11.1329262" />
      <trkpt lat="46.0694575" lon="11.1327188" />
      <trkpt lat="46.0693210" lon="11.1326859" />
      <trkpt lat="46.0692278" lon="11.1325915" />
      <trkpt lat="46.0690428" lon="11.1324866" />
      <trkpt lat="46.0688921" lon="11.1323618" />
      <trkpt lat="46.0687477" lon="11.1321876" />
      <trkpt lat="46.0686823" lon="11.1321086" />
      <trkpt lat="46.0685321" lon="11.1319109" />
      <trkpt lat="46.0685203" lon="11.1318954" />
      <trkpt lat="46.0683358" lon="11.1317598" />
      <trkpt lat="46.0681894" lon="11.1316591" />
      <trkpt lat="46.0681255" lon="11.1315863" />
      <trkpt lat="46.0680966" lon="11.1315533" />
      <trkpt lat="46.0680656" lon="11.1315179" />
      <trkpt lat="46.0679883" lon="11.1314393" />
      <trkpt lat="46.0679660" lon="11.1314044" />
      <trkpt lat="46.0678830" lon="11.1311669" />
      <trkpt lat="46.0679520" lon="11.1309920" />
      <trkpt lat="46.0679772" lon="11.1309209" />
      <trkpt lat="46.0680034" lon="11.1308440" />
      <trkpt lat="46.0680182" lon="11.1307638" />
      <trkpt lat="46.0680228" lon="11.1306852" />
      <trkpt lat="46.0680592" lon="11.1303525" />
      <trkpt lat="46.0681217" lon="11.1300830" />
      <trkpt lat="46.0681476" lon="11.1299694" />
      <trkpt lat="46.0682000" lon="11.1298692" />
      <trkpt lat="46.0682152" lon="11.1298106" />
      <trkpt lat="46.0682635" lon="11.1296235" />
      <trkpt lat="46.0683048" lon="11.1295341" />
      <trkpt lat="46.0683669" lon="11.1294680" />
      <trkpt lat="46.0684046" lon="11.1294416" />
      <trkpt lat="46.0683501" lon="11.1293914" />
      <trkpt lat="46.0683302" lon="11.1294010" />
      <trkpt lat="46.0683123" lon="11.1294097" />
      <trkpt lat="46.0682925" lon="11.1293320" />
      <trkpt lat="46.0682679" lon="11.1293437" />
      <trkpt lat="46.0682805" lon="11.1293978" />
      <trkpt lat="46.0682864" lon="11.1294242" />
      <trkpt lat="46.0683023" lon="11.1294154" />
      <trkpt lat="46.0682952" lon="11.1293883" />
      <trkpt lat="46.0682492" lon="11.1291994" />
      <trkpt lat="46.0682011" lon="11.1290129" />
      <trkpt lat="46.0681926" lon="11.1289843" />
      <trkpt lat="46.0681550" lon="11.1288650" />
      <trkpt lat="46.0680624" lon="11.1287669" />
      <trkpt lat="46.0679736" lon="11.1286626" />
      <trkpt lat="46.0678157" lon="11.1284547" />
      <trkpt lat="46.0677852" lon="11.1284430" />
      <trkpt lat="46.0677410" lon="11.1284260" />
      <trkpt lat="46.0675698" lon="11.1282843" />
      <trkpt lat="46.0674041" lon="11.1281471" />
      <trkpt lat="46.0674591" lon="11.1279752" />
      <trkpt lat="46.0674753" lon="11.1278541" />
      <trkpt lat="46.0674621" lon="11.1276608" />
      <trkpt lat="46.0674317" lon="11.1274771" />
      <trkpt lat="46.0674463" lon="11.1273902" />
      <trkpt lat="46.0674624" lon="11.1272949" />
      <trkpt lat="46.0674389" lon="11.1272505" />
      <trkpt lat="46.0674589" lon="11.1270980" />
      <trkpt lat="46.0674142" lon="11.1270839" />
      <trkpt lat="46.0673797" lon="11.1270731" />
      <trkpt lat="46.0673959" lon="11.1269904" />
      <trkpt lat="46.0674238" lon="11.1268989" />
      <trkpt lat="46.0674573" lon="11.1268523" />
      <trkpt lat="46.0675112" lon="11.1268155" />
      <trkpt lat="46.0675228" lon="11.1267715" />
      <trkpt lat="46.0675385" lon="11.1267116" />
      <trkpt lat="46.0675525" lon="11.1266584" />
      <trkpt lat="46.0675131" lon="11.1266040" />
      <trkpt lat="46.0675110" lon="11.1265653" />
      <trkpt lat="46.0675158" lon="11.1265438" />
      <trkpt lat="46.0675366" lon="11.1264538" />
      <trkpt lat="46.0675929" lon="11.1263359" />
      <trkpt lat="46.0675748" lon="11.1263186" />
      <trkpt lat="46.0675175" lon="11.1264316" />
      <trkpt lat="46.0674893" lon="11.1264071" />
      <trkpt lat="46.0674093" lon="11.1263325" />
      <trkpt lat="46.0673540" lon="11.1263081" />
      <trkpt lat="46.0672814" lon="11.1262921" />
      <trkpt lat="46.0672654" lon="11.1262921" />
      <trkpt lat="46.0672169" lon="11.1256572" />
      <trkpt lat="46.0671955" lon="11.1255186" />
      <trkpt lat="46.0671801" lon="11.1253736" />
      <trkpt lat="46.0671686" lon="11.1253767" />
      <trkpt lat="46.0671402" lon="11.1251507" />
      <trkpt lat="46.0671376" lon="11.1251295" />
      <trkpt lat="46.0671361" lon="11.1251006" />
      <trkpt lat="46.0671157" lon="11.1249286" />
      <trkpt lat="46.0670655" lon="11.1246097" />
      <trkpt lat="46.0670364" lon="11.1244833" />
      <trkpt lat="46.0670340" lon="11.1244675" />
      <trkpt lat="46.0670305" lon="11.1244447" />
      <trkpt lat="46.0670012" lon="11.1242659" />
      <trkpt lat="46.0669974" lon="11.1242205" />
      <trkpt lat="46.0669933" lon="11.1241724" />
      <trkpt lat="46.0669433" lon="11.1237737" />
      <trkpt lat="46.0668935" lon="11.1233766" />
      <trkpt lat="46.0668905" lon="11.1233334" />
      <trkpt lat="46.0668872" lon="11.1232848" />
      <trkpt lat="46.0668548" lon="11.1230552" />
      <trkpt lat="46.0667810" lon="11.1225726" />
      <trkpt lat="46.0667729" lon="11.1225194" />
      <trkpt lat="46.0667715" lon="11.1225101" />
      <trkpt lat="46.0667532" lon="11.1223909" />
      <trkpt lat="46.0667414" lon="11.1223091" />
      <trkpt lat="46.0667357" lon="11.1222747" />
      <trkpt lat="46.0667350" lon="11.1222603" />
      <trkpt lat="46.0667287" lon="11.1221612" />
      <trkpt lat="46.0667249" lon="11.1220591" />
      <trkpt lat="46.0667229" lon="11.1219913" />
      <trkpt lat="46.0667210" lon="11.1219626" />
      <trkpt lat="46.0667304" lon="11.1218751" />
      <trkpt lat="46.0667274" lon="11.1218448" />
      <trkpt lat="46.0666789" lon="11.1217092" />
      <trkpt lat="46.0666701" lon="11.1215352" />
      <trkpt lat="46.0667024" lon="11.1213629" />
      <trkpt lat="46.0667526" lon="11.1210542" />
      <trkpt lat="46.0667705" lon="11.1210629" />
      <trkpt lat="46.0668711" lon="11.1210492" />
    </trkseg>
  </trk>
</gpx>
