<?xml version="1.0" encoding="UTF-8"?>
<gpx xmlns="http://www.topografix.com/GPX/1/1" version="1.1" creator="ShapeRoute route-engine">
  <metadata>
    <name>cat 5 km · 2026-10-05</name>
    <author>
      <name>ShapeRoute route-engine</name>
    </author>
    <copyright author="OpenStreetMap contributors">
      <license>https://opendatacommons.org/licenses/odbl/1-0/</license>
    </copyright>
    <link href="https://www.openstreetmap.org/copyright">
      <text>© OpenStreetMap contributors</text>
    </link>
    <time>2026-10-05T11:12:45Z</time>
  </metadata>
  <trk>
    <name>cat 5 km · 2026-10-05</name>
    <trkseg>
      <trkpt lat="46.0668711" lon="11.1210492" />
      <trkpt lat="46.0668249" lon="11.1206182" />
      <trkpt lat="46.0670289" lon="11.1205458" />
      <trkpt lat="46.0670637" lon="11.1207156" />
      <trkpt lat="46.0670730" lon="11.1209842" />
      <trkpt lat="46.0670745" lon="11.1210291" />
      <trkpt lat="46.0673165" lon="11.1210193" />
      <trkpt lat="46.0673167" lon="11.1210020" />
      <trkpt lat="46.0673093" lon="11.1209091" />
      <trkpt lat="46.0672915" lon="11.1207253" />
      <trkpt lat="46.0672643" lon="11.1204667" />
      <trkpt lat="46.0672800" lon="11.1204559" />
      <trkpt lat="46.0672765" lon="11.1203235" />
      <trkpt lat="46.0672696" lon="11.1202246" />
      <trkpt lat="46.0672684" lon="11.1202069" />
      <trkpt lat="46.0673967" lon="11.1201946" />
      <trkpt lat="46.0675208" lon="11.1202206" />
      <trkpt lat="46.0675481" lon="11.1202039" />
      <trkpt lat="46.0675648" lon="11.1201851" />
      <trkpt lat="46.0675899" lon="11.1201529" />
      <trkpt lat="46.0676157" lon="11.1201320" />
      <trkpt lat="46.0676225" lon="11.1201073" />
      <trkpt lat="46.0676258" lon="11.1201368" />
      <trkpt lat="46.0676355" lon="11.1201677" />
      <trkpt lat="46.0676448" lon="11.1201891" />
      <trkpt lat="46.0676537" lon="11.1202092" />
      <trkpt lat="46.0676608" lon="11.1202339" />
      <trkpt lat="46.0676826" lon="11.1205043" />
      <trkpt lat="46.0677152" lon="11.1207186" />
      <trkpt lat="46.0677393" lon="11.1208327" />
      <trkpt lat="46.0678148" lon="11.1207864" />
      <trkpt lat="46.0678457" lon="11.1207672" />
      <trkpt lat="46.0679032" lon="11.1207116" />
      <trkpt lat="46.0681018" lon="11.1205393" />
      <trkpt lat="46.0681669" lon="11.1204445" />
      <trkpt lat="46.0682945" lon="11.1202664" />
      <trkpt lat="46.0683846" lon="11.1201435" />
      <trkpt lat="46.0684504" lon="11.1200865" />
      <trkpt lat="46.0684776" lon="11.1200039" />
      <trkpt lat="46.0685273" lon="11.1200042" />
      <trkpt lat="46.0686285" lon="11.1199921" />
      <trkpt lat="46.0687055" lon="11.1199855" />
      <trkpt lat="46.0687688" lon="11.1199699" />
      <trkpt lat="46.0687784" lon="11.1199700" />
      <trkpt lat="46.0688097" lon="11.1199685" />
      <trkpt lat="46.0688503" lon="11.1199666" />
      <trkpt lat="46.0688785" lon="11.1199652" />
      <trkpt lat="46.0688928" lon="11.1199633" />
      <trkpt lat="46.0689900" lon="11.1199487" />
      <trkpt lat="46.0690484" lon="11.1199429" />
      <trkpt lat="46.0691086" lon="11.1199380" />
      <trkpt lat="46.0691667" lon="11.1199367" />
      <trkpt lat="46.0692352" lon="11.1199271" />
      <trkpt lat="46.0693982" lon="11.1198734" />
      <trkpt lat="46.0694763" lon="11.1198434" />
      <trkpt lat="46.0695220" lon="11.1198116" />
      <trkpt lat="46.0695493" lon="11.1198090" />
      <trkpt lat="46.0695787" lon="11.1198028" />
      <trkpt lat="46.0699049" lon="11.1197056" />
      <trkpt lat="46.0699981" lon="11.1197027" />
      <trkpt lat="46.0700221" lon="11.1196829" />
      <trkpt lat="46.0700153" lon="11.1195757" />
      <trkpt lat="46.0700688" lon="11.1195498" />
      <trkpt lat="46.0701361" lon="11.1195172" />
      <trkpt lat="46.0701692" lon="11.1195634" />
      <trkpt lat="46.0702469" lon="11.1195768" />
      <trkpt lat="46.0702985" lon="11.1195474" />
      <trkpt lat="46.0703355" lon="11.1195009" />
      <trkpt lat="46.0704113" lon="11.1195552" />
      <trkpt lat="46.0704607" lon="11.1195907" />
      <trkpt lat="46.0704864" lon="11.1195912" />
      <trkpt lat="46.0705336" lon="11.1195841" />
      <trkpt lat="46.0705619" lon="11.1195372" />
      <trkpt lat="46.0705336" lon="11.1195841" />
      <trkpt lat="46.0704864" lon="11.1195912" />
      <trkpt lat="46.0704607" lon="11.1195907" />
      <trkpt lat="46.0704113" lon="11.1195552" />
      <trkpt lat="46.0703355" lon="11.1195009" />
      <trkpt lat="46.0702985" lon="11.1195474" />
      <trkpt lat="46.0702469" lon="11.1195768" />
      <trkpt lat="46.0702509" lon="11.1196352" />
      <trkpt lat="46.0702588" lon="11.1197502" />
      <trkpt lat="46.0702634" lon="11.1198178" />
      <trkpt lat="46.0702177" lon="11.1199022" />
      <trkpt lat="46.0701974" lon="11.1199473" />
      <trkpt lat="46.0701965" lon="11.1199880" />
      <trkpt lat="46.0701087" lon="11.1200099" />
      <trkpt lat="46.0700585" lon="11.1200224" />
      <trkpt lat="46.0700263" lon="11.1200442" />
      <trkpt lat="46.0700207" lon="11.1200066" />
      <trkpt lat="46.0700006" lon="11.1198492" />
      <trkpt lat="46.0695910" lon="11.1199578" />
      <trkpt lat="46.0695999" lon="11.1200276" />
      <trkpt lat="46.0695764" lon="11.1200339" />
      <trkpt lat="46.0695637" lon="11.1200373" />
      <trkpt lat="46.0695765" lon="11.1201320" />
      <trkpt lat="46.0695981" lon="11.1203176" />
      <trkpt lat="46.0696978" lon="11.1211735" />
      <trkpt lat="46.0696996" lon="11.1211886" />
      <trkpt lat="46.0697328" lon="11.1214737" />
      <trkpt lat="46.0697506" lon="11.1216266" />
      <trkpt lat="46.0698030" lon="11.1216129" />
      <trkpt lat="46.0700629" lon="11.1215452" />
      <trkpt lat="46.0701838" lon="11.1215137" />
      <trkpt lat="46.0702068" lon="11.1215068" />
      <trkpt lat="46.0702139" lon="11.1214985" />
      <trkpt lat="46.0702164" lon="11.1214756" />
      <trkpt lat="46.0702108" lon="11.1214249" />
      <trkpt lat="46.0701289" lon="11.1206585" />
      <trkpt lat="46.0700585" lon="11.1200224" />
      <trkpt lat="46.0700337" lon="11.1198021" />
      <trkpt lat="46.0700053" lon="11.1197976" />
      <trkpt lat="46.0700021" lon="11.1197557" />
      <trkpt lat="46.0697429" lon="11.1198297" />
      <trkpt lat="46.0695223" lon="11.1198626" />
      <trkpt lat="46.0695220" lon="11.1198116" />
      <trkpt lat="46.0694763" lon="11.1198434" />
      <trkpt lat="46.0693982" lon="11.1198734" />
      <trkpt lat="46.0692352" lon="11.1199271" />
      <trkpt lat="46.0691667" lon="11.1199367" />
      <trkpt lat="46.0691086" lon="11.1199380" />
      <trkpt lat="46.0690484" lon="11.1199429" />
      <trkpt lat="46.0689900" lon="11.1199487" />
      <trkpt lat="46.0688928" lon="11.1199633" />
      <trkpt lat="46.0688785" lon="11.1199652" />
      <trkpt lat="46.0688503" lon="11.1199666" />
      <trkpt lat="46.0688097" lon="11.1199685" />
      <trkpt lat="46.0687784" lon="11.1199700" />
      <trkpt lat="46.0687688" lon="11.1199699" />
      <trkpt lat="46.0687055" lon="11.1199855" />
      <trkpt lat="46.0686285" lon="11.1199921" />
      <trkpt lat="46.0685273" lon="11.1200042" />
      <trkpt lat="46.0685313" lon="11.1200706" />
      <trkpt lat="46.0686910" lon="11.1200385" />
      <trkpt lat="46.0686922" lon="11.1200685" />
      <trkpt lat="46.0686941" lon="11.1200894" />
      <trkpt lat="46.0686963" lon="11.1201124" />
      <trkpt lat="46.0687020" lon="11.1201725" />
      <trkpt lat="46.0687388" lon="11.1203760" />
      <trkpt lat="46.0687499" lon="11.1204587" />
      <trkpt lat="46.0688365" lon="11.1211527" />
      <trkpt lat="46.0688387" lon="11.1211858" />
      <trkpt lat="46.0688409" lon="11.1212316" />
      <trkpt lat="46.0688448" lon="11.1212725" />
      <trkpt lat="46.0689171" lon="11.1220222" />
      <trkpt lat="46.0690210" lon="11.1225351" />
      <trkpt lat="46.0690514" lon="11.1229873" />
      <trkpt lat="46.0690627" lon="11.1233576" />
      <trkpt lat="46.0690639" lon="11.1234329" />
      <trkpt lat="46.0690806" lon="11.1237071" />
      <trkpt lat="46.0690525" lon="11.1237112" />
      <trkpt lat="46.0688864" lon="11.1237325" />
      <trkpt lat="46.0682805" lon="11.1238337" />
      <trkpt lat="46.0682827" lon="11.1238602" />
      <trkpt lat="46.0682835" lon="11.1238873" />
      <trkpt lat="46.0683250" lon="11.1239053" />
      <trkpt lat="46.0683541" lon="11.1239478" />
      <trkpt lat="46.0683766" lon="11.1242292" />
      <trkpt lat="46.0683684" lon="11.1245203" />
      <trkpt lat="46.0683518" lon="11.1247826" />
      <trkpt lat="46.0683737" lon="11.1247791" />
      <trkpt lat="46.0683932" lon="11.1251886" />
      <trkpt lat="46.0684031" lon="11.1252346" />
      <trkpt lat="46.0684436" lon="11.1253302" />
      <trkpt lat="46.0685799" lon="11.1255744" />
      <trkpt lat="46.0686781" lon="11.1256876" />
      <trkpt lat="46.0687726" lon="11.1258097" />
      <trkpt lat="46.0688536" lon="11.1258788" />
      <trkpt lat="46.0689365" lon="11.1258826" />
      <trkpt lat="46.0689309" lon="11.1259038" />
      <trkpt lat="46.0689600" lon="11.1258922" />
      <trkpt lat="46.0690129" lon="11.1258657" />
      <trkpt lat="46.0690323" lon="11.1258559" />
      <trkpt lat="46.0691752" lon="11.1258084" />
      <trkpt lat="46.0693468" lon="11.1257235" />
      <trkpt lat="46.0694703" lon="11.1256455" />
      <trkpt lat="46.0695166" lon="11.1256194" />
      <trkpt lat="46.0696736" lon="11.1255595" />
      <trkpt lat="46.0696998" lon="11.1255439" />
      <trkpt lat="46.0699822" lon="11.1254971" />
      <trkpt lat="46.0701757" lon="11.1254398" />
      <trkpt lat="46.0701951" lon="11.1255251" />
      <trkpt lat="46.0703104" lon="11.1258937" />
      <trkpt lat="46.0703744" lon="11.1261142" />
      <trkpt lat="46.0703634" lon="11.1261178" />
      <trkpt lat="46.0703131" lon="11.1261373" />
      <trkpt lat="46.0699177" lon="11.1263130" />
      <trkpt lat="46.0697634" lon="11.1263556" />
      <trkpt lat="46.0696138" lon="11.1263324" />
      <trkpt lat="46.0695234" lon="11.1263534" />
      <trkpt lat="46.0694782" lon="11.1261449" />
      <trkpt lat="46.0694494" lon="11.1260118" />
      <trkpt lat="46.0693536" lon="11.1260549" />
      <trkpt lat="46.0692164" lon="11.1261167" />
      <trkpt lat="46.0692044" lon="11.1261221" />
      <trkpt lat="46.0691138" lon="11.1260443" />
      <trkpt lat="46.0690129" lon="11.1258657" />
      <trkpt lat="46.0689600" lon="11.1258922" />
      <trkpt lat="46.0689309" lon="11.1259038" />
      <trkpt lat="46.0687920" lon="11.1259214" />
      <trkpt lat="46.0685395" lon="11.1255528" />
      <trkpt lat="46.0683943" lon="11.1252914" />
      <trkpt lat="46.0683682" lon="11.1253056" />
      <trkpt lat="46.0682526" lon="11.1254126" />
      <trkpt lat="46.0682312" lon="11.1253579" />
      <trkpt lat="46.0678665" lon="11.1257547" />
      <trkpt lat="46.0675748" lon="11.1263186" />
      <trkpt lat="46.0675175" lon="11.1264316" />
      <trkpt lat="46.0674893" lon="11.1264071" />
      <trkpt lat="46.0674093" lon="11.1263325" />
      <trkpt lat="46.0673540" lon="11.1263081" />
      <trkpt lat="46.0672814" lon="11.1262921" />
      <trkpt lat="46.0672440" lon="11.1256701" />
      <trkpt lat="46.0672098" lon="11.1255545" />
      <trkpt lat="46.0672112" lon="11.1253651" />
      <trkpt lat="46.0672104" lon="11.1253055" />
      <trkpt lat="46.0671883" lon="11.1251108" />
      <trkpt lat="46.0671577" lon="11.1249223" />
      <trkpt lat="46.0671291" lon="11.1248045" />
      <trkpt lat="46.0670867" lon="11.1242261" />
      <trkpt lat="46.0671085" lon="11.1242194" />
      <trkpt lat="46.0673448" lon="11.1241473" />
      <trkpt lat="46.0673613" lon="11.1241477" />
      <trkpt lat="46.0673597" lon="11.1241899" />
      <trkpt lat="46.0673954" lon="11.1243006" />
      <trkpt lat="46.0675754" lon="11.1246062" />
      <trkpt lat="46.0675877" lon="11.1246271" />
      <trkpt lat="46.0676346" lon="11.1246853" />
      <trkpt lat="46.0676595" lon="11.1246244" />
      <trkpt lat="46.0676640" lon="11.1246106" />
      <trkpt lat="46.0676580" lon="11.1242806" />
      <trkpt lat="46.0676957" lon="11.1240624" />
      <trkpt lat="46.0673764" lon="11.1241480" />
      <trkpt lat="46.0673613" lon="11.1241477" />
      <trkpt lat="46.0673448" lon="11.1241473" />
      <trkpt lat="46.0671085" lon="11.1242194" />
      <trkpt lat="46.0670867" lon="11.1242261" />
      <trkpt lat="46.0671291" lon="11.1248045" />
      <trkpt lat="46.0671577" lon="11.1249223" />
      <trkpt lat="46.0671883" lon="11.1251108" />
      <trkpt lat="46.0672104" lon="11.1253055" />
      <trkpt lat="46.0672112" lon="11.1253651" />
      <trkpt lat="46.0672098" lon="11.1255545" />
      <trkpt lat="46.0672440" lon="11.1256701" />
      <trkpt lat="46.0672814" lon="11.1262921" />
      <trkpt lat="46.0673540" lon="11.1263081" />
      <trkpt lat="46.0674093" lon="11.1263325" />
      <trkpt lat="46.0674893" lon="11.1264071" />
      <trkpt lat="46.0675175" lon="11.1264316" />
      <trkpt lat="46.0675748" lon="11.1263186" />
      <trkpt lat="46.0675929" lon="11.1263359" />
      <trkpt lat="46.0675366" lon="11.1264538" />
      <trkpt lat="46.0675175" lon="11.1264316" />
      <trkpt lat="46.0674893" lon="11.1264071" />
      <trkpt lat="46.0674093" lon="11.1263325" />
      <trkpt lat="46.0673540" lon="11.1263081" />
      <trkpt lat="46.0672814" lon="11.1262921" />
      <trkpt lat="46.0672654" lon="11.1262921" />
      <trkpt lat="46.0672389" lon="11.1262953" />
      <trkpt lat="46.0671660" lon="11.1262902" />
      <trkpt lat="46.0671498" lon="11.1263455" />
      <trkpt lat="46.0671169" lon="11.1262975" />
      <trkpt lat="46.0670185" lon="11.1262405" />
      <trkpt lat="46.0669662" lon="11.1262102" />
      <trkpt lat="46.0669358" lon="11.1261933" />
      <trkpt lat="46.0669026" lon="11.1261742" />
      <trkpt lat="46.0668746" lon="11.1261547" />
      <trkpt lat="46.0668475" lon="11.1261226" />
      <trkpt lat="46.0668298" lon="11.1260895" />
      <trkpt lat="46.0668168" lon="11.1260502" />
      <trkpt lat="46.0668092" lon="11.1259960" />
      <trkpt lat="46.0668109" lon="11.1259490" />
      <trkpt lat="46.0667623" lon="11.1259229" />
      <trkpt lat="46.0665128" lon="11.1257710" />
      <trkpt lat="46.0665218" lon="11.1260084" />
      <trkpt lat="46.0662258" lon="11.1258198" />
      <trkpt lat="46.0661835" lon="11.1257896" />
      <trkpt lat="46.0660046" lon="11.1256384" />
      <trkpt lat="46.0659888" lon="11.1256911" />
      <trkpt lat="46.0659575" lon="11.1257955" />
      <trkpt lat="46.0659342" lon="11.1258733" />
      <trkpt lat="46.0655998" lon="11.1256905" />
      <trkpt lat="46.0655916" lon="11.1257217" />
      <trkpt lat="46.0655362" lon="11.1256947" />
      <trkpt lat="46.0654740" lon="11.1256631" />
      <trkpt lat="46.0654903" lon="11.1255918" />
      <trkpt lat="46.0655076" lon="11.1255147" />
      <trkpt lat="46.0655181" lon="11.1254365" />
      <trkpt lat="46.0655188" lon="11.1253824" />
      <trkpt lat="46.0655140" lon="11.1253194" />
      <trkpt lat="46.0655045" lon="11.1252531" />
      <trkpt lat="46.0654839" lon="11.1251848" />
      <trkpt lat="46.0654602" lon="11.1251344" />
      <trkpt lat="46.0654350" lon="11.1250901" />
      <trkpt lat="46.0653855" lon="11.1249879" />
      <trkpt lat="46.0653514" lon="11.1249254" />
      <trkpt lat="46.0653182" lon="11.1248697" />
      <trkpt lat="46.0653241" lon="11.1248073" />
      <trkpt lat="46.0649462" lon="11.1246980" />
      <trkpt lat="46.0649069" lon="11.1246865" />
      <trkpt lat="46.0648934" lon="11.1247616" />
      <trkpt lat="46.0648439" lon="11.1247453" />
      <trkpt lat="46.0648536" lon="11.1246620" />
      <trkpt lat="46.0648789" lon="11.1242760" />
      <trkpt lat="46.0648838" lon="11.1242128" />
      <trkpt lat="46.0649514" lon="11.1233356" />
      <trkpt lat="46.0647279" lon="11.1233788" />
      <trkpt lat="46.0647225" lon="11.1233166" />
      <trkpt lat="46.0647179" lon="11.1232609" />
      <trkpt lat="46.0647165" lon="11.1232431" />
      <trkpt lat="46.0647892" lon="11.1232285" />
      <trkpt lat="46.0648025" lon="11.1232197" />
      <trkpt lat="46.0648067" lon="11.1232069" />
      <trkpt lat="46.0648047" lon="11.1231821" />
      <trkpt lat="46.0647609" lon="11.1226638" />
      <trkpt lat="46.0647448" lon="11.1224723" />
      <trkpt lat="46.0647355" lon="11.1223630" />
      <trkpt lat="46.0647169" lon="11.1221426" />
      <trkpt lat="46.0647231" lon="11.1221160" />
      <trkpt lat="46.0647213" lon="11.1220952" />
      <trkpt lat="46.0647014" lon="11.1218623" />
      <trkpt lat="46.0646977" lon="11.1218420" />
      <trkpt lat="46.0646469" lon="11.1215649" />
      <trkpt lat="46.0646849" lon="11.1215509" />
      <trkpt lat="46.0647313" lon="11.1215338" />
      <trkpt lat="46.0647686" lon="11.1215322" />
      <trkpt lat="46.0647927" lon="11.1214765" />
      <trkpt lat="46.0647781" lon="11.1214005" />
      <trkpt lat="46.0647492" lon="11.1213838" />
      <trkpt lat="46.0647112" lon="11.1213564" />
      <trkpt lat="46.0647622" lon="11.1210736" />
      <trkpt lat="46.0647988" lon="11.1210321" />
      <trkpt lat="46.0648728" lon="11.1210353" />
      <trkpt lat="46.0649204" lon="11.1210375" />
      <trkpt lat="46.0649554" lon="11.1210391" />
      <trkpt lat="46.0649850" lon="11.1210403" />
      <trkpt lat="46.0654182" lon="11.1210589" />
      <trkpt lat="46.0654542" lon="11.1210596" />
      <trkpt lat="46.0654962" lon="11.1210606" />
      <trkpt lat="46.0655326" lon="11.1210839" />
      <trkpt lat="46.0655654" lon="11.1211047" />
      <trkpt lat="46.0657102" lon="11.1210940" />
      <trkpt lat="46.0659103" lon="11.1210967" />
      <trkpt lat="46.0660484" lon="11.1210934" />
      <trkpt lat="46.0660433" lon="11.1210563" />
      <trkpt lat="46.0660965" lon="11.1210453" />
      <trkpt lat="46.0660309" lon="11.1203589" />
      <trkpt lat="46.0667816" lon="11.1201952" />
      <trkpt lat="46.0668415" lon="11.1201785" />
      <trkpt lat="46.0670156" lon="11.1201566" />
      <trkpt lat="46.0670444" lon="11.1202327" />
      <trkpt lat="46.0672684" lon="11.1202069" />
      <trkpt lat="46.0673967" lon="11.1201946" />
      <trkpt lat="46.0675208" lon="11.1202206" />
      <trkpt lat="46.0675481" lon="11.1202039" />
      <trkpt lat="46.0675648" lon="11.1201851" />
      <trkpt lat="46.0675899" lon="11.1201529" />
      <trkpt lat="46.0676157" lon="11.1201320" />
      <trkpt lat="46.0676225" lon="11.1201073" />
      <trkpt lat="46.0676157" lon="11.1201320" />
      <trkpt lat="46.0675899" lon="11.1201529" />
      <trkpt lat="46.0675648" lon="11.1201851" />
      <trkpt lat="46.0675481" lon="11.1202039" />
      <trkpt lat="46.0675208" lon="11.1202206" />
      <trkpt lat="46.0673967" lon="11.1201946" />
      <trkpt lat="46.0672684" lon="11.1202069" />
      <trkpt lat="46.0672696" lon="11.1202246" />
      <trkpt lat="46.0672765" lon="11.1203235" />
      <trkpt lat="46.0672800" lon="11.1204559" />
      <trkpt lat="46.0672643" lon="11.1204667" />
      <trkpt lat="46.0671281" lon="11.1204977" />
      <trkpt lat="46.0670559" lon="11.1205068" />
      <trkpt lat="46.0670444" lon="11.1205090" />
      <trkpt lat="46.0670289" lon="11.1205458" />
      <trkpt lat="46.0668249" lon="11.1206182" />
      <trkpt lat="46.0668711" lon="11.1210492" />
      <trkpt lat="46.0669975" lon="11.1210365" />
      <trkpt lat="46.0670408" lon="11.1210278" />
      <trkpt lat="46.0670542" lon="11.1211241" />
      <trkpt lat="46.0673001" lon="11.1213049" />
      <trkpt lat="46.0675238" lon="11.1212683" />
      <trkpt lat="46.0676530" lon="11.1212477" />
      <trkpt lat="46.0675238" lon="11.1212683" />
      <trkpt lat="46.0673001" lon="11.1213049" />
      <trkpt lat="46.0670542" lon="11.1211241" />
      <trkpt lat="46.0670408" lon="11.1210278" />
      <trkpt lat="46.0669975" lon="11.1210365" />
      <trkpt lat="46.0668711" lon="11.1210492" />
      <trkpt lat="46.0667705" lon="11.1210629" />
      <trkpt lat="46.0667526" lon="11.1210542" />
      <trkpt lat="46.0667024" lon="11.1213629" />
      <trkpt lat="46.0666701" lon="11.1215352" />
      <trkpt lat="46.0666789" lon="11.1217092" />
      <trkpt lat="46.0667274" lon="11.1218448" />
      <trkpt lat="46.0667304" lon="11.1218751" />
      <trkpt lat="46.0667697" lon="11.1219637" />
      <trkpt lat="46.0668675" lon="11.1221842" />
      <trkpt lat="46.0668704" lon="11.1222043" />
      <trkpt lat="46.0668726" lon="11.1222251" />
      <trkpt lat="46.0670120" lon="11.1221757" />
      <trkpt lat="46.0670452" lon="11.1221695" />
      <trkpt lat="46.0670572" lon="11.1221851" />
      <trkpt lat="46.0670742" lon="11.1221944" />
      <trkpt lat="46.0671010" lon="11.1221944" />
      <trkpt lat="46.0671253" lon="11.1221839" />
      <trkpt lat="46.0671390" lon="11.1221652" />
      <trkpt lat="46.0671463" lon="11.1221419" />
      <trkpt lat="46.0671488" lon="11.1221244" />
      <trkpt lat="46.0674136" lon="11.1220567" />
      <trkpt lat="46.0671488" lon="11.1221244" />
      <trkpt lat="46.0671463" lon="11.1221419" />
      <trkpt lat="46.0671390" lon="11.1221652" />
      <trkpt lat="46.0671253" lon="11.1221839" />
      <trkpt lat="46.0671010" lon="11.1221944" />
      <trkpt lat="46.0670742" lon="11.1221944" />
      <trkpt lat="46.0670572" lon="11.1221851" />
      <trkpt lat="46.0670452" lon="11.1221695" />
      <trkpt lat="46.0670120" lon="11.1221757" />
      <trkpt lat="46.0668726" lon="11.1222251" />
      <trkpt lat="46.0668704" lon="11.1222043" />
      <trkpt lat="46.0668675" lon="11.1221842" />
      <trkpt lat="46.0668248" lon="11.1219553" />
      <trkpt lat="46.0668174" lon="11.1219153" />
      <trkpt lat="46.0668248" lon="11.1219553" />
      <trkpt lat="46.0667697" lon="11.1219637" />
      <trkpt lat="46.0667304" lon="11.1218751" />
      <trkpt lat="46.0667274" lon="11.1218448" />
      <trkpt lat="46.0666789" lon="11.1217092" />
      <trkpt lat="46.0666701" lon="11.1215352" />
      <trkpt lat="46.0667024" lon="11.1213629" />
      <trkpt lat="46.0667526" lon="11.1210542" />
      <trkpt lat="46.0667705" lon="11.1210629" />
      <trkpt lat="46.0668711" lon="11.1210492" />
    </trkseg>
  </trk>
</gpx>
