<?xml version="1.0" encoding="UTF-8"?>
<gpx xmlns="http://www.topografix.com/GPX/1/1" version="1.1" creator="ShapeRoute route-engine">
  <metadata>
    <name>tree 10 km · 2026-09-24</name>
    <author>
      <name>ShapeRoute route-engine</name>
    </author>
    <copyright author="OpenStreetMap contributors">
      <license>https://opendatacommons.org/licenses/odbl/1-0/</license>
    </copyright>
    <link href="https://www.openstreetmap.org/copyright">
      <text>© OpenStreetMap contributors</text>
    </link>
    <time>2026-09-24T05:00:18Z</time>
  </metadata>
  <trk>
    <name>tree 10 km · 2026-09-24</name>
    <trkseg>
      <trkpt lat="46.0123552" lon="11.2985082" />
      <trkpt lat="46.0125364" lon="11.2982718" />
      <trkpt lat="46.0127682" lon="11.2980215" />
      <trkpt lat="46.0128013" lon="11.2980024" />
      <trkpt lat="46.0128770" lon="11.2979586" />
      <trkpt lat="46.0129712" lon="11.2978899" />
      <trkpt lat="46.0129449" lon="11.2977945" />
      <trkpt lat="46.0127363" lon="11.2973759" />
      <trkpt lat="46.0129449" lon="11.2977945" />
      <trkpt lat="46.0129712" lon="11.2978899" />
      <trkpt lat="46.0130468" lon="11.2977714" />
      <trkpt lat="46.0131199" lon="11.2976603" />
      <trkpt lat="46.0131919" lon="11.2975460" />
      <trkpt lat="46.0132320" lon="11.2976177" />
      <trkpt lat="46.0133454" lon="11.2977970" />
      <trkpt lat="46.0134865" lon="11.2979792" />
      <trkpt lat="46.0136470" lon="11.2981837" />
      <trkpt lat="46.0139231" lon="11.2985434" />
      <trkpt lat="46.0141584" lon="11.2988474" />
      <trkpt lat="46.0141849" lon="11.2988817" />
      <trkpt lat="46.0144647" lon="11.2992432" />
      <trkpt lat="46.0145138" lon="11.2993285" />
      <trkpt lat="46.0145811" lon="11.2994220" />
      <trkpt lat="46.0146771" lon="11.2995241" />
      <trkpt lat="46.0147999" lon="11.2995516" />
      <trkpt lat="46.0149522" lon="11.2994952" />
      <trkpt lat="46.0151754" lon="11.2998692" />
      <trkpt lat="46.0149522" lon="11.2994952" />
      <trkpt lat="46.0147999" lon="11.2995516" />
      <trkpt lat="46.0146771" lon="11.2995241" />
      <trkpt lat="46.0145811" lon="11.2994220" />
      <trkpt lat="46.0145138" lon="11.2993285" />
      <trkpt lat="46.0144647" lon="11.2992432" />
      <trkpt lat="46.0147775" lon="11.2986185" />
      <trkpt lat="46.0150983" lon="11.2979778" />
      <trkpt lat="46.0151784" lon="11.2978177" />
      <trkpt lat="46.0153144" lon="11.2975461" />
      <trkpt lat="46.0155343" lon="11.2969473" />
      <trkpt lat="46.0155617" lon="11.2967634" />
      <trkpt lat="46.0158035" lon="11.2968203" />
      <trkpt lat="46.0159253" lon="11.2968559" />
      <trkpt lat="46.0159835" lon="11.2971449" />
      <trkpt lat="46.0161832" lon="11.2977458" />
      <trkpt lat="46.0163840" lon="11.2983334" />
      <trkpt lat="46.0161832" lon="11.2977458" />
      <trkpt lat="46.0159835" lon="11.2971449" />
      <trkpt lat="46.0159253" lon="11.2968559" />
      <trkpt lat="46.0158035" lon="11.2968203" />
      <trkpt lat="46.0155617" lon="11.2967634" />
      <trkpt lat="46.0155343" lon="11.2969473" />
      <trkpt lat="46.0153144" lon="11.2975461" />
      <trkpt lat="46.0151784" lon="11.2978177" />
      <trkpt lat="46.0150983" lon="11.2979778" />
      <trkpt lat="46.0147775" lon="11.2986185" />
      <trkpt lat="46.0144647" lon="11.2992432" />
      <trkpt lat="46.0145138" lon="11.2993285" />
      <trkpt lat="46.0145811" lon="11.2994220" />
      <trkpt lat="46.0146771" lon="11.2995241" />
      <trkpt lat="46.0147999" lon="11.2995516" />
      <trkpt lat="46.0149522" lon="11.2994952" />
      <trkpt lat="46.0151116" lon="11.2994017" />
      <trkpt lat="46.0152529" lon="11.2994057" />
      <trkpt lat="46.0153721" lon="11.2994057" />
      <trkpt lat="46.0155092" lon="11.2994658" />
      <trkpt lat="46.0156523" lon="11.2995860" />
      <trkpt lat="46.0157648" lon="11.2997010" />
      <trkpt lat="46.0160338" lon="11.2998263" />
      <trkpt lat="46.0162066" lon="11.2999207" />
      <trkpt lat="46.0163497" lon="11.3000924" />
      <trkpt lat="46.0165426" lon="11.3003874" />
      <trkpt lat="46.0166596" lon="11.3005644" />
      <trkpt lat="46.0167475" lon="11.3007453" />
      <trkpt lat="46.0167848" lon="11.3008219" />
      <trkpt lat="46.0168507" lon="11.3010289" />
      <trkpt lat="46.0168864" lon="11.3012349" />
      <trkpt lat="46.0169422" lon="11.3011398" />
      <trkpt lat="46.0170461" lon="11.3009812" />
      <trkpt lat="46.0170520" lon="11.3015792" />
      <trkpt lat="46.0170359" lon="11.3017269" />
      <trkpt lat="46.0169441" lon="11.3021369" />
      <trkpt lat="46.0167927" lon="11.3026196" />
      <trkpt lat="46.0170292" lon="11.3030996" />
      <trkpt lat="46.0169338" lon="11.3032080" />
      <trkpt lat="46.0168363" lon="11.3033181" />
      <trkpt lat="46.0167352" lon="11.3033805" />
      <trkpt lat="46.0169537" lon="11.3033729" />
      <trkpt lat="46.0171772" lon="11.3033407" />
      <trkpt lat="46.0173933" lon="11.3033836" />
      <trkpt lat="46.0177286" lon="11.3035016" />
      <trkpt lat="46.0180862" lon="11.3036518" />
      <trkpt lat="46.0183171" lon="11.3037913" />
      <trkpt lat="46.0184335" lon="11.3038276" />
      <trkpt lat="46.0187340" lon="11.3038181" />
      <trkpt lat="46.0189877" lon="11.3037055" />
      <trkpt lat="46.0191143" lon="11.3035767" />
      <trkpt lat="46.0190696" lon="11.3033943" />
      <trkpt lat="46.0189504" lon="11.3032441" />
      <trkpt lat="46.0187344" lon="11.3030510" />
      <trkpt lat="46.0185332" lon="11.3026862" />
      <trkpt lat="46.0184662" lon="11.3023644" />
      <trkpt lat="46.0184720" lon="11.3019026" />
      <trkpt lat="46.0184865" lon="11.3014571" />
      <trkpt lat="46.0184065" lon="11.3010201" />
      <trkpt lat="46.0182981" lon="11.3007682" />
      <trkpt lat="46.0182243" lon="11.3006096" />
      <trkpt lat="46.0182562" lon="11.3004932" />
      <trkpt lat="46.0183270" lon="11.3005785" />
      <trkpt lat="46.0183866" lon="11.3006763" />
      <trkpt lat="46.0185348" lon="11.3007207" />
      <trkpt lat="46.0185790" lon="11.3007397" />
      <trkpt lat="46.0186521" lon="11.3007711" />
      <trkpt lat="46.0188147" lon="11.3008511" />
      <trkpt lat="46.0189732" lon="11.3008600" />
      <trkpt lat="46.0191132" lon="11.3007978" />
      <trkpt lat="46.0189732" lon="11.3008600" />
      <trkpt lat="46.0188147" lon="11.3008511" />
      <trkpt lat="46.0186521" lon="11.3007711" />
      <trkpt lat="46.0185790" lon="11.3007397" />
      <trkpt lat="46.0185348" lon="11.3007207" />
      <trkpt lat="46.0183866" lon="11.3006763" />
      <trkpt lat="46.0183270" lon="11.3005785" />
      <trkpt lat="46.0182562" lon="11.3004932" />
      <trkpt lat="46.0182243" lon="11.3006096" />
      <trkpt lat="46.0182981" lon="11.3007682" />
      <trkpt lat="46.0184065" lon="11.3010201" />
      <trkpt lat="46.0184865" lon="11.3014571" />
      <trkpt lat="46.0184720" lon="11.3019026" />
      <trkpt lat="46.0184662" lon="11.3023644" />
      <trkpt lat="46.0185332" lon="11.3026862" />
      <trkpt lat="46.0187344" lon="11.3030510" />
      <trkpt lat="46.0189504" lon="11.3032441" />
      <trkpt lat="46.0190696" lon="11.3033943" />
      <trkpt lat="46.0191143" lon="11.3035767" />
      <trkpt lat="46.0189877" lon="11.3037055" />
      <trkpt lat="46.0187340" lon="11.3038181" />
      <trkpt lat="46.0184335" lon="11.3038276" />
      <trkpt lat="46.0183171" lon="11.3037913" />
      <trkpt lat="46.0180862" lon="11.3036518" />
      <trkpt lat="46.0177286" lon="11.3035016" />
      <trkpt lat="46.0173933" lon="11.3033836" />
      <trkpt lat="46.0171772" lon="11.3033407" />
      <trkpt lat="46.0169537" lon="11.3033729" />
      <trkpt lat="46.0167352" lon="11.3033805" />
      <trkpt lat="46.0167054" lon="11.3034663" />
      <trkpt lat="46.0165981" lon="11.3035436" />
      <trkpt lat="46.0164968" lon="11.3036036" />
      <trkpt lat="46.0164478" lon="11.3036153" />
      <trkpt lat="46.0163277" lon="11.3035821" />
      <trkpt lat="46.0162763" lon="11.3033833" />
      <trkpt lat="46.0159521" lon="11.3039994" />
      <trkpt lat="46.0158616" lon="11.3043088" />
      <trkpt lat="46.0158599" lon="11.3046138" />
      <trkpt lat="46.0158816" lon="11.3050492" />
      <trkpt lat="46.0158840" lon="11.3050997" />
      <trkpt lat="46.0159255" lon="11.3059359" />
      <trkpt lat="46.0157910" lon="11.3057765" />
      <trkpt lat="46.0155139" lon="11.3054905" />
      <trkpt lat="46.0152822" lon="11.3052221" />
      <trkpt lat="46.0151701" lon="11.3059497" />
      <trkpt lat="46.0151054" lon="11.3064354" />
      <trkpt lat="46.0150883" lon="11.3065385" />
      <trkpt lat="46.0150461" lon="11.3067929" />
      <trkpt lat="46.0150210" lon="11.3076074" />
      <trkpt lat="46.0149475" lon="11.3085481" />
      <trkpt lat="46.0148886" lon="11.3084980" />
      <trkpt lat="46.0147663" lon="11.3085009" />
      <trkpt lat="46.0145486" lon="11.3085446" />
      <trkpt lat="46.0143280" lon="11.3085730" />
      <trkpt lat="46.0143601" lon="11.3079783" />
      <trkpt lat="46.0143382" lon="11.3078899" />
      <trkpt lat="46.0142929" lon="11.3078584" />
      <trkpt lat="46.0142315" lon="11.3078605" />
      <trkpt lat="46.0141862" lon="11.3079236" />
      <trkpt lat="46.0141643" lon="11.3081698" />
      <trkpt lat="46.0141429" lon="11.3085671" />
      <trkpt lat="46.0137875" lon="11.3085719" />
      <trkpt lat="46.0137052" lon="11.3085868" />
      <trkpt lat="46.0136430" lon="11.3086202" />
      <trkpt lat="46.0136139" lon="11.3086583" />
      <trkpt lat="46.0135936" lon="11.3086788" />
      <trkpt lat="46.0135640" lon="11.3086957" />
      <trkpt lat="46.0135413" lon="11.3086948" />
      <trkpt lat="46.0135225" lon="11.3086854" />
      <trkpt lat="46.0134812" lon="11.3086513" />
      <trkpt lat="46.0134568" lon="11.3086278" />
      <trkpt lat="46.0134044" lon="11.3085949" />
      <trkpt lat="46.0133450" lon="11.3085849" />
      <trkpt lat="46.0132950" lon="11.3086265" />
      <trkpt lat="46.0132379" lon="11.3086679" />
      <trkpt lat="46.0131735" lon="11.3087524" />
      <trkpt lat="46.0131139" lon="11.3088596" />
      <trkpt lat="46.0130617" lon="11.3091225" />
      <trkpt lat="46.0130319" lon="11.3092083" />
      <trkpt lat="46.0129761" lon="11.3092566" />
      <trkpt lat="46.0128792" lon="11.3092834" />
      <trkpt lat="46.0124877" lon="11.3093217" />
      <trkpt lat="46.0125018" lon="11.3092123" />
      <trkpt lat="46.0125287" lon="11.3087845" />
      <trkpt lat="46.0126690" lon="11.3068184" />
      <trkpt lat="46.0126749" lon="11.3067415" />
      <trkpt lat="46.0127983" lon="11.3050318" />
      <trkpt lat="46.0127990" lon="11.3049468" />
      <trkpt lat="46.0127931" lon="11.3047943" />
      <trkpt lat="46.0127644" lon="11.3045046" />
      <trkpt lat="46.0127044" lon="11.3040536" />
      <trkpt lat="46.0126021" lon="11.3041601" />
      <trkpt lat="46.0123670" lon="11.3045484" />
      <trkpt lat="46.0122985" lon="11.3046550" />
      <trkpt lat="46.0122399" lon="11.3047086" />
      <trkpt lat="46.0122150" lon="11.3047684" />
      <trkpt lat="46.0121789" lon="11.3048653" />
      <trkpt lat="46.0121525" lon="11.3052186" />
      <trkpt lat="46.0121464" lon="11.3052965" />
      <trkpt lat="46.0121364" lon="11.3054437" />
      <trkpt lat="46.0120210" lon="11.3054505" />
      <trkpt lat="46.0119182" lon="11.3054963" />
      <trkpt lat="46.0118815" lon="11.3055227" />
      <trkpt lat="46.0118513" lon="11.3055427" />
      <trkpt lat="46.0118148" lon="11.3055680" />
      <trkpt lat="46.0117528" lon="11.3056460" />
      <trkpt lat="46.0115438" lon="11.3059589" />
      <trkpt lat="46.0114084" lon="11.3061038" />
      <trkpt lat="46.0113311" lon="11.3061571" />
      <trkpt lat="46.0112066" lon="11.3074709" />
      <trkpt lat="46.0111435" lon="11.3082456" />
      <trkpt lat="46.0111104" lon="11.3086507" />
      <trkpt lat="46.0110779" lon="11.3091249" />
      <trkpt lat="46.0109411" lon="11.3091326" />
      <trkpt lat="46.0107756" lon="11.3091343" />
      <trkpt lat="46.0106468" lon="11.3091389" />
      <trkpt lat="46.0103898" lon="11.3091618" />
      <trkpt lat="46.0103209" lon="11.3091646" />
      <trkpt lat="46.0103741" lon="11.3085116" />
      <trkpt lat="46.0104234" lon="11.3079874" />
      <trkpt lat="46.0105301" lon="11.3068092" />
      <trkpt lat="46.0105697" lon="11.3068093" />
      <trkpt lat="46.0106037" lon="11.3067951" />
      <trkpt lat="46.0108677" lon="11.3066271" />
      <trkpt lat="46.0110816" lon="11.3064492" />
      <trkpt lat="46.0111409" lon="11.3063598" />
      <trkpt lat="46.0112022" lon="11.3062769" />
      <trkpt lat="46.0113311" lon="11.3061571" />
      <trkpt lat="46.0113750" lon="11.3055987" />
      <trkpt lat="46.0114258" lon="11.3056108" />
      <trkpt lat="46.0114849" lon="11.3055945" />
      <trkpt lat="46.0115371" lon="11.3055262" />
      <trkpt lat="46.0115684" lon="11.3054490" />
      <trkpt lat="46.0116508" lon="11.3052644" />
      <trkpt lat="46.0117020" lon="11.3051613" />
      <trkpt lat="46.0118147" lon="11.3049397" />
      <trkpt lat="46.0118767" lon="11.3048065" />
      <trkpt lat="46.0119477" lon="11.3046725" />
      <trkpt lat="46.0119919" lon="11.3046366" />
      <trkpt lat="46.0120540" lon="11.3046312" />
      <trkpt lat="46.0121026" lon="11.3046545" />
      <trkpt lat="46.0121644" lon="11.3047010" />
      <trkpt lat="46.0122399" lon="11.3047086" />
      <trkpt lat="46.0122985" lon="11.3046550" />
      <trkpt lat="46.0123670" lon="11.3045484" />
      <trkpt lat="46.0126021" lon="11.3041601" />
      <trkpt lat="46.0127044" lon="11.3040536" />
      <trkpt lat="46.0127644" lon="11.3045046" />
      <trkpt lat="46.0127931" lon="11.3047943" />
      <trkpt lat="46.0127990" lon="11.3049468" />
      <trkpt lat="46.0130363" lon="11.3051489" />
      <trkpt lat="46.0134104" lon="11.3053479" />
      <trkpt lat="46.0136046" lon="11.3054330" />
      <trkpt lat="46.0136996" lon="11.3055082" />
      <trkpt lat="46.0138253" lon="11.3056538" />
      <trkpt lat="46.0137384" lon="11.3060950" />
      <trkpt lat="46.0135289" lon="11.3071749" />
      <trkpt lat="46.0134803" lon="11.3073438" />
      <trkpt lat="46.0133970" lon="11.3074903" />
      <trkpt lat="46.0133741" lon="11.3075777" />
      <trkpt lat="46.0133257" lon="11.3084986" />
      <trkpt lat="46.0133450" lon="11.3085849" />
      <trkpt lat="46.0132950" lon="11.3086265" />
      <trkpt lat="46.0132379" lon="11.3086679" />
      <trkpt lat="46.0131735" lon="11.3087524" />
      <trkpt lat="46.0131139" lon="11.3088596" />
      <trkpt lat="46.0130617" lon="11.3091225" />
      <trkpt lat="46.0130319" lon="11.3092083" />
      <trkpt lat="46.0129761" lon="11.3092566" />
      <trkpt lat="46.0128792" lon="11.3092834" />
      <trkpt lat="46.0124877" lon="11.3093217" />
      <trkpt lat="46.0123477" lon="11.3093205" />
      <trkpt lat="46.0121885" lon="11.3093191" />
      <trkpt lat="46.0121068" lon="11.3093195" />
      <trkpt lat="46.0120910" lon="11.3093193" />
      <trkpt lat="46.0119086" lon="11.3093218" />
      <trkpt lat="46.0117912" lon="11.3093198" />
      <trkpt lat="46.0117285" lon="11.3093139" />
      <trkpt lat="46.0115957" lon="11.3092885" />
      <trkpt lat="46.0113540" lon="11.3092369" />
      <trkpt lat="46.0112065" lon="11.3092161" />
      <trkpt lat="46.0110982" lon="11.3092079" />
      <trkpt lat="46.0110743" lon="11.3092062" />
      <trkpt lat="46.0105969" lon="11.3092274" />
      <trkpt lat="46.0104685" lon="11.3092444" />
      <trkpt lat="46.0103494" lon="11.3092761" />
      <trkpt lat="46.0098931" lon="11.3094071" />
      <trkpt lat="46.0098305" lon="11.3094158" />
      <trkpt lat="46.0097471" lon="11.3093905" />
      <trkpt lat="46.0096743" lon="11.3093517" />
      <trkpt lat="46.0096191" lon="11.3093162" />
      <trkpt lat="46.0095602" lon="11.3092690" />
      <trkpt lat="46.0095413" lon="11.3092533" />
      <trkpt lat="46.0095093" lon="11.3092309" />
      <trkpt lat="46.0094848" lon="11.3092210" />
      <trkpt lat="46.0094485" lon="11.3092101" />
      <trkpt lat="46.0094113" lon="11.3092100" />
      <trkpt lat="46.0093756" lon="11.3092212" />
      <trkpt lat="46.0093417" lon="11.3092364" />
      <trkpt lat="46.0093089" lon="11.3092664" />
      <trkpt lat="46.0092747" lon="11.3093032" />
      <trkpt lat="46.0092055" lon="11.3093792" />
      <trkpt lat="46.0092180" lon="11.3094163" />
      <trkpt lat="46.0092218" lon="11.3094572" />
      <trkpt lat="46.0092165" lon="11.3094977" />
      <trkpt lat="46.0092028" lon="11.3095339" />
      <trkpt lat="46.0091819" lon="11.3095621" />
      <trkpt lat="46.0092147" lon="11.3096070" />
      <trkpt lat="46.0092684" lon="11.3096785" />
      <trkpt lat="46.0093344" lon="11.3098344" />
      <trkpt lat="46.0093880" lon="11.3100457" />
      <trkpt lat="46.0093344" lon="11.3098344" />
      <trkpt lat="46.0092684" lon="11.3096785" />
      <trkpt lat="46.0092147" lon="11.3096070" />
      <trkpt lat="46.0091819" lon="11.3095621" />
      <trkpt lat="46.0091624" lon="11.3095765" />
      <trkpt lat="46.0091411" lon="11.3095837" />
      <trkpt lat="46.0091192" lon="11.3095834" />
      <trkpt lat="46.0090935" lon="11.3095728" />
      <trkpt lat="46.0090710" lon="11.3095518" />
      <trkpt lat="46.0090538" lon="11.3095224" />
      <trkpt lat="46.0090433" lon="11.3094869" />
      <trkpt lat="46.0090404" lon="11.3094486" />
      <trkpt lat="46.0090448" lon="11.3094131" />
      <trkpt lat="46.0090559" lon="11.3093807" />
      <trkpt lat="46.0090726" lon="11.3093539" />
      <trkpt lat="46.0090504" lon="11.3092722" />
      <trkpt lat="46.0090311" lon="11.3092009" />
      <trkpt lat="46.0089976" lon="11.3091176" />
      <trkpt lat="46.0089409" lon="11.3090544" />
      <trkpt lat="46.0088516" lon="11.3089000" />
      <trkpt lat="46.0088224" lon="11.3087871" />
      <trkpt lat="46.0088044" lon="11.3086422" />
      <trkpt lat="46.0088175" lon="11.3083890" />
      <trkpt lat="46.0088209" lon="11.3080963" />
      <trkpt lat="46.0088444" lon="11.3078784" />
      <trkpt lat="46.0088896" lon="11.3073866" />
      <trkpt lat="46.0089532" lon="11.3067296" />
      <trkpt lat="46.0089556" lon="11.3067025" />
      <trkpt lat="46.0089895" lon="11.3063234" />
      <trkpt lat="46.0090411" lon="11.3057455" />
      <trkpt lat="46.0090526" lon="11.3056160" />
      <trkpt lat="46.0090647" lon="11.3054807" />
      <trkpt lat="46.0085463" lon="11.3053902" />
      <trkpt lat="46.0084263" lon="11.3053692" />
      <trkpt lat="46.0077830" lon="11.3052568" />
      <trkpt lat="46.0077349" lon="11.3052484" />
      <trkpt lat="46.0074884" lon="11.3052053" />
      <trkpt lat="46.0071910" lon="11.3051534" />
      <trkpt lat="46.0067208" lon="11.3050712" />
      <trkpt lat="46.0066114" lon="11.3050095" />
      <trkpt lat="46.0065420" lon="11.3049351" />
      <trkpt lat="46.0065217" lon="11.3049002" />
      <trkpt lat="46.0064899" lon="11.3047936" />
      <trkpt lat="46.0063629" lon="11.3043361" />
      <trkpt lat="46.0063415" lon="11.3042747" />
      <trkpt lat="46.0063045" lon="11.3040481" />
      <trkpt lat="46.0062972" lon="11.3038449" />
      <trkpt lat="46.0063762" lon="11.3035226" />
      <trkpt lat="46.0063797" lon="11.3035108" />
      <trkpt lat="46.0064759" lon="11.3031605" />
      <trkpt lat="46.0065081" lon="11.3030335" />
      <trkpt lat="46.0066162" lon="11.3026200" />
      <trkpt lat="46.0067126" lon="11.3022732" />
      <trkpt lat="46.0067834" lon="11.3020980" />
      <trkpt lat="46.0068944" lon="11.3018899" />
      <trkpt lat="46.0070144" lon="11.3017272" />
      <trkpt lat="46.0070569" lon="11.3016486" />
      <trkpt lat="46.0070691" lon="11.3016533" />
      <trkpt lat="46.0070798" lon="11.3016539" />
      <trkpt lat="46.0070904" lon="11.3016516" />
      <trkpt lat="46.0071023" lon="11.3016451" />
      <trkpt lat="46.0071096" lon="11.3016384" />
      <trkpt lat="46.0071175" lon="11.3016280" />
      <trkpt lat="46.0071238" lon="11.3016156" />
      <trkpt lat="46.0071283" lon="11.3016017" />
      <trkpt lat="46.0071309" lon="11.3015867" />
      <trkpt lat="46.0071314" lon="11.3015713" />
      <trkpt lat="46.0071298" lon="11.3015561" />
      <trkpt lat="46.0071261" lon="11.3015416" />
      <trkpt lat="46.0071206" lon="11.3015285" />
      <trkpt lat="46.0071148" lon="11.3015190" />
      <trkpt lat="46.0071213" lon="11.3015131" />
      <trkpt lat="46.0071272" lon="11.3015076" />
      <trkpt lat="46.0072818" lon="11.3013815" />
      <trkpt lat="46.0078069" lon="11.3010941" />
      <trkpt lat="46.0080384" lon="11.3009880" />
      <trkpt lat="46.0080981" lon="11.3009575" />
      <trkpt lat="46.0081156" lon="11.3009486" />
      <trkpt lat="46.0082347" lon="11.3009432" />
      <trkpt lat="46.0083362" lon="11.3009589" />
      <trkpt lat="46.0084291" lon="11.3009951" />
      <trkpt lat="46.0084804" lon="11.3009856" />
      <trkpt lat="46.0085132" lon="11.3009526" />
      <trkpt lat="46.0085514" lon="11.3008740" />
      <trkpt lat="46.0086540" lon="11.3006161" />
      <trkpt lat="46.0088160" lon="11.3002149" />
      <trkpt lat="46.0089993" lon="11.2998204" />
      <trkpt lat="46.0092735" lon="11.3000264" />
      <trkpt lat="46.0096193" lon="11.2990766" />
      <trkpt lat="46.0100209" lon="11.2991942" />
      <trkpt lat="46.0100425" lon="11.2991474" />
      <trkpt lat="46.0100063" lon="11.2990362" />
      <trkpt lat="46.0099504" lon="11.2988854" />
      <trkpt lat="46.0099120" lon="11.2988591" />
      <trkpt lat="46.0098012" lon="11.2986955" />
      <trkpt lat="46.0098825" lon="11.2984367" />
      <trkpt lat="46.0096438" lon="11.2983759" />
      <trkpt lat="46.0095394" lon="11.2983507" />
      <trkpt lat="46.0094346" lon="11.2983049" />
      <trkpt lat="46.0092880" lon="11.2981822" />
      <trkpt lat="46.0092317" lon="11.2981169" />
      <trkpt lat="46.0091656" lon="11.2980281" />
      <trkpt lat="46.0091039" lon="11.2979094" />
      <trkpt lat="46.0090480" lon="11.2977699" />
      <trkpt lat="46.0089850" lon="11.2975267" />
      <trkpt lat="46.0088589" lon="11.2970393" />
      <trkpt lat="46.0087115" lon="11.2964700" />
      <trkpt lat="46.0086007" lon="11.2960421" />
      <trkpt lat="46.0085345" lon="11.2957863" />
      <trkpt lat="46.0085087" lon="11.2956866" />
      <trkpt lat="46.0086317" lon="11.2956996" />
      <trkpt lat="46.0087211" lon="11.2957519" />
      <trkpt lat="46.0088004" lon="11.2958202" />
      <trkpt lat="46.0088595" lon="11.2958710" />
      <trkpt lat="46.0089937" lon="11.2960212" />
      <trkpt lat="46.0091216" lon="11.2962500" />
      <trkpt lat="46.0092321" lon="11.2964879" />
      <trkpt lat="46.0092428" lon="11.2965144" />
      <trkpt lat="46.0093666" lon="11.2962829" />
      <trkpt lat="46.0093990" lon="11.2962716" />
      <trkpt lat="46.0096697" lon="11.2965853" />
      <trkpt lat="46.0099288" lon="11.2962024" />
      <trkpt lat="46.0099884" lon="11.2961112" />
      <trkpt lat="46.0100583" lon="11.2960911" />
      <trkpt lat="46.0101356" lon="11.2961689" />
      <trkpt lat="46.0102281" lon="11.2962543" />
      <trkpt lat="46.0104566" lon="11.2958391" />
      <trkpt lat="46.0105204" lon="11.2957234" />
      <trkpt lat="46.0105090" lon="11.2957082" />
      <trkpt lat="46.0103318" lon="11.2954721" />
      <trkpt lat="46.0102901" lon="11.2954163" />
      <trkpt lat="46.0102519" lon="11.2953652" />
      <trkpt lat="46.0101526" lon="11.2952325" />
      <trkpt lat="46.0099498" lon="11.2949615" />
      <trkpt lat="46.0099173" lon="11.2949136" />
      <trkpt lat="46.0098606" lon="11.2948293" />
      <trkpt lat="46.0096077" lon="11.2944514" />
      <trkpt lat="46.0098606" lon="11.2948293" />
      <trkpt lat="46.0099173" lon="11.2949136" />
      <trkpt lat="46.0099498" lon="11.2949615" />
      <trkpt lat="46.0101526" lon="11.2952325" />
      <trkpt lat="46.0102519" lon="11.2953652" />
      <trkpt lat="46.0102901" lon="11.2954163" />
      <trkpt lat="46.0103318" lon="11.2954721" />
      <trkpt lat="46.0105090" lon="11.2957082" />
      <trkpt lat="46.0105204" lon="11.2957234" />
      <trkpt lat="46.0106659" lon="11.2959174" />
      <trkpt lat="46.0107266" lon="11.2959983" />
      <trkpt lat="46.0107605" lon="11.2960435" />
      <trkpt lat="46.0109276" lon="11.2962659" />
      <trkpt lat="46.0110369" lon="11.2964115" />
      <trkpt lat="46.0111280" lon="11.2964899" />
      <trkpt lat="46.0112072" lon="11.2965500" />
      <trkpt lat="46.0111781" lon="11.2968399" />
      <trkpt lat="46.0112568" lon="11.2970649" />
      <trkpt lat="46.0112181" lon="11.2971112" />
      <trkpt lat="46.0116123" lon="11.2977853" />
      <trkpt lat="46.0115764" lon="11.2979707" />
      <trkpt lat="46.0115587" lon="11.2979934" />
      <trkpt lat="46.0116728" lon="11.2981556" />
      <trkpt lat="46.0118028" lon="11.2983483" />
      <trkpt lat="46.0118824" lon="11.2985225" />
      <trkpt lat="46.0120860" lon="11.2982428" />
      <trkpt lat="46.0122052" lon="11.2981248" />
      <trkpt lat="46.0122499" lon="11.2982214" />
      <trkpt lat="46.0122424" lon="11.2983394" />
      <trkpt lat="46.0123552" lon="11.2985082" />
    </trkseg>
  </trk>
</gpx>
