<?xml version="1.0" encoding="UTF-8"?>
<gpx xmlns="http://www.topografix.com/GPX/1/1" version="1.1" creator="ShapeRoute route-engine">
  <metadata>
    <name>house 15 km · 2026-09-23</name>
    <author>
      <name>ShapeRoute route-engine</name>
    </author>
    <copyright author="OpenStreetMap contributors">
      <license>https://opendatacommons.org/licenses/odbl/1-0/</license>
    </copyright>
    <link href="https://www.openstreetmap.org/copyright">
      <text>© OpenStreetMap contributors</text>
    </link>
    <time>2026-09-23T22:57:09Z</time>
  </metadata>
  <trk>
    <name>house 15 km · 2026-09-23</name>
    <trkseg>
      <trkpt lat="45.4643695" lon="9.1897716" />
      <trkpt lat="45.4644313" lon="9.1898582" />
      <trkpt lat="45.4644741" lon="9.1898729" />
      <trkpt lat="45.4645046" lon="9.1898833" />
      <trkpt lat="45.4645446" lon="9.1898970" />
      <trkpt lat="45.4645546" lon="9.1899005" />
      <trkpt lat="45.4645542" lon="9.1899580" />
      <trkpt lat="45.4645591" lon="9.1899581" />
      <trkpt lat="45.4645591" lon="9.1899739" />
      <trkpt lat="45.4645579" lon="9.1902970" />
      <trkpt lat="45.4645713" lon="9.1903119" />
      <trkpt lat="45.4645796" lon="9.1903211" />
      <trkpt lat="45.4645915" lon="9.1903344" />
      <trkpt lat="45.4645901" lon="9.1904077" />
      <trkpt lat="45.4646642" lon="9.1904112" />
      <trkpt lat="45.4646621" lon="9.1904786" />
      <trkpt lat="45.4645935" lon="9.1906061" />
      <trkpt lat="45.4646000" lon="9.1909552" />
      <trkpt lat="45.4646003" lon="9.1909797" />
      <trkpt lat="45.4646007" lon="9.1910693" />
      <trkpt lat="45.4646012" lon="9.1911209" />
      <trkpt lat="45.4646465" lon="9.1911206" />
      <trkpt lat="45.4646515" lon="9.1916688" />
      <trkpt lat="45.4646511" lon="9.1923052" />
      <trkpt lat="45.4645377" lon="9.1923059" />
      <trkpt lat="45.4645367" lon="9.1924709" />
      <trkpt lat="45.4643963" lon="9.1924716" />
      <trkpt lat="45.4642136" lon="9.1927217" />
      <trkpt lat="45.4645351" lon="9.1927354" />
      <trkpt lat="45.4645357" lon="9.1927628" />
      <trkpt lat="45.4645353" lon="9.1929721" />
      <trkpt lat="45.4645351" lon="9.1929820" />
      <trkpt lat="45.4645181" lon="9.1934942" />
      <trkpt lat="45.4645224" lon="9.1935138" />
      <trkpt lat="45.4644849" lon="9.1935284" />
      <trkpt lat="45.4644552" lon="9.1935360" />
      <trkpt lat="45.4643976" lon="9.1935450" />
      <trkpt lat="45.4643434" lon="9.1935520" />
      <trkpt lat="45.4641108" lon="9.1935539" />
      <trkpt lat="45.4641098" lon="9.1934909" />
      <trkpt lat="45.4638618" lon="9.1935050" />
      <trkpt lat="45.4638607" lon="9.1935793" />
      <trkpt lat="45.4638604" lon="9.1936123" />
      <trkpt lat="45.4638597" lon="9.1936511" />
      <trkpt lat="45.4638595" lon="9.1936659" />
      <trkpt lat="45.4638265" lon="9.1936671" />
      <trkpt lat="45.4638241" lon="9.1936686" />
      <trkpt lat="45.4638223" lon="9.1936715" />
      <trkpt lat="45.4638214" lon="9.1936766" />
      <trkpt lat="45.4638223" lon="9.1942277" />
      <trkpt lat="45.4637624" lon="9.1942314" />
      <trkpt lat="45.4637447" lon="9.1942355" />
      <trkpt lat="45.4636862" lon="9.1942492" />
      <trkpt lat="45.4636384" lon="9.1942604" />
      <trkpt lat="45.4636248" lon="9.1942636" />
      <trkpt lat="45.4636136" lon="9.1942488" />
      <trkpt lat="45.4635365" lon="9.1942471" />
      <trkpt lat="45.4635253" lon="9.1942503" />
      <trkpt lat="45.4635140" lon="9.1942577" />
      <trkpt lat="45.4634869" lon="9.1942882" />
      <trkpt lat="45.4634661" lon="9.1943206" />
      <trkpt lat="45.4634270" lon="9.1944557" />
      <trkpt lat="45.4634017" lon="9.1945835" />
      <trkpt lat="45.4633431" lon="9.1949500" />
      <trkpt lat="45.4631686" lon="9.1949087" />
      <trkpt lat="45.4631291" lon="9.1949181" />
      <trkpt lat="45.4630590" lon="9.1949651" />
      <trkpt lat="45.4630414" lon="9.1949771" />
      <trkpt lat="45.4630043" lon="9.1949901" />
      <trkpt lat="45.4629900" lon="9.1949950" />
      <trkpt lat="45.4629510" lon="9.1950045" />
      <trkpt lat="45.4629436" lon="9.1950063" />
      <trkpt lat="45.4629274" lon="9.1950103" />
      <trkpt lat="45.4629171" lon="9.1950128" />
      <trkpt lat="45.4628689" lon="9.1950245" />
      <trkpt lat="45.4628195" lon="9.1950332" />
      <trkpt lat="45.4628513" lon="9.1952921" />
      <trkpt lat="45.4625252" lon="9.1952922" />
      <trkpt lat="45.4624833" lon="9.1953568" />
      <trkpt lat="45.4623869" lon="9.1953630" />
      <trkpt lat="45.4623796" lon="9.1953633" />
      <trkpt lat="45.4623815" lon="9.1954346" />
      <trkpt lat="45.4623604" lon="9.1954373" />
      <trkpt lat="45.4621928" lon="9.1954585" />
      <trkpt lat="45.4621891" lon="9.1953784" />
      <trkpt lat="45.4621783" lon="9.1951262" />
      <trkpt lat="45.4621788" lon="9.1950796" />
      <trkpt lat="45.4620642" lon="9.1950114" />
      <trkpt lat="45.4619224" lon="9.1949879" />
      <trkpt lat="45.4618658" lon="9.1949796" />
      <trkpt lat="45.4618502" lon="9.1950213" />
      <trkpt lat="45.4618010" lon="9.1951317" />
      <trkpt lat="45.4617001" lon="9.1953736" />
      <trkpt lat="45.4615690" lon="9.1955584" />
      <trkpt lat="45.4615237" lon="9.1955888" />
      <trkpt lat="45.4614814" lon="9.1955955" />
      <trkpt lat="45.4614235" lon="9.1956391" />
      <trkpt lat="45.4613601" lon="9.1956287" />
      <trkpt lat="45.4613608" lon="9.1956416" />
      <trkpt lat="45.4613576" lon="9.1956637" />
      <trkpt lat="45.4613456" lon="9.1956856" />
      <trkpt lat="45.4611009" lon="9.1959758" />
      <trkpt lat="45.4608010" lon="9.1963368" />
      <trkpt lat="45.4607844" lon="9.1963347" />
      <trkpt lat="45.4607772" lon="9.1963500" />
      <trkpt lat="45.4607719" lon="9.1963614" />
      <trkpt lat="45.4607420" lon="9.1964253" />
      <trkpt lat="45.4607178" lon="9.1964772" />
      <trkpt lat="45.4607113" lon="9.1964968" />
      <trkpt lat="45.4608434" lon="9.1966069" />
      <trkpt lat="45.4608616" lon="9.1966566" />
      <trkpt lat="45.4608621" lon="9.1967059" />
      <trkpt lat="45.4608883" lon="9.1984481" />
      <trkpt lat="45.4608702" lon="9.1984910" />
      <trkpt lat="45.4603967" lon="9.1985637" />
      <trkpt lat="45.4603115" lon="9.1985777" />
      <trkpt lat="45.4597987" lon="9.1986527" />
      <trkpt lat="45.4597734" lon="9.1986108" />
      <trkpt lat="45.4597677" lon="9.1986113" />
      <trkpt lat="45.4597487" lon="9.1986129" />
      <trkpt lat="45.4597537" lon="9.1987063" />
      <trkpt lat="45.4597014" lon="9.1987172" />
      <trkpt lat="45.4595559" lon="9.1987407" />
      <trkpt lat="45.4592504" lon="9.1987901" />
      <trkpt lat="45.4591702" lon="9.1988033" />
      <trkpt lat="45.4590463" lon="9.1988206" />
      <trkpt lat="45.4588539" lon="9.1988534" />
      <trkpt lat="45.4588442" lon="9.1989048" />
      <trkpt lat="45.4588412" lon="9.1989205" />
      <trkpt lat="45.4588362" lon="9.1989448" />
      <trkpt lat="45.4588331" lon="9.1989598" />
      <trkpt lat="45.4588160" lon="9.1989890" />
      <trkpt lat="45.4587262" lon="9.1990078" />
      <trkpt lat="45.4586839" lon="9.1990150" />
      <trkpt lat="45.4585417" lon="9.1990371" />
      <trkpt lat="45.4585170" lon="9.1990321" />
      <trkpt lat="45.4584965" lon="9.1990224" />
      <trkpt lat="45.4584918" lon="9.1989777" />
      <trkpt lat="45.4584908" lon="9.1989626" />
      <trkpt lat="45.4584774" lon="9.1989649" />
      <trkpt lat="45.4578356" lon="9.1990571" />
      <trkpt lat="45.4578197" lon="9.1990901" />
      <trkpt lat="45.4577810" lon="9.1990983" />
      <trkpt lat="45.4577553" lon="9.1991037" />
      <trkpt lat="45.4577468" lon="9.1991055" />
      <trkpt lat="45.4578816" lon="9.2003106" />
      <trkpt lat="45.4578884" lon="9.2003484" />
      <trkpt lat="45.4573714" lon="9.2005361" />
      <trkpt lat="45.4569194" lon="9.2006674" />
      <trkpt lat="45.4569254" lon="9.2007041" />
      <trkpt lat="45.4569314" lon="9.2007349" />
      <trkpt lat="45.4569393" lon="9.2007770" />
      <trkpt lat="45.4569423" lon="9.2007959" />
      <trkpt lat="45.4569275" lon="9.2008010" />
      <trkpt lat="45.4569193" lon="9.2008279" />
      <trkpt lat="45.4569628" lon="9.2011364" />
      <trkpt lat="45.4570430" lon="9.2016001" />
      <trkpt lat="45.4572767" lon="9.2030322" />
      <trkpt lat="45.4573401" lon="9.2034508" />
      <trkpt lat="45.4573291" lon="9.2034550" />
      <trkpt lat="45.4573172" lon="9.2034596" />
      <trkpt lat="45.4573059" lon="9.2034640" />
      <trkpt lat="45.4573256" lon="9.2035706" />
      <trkpt lat="45.4574307" lon="9.2042397" />
      <trkpt lat="45.4574501" lon="9.2043633" />
      <trkpt lat="45.4574610" lon="9.2044314" />
      <trkpt lat="45.4574613" lon="9.2044404" />
      <trkpt lat="45.4574603" lon="9.2044498" />
      <trkpt lat="45.4574565" lon="9.2044632" />
      <trkpt lat="45.4574521" lon="9.2044794" />
      <trkpt lat="45.4574599" lon="9.2044795" />
      <trkpt lat="45.4575016" lon="9.2045041" />
      <trkpt lat="45.4575941" lon="9.2045586" />
      <trkpt lat="45.4577416" lon="9.2046455" />
      <trkpt lat="45.4580079" lon="9.2048025" />
      <trkpt lat="45.4579825" lon="9.2048993" />
      <trkpt lat="45.4579729" lon="9.2049358" />
      <trkpt lat="45.4579670" lon="9.2049583" />
      <trkpt lat="45.4579519" lon="9.2050160" />
      <trkpt lat="45.4579424" lon="9.2050520" />
      <trkpt lat="45.4578285" lon="9.2054861" />
      <trkpt lat="45.4578227" lon="9.2055079" />
      <trkpt lat="45.4578150" lon="9.2055038" />
      <trkpt lat="45.4577936" lon="9.2054924" />
      <trkpt lat="45.4577878" lon="9.2055120" />
      <trkpt lat="45.4577820" lon="9.2055182" />
      <trkpt lat="45.4577751" lon="9.2055211" />
      <trkpt lat="45.4577679" lon="9.2055192" />
      <trkpt lat="45.4577583" lon="9.2055144" />
      <trkpt lat="45.4577513" lon="9.2055354" />
      <trkpt lat="45.4577447" lon="9.2055553" />
      <trkpt lat="45.4577296" lon="9.2056007" />
      <trkpt lat="45.4577218" lon="9.2056243" />
      <trkpt lat="45.4576980" lon="9.2056957" />
      <trkpt lat="45.4576861" lon="9.2057316" />
      <trkpt lat="45.4576793" lon="9.2057521" />
      <trkpt lat="45.4576728" lon="9.2057715" />
      <trkpt lat="45.4576625" lon="9.2058026" />
      <trkpt lat="45.4576561" lon="9.2058219" />
      <trkpt lat="45.4571919" lon="9.2055622" />
      <trkpt lat="45.4567863" lon="9.2053481" />
      <trkpt lat="45.4565095" lon="9.2054860" />
      <trkpt lat="45.4562929" lon="9.2060171" />
      <trkpt lat="45.4562749" lon="9.2060619" />
      <trkpt lat="45.4562427" lon="9.2061422" />
      <trkpt lat="45.4562099" lon="9.2062239" />
      <trkpt lat="45.4561976" lon="9.2062546" />
      <trkpt lat="45.4560645" lon="9.2065832" />
      <trkpt lat="45.4560710" lon="9.2066174" />
      <trkpt lat="45.4560654" lon="9.2066318" />
      <trkpt lat="45.4560487" lon="9.2066746" />
      <trkpt lat="45.4560283" lon="9.2067269" />
      <trkpt lat="45.4560183" lon="9.2067524" />
      <trkpt lat="45.4559982" lon="9.2067642" />
      <trkpt lat="45.4554270" lon="9.2081733" />
      <trkpt lat="45.4554151" lon="9.2081634" />
      <trkpt lat="45.4553853" lon="9.2081385" />
      <trkpt lat="45.4553487" lon="9.2082303" />
      <trkpt lat="45.4553306" lon="9.2082704" />
      <trkpt lat="45.4553052" lon="9.2083283" />
      <trkpt lat="45.4551247" lon="9.2087625" />
      <trkpt lat="45.4548545" lon="9.2085416" />
      <trkpt lat="45.4546865" lon="9.2089621" />
      <trkpt lat="45.4546570" lon="9.2090358" />
      <trkpt lat="45.4546200" lon="9.2091255" />
      <trkpt lat="45.4544973" lon="9.2094226" />
      <trkpt lat="45.4544796" lon="9.2094617" />
      <trkpt lat="45.4544625" lon="9.2094948" />
      <trkpt lat="45.4544441" lon="9.2095269" />
      <trkpt lat="45.4544089" lon="9.2095760" />
      <trkpt lat="45.4543849" lon="9.2096031" />
      <trkpt lat="45.4543369" lon="9.2096051" />
      <trkpt lat="45.4542773" lon="9.2096202" />
      <trkpt lat="45.4542689" lon="9.2096239" />
      <trkpt lat="45.4542433" lon="9.2096343" />
      <trkpt lat="45.4541991" lon="9.2096610" />
      <trkpt lat="45.4541646" lon="9.2096899" />
      <trkpt lat="45.4541193" lon="9.2096893" />
      <trkpt lat="45.4541016" lon="9.2096864" />
      <trkpt lat="45.4540788" lon="9.2096826" />
      <trkpt lat="45.4540579" lon="9.2096761" />
      <trkpt lat="45.4539899" lon="9.2096477" />
      <trkpt lat="45.4538237" lon="9.2095156" />
      <trkpt lat="45.4537616" lon="9.2094663" />
      <trkpt lat="45.4536873" lon="9.2094081" />
      <trkpt lat="45.4533568" lon="9.2091487" />
      <trkpt lat="45.4532718" lon="9.2090820" />
      <trkpt lat="45.4532084" lon="9.2090323" />
      <trkpt lat="45.4530949" lon="9.2093123" />
      <trkpt lat="45.4530128" lon="9.2092452" />
      <trkpt lat="45.4529926" lon="9.2092964" />
      <trkpt lat="45.4529704" lon="9.2093526" />
      <trkpt lat="45.4523166" lon="9.2088177" />
      <trkpt lat="45.4521373" lon="9.2086707" />
      <trkpt lat="45.4518541" lon="9.2084393" />
      <trkpt lat="45.4518377" lon="9.2084359" />
      <trkpt lat="45.4517135" lon="9.2087223" />
      <trkpt lat="45.4516669" lon="9.2089060" />
      <trkpt lat="45.4515448" lon="9.2094211" />
      <trkpt lat="45.4515269" lon="9.2094966" />
      <trkpt lat="45.4515172" lon="9.2094949" />
      <trkpt lat="45.4514526" lon="9.2094837" />
      <trkpt lat="45.4514363" lon="9.2094809" />
      <trkpt lat="45.4513875" lon="9.2094724" />
      <trkpt lat="45.4511151" lon="9.2105757" />
      <trkpt lat="45.4510878" lon="9.2105777" />
      <trkpt lat="45.4498248" lon="9.2095625" />
      <trkpt lat="45.4498170" lon="9.2095808" />
      <trkpt lat="45.4497908" lon="9.2096424" />
      <trkpt lat="45.4497689" lon="9.2096937" />
      <trkpt lat="45.4497592" lon="9.2097167" />
      <trkpt lat="45.4497225" lon="9.2097311" />
      <trkpt lat="45.4497134" lon="9.2097233" />
      <trkpt lat="45.4496874" lon="9.2097009" />
      <trkpt lat="45.4496733" lon="9.2096887" />
      <trkpt lat="45.4496335" lon="9.2096545" />
      <trkpt lat="45.4496251" lon="9.2096068" />
      <trkpt lat="45.4485834" lon="9.2087679" />
      <trkpt lat="45.4484639" lon="9.2086847" />
      <trkpt lat="45.4484562" lon="9.2086966" />
      <trkpt lat="45.4484506" lon="9.2086918" />
      <trkpt lat="45.4484078" lon="9.2086551" />
      <trkpt lat="45.4483745" lon="9.2086266" />
      <trkpt lat="45.4483241" lon="9.2085834" />
      <trkpt lat="45.4483053" lon="9.2085669" />
      <trkpt lat="45.4482979" lon="9.2085605" />
      <trkpt lat="45.4482840" lon="9.2085486" />
      <trkpt lat="45.4482310" lon="9.2085035" />
      <trkpt lat="45.4481746" lon="9.2084552" />
      <trkpt lat="45.4481532" lon="9.2084369" />
      <trkpt lat="45.4481465" lon="9.2084311" />
      <trkpt lat="45.4481165" lon="9.2084056" />
      <trkpt lat="45.4474498" lon="9.2094881" />
      <trkpt lat="45.4474380" lon="9.2095030" />
      <trkpt lat="45.4474258" lon="9.2095089" />
      <trkpt lat="45.4474110" lon="9.2095076" />
      <trkpt lat="45.4473435" lon="9.2094899" />
      <trkpt lat="45.4473139" lon="9.2094822" />
      <trkpt lat="45.4472794" lon="9.2094733" />
      <trkpt lat="45.4472141" lon="9.2094562" />
      <trkpt lat="45.4472032" lon="9.2094534" />
      <trkpt lat="45.4472012" lon="9.2094699" />
      <trkpt lat="45.4471946" lon="9.2094779" />
      <trkpt lat="45.4471575" lon="9.2095230" />
      <trkpt lat="45.4471227" lon="9.2095652" />
      <trkpt lat="45.4470954" lon="9.2095983" />
      <trkpt lat="45.4470754" lon="9.2096226" />
      <trkpt lat="45.4470207" lon="9.2096890" />
      <trkpt lat="45.4470061" lon="9.2097067" />
      <trkpt lat="45.4470268" lon="9.2097831" />
      <trkpt lat="45.4469919" lon="9.2098714" />
      <trkpt lat="45.4469807" lon="9.2098825" />
      <trkpt lat="45.4469402" lon="9.2099223" />
      <trkpt lat="45.4468951" lon="9.2099666" />
      <trkpt lat="45.4468753" lon="9.2099861" />
      <trkpt lat="45.4468486" lon="9.2100181" />
      <trkpt lat="45.4468577" lon="9.2105373" />
      <trkpt lat="45.4468608" lon="9.2107121" />
      <trkpt lat="45.4468505" lon="9.2107377" />
      <trkpt lat="45.4467950" lon="9.2108324" />
      <trkpt lat="45.4467769" lon="9.2108633" />
      <trkpt lat="45.4466735" lon="9.2110381" />
      <trkpt lat="45.4465009" lon="9.2113132" />
      <trkpt lat="45.4459964" lon="9.2121340" />
      <trkpt lat="45.4459376" lon="9.2122277" />
      <trkpt lat="45.4457559" lon="9.2125206" />
      <trkpt lat="45.4457473" lon="9.2125090" />
      <trkpt lat="45.4450524" lon="9.2116157" />
      <trkpt lat="45.4449319" lon="9.2114193" />
      <trkpt lat="45.4448965" lon="9.2114459" />
      <trkpt lat="45.4448719" lon="9.2114644" />
      <trkpt lat="45.4448499" lon="9.2114790" />
      <trkpt lat="45.4448175" lon="9.2114976" />
      <trkpt lat="45.4448090" lon="9.2115008" />
      <trkpt lat="45.4447647" lon="9.2115172" />
      <trkpt lat="45.4447569" lon="9.2115201" />
      <trkpt lat="45.4447198" lon="9.2115338" />
      <trkpt lat="45.4447006" lon="9.2115409" />
      <trkpt lat="45.4446834" lon="9.2115849" />
      <trkpt lat="45.4442628" lon="9.2117869" />
      <trkpt lat="45.4442432" lon="9.2117538" />
      <trkpt lat="45.4439390" lon="9.2106805" />
      <trkpt lat="45.4439457" lon="9.2106521" />
      <trkpt lat="45.4439382" lon="9.2106524" />
      <trkpt lat="45.4438968" lon="9.2106540" />
      <trkpt lat="45.4438676" lon="9.2106552" />
      <trkpt lat="45.4438596" lon="9.2106555" />
      <trkpt lat="45.4432071" lon="9.2109592" />
      <trkpt lat="45.4430784" lon="9.2110223" />
      <trkpt lat="45.4430755" lon="9.2110123" />
      <trkpt lat="45.4430582" lon="9.2109537" />
      <trkpt lat="45.4430465" lon="9.2109142" />
      <trkpt lat="45.4430424" lon="9.2109002" />
      <trkpt lat="45.4430264" lon="9.2108933" />
      <trkpt lat="45.4430136" lon="9.2108519" />
      <trkpt lat="45.4429055" lon="9.2104805" />
      <trkpt lat="45.4427175" lon="9.2098454" />
      <trkpt lat="45.4427048" lon="9.2098535" />
      <trkpt lat="45.4426703" lon="9.2098746" />
      <trkpt lat="45.4426403" lon="9.2098919" />
      <trkpt lat="45.4426266" lon="9.2099001" />
      <trkpt lat="45.4425638" lon="9.2096962" />
      <trkpt lat="45.4424964" lon="9.2094589" />
      <trkpt lat="45.4424774" lon="9.2094545" />
      <trkpt lat="45.4418140" lon="9.2097608" />
      <trkpt lat="45.4418086" lon="9.2097634" />
      <trkpt lat="45.4417773" lon="9.2097785" />
      <trkpt lat="45.4417515" lon="9.2097906" />
      <trkpt lat="45.4417457" lon="9.2097934" />
      <trkpt lat="45.4415893" lon="9.2098668" />
      <trkpt lat="45.4410106" lon="9.2101352" />
      <trkpt lat="45.4407773" lon="9.2102442" />
      <trkpt lat="45.4405494" lon="9.2103519" />
      <trkpt lat="45.4405433" lon="9.2103242" />
      <trkpt lat="45.4405333" lon="9.2102540" />
      <trkpt lat="45.4404143" lon="9.2103082" />
      <trkpt lat="45.4402926" lon="9.2103674" />
      <trkpt lat="45.4390388" lon="9.2109358" />
      <trkpt lat="45.4390173" lon="9.2108682" />
      <trkpt lat="45.4390152" lon="9.2108614" />
      <trkpt lat="45.4385690" lon="9.2110607" />
      <trkpt lat="45.4385517" lon="9.2110684" />
      <trkpt lat="45.4385072" lon="9.2110883" />
      <trkpt lat="45.4384787" lon="9.2111010" />
      <trkpt lat="45.4384569" lon="9.2111108" />
      <trkpt lat="45.4384489" lon="9.2110755" />
      <trkpt lat="45.4383839" lon="9.2107882" />
      <trkpt lat="45.4382395" lon="9.2098351" />
      <trkpt lat="45.4382362" lon="9.2098166" />
      <trkpt lat="45.4382233" lon="9.2097427" />
      <trkpt lat="45.4381594" lon="9.2093947" />
      <trkpt lat="45.4381343" lon="9.2093608" />
      <trkpt lat="45.4381101" lon="9.2093421" />
      <trkpt lat="45.4380850" lon="9.2093300" />
      <trkpt lat="45.4380470" lon="9.2093208" />
      <trkpt lat="45.4379646" lon="9.2093401" />
      <trkpt lat="45.4375541" lon="9.2096789" />
      <trkpt lat="45.4371882" lon="9.2099843" />
      <trkpt lat="45.4371266" lon="9.2100565" />
      <trkpt lat="45.4370268" lon="9.2099831" />
      <trkpt lat="45.4370093" lon="9.2099779" />
      <trkpt lat="45.4370019" lon="9.2098802" />
      <trkpt lat="45.4370093" lon="9.2096966" />
      <trkpt lat="45.4369689" lon="9.2091009" />
      <trkpt lat="45.4367491" lon="9.2068229" />
      <trkpt lat="45.4367277" lon="9.2066013" />
      <trkpt lat="45.4367189" lon="9.2065101" />
      <trkpt lat="45.4366889" lon="9.2061867" />
      <trkpt lat="45.4366836" lon="9.2061306" />
      <trkpt lat="45.4366963" lon="9.2061205" />
      <trkpt lat="45.4366952" lon="9.2061053" />
      <trkpt lat="45.4366899" lon="9.2060302" />
      <trkpt lat="45.4366862" lon="9.2059787" />
      <trkpt lat="45.4366855" lon="9.2059696" />
      <trkpt lat="45.4366681" lon="9.2059609" />
      <trkpt lat="45.4365660" lon="9.2049068" />
      <trkpt lat="45.4365256" lon="9.2044616" />
      <trkpt lat="45.4365285" lon="9.2044444" />
      <trkpt lat="45.4365382" lon="9.2044321" />
      <trkpt lat="45.4365353" lon="9.2044036" />
      <trkpt lat="45.4365294" lon="9.2043471" />
      <trkpt lat="45.4365243" lon="9.2042983" />
      <trkpt lat="45.4365218" lon="9.2042745" />
      <trkpt lat="45.4365100" lon="9.2042624" />
      <trkpt lat="45.4365038" lon="9.2042422" />
      <trkpt lat="45.4364898" lon="9.2042437" />
      <trkpt lat="45.4364241" lon="9.2042508" />
      <trkpt lat="45.4364105" lon="9.2041084" />
      <trkpt lat="45.4362404" lon="9.2022914" />
      <trkpt lat="45.4361844" lon="9.2017271" />
      <trkpt lat="45.4361763" lon="9.2016417" />
      <trkpt lat="45.4361331" lon="9.2011889" />
      <trkpt lat="45.4361251" lon="9.2011050" />
      <trkpt lat="45.4361109" lon="9.2009522" />
      <trkpt lat="45.4361011" lon="9.2008486" />
      <trkpt lat="45.4360912" lon="9.2007449" />
      <trkpt lat="45.4360816" lon="9.2006442" />
      <trkpt lat="45.4360799" lon="9.2006261" />
      <trkpt lat="45.4360782" lon="9.2006078" />
      <trkpt lat="45.4360675" lon="9.2004987" />
      <trkpt lat="45.4360623" lon="9.2004203" />
      <trkpt lat="45.4360570" lon="9.2003418" />
      <trkpt lat="45.4360550" lon="9.2002037" />
      <trkpt lat="45.4360638" lon="9.2000554" />
      <trkpt lat="45.4360804" lon="9.1999301" />
      <trkpt lat="45.4361025" lon="9.1998040" />
      <trkpt lat="45.4361387" lon="9.1996733" />
      <trkpt lat="45.4361726" lon="9.1995667" />
      <trkpt lat="45.4362489" lon="9.1994194" />
      <trkpt lat="45.4363167" lon="9.1992993" />
      <trkpt lat="45.4364166" lon="9.1991494" />
      <trkpt lat="45.4367836" lon="9.1986460" />
      <trkpt lat="45.4369462" lon="9.1984391" />
      <trkpt lat="45.4370293" lon="9.1981872" />
      <trkpt lat="45.4370508" lon="9.1981169" />
      <trkpt lat="45.4370978" lon="9.1979565" />
      <trkpt lat="45.4371373" lon="9.1977604" />
      <trkpt lat="45.4371673" lon="9.1975792" />
      <trkpt lat="45.4371969" lon="9.1973888" />
      <trkpt lat="45.4371987" lon="9.1972394" />
      <trkpt lat="45.4372074" lon="9.1965417" />
      <trkpt lat="45.4372131" lon="9.1960781" />
      <trkpt lat="45.4372147" lon="9.1959141" />
      <trkpt lat="45.4372249" lon="9.1949012" />
      <trkpt lat="45.4372267" lon="9.1947232" />
      <trkpt lat="45.4372313" lon="9.1942636" />
      <trkpt lat="45.4372341" lon="9.1939892" />
      <trkpt lat="45.4372357" lon="9.1938441" />
      <trkpt lat="45.4372418" lon="9.1932887" />
      <trkpt lat="45.4372422" lon="9.1932523" />
      <trkpt lat="45.4372468" lon="9.1928262" />
      <trkpt lat="45.4372475" lon="9.1927441" />
      <trkpt lat="45.4372540" lon="9.1921691" />
      <trkpt lat="45.4372232" lon="9.1917112" />
      <trkpt lat="45.4372193" lon="9.1916427" />
      <trkpt lat="45.4372172" lon="9.1915708" />
      <trkpt lat="45.4372152" lon="9.1914949" />
      <trkpt lat="45.4372143" lon="9.1914260" />
      <trkpt lat="45.4372135" lon="9.1913532" />
      <trkpt lat="45.4372200" lon="9.1908820" />
      <trkpt lat="45.4372186" lon="9.1907606" />
      <trkpt lat="45.4372176" lon="9.1907352" />
      <trkpt lat="45.4372140" lon="9.1906907" />
      <trkpt lat="45.4372075" lon="9.1906435" />
      <trkpt lat="45.4371996" lon="9.1906029" />
      <trkpt lat="45.4371889" lon="9.1905596" />
      <trkpt lat="45.4371637" lon="9.1904729" />
      <trkpt lat="45.4371288" lon="9.1903453" />
      <trkpt lat="45.4371154" lon="9.1902955" />
      <trkpt lat="45.4370811" lon="9.1901586" />
      <trkpt lat="45.4370530" lon="9.1900004" />
      <trkpt lat="45.4370399" lon="9.1898861" />
      <trkpt lat="45.4370367" lon="9.1896685" />
      <trkpt lat="45.4370651" lon="9.1894646" />
      <trkpt lat="45.4370669" lon="9.1894561" />
      <trkpt lat="45.4371014" lon="9.1892964" />
      <trkpt lat="45.4371675" lon="9.1889903" />
      <trkpt lat="45.4372093" lon="9.1888359" />
      <trkpt lat="45.4372213" lon="9.1887810" />
      <trkpt lat="45.4372296" lon="9.1887288" />
      <trkpt lat="45.4372342" lon="9.1886773" />
      <trkpt lat="45.4372378" lon="9.1886192" />
      <trkpt lat="45.4372406" lon="9.1885492" />
      <trkpt lat="45.4372425" lon="9.1884725" />
      <trkpt lat="45.4372466" lon="9.1879641" />
      <trkpt lat="45.4372139" lon="9.1879640" />
      <trkpt lat="45.4372050" lon="9.1879640" />
      <trkpt lat="45.4372057" lon="9.1879196" />
      <trkpt lat="45.4371707" lon="9.1879187" />
      <trkpt lat="45.4371709" lon="9.1879005" />
      <trkpt lat="45.4371714" lon="9.1878410" />
      <trkpt lat="45.4371719" lon="9.1877845" />
      <trkpt lat="45.4371722" lon="9.1877573" />
      <trkpt lat="45.4371729" lon="9.1876816" />
      <trkpt lat="45.4371736" lon="9.1876028" />
      <trkpt lat="45.4371738" lon="9.1875786" />
      <trkpt lat="45.4372018" lon="9.1875705" />
      <trkpt lat="45.4372177" lon="9.1875318" />
      <trkpt lat="45.4372233" lon="9.1871716" />
      <trkpt lat="45.4372270" lon="9.1869283" />
      <trkpt lat="45.4372460" lon="9.1857051" />
      <trkpt lat="45.4372294" lon="9.1856877" />
      <trkpt lat="45.4372298" lon="9.1856680" />
      <trkpt lat="45.4372312" lon="9.1855948" />
      <trkpt lat="45.4372324" lon="9.1855332" />
      <trkpt lat="45.4372326" lon="9.1855222" />
      <trkpt lat="45.4372413" lon="9.1854676" />
      <trkpt lat="45.4372552" lon="9.1843209" />
      <trkpt lat="45.4372605" lon="9.1839132" />
      <trkpt lat="45.4372639" lon="9.1836437" />
      <trkpt lat="45.4372523" lon="9.1835779" />
      <trkpt lat="45.4372520" lon="9.1835697" />
      <trkpt lat="45.4372511" lon="9.1835460" />
      <trkpt lat="45.4372490" lon="9.1834881" />
      <trkpt lat="45.4372484" lon="9.1834712" />
      <trkpt lat="45.4372476" lon="9.1834492" />
      <trkpt lat="45.4372449" lon="9.1833768" />
      <trkpt lat="45.4372444" lon="9.1833618" />
      <trkpt lat="45.4372649" lon="9.1833377" />
      <trkpt lat="45.4372676" lon="9.1831460" />
      <trkpt lat="45.4372729" lon="9.1828321" />
      <trkpt lat="45.4372830" lon="9.1822244" />
      <trkpt lat="45.4372952" lon="9.1809021" />
      <trkpt lat="45.4372888" lon="9.1808867" />
      <trkpt lat="45.4372960" lon="9.1808701" />
      <trkpt lat="45.4372958" lon="9.1807931" />
      <trkpt lat="45.4372964" lon="9.1807570" />
      <trkpt lat="45.4372975" lon="9.1807380" />
      <trkpt lat="45.4372992" lon="9.1806557" />
      <trkpt lat="45.4373163" lon="9.1795751" />
      <trkpt lat="45.4373197" lon="9.1790805" />
      <trkpt lat="45.4373214" lon="9.1788231" />
      <trkpt lat="45.4373243" lon="9.1784227" />
      <trkpt lat="45.4373245" lon="9.1784079" />
      <trkpt lat="45.4373090" lon="9.1783761" />
      <trkpt lat="45.4372866" lon="9.1783733" />
      <trkpt lat="45.4372871" lon="9.1783624" />
      <trkpt lat="45.4372876" lon="9.1783452" />
      <trkpt lat="45.4372886" lon="9.1783258" />
      <trkpt lat="45.4372894" lon="9.1783088" />
      <trkpt lat="45.4372899" lon="9.1782977" />
      <trkpt lat="45.4372907" lon="9.1782805" />
      <trkpt lat="45.4372918" lon="9.1782581" />
      <trkpt lat="45.4372924" lon="9.1782427" />
      <trkpt lat="45.4373077" lon="9.1781793" />
      <trkpt lat="45.4373020" lon="9.1781635" />
      <trkpt lat="45.4373152" lon="9.1781613" />
      <trkpt lat="45.4373277" lon="9.1781520" />
      <trkpt lat="45.4373345" lon="9.1781357" />
      <trkpt lat="45.4373367" lon="9.1781164" />
      <trkpt lat="45.4373375" lon="9.1780888" />
      <trkpt lat="45.4373575" lon="9.1766391" />
      <trkpt lat="45.4373571" lon="9.1766115" />
      <trkpt lat="45.4373547" lon="9.1765834" />
      <trkpt lat="45.4373488" lon="9.1765578" />
      <trkpt lat="45.4373368" lon="9.1765379" />
      <trkpt lat="45.4373443" lon="9.1765202" />
      <trkpt lat="45.4373588" lon="9.1764774" />
      <trkpt lat="45.4373838" lon="9.1763998" />
      <trkpt lat="45.4373827" lon="9.1763808" />
      <trkpt lat="45.4372934" lon="9.1763063" />
      <trkpt lat="45.4372372" lon="9.1762404" />
      <trkpt lat="45.4372413" lon="9.1761057" />
      <trkpt lat="45.4372413" lon="9.1760844" />
      <trkpt lat="45.4371999" lon="9.1760179" />
      <trkpt lat="45.4371679" lon="9.1759525" />
      <trkpt lat="45.4371464" lon="9.1758826" />
      <trkpt lat="45.4371359" lon="9.1758143" />
      <trkpt lat="45.4371316" lon="9.1757360" />
      <trkpt lat="45.4371257" lon="9.1756294" />
      <trkpt lat="45.4371158" lon="9.1754834" />
      <trkpt lat="45.4371882" lon="9.1753782" />
      <trkpt lat="45.4372800" lon="9.1752526" />
      <trkpt lat="45.4373142" lon="9.1752085" />
      <trkpt lat="45.4373556" lon="9.1750454" />
      <trkpt lat="45.4373589" lon="9.1750351" />
      <trkpt lat="45.4374043" lon="9.1750474" />
      <trkpt lat="45.4376792" lon="9.1751160" />
      <trkpt lat="45.4377150" lon="9.1751256" />
      <trkpt lat="45.4378444" lon="9.1751621" />
      <trkpt lat="45.4378450" lon="9.1751343" />
      <trkpt lat="45.4378509" lon="9.1750648" />
      <trkpt lat="45.4378563" lon="9.1750005" />
      <trkpt lat="45.4378586" lon="9.1749735" />
      <trkpt lat="45.4378609" lon="9.1749457" />
      <trkpt lat="45.4378663" lon="9.1748814" />
      <trkpt lat="45.4378703" lon="9.1748348" />
      <trkpt lat="45.4378715" lon="9.1748200" />
      <trkpt lat="45.4378278" lon="9.1748100" />
      <trkpt lat="45.4378269" lon="9.1747781" />
      <trkpt lat="45.4378263" lon="9.1747570" />
      <trkpt lat="45.4378243" lon="9.1746820" />
      <trkpt lat="45.4378229" lon="9.1746314" />
      <trkpt lat="45.4377548" lon="9.1746182" />
      <trkpt lat="45.4373607" lon="9.1745228" />
      <trkpt lat="45.4372170" lon="9.1744907" />
      <trkpt lat="45.4372186" lon="9.1744821" />
      <trkpt lat="45.4372207" lon="9.1744626" />
      <trkpt lat="45.4372225" lon="9.1744452" />
      <trkpt lat="45.4372244" lon="9.1744278" />
      <trkpt lat="45.4372281" lon="9.1743948" />
      <trkpt lat="45.4372341" lon="9.1743402" />
      <trkpt lat="45.4372361" lon="9.1743129" />
      <trkpt lat="45.4372436" lon="9.1741640" />
      <trkpt lat="45.4372544" lon="9.1733238" />
      <trkpt lat="45.4372566" lon="9.1732791" />
      <trkpt lat="45.4372666" lon="9.1732247" />
      <trkpt lat="45.4372806" lon="9.1731480" />
      <trkpt lat="45.4372861" lon="9.1730978" />
      <trkpt lat="45.4373166" lon="9.1724842" />
      <trkpt lat="45.4373158" lon="9.1723969" />
      <trkpt lat="45.4373074" lon="9.1723016" />
      <trkpt lat="45.4372909" lon="9.1722121" />
      <trkpt lat="45.4372714" lon="9.1721350" />
      <trkpt lat="45.4372458" lon="9.1720670" />
      <trkpt lat="45.4370957" lon="9.1717175" />
      <trkpt lat="45.4370881" lon="9.1716618" />
      <trkpt lat="45.4370893" lon="9.1715884" />
      <trkpt lat="45.4370881" lon="9.1714968" />
      <trkpt lat="45.4370816" lon="9.1714541" />
      <trkpt lat="45.4370659" lon="9.1714055" />
      <trkpt lat="45.4370690" lon="9.1713671" />
      <trkpt lat="45.4371468" lon="9.1712575" />
      <trkpt lat="45.4371690" lon="9.1712337" />
      <trkpt lat="45.4372050" lon="9.1712174" />
      <trkpt lat="45.4372511" lon="9.1712040" />
      <trkpt lat="45.4373829" lon="9.1711757" />
      <trkpt lat="45.4375455" lon="9.1711161" />
      <trkpt lat="45.4375898" lon="9.1710566" />
      <trkpt lat="45.4376257" lon="9.1710021" />
      <trkpt lat="45.4376693" lon="9.1709409" />
      <trkpt lat="45.4377220" lon="9.1708665" />
      <trkpt lat="45.4377690" lon="9.1707969" />
      <trkpt lat="45.4378459" lon="9.1706219" />
      <trkpt lat="45.4378831" lon="9.1704664" />
      <trkpt lat="45.4379265" lon="9.1705462" />
      <trkpt lat="45.4380195" lon="9.1707122" />
      <trkpt lat="45.4380914" lon="9.1709191" />
      <trkpt lat="45.4381327" lon="9.1710890" />
      <trkpt lat="45.4381481" lon="9.1711522" />
      <trkpt lat="45.4381843" lon="9.1712179" />
      <trkpt lat="45.4386739" lon="9.1715358" />
      <trkpt lat="45.4391923" lon="9.1718928" />
      <trkpt lat="45.4395188" lon="9.1721285" />
      <trkpt lat="45.4396808" lon="9.1722026" />
      <trkpt lat="45.4400647" lon="9.1723260" />
      <trkpt lat="45.4403912" lon="9.1723904" />
      <trkpt lat="45.4406491" lon="9.1724125" />
      <trkpt lat="45.4406688" lon="9.1724105" />
      <trkpt lat="45.4406872" lon="9.1723797" />
      <trkpt lat="45.4406966" lon="9.1723828" />
      <trkpt lat="45.4407361" lon="9.1723841" />
      <trkpt lat="45.4407365" lon="9.1723635" />
      <trkpt lat="45.4407371" lon="9.1723214" />
      <trkpt lat="45.4407407" lon="9.1720690" />
      <trkpt lat="45.4407467" lon="9.1716478" />
      <trkpt lat="45.4408081" lon="9.1716495" />
      <trkpt lat="45.4408019" lon="9.1723216" />
      <trkpt lat="45.4410086" lon="9.1723341" />
      <trkpt lat="45.4410223" lon="9.1723973" />
      <trkpt lat="45.4410575" lon="9.1723987" />
      <trkpt lat="45.4417740" lon="9.1724293" />
      <trkpt lat="45.4418606" lon="9.1724306" />
      <trkpt lat="45.4418427" lon="9.1724407" />
      <trkpt lat="45.4418880" lon="9.1724457" />
      <trkpt lat="45.4419494" lon="9.1724524" />
      <trkpt lat="45.4419650" lon="9.1724541" />
      <trkpt lat="45.4420154" lon="9.1724595" />
      <trkpt lat="45.4427314" lon="9.1725071" />
      <trkpt lat="45.4427498" lon="9.1724923" />
      <trkpt lat="45.4427706" lon="9.1724940" />
      <trkpt lat="45.4428286" lon="9.1724986" />
      <trkpt lat="45.4428843" lon="9.1725030" />
      <trkpt lat="45.4429017" lon="9.1725044" />
      <trkpt lat="45.4429262" lon="9.1725366" />
      <trkpt lat="45.4431061" lon="9.1725530" />
      <trkpt lat="45.4431934" lon="9.1725178" />
      <trkpt lat="45.4432828" lon="9.1725233" />
      <trkpt lat="45.4434338" lon="9.1725326" />
      <trkpt lat="45.4435540" lon="9.1723796" />
      <trkpt lat="45.4436594" lon="9.1722456" />
      <trkpt lat="45.4436708" lon="9.1722234" />
      <trkpt lat="45.4436907" lon="9.1722257" />
      <trkpt lat="45.4437578" lon="9.1722336" />
      <trkpt lat="45.4437976" lon="9.1722383" />
      <trkpt lat="45.4438166" lon="9.1722405" />
      <trkpt lat="45.4438242" lon="9.1722414" />
      <trkpt lat="45.4438518" lon="9.1722447" />
      <trkpt lat="45.4439071" lon="9.1722512" />
      <trkpt lat="45.4439201" lon="9.1722527" />
      <trkpt lat="45.4439306" lon="9.1722539" />
      <trkpt lat="45.4439591" lon="9.1722573" />
      <trkpt lat="45.4440275" lon="9.1722650" />
      <trkpt lat="45.4440230" lon="9.1721970" />
      <trkpt lat="45.4440272" lon="9.1721710" />
      <trkpt lat="45.4440360" lon="9.1721164" />
      <trkpt lat="45.4440997" lon="9.1721914" />
      <trkpt lat="45.4441332" lon="9.1722396" />
      <trkpt lat="45.4441589" lon="9.1721548" />
      <trkpt lat="45.4441985" lon="9.1722051" />
      <trkpt lat="45.4442948" lon="9.1720823" />
      <trkpt lat="45.4448631" lon="9.1713462" />
      <trkpt lat="45.4449770" lon="9.1711944" />
      <trkpt lat="45.4452572" lon="9.1708332" />
      <trkpt lat="45.4455430" lon="9.1704647" />
      <trkpt lat="45.4460090" lon="9.1698638" />
      <trkpt lat="45.4460709" lon="9.1697844" />
      <trkpt lat="45.4461242" lon="9.1698062" />
      <trkpt lat="45.4462427" lon="9.1698547" />
      <trkpt lat="45.4464189" lon="9.1698894" />
      <trkpt lat="45.4466009" lon="9.1699184" />
      <trkpt lat="45.4466782" lon="9.1699384" />
      <trkpt lat="45.4467439" lon="9.1699637" />
      <trkpt lat="45.4467667" lon="9.1699725" />
      <trkpt lat="45.4469086" lon="9.1700366" />
      <trkpt lat="45.4470767" lon="9.1701307" />
      <trkpt lat="45.4472117" lon="9.1702273" />
      <trkpt lat="45.4473608" lon="9.1703631" />
      <trkpt lat="45.4474580" lon="9.1704673" />
      <trkpt lat="45.4475384" lon="9.1705723" />
      <trkpt lat="45.4476408" lon="9.1707137" />
      <trkpt lat="45.4477139" lon="9.1708358" />
      <trkpt lat="45.4477723" lon="9.1709519" />
      <trkpt lat="45.4478225" lon="9.1710680" />
      <trkpt lat="45.4478768" lon="9.1712064" />
      <trkpt lat="45.4479196" lon="9.1713196" />
      <trkpt lat="45.4479593" lon="9.1714498" />
      <trkpt lat="45.4479817" lon="9.1715458" />
      <trkpt lat="45.4480141" lon="9.1717044" />
      <trkpt lat="45.4480355" lon="9.1718190" />
      <trkpt lat="45.4480528" lon="9.1719269" />
      <trkpt lat="45.4480658" lon="9.1720423" />
      <trkpt lat="45.4480759" lon="9.1721687" />
      <trkpt lat="45.4480900" lon="9.1722958" />
      <trkpt lat="45.4480937" lon="9.1723621" />
      <trkpt lat="45.4480953" lon="9.1723912" />
      <trkpt lat="45.4480986" lon="9.1724814" />
      <trkpt lat="45.4480966" lon="9.1725501" />
      <trkpt lat="45.4475794" lon="9.1725210" />
      <trkpt lat="45.4473858" lon="9.1725101" />
      <trkpt lat="45.4473793" lon="9.1727660" />
      <trkpt lat="45.4473780" lon="9.1728165" />
      <trkpt lat="45.4473779" lon="9.1728319" />
      <trkpt lat="45.4473778" lon="9.1728424" />
      <trkpt lat="45.4474435" lon="9.1728456" />
      <trkpt lat="45.4474780" lon="9.1728474" />
      <trkpt lat="45.4476960" lon="9.1728598" />
      <trkpt lat="45.4476956" lon="9.1728853" />
      <trkpt lat="45.4476945" lon="9.1729555" />
      <trkpt lat="45.4480536" lon="9.1729812" />
      <trkpt lat="45.4485877" lon="9.1730028" />
      <trkpt lat="45.4487045" lon="9.1730101" />
      <trkpt lat="45.4488087" lon="9.1730141" />
      <trkpt lat="45.4488467" lon="9.1730155" />
      <trkpt lat="45.4488545" lon="9.1729502" />
      <trkpt lat="45.4488571" lon="9.1729232" />
      <trkpt lat="45.4489739" lon="9.1729296" />
      <trkpt lat="45.4493299" lon="9.1729490" />
      <trkpt lat="45.4495225" lon="9.1729602" />
      <trkpt lat="45.4495788" lon="9.1729577" />
      <trkpt lat="45.4496020" lon="9.1729491" />
      <trkpt lat="45.4496291" lon="9.1729254" />
      <trkpt lat="45.4496541" lon="9.1728875" />
      <trkpt lat="45.4496660" lon="9.1728555" />
      <trkpt lat="45.4496742" lon="9.1728248" />
      <trkpt lat="45.4496820" lon="9.1727780" />
      <trkpt lat="45.4496888" lon="9.1725097" />
      <trkpt lat="45.4496773" lon="9.1724708" />
      <trkpt lat="45.4496171" lon="9.1723025" />
      <trkpt lat="45.4496239" lon="9.1722849" />
      <trkpt lat="45.4496843" lon="9.1722355" />
      <trkpt lat="45.4497355" lon="9.1721936" />
      <trkpt lat="45.4497617" lon="9.1721722" />
      <trkpt lat="45.4497758" lon="9.1722013" />
      <trkpt lat="45.4500205" lon="9.1721978" />
      <trkpt lat="45.4500341" lon="9.1721852" />
      <trkpt lat="45.4504357" lon="9.1717950" />
      <trkpt lat="45.4509014" lon="9.1713425" />
      <trkpt lat="45.4508922" lon="9.1712989" />
      <trkpt lat="45.4509220" lon="9.1712746" />
      <trkpt lat="45.4509559" lon="9.1712469" />
      <trkpt lat="45.4509618" lon="9.1712727" />
      <trkpt lat="45.4509735" lon="9.1713274" />
      <trkpt lat="45.4509781" lon="9.1713491" />
      <trkpt lat="45.4511057" lon="9.1712264" />
      <trkpt lat="45.4511099" lon="9.1712478" />
      <trkpt lat="45.4511175" lon="9.1712847" />
      <trkpt lat="45.4511375" lon="9.1712736" />
      <trkpt lat="45.4511561" lon="9.1712552" />
      <trkpt lat="45.4523151" lon="9.1701344" />
      <trkpt lat="45.4523231" lon="9.1701259" />
      <trkpt lat="45.4523728" lon="9.1700764" />
      <trkpt lat="45.4524017" lon="9.1700615" />
      <trkpt lat="45.4524439" lon="9.1700703" />
      <trkpt lat="45.4525023" lon="9.1700941" />
      <trkpt lat="45.4525183" lon="9.1700991" />
      <trkpt lat="45.4525254" lon="9.1700655" />
      <trkpt lat="45.4527011" lon="9.1701127" />
      <trkpt lat="45.4527053" lon="9.1700851" />
      <trkpt lat="45.4527088" lon="9.1700645" />
      <trkpt lat="45.4527121" lon="9.1700449" />
      <trkpt lat="45.4528166" lon="9.1700810" />
      <trkpt lat="45.4529505" lon="9.1701298" />
      <trkpt lat="45.4530089" lon="9.1701517" />
      <trkpt lat="45.4530754" lon="9.1701762" />
      <trkpt lat="45.4531013" lon="9.1701869" />
      <trkpt lat="45.4531457" lon="9.1702026" />
      <trkpt lat="45.4531430" lon="9.1702241" />
      <trkpt lat="45.4531364" lon="9.1702752" />
      <trkpt lat="45.4531336" lon="9.1702971" />
      <trkpt lat="45.4531459" lon="9.1703286" />
      <trkpt lat="45.4531629" lon="9.1703347" />
      <trkpt lat="45.4532008" lon="9.1703485" />
      <trkpt lat="45.4532063" lon="9.1703504" />
      <trkpt lat="45.4532094" lon="9.1703516" />
      <trkpt lat="45.4532596" lon="9.1703697" />
      <trkpt lat="45.4532983" lon="9.1703837" />
      <trkpt lat="45.4533259" lon="9.1703937" />
      <trkpt lat="45.4533354" lon="9.1703971" />
      <trkpt lat="45.4533386" lon="9.1703931" />
      <trkpt lat="45.4533692" lon="9.1703782" />
      <trkpt lat="45.4533948" lon="9.1703787" />
      <trkpt lat="45.4537095" lon="9.1705153" />
      <trkpt lat="45.4537256" lon="9.1705285" />
      <trkpt lat="45.4543599" lon="9.1714925" />
      <trkpt lat="45.4543623" lon="9.1714969" />
      <trkpt lat="45.4543789" lon="9.1715283" />
      <trkpt lat="45.4543930" lon="9.1715548" />
      <trkpt lat="45.4543961" lon="9.1715607" />
      <trkpt lat="45.4544224" lon="9.1715634" />
      <trkpt lat="45.4549296" lon="9.1723203" />
      <trkpt lat="45.4550091" lon="9.1724395" />
      <trkpt lat="45.4550206" lon="9.1724623" />
      <trkpt lat="45.4550248" lon="9.1725015" />
      <trkpt lat="45.4550305" lon="9.1725149" />
      <trkpt lat="45.4550593" lon="9.1725613" />
      <trkpt lat="45.4550646" lon="9.1725692" />
      <trkpt lat="45.4550975" lon="9.1726187" />
      <trkpt lat="45.4551029" lon="9.1726262" />
      <trkpt lat="45.4551365" lon="9.1726264" />
      <trkpt lat="45.4554143" lon="9.1730294" />
      <trkpt lat="45.4554355" lon="9.1730628" />
      <trkpt lat="45.4554664" lon="9.1731117" />
      <trkpt lat="45.4554960" lon="9.1731579" />
      <trkpt lat="45.4555155" lon="9.1731885" />
      <trkpt lat="45.4556383" lon="9.1733910" />
      <trkpt lat="45.4556465" lon="9.1734213" />
      <trkpt lat="45.4556562" lon="9.1734703" />
      <trkpt lat="45.4556709" lon="9.1734764" />
      <trkpt lat="45.4557064" lon="9.1735302" />
      <trkpt lat="45.4557421" lon="9.1735844" />
      <trkpt lat="45.4557714" lon="9.1736287" />
      <trkpt lat="45.4558101" lon="9.1736872" />
      <trkpt lat="45.4558418" lon="9.1737354" />
      <trkpt lat="45.4558589" lon="9.1737612" />
      <trkpt lat="45.4558655" lon="9.1737521" />
      <trkpt lat="45.4558745" lon="9.1737657" />
      <trkpt lat="45.4559441" lon="9.1738699" />
      <trkpt lat="45.4559495" lon="9.1738782" />
      <trkpt lat="45.4559640" lon="9.1739003" />
      <trkpt lat="45.4559884" lon="9.1739375" />
      <trkpt lat="45.4559944" lon="9.1739466" />
      <trkpt lat="45.4560211" lon="9.1739101" />
      <trkpt lat="45.4564070" lon="9.1744855" />
      <trkpt lat="45.4564078" lon="9.1745107" />
      <trkpt lat="45.4560010" lon="9.1750968" />
      <trkpt lat="45.4560120" lon="9.1751118" />
      <trkpt lat="45.4560238" lon="9.1751282" />
      <trkpt lat="45.4560357" lon="9.1751450" />
      <trkpt lat="45.4560431" lon="9.1751555" />
      <trkpt lat="45.4560403" lon="9.1751593" />
      <trkpt lat="45.4560492" lon="9.1752094" />
      <trkpt lat="45.4567004" lon="9.1761671" />
      <trkpt lat="45.4567201" lon="9.1761659" />
      <trkpt lat="45.4567325" lon="9.1761821" />
      <trkpt lat="45.4567489" lon="9.1762051" />
      <trkpt lat="45.4567759" lon="9.1762430" />
      <trkpt lat="45.4567800" lon="9.1762488" />
      <trkpt lat="45.4567739" lon="9.1762780" />
      <trkpt lat="45.4573274" lon="9.1770646" />
      <trkpt lat="45.4577222" lon="9.1773449" />
      <trkpt lat="45.4577574" lon="9.1773631" />
      <trkpt lat="45.4577820" lon="9.1773536" />
      <trkpt lat="45.4578022" lon="9.1773730" />
      <trkpt lat="45.4578097" lon="9.1773790" />
      <trkpt lat="45.4577900" lon="9.1774058" />
      <trkpt lat="45.4577670" lon="9.1774370" />
      <trkpt lat="45.4576496" lon="9.1776059" />
      <trkpt lat="45.4577060" lon="9.1776393" />
      <trkpt lat="45.4577226" lon="9.1776179" />
      <trkpt lat="45.4577390" lon="9.1775968" />
      <trkpt lat="45.4578039" lon="9.1775130" />
      <trkpt lat="45.4578254" lon="9.1774853" />
      <trkpt lat="45.4583900" lon="9.1778885" />
      <trkpt lat="45.4585647" lon="9.1780185" />
      <trkpt lat="45.4586278" lon="9.1780729" />
      <trkpt lat="45.4586988" lon="9.1779189" />
      <trkpt lat="45.4587295" lon="9.1779623" />
      <trkpt lat="45.4587527" lon="9.1779939" />
      <trkpt lat="45.4587621" lon="9.1780068" />
      <trkpt lat="45.4587673" lon="9.1780147" />
      <trkpt lat="45.4588047" lon="9.1780056" />
      <trkpt lat="45.4589191" lon="9.1781496" />
      <trkpt lat="45.4589273" lon="9.1781592" />
      <trkpt lat="45.4589294" lon="9.1781617" />
      <trkpt lat="45.4589427" lon="9.1781769" />
      <trkpt lat="45.4589504" lon="9.1781847" />
      <trkpt lat="45.4589576" lon="9.1781815" />
      <trkpt lat="45.4590028" lon="9.1782236" />
      <trkpt lat="45.4590045" lon="9.1782307" />
      <trkpt lat="45.4589955" lon="9.1782766" />
      <trkpt lat="45.4590049" lon="9.1782970" />
      <trkpt lat="45.4590175" lon="9.1783242" />
      <trkpt lat="45.4589948" lon="9.1783677" />
      <trkpt lat="45.4589256" lon="9.1787179" />
      <trkpt lat="45.4589107" lon="9.1787939" />
      <trkpt lat="45.4588787" lon="9.1791690" />
      <trkpt lat="45.4588877" lon="9.1793700" />
      <trkpt lat="45.4588923" lon="9.1794722" />
      <trkpt lat="45.4588971" lon="9.1795789" />
      <trkpt lat="45.4588881" lon="9.1798963" />
      <trkpt lat="45.4588945" lon="9.1800322" />
      <trkpt lat="45.4590052" lon="9.1806521" />
      <trkpt lat="45.4590138" lon="9.1807281" />
      <trkpt lat="45.4590298" lon="9.1810627" />
      <trkpt lat="45.4590293" lon="9.1811077" />
      <trkpt lat="45.4590290" lon="9.1811286" />
      <trkpt lat="45.4590999" lon="9.1811313" />
      <trkpt lat="45.4590998" lon="9.1811442" />
      <trkpt lat="45.4590991" lon="9.1812033" />
      <trkpt lat="45.4590965" lon="9.1812579" />
      <trkpt lat="45.4591282" lon="9.1812635" />
      <trkpt lat="45.4591318" lon="9.1812641" />
      <trkpt lat="45.4591205" lon="9.1814035" />
      <trkpt lat="45.4590852" lon="9.1818414" />
      <trkpt lat="45.4590950" lon="9.1818883" />
      <trkpt lat="45.4591151" lon="9.1819171" />
      <trkpt lat="45.4591346" lon="9.1819295" />
      <trkpt lat="45.4591872" lon="9.1819361" />
      <trkpt lat="45.4598810" lon="9.1819177" />
      <trkpt lat="45.4600910" lon="9.1814254" />
      <trkpt lat="45.4601047" lon="9.1814372" />
      <trkpt lat="45.4601284" lon="9.1814575" />
      <trkpt lat="45.4601615" lon="9.1814860" />
      <trkpt lat="45.4601665" lon="9.1814903" />
      <trkpt lat="45.4602824" lon="9.1815919" />
      <trkpt lat="45.4603491" lon="9.1816762" />
      <trkpt lat="45.4603833" lon="9.1817277" />
      <trkpt lat="45.4603904" lon="9.1817384" />
      <trkpt lat="45.4604039" lon="9.1817643" />
      <trkpt lat="45.4604325" lon="9.1818192" />
      <trkpt lat="45.4604588" lon="9.1818903" />
      <trkpt lat="45.4605049" lon="9.1820152" />
      <trkpt lat="45.4605374" lon="9.1822301" />
      <trkpt lat="45.4605689" lon="9.1824442" />
      <trkpt lat="45.4606022" lon="9.1824334" />
      <trkpt lat="45.4606243" lon="9.1824267" />
      <trkpt lat="45.4606417" lon="9.1824215" />
      <trkpt lat="45.4606585" lon="9.1824164" />
      <trkpt lat="45.4606904" lon="9.1824068" />
      <trkpt lat="45.4607157" lon="9.1823991" />
      <trkpt lat="45.4607346" lon="9.1825571" />
      <trkpt lat="45.4607643" lon="9.1829277" />
      <trkpt lat="45.4607832" lon="9.1829873" />
      <trkpt lat="45.4608020" lon="9.1830336" />
      <trkpt lat="45.4609184" lon="9.1831733" />
      <trkpt lat="45.4610172" lon="9.1832795" />
      <trkpt lat="45.4611116" lon="9.1833854" />
      <trkpt lat="45.4611214" lon="9.1834044" />
      <trkpt lat="45.4611147" lon="9.1834132" />
      <trkpt lat="45.4612378" lon="9.1835308" />
      <trkpt lat="45.4613157" lon="9.1836004" />
      <trkpt lat="45.4614457" lon="9.1837174" />
      <trkpt lat="45.4616063" lon="9.1838949" />
      <trkpt lat="45.4619637" lon="9.1842827" />
      <trkpt lat="45.4619582" lon="9.1842920" />
      <trkpt lat="45.4619519" lon="9.1843054" />
      <trkpt lat="45.4619608" lon="9.1843238" />
      <trkpt lat="45.4619615" lon="9.1843443" />
      <trkpt lat="45.4619214" lon="9.1844190" />
      <trkpt lat="45.4617768" lon="9.1846661" />
      <trkpt lat="45.4616723" lon="9.1848619" />
      <trkpt lat="45.4616238" lon="9.1850099" />
      <trkpt lat="45.4615697" lon="9.1851826" />
      <trkpt lat="45.4615332" lon="9.1852993" />
      <trkpt lat="45.4615180" lon="9.1853152" />
      <trkpt lat="45.4615012" lon="9.1853209" />
      <trkpt lat="45.4615063" lon="9.1853274" />
      <trkpt lat="45.4615344" lon="9.1853633" />
      <trkpt lat="45.4615544" lon="9.1853887" />
      <trkpt lat="45.4615666" lon="9.1854016" />
      <trkpt lat="45.4615681" lon="9.1854239" />
      <trkpt lat="45.4615726" lon="9.1854527" />
      <trkpt lat="45.4615798" lon="9.1854745" />
      <trkpt lat="45.4616168" lon="9.1855282" />
      <trkpt lat="45.4617310" lon="9.1856796" />
      <trkpt lat="45.4617923" lon="9.1857612" />
      <trkpt lat="45.4618047" lon="9.1857788" />
      <trkpt lat="45.4618124" lon="9.1857896" />
      <trkpt lat="45.4620003" lon="9.1860531" />
      <trkpt lat="45.4621998" lon="9.1862953" />
      <trkpt lat="45.4625728" lon="9.1867508" />
      <trkpt lat="45.4625569" lon="9.1867749" />
      <trkpt lat="45.4625400" lon="9.1868004" />
      <trkpt lat="45.4625300" lon="9.1868155" />
      <trkpt lat="45.4625203" lon="9.1868303" />
      <trkpt lat="45.4625027" lon="9.1868568" />
      <trkpt lat="45.4624978" lon="9.1868642" />
      <trkpt lat="45.4625118" lon="9.1868800" />
      <trkpt lat="45.4625170" lon="9.1868867" />
      <trkpt lat="45.4625385" lon="9.1869146" />
      <trkpt lat="45.4625557" lon="9.1869368" />
      <trkpt lat="45.4625815" lon="9.1869703" />
      <trkpt lat="45.4625165" lon="9.1869724" />
      <trkpt lat="45.4623698" lon="9.1871741" />
      <trkpt lat="45.4623633" lon="9.1872663" />
      <trkpt lat="45.4626563" lon="9.1880668" />
      <trkpt lat="45.4626709" lon="9.1881100" />
      <trkpt lat="45.4627054" lon="9.1882123" />
      <trkpt lat="45.4627756" lon="9.1884203" />
      <trkpt lat="45.4628388" lon="9.1884389" />
      <trkpt lat="45.4628391" lon="9.1884746" />
      <trkpt lat="45.4628393" lon="9.1884922" />
      <trkpt lat="45.4628394" lon="9.1885131" />
      <trkpt lat="45.4628780" lon="9.1885136" />
      <trkpt lat="45.4632051" lon="9.1885178" />
      <trkpt lat="45.4632950" lon="9.1885189" />
      <trkpt lat="45.4635267" lon="9.1885191" />
      <trkpt lat="45.4635790" lon="9.1885192" />
      <trkpt lat="45.4635843" lon="9.1885356" />
      <trkpt lat="45.4635933" lon="9.1885635" />
      <trkpt lat="45.4635982" lon="9.1885736" />
      <trkpt lat="45.4636369" lon="9.1885741" />
      <trkpt lat="45.4636712" lon="9.1885745" />
      <trkpt lat="45.4636713" lon="9.1885837" />
      <trkpt lat="45.4636714" lon="9.1886805" />
      <trkpt lat="45.4636706" lon="9.1887812" />
      <trkpt lat="45.4636880" lon="9.1887996" />
      <trkpt lat="45.4636880" lon="9.1888097" />
      <trkpt lat="45.4636879" lon="9.1888363" />
      <trkpt lat="45.4637344" lon="9.1888372" />
      <trkpt lat="45.4637338" lon="9.1888841" />
      <trkpt lat="45.4637335" lon="9.1889066" />
      <trkpt lat="45.4637332" lon="9.1889265" />
      <trkpt lat="45.4637329" lon="9.1889492" />
      <trkpt lat="45.4637319" lon="9.1890225" />
      <trkpt lat="45.4637982" lon="9.1890213" />
      <trkpt lat="45.4637998" lon="9.1889533" />
      <trkpt lat="45.4638000" lon="9.1889344" />
      <trkpt lat="45.4638002" lon="9.1889146" />
      <trkpt lat="45.4638167" lon="9.1889146" />
      <trkpt lat="45.4640993" lon="9.1889147" />
      <trkpt lat="45.4641127" lon="9.1889147" />
      <trkpt lat="45.4641126" lon="9.1889477" />
      <trkpt lat="45.4641115" lon="9.1890703" />
      <trkpt lat="45.4641046" lon="9.1895113" />
      <trkpt lat="45.4641536" lon="9.1896431" />
      <trkpt lat="45.4643695" lon="9.1897716" />
    </trkseg>
  </trk>
</gpx>
