<?xml version="1.0" encoding="UTF-8"?>
<gpx xmlns="http://www.topografix.com/GPX/1/1" version="1.1" creator="ShapeRoute route-engine">
  <metadata>
    <name>donut 10 km · 2026-10-03</name>
    <author>
      <name>ShapeRoute route-engine</name>
    </author>
    <copyright author="OpenStreetMap contributors">
      <license>https://opendatacommons.org/licenses/odbl/1-0/</license>
    </copyright>
    <link href="https://www.openstreetmap.org/copyright">
      <text>© OpenStreetMap contributors</text>
    </link>
    <time>2026-10-03T20:06:11Z</time>
  </metadata>
  <wpt lat="46.0668711" lon="11.1210492">
    <name>Pause</name>
  </wpt>
  <wpt lat="46.0627427" lon="11.1228631">
    <name>Resume</name>
  </wpt>
  <trk>
    <name>donut 10 km · 2026-10-03</name>
    <trkseg>
      <trkpt lat="46.0668711" lon="11.1210492" />
      <trkpt lat="46.0667705" lon="11.1210629" />
      <trkpt lat="46.0667526" lon="11.1210542" />
      <trkpt lat="46.0667024" lon="11.1213629" />
      <trkpt lat="46.0666701" lon="11.1215352" />
      <trkpt lat="46.0666789" lon="11.1217092" />
      <trkpt lat="46.0667274" lon="11.1218448" />
      <trkpt lat="46.0667304" lon="11.1218751" />
      <trkpt lat="46.0667697" lon="11.1219637" />
      <trkpt lat="46.0668675" lon="11.1221842" />
      <trkpt lat="46.0668704" lon="11.1222043" />
      <trkpt lat="46.0668726" lon="11.1222251" />
      <trkpt lat="46.0667963" lon="11.1222541" />
      <trkpt lat="46.0667787" lon="11.1222601" />
      <trkpt lat="46.0667357" lon="11.1222747" />
      <trkpt lat="46.0667414" lon="11.1223091" />
      <trkpt lat="46.0667532" lon="11.1223909" />
      <trkpt lat="46.0667715" lon="11.1225101" />
      <trkpt lat="46.0667729" lon="11.1225194" />
      <trkpt lat="46.0667810" lon="11.1225726" />
      <trkpt lat="46.0668548" lon="11.1230552" />
      <trkpt lat="46.0668872" lon="11.1232848" />
      <trkpt lat="46.0668905" lon="11.1233334" />
      <trkpt lat="46.0668935" lon="11.1233766" />
      <trkpt lat="46.0669433" lon="11.1237737" />
      <trkpt lat="46.0669933" lon="11.1241724" />
      <trkpt lat="46.0669974" lon="11.1242205" />
      <trkpt lat="46.0670012" lon="11.1242659" />
      <trkpt lat="46.0670305" lon="11.1244447" />
      <trkpt lat="46.0670340" lon="11.1244675" />
      <trkpt lat="46.0670364" lon="11.1244833" />
      <trkpt lat="46.0670655" lon="11.1246097" />
      <trkpt lat="46.0671157" lon="11.1249286" />
      <trkpt lat="46.0671361" lon="11.1251006" />
      <trkpt lat="46.0671376" lon="11.1251295" />
      <trkpt lat="46.0671402" lon="11.1251507" />
      <trkpt lat="46.0671686" lon="11.1253767" />
      <trkpt lat="46.0671801" lon="11.1253736" />
      <trkpt lat="46.0671955" lon="11.1255186" />
      <trkpt lat="46.0672169" lon="11.1256572" />
      <trkpt lat="46.0672654" lon="11.1262921" />
      <trkpt lat="46.0672389" lon="11.1262953" />
      <trkpt lat="46.0671660" lon="11.1262902" />
      <trkpt lat="46.0671498" lon="11.1263455" />
      <trkpt lat="46.0671303" lon="11.1264120" />
      <trkpt lat="46.0671142" lon="11.1264672" />
      <trkpt lat="46.0671094" lon="11.1264834" />
      <trkpt lat="46.0670913" lon="11.1265454" />
      <trkpt lat="46.0671094" lon="11.1265571" />
      <trkpt lat="46.0671428" lon="11.1265958" />
      <trkpt lat="46.0671749" lon="11.1266663" />
      <trkpt lat="46.0672108" lon="11.1267545" />
      <trkpt lat="46.0672267" lon="11.1268322" />
      <trkpt lat="46.0671149" lon="11.1272417" />
      <trkpt lat="46.0671139" lon="11.1273330" />
      <trkpt lat="46.0670167" lon="11.1276981" />
      <trkpt lat="46.0671701" lon="11.1277728" />
      <trkpt lat="46.0671617" lon="11.1278150" />
      <trkpt lat="46.0671509" lon="11.1278684" />
      <trkpt lat="46.0671397" lon="11.1279343" />
      <trkpt lat="46.0670060" lon="11.1286876" />
      <trkpt lat="46.0669053" lon="11.1290700" />
      <trkpt lat="46.0668956" lon="11.1290931" />
      <trkpt lat="46.0668863" lon="11.1291066" />
      <trkpt lat="46.0668740" lon="11.1291156" />
      <trkpt lat="46.0668618" lon="11.1291195" />
      <trkpt lat="46.0668494" lon="11.1291127" />
      <trkpt lat="46.0664625" lon="11.1288956" />
      <trkpt lat="46.0664215" lon="11.1288729" />
      <trkpt lat="46.0663816" lon="11.1288471" />
      <trkpt lat="46.0663544" lon="11.1288314" />
      <trkpt lat="46.0663345" lon="11.1289105" />
      <trkpt lat="46.0663240" lon="11.1289545" />
      <trkpt lat="46.0668188" lon="11.1292183" />
      <trkpt lat="46.0668142" lon="11.1292747" />
      <trkpt lat="46.0667026" lon="11.1295738" />
      <trkpt lat="46.0666394" lon="11.1295965" />
      <trkpt lat="46.0664346" lon="11.1298206" />
      <trkpt lat="46.0662088" lon="11.1302350" />
      <trkpt lat="46.0661606" lon="11.1302929" />
      <trkpt lat="46.0660435" lon="11.1304337" />
      <trkpt lat="46.0659796" lon="11.1305289" />
      <trkpt lat="46.0658513" lon="11.1307203" />
      <trkpt lat="46.0657613" lon="11.1308662" />
      <trkpt lat="46.0656871" lon="11.1310347" />
      <trkpt lat="46.0655740" lon="11.1313366" />
      <trkpt lat="46.0654649" lon="11.1314763" />
      <trkpt lat="46.0654405" lon="11.1315074" />
      <trkpt lat="46.0653469" lon="11.1316538" />
      <trkpt lat="46.0653256" lon="11.1316381" />
      <trkpt lat="46.0649198" lon="11.1314133" />
      <trkpt lat="46.0649009" lon="11.1314028" />
      <trkpt lat="46.0648863" lon="11.1313947" />
      <trkpt lat="46.0648578" lon="11.1313789" />
      <trkpt lat="46.0648424" lon="11.1314525" />
      <trkpt lat="46.0648279" lon="11.1315110" />
      <trkpt lat="46.0647742" lon="11.1314809" />
      <trkpt lat="46.0647559" lon="11.1314715" />
      <trkpt lat="46.0647487" lon="11.1314963" />
      <trkpt lat="46.0647418" lon="11.1315207" />
      <trkpt lat="46.0646660" lon="11.1317358" />
      <trkpt lat="46.0643520" lon="11.1317435" />
      <trkpt lat="46.0643269" lon="11.1317448" />
      <trkpt lat="46.0643034" lon="11.1317448" />
      <trkpt lat="46.0643031" lon="11.1317682" />
      <trkpt lat="46.0643019" lon="11.1318000" />
      <trkpt lat="46.0642915" lon="11.1320885" />
      <trkpt lat="46.0642535" lon="11.1320869" />
      <trkpt lat="46.0642474" lon="11.1324358" />
      <trkpt lat="46.0642098" lon="11.1324359" />
      <trkpt lat="46.0638901" lon="11.1324306" />
      <trkpt lat="46.0638382" lon="11.1324298" />
      <trkpt lat="46.0638626" lon="11.1320031" />
      <trkpt lat="46.0638484" lon="11.1320139" />
      <trkpt lat="46.0637975" lon="11.1320525" />
      <trkpt lat="46.0634693" lon="11.1323461" />
      <trkpt lat="46.0634218" lon="11.1323743" />
      <trkpt lat="46.0633844" lon="11.1324021" />
      <trkpt lat="46.0632685" lon="11.1321426" />
      <trkpt lat="46.0631892" lon="11.1319648" />
      <trkpt lat="46.0631528" lon="11.1318831" />
      <trkpt lat="46.0631450" lon="11.1318657" />
      <trkpt lat="46.0628146" lon="11.1322203" />
      <trkpt lat="46.0627408" lon="11.1322971" />
      <trkpt lat="46.0627329" lon="11.1323233" />
      <trkpt lat="46.0627299" lon="11.1323481" />
      <trkpt lat="46.0627281" lon="11.1323660" />
      <trkpt lat="46.0627296" lon="11.1323774" />
      <trkpt lat="46.0627057" lon="11.1323921" />
      <trkpt lat="46.0626599" lon="11.1324203" />
      <trkpt lat="46.0626157" lon="11.1324476" />
      <trkpt lat="46.0625831" lon="11.1323963" />
      <trkpt lat="46.0625729" lon="11.1324110" />
      <trkpt lat="46.0624260" lon="11.1326255" />
      <trkpt lat="46.0624164" lon="11.1326354" />
      <trkpt lat="46.0624294" lon="11.1326552" />
      <trkpt lat="46.0624117" lon="11.1326803" />
      <trkpt lat="46.0623896" lon="11.1327116" />
      <trkpt lat="46.0623792" lon="11.1327271" />
      <trkpt lat="46.0620378" lon="11.1332189" />
      <trkpt lat="46.0620070" lon="11.1331744" />
      <trkpt lat="46.0619859" lon="11.1331439" />
      <trkpt lat="46.0619225" lon="11.1332358" />
      <trkpt lat="46.0617879" lon="11.1334447" />
      <trkpt lat="46.0617445" lon="11.1334876" />
      <trkpt lat="46.0617163" lon="11.1334998" />
      <trkpt lat="46.0616672" lon="11.1335113" />
      <trkpt lat="46.0615553" lon="11.1335287" />
      <trkpt lat="46.0615120" lon="11.1335260" />
      <trkpt lat="46.0610810" lon="11.1334706" />
      <trkpt lat="46.0608783" lon="11.1334446" />
      <trkpt lat="46.0608304" lon="11.1334383" />
      <trkpt lat="46.0602801" lon="11.1333566" />
      <trkpt lat="46.0602028" lon="11.1333443" />
      <trkpt lat="46.0598231" lon="11.1332845" />
      <trkpt lat="46.0598119" lon="11.1332827" />
      <trkpt lat="46.0597262" lon="11.1332738" />
      <trkpt lat="46.0593573" lon="11.1332318" />
      <trkpt lat="46.0592979" lon="11.1332260" />
      <trkpt lat="46.0587215" lon="11.1331713" />
      <trkpt lat="46.0586413" lon="11.1331554" />
      <trkpt lat="46.0585567" lon="11.1331267" />
      <trkpt lat="46.0584831" lon="11.1331017" />
      <trkpt lat="46.0584007" lon="11.1330709" />
      <trkpt lat="46.0583643" lon="11.1330759" />
      <trkpt lat="46.0580661" lon="11.1329611" />
      <trkpt lat="46.0580345" lon="11.1329213" />
      <trkpt lat="46.0580179" lon="11.1329138" />
      <trkpt lat="46.0580306" lon="11.1328612" />
      <trkpt lat="46.0580103" lon="11.1328510" />
      <trkpt lat="46.0580218" lon="11.1327749" />
      <trkpt lat="46.0580148" lon="11.1327110" />
      <trkpt lat="46.0580074" lon="11.1326629" />
      <trkpt lat="46.0579931" lon="11.1326134" />
      <trkpt lat="46.0579696" lon="11.1325600" />
      <trkpt lat="46.0579443" lon="11.1325262" />
      <trkpt lat="46.0579339" lon="11.1325063" />
      <trkpt lat="46.0579387" lon="11.1324800" />
      <trkpt lat="46.0578858" lon="11.1324502" />
      <trkpt lat="46.0578691" lon="11.1324463" />
      <trkpt lat="46.0578352" lon="11.1324459" />
      <trkpt lat="46.0577184" lon="11.1324885" />
      <trkpt lat="46.0577019" lon="11.1324986" />
      <trkpt lat="46.0576942" lon="11.1324991" />
      <trkpt lat="46.0576211" lon="11.1324279" />
      <trkpt lat="46.0575947" lon="11.1324801" />
      <trkpt lat="46.0572096" lon="11.1321029" />
      <trkpt lat="46.0571429" lon="11.1320305" />
      <trkpt lat="46.0569932" lon="11.1318825" />
      <trkpt lat="46.0569354" lon="11.1318233" />
      <trkpt lat="46.0565823" lon="11.1314557" />
      <trkpt lat="46.0564300" lon="11.1313633" />
      <trkpt lat="46.0564019" lon="11.1313745" />
      <trkpt lat="46.0563756" lon="11.1313687" />
      <trkpt lat="46.0563502" lon="11.1313482" />
      <trkpt lat="46.0563303" lon="11.1313171" />
      <trkpt lat="46.0563139" lon="11.1312807" />
      <trkpt lat="46.0563061" lon="11.1312232" />
      <trkpt lat="46.0563050" lon="11.1311518" />
      <trkpt lat="46.0563086" lon="11.1311052" />
      <trkpt lat="46.0563215" lon="11.1310458" />
      <trkpt lat="46.0563309" lon="11.1310273" />
      <trkpt lat="46.0562418" lon="11.1310576" />
      <trkpt lat="46.0561947" lon="11.1308216" />
      <trkpt lat="46.0560300" lon="11.1299982" />
      <trkpt lat="46.0560350" lon="11.1299454" />
      <trkpt lat="46.0559491" lon="11.1299769" />
      <trkpt lat="46.0557863" lon="11.1300366" />
      <trkpt lat="46.0555640" lon="11.1300973" />
      <trkpt lat="46.0554354" lon="11.1300558" />
      <trkpt lat="46.0553803" lon="11.1300634" />
      <trkpt lat="46.0553440" lon="11.1297240" />
      <trkpt lat="46.0553228" lon="11.1295260" />
      <trkpt lat="46.0551744" lon="11.1295594" />
      <trkpt lat="46.0551791" lon="11.1295037" />
      <trkpt lat="46.0551818" lon="11.1294724" />
      <trkpt lat="46.0551466" lon="11.1294434" />
      <trkpt lat="46.0551368" lon="11.1294284" />
      <trkpt lat="46.0551314" lon="11.1294025" />
      <trkpt lat="46.0551331" lon="11.1293715" />
      <trkpt lat="46.0551431" lon="11.1293436" />
      <trkpt lat="46.0551606" lon="11.1293225" />
      <trkpt lat="46.0551766" lon="11.1293159" />
      <trkpt lat="46.0551961" lon="11.1293223" />
      <trkpt lat="46.0552277" lon="11.1293505" />
      <trkpt lat="46.0552527" lon="11.1293601" />
      <trkpt lat="46.0552780" lon="11.1293564" />
      <trkpt lat="46.0552988" lon="11.1293352" />
      <trkpt lat="46.0553145" lon="11.1293069" />
      <trkpt lat="46.0553554" lon="11.1291999" />
      <trkpt lat="46.0553581" lon="11.1291711" />
      <trkpt lat="46.0557592" lon="11.1289802" />
      <trkpt lat="46.0557410" lon="11.1289072" />
      <trkpt lat="46.0557309" lon="11.1288504" />
      <trkpt lat="46.0554617" lon="11.1289810" />
      <trkpt lat="46.0551324" lon="11.1291484" />
      <trkpt lat="46.0549094" lon="11.1293083" />
      <trkpt lat="46.0547828" lon="11.1293834" />
      <trkpt lat="46.0546451" lon="11.1294410" />
      <trkpt lat="46.0544102" lon="11.1295000" />
      <trkpt lat="46.0539368" lon="11.1296342" />
      <trkpt lat="46.0536130" lon="11.1297105" />
      <trkpt lat="46.0536355" lon="11.1296339" />
      <trkpt lat="46.0536510" lon="11.1295593" />
      <trkpt lat="46.0536578" lon="11.1292597" />
      <trkpt lat="46.0536629" lon="11.1288062" />
      <trkpt lat="46.0536613" lon="11.1279749" />
      <trkpt lat="46.0536595" lon="11.1278565" />
      <trkpt lat="46.0536570" lon="11.1276956" />
      <trkpt lat="46.0536460" lon="11.1269844" />
      <trkpt lat="46.0536457" lon="11.1269449" />
      <trkpt lat="46.0537172" lon="11.1269242" />
      <trkpt lat="46.0537474" lon="11.1269470" />
      <trkpt lat="46.0540892" lon="11.1269346" />
      <trkpt lat="46.0541317" lon="11.1269563" />
      <trkpt lat="46.0541749" lon="11.1269947" />
      <trkpt lat="46.0542058" lon="11.1269895" />
      <trkpt lat="46.0542324" lon="11.1269522" />
      <trkpt lat="46.0542396" lon="11.1269003" />
      <trkpt lat="46.0542274" lon="11.1268391" />
      <trkpt lat="46.0542001" lon="11.1268039" />
      <trkpt lat="46.0541662" lon="11.1268039" />
      <trkpt lat="46.0540640" lon="11.1267790" />
      <trkpt lat="46.0540360" lon="11.1267603" />
      <trkpt lat="46.0537424" lon="11.1267655" />
      <trkpt lat="46.0537164" lon="11.1268029" />
      <trkpt lat="46.0537172" lon="11.1269242" />
      <trkpt lat="46.0536457" lon="11.1269449" />
      <trkpt lat="46.0536451" lon="11.1269076" />
      <trkpt lat="46.0534205" lon="11.1269117" />
      <trkpt lat="46.0534153" lon="11.1268860" />
      <trkpt lat="46.0534136" lon="11.1264015" />
      <trkpt lat="46.0534080" lon="11.1260027" />
      <trkpt lat="46.0534123" lon="11.1259933" />
      <trkpt lat="46.0534211" lon="11.1259879" />
      <trkpt lat="46.0535148" lon="11.1259788" />
      <trkpt lat="46.0535113" lon="11.1259211" />
      <trkpt lat="46.0535075" lon="11.1258472" />
      <trkpt lat="46.0534626" lon="11.1258473" />
      <trkpt lat="46.0534439" lon="11.1258271" />
      <trkpt lat="46.0534303" lon="11.1257847" />
      <trkpt lat="46.0534297" lon="11.1257164" />
      <trkpt lat="46.0534208" lon="11.1246850" />
      <trkpt lat="46.0534120" lon="11.1246520" />
      <trkpt lat="46.0533998" lon="11.1246309" />
      <trkpt lat="46.0533998" lon="11.1245740" />
      <trkpt lat="46.0533999" lon="11.1245206" />
      <trkpt lat="46.0533983" lon="11.1244703" />
      <trkpt lat="46.0533943" lon="11.1243937" />
      <trkpt lat="46.0533908" lon="11.1243541" />
      <trkpt lat="46.0533822" lon="11.1243283" />
      <trkpt lat="46.0533680" lon="11.1242815" />
      <trkpt lat="46.0533439" lon="11.1242500" />
      <trkpt lat="46.0533183" lon="11.1242210" />
      <trkpt lat="46.0532896" lon="11.1242041" />
      <trkpt lat="46.0532591" lon="11.1241967" />
      <trkpt lat="46.0529984" lon="11.1242000" />
      <trkpt lat="46.0529623" lon="11.1242013" />
      <trkpt lat="46.0529639" lon="11.1241144" />
      <trkpt lat="46.0527478" lon="11.1241089" />
      <trkpt lat="46.0527502" lon="11.1238507" />
      <trkpt lat="46.0527650" lon="11.1238287" />
      <trkpt lat="46.0527690" lon="11.1233093" />
      <trkpt lat="46.0527693" lon="11.1232757" />
      <trkpt lat="46.0531645" lon="11.1232767" />
      <trkpt lat="46.0533338" lon="11.1232763" />
      <trkpt lat="46.0537074" lon="11.1232755" />
      <trkpt lat="46.0538132" lon="11.1232609" />
      <trkpt lat="46.0538881" lon="11.1232311" />
      <trkpt lat="46.0539187" lon="11.1231951" />
      <trkpt lat="46.0540198" lon="11.1230010" />
      <trkpt lat="46.0539821" lon="11.1229536" />
      <trkpt lat="46.0539603" lon="11.1229174" />
      <trkpt lat="46.0539236" lon="11.1228860" />
      <trkpt lat="46.0538645" lon="11.1228306" />
      <trkpt lat="46.0538053" lon="11.1227679" />
      <trkpt lat="46.0535712" lon="11.1225220" />
      <trkpt lat="46.0534547" lon="11.1224028" />
      <trkpt lat="46.0533438" lon="11.1222898" />
      <trkpt lat="46.0532505" lon="11.1222005" />
      <trkpt lat="46.0532109" lon="11.1221654" />
      <trkpt lat="46.0530826" lon="11.1220516" />
      <trkpt lat="46.0529475" lon="11.1219335" />
      <trkpt lat="46.0528599" lon="11.1218647" />
      <trkpt lat="46.0527015" lon="11.1217529" />
      <trkpt lat="46.0526452" lon="11.1217322" />
      <trkpt lat="46.0526689" lon="11.1216645" />
      <trkpt lat="46.0526806" lon="11.1216301" />
      <trkpt lat="46.0527616" lon="11.1214065" />
      <trkpt lat="46.0527714" lon="11.1213796" />
      <trkpt lat="46.0527848" lon="11.1213421" />
      <trkpt lat="46.0528103" lon="11.1212554" />
      <trkpt lat="46.0528263" lon="11.1211766" />
      <trkpt lat="46.0528373" lon="11.1210849" />
      <trkpt lat="46.0528388" lon="11.1209198" />
      <trkpt lat="46.0528342" lon="11.1207970" />
      <trkpt lat="46.0528256" lon="11.1205494" />
      <trkpt lat="46.0528156" lon="11.1204424" />
      <trkpt lat="46.0528086" lon="11.1203455" />
      <trkpt lat="46.0527962" lon="11.1202378" />
      <trkpt lat="46.0528122" lon="11.1202332" />
      <trkpt lat="46.0528282" lon="11.1202286" />
      <trkpt lat="46.0528776" lon="11.1207704" />
      <trkpt lat="46.0530980" lon="11.1207509" />
      <trkpt lat="46.0531229" lon="11.1208020" />
      <trkpt lat="46.0531720" lon="11.1208832" />
      <trkpt lat="46.0538773" lon="11.1207384" />
      <trkpt lat="46.0539097" lon="11.1207300" />
      <trkpt lat="46.0538976" lon="11.1206253" />
      <trkpt lat="46.0541256" lon="11.1205645" />
      <trkpt lat="46.0542694" lon="11.1205304" />
      <trkpt lat="46.0544118" lon="11.1204953" />
      <trkpt lat="46.0543898" lon="11.1200730" />
      <trkpt lat="46.0544113" lon="11.1200018" />
      <trkpt lat="46.0543976" lon="11.1198230" />
      <trkpt lat="46.0545191" lon="11.1197988" />
      <trkpt lat="46.0545166" lon="11.1197516" />
      <trkpt lat="46.0545156" lon="11.1197296" />
      <trkpt lat="46.0545113" lon="11.1196652" />
      <trkpt lat="46.0545236" lon="11.1196628" />
      <trkpt lat="46.0545283" lon="11.1197179" />
      <trkpt lat="46.0546014" lon="11.1197089" />
      <trkpt lat="46.0546194" lon="11.1197350" />
      <trkpt lat="46.0546225" lon="11.1197782" />
      <trkpt lat="46.0546484" lon="11.1197731" />
      <trkpt lat="46.0546532" lon="11.1198678" />
      <trkpt lat="46.0546881" lon="11.1198598" />
      <trkpt lat="46.0546997" lon="11.1198566" />
      <trkpt lat="46.0547055" lon="11.1197270" />
      <trkpt lat="46.0547228" lon="11.1195245" />
      <trkpt lat="46.0547648" lon="11.1192248" />
      <trkpt lat="46.0548309" lon="11.1189276" />
      <trkpt lat="46.0548902" lon="11.1187155" />
      <trkpt lat="46.0549986" lon="11.1183959" />
      <trkpt lat="46.0550231" lon="11.1183306" />
      <trkpt lat="46.0550316" lon="11.1182977" />
      <trkpt lat="46.0550571" lon="11.1183023" />
      <trkpt lat="46.0551001" lon="11.1183263" />
      <trkpt lat="46.0551468" lon="11.1183677" />
      <trkpt lat="46.0552771" lon="11.1184276" />
      <trkpt lat="46.0553645" lon="11.1184544" />
      <trkpt lat="46.0554799" lon="11.1184754" />
      <trkpt lat="46.0554826" lon="11.1184206" />
      <trkpt lat="46.0554855" lon="11.1183550" />
      <trkpt lat="46.0555594" lon="11.1183586" />
      <trkpt lat="46.0555779" lon="11.1183563" />
      <trkpt lat="46.0556625" lon="11.1183456" />
      <trkpt lat="46.0557153" lon="11.1183376" />
      <trkpt lat="46.0557671" lon="11.1183289" />
      <trkpt lat="46.0558328" lon="11.1183179" />
      <trkpt lat="46.0559498" lon="11.1182934" />
      <trkpt lat="46.0559790" lon="11.1182872" />
      <trkpt lat="46.0561401" lon="11.1182498" />
      <trkpt lat="46.0563996" lon="11.1181895" />
      <trkpt lat="46.0565642" lon="11.1181488" />
      <trkpt lat="46.0565855" lon="11.1181443" />
      <trkpt lat="46.0566150" lon="11.1181380" />
      <trkpt lat="46.0566635" lon="11.1181278" />
      <trkpt lat="46.0568830" lon="11.1181211" />
      <trkpt lat="46.0569504" lon="11.1181238" />
      <trkpt lat="46.0569877" lon="11.1181278" />
      <trkpt lat="46.0570167" lon="11.1181309" />
      <trkpt lat="46.0570388" lon="11.1181332" />
      <trkpt lat="46.0573208" lon="11.1182222" />
      <trkpt lat="46.0573578" lon="11.1182219" />
      <trkpt lat="46.0573949" lon="11.1182153" />
      <trkpt lat="46.0574264" lon="11.1181914" />
      <trkpt lat="46.0574521" lon="11.1181562" />
      <trkpt lat="46.0574822" lon="11.1180704" />
      <trkpt lat="46.0574928" lon="11.1180134" />
      <trkpt lat="46.0575070" lon="11.1179163" />
      <trkpt lat="46.0575138" lon="11.1178290" />
      <trkpt lat="46.0575070" lon="11.1177555" />
      <trkpt lat="46.0574699" lon="11.1174758" />
      <trkpt lat="46.0574610" lon="11.1174088" />
      <trkpt lat="46.0573161" lon="11.1163155" />
      <trkpt lat="46.0572914" lon="11.1161286" />
      <trkpt lat="46.0572817" lon="11.1160970" />
      <trkpt lat="46.0572519" lon="11.1160740" />
      <trkpt lat="46.0572305" lon="11.1160775" />
      <trkpt lat="46.0569166" lon="11.1161319" />
      <trkpt lat="46.0568895" lon="11.1161353" />
      <trkpt lat="46.0566104" lon="11.1161764" />
      <trkpt lat="46.0562794" lon="11.1162227" />
      <trkpt lat="46.0562003" lon="11.1162376" />
      <trkpt lat="46.0561956" lon="11.1161794" />
      <trkpt lat="46.0569145" lon="11.1160769" />
      <trkpt lat="46.0571742" lon="11.1160341" />
      <trkpt lat="46.0572289" lon="11.1160278" />
      <trkpt lat="46.0572246" lon="11.1159758" />
      <trkpt lat="46.0572450" lon="11.1159689" />
      <trkpt lat="46.0572696" lon="11.1159161" />
      <trkpt lat="46.0571982" lon="11.1153312" />
      <trkpt lat="46.0572360" lon="11.1153223" />
      <trkpt lat="46.0572834" lon="11.1153113" />
      <trkpt lat="46.0572807" lon="11.1152652" />
      <trkpt lat="46.0572862" lon="11.1152365" />
      <trkpt lat="46.0573002" lon="11.1152056" />
      <trkpt lat="46.0573142" lon="11.1151938" />
      <trkpt lat="46.0573628" lon="11.1151863" />
      <trkpt lat="46.0574084" lon="11.1151807" />
      <trkpt lat="46.0574124" lon="11.1152374" />
      <trkpt lat="46.0582241" lon="11.1151208" />
      <trkpt lat="46.0583221" lon="11.1151063" />
      <trkpt lat="46.0583790" lon="11.1150491" />
      <trkpt lat="46.0584373" lon="11.1150024" />
      <trkpt lat="46.0585353" lon="11.1149430" />
      <trkpt lat="46.0587620" lon="11.1149087" />
      <trkpt lat="46.0587594" lon="11.1148608" />
      <trkpt lat="46.0591061" lon="11.1148199" />
      <trkpt lat="46.0591472" lon="11.1148142" />
      <trkpt lat="46.0592891" lon="11.1147921" />
      <trkpt lat="46.0594891" lon="11.1147610" />
      <trkpt lat="46.0596530" lon="11.1147354" />
      <trkpt lat="46.0601466" lon="11.1146140" />
      <trkpt lat="46.0601347" lon="11.1144337" />
      <trkpt lat="46.0601439" lon="11.1144309" />
      <trkpt lat="46.0603586" lon="11.1143677" />
      <trkpt lat="46.0604743" lon="11.1143324" />
      <trkpt lat="46.0606297" lon="11.1142799" />
      <trkpt lat="46.0611176" lon="11.1141009" />
      <trkpt lat="46.0611193" lon="11.1141245" />
      <trkpt lat="46.0611323" lon="11.1143095" />
      <trkpt lat="46.0611443" lon="11.1144779" />
      <trkpt lat="46.0613438" lon="11.1143406" />
      <trkpt lat="46.0616978" lon="11.1140951" />
      <trkpt lat="46.0619410" lon="11.1139061" />
      <trkpt lat="46.0622225" lon="11.1139410" />
      <trkpt lat="46.0622448" lon="11.1139243" />
      <trkpt lat="46.0622454" lon="11.1139330" />
      <trkpt lat="46.0622475" lon="11.1139712" />
      <trkpt lat="46.0622527" lon="11.1140658" />
      <trkpt lat="46.0622541" lon="11.1140921" />
      <trkpt lat="46.0622581" lon="11.1141568" />
      <trkpt lat="46.0622465" lon="11.1142023" />
      <trkpt lat="46.0622458" lon="11.1142389" />
      <trkpt lat="46.0622527" lon="11.1143689" />
      <trkpt lat="46.0622878" lon="11.1148562" />
      <trkpt lat="46.0622932" lon="11.1149361" />
      <trkpt lat="46.0623143" lon="11.1150434" />
      <trkpt lat="46.0623172" lon="11.1150953" />
      <trkpt lat="46.0621866" lon="11.1151140" />
      <trkpt lat="46.0621886" lon="11.1151401" />
      <trkpt lat="46.0621908" lon="11.1151687" />
      <trkpt lat="46.0621926" lon="11.1151918" />
      <trkpt lat="46.0621952" lon="11.1152262" />
      <trkpt lat="46.0623235" lon="11.1152078" />
      <trkpt lat="46.0623258" lon="11.1152459" />
      <trkpt lat="46.0623980" lon="11.1152361" />
      <trkpt lat="46.0624451" lon="11.1152295" />
      <trkpt lat="46.0624384" lon="11.1151279" />
      <trkpt lat="46.0624981" lon="11.1151194" />
      <trkpt lat="46.0627645" lon="11.1150821" />
      <trkpt lat="46.0628314" lon="11.1150730" />
      <trkpt lat="46.0632431" lon="11.1150335" />
      <trkpt lat="46.0634300" lon="11.1150156" />
      <trkpt lat="46.0634328" lon="11.1150619" />
      <trkpt lat="46.0634506" lon="11.1154336" />
      <trkpt lat="46.0634008" lon="11.1155391" />
      <trkpt lat="46.0633640" lon="11.1156171" />
      <trkpt lat="46.0633271" lon="11.1156837" />
      <trkpt lat="46.0632879" lon="11.1156921" />
      <trkpt lat="46.0632900" lon="11.1157231" />
      <trkpt lat="46.0633201" lon="11.1160412" />
      <trkpt lat="46.0633696" lon="11.1167056" />
      <trkpt lat="46.0633950" lon="11.1170509" />
      <trkpt lat="46.0634299" lon="11.1169932" />
      <trkpt lat="46.0635353" lon="11.1168949" />
      <trkpt lat="46.0641805" lon="11.1167941" />
      <trkpt lat="46.0644674" lon="11.1167469" />
      <trkpt lat="46.0645052" lon="11.1167422" />
      <trkpt lat="46.0645336" lon="11.1167401" />
      <trkpt lat="46.0645821" lon="11.1167575" />
      <trkpt lat="46.0648460" lon="11.1166995" />
      <trkpt lat="46.0649438" lon="11.1166932" />
      <trkpt lat="46.0650448" lon="11.1167071" />
      <trkpt lat="46.0651046" lon="11.1172245" />
      <trkpt lat="46.0651532" lon="11.1172758" />
      <trkpt lat="46.0651934" lon="11.1177089" />
      <trkpt lat="46.0652397" lon="11.1176989" />
      <trkpt lat="46.0656754" lon="11.1176028" />
      <trkpt lat="46.0656829" lon="11.1176769" />
      <trkpt lat="46.0656986" lon="11.1178019" />
      <trkpt lat="46.0657136" lon="11.1179214" />
      <trkpt lat="46.0657416" lon="11.1181445" />
      <trkpt lat="46.0662572" lon="11.1180490" />
      <trkpt lat="46.0663323" lon="11.1187328" />
      <trkpt lat="46.0661771" lon="11.1187627" />
      <trkpt lat="46.0661983" lon="11.1189869" />
      <trkpt lat="46.0662010" lon="11.1190100" />
      <trkpt lat="46.0665603" lon="11.1189419" />
      <trkpt lat="46.0665730" lon="11.1190499" />
      <trkpt lat="46.0665858" lon="11.1191592" />
      <trkpt lat="46.0666065" lon="11.1191557" />
      <trkpt lat="46.0666578" lon="11.1196518" />
      <trkpt lat="46.0667099" lon="11.1201551" />
      <trkpt lat="46.0667816" lon="11.1201952" />
      <trkpt lat="46.0668249" lon="11.1206182" />
      <trkpt lat="46.0668711" lon="11.1210492" />
      <trkpt lat="46.0667705" lon="11.1210629" />
      <trkpt lat="46.0667526" lon="11.1210542" />
      <trkpt lat="46.0667024" lon="11.1213629" />
      <trkpt lat="46.0666701" lon="11.1215352" />
      <trkpt lat="46.0666789" lon="11.1217092" />
      <trkpt lat="46.0667274" lon="11.1218448" />
      <trkpt lat="46.0667304" lon="11.1218751" />
      <trkpt lat="46.0667210" lon="11.1219626" />
      <trkpt lat="46.0667229" lon="11.1219913" />
      <trkpt lat="46.0667249" lon="11.1220591" />
      <trkpt lat="46.0667287" lon="11.1221612" />
      <trkpt lat="46.0667350" lon="11.1222603" />
      <trkpt lat="46.0667357" lon="11.1222747" />
      <trkpt lat="46.0667414" lon="11.1223091" />
      <trkpt lat="46.0665753" lon="11.1223823" />
      <trkpt lat="46.0665144" lon="11.1224055" />
      <trkpt lat="46.0663604" lon="11.1225220" />
      <trkpt lat="46.0663306" lon="11.1225479" />
      <trkpt lat="46.0662774" lon="11.1225941" />
      <trkpt lat="46.0662400" lon="11.1226907" />
      <trkpt lat="46.0660796" lon="11.1227720" />
      <trkpt lat="46.0657344" lon="11.1229534" />
      <trkpt lat="46.0655279" lon="11.1230558" />
      <trkpt lat="46.0654001" lon="11.1231014" />
      <trkpt lat="46.0653655" lon="11.1230951" />
      <trkpt lat="46.0652342" lon="11.1231340" />
      <trkpt lat="46.0651994" lon="11.1231586" />
      <trkpt lat="46.0651514" lon="11.1231779" />
      <trkpt lat="46.0651035" lon="11.1231638" />
      <trkpt lat="46.0650668" lon="11.1231370" />
      <trkpt lat="46.0649340" lon="11.1231560" />
      <trkpt lat="46.0648698" lon="11.1231693" />
      <trkpt lat="46.0648390" lon="11.1231757" />
      <trkpt lat="46.0648139" lon="11.1231804" />
      <trkpt lat="46.0648047" lon="11.1231821" />
      <trkpt lat="46.0648067" lon="11.1232069" />
      <trkpt lat="46.0648025" lon="11.1232197" />
      <trkpt lat="46.0647892" lon="11.1232285" />
      <trkpt lat="46.0647165" lon="11.1232431" />
      <trkpt lat="46.0645944" lon="11.1232574" />
      <trkpt lat="46.0645542" lon="11.1232607" />
      <trkpt lat="46.0643963" lon="11.1232760" />
      <trkpt lat="46.0642256" lon="11.1233062" />
      <trkpt lat="46.0639387" lon="11.1233923" />
      <trkpt lat="46.0638742" lon="11.1234404" />
      <trkpt lat="46.0638424" lon="11.1234467" />
      <trkpt lat="46.0636508" lon="11.1234843" />
      <trkpt lat="46.0634689" lon="11.1235186" />
      <trkpt lat="46.0633813" lon="11.1235336" />
      <trkpt lat="46.0633491" lon="11.1235396" />
      <trkpt lat="46.0633083" lon="11.1235472" />
      <trkpt lat="46.0632753" lon="11.1235553" />
      <trkpt lat="46.0632487" lon="11.1235607" />
      <trkpt lat="46.0626879" lon="11.1236900" />
      <trkpt lat="46.0626627" lon="11.1236956" />
      <trkpt lat="46.0625906" lon="11.1229426" />
      <trkpt lat="46.0625860" lon="11.1228942" />
      <trkpt lat="46.0627427" lon="11.1228631" />
      <trkpt lat="46.0625860" lon="11.1228942" />
      <trkpt lat="46.0625906" lon="11.1229426" />
      <trkpt lat="46.0626627" lon="11.1236956" />
      <trkpt lat="46.0626879" lon="11.1236900" />
      <trkpt lat="46.0632487" lon="11.1235607" />
      <trkpt lat="46.0632753" lon="11.1235553" />
      <trkpt lat="46.0633083" lon="11.1235472" />
      <trkpt lat="46.0633491" lon="11.1235396" />
      <trkpt lat="46.0633564" lon="11.1236226" />
      <trkpt lat="46.0633615" lon="11.1236802" />
      <trkpt lat="46.0633715" lon="11.1237939" />
      <trkpt lat="46.0633733" lon="11.1238494" />
      <trkpt lat="46.0633555" lon="11.1241631" />
      <trkpt lat="46.0633537" lon="11.1243526" />
      <trkpt lat="46.0633533" lon="11.1243884" />
      <trkpt lat="46.0633606" lon="11.1244626" />
      <trkpt lat="46.0633695" lon="11.1245514" />
      <trkpt lat="46.0633818" lon="11.1246976" />
      <trkpt lat="46.0633603" lon="11.1247838" />
      <trkpt lat="46.0633371" lon="11.1248642" />
      <trkpt lat="46.0633147" lon="11.1249380" />
      <trkpt lat="46.0632933" lon="11.1250292" />
      <trkpt lat="46.0632458" lon="11.1252229" />
      <trkpt lat="46.0628939" lon="11.1253262" />
      <trkpt lat="46.0627661" lon="11.1253867" />
      <trkpt lat="46.0626657" lon="11.1254516" />
      <trkpt lat="46.0624140" lon="11.1255971" />
      <trkpt lat="46.0623724" lon="11.1256237" />
      <trkpt lat="46.0623814" lon="11.1256601" />
      <trkpt lat="46.0623313" lon="11.1256875" />
      <trkpt lat="46.0622931" lon="11.1257084" />
      <trkpt lat="46.0622980" lon="11.1257316" />
      <trkpt lat="46.0622971" lon="11.1257512" />
      <trkpt lat="46.0622923" lon="11.1257732" />
      <trkpt lat="46.0622829" lon="11.1257975" />
      <trkpt lat="46.0622666" lon="11.1258210" />
      <trkpt lat="46.0622871" lon="11.1258701" />
      <trkpt lat="46.0623026" lon="11.1259092" />
      <trkpt lat="46.0622554" lon="11.1259733" />
      <trkpt lat="46.0617942" lon="11.1264179" />
      <trkpt lat="46.0617632" lon="11.1264475" />
      <trkpt lat="46.0617500" lon="11.1264687" />
      <trkpt lat="46.0617495" lon="11.1264930" />
      <trkpt lat="46.0617249" lon="11.1265160" />
      <trkpt lat="46.0616834" lon="11.1265564" />
      <trkpt lat="46.0616733" lon="11.1265657" />
      <trkpt lat="46.0616394" lon="11.1264998" />
      <trkpt lat="46.0615184" lon="11.1266163" />
      <trkpt lat="46.0607283" lon="11.1273770" />
      <trkpt lat="46.0607006" lon="11.1273165" />
      <trkpt lat="46.0606892" lon="11.1273274" />
      <trkpt lat="46.0606740" lon="11.1273366" />
      <trkpt lat="46.0606587" lon="11.1273413" />
      <trkpt lat="46.0606443" lon="11.1273366" />
      <trkpt lat="46.0606347" lon="11.1273239" />
      <trkpt lat="46.0606122" lon="11.1272765" />
      <trkpt lat="46.0605746" lon="11.1273141" />
      <trkpt lat="46.0605334" lon="11.1273545" />
      <trkpt lat="46.0605133" lon="11.1273340" />
      <trkpt lat="46.0604236" lon="11.1271579" />
      <trkpt lat="46.0602683" lon="11.1268529" />
      <trkpt lat="46.0599350" lon="11.1261987" />
      <trkpt lat="46.0593595" lon="11.1267897" />
      <trkpt lat="46.0592789" lon="11.1268698" />
      <trkpt lat="46.0592607" lon="11.1268313" />
      <trkpt lat="46.0591514" lon="11.1269504" />
      <trkpt lat="46.0591403" lon="11.1269263" />
      <trkpt lat="46.0592411" lon="11.1267921" />
      <trkpt lat="46.0592301" lon="11.1267689" />
      <trkpt lat="46.0590705" lon="11.1269311" />
      <trkpt lat="46.0590605" lon="11.1269530" />
      <trkpt lat="46.0590589" lon="11.1269867" />
      <trkpt lat="46.0590665" lon="11.1270098" />
      <trkpt lat="46.0590567" lon="11.1270202" />
      <trkpt lat="46.0590419" lon="11.1270360" />
      <trkpt lat="46.0590159" lon="11.1269538" />
      <trkpt lat="46.0590016" lon="11.1268623" />
      <trkpt lat="46.0589311" lon="11.1269398" />
      <trkpt lat="46.0588911" lon="11.1268848" />
      <trkpt lat="46.0587747" lon="11.1267065" />
      <trkpt lat="46.0587081" lon="11.1266351" />
      <trkpt lat="46.0586921" lon="11.1266284" />
      <trkpt lat="46.0586813" lon="11.1266261" />
      <trkpt lat="46.0586698" lon="11.1266261" />
      <trkpt lat="46.0586623" lon="11.1266225" />
      <trkpt lat="46.0583284" lon="11.1263150" />
      <trkpt lat="46.0577668" lon="11.1257904" />
      <trkpt lat="46.0578741" lon="11.1255407" />
      <trkpt lat="46.0579003" lon="11.1254811" />
      <trkpt lat="46.0579538" lon="11.1255362" />
      <trkpt lat="46.0579717" lon="11.1254582" />
      <trkpt lat="46.0580007" lon="11.1254332" />
      <trkpt lat="46.0580170" lon="11.1254037" />
      <trkpt lat="46.0583531" lon="11.1246930" />
      <trkpt lat="46.0587443" lon="11.1245194" />
      <trkpt lat="46.0587351" lon="11.1244701" />
      <trkpt lat="46.0587021" lon="11.1243002" />
      <trkpt lat="46.0585714" lon="11.1236272" />
      <trkpt lat="46.0585618" lon="11.1235804" />
      <trkpt lat="46.0585988" lon="11.1235671" />
      <trkpt lat="46.0586192" lon="11.1235598" />
      <trkpt lat="46.0584790" lon="11.1228333" />
      <trkpt lat="46.0584589" lon="11.1228235" />
      <trkpt lat="46.0584424" lon="11.1228044" />
      <trkpt lat="46.0584313" lon="11.1227783" />
      <trkpt lat="46.0584271" lon="11.1227497" />
      <trkpt lat="46.0584296" lon="11.1227208" />
      <trkpt lat="46.0584384" lon="11.1226945" />
      <trkpt lat="46.0584528" lon="11.1226739" />
      <trkpt lat="46.0584710" lon="11.1226610" />
      <trkpt lat="46.0584623" lon="11.1226185" />
      <trkpt lat="46.0584527" lon="11.1225748" />
      <trkpt lat="46.0584341" lon="11.1224777" />
      <trkpt lat="46.0584235" lon="11.1224163" />
      <trkpt lat="46.0584851" lon="11.1223788" />
      <trkpt lat="46.0583258" lon="11.1215660" />
      <trkpt lat="46.0583365" lon="11.1215291" />
      <trkpt lat="46.0583850" lon="11.1215100" />
      <trkpt lat="46.0584154" lon="11.1214980" />
      <trkpt lat="46.0584488" lon="11.1214849" />
      <trkpt lat="46.0585142" lon="11.1214592" />
      <trkpt lat="46.0585316" lon="11.1214524" />
      <trkpt lat="46.0585941" lon="11.1214278" />
      <trkpt lat="46.0586316" lon="11.1214131" />
      <trkpt lat="46.0586566" lon="11.1214033" />
      <trkpt lat="46.0587190" lon="11.1213787" />
      <trkpt lat="46.0587516" lon="11.1213659" />
      <trkpt lat="46.0587815" lon="11.1213542" />
      <trkpt lat="46.0588439" lon="11.1213297" />
      <trkpt lat="46.0589064" lon="11.1213051" />
      <trkpt lat="46.0589389" lon="11.1212923" />
      <trkpt lat="46.0589688" lon="11.1212806" />
      <trkpt lat="46.0590313" lon="11.1212560" />
      <trkpt lat="46.0590938" lon="11.1212315" />
      <trkpt lat="46.0591271" lon="11.1212184" />
      <trkpt lat="46.0591495" lon="11.1212096" />
      <trkpt lat="46.0591358" lon="11.1211309" />
      <trkpt lat="46.0591804" lon="11.1211130" />
      <trkpt lat="46.0591963" lon="11.1210946" />
      <trkpt lat="46.0592066" lon="11.1210726" />
      <trkpt lat="46.0592322" lon="11.1210781" />
      <trkpt lat="46.0592628" lon="11.1210800" />
      <trkpt lat="46.0592934" lon="11.1210691" />
      <trkpt lat="46.0593347" lon="11.1210492" />
      <trkpt lat="46.0600428" lon="11.1207677" />
      <trkpt lat="46.0600622" lon="11.1207595" />
      <trkpt lat="46.0601160" lon="11.1207390" />
      <trkpt lat="46.0601327" lon="11.1208238" />
      <trkpt lat="46.0601882" lon="11.1208011" />
      <trkpt lat="46.0601927" lon="11.1208240" />
      <trkpt lat="46.0603096" lon="11.1214176" />
      <trkpt lat="46.0604081" lon="11.1219179" />
      <trkpt lat="46.0604380" lon="11.1219129" />
      <trkpt lat="46.0607618" lon="11.1217879" />
      <trkpt lat="46.0607888" lon="11.1217712" />
      <trkpt lat="46.0608049" lon="11.1217554" />
      <trkpt lat="46.0608331" lon="11.1216985" />
      <trkpt lat="46.0608566" lon="11.1216842" />
      <trkpt lat="46.0611102" lon="11.1216475" />
      <trkpt lat="46.0611287" lon="11.1216495" />
      <trkpt lat="46.0611390" lon="11.1216574" />
      <trkpt lat="46.0611545" lon="11.1216797" />
      <trkpt lat="46.0611687" lon="11.1216954" />
      <trkpt lat="46.0611813" lon="11.1216975" />
      <trkpt lat="46.0612400" lon="11.1216885" />
      <trkpt lat="46.0614434" lon="11.1216616" />
      <trkpt lat="46.0615823" lon="11.1216393" />
      <trkpt lat="46.0620860" lon="11.1215857" />
      <trkpt lat="46.0621128" lon="11.1215839" />
      <trkpt lat="46.0621261" lon="11.1215832" />
      <trkpt lat="46.0621300" lon="11.1216464" />
      <trkpt lat="46.0621711" lon="11.1216454" />
      <trkpt lat="46.0624410" lon="11.1216302" />
      <trkpt lat="46.0624505" lon="11.1216299" />
      <trkpt lat="46.0627290" lon="11.1216188" />
      <trkpt lat="46.0627849" lon="11.1216219" />
      <trkpt lat="46.0630008" lon="11.1216637" />
      <trkpt lat="46.0630750" lon="11.1216781" />
      <trkpt lat="46.0630769" lon="11.1218013" />
      <trkpt lat="46.0630900" lon="11.1222821" />
      <trkpt lat="46.0630987" lon="11.1226025" />
      <trkpt lat="46.0631418" lon="11.1226600" />
      <trkpt lat="46.0631926" lon="11.1231619" />
      <trkpt lat="46.0632434" lon="11.1233313" />
      <trkpt lat="46.0632716" lon="11.1235258" />
      <trkpt lat="46.0632753" lon="11.1235553" />
      <trkpt lat="46.0632487" lon="11.1235607" />
      <trkpt lat="46.0626879" lon="11.1236900" />
      <trkpt lat="46.0626627" lon="11.1236956" />
      <trkpt lat="46.0625906" lon="11.1229426" />
      <trkpt lat="46.0625860" lon="11.1228942" />
      <trkpt lat="46.0627427" lon="11.1228631" />
    </trkseg>
  </trk>
</gpx>
