<?xml version="1.0" encoding="UTF-8"?>
<gpx xmlns="http://www.topografix.com/GPX/1/1" version="1.1" creator="ShapeRoute route-engine">
  <metadata>
    <name>BELLO 15 km trento block</name>
    <author>
      <name>ShapeRoute route-engine</name>
    </author>
    <copyright author="OpenStreetMap contributors">
      <license>https://opendatacommons.org/licenses/odbl/1-0/</license>
    </copyright>
    <link href="https://www.openstreetmap.org/copyright">
      <text>© OpenStreetMap contributors</text>
    </link>
    <time>2026-09-26T06:44:04Z</time>
  </metadata>
  <trk>
    <name>BELLO 15 km trento block</name>
    <trkseg>
      <trkpt lat="46.0653169" lon="11.1192084" />
      <trkpt lat="46.0653255" lon="11.1193045" />
      <trkpt lat="46.0653328" lon="11.1193958" />
      <trkpt lat="46.0653264" lon="11.1193970" />
      <trkpt lat="46.0653303" lon="11.1194356" />
      <trkpt lat="46.0652785" lon="11.1194480" />
      <trkpt lat="46.0652508" lon="11.1194546" />
      <trkpt lat="46.0653920" lon="11.1208081" />
      <trkpt lat="46.0654182" lon="11.1210589" />
      <trkpt lat="46.0654197" lon="11.1211443" />
      <trkpt lat="46.0654413" lon="11.1211459" />
      <trkpt lat="46.0654620" lon="11.1211474" />
      <trkpt lat="46.0655156" lon="11.1211513" />
      <trkpt lat="46.0655507" lon="11.1211539" />
      <trkpt lat="46.0657149" lon="11.1211459" />
      <trkpt lat="46.0661065" lon="11.1211467" />
      <trkpt lat="46.0661586" lon="11.1211285" />
      <trkpt lat="46.0664061" lon="11.1210506" />
      <trkpt lat="46.0665614" lon="11.1210220" />
      <trkpt lat="46.0666115" lon="11.1210169" />
      <trkpt lat="46.0666602" lon="11.1210169" />
      <trkpt lat="46.0667526" lon="11.1210542" />
      <trkpt lat="46.0667024" lon="11.1213629" />
      <trkpt lat="46.0666701" lon="11.1215352" />
      <trkpt lat="46.0666789" lon="11.1217092" />
      <trkpt lat="46.0667274" lon="11.1218448" />
      <trkpt lat="46.0667304" lon="11.1218751" />
      <trkpt lat="46.0667697" lon="11.1219637" />
      <trkpt lat="46.0668675" lon="11.1221842" />
      <trkpt lat="46.0668704" lon="11.1222043" />
      <trkpt lat="46.0668726" lon="11.1222251" />
      <trkpt lat="46.0667963" lon="11.1222541" />
      <trkpt lat="46.0667787" lon="11.1222601" />
      <trkpt lat="46.0667357" lon="11.1222747" />
      <trkpt lat="46.0667414" lon="11.1223091" />
      <trkpt lat="46.0667532" lon="11.1223909" />
      <trkpt lat="46.0667715" lon="11.1225101" />
      <trkpt lat="46.0667729" lon="11.1225194" />
      <trkpt lat="46.0667810" lon="11.1225726" />
      <trkpt lat="46.0668548" lon="11.1230552" />
      <trkpt lat="46.0668872" lon="11.1232848" />
      <trkpt lat="46.0668905" lon="11.1233334" />
      <trkpt lat="46.0668986" lon="11.1233290" />
      <trkpt lat="46.0669188" lon="11.1233181" />
      <trkpt lat="46.0669670" lon="11.1232923" />
      <trkpt lat="46.0672635" lon="11.1232024" />
      <trkpt lat="46.0672653" lon="11.1232368" />
      <trkpt lat="46.0672686" lon="11.1232351" />
      <trkpt lat="46.0672810" lon="11.1232291" />
      <trkpt lat="46.0672821" lon="11.1232581" />
      <trkpt lat="46.0672873" lon="11.1232576" />
      <trkpt lat="46.0673011" lon="11.1232564" />
      <trkpt lat="46.0673146" lon="11.1232553" />
      <trkpt lat="46.0673183" lon="11.1232550" />
      <trkpt lat="46.0673371" lon="11.1232534" />
      <trkpt lat="46.0674008" lon="11.1232483" />
      <trkpt lat="46.0674156" lon="11.1232472" />
      <trkpt lat="46.0676659" lon="11.1232331" />
      <trkpt lat="46.0677631" lon="11.1232283" />
      <trkpt lat="46.0678077" lon="11.1232267" />
      <trkpt lat="46.0678142" lon="11.1235709" />
      <trkpt lat="46.0678077" lon="11.1232267" />
      <trkpt lat="46.0677631" lon="11.1232283" />
      <trkpt lat="46.0676659" lon="11.1232331" />
      <trkpt lat="46.0674156" lon="11.1232472" />
      <trkpt lat="46.0674008" lon="11.1232483" />
      <trkpt lat="46.0673371" lon="11.1232534" />
      <trkpt lat="46.0673183" lon="11.1232550" />
      <trkpt lat="46.0673146" lon="11.1232553" />
      <trkpt lat="46.0673011" lon="11.1232564" />
      <trkpt lat="46.0672873" lon="11.1232576" />
      <trkpt lat="46.0672821" lon="11.1232581" />
      <trkpt lat="46.0672810" lon="11.1232291" />
      <trkpt lat="46.0672686" lon="11.1232351" />
      <trkpt lat="46.0672653" lon="11.1232368" />
      <trkpt lat="46.0672635" lon="11.1232024" />
      <trkpt lat="46.0669670" lon="11.1232923" />
      <trkpt lat="46.0669188" lon="11.1233181" />
      <trkpt lat="46.0668986" lon="11.1233290" />
      <trkpt lat="46.0668905" lon="11.1233334" />
      <trkpt lat="46.0668872" lon="11.1232848" />
      <trkpt lat="46.0668548" lon="11.1230552" />
      <trkpt lat="46.0668872" lon="11.1232848" />
      <trkpt lat="46.0668905" lon="11.1233334" />
      <trkpt lat="46.0668835" lon="11.1233350" />
      <trkpt lat="46.0666735" lon="11.1233841" />
      <trkpt lat="46.0663806" lon="11.1234542" />
      <trkpt lat="46.0663678" lon="11.1233580" />
      <trkpt lat="46.0663262" lon="11.1233667" />
      <trkpt lat="46.0662435" lon="11.1233852" />
      <trkpt lat="46.0661275" lon="11.1234176" />
      <trkpt lat="46.0660744" lon="11.1234355" />
      <trkpt lat="46.0658473" lon="11.1235325" />
      <trkpt lat="46.0658857" lon="11.1238752" />
      <trkpt lat="46.0658911" lon="11.1239464" />
      <trkpt lat="46.0656609" lon="11.1239761" />
      <trkpt lat="46.0656958" lon="11.1246657" />
      <trkpt lat="46.0657009" lon="11.1247688" />
      <trkpt lat="46.0656894" lon="11.1248307" />
      <trkpt lat="46.0656615" lon="11.1248850" />
      <trkpt lat="46.0656223" lon="11.1249238" />
      <trkpt lat="46.0657065" lon="11.1254149" />
      <trkpt lat="46.0657986" lon="11.1255218" />
      <trkpt lat="46.0659888" lon="11.1256911" />
      <trkpt lat="46.0659575" lon="11.1257955" />
      <trkpt lat="46.0659342" lon="11.1258733" />
      <trkpt lat="46.0659225" lon="11.1259121" />
      <trkpt lat="46.0659342" lon="11.1258733" />
      <trkpt lat="46.0659575" lon="11.1257955" />
      <trkpt lat="46.0659888" lon="11.1256911" />
      <trkpt lat="46.0657986" lon="11.1255218" />
      <trkpt lat="46.0657065" lon="11.1254149" />
      <trkpt lat="46.0656223" lon="11.1249238" />
      <trkpt lat="46.0656615" lon="11.1248850" />
      <trkpt lat="46.0656894" lon="11.1248307" />
      <trkpt lat="46.0657009" lon="11.1247688" />
      <trkpt lat="46.0656958" lon="11.1246657" />
      <trkpt lat="46.0656609" lon="11.1239761" />
      <trkpt lat="46.0658911" lon="11.1239464" />
      <trkpt lat="46.0658857" lon="11.1238752" />
      <trkpt lat="46.0658473" lon="11.1235325" />
      <trkpt lat="46.0657344" lon="11.1229534" />
      <trkpt lat="46.0655279" lon="11.1230558" />
      <trkpt lat="46.0654001" lon="11.1231014" />
      <trkpt lat="46.0653655" lon="11.1230951" />
      <trkpt lat="46.0652342" lon="11.1231340" />
      <trkpt lat="46.0651994" lon="11.1231586" />
      <trkpt lat="46.0651514" lon="11.1231779" />
      <trkpt lat="46.0651559" lon="11.1232583" />
      <trkpt lat="46.0651561" lon="11.1232838" />
      <trkpt lat="46.0651569" lon="11.1233035" />
      <trkpt lat="46.0649624" lon="11.1233329" />
      <trkpt lat="46.0649514" lon="11.1233356" />
      <trkpt lat="46.0648838" lon="11.1242128" />
      <trkpt lat="46.0648789" lon="11.1242760" />
      <trkpt lat="46.0648536" lon="11.1246620" />
      <trkpt lat="46.0648439" lon="11.1247453" />
      <trkpt lat="46.0646625" lon="11.1257693" />
      <trkpt lat="46.0647192" lon="11.1257905" />
      <trkpt lat="46.0647134" lon="11.1258264" />
      <trkpt lat="46.0644047" lon="11.1277363" />
      <trkpt lat="46.0644241" lon="11.1277455" />
      <trkpt lat="46.0648377" lon="11.1279594" />
      <trkpt lat="46.0648152" lon="11.1280463" />
      <trkpt lat="46.0647932" lon="11.1281318" />
      <trkpt lat="46.0647866" lon="11.1281574" />
      <trkpt lat="46.0648723" lon="11.1282038" />
      <trkpt lat="46.0649057" lon="11.1282221" />
      <trkpt lat="46.0649203" lon="11.1282300" />
      <trkpt lat="46.0649274" lon="11.1282017" />
      <trkpt lat="46.0649902" lon="11.1282361" />
      <trkpt lat="46.0650763" lon="11.1282832" />
      <trkpt lat="46.0656486" lon="11.1285962" />
      <trkpt lat="46.0657225" lon="11.1286354" />
      <trkpt lat="46.0663240" lon="11.1289545" />
      <trkpt lat="46.0668188" lon="11.1292183" />
      <trkpt lat="46.0668142" lon="11.1292747" />
      <trkpt lat="46.0668633" lon="11.1293197" />
      <trkpt lat="46.0668786" lon="11.1293325" />
      <trkpt lat="46.0668633" lon="11.1293197" />
      <trkpt lat="46.0668142" lon="11.1292747" />
      <trkpt lat="46.0668188" lon="11.1292183" />
      <trkpt lat="46.0663240" lon="11.1289545" />
      <trkpt lat="46.0657225" lon="11.1286354" />
      <trkpt lat="46.0656486" lon="11.1285962" />
      <trkpt lat="46.0650763" lon="11.1282832" />
      <trkpt lat="46.0649902" lon="11.1282361" />
      <trkpt lat="46.0649274" lon="11.1282017" />
      <trkpt lat="46.0649203" lon="11.1282300" />
      <trkpt lat="46.0646867" lon="11.1291487" />
      <trkpt lat="46.0646163" lon="11.1294270" />
      <trkpt lat="46.0645738" lon="11.1295950" />
      <trkpt lat="46.0645117" lon="11.1298516" />
      <trkpt lat="46.0643975" lon="11.1303232" />
      <trkpt lat="46.0643886" lon="11.1303664" />
      <trkpt lat="46.0643810" lon="11.1304035" />
      <trkpt lat="46.0643782" lon="11.1304176" />
      <trkpt lat="46.0643312" lon="11.1309593" />
      <trkpt lat="46.0643277" lon="11.1310006" />
      <trkpt lat="46.0643248" lon="11.1310385" />
      <trkpt lat="46.0642751" lon="11.1310378" />
      <trkpt lat="46.0642660" lon="11.1311712" />
      <trkpt lat="46.0643067" lon="11.1311791" />
      <trkpt lat="46.0642700" lon="11.1312801" />
      <trkpt lat="46.0642683" lon="11.1313173" />
      <trkpt lat="46.0642700" lon="11.1312801" />
      <trkpt lat="46.0643067" lon="11.1311791" />
      <trkpt lat="46.0642660" lon="11.1311712" />
      <trkpt lat="46.0642751" lon="11.1310378" />
      <trkpt lat="46.0643248" lon="11.1310385" />
      <trkpt lat="46.0643277" lon="11.1310006" />
      <trkpt lat="46.0643312" lon="11.1309593" />
      <trkpt lat="46.0643782" lon="11.1304176" />
      <trkpt lat="46.0643810" lon="11.1304035" />
      <trkpt lat="46.0643886" lon="11.1303664" />
      <trkpt lat="46.0643975" lon="11.1303232" />
      <trkpt lat="46.0645117" lon="11.1298516" />
      <trkpt lat="46.0645738" lon="11.1295950" />
      <trkpt lat="46.0646163" lon="11.1294270" />
      <trkpt lat="46.0646867" lon="11.1291487" />
      <trkpt lat="46.0649203" lon="11.1282300" />
      <trkpt lat="46.0649057" lon="11.1282221" />
      <trkpt lat="46.0648723" lon="11.1282038" />
      <trkpt lat="46.0647866" lon="11.1281574" />
      <trkpt lat="46.0648723" lon="11.1282038" />
      <trkpt lat="46.0649057" lon="11.1282221" />
      <trkpt lat="46.0649203" lon="11.1282300" />
      <trkpt lat="46.0646867" lon="11.1291487" />
      <trkpt lat="46.0646163" lon="11.1294270" />
      <trkpt lat="46.0645738" lon="11.1295950" />
      <trkpt lat="46.0645117" lon="11.1298516" />
      <trkpt lat="46.0643975" lon="11.1303232" />
      <trkpt lat="46.0643886" lon="11.1303664" />
      <trkpt lat="46.0643810" lon="11.1304035" />
      <trkpt lat="46.0643782" lon="11.1304176" />
      <trkpt lat="46.0643312" lon="11.1309593" />
      <trkpt lat="46.0643277" lon="11.1310006" />
      <trkpt lat="46.0643248" lon="11.1310385" />
      <trkpt lat="46.0642751" lon="11.1310378" />
      <trkpt lat="46.0642660" lon="11.1311712" />
      <trkpt lat="46.0643067" lon="11.1311791" />
      <trkpt lat="46.0642700" lon="11.1312801" />
      <trkpt lat="46.0642683" lon="11.1313173" />
      <trkpt lat="46.0642601" lon="11.1317087" />
      <trkpt lat="46.0642595" lon="11.1317455" />
      <trkpt lat="46.0642585" lon="11.1318018" />
      <trkpt lat="46.0642535" lon="11.1320869" />
      <trkpt lat="46.0642474" lon="11.1324358" />
      <trkpt lat="46.0642500" lon="11.1325546" />
      <trkpt lat="46.0642987" lon="11.1329674" />
      <trkpt lat="46.0643767" lon="11.1334448" />
      <trkpt lat="46.0643895" lon="11.1335130" />
      <trkpt lat="46.0644190" lon="11.1336144" />
      <trkpt lat="46.0645068" lon="11.1336580" />
      <trkpt lat="46.0647356" lon="11.1337309" />
      <trkpt lat="46.0649608" lon="11.1337839" />
      <trkpt lat="46.0649644" lon="11.1337159" />
      <trkpt lat="46.0649989" lon="11.1337148" />
      <trkpt lat="46.0650944" lon="11.1337150" />
      <trkpt lat="46.0651066" lon="11.1337119" />
      <trkpt lat="46.0651583" lon="11.1337257" />
      <trkpt lat="46.0651955" lon="11.1337356" />
      <trkpt lat="46.0652243" lon="11.1337433" />
      <trkpt lat="46.0651984" lon="11.1340365" />
      <trkpt lat="46.0651966" lon="11.1340777" />
      <trkpt lat="46.0651899" lon="11.1342266" />
      <trkpt lat="46.0651779" lon="11.1346935" />
      <trkpt lat="46.0651793" lon="11.1349244" />
      <trkpt lat="46.0651805" lon="11.1351790" />
      <trkpt lat="46.0651878" lon="11.1353888" />
      <trkpt lat="46.0651993" lon="11.1354464" />
      <trkpt lat="46.0651792" lon="11.1354971" />
      <trkpt lat="46.0652385" lon="11.1356027" />
      <trkpt lat="46.0653233" lon="11.1356535" />
      <trkpt lat="46.0654566" lon="11.1357405" />
      <trkpt lat="46.0655347" lon="11.1357705" />
      <trkpt lat="46.0657114" lon="11.1358023" />
      <trkpt lat="46.0659518" lon="11.1360367" />
      <trkpt lat="46.0662916" lon="11.1362363" />
      <trkpt lat="46.0663071" lon="11.1362447" />
      <trkpt lat="46.0663281" lon="11.1362580" />
      <trkpt lat="46.0663426" lon="11.1361849" />
      <trkpt lat="46.0663878" lon="11.1362547" />
      <trkpt lat="46.0664309" lon="11.1362988" />
      <trkpt lat="46.0665158" lon="11.1363369" />
      <trkpt lat="46.0665786" lon="11.1363592" />
      <trkpt lat="46.0666597" lon="11.1363567" />
      <trkpt lat="46.0668339" lon="11.1363302" />
      <trkpt lat="46.0673964" lon="11.1362654" />
      <trkpt lat="46.0677502" lon="11.1362150" />
      <trkpt lat="46.0673964" lon="11.1362654" />
      <trkpt lat="46.0668339" lon="11.1363302" />
      <trkpt lat="46.0666597" lon="11.1363567" />
      <trkpt lat="46.0665786" lon="11.1363592" />
      <trkpt lat="46.0665158" lon="11.1363369" />
      <trkpt lat="46.0665063" lon="11.1363960" />
      <trkpt lat="46.0664010" lon="11.1363412" />
      <trkpt lat="46.0663628" lon="11.1362939" />
      <trkpt lat="46.0663281" lon="11.1362580" />
      <trkpt lat="46.0663071" lon="11.1362447" />
      <trkpt lat="46.0662916" lon="11.1362363" />
      <trkpt lat="46.0659518" lon="11.1360367" />
      <trkpt lat="46.0657114" lon="11.1358023" />
      <trkpt lat="46.0657128" lon="11.1358240" />
      <trkpt lat="46.0657467" lon="11.1358838" />
      <trkpt lat="46.0657572" lon="11.1359521" />
      <trkpt lat="46.0658664" lon="11.1360698" />
      <trkpt lat="46.0659041" lon="11.1361217" />
      <trkpt lat="46.0660516" lon="11.1363747" />
      <trkpt lat="46.0661586" lon="11.1365284" />
      <trkpt lat="46.0662155" lon="11.1365977" />
      <trkpt lat="46.0663092" lon="11.1366570" />
      <trkpt lat="46.0663618" lon="11.1366839" />
      <trkpt lat="46.0664807" lon="11.1367333" />
      <trkpt lat="46.0665653" lon="11.1367554" />
      <trkpt lat="46.0666011" lon="11.1367615" />
      <trkpt lat="46.0666097" lon="11.1367658" />
      <trkpt lat="46.0667427" lon="11.1369357" />
      <trkpt lat="46.0668043" lon="11.1369847" />
      <trkpt lat="46.0668630" lon="11.1370144" />
      <trkpt lat="46.0668957" lon="11.1370294" />
      <trkpt lat="46.0669119" lon="11.1370406" />
      <trkpt lat="46.0669485" lon="11.1370766" />
      <trkpt lat="46.0669565" lon="11.1373186" />
      <trkpt lat="46.0667909" lon="11.1377035" />
      <trkpt lat="46.0667605" lon="11.1377435" />
      <trkpt lat="46.0667569" lon="11.1377711" />
      <trkpt lat="46.0667579" lon="11.1377948" />
      <trkpt lat="46.0667629" lon="11.1378286" />
      <trkpt lat="46.0667790" lon="11.1378516" />
      <trkpt lat="46.0668019" lon="11.1378600" />
      <trkpt lat="46.0668245" lon="11.1378579" />
      <trkpt lat="46.0669617" lon="11.1377731" />
      <trkpt lat="46.0670657" lon="11.1376903" />
      <trkpt lat="46.0671663" lon="11.1375921" />
      <trkpt lat="46.0671660" lon="11.1376322" />
      <trkpt lat="46.0671903" lon="11.1376082" />
      <trkpt lat="46.0672260" lon="11.1375704" />
      <trkpt lat="46.0672417" lon="11.1375601" />
      <trkpt lat="46.0672583" lon="11.1375544" />
      <trkpt lat="46.0672729" lon="11.1375606" />
      <trkpt lat="46.0672839" lon="11.1375703" />
      <trkpt lat="46.0674043" lon="11.1377294" />
      <trkpt lat="46.0674480" lon="11.1377871" />
      <trkpt lat="46.0674599" lon="11.1378120" />
      <trkpt lat="46.0674668" lon="11.1378283" />
      <trkpt lat="46.0674652" lon="11.1378492" />
      <trkpt lat="46.0674531" lon="11.1378712" />
      <trkpt lat="46.0673516" lon="11.1378834" />
      <trkpt lat="46.0673215" lon="11.1378986" />
      <trkpt lat="46.0673044" lon="11.1379228" />
      <trkpt lat="46.0672811" lon="11.1379453" />
      <trkpt lat="46.0672673" lon="11.1379769" />
      <trkpt lat="46.0672428" lon="11.1381262" />
      <trkpt lat="46.0672139" lon="11.1384187" />
      <trkpt lat="46.0672018" lon="11.1388340" />
      <trkpt lat="46.0672485" lon="11.1389416" />
      <trkpt lat="46.0672539" lon="11.1389531" />
      <trkpt lat="46.0671918" lon="11.1390935" />
      <trkpt lat="46.0671750" lon="11.1390879" />
      <trkpt lat="46.0670461" lon="11.1390656" />
      <trkpt lat="46.0670358" lon="11.1390638" />
      <trkpt lat="46.0668825" lon="11.1390605" />
      <trkpt lat="46.0667294" lon="11.1390573" />
      <trkpt lat="46.0660903" lon="11.1390197" />
      <trkpt lat="46.0660191" lon="11.1390155" />
      <trkpt lat="46.0653871" lon="11.1389783" />
      <trkpt lat="46.0652521" lon="11.1393160" />
      <trkpt lat="46.0651992" lon="11.1394636" />
      <trkpt lat="46.0650700" lon="11.1395427" />
      <trkpt lat="46.0650187" lon="11.1395761" />
      <trkpt lat="46.0649060" lon="11.1396495" />
      <trkpt lat="46.0646173" lon="11.1395669" />
      <trkpt lat="46.0644880" lon="11.1394936" />
      <trkpt lat="46.0644945" lon="11.1397256" />
      <trkpt lat="46.0644162" lon="11.1399464" />
      <trkpt lat="46.0649060" lon="11.1396495" />
      <trkpt lat="46.0650187" lon="11.1395761" />
      <trkpt lat="46.0650700" lon="11.1395427" />
      <trkpt lat="46.0651992" lon="11.1394636" />
      <trkpt lat="46.0652521" lon="11.1393160" />
      <trkpt lat="46.0657187" lon="11.1398536" />
      <trkpt lat="46.0657630" lon="11.1399070" />
      <trkpt lat="46.0657686" lon="11.1399137" />
      <trkpt lat="46.0657812" lon="11.1399288" />
      <trkpt lat="46.0659066" lon="11.1400806" />
      <trkpt lat="46.0660630" lon="11.1402436" />
      <trkpt lat="46.0661112" lon="11.1402939" />
      <trkpt lat="46.0661717" lon="11.1403659" />
      <trkpt lat="46.0662142" lon="11.1404164" />
      <trkpt lat="46.0662558" lon="11.1404081" />
      <trkpt lat="46.0664866" lon="11.1403601" />
      <trkpt lat="46.0667169" lon="11.1403686" />
      <trkpt lat="46.0667766" lon="11.1403560" />
      <trkpt lat="46.0668318" lon="11.1403350" />
      <trkpt lat="46.0668823" lon="11.1402980" />
      <trkpt lat="46.0669426" lon="11.1402327" />
      <trkpt lat="46.0669918" lon="11.1401479" />
      <trkpt lat="46.0670387" lon="11.1400272" />
      <trkpt lat="46.0670604" lon="11.1399248" />
      <trkpt lat="46.0671392" lon="11.1392674" />
      <trkpt lat="46.0671415" lon="11.1392509" />
      <trkpt lat="46.0671556" lon="11.1391835" />
      <trkpt lat="46.0671918" lon="11.1390935" />
      <trkpt lat="46.0672539" lon="11.1389531" />
      <trkpt lat="46.0672485" lon="11.1389416" />
      <trkpt lat="46.0672018" lon="11.1388340" />
      <trkpt lat="46.0672139" lon="11.1384187" />
      <trkpt lat="46.0672428" lon="11.1381262" />
      <trkpt lat="46.0672673" lon="11.1379769" />
      <trkpt lat="46.0672811" lon="11.1379453" />
      <trkpt lat="46.0673044" lon="11.1379228" />
      <trkpt lat="46.0673334" lon="11.1379089" />
      <trkpt lat="46.0674600" lon="11.1378857" />
      <trkpt lat="46.0674755" lon="11.1378670" />
      <trkpt lat="46.0674839" lon="11.1378480" />
      <trkpt lat="46.0674844" lon="11.1378302" />
      <trkpt lat="46.0674781" lon="11.1378045" />
      <trkpt lat="46.0674645" lon="11.1377797" />
      <trkpt lat="46.0674334" lon="11.1377372" />
      <trkpt lat="46.0672873" lon="11.1375379" />
      <trkpt lat="46.0672737" lon="11.1375247" />
      <trkpt lat="46.0672612" lon="11.1375183" />
      <trkpt lat="46.0672487" lon="11.1375201" />
      <trkpt lat="46.0672370" lon="11.1375263" />
      <trkpt lat="46.0671988" lon="11.1375605" />
      <trkpt lat="46.0671663" lon="11.1375921" />
      <trkpt lat="46.0671660" lon="11.1376322" />
      <trkpt lat="46.0670802" lon="11.1377169" />
      <trkpt lat="46.0669672" lon="11.1378062" />
      <trkpt lat="46.0668210" lon="11.1379077" />
      <trkpt lat="46.0667853" lon="11.1379095" />
      <trkpt lat="46.0667497" lon="11.1378942" />
      <trkpt lat="46.0667303" lon="11.1378635" />
      <trkpt lat="46.0667252" lon="11.1378211" />
      <trkpt lat="46.0667252" lon="11.1377652" />
      <trkpt lat="46.0667396" lon="11.1377101" />
      <trkpt lat="46.0667622" lon="11.1376849" />
      <trkpt lat="46.0667928" lon="11.1376497" />
      <trkpt lat="46.0669366" lon="11.1373238" />
      <trkpt lat="46.0669392" lon="11.1372900" />
      <trkpt lat="46.0669262" lon="11.1371301" />
      <trkpt lat="46.0669119" lon="11.1370406" />
      <trkpt lat="46.0668957" lon="11.1370294" />
      <trkpt lat="46.0668630" lon="11.1370144" />
      <trkpt lat="46.0668043" lon="11.1369847" />
      <trkpt lat="46.0667427" lon="11.1369357" />
      <trkpt lat="46.0666097" lon="11.1367658" />
      <trkpt lat="46.0666011" lon="11.1367615" />
      <trkpt lat="46.0665653" lon="11.1367554" />
      <trkpt lat="46.0664807" lon="11.1367333" />
      <trkpt lat="46.0663618" lon="11.1366839" />
      <trkpt lat="46.0663092" lon="11.1366570" />
      <trkpt lat="46.0662155" lon="11.1365977" />
      <trkpt lat="46.0661586" lon="11.1365284" />
      <trkpt lat="46.0660516" lon="11.1363747" />
      <trkpt lat="46.0659041" lon="11.1361217" />
      <trkpt lat="46.0658664" lon="11.1360698" />
      <trkpt lat="46.0657572" lon="11.1359521" />
      <trkpt lat="46.0657268" lon="11.1359380" />
      <trkpt lat="46.0656340" lon="11.1359161" />
      <trkpt lat="46.0655964" lon="11.1359023" />
      <trkpt lat="46.0654938" lon="11.1358506" />
      <trkpt lat="46.0654131" lon="11.1357890" />
      <trkpt lat="46.0653527" lon="11.1357398" />
      <trkpt lat="46.0652385" lon="11.1356027" />
      <trkpt lat="46.0651792" lon="11.1354971" />
      <trkpt lat="46.0651491" lon="11.1354441" />
      <trkpt lat="46.0651249" lon="11.1354976" />
      <trkpt lat="46.0649644" lon="11.1357256" />
      <trkpt lat="46.0649292" lon="11.1357846" />
      <trkpt lat="46.0649227" lon="11.1357751" />
      <trkpt lat="46.0649073" lon="11.1357966" />
      <trkpt lat="46.0647416" lon="11.1360277" />
      <trkpt lat="46.0647329" lon="11.1360399" />
      <trkpt lat="46.0643913" lon="11.1355207" />
      <trkpt lat="46.0643430" lon="11.1355222" />
      <trkpt lat="46.0643031" lon="11.1355235" />
      <trkpt lat="46.0642302" lon="11.1354115" />
      <trkpt lat="46.0641053" lon="11.1352279" />
      <trkpt lat="46.0640869" lon="11.1351979" />
      <trkpt lat="46.0636104" lon="11.1345006" />
      <trkpt lat="46.0635996" lon="11.1344920" />
      <trkpt lat="46.0635831" lon="11.1344688" />
      <trkpt lat="46.0632217" lon="11.1350092" />
      <trkpt lat="46.0631931" lon="11.1350282" />
      <trkpt lat="46.0631653" lon="11.1350261" />
      <trkpt lat="46.0629823" lon="11.1347616" />
      <trkpt lat="46.0629520" lon="11.1347179" />
      <trkpt lat="46.0629316" lon="11.1347486" />
      <trkpt lat="46.0627621" lon="11.1345177" />
      <trkpt lat="46.0627322" lon="11.1344744" />
      <trkpt lat="46.0625081" lon="11.1348081" />
      <trkpt lat="46.0624754" lon="11.1348748" />
      <trkpt lat="46.0623180" lon="11.1354315" />
      <trkpt lat="46.0623426" lon="11.1354487" />
      <trkpt lat="46.0624443" lon="11.1355183" />
      <trkpt lat="46.0625595" lon="11.1356153" />
      <trkpt lat="46.0626246" lon="11.1356817" />
      <trkpt lat="46.0627778" lon="11.1358520" />
      <trkpt lat="46.0628263" lon="11.1358533" />
      <trkpt lat="46.0628416" lon="11.1358957" />
      <trkpt lat="46.0628782" lon="11.1359048" />
      <trkpt lat="46.0629008" lon="11.1359274" />
      <trkpt lat="46.0629165" lon="11.1359581" />
      <trkpt lat="46.0629614" lon="11.1361168" />
      <trkpt lat="46.0629778" lon="11.1362741" />
      <trkpt lat="46.0629841" lon="11.1364779" />
      <trkpt lat="46.0629956" lon="11.1365378" />
      <trkpt lat="46.0630232" lon="11.1365608" />
      <trkpt lat="46.0631121" lon="11.1365329" />
      <trkpt lat="46.0631417" lon="11.1365510" />
      <trkpt lat="46.0632350" lon="11.1367708" />
      <trkpt lat="46.0633477" lon="11.1370217" />
      <trkpt lat="46.0633807" lon="11.1371103" />
      <trkpt lat="46.0633796" lon="11.1371759" />
      <trkpt lat="46.0633591" lon="11.1372235" />
      <trkpt lat="46.0633364" lon="11.1372695" />
      <trkpt lat="46.0633016" lon="11.1372923" />
      <trkpt lat="46.0631475" lon="11.1373253" />
      <trkpt lat="46.0631126" lon="11.1373376" />
      <trkpt lat="46.0630927" lon="11.1373522" />
      <trkpt lat="46.0630753" lon="11.1373794" />
      <trkpt lat="46.0630740" lon="11.1373997" />
      <trkpt lat="46.0630753" lon="11.1373794" />
      <trkpt lat="46.0630927" lon="11.1373522" />
      <trkpt lat="46.0631126" lon="11.1373376" />
      <trkpt lat="46.0631475" lon="11.1373253" />
      <trkpt lat="46.0633016" lon="11.1372923" />
      <trkpt lat="46.0633364" lon="11.1372695" />
      <trkpt lat="46.0633591" lon="11.1372235" />
      <trkpt lat="46.0633796" lon="11.1371759" />
      <trkpt lat="46.0633807" lon="11.1371103" />
      <trkpt lat="46.0633477" lon="11.1370217" />
      <trkpt lat="46.0632350" lon="11.1367708" />
      <trkpt lat="46.0631417" lon="11.1365510" />
      <trkpt lat="46.0631121" lon="11.1365329" />
      <trkpt lat="46.0630232" lon="11.1365608" />
      <trkpt lat="46.0629956" lon="11.1365378" />
      <trkpt lat="46.0629841" lon="11.1364779" />
      <trkpt lat="46.0629778" lon="11.1362741" />
      <trkpt lat="46.0629614" lon="11.1361168" />
      <trkpt lat="46.0629165" lon="11.1359581" />
      <trkpt lat="46.0629008" lon="11.1359274" />
      <trkpt lat="46.0628782" lon="11.1359048" />
      <trkpt lat="46.0628416" lon="11.1358957" />
      <trkpt lat="46.0627726" lon="11.1359084" />
      <trkpt lat="46.0626167" lon="11.1357201" />
      <trkpt lat="46.0625085" lon="11.1356185" />
      <trkpt lat="46.0623809" lon="11.1355288" />
      <trkpt lat="46.0623069" lon="11.1354787" />
      <trkpt lat="46.0623145" lon="11.1354420" />
      <trkpt lat="46.0623180" lon="11.1354315" />
      <trkpt lat="46.0624754" lon="11.1348748" />
      <trkpt lat="46.0625081" lon="11.1348081" />
      <trkpt lat="46.0627322" lon="11.1344744" />
      <trkpt lat="46.0627621" lon="11.1345177" />
      <trkpt lat="46.0629316" lon="11.1347486" />
      <trkpt lat="46.0629520" lon="11.1347179" />
      <trkpt lat="46.0629823" lon="11.1347616" />
      <trkpt lat="46.0631653" lon="11.1350261" />
      <trkpt lat="46.0631931" lon="11.1350282" />
      <trkpt lat="46.0632217" lon="11.1350092" />
      <trkpt lat="46.0635831" lon="11.1344688" />
      <trkpt lat="46.0635631" lon="11.1344407" />
      <trkpt lat="46.0635475" lon="11.1344099" />
      <trkpt lat="46.0624278" lon="11.1327748" />
      <trkpt lat="46.0623896" lon="11.1327116" />
      <trkpt lat="46.0624117" lon="11.1326803" />
      <trkpt lat="46.0624294" lon="11.1326552" />
      <trkpt lat="46.0624164" lon="11.1326354" />
      <trkpt lat="46.0624260" lon="11.1326255" />
      <trkpt lat="46.0625729" lon="11.1324110" />
      <trkpt lat="46.0625831" lon="11.1323963" />
      <trkpt lat="46.0626157" lon="11.1324476" />
      <trkpt lat="46.0626599" lon="11.1324203" />
      <trkpt lat="46.0627057" lon="11.1323921" />
      <trkpt lat="46.0627296" lon="11.1323774" />
      <trkpt lat="46.0627281" lon="11.1323660" />
      <trkpt lat="46.0627299" lon="11.1323481" />
      <trkpt lat="46.0627329" lon="11.1323233" />
      <trkpt lat="46.0627408" lon="11.1322971" />
      <trkpt lat="46.0628146" lon="11.1322203" />
      <trkpt lat="46.0631450" lon="11.1318657" />
      <trkpt lat="46.0633729" lon="11.1316874" />
      <trkpt lat="46.0634075" lon="11.1316603" />
      <trkpt lat="46.0635404" lon="11.1315532" />
      <trkpt lat="46.0636456" lon="11.1314684" />
      <trkpt lat="46.0638135" lon="11.1313802" />
      <trkpt lat="46.0637928" lon="11.1313256" />
      <trkpt lat="46.0637741" lon="11.1312812" />
      <trkpt lat="46.0638145" lon="11.1312393" />
      <trkpt lat="46.0638291" lon="11.1312199" />
      <trkpt lat="46.0637854" lon="11.1311271" />
      <trkpt lat="46.0637366" lon="11.1310416" />
      <trkpt lat="46.0637179" lon="11.1310366" />
      <trkpt lat="46.0637262" lon="11.1309860" />
      <trkpt lat="46.0637326" lon="11.1309525" />
      <trkpt lat="46.0637757" lon="11.1309684" />
      <trkpt lat="46.0638167" lon="11.1309821" />
      <trkpt lat="46.0638357" lon="11.1309654" />
      <trkpt lat="46.0638482" lon="11.1308834" />
      <trkpt lat="46.0638631" lon="11.1308888" />
      <trkpt lat="46.0638872" lon="11.1308950" />
      <trkpt lat="46.0640231" lon="11.1300669" />
      <trkpt lat="46.0640253" lon="11.1300092" />
      <trkpt lat="46.0641383" lon="11.1293461" />
      <trkpt lat="46.0641579" lon="11.1292150" />
      <trkpt lat="46.0642149" lon="11.1288949" />
      <trkpt lat="46.0642223" lon="11.1288502" />
      <trkpt lat="46.0642282" lon="11.1288178" />
      <trkpt lat="46.0642905" lon="11.1284677" />
      <trkpt lat="46.0643990" lon="11.1279089" />
      <trkpt lat="46.0643773" lon="11.1278908" />
      <trkpt lat="46.0643429" lon="11.1278623" />
      <trkpt lat="46.0643297" lon="11.1278550" />
      <trkpt lat="46.0643459" lon="11.1277844" />
      <trkpt lat="46.0643624" lon="11.1277123" />
      <trkpt lat="46.0644047" lon="11.1277363" />
      <trkpt lat="46.0647134" lon="11.1258264" />
      <trkpt lat="46.0647192" lon="11.1257905" />
      <trkpt lat="46.0646625" lon="11.1257693" />
      <trkpt lat="46.0648439" lon="11.1247453" />
      <trkpt lat="46.0648536" lon="11.1246620" />
      <trkpt lat="46.0648789" lon="11.1242760" />
      <trkpt lat="46.0648838" lon="11.1242128" />
      <trkpt lat="46.0649514" lon="11.1233356" />
      <trkpt lat="46.0649624" lon="11.1233329" />
      <trkpt lat="46.0651569" lon="11.1233035" />
      <trkpt lat="46.0651561" lon="11.1232838" />
      <trkpt lat="46.0651559" lon="11.1232583" />
      <trkpt lat="46.0651514" lon="11.1231779" />
      <trkpt lat="46.0651994" lon="11.1231586" />
      <trkpt lat="46.0652342" lon="11.1231340" />
      <trkpt lat="46.0652344" lon="11.1230754" />
      <trkpt lat="46.0652184" lon="11.1229778" />
      <trkpt lat="46.0651961" lon="11.1228928" />
      <trkpt lat="46.0652374" lon="11.1226394" />
      <trkpt lat="46.0654688" lon="11.1212196" />
      <trkpt lat="46.0654620" lon="11.1211474" />
      <trkpt lat="46.0654413" lon="11.1211459" />
      <trkpt lat="46.0654197" lon="11.1211443" />
      <trkpt lat="46.0654182" lon="11.1210589" />
      <trkpt lat="46.0653920" lon="11.1208081" />
      <trkpt lat="46.0652508" lon="11.1194546" />
      <trkpt lat="46.0652785" lon="11.1194480" />
      <trkpt lat="46.0653303" lon="11.1194356" />
      <trkpt lat="46.0653264" lon="11.1193970" />
      <trkpt lat="46.0653328" lon="11.1193958" />
      <trkpt lat="46.0653255" lon="11.1193045" />
      <trkpt lat="46.0653169" lon="11.1192084" />
      <trkpt lat="46.0652869" lon="11.1191976" />
      <trkpt lat="46.0652385" lon="11.1192116" />
      <trkpt lat="46.0652151" lon="11.1188117" />
      <trkpt lat="46.0651950" lon="11.1180758" />
      <trkpt lat="46.0651934" lon="11.1177089" />
      <trkpt lat="46.0652397" lon="11.1176989" />
      <trkpt lat="46.0656754" lon="11.1176028" />
      <trkpt lat="46.0661061" lon="11.1175142" />
      <trkpt lat="46.0664518" lon="11.1174437" />
      <trkpt lat="46.0664459" lon="11.1173714" />
      <trkpt lat="46.0664553" lon="11.1173406" />
      <trkpt lat="46.0664518" lon="11.1172941" />
      <trkpt lat="46.0664295" lon="11.1170349" />
      <trkpt lat="46.0664216" lon="11.1169920" />
      <trkpt lat="46.0664228" lon="11.1169318" />
      <trkpt lat="46.0664265" lon="11.1168526" />
      <trkpt lat="46.0664206" lon="11.1167830" />
      <trkpt lat="46.0663304" lon="11.1158787" />
      <trkpt lat="46.0662859" lon="11.1154964" />
      <trkpt lat="46.0662780" lon="11.1154225" />
      <trkpt lat="46.0662149" lon="11.1148160" />
      <trkpt lat="46.0662068" lon="11.1148053" />
      <trkpt lat="46.0661796" lon="11.1145362" />
      <trkpt lat="46.0661729" lon="11.1144963" />
      <trkpt lat="46.0661627" lon="11.1144610" />
      <trkpt lat="46.0661501" lon="11.1144347" />
      <trkpt lat="46.0661288" lon="11.1144043" />
      <trkpt lat="46.0660977" lon="11.1143770" />
      <trkpt lat="46.0660650" lon="11.1143519" />
      <trkpt lat="46.0660839" lon="11.1142791" />
      <trkpt lat="46.0661066" lon="11.1141926" />
      <trkpt lat="46.0668627" lon="11.1145914" />
      <trkpt lat="46.0669299" lon="11.1146267" />
      <trkpt lat="46.0677139" lon="11.1150479" />
      <trkpt lat="46.0677536" lon="11.1150646" />
      <trkpt lat="46.0677809" lon="11.1150701" />
      <trkpt lat="46.0678139" lon="11.1150654" />
      <trkpt lat="46.0678418" lon="11.1150495" />
      <trkpt lat="46.0679084" lon="11.1150043" />
      <trkpt lat="46.0679737" lon="11.1149448" />
      <trkpt lat="46.0680238" lon="11.1149118" />
      <trkpt lat="46.0680942" lon="11.1149057" />
      <trkpt lat="46.0682075" lon="11.1149285" />
      <trkpt lat="46.0682349" lon="11.1148330" />
      <trkpt lat="46.0684652" lon="11.1149557" />
      <trkpt lat="46.0693015" lon="11.1154028" />
      <trkpt lat="46.0695281" lon="11.1155240" />
      <trkpt lat="46.0698128" lon="11.1156739" />
      <trkpt lat="46.0698998" lon="11.1157127" />
      <trkpt lat="46.0699151" lon="11.1156990" />
      <trkpt lat="46.0702467" lon="11.1144529" />
      <trkpt lat="46.0702508" lon="11.1144356" />
      <trkpt lat="46.0702350" lon="11.1143612" />
      <trkpt lat="46.0702262" lon="11.1143187" />
      <trkpt lat="46.0702122" lon="11.1142749" />
      <trkpt lat="46.0701963" lon="11.1142414" />
      <trkpt lat="46.0701713" lon="11.1142018" />
      <trkpt lat="46.0701555" lon="11.1141871" />
      <trkpt lat="46.0701270" lon="11.1141662" />
      <trkpt lat="46.0701061" lon="11.1141508" />
      <trkpt lat="46.0700735" lon="11.1141344" />
      <trkpt lat="46.0699724" lon="11.1140894" />
      <trkpt lat="46.0699342" lon="11.1141162" />
      <trkpt lat="46.0692827" lon="11.1138365" />
      <trkpt lat="46.0692891" lon="11.1138032" />
      <trkpt lat="46.0693007" lon="11.1137442" />
      <trkpt lat="46.0691468" lon="11.1136799" />
      <trkpt lat="46.0691269" lon="11.1136716" />
      <trkpt lat="46.0690246" lon="11.1136730" />
      <trkpt lat="46.0689154" lon="11.1136521" />
      <trkpt lat="46.0688389" lon="11.1136235" />
      <trkpt lat="46.0687643" lon="11.1135895" />
      <trkpt lat="46.0678119" lon="11.1131210" />
      <trkpt lat="46.0673664" lon="11.1128912" />
      <trkpt lat="46.0673965" lon="11.1127666" />
      <trkpt lat="46.0673674" lon="11.1127112" />
      <trkpt lat="46.0673436" lon="11.1126010" />
      <trkpt lat="46.0673234" lon="11.1125481" />
      <trkpt lat="46.0672939" lon="11.1125059" />
      <trkpt lat="46.0664867" lon="11.1121163" />
      <trkpt lat="46.0664563" lon="11.1121081" />
      <trkpt lat="46.0664371" lon="11.1121074" />
      <trkpt lat="46.0664147" lon="11.1121159" />
      <trkpt lat="46.0663940" lon="11.1121409" />
      <trkpt lat="46.0663810" lon="11.1121917" />
      <trkpt lat="46.0663792" lon="11.1120025" />
      <trkpt lat="46.0663848" lon="11.1116740" />
      <trkpt lat="46.0663913" lon="11.1116056" />
      <trkpt lat="46.0663969" lon="11.1115653" />
      <trkpt lat="46.0664056" lon="11.1115441" />
      <trkpt lat="46.0666314" lon="11.1115567" />
      <trkpt lat="46.0671219" lon="11.1115940" />
      <trkpt lat="46.0674885" lon="11.1115995" />
      <trkpt lat="46.0675042" lon="11.1116002" />
      <trkpt lat="46.0675265" lon="11.1115975" />
      <trkpt lat="46.0675460" lon="11.1115895" />
      <trkpt lat="46.0675665" lon="11.1115761" />
      <trkpt lat="46.0675851" lon="11.1115627" />
      <trkpt lat="46.0676980" lon="11.1114593" />
      <trkpt lat="46.0678257" lon="11.1117174" />
      <trkpt lat="46.0682241" lon="11.1125259" />
      <trkpt lat="46.0683564" lon="11.1127915" />
      <trkpt lat="46.0684835" lon="11.1130467" />
      <trkpt lat="46.0684969" lon="11.1130964" />
      <trkpt lat="46.0685085" lon="11.1131533" />
      <trkpt lat="46.0685128" lon="11.1131975" />
      <trkpt lat="46.0685121" lon="11.1132361" />
      <trkpt lat="46.0685063" lon="11.1132629" />
      <trkpt lat="46.0685193" lon="11.1132700" />
      <trkpt lat="46.0686253" lon="11.1133238" />
      <trkpt lat="46.0687718" lon="11.1133981" />
      <trkpt lat="46.0688616" lon="11.1134384" />
      <trkpt lat="46.0688742" lon="11.1133928" />
      <trkpt lat="46.0688728" lon="11.1133145" />
      <trkpt lat="46.0688633" lon="11.1132603" />
      <trkpt lat="46.0688916" lon="11.1131872" />
      <trkpt lat="46.0688901" lon="11.1131189" />
      <trkpt lat="46.0687933" lon="11.1129260" />
      <trkpt lat="46.0689406" lon="11.1127735" />
      <trkpt lat="46.0690593" lon="11.1126534" />
      <trkpt lat="46.0691520" lon="11.1125519" />
      <trkpt lat="46.0691773" lon="11.1125242" />
      <trkpt lat="46.0692286" lon="11.1124675" />
      <trkpt lat="46.0692510" lon="11.1125033" />
      <trkpt lat="46.0693956" lon="11.1124485" />
      <trkpt lat="46.0694648" lon="11.1125839" />
      <trkpt lat="46.0694822" lon="11.1125557" />
      <trkpt lat="46.0695575" lon="11.1127267" />
      <trkpt lat="46.0696460" lon="11.1129212" />
      <trkpt lat="46.0697160" lon="11.1130809" />
      <trkpt lat="46.0698001" lon="11.1132688" />
      <trkpt lat="46.0698841" lon="11.1134535" />
      <trkpt lat="46.0698903" lon="11.1134740" />
      <trkpt lat="46.0698938" lon="11.1134943" />
      <trkpt lat="46.0698966" lon="11.1135082" />
      <trkpt lat="46.0699470" lon="11.1136398" />
      <trkpt lat="46.0700069" lon="11.1137728" />
      <trkpt lat="46.0699847" lon="11.1137969" />
      <trkpt lat="46.0699068" lon="11.1138839" />
      <trkpt lat="46.0698971" lon="11.1138947" />
      <trkpt lat="46.0701004" lon="11.1139878" />
      <trkpt lat="46.0701414" lon="11.1139943" />
      <trkpt lat="46.0701824" lon="11.1139941" />
      <trkpt lat="46.0702044" lon="11.1139869" />
      <trkpt lat="46.0702044" lon="11.1140479" />
      <trkpt lat="46.0702038" lon="11.1140736" />
      <trkpt lat="46.0701933" lon="11.1141300" />
      <trkpt lat="46.0701826" lon="11.1141474" />
      <trkpt lat="46.0701713" lon="11.1142018" />
      <trkpt lat="46.0701963" lon="11.1142414" />
      <trkpt lat="46.0702122" lon="11.1142749" />
      <trkpt lat="46.0702262" lon="11.1143187" />
      <trkpt lat="46.0702350" lon="11.1143612" />
      <trkpt lat="46.0702508" lon="11.1144356" />
      <trkpt lat="46.0702894" lon="11.1144548" />
      <trkpt lat="46.0703300" lon="11.1144739" />
      <trkpt lat="46.0703250" lon="11.1144890" />
      <trkpt lat="46.0699886" lon="11.1157401" />
      <trkpt lat="46.0699948" lon="11.1157680" />
      <trkpt lat="46.0699441" lon="11.1157384" />
      <trkpt lat="46.0698998" lon="11.1157127" />
      <trkpt lat="46.0698507" lon="11.1157710" />
      <trkpt lat="46.0697948" lon="11.1158159" />
      <trkpt lat="46.0697290" lon="11.1158495" />
      <trkpt lat="46.0696957" lon="11.1158516" />
      <trkpt lat="46.0696409" lon="11.1158489" />
      <trkpt lat="46.0696120" lon="11.1158421" />
      <trkpt lat="46.0695555" lon="11.1157924" />
      <trkpt lat="46.0694630" lon="11.1156868" />
      <trkpt lat="46.0694235" lon="11.1157469" />
      <trkpt lat="46.0693849" lon="11.1158089" />
      <trkpt lat="46.0693136" lon="11.1157333" />
      <trkpt lat="46.0692466" lon="11.1156656" />
      <trkpt lat="46.0687736" lon="11.1154405" />
      <trkpt lat="46.0684713" lon="11.1152908" />
      <trkpt lat="46.0684761" lon="11.1152723" />
      <trkpt lat="46.0684713" lon="11.1152908" />
      <trkpt lat="46.0687736" lon="11.1154405" />
      <trkpt lat="46.0692466" lon="11.1156656" />
      <trkpt lat="46.0693136" lon="11.1157333" />
      <trkpt lat="46.0693849" lon="11.1158089" />
      <trkpt lat="46.0694235" lon="11.1157469" />
      <trkpt lat="46.0694630" lon="11.1156868" />
      <trkpt lat="46.0695555" lon="11.1157924" />
      <trkpt lat="46.0696120" lon="11.1158421" />
      <trkpt lat="46.0696409" lon="11.1158489" />
      <trkpt lat="46.0696957" lon="11.1158516" />
      <trkpt lat="46.0697290" lon="11.1158495" />
      <trkpt lat="46.0697948" lon="11.1158159" />
      <trkpt lat="46.0698507" lon="11.1157710" />
      <trkpt lat="46.0698998" lon="11.1157127" />
      <trkpt lat="46.0699151" lon="11.1156990" />
      <trkpt lat="46.0702467" lon="11.1144529" />
      <trkpt lat="46.0702508" lon="11.1144356" />
      <trkpt lat="46.0702350" lon="11.1143612" />
      <trkpt lat="46.0702262" lon="11.1143187" />
      <trkpt lat="46.0702122" lon="11.1142749" />
      <trkpt lat="46.0701963" lon="11.1142414" />
      <trkpt lat="46.0701713" lon="11.1142018" />
      <trkpt lat="46.0701555" lon="11.1141871" />
      <trkpt lat="46.0701270" lon="11.1141662" />
      <trkpt lat="46.0701061" lon="11.1141508" />
      <trkpt lat="46.0700735" lon="11.1141344" />
      <trkpt lat="46.0699724" lon="11.1140894" />
      <trkpt lat="46.0699342" lon="11.1141162" />
      <trkpt lat="46.0692827" lon="11.1138365" />
      <trkpt lat="46.0692891" lon="11.1138032" />
      <trkpt lat="46.0693007" lon="11.1137442" />
      <trkpt lat="46.0691468" lon="11.1136799" />
      <trkpt lat="46.0691269" lon="11.1136716" />
      <trkpt lat="46.0690252" lon="11.1135703" />
      <trkpt lat="46.0688523" lon="11.1134865" />
      <trkpt lat="46.0688583" lon="11.1134553" />
      <trkpt lat="46.0688616" lon="11.1134384" />
      <trkpt lat="46.0687718" lon="11.1133981" />
      <trkpt lat="46.0686253" lon="11.1133238" />
      <trkpt lat="46.0685193" lon="11.1132700" />
      <trkpt lat="46.0685063" lon="11.1132629" />
      <trkpt lat="46.0685121" lon="11.1132361" />
      <trkpt lat="46.0685128" lon="11.1131975" />
      <trkpt lat="46.0685085" lon="11.1131533" />
      <trkpt lat="46.0684969" lon="11.1130964" />
      <trkpt lat="46.0684835" lon="11.1130467" />
      <trkpt lat="46.0683564" lon="11.1127915" />
      <trkpt lat="46.0684835" lon="11.1130467" />
      <trkpt lat="46.0684969" lon="11.1130964" />
      <trkpt lat="46.0685085" lon="11.1131533" />
      <trkpt lat="46.0685128" lon="11.1131975" />
      <trkpt lat="46.0685121" lon="11.1132361" />
      <trkpt lat="46.0685063" lon="11.1132629" />
      <trkpt lat="46.0685193" lon="11.1132700" />
      <trkpt lat="46.0686253" lon="11.1133238" />
      <trkpt lat="46.0687718" lon="11.1133981" />
      <trkpt lat="46.0688616" lon="11.1134384" />
      <trkpt lat="46.0688583" lon="11.1134553" />
      <trkpt lat="46.0688523" lon="11.1134865" />
      <trkpt lat="46.0690252" lon="11.1135703" />
      <trkpt lat="46.0691269" lon="11.1136716" />
      <trkpt lat="46.0691468" lon="11.1136799" />
      <trkpt lat="46.0693007" lon="11.1137442" />
      <trkpt lat="46.0692891" lon="11.1138032" />
      <trkpt lat="46.0692827" lon="11.1138365" />
      <trkpt lat="46.0699342" lon="11.1141162" />
      <trkpt lat="46.0699724" lon="11.1140894" />
      <trkpt lat="46.0700735" lon="11.1141344" />
      <trkpt lat="46.0701061" lon="11.1141508" />
      <trkpt lat="46.0701270" lon="11.1141662" />
      <trkpt lat="46.0701555" lon="11.1141871" />
      <trkpt lat="46.0701713" lon="11.1142018" />
      <trkpt lat="46.0701963" lon="11.1142414" />
      <trkpt lat="46.0702122" lon="11.1142749" />
      <trkpt lat="46.0702262" lon="11.1143187" />
      <trkpt lat="46.0702350" lon="11.1143612" />
      <trkpt lat="46.0702508" lon="11.1144356" />
      <trkpt lat="46.0702467" lon="11.1144529" />
      <trkpt lat="46.0699151" lon="11.1156990" />
      <trkpt lat="46.0698998" lon="11.1157127" />
      <trkpt lat="46.0698507" lon="11.1157710" />
      <trkpt lat="46.0697948" lon="11.1158159" />
      <trkpt lat="46.0697290" lon="11.1158495" />
      <trkpt lat="46.0696957" lon="11.1158516" />
      <trkpt lat="46.0696409" lon="11.1158489" />
      <trkpt lat="46.0696120" lon="11.1158421" />
      <trkpt lat="46.0695555" lon="11.1157924" />
      <trkpt lat="46.0694630" lon="11.1156868" />
      <trkpt lat="46.0694235" lon="11.1157469" />
      <trkpt lat="46.0693849" lon="11.1158089" />
      <trkpt lat="46.0693136" lon="11.1157333" />
      <trkpt lat="46.0692466" lon="11.1156656" />
      <trkpt lat="46.0687736" lon="11.1154405" />
      <trkpt lat="46.0684713" lon="11.1152908" />
      <trkpt lat="46.0684761" lon="11.1152723" />
      <trkpt lat="46.0685040" lon="11.1151593" />
      <trkpt lat="46.0685281" lon="11.1150552" />
      <trkpt lat="46.0684505" lon="11.1150136" />
      <trkpt lat="46.0684652" lon="11.1149557" />
      <trkpt lat="46.0682349" lon="11.1148330" />
      <trkpt lat="46.0680007" lon="11.1147262" />
      <trkpt lat="46.0679160" lon="11.1146998" />
      <trkpt lat="46.0679084" lon="11.1150043" />
      <trkpt lat="46.0679274" lon="11.1150878" />
      <trkpt lat="46.0679385" lon="11.1151351" />
      <trkpt lat="46.0679464" lon="11.1152036" />
      <trkpt lat="46.0679492" lon="11.1152645" />
      <trkpt lat="46.0679464" lon="11.1153270" />
      <trkpt lat="46.0677902" lon="11.1152526" />
      <trkpt lat="46.0677326" lon="11.1152266" />
      <trkpt lat="46.0677226" lon="11.1152814" />
      <trkpt lat="46.0676880" lon="11.1154272" />
      <trkpt lat="46.0676824" lon="11.1154491" />
      <trkpt lat="46.0676517" lon="11.1155683" />
      <trkpt lat="46.0670575" lon="11.1152640" />
      <trkpt lat="46.0668776" lon="11.1151719" />
      <trkpt lat="46.0668220" lon="11.1151409" />
      <trkpt lat="46.0668776" lon="11.1151719" />
      <trkpt lat="46.0670575" lon="11.1152640" />
      <trkpt lat="46.0676517" lon="11.1155683" />
      <trkpt lat="46.0676824" lon="11.1154491" />
      <trkpt lat="46.0676880" lon="11.1154272" />
      <trkpt lat="46.0677226" lon="11.1152814" />
      <trkpt lat="46.0677326" lon="11.1152266" />
      <trkpt lat="46.0677902" lon="11.1152526" />
      <trkpt lat="46.0679464" lon="11.1153270" />
      <trkpt lat="46.0679492" lon="11.1152645" />
      <trkpt lat="46.0679464" lon="11.1152036" />
      <trkpt lat="46.0679385" lon="11.1151351" />
      <trkpt lat="46.0679274" lon="11.1150878" />
      <trkpt lat="46.0679084" lon="11.1150043" />
      <trkpt lat="46.0679737" lon="11.1149448" />
      <trkpt lat="46.0680238" lon="11.1149118" />
      <trkpt lat="46.0680942" lon="11.1149057" />
      <trkpt lat="46.0682075" lon="11.1149285" />
      <trkpt lat="46.0682349" lon="11.1148330" />
      <trkpt lat="46.0684652" lon="11.1149557" />
      <trkpt lat="46.0684505" lon="11.1150136" />
      <trkpt lat="46.0685281" lon="11.1150552" />
      <trkpt lat="46.0685040" lon="11.1151593" />
      <trkpt lat="46.0684761" lon="11.1152723" />
      <trkpt lat="46.0684713" lon="11.1152908" />
      <trkpt lat="46.0687736" lon="11.1154405" />
      <trkpt lat="46.0692466" lon="11.1156656" />
      <trkpt lat="46.0693136" lon="11.1157333" />
      <trkpt lat="46.0693849" lon="11.1158089" />
      <trkpt lat="46.0694825" lon="11.1159653" />
      <trkpt lat="46.0695837" lon="11.1160774" />
      <trkpt lat="46.0696531" lon="11.1161456" />
      <trkpt lat="46.0698035" lon="11.1162762" />
      <trkpt lat="46.0699295" lon="11.1163939" />
      <trkpt lat="46.0699495" lon="11.1164167" />
      <trkpt lat="46.0700000" lon="11.1164941" />
      <trkpt lat="46.0700236" lon="11.1165374" />
      <trkpt lat="46.0700680" lon="11.1166069" />
      <trkpt lat="46.0701165" lon="11.1166890" />
      <trkpt lat="46.0701363" lon="11.1167225" />
      <trkpt lat="46.0701743" lon="11.1167917" />
      <trkpt lat="46.0702123" lon="11.1168786" />
      <trkpt lat="46.0702292" lon="11.1169470" />
      <trkpt lat="46.0702367" lon="11.1170213" />
      <trkpt lat="46.0702287" lon="11.1171541" />
      <trkpt lat="46.0702169" lon="11.1171918" />
      <trkpt lat="46.0701805" lon="11.1173050" />
      <trkpt lat="46.0700861" lon="11.1176034" />
      <trkpt lat="46.0700527" lon="11.1177069" />
      <trkpt lat="46.0700431" lon="11.1177476" />
      <trkpt lat="46.0700369" lon="11.1177882" />
      <trkpt lat="46.0700305" lon="11.1178362" />
      <trkpt lat="46.0700294" lon="11.1178856" />
      <trkpt lat="46.0700269" lon="11.1179061" />
      <trkpt lat="46.0699908" lon="11.1179414" />
      <trkpt lat="46.0699871" lon="11.1179668" />
      <trkpt lat="46.0699905" lon="11.1180483" />
      <trkpt lat="46.0700084" lon="11.1181540" />
      <trkpt lat="46.0699803" lon="11.1181633" />
      <trkpt lat="46.0699941" lon="11.1182001" />
      <trkpt lat="46.0700049" lon="11.1182351" />
      <trkpt lat="46.0700436" lon="11.1186690" />
      <trkpt lat="46.0699695" lon="11.1186849" />
      <trkpt lat="46.0699125" lon="11.1186966" />
      <trkpt lat="46.0699308" lon="11.1188005" />
      <trkpt lat="46.0699785" lon="11.1192586" />
      <trkpt lat="46.0700070" lon="11.1194923" />
      <trkpt lat="46.0700153" lon="11.1195757" />
      <trkpt lat="46.0700221" lon="11.1196829" />
      <trkpt lat="46.0699981" lon="11.1197027" />
      <trkpt lat="46.0700021" lon="11.1197557" />
      <trkpt lat="46.0700053" lon="11.1197976" />
      <trkpt lat="46.0700337" lon="11.1198021" />
      <trkpt lat="46.0700585" lon="11.1200224" />
      <trkpt lat="46.0700263" lon="11.1200442" />
      <trkpt lat="46.0700035" lon="11.1200514" />
      <trkpt lat="46.0699592" lon="11.1200596" />
      <trkpt lat="46.0697080" lon="11.1201069" />
      <trkpt lat="46.0699592" lon="11.1200596" />
      <trkpt lat="46.0700035" lon="11.1200514" />
      <trkpt lat="46.0700263" lon="11.1200442" />
      <trkpt lat="46.0700585" lon="11.1200224" />
      <trkpt lat="46.0700337" lon="11.1198021" />
      <trkpt lat="46.0700053" lon="11.1197976" />
      <trkpt lat="46.0700021" lon="11.1197557" />
      <trkpt lat="46.0699981" lon="11.1197027" />
      <trkpt lat="46.0700221" lon="11.1196829" />
      <trkpt lat="46.0700153" lon="11.1195757" />
      <trkpt lat="46.0700070" lon="11.1194923" />
      <trkpt lat="46.0699785" lon="11.1192586" />
      <trkpt lat="46.0699308" lon="11.1188005" />
      <trkpt lat="46.0699125" lon="11.1186966" />
      <trkpt lat="46.0699695" lon="11.1186849" />
      <trkpt lat="46.0700436" lon="11.1186690" />
      <trkpt lat="46.0700049" lon="11.1182351" />
      <trkpt lat="46.0699941" lon="11.1182001" />
      <trkpt lat="46.0699803" lon="11.1181633" />
      <trkpt lat="46.0700084" lon="11.1181540" />
      <trkpt lat="46.0699905" lon="11.1180483" />
      <trkpt lat="46.0699871" lon="11.1179668" />
      <trkpt lat="46.0699908" lon="11.1179414" />
      <trkpt lat="46.0700269" lon="11.1179061" />
      <trkpt lat="46.0700294" lon="11.1178856" />
      <trkpt lat="46.0700305" lon="11.1178362" />
      <trkpt lat="46.0700369" lon="11.1177882" />
      <trkpt lat="46.0700431" lon="11.1177476" />
      <trkpt lat="46.0700527" lon="11.1177069" />
      <trkpt lat="46.0700861" lon="11.1176034" />
      <trkpt lat="46.0701805" lon="11.1173050" />
      <trkpt lat="46.0702169" lon="11.1171918" />
      <trkpt lat="46.0702287" lon="11.1171541" />
      <trkpt lat="46.0702367" lon="11.1170213" />
      <trkpt lat="46.0702292" lon="11.1169470" />
      <trkpt lat="46.0702123" lon="11.1168786" />
      <trkpt lat="46.0701743" lon="11.1167917" />
      <trkpt lat="46.0701363" lon="11.1167225" />
      <trkpt lat="46.0701165" lon="11.1166890" />
      <trkpt lat="46.0700680" lon="11.1166069" />
      <trkpt lat="46.0700236" lon="11.1165374" />
      <trkpt lat="46.0700000" lon="11.1164941" />
      <trkpt lat="46.0699495" lon="11.1164167" />
      <trkpt lat="46.0699295" lon="11.1163939" />
      <trkpt lat="46.0698035" lon="11.1162762" />
      <trkpt lat="46.0696531" lon="11.1161456" />
      <trkpt lat="46.0695837" lon="11.1160774" />
      <trkpt lat="46.0694825" lon="11.1159653" />
      <trkpt lat="46.0693849" lon="11.1158089" />
      <trkpt lat="46.0693136" lon="11.1157333" />
      <trkpt lat="46.0692466" lon="11.1156656" />
      <trkpt lat="46.0687736" lon="11.1154405" />
      <trkpt lat="46.0684713" lon="11.1152908" />
      <trkpt lat="46.0684761" lon="11.1152723" />
      <trkpt lat="46.0685040" lon="11.1151593" />
      <trkpt lat="46.0685281" lon="11.1150552" />
      <trkpt lat="46.0684505" lon="11.1150136" />
      <trkpt lat="46.0684652" lon="11.1149557" />
      <trkpt lat="46.0682349" lon="11.1148330" />
      <trkpt lat="46.0682075" lon="11.1149285" />
      <trkpt lat="46.0680942" lon="11.1149057" />
      <trkpt lat="46.0680238" lon="11.1149118" />
      <trkpt lat="46.0679737" lon="11.1149448" />
      <trkpt lat="46.0679084" lon="11.1150043" />
      <trkpt lat="46.0679274" lon="11.1150878" />
      <trkpt lat="46.0679385" lon="11.1151351" />
      <trkpt lat="46.0679464" lon="11.1152036" />
      <trkpt lat="46.0679492" lon="11.1152645" />
      <trkpt lat="46.0679464" lon="11.1153270" />
      <trkpt lat="46.0680332" lon="11.1153684" />
      <trkpt lat="46.0681265" lon="11.1153883" />
      <trkpt lat="46.0681384" lon="11.1153939" />
      <trkpt lat="46.0681850" lon="11.1153880" />
      <trkpt lat="46.0682188" lon="11.1153837" />
      <trkpt lat="46.0680940" lon="11.1158801" />
      <trkpt lat="46.0680737" lon="11.1158721" />
      <trkpt lat="46.0680707" lon="11.1158822" />
      <trkpt lat="46.0680338" lon="11.1160199" />
      <trkpt lat="46.0679753" lon="11.1163254" />
      <trkpt lat="46.0679940" lon="11.1164565" />
      <trkpt lat="46.0680545" lon="11.1170328" />
      <trkpt lat="46.0681191" lon="11.1171294" />
      <trkpt lat="46.0681614" lon="11.1171908" />
      <trkpt lat="46.0681933" lon="11.1173361" />
      <trkpt lat="46.0682064" lon="11.1174220" />
      <trkpt lat="46.0682676" lon="11.1178159" />
      <trkpt lat="46.0682882" lon="11.1180511" />
      <trkpt lat="46.0683173" lon="11.1186358" />
      <trkpt lat="46.0683328" lon="11.1186343" />
      <trkpt lat="46.0683351" lon="11.1186769" />
      <trkpt lat="46.0684127" lon="11.1186739" />
      <trkpt lat="46.0684165" lon="11.1187327" />
      <trkpt lat="46.0684199" lon="11.1187854" />
      <trkpt lat="46.0684296" lon="11.1187852" />
      <trkpt lat="46.0684411" lon="11.1187850" />
      <trkpt lat="46.0684638" lon="11.1190894" />
      <trkpt lat="46.0684592" lon="11.1192417" />
      <trkpt lat="46.0684638" lon="11.1190894" />
      <trkpt lat="46.0684411" lon="11.1187850" />
      <trkpt lat="46.0684296" lon="11.1187852" />
      <trkpt lat="46.0684199" lon="11.1187854" />
      <trkpt lat="46.0684165" lon="11.1187327" />
      <trkpt lat="46.0684127" lon="11.1186739" />
      <trkpt lat="46.0683351" lon="11.1186769" />
      <trkpt lat="46.0683328" lon="11.1186343" />
      <trkpt lat="46.0683173" lon="11.1186358" />
      <trkpt lat="46.0682882" lon="11.1180511" />
      <trkpt lat="46.0682676" lon="11.1178159" />
      <trkpt lat="46.0682064" lon="11.1174220" />
      <trkpt lat="46.0681933" lon="11.1173361" />
      <trkpt lat="46.0681614" lon="11.1171908" />
      <trkpt lat="46.0681191" lon="11.1171294" />
      <trkpt lat="46.0680545" lon="11.1170328" />
      <trkpt lat="46.0679940" lon="11.1164565" />
      <trkpt lat="46.0679753" lon="11.1163254" />
      <trkpt lat="46.0680338" lon="11.1160199" />
      <trkpt lat="46.0680707" lon="11.1158822" />
      <trkpt lat="46.0680737" lon="11.1158721" />
      <trkpt lat="46.0680940" lon="11.1158801" />
      <trkpt lat="46.0680519" lon="11.1160474" />
      <trkpt lat="46.0680115" lon="11.1160261" />
      <trkpt lat="46.0680519" lon="11.1160474" />
      <trkpt lat="46.0680940" lon="11.1158801" />
      <trkpt lat="46.0680737" lon="11.1158721" />
      <trkpt lat="46.0680707" lon="11.1158822" />
      <trkpt lat="46.0680338" lon="11.1160199" />
      <trkpt lat="46.0679753" lon="11.1163254" />
      <trkpt lat="46.0679940" lon="11.1164565" />
      <trkpt lat="46.0680545" lon="11.1170328" />
      <trkpt lat="46.0680067" lon="11.1170296" />
      <trkpt lat="46.0673776" lon="11.1171703" />
      <trkpt lat="46.0673863" lon="11.1172558" />
      <trkpt lat="46.0673143" lon="11.1172705" />
      <trkpt lat="46.0671336" lon="11.1173057" />
      <trkpt lat="46.0670857" lon="11.1173151" />
      <trkpt lat="46.0667857" lon="11.1173756" />
      <trkpt lat="46.0667689" lon="11.1173796" />
      <trkpt lat="46.0667739" lon="11.1174353" />
      <trkpt lat="46.0667612" lon="11.1174379" />
      <trkpt lat="46.0665770" lon="11.1174755" />
      <trkpt lat="46.0665840" lon="11.1175686" />
      <trkpt lat="46.0666285" lon="11.1179842" />
      <trkpt lat="46.0666307" lon="11.1180277" />
      <trkpt lat="46.0666330" lon="11.1180667" />
      <trkpt lat="46.0667342" lon="11.1188998" />
      <trkpt lat="46.0667443" lon="11.1190130" />
      <trkpt lat="46.0667536" lon="11.1191108" />
      <trkpt lat="46.0667443" lon="11.1190130" />
      <trkpt lat="46.0667342" lon="11.1188998" />
      <trkpt lat="46.0666330" lon="11.1180667" />
      <trkpt lat="46.0666307" lon="11.1180277" />
      <trkpt lat="46.0666285" lon="11.1179842" />
      <trkpt lat="46.0665840" lon="11.1175686" />
      <trkpt lat="46.0665770" lon="11.1174755" />
      <trkpt lat="46.0665707" lon="11.1174180" />
      <trkpt lat="46.0665455" lon="11.1174243" />
      <trkpt lat="46.0665317" lon="11.1174270" />
      <trkpt lat="46.0665199" lon="11.1174314" />
      <trkpt lat="46.0664630" lon="11.1174414" />
      <trkpt lat="46.0664518" lon="11.1174437" />
      <trkpt lat="46.0664459" lon="11.1173714" />
      <trkpt lat="46.0664553" lon="11.1173406" />
      <trkpt lat="46.0664518" lon="11.1172941" />
      <trkpt lat="46.0664295" lon="11.1170349" />
      <trkpt lat="46.0664216" lon="11.1169920" />
      <trkpt lat="46.0664228" lon="11.1169318" />
      <trkpt lat="46.0664265" lon="11.1168526" />
      <trkpt lat="46.0664206" lon="11.1167830" />
      <trkpt lat="46.0663304" lon="11.1158787" />
      <trkpt lat="46.0662859" lon="11.1154964" />
      <trkpt lat="46.0662780" lon="11.1154225" />
      <trkpt lat="46.0662859" lon="11.1154964" />
      <trkpt lat="46.0663304" lon="11.1158787" />
      <trkpt lat="46.0664206" lon="11.1167830" />
      <trkpt lat="46.0664265" lon="11.1168526" />
      <trkpt lat="46.0664228" lon="11.1169318" />
      <trkpt lat="46.0664216" lon="11.1169920" />
      <trkpt lat="46.0664295" lon="11.1170349" />
      <trkpt lat="46.0664518" lon="11.1172941" />
      <trkpt lat="46.0664553" lon="11.1173406" />
      <trkpt lat="46.0664459" lon="11.1173714" />
      <trkpt lat="46.0664518" lon="11.1174437" />
      <trkpt lat="46.0661061" lon="11.1175142" />
      <trkpt lat="46.0656754" lon="11.1176028" />
      <trkpt lat="46.0652397" lon="11.1176989" />
      <trkpt lat="46.0651934" lon="11.1177089" />
      <trkpt lat="46.0651950" lon="11.1180758" />
      <trkpt lat="46.0652151" lon="11.1188117" />
      <trkpt lat="46.0652385" lon="11.1192116" />
      <trkpt lat="46.0652869" lon="11.1191976" />
      <trkpt lat="46.0653169" lon="11.1192084" />
    </trkseg>
  </trk>
</gpx>
