<?xml version="1.0" encoding="UTF-8"?>
<gpx xmlns="http://www.topografix.com/GPX/1/1" version="1.1" creator="ShapeRoute route-engine">
  <metadata>
    <name>sun 10 km · 2026-10-03</name>
    <author>
      <name>ShapeRoute route-engine</name>
    </author>
    <copyright author="OpenStreetMap contributors">
      <license>https://opendatacommons.org/licenses/odbl/1-0/</license>
    </copyright>
    <link href="https://www.openstreetmap.org/copyright">
      <text>© OpenStreetMap contributors</text>
    </link>
    <time>2026-10-03T19:59:27Z</time>
  </metadata>
  <trk>
    <name>sun 10 km · 2026-10-03</name>
    <trkseg>
      <trkpt lat="45.4643695" lon="9.1897716" />
      <trkpt lat="45.4644313" lon="9.1898582" />
      <trkpt lat="45.4644741" lon="9.1898729" />
      <trkpt lat="45.4645046" lon="9.1898833" />
      <trkpt lat="45.4645446" lon="9.1898970" />
      <trkpt lat="45.4645546" lon="9.1899005" />
      <trkpt lat="45.4645542" lon="9.1899580" />
      <trkpt lat="45.4645497" lon="9.1899580" />
      <trkpt lat="45.4645497" lon="9.1899743" />
      <trkpt lat="45.4645490" lon="9.1902933" />
      <trkpt lat="45.4645233" lon="9.1902840" />
      <trkpt lat="45.4645236" lon="9.1902631" />
      <trkpt lat="45.4645242" lon="9.1902105" />
      <trkpt lat="45.4645252" lon="9.1901826" />
      <trkpt lat="45.4645266" lon="9.1901537" />
      <trkpt lat="45.4645259" lon="9.1900682" />
      <trkpt lat="45.4645262" lon="9.1899918" />
      <trkpt lat="45.4645483" lon="9.1899914" />
      <trkpt lat="45.4646403" lon="9.1899929" />
      <trkpt lat="45.4646838" lon="9.1900001" />
      <trkpt lat="45.4646839" lon="9.1900289" />
      <trkpt lat="45.4647525" lon="9.1900262" />
      <trkpt lat="45.4648210" lon="9.1900262" />
      <trkpt lat="45.4648584" lon="9.1900262" />
      <trkpt lat="45.4651742" lon="9.1900264" />
      <trkpt lat="45.4654339" lon="9.1900265" />
      <trkpt lat="45.4654441" lon="9.1900265" />
      <trkpt lat="45.4654945" lon="9.1900265" />
      <trkpt lat="45.4656114" lon="9.1900265" />
      <trkpt lat="45.4657212" lon="9.1900266" />
      <trkpt lat="45.4657697" lon="9.1900266" />
      <trkpt lat="45.4657805" lon="9.1900258" />
      <trkpt lat="45.4660513" lon="9.1900267" />
      <trkpt lat="45.4663725" lon="9.1900268" />
      <trkpt lat="45.4664257" lon="9.1900265" />
      <trkpt lat="45.4664632" lon="9.1900269" />
      <trkpt lat="45.4665392" lon="9.1900178" />
      <trkpt lat="45.4665605" lon="9.1900449" />
      <trkpt lat="45.4665749" lon="9.1900623" />
      <trkpt lat="45.4665589" lon="9.1900900" />
      <trkpt lat="45.4665747" lon="9.1901091" />
      <trkpt lat="45.4668229" lon="9.1900476" />
      <trkpt lat="45.4665747" lon="9.1901091" />
      <trkpt lat="45.4665589" lon="9.1900900" />
      <trkpt lat="45.4665749" lon="9.1900623" />
      <trkpt lat="45.4665605" lon="9.1900449" />
      <trkpt lat="45.4665392" lon="9.1900178" />
      <trkpt lat="45.4664632" lon="9.1900269" />
      <trkpt lat="45.4664257" lon="9.1900265" />
      <trkpt lat="45.4663725" lon="9.1900268" />
      <trkpt lat="45.4660513" lon="9.1900267" />
      <trkpt lat="45.4657805" lon="9.1900258" />
      <trkpt lat="45.4657697" lon="9.1900266" />
      <trkpt lat="45.4657212" lon="9.1900266" />
      <trkpt lat="45.4656114" lon="9.1900265" />
      <trkpt lat="45.4654945" lon="9.1900265" />
      <trkpt lat="45.4654441" lon="9.1900265" />
      <trkpt lat="45.4654339" lon="9.1900265" />
      <trkpt lat="45.4651742" lon="9.1900264" />
      <trkpt lat="45.4648584" lon="9.1900262" />
      <trkpt lat="45.4648210" lon="9.1900262" />
      <trkpt lat="45.4647525" lon="9.1900262" />
      <trkpt lat="45.4646839" lon="9.1900289" />
      <trkpt lat="45.4646838" lon="9.1900001" />
      <trkpt lat="45.4646403" lon="9.1899929" />
      <trkpt lat="45.4646418" lon="9.1902726" />
      <trkpt lat="45.4646465" lon="9.1911206" />
      <trkpt lat="45.4646515" lon="9.1916688" />
      <trkpt lat="45.4646511" lon="9.1923052" />
      <trkpt lat="45.4645377" lon="9.1923059" />
      <trkpt lat="45.4645367" lon="9.1924709" />
      <trkpt lat="45.4643963" lon="9.1924716" />
      <trkpt lat="45.4642136" lon="9.1927217" />
      <trkpt lat="45.4645351" lon="9.1927354" />
      <trkpt lat="45.4645357" lon="9.1927628" />
      <trkpt lat="45.4638518" lon="9.1927544" />
      <trkpt lat="45.4637264" lon="9.1927530" />
      <trkpt lat="45.4638518" lon="9.1927544" />
      <trkpt lat="45.4645357" lon="9.1927628" />
      <trkpt lat="45.4645353" lon="9.1929721" />
      <trkpt lat="45.4645351" lon="9.1929820" />
      <trkpt lat="45.4645181" lon="9.1934942" />
      <trkpt lat="45.4645224" lon="9.1935138" />
      <trkpt lat="45.4645350" lon="9.1935625" />
      <trkpt lat="45.4645818" lon="9.1935379" />
      <trkpt lat="45.4646239" lon="9.1935156" />
      <trkpt lat="45.4646319" lon="9.1935470" />
      <trkpt lat="45.4646358" lon="9.1935661" />
      <trkpt lat="45.4646393" lon="9.1935734" />
      <trkpt lat="45.4646776" lon="9.1937309" />
      <trkpt lat="45.4647295" lon="9.1939299" />
      <trkpt lat="45.4647686" lon="9.1940840" />
      <trkpt lat="45.4647782" lon="9.1941215" />
      <trkpt lat="45.4648039" lon="9.1941138" />
      <trkpt lat="45.4649264" lon="9.1940324" />
      <trkpt lat="45.4649368" lon="9.1940664" />
      <trkpt lat="45.4649440" lon="9.1940898" />
      <trkpt lat="45.4649480" lon="9.1941028" />
      <trkpt lat="45.4649652" lon="9.1941659" />
      <trkpt lat="45.4650677" lon="9.1945421" />
      <trkpt lat="45.4650720" lon="9.1945582" />
      <trkpt lat="45.4650792" lon="9.1945842" />
      <trkpt lat="45.4650842" lon="9.1946006" />
      <trkpt lat="45.4650902" lon="9.1946236" />
      <trkpt lat="45.4650924" lon="9.1946311" />
      <trkpt lat="45.4650954" lon="9.1946410" />
      <trkpt lat="45.4651051" lon="9.1946782" />
      <trkpt lat="45.4651817" lon="9.1949578" />
      <trkpt lat="45.4652012" lon="9.1950287" />
      <trkpt lat="45.4652200" lon="9.1950928" />
      <trkpt lat="45.4652340" lon="9.1951340" />
      <trkpt lat="45.4652471" lon="9.1951747" />
      <trkpt lat="45.4653098" lon="9.1953612" />
      <trkpt lat="45.4653400" lon="9.1954620" />
      <trkpt lat="45.4654905" lon="9.1959644" />
      <trkpt lat="45.4653400" lon="9.1954620" />
      <trkpt lat="45.4653098" lon="9.1953612" />
      <trkpt lat="45.4652471" lon="9.1951747" />
      <trkpt lat="45.4652340" lon="9.1951340" />
      <trkpt lat="45.4652200" lon="9.1950928" />
      <trkpt lat="45.4650760" lon="9.1951089" />
      <trkpt lat="45.4648248" lon="9.1951415" />
      <trkpt lat="45.4645350" lon="9.1951923" />
      <trkpt lat="45.4644331" lon="9.1952091" />
      <trkpt lat="45.4644072" lon="9.1952141" />
      <trkpt lat="45.4644090" lon="9.1952477" />
      <trkpt lat="45.4644163" lon="9.1953905" />
      <trkpt lat="45.4644201" lon="9.1954685" />
      <trkpt lat="45.4642353" lon="9.1954672" />
      <trkpt lat="45.4641604" lon="9.1954701" />
      <trkpt lat="45.4641593" lon="9.1950285" />
      <trkpt lat="45.4640554" lon="9.1949277" />
      <trkpt lat="45.4637095" lon="9.1949335" />
      <trkpt lat="45.4636646" lon="9.1949342" />
      <trkpt lat="45.4636567" lon="9.1945039" />
      <trkpt lat="45.4636520" lon="9.1944236" />
      <trkpt lat="45.4636457" lon="9.1943613" />
      <trkpt lat="45.4636367" lon="9.1943097" />
      <trkpt lat="45.4636248" lon="9.1942636" />
      <trkpt lat="45.4636136" lon="9.1942488" />
      <trkpt lat="45.4636130" lon="9.1942404" />
      <trkpt lat="45.4636051" lon="9.1941328" />
      <trkpt lat="45.4636012" lon="9.1940812" />
      <trkpt lat="45.4635492" lon="9.1940841" />
      <trkpt lat="45.4634994" lon="9.1940626" />
      <trkpt lat="45.4634573" lon="9.1940191" />
      <trkpt lat="45.4634274" lon="9.1939584" />
      <trkpt lat="45.4634132" lon="9.1938870" />
      <trkpt lat="45.4634137" lon="9.1938745" />
      <trkpt lat="45.4633796" lon="9.1938739" />
      <trkpt lat="45.4633648" lon="9.1938736" />
      <trkpt lat="45.4633533" lon="9.1938733" />
      <trkpt lat="45.4633434" lon="9.1938731" />
      <trkpt lat="45.4633291" lon="9.1938728" />
      <trkpt lat="45.4633163" lon="9.1938725" />
      <trkpt lat="45.4633070" lon="9.1938723" />
      <trkpt lat="45.4632895" lon="9.1938719" />
      <trkpt lat="45.4632829" lon="9.1938717" />
      <trkpt lat="45.4632478" lon="9.1938710" />
      <trkpt lat="45.4632314" lon="9.1938706" />
      <trkpt lat="45.4632318" lon="9.1937625" />
      <trkpt lat="45.4632278" lon="9.1937399" />
      <trkpt lat="45.4632174" lon="9.1937271" />
      <trkpt lat="45.4632027" lon="9.1937260" />
      <trkpt lat="45.4631880" lon="9.1937272" />
      <trkpt lat="45.4627294" lon="9.1937651" />
      <trkpt lat="45.4626609" lon="9.1938820" />
      <trkpt lat="45.4626572" lon="9.1939416" />
      <trkpt lat="45.4626393" lon="9.1939579" />
      <trkpt lat="45.4626091" lon="9.1939856" />
      <trkpt lat="45.4625917" lon="9.1940013" />
      <trkpt lat="45.4625872" lon="9.1940054" />
      <trkpt lat="45.4625702" lon="9.1940208" />
      <trkpt lat="45.4625679" lon="9.1940229" />
      <trkpt lat="45.4625557" lon="9.1940340" />
      <trkpt lat="45.4625485" lon="9.1940405" />
      <trkpt lat="45.4625407" lon="9.1940476" />
      <trkpt lat="45.4625378" lon="9.1940502" />
      <trkpt lat="45.4625248" lon="9.1940621" />
      <trkpt lat="45.4625116" lon="9.1940741" />
      <trkpt lat="45.4624918" lon="9.1940922" />
      <trkpt lat="45.4624660" lon="9.1941156" />
      <trkpt lat="45.4624435" lon="9.1941361" />
      <trkpt lat="45.4621288" lon="9.1944618" />
      <trkpt lat="45.4620850" lon="9.1945305" />
      <trkpt lat="45.4619207" lon="9.1948811" />
      <trkpt lat="45.4619072" lon="9.1949200" />
      <trkpt lat="45.4618883" lon="9.1949199" />
      <trkpt lat="45.4618293" lon="9.1948889" />
      <trkpt lat="45.4618267" lon="9.1948968" />
      <trkpt lat="45.4618124" lon="9.1949397" />
      <trkpt lat="45.4616129" lon="9.1948274" />
      <trkpt lat="45.4615690" lon="9.1948109" />
      <trkpt lat="45.4614813" lon="9.1949765" />
      <trkpt lat="45.4614550" lon="9.1950260" />
      <trkpt lat="45.4612827" lon="9.1953750" />
      <trkpt lat="45.4613913" lon="9.1955788" />
      <trkpt lat="45.4614235" lon="9.1956391" />
      <trkpt lat="45.4613120" lon="9.1957900" />
      <trkpt lat="45.4609241" lon="9.1962669" />
      <trkpt lat="45.4608649" lon="9.1963960" />
      <trkpt lat="45.4608505" lon="9.1964320" />
      <trkpt lat="45.4608739" lon="9.1965558" />
      <trkpt lat="45.4609010" lon="9.1966951" />
      <trkpt lat="45.4609172" lon="9.1984309" />
      <trkpt lat="45.4609175" lon="9.1985015" />
      <trkpt lat="45.4609172" lon="9.1984309" />
      <trkpt lat="45.4609010" lon="9.1966951" />
      <trkpt lat="45.4608739" lon="9.1965558" />
      <trkpt lat="45.4608505" lon="9.1964320" />
      <trkpt lat="45.4608649" lon="9.1963960" />
      <trkpt lat="45.4608069" lon="9.1963423" />
      <trkpt lat="45.4608010" lon="9.1963368" />
      <trkpt lat="45.4611009" lon="9.1959758" />
      <trkpt lat="45.4613456" lon="9.1956856" />
      <trkpt lat="45.4613576" lon="9.1956637" />
      <trkpt lat="45.4613608" lon="9.1956416" />
      <trkpt lat="45.4613601" lon="9.1956287" />
      <trkpt lat="45.4613514" lon="9.1956269" />
      <trkpt lat="45.4613330" lon="9.1956243" />
      <trkpt lat="45.4613052" lon="9.1956211" />
      <trkpt lat="45.4612285" lon="9.1956340" />
      <trkpt lat="45.4611819" lon="9.1956284" />
      <trkpt lat="45.4611531" lon="9.1956147" />
      <trkpt lat="45.4611417" lon="9.1956024" />
      <trkpt lat="45.4611531" lon="9.1956147" />
      <trkpt lat="45.4611819" lon="9.1956284" />
      <trkpt lat="45.4612285" lon="9.1956340" />
      <trkpt lat="45.4613052" lon="9.1956211" />
      <trkpt lat="45.4613330" lon="9.1956243" />
      <trkpt lat="45.4613514" lon="9.1956269" />
      <trkpt lat="45.4613601" lon="9.1956287" />
      <trkpt lat="45.4613561" lon="9.1955953" />
      <trkpt lat="45.4612530" lon="9.1954125" />
      <trkpt lat="45.4614463" lon="9.1949986" />
      <trkpt lat="45.4614629" lon="9.1949597" />
      <trkpt lat="45.4611295" lon="9.1946472" />
      <trkpt lat="45.4611251" lon="9.1946431" />
      <trkpt lat="45.4610472" lon="9.1945683" />
      <trkpt lat="45.4603964" lon="9.1939653" />
      <trkpt lat="45.4603865" lon="9.1939871" />
      <trkpt lat="45.4603197" lon="9.1941416" />
      <trkpt lat="45.4600364" lon="9.1938809" />
      <trkpt lat="45.4598404" lon="9.1942990" />
      <trkpt lat="45.4594605" lon="9.1939413" />
      <trkpt lat="45.4591395" lon="9.1936392" />
      <trkpt lat="45.4594605" lon="9.1939413" />
      <trkpt lat="45.4598404" lon="9.1942990" />
      <trkpt lat="45.4598782" lon="9.1943355" />
      <trkpt lat="45.4599272" lon="9.1943788" />
      <trkpt lat="45.4598336" lon="9.1945795" />
      <trkpt lat="45.4598544" lon="9.1947462" />
      <trkpt lat="45.4599908" lon="9.1948739" />
      <trkpt lat="45.4599512" lon="9.1949607" />
      <trkpt lat="45.4599261" lon="9.1950123" />
      <trkpt lat="45.4599804" lon="9.1950637" />
      <trkpt lat="45.4598226" lon="9.1954140" />
      <trkpt lat="45.4598222" lon="9.1954150" />
      <trkpt lat="45.4598143" lon="9.1954363" />
      <trkpt lat="45.4595179" lon="9.1951536" />
      <trkpt lat="45.4593386" lon="9.1949872" />
      <trkpt lat="45.4590641" lon="9.1947247" />
      <trkpt lat="45.4586870" lon="9.1943722" />
      <trkpt lat="45.4585993" lon="9.1942919" />
      <trkpt lat="45.4585246" lon="9.1942185" />
      <trkpt lat="45.4581730" lon="9.1938777" />
      <trkpt lat="45.4579953" lon="9.1937008" />
      <trkpt lat="45.4579718" lon="9.1936762" />
      <trkpt lat="45.4577035" lon="9.1933585" />
      <trkpt lat="45.4576970" lon="9.1933804" />
      <trkpt lat="45.4576758" lon="9.1934121" />
      <trkpt lat="45.4576531" lon="9.1934447" />
      <trkpt lat="45.4576173" lon="9.1934997" />
      <trkpt lat="45.4576095" lon="9.1935054" />
      <trkpt lat="45.4575834" lon="9.1934956" />
      <trkpt lat="45.4575620" lon="9.1935233" />
      <trkpt lat="45.4575031" lon="9.1936171" />
      <trkpt lat="45.4570327" lon="9.1943466" />
      <trkpt lat="45.4562855" lon="9.1956213" />
      <trkpt lat="45.4562678" lon="9.1956513" />
      <trkpt lat="45.4562609" lon="9.1956641" />
      <trkpt lat="45.4562678" lon="9.1956513" />
      <trkpt lat="45.4562855" lon="9.1956213" />
      <trkpt lat="45.4570327" lon="9.1943466" />
      <trkpt lat="45.4575031" lon="9.1936171" />
      <trkpt lat="45.4575620" lon="9.1935233" />
      <trkpt lat="45.4575834" lon="9.1934956" />
      <trkpt lat="45.4576095" lon="9.1935054" />
      <trkpt lat="45.4576173" lon="9.1934997" />
      <trkpt lat="45.4576531" lon="9.1934447" />
      <trkpt lat="45.4576758" lon="9.1934121" />
      <trkpt lat="45.4576970" lon="9.1933804" />
      <trkpt lat="45.4577035" lon="9.1933585" />
      <trkpt lat="45.4579718" lon="9.1936762" />
      <trkpt lat="45.4579953" lon="9.1937008" />
      <trkpt lat="45.4581730" lon="9.1938777" />
      <trkpt lat="45.4579953" lon="9.1937008" />
      <trkpt lat="45.4579718" lon="9.1936762" />
      <trkpt lat="45.4577035" lon="9.1933585" />
      <trkpt lat="45.4577070" lon="9.1933255" />
      <trkpt lat="45.4577052" lon="9.1933222" />
      <trkpt lat="45.4576733" lon="9.1932763" />
      <trkpt lat="45.4576625" lon="9.1932614" />
      <trkpt lat="45.4576862" lon="9.1931438" />
      <trkpt lat="45.4577209" lon="9.1930884" />
      <trkpt lat="45.4576989" lon="9.1930618" />
      <trkpt lat="45.4578217" lon="9.1928604" />
      <trkpt lat="45.4582412" lon="9.1921769" />
      <trkpt lat="45.4584711" lon="9.1917903" />
      <trkpt lat="45.4584687" lon="9.1917705" />
      <trkpt lat="45.4583447" lon="9.1916233" />
      <trkpt lat="45.4581232" lon="9.1913604" />
      <trkpt lat="45.4576665" lon="9.1909397" />
      <trkpt lat="45.4576383" lon="9.1909377" />
      <trkpt lat="45.4575861" lon="9.1908590" />
      <trkpt lat="45.4573193" lon="9.1909284" />
      <trkpt lat="45.4572810" lon="9.1907363" />
      <trkpt lat="45.4572698" lon="9.1906942" />
      <trkpt lat="45.4572601" lon="9.1907050" />
      <trkpt lat="45.4572348" lon="9.1907169" />
      <trkpt lat="45.4572167" lon="9.1907254" />
      <trkpt lat="45.4571724" lon="9.1907463" />
      <trkpt lat="45.4571536" lon="9.1907551" />
      <trkpt lat="45.4571434" lon="9.1907599" />
      <trkpt lat="45.4571286" lon="9.1907668" />
      <trkpt lat="45.4571174" lon="9.1907713" />
      <trkpt lat="45.4570416" lon="9.1908077" />
      <trkpt lat="45.4570306" lon="9.1908129" />
      <trkpt lat="45.4571062" lon="9.1911492" />
      <trkpt lat="45.4568926" lon="9.1910789" />
      <trkpt lat="45.4557805" lon="9.1907576" />
      <trkpt lat="45.4557062" lon="9.1907377" />
      <trkpt lat="45.4554580" lon="9.1906713" />
      <trkpt lat="45.4554462" lon="9.1906681" />
      <trkpt lat="45.4554404" lon="9.1899943" />
      <trkpt lat="45.4554206" lon="9.1899960" />
      <trkpt lat="45.4554000" lon="9.1899959" />
      <trkpt lat="45.4553602" lon="9.1899946" />
      <trkpt lat="45.4553396" lon="9.1899939" />
      <trkpt lat="45.4553173" lon="9.1900174" />
      <trkpt lat="45.4552561" lon="9.1900328" />
      <trkpt lat="45.4545719" lon="9.1899824" />
      <trkpt lat="45.4552561" lon="9.1900328" />
      <trkpt lat="45.4553173" lon="9.1900174" />
      <trkpt lat="45.4553396" lon="9.1899939" />
      <trkpt lat="45.4553602" lon="9.1899946" />
      <trkpt lat="45.4554000" lon="9.1899959" />
      <trkpt lat="45.4554206" lon="9.1899960" />
      <trkpt lat="45.4554404" lon="9.1899943" />
      <trkpt lat="45.4554462" lon="9.1906681" />
      <trkpt lat="45.4554580" lon="9.1906713" />
      <trkpt lat="45.4557062" lon="9.1907377" />
      <trkpt lat="45.4557805" lon="9.1907576" />
      <trkpt lat="45.4568926" lon="9.1910789" />
      <trkpt lat="45.4571062" lon="9.1911492" />
      <trkpt lat="45.4570306" lon="9.1908129" />
      <trkpt lat="45.4570416" lon="9.1908077" />
      <trkpt lat="45.4571174" lon="9.1907713" />
      <trkpt lat="45.4571286" lon="9.1907668" />
      <trkpt lat="45.4571434" lon="9.1907599" />
      <trkpt lat="45.4571536" lon="9.1907551" />
      <trkpt lat="45.4571724" lon="9.1907463" />
      <trkpt lat="45.4572167" lon="9.1907254" />
      <trkpt lat="45.4572348" lon="9.1907169" />
      <trkpt lat="45.4571289" lon="9.1903815" />
      <trkpt lat="45.4570556" lon="9.1901480" />
      <trkpt lat="45.4570870" lon="9.1901408" />
      <trkpt lat="45.4571139" lon="9.1901368" />
      <trkpt lat="45.4573166" lon="9.1900879" />
      <trkpt lat="45.4574858" lon="9.1900490" />
      <trkpt lat="45.4574806" lon="9.1900234" />
      <trkpt lat="45.4574792" lon="9.1900092" />
      <trkpt lat="45.4574781" lon="9.1899896" />
      <trkpt lat="45.4574849" lon="9.1899881" />
      <trkpt lat="45.4575222" lon="9.1899797" />
      <trkpt lat="45.4575305" lon="9.1899770" />
      <trkpt lat="45.4575378" lon="9.1899738" />
      <trkpt lat="45.4575193" lon="9.1898391" />
      <trkpt lat="45.4574939" lon="9.1896772" />
      <trkpt lat="45.4573934" lon="9.1890845" />
      <trkpt lat="45.4573852" lon="9.1888177" />
      <trkpt lat="45.4574147" lon="9.1882390" />
      <trkpt lat="45.4574265" lon="9.1879437" />
      <trkpt lat="45.4574352" lon="9.1877263" />
      <trkpt lat="45.4574358" lon="9.1877127" />
      <trkpt lat="45.4574542" lon="9.1877136" />
      <trkpt lat="45.4575318" lon="9.1877159" />
      <trkpt lat="45.4576251" lon="9.1877173" />
      <trkpt lat="45.4576411" lon="9.1877175" />
      <trkpt lat="45.4581229" lon="9.1877392" />
      <trkpt lat="45.4581917" lon="9.1877669" />
      <trkpt lat="45.4582355" lon="9.1877892" />
      <trkpt lat="45.4582467" lon="9.1877902" />
      <trkpt lat="45.4582834" lon="9.1877938" />
      <trkpt lat="45.4582774" lon="9.1877349" />
      <trkpt lat="45.4582788" lon="9.1877107" />
      <trkpt lat="45.4582824" lon="9.1876902" />
      <trkpt lat="45.4582882" lon="9.1876689" />
      <trkpt lat="45.4583253" lon="9.1876098" />
      <trkpt lat="45.4585738" lon="9.1872538" />
      <trkpt lat="45.4585570" lon="9.1872259" />
      <trkpt lat="45.4585729" lon="9.1872027" />
      <trkpt lat="45.4583797" lon="9.1869249" />
      <trkpt lat="45.4579196" lon="9.1862772" />
      <trkpt lat="45.4579411" lon="9.1862373" />
      <trkpt lat="45.4579616" lon="9.1861994" />
      <trkpt lat="45.4582229" lon="9.1856561" />
      <trkpt lat="45.4582198" lon="9.1856262" />
      <trkpt lat="45.4582247" lon="9.1856135" />
      <trkpt lat="45.4582277" lon="9.1856057" />
      <trkpt lat="45.4579508" lon="9.1853221" />
      <trkpt lat="45.4580648" lon="9.1850999" />
      <trkpt lat="45.4580992" lon="9.1850125" />
      <trkpt lat="45.4581451" lon="9.1848616" />
      <trkpt lat="45.4581744" lon="9.1847000" />
      <trkpt lat="45.4581905" lon="9.1844570" />
      <trkpt lat="45.4581956" lon="9.1843901" />
      <trkpt lat="45.4580830" lon="9.1841842" />
      <trkpt lat="45.4579702" lon="9.1839647" />
      <trkpt lat="45.4579315" lon="9.1839267" />
      <trkpt lat="45.4579209" lon="9.1839257" />
      <trkpt lat="45.4574053" lon="9.1838754" />
      <trkpt lat="45.4572874" lon="9.1838669" />
      <trkpt lat="45.4572147" lon="9.1838576" />
      <trkpt lat="45.4568987" lon="9.1836894" />
      <trkpt lat="45.4572147" lon="9.1838576" />
      <trkpt lat="45.4572874" lon="9.1838669" />
      <trkpt lat="45.4574053" lon="9.1838754" />
      <trkpt lat="45.4579209" lon="9.1839257" />
      <trkpt lat="45.4579315" lon="9.1839267" />
      <trkpt lat="45.4579702" lon="9.1839647" />
      <trkpt lat="45.4580830" lon="9.1841842" />
      <trkpt lat="45.4581956" lon="9.1843901" />
      <trkpt lat="45.4581905" lon="9.1844570" />
      <trkpt lat="45.4581744" lon="9.1847000" />
      <trkpt lat="45.4581451" lon="9.1848616" />
      <trkpt lat="45.4580992" lon="9.1850125" />
      <trkpt lat="45.4580648" lon="9.1850999" />
      <trkpt lat="45.4579508" lon="9.1853221" />
      <trkpt lat="45.4582277" lon="9.1856057" />
      <trkpt lat="45.4582627" lon="9.1856450" />
      <trkpt lat="45.4583053" lon="9.1856891" />
      <trkpt lat="45.4583935" lon="9.1857828" />
      <trkpt lat="45.4584529" lon="9.1858456" />
      <trkpt lat="45.4584614" lon="9.1858553" />
      <trkpt lat="45.4584747" lon="9.1858693" />
      <trkpt lat="45.4586055" lon="9.1855989" />
      <trkpt lat="45.4589543" lon="9.1848644" />
      <trkpt lat="45.4589579" lon="9.1848674" />
      <trkpt lat="45.4589617" lon="9.1848674" />
      <trkpt lat="45.4590884" lon="9.1849700" />
      <trkpt lat="45.4593907" lon="9.1852337" />
      <trkpt lat="45.4593932" lon="9.1852360" />
      <trkpt lat="45.4594171" lon="9.1852576" />
      <trkpt lat="45.4594358" lon="9.1852745" />
      <trkpt lat="45.4594387" lon="9.1852771" />
      <trkpt lat="45.4596496" lon="9.1854532" />
      <trkpt lat="45.4599027" lon="9.1856887" />
      <trkpt lat="45.4599160" lon="9.1857048" />
      <trkpt lat="45.4599186" lon="9.1857011" />
      <trkpt lat="45.4599233" lon="9.1856945" />
      <trkpt lat="45.4599442" lon="9.1856651" />
      <trkpt lat="45.4599456" lon="9.1856631" />
      <trkpt lat="45.4599622" lon="9.1856786" />
      <trkpt lat="45.4599685" lon="9.1856845" />
      <trkpt lat="45.4599751" lon="9.1856810" />
      <trkpt lat="45.4599924" lon="9.1856719" />
      <trkpt lat="45.4603115" lon="9.1855035" />
      <trkpt lat="45.4605944" lon="9.1853389" />
      <trkpt lat="45.4608384" lon="9.1851746" />
      <trkpt lat="45.4609496" lon="9.1850902" />
      <trkpt lat="45.4610971" lon="9.1849647" />
      <trkpt lat="45.4611102" lon="9.1849518" />
      <trkpt lat="45.4611084" lon="9.1849421" />
      <trkpt lat="45.4609409" lon="9.1846089" />
      <trkpt lat="45.4607641" lon="9.1839965" />
      <trkpt lat="45.4607532" lon="9.1839622" />
      <trkpt lat="45.4607529" lon="9.1839573" />
      <trkpt lat="45.4607504" lon="9.1839176" />
      <trkpt lat="45.4607994" lon="9.1839049" />
      <trkpt lat="45.4608135" lon="9.1838995" />
      <trkpt lat="45.4607672" lon="9.1835546" />
      <trkpt lat="45.4607193" lon="9.1831757" />
      <trkpt lat="45.4607363" lon="9.1831731" />
      <trkpt lat="45.4607524" lon="9.1831707" />
      <trkpt lat="45.4607592" lon="9.1831696" />
      <trkpt lat="45.4607795" lon="9.1831033" />
      <trkpt lat="45.4607799" lon="9.1830882" />
      <trkpt lat="45.4607814" lon="9.1830427" />
      <trkpt lat="45.4607828" lon="9.1830004" />
      <trkpt lat="45.4607832" lon="9.1829873" />
      <trkpt lat="45.4607643" lon="9.1829277" />
      <trkpt lat="45.4607346" lon="9.1825571" />
      <trkpt lat="45.4607157" lon="9.1823991" />
      <trkpt lat="45.4606744" lon="9.1820675" />
      <trkpt lat="45.4606321" lon="9.1818848" />
      <trkpt lat="45.4605671" lon="9.1817091" />
      <trkpt lat="45.4605682" lon="9.1816627" />
      <trkpt lat="45.4606296" lon="9.1816137" />
      <trkpt lat="45.4607730" lon="9.1815809" />
      <trkpt lat="45.4610395" lon="9.1815417" />
      <trkpt lat="45.4610964" lon="9.1815406" />
      <trkpt lat="45.4610395" lon="9.1815417" />
      <trkpt lat="45.4607730" lon="9.1815809" />
      <trkpt lat="45.4606296" lon="9.1816137" />
      <trkpt lat="45.4605682" lon="9.1816627" />
      <trkpt lat="45.4605671" lon="9.1817091" />
      <trkpt lat="45.4606321" lon="9.1818848" />
      <trkpt lat="45.4606744" lon="9.1820675" />
      <trkpt lat="45.4607157" lon="9.1823991" />
      <trkpt lat="45.4607346" lon="9.1825571" />
      <trkpt lat="45.4607643" lon="9.1829277" />
      <trkpt lat="45.4607832" lon="9.1829873" />
      <trkpt lat="45.4607828" lon="9.1830004" />
      <trkpt lat="45.4607814" lon="9.1830427" />
      <trkpt lat="45.4607799" lon="9.1830882" />
      <trkpt lat="45.4607795" lon="9.1831033" />
      <trkpt lat="45.4607592" lon="9.1831696" />
      <trkpt lat="45.4607524" lon="9.1831707" />
      <trkpt lat="45.4607363" lon="9.1831731" />
      <trkpt lat="45.4607193" lon="9.1831757" />
      <trkpt lat="45.4607672" lon="9.1835546" />
      <trkpt lat="45.4608135" lon="9.1838995" />
      <trkpt lat="45.4607994" lon="9.1839049" />
      <trkpt lat="45.4607504" lon="9.1839176" />
      <trkpt lat="45.4607529" lon="9.1839573" />
      <trkpt lat="45.4607532" lon="9.1839622" />
      <trkpt lat="45.4607641" lon="9.1839965" />
      <trkpt lat="45.4609409" lon="9.1846089" />
      <trkpt lat="45.4611084" lon="9.1849421" />
      <trkpt lat="45.4611102" lon="9.1849518" />
      <trkpt lat="45.4611147" lon="9.1849611" />
      <trkpt lat="45.4611221" lon="9.1849756" />
      <trkpt lat="45.4611284" lon="9.1849892" />
      <trkpt lat="45.4611313" lon="9.1849951" />
      <trkpt lat="45.4611692" lon="9.1850597" />
      <trkpt lat="45.4611918" lon="9.1850310" />
      <trkpt lat="45.4612019" lon="9.1850183" />
      <trkpt lat="45.4612117" lon="9.1850058" />
      <trkpt lat="45.4612837" lon="9.1851213" />
      <trkpt lat="45.4613929" lon="9.1852808" />
      <trkpt lat="45.4615077" lon="9.1854471" />
      <trkpt lat="45.4615911" lon="9.1855672" />
      <trkpt lat="45.4615993" lon="9.1855547" />
      <trkpt lat="45.4616085" lon="9.1855408" />
      <trkpt lat="45.4616168" lon="9.1855282" />
      <trkpt lat="45.4617310" lon="9.1856796" />
      <trkpt lat="45.4617923" lon="9.1857612" />
      <trkpt lat="45.4618047" lon="9.1857788" />
      <trkpt lat="45.4618124" lon="9.1857896" />
      <trkpt lat="45.4620003" lon="9.1860531" />
      <trkpt lat="45.4621998" lon="9.1862953" />
      <trkpt lat="45.4625728" lon="9.1867508" />
      <trkpt lat="45.4626144" lon="9.1867803" />
      <trkpt lat="45.4626196" lon="9.1867738" />
      <trkpt lat="45.4627835" lon="9.1865335" />
      <trkpt lat="45.4628410" lon="9.1864501" />
      <trkpt lat="45.4629704" lon="9.1862478" />
      <trkpt lat="45.4631491" lon="9.1859859" />
      <trkpt lat="45.4631652" lon="9.1860038" />
      <trkpt lat="45.4631693" lon="9.1860097" />
      <trkpt lat="45.4631759" lon="9.1860186" />
      <trkpt lat="45.4631945" lon="9.1859924" />
      <trkpt lat="45.4631997" lon="9.1859863" />
      <trkpt lat="45.4632060" lon="9.1859789" />
      <trkpt lat="45.4632424" lon="9.1860245" />
      <trkpt lat="45.4634796" lon="9.1863235" />
      <trkpt lat="45.4635277" lon="9.1863830" />
      <trkpt lat="45.4637072" lon="9.1861091" />
      <trkpt lat="45.4639596" lon="9.1864446" />
      <trkpt lat="45.4639822" lon="9.1864730" />
      <trkpt lat="45.4639948" lon="9.1864529" />
      <trkpt lat="45.4639955" lon="9.1864518" />
      <trkpt lat="45.4640124" lon="9.1864160" />
      <trkpt lat="45.4640244" lon="9.1864194" />
      <trkpt lat="45.4645027" lon="9.1854960" />
      <trkpt lat="45.4645321" lon="9.1854333" />
      <trkpt lat="45.4645140" lon="9.1852547" />
      <trkpt lat="45.4645051" lon="9.1852421" />
      <trkpt lat="45.4645121" lon="9.1852314" />
      <trkpt lat="45.4645459" lon="9.1851800" />
      <trkpt lat="45.4645753" lon="9.1851353" />
      <trkpt lat="45.4645892" lon="9.1851142" />
      <trkpt lat="45.4645578" lon="9.1850677" />
      <trkpt lat="45.4644566" lon="9.1843103" />
      <trkpt lat="45.4644239" lon="9.1840450" />
      <trkpt lat="45.4643870" lon="9.1837618" />
      <trkpt lat="45.4649747" lon="9.1836270" />
      <trkpt lat="45.4643870" lon="9.1837618" />
      <trkpt lat="45.4644239" lon="9.1840450" />
      <trkpt lat="45.4644566" lon="9.1843103" />
      <trkpt lat="45.4644467" lon="9.1843142" />
      <trkpt lat="45.4643878" lon="9.1843377" />
      <trkpt lat="45.4643563" lon="9.1843502" />
      <trkpt lat="45.4643526" lon="9.1843517" />
      <trkpt lat="45.4643487" lon="9.1843363" />
      <trkpt lat="45.4643445" lon="9.1843169" />
      <trkpt lat="45.4643326" lon="9.1843142" />
      <trkpt lat="45.4642995" lon="9.1843209" />
      <trkpt lat="45.4642487" lon="9.1843370" />
      <trkpt lat="45.4642073" lon="9.1843718" />
      <trkpt lat="45.4641651" lon="9.1844189" />
      <trkpt lat="45.4641602" lon="9.1844307" />
      <trkpt lat="45.4641553" lon="9.1844260" />
      <trkpt lat="45.4641395" lon="9.1844417" />
      <trkpt lat="45.4640957" lon="9.1844844" />
      <trkpt lat="45.4640670" lon="9.1845123" />
      <trkpt lat="45.4640628" lon="9.1845173" />
      <trkpt lat="45.4640674" lon="9.1845321" />
      <trkpt lat="45.4640324" lon="9.1846009" />
      <trkpt lat="45.4640397" lon="9.1846104" />
      <trkpt lat="45.4640621" lon="9.1846372" />
      <trkpt lat="45.4640858" lon="9.1846654" />
      <trkpt lat="45.4641062" lon="9.1846898" />
      <trkpt lat="45.4641328" lon="9.1846971" />
      <trkpt lat="45.4641500" lon="9.1847118" />
      <trkpt lat="45.4641755" lon="9.1847441" />
      <trkpt lat="45.4645051" lon="9.1852421" />
      <trkpt lat="45.4645140" lon="9.1852547" />
      <trkpt lat="45.4645321" lon="9.1854333" />
      <trkpt lat="45.4645027" lon="9.1854960" />
      <trkpt lat="45.4640244" lon="9.1864194" />
      <trkpt lat="45.4640124" lon="9.1864160" />
      <trkpt lat="45.4639955" lon="9.1864518" />
      <trkpt lat="45.4639948" lon="9.1864529" />
      <trkpt lat="45.4639822" lon="9.1864730" />
      <trkpt lat="45.4639629" lon="9.1865036" />
      <trkpt lat="45.4639535" lon="9.1865186" />
      <trkpt lat="45.4637075" lon="9.1868512" />
      <trkpt lat="45.4636160" lon="9.1869693" />
      <trkpt lat="45.4636189" lon="9.1869739" />
      <trkpt lat="45.4636356" lon="9.1869996" />
      <trkpt lat="45.4636540" lon="9.1870283" />
      <trkpt lat="45.4636711" lon="9.1870547" />
      <trkpt lat="45.4636940" lon="9.1870276" />
      <trkpt lat="45.4637096" lon="9.1870552" />
      <trkpt lat="45.4637986" lon="9.1871957" />
      <trkpt lat="45.4640503" lon="9.1876143" />
      <trkpt lat="45.4640458" lon="9.1876546" />
      <trkpt lat="45.4638534" lon="9.1879133" />
      <trkpt lat="45.4638814" lon="9.1879510" />
      <trkpt lat="45.4639232" lon="9.1880072" />
      <trkpt lat="45.4639311" lon="9.1880178" />
      <trkpt lat="45.4639409" lon="9.1880310" />
      <trkpt lat="45.4639544" lon="9.1880492" />
      <trkpt lat="45.4639601" lon="9.1880569" />
      <trkpt lat="45.4639739" lon="9.1880754" />
      <trkpt lat="45.4639865" lon="9.1880923" />
      <trkpt lat="45.4640074" lon="9.1881204" />
      <trkpt lat="45.4639060" lon="9.1882914" />
      <trkpt lat="45.4638903" lon="9.1882694" />
      <trkpt lat="45.4638820" lon="9.1882835" />
      <trkpt lat="45.4638569" lon="9.1883233" />
      <trkpt lat="45.4638173" lon="9.1883817" />
      <trkpt lat="45.4636687" lon="9.1883914" />
      <trkpt lat="45.4636976" lon="9.1884988" />
      <trkpt lat="45.4637017" lon="9.1885182" />
      <trkpt lat="45.4637368" lon="9.1886597" />
      <trkpt lat="45.4637362" lon="9.1887051" />
      <trkpt lat="45.4637344" lon="9.1888372" />
      <trkpt lat="45.4637338" lon="9.1888841" />
      <trkpt lat="45.4637335" lon="9.1889066" />
      <trkpt lat="45.4637332" lon="9.1889265" />
      <trkpt lat="45.4637329" lon="9.1889492" />
      <trkpt lat="45.4637319" lon="9.1890225" />
      <trkpt lat="45.4637982" lon="9.1890213" />
      <trkpt lat="45.4637998" lon="9.1889533" />
      <trkpt lat="45.4638000" lon="9.1889344" />
      <trkpt lat="45.4638002" lon="9.1889146" />
      <trkpt lat="45.4638167" lon="9.1889146" />
      <trkpt lat="45.4640993" lon="9.1889147" />
      <trkpt lat="45.4641127" lon="9.1889147" />
      <trkpt lat="45.4641126" lon="9.1889477" />
      <trkpt lat="45.4641115" lon="9.1890703" />
      <trkpt lat="45.4641046" lon="9.1895113" />
      <trkpt lat="45.4641536" lon="9.1896431" />
      <trkpt lat="45.4643695" lon="9.1897716" />
    </trkseg>
  </trk>
</gpx>
