<?xml version="1.0" encoding="UTF-8"?>
<gpx xmlns="http://www.topografix.com/GPX/1/1" version="1.1" creator="ShapeRoute route-engine">
  <metadata>
    <name>heart 15 km · 2026-09-23</name>
    <author>
      <name>ShapeRoute route-engine</name>
    </author>
    <time>2026-09-23T09:31:44Z</time>
  </metadata>
  <trk>
    <name>heart 15 km · 2026-09-23</name>
    <trkseg>
      <trkpt lat="46.0543700" lon="11.4492227" />
      <trkpt lat="46.0542825" lon="11.4487092" />
      <trkpt lat="46.0542768" lon="11.4486759" />
      <trkpt lat="46.0542330" lon="11.4483994" />
      <trkpt lat="46.0541711" lon="11.4480081" />
      <trkpt lat="46.0541263" lon="11.4477248" />
      <trkpt lat="46.0540594" lon="11.4473024" />
      <trkpt lat="46.0539771" lon="11.4468137" />
      <trkpt lat="46.0539501" lon="11.4466534" />
      <trkpt lat="46.0538612" lon="11.4461805" />
      <trkpt lat="46.0538435" lon="11.4460863" />
      <trkpt lat="46.0538222" lon="11.4459727" />
      <trkpt lat="46.0538086" lon="11.4457036" />
      <trkpt lat="46.0538382" lon="11.4449855" />
      <trkpt lat="46.0538405" lon="11.4449307" />
      <trkpt lat="46.0538064" lon="11.4446615" />
      <trkpt lat="46.0536982" lon="11.4442591" />
      <trkpt lat="46.0536225" lon="11.4440047" />
      <trkpt lat="46.0534486" lon="11.4434202" />
      <trkpt lat="46.0533154" lon="11.4429724" />
      <trkpt lat="46.0531196" lon="11.4421994" />
      <trkpt lat="46.0530967" lon="11.4420557" />
      <trkpt lat="46.0531041" lon="11.4419862" />
      <trkpt lat="46.0531536" lon="11.4418551" />
      <trkpt lat="46.0532147" lon="11.4416933" />
      <trkpt lat="46.0533481" lon="11.4413401" />
      <trkpt lat="46.0534757" lon="11.4410022" />
      <trkpt lat="46.0538437" lon="11.4408986" />
      <trkpt lat="46.0557573" lon="11.4403601" />
      <trkpt lat="46.0561233" lon="11.4402952" />
      <trkpt lat="46.0562503" lon="11.4402904" />
      <trkpt lat="46.0562761" lon="11.4402746" />
      <trkpt lat="46.0562640" lon="11.4404150" />
      <trkpt lat="46.0563357" lon="11.4403962" />
      <trkpt lat="46.0565893" lon="11.4403899" />
      <trkpt lat="46.0569429" lon="11.4404743" />
      <trkpt lat="46.0571109" lon="11.4405234" />
      <trkpt lat="46.0573917" lon="11.4406521" />
      <trkpt lat="46.0574959" lon="11.4406460" />
      <trkpt lat="46.0575628" lon="11.4405946" />
      <trkpt lat="46.0576649" lon="11.4403402" />
      <trkpt lat="46.0578122" lon="11.4399412" />
      <trkpt lat="46.0578143" lon="11.4398347" />
      <trkpt lat="46.0577617" lon="11.4396928" />
      <trkpt lat="46.0576487" lon="11.4395372" />
      <trkpt lat="46.0574767" lon="11.4393618" />
      <trkpt lat="46.0572626" lon="11.4390636" />
      <trkpt lat="46.0571635" lon="11.4387444" />
      <trkpt lat="46.0571271" lon="11.4383100" />
      <trkpt lat="46.0571572" lon="11.4381356" />
      <trkpt lat="46.0572107" lon="11.4378310" />
      <trkpt lat="46.0571747" lon="11.4374702" />
      <trkpt lat="46.0570832" lon="11.4368702" />
      <trkpt lat="46.0570880" lon="11.4364825" />
      <trkpt lat="46.0570715" lon="11.4363645" />
      <trkpt lat="46.0570889" lon="11.4362788" />
      <trkpt lat="46.0571290" lon="11.4362731" />
      <trkpt lat="46.0571693" lon="11.4363501" />
      <trkpt lat="46.0572594" lon="11.4366235" />
      <trkpt lat="46.0574621" lon="11.4370261" />
      <trkpt lat="46.0576259" lon="11.4373378" />
      <trkpt lat="46.0577645" lon="11.4375783" />
      <trkpt lat="46.0578570" lon="11.4376753" />
      <trkpt lat="46.0579468" lon="11.4376793" />
      <trkpt lat="46.0579957" lon="11.4376180" />
      <trkpt lat="46.0580149" lon="11.4371506" />
      <trkpt lat="46.0579777" lon="11.4367586" />
      <trkpt lat="46.0578958" lon="11.4364232" />
      <trkpt lat="46.0578633" lon="11.4362654" />
      <trkpt lat="46.0579095" lon="11.4361445" />
      <trkpt lat="46.0580268" lon="11.4362179" />
      <trkpt lat="46.0580972" lon="11.4362559" />
      <trkpt lat="46.0580991" lon="11.4361566" />
      <trkpt lat="46.0581089" lon="11.4361163" />
      <trkpt lat="46.0581082" lon="11.4360358" />
      <trkpt lat="46.0581277" lon="11.4359655" />
      <trkpt lat="46.0581609" lon="11.4359187" />
      <trkpt lat="46.0581583" lon="11.4358841" />
      <trkpt lat="46.0582102" lon="11.4357801" />
      <trkpt lat="46.0582063" lon="11.4357417" />
      <trkpt lat="46.0581869" lon="11.4357070" />
      <trkpt lat="46.0582076" lon="11.4356349" />
      <trkpt lat="46.0581973" lon="11.4355834" />
      <trkpt lat="46.0582083" lon="11.4353942" />
      <trkpt lat="46.0581960" lon="11.4353530" />
      <trkpt lat="46.0582141" lon="11.4352566" />
      <trkpt lat="46.0581960" lon="11.4351610" />
      <trkpt lat="46.0582128" lon="11.4350768" />
      <trkpt lat="46.0581966" lon="11.4350103" />
      <trkpt lat="46.0581687" lon="11.4349447" />
      <trkpt lat="46.0581505" lon="11.4348220" />
      <trkpt lat="46.0581641" lon="11.4347452" />
      <trkpt lat="46.0581518" lon="11.4346937" />
      <trkpt lat="46.0581654" lon="11.4346019" />
      <trkpt lat="46.0581830" lon="11.4345429" />
      <trkpt lat="46.0581830" lon="11.4344783" />
      <trkpt lat="46.0582252" lon="11.4344530" />
      <trkpt lat="46.0582187" lon="11.4344212" />
      <trkpt lat="46.0582486" lon="11.4344296" />
      <trkpt lat="46.0583136" lon="11.4344830" />
      <trkpt lat="46.0583376" lon="11.4344605" />
      <trkpt lat="46.0583233" lon="11.4344015" />
      <trkpt lat="46.0583246" lon="11.4343781" />
      <trkpt lat="46.0583864" lon="11.4343875" />
      <trkpt lat="46.0585943" lon="11.4345457" />
      <trkpt lat="46.0586528" lon="11.4345944" />
      <trkpt lat="46.0586983" lon="11.4346984" />
      <trkpt lat="46.0586749" lon="11.4347284" />
      <trkpt lat="46.0587185" lon="11.4348080" />
      <trkpt lat="46.0587750" lon="11.4348651" />
      <trkpt lat="46.0588250" lon="11.4348651" />
      <trkpt lat="46.0589713" lon="11.4349606" />
      <trkpt lat="46.0589836" lon="11.4349484" />
      <trkpt lat="46.0590324" lon="11.4349484" />
      <trkpt lat="46.0591363" lon="11.4350224" />
      <trkpt lat="46.0592754" lon="11.4349934" />
      <trkpt lat="46.0593060" lon="11.4350065" />
      <trkpt lat="46.0593456" lon="11.4349990" />
      <trkpt lat="46.0593839" lon="11.4350262" />
      <trkpt lat="46.0595438" lon="11.4351311" />
      <trkpt lat="46.0597004" lon="11.4352893" />
      <trkpt lat="46.0598454" lon="11.4354055" />
      <trkpt lat="46.0599084" lon="11.4354935" />
      <trkpt lat="46.0599127" lon="11.4355200" />
      <trkpt lat="46.0597307" lon="11.4355371" />
      <trkpt lat="46.0595913" lon="11.4355721" />
      <trkpt lat="46.0595735" lon="11.4356024" />
      <trkpt lat="46.0595435" lon="11.4356536" />
      <trkpt lat="46.0595091" lon="11.4357527" />
      <trkpt lat="46.0596024" lon="11.4358942" />
      <trkpt lat="46.0598333" lon="11.4365313" />
      <trkpt lat="46.0600641" lon="11.4372179" />
      <trkpt lat="46.0602213" lon="11.4375152" />
      <trkpt lat="46.0603932" lon="11.4376921" />
      <trkpt lat="46.0605651" lon="11.4377275" />
      <trkpt lat="46.0609286" lon="11.4377346" />
      <trkpt lat="46.0610334" lon="11.4378029" />
      <trkpt lat="46.0610563" lon="11.4379186" />
      <trkpt lat="46.0609974" lon="11.4381735" />
      <trkpt lat="46.0609075" lon="11.4384171" />
      <trkpt lat="46.0608182" lon="11.4388140" />
      <trkpt lat="46.0608145" lon="11.4388668" />
      <trkpt lat="46.0608226" lon="11.4389524" />
      <trkpt lat="46.0608634" lon="11.4390350" />
      <trkpt lat="46.0609664" lon="11.4390900" />
      <trkpt lat="46.0609934" lon="11.4390920" />
      <trkpt lat="46.0609934" lon="11.4390580" />
      <trkpt lat="46.0610584" lon="11.4390830" />
      <trkpt lat="46.0612534" lon="11.4392030" />
      <trkpt lat="46.0614664" lon="11.4393000" />
      <trkpt lat="46.0615774" lon="11.4393880" />
      <trkpt lat="46.0618554" lon="11.4396750" />
      <trkpt lat="46.0623004" lon="11.4399470" />
      <trkpt lat="46.0625464" lon="11.4400460" />
      <trkpt lat="46.0627174" lon="11.4400420" />
      <trkpt lat="46.0627904" lon="11.4400700" />
      <trkpt lat="46.0628604" lon="11.4401650" />
      <trkpt lat="46.0630044" lon="11.4405250" />
      <trkpt lat="46.0630234" lon="11.4408190" />
      <trkpt lat="46.0629774" lon="11.4409840" />
      <trkpt lat="46.0628934" lon="11.4411050" />
      <trkpt lat="46.0627864" lon="11.4411810" />
      <trkpt lat="46.0625234" lon="11.4412670" />
      <trkpt lat="46.0621804" lon="11.4413170" />
      <trkpt lat="46.0619164" lon="11.4414230" />
      <trkpt lat="46.0615584" lon="11.4415200" />
      <trkpt lat="46.0614134" lon="11.4415380" />
      <trkpt lat="46.0612754" lon="11.4415220" />
      <trkpt lat="46.0609404" lon="11.4413000" />
      <trkpt lat="46.0608864" lon="11.4412950" />
      <trkpt lat="46.0606964" lon="11.4413740" />
      <trkpt lat="46.0606404" lon="11.4414260" />
      <trkpt lat="46.0606004" lon="11.4414970" />
      <trkpt lat="46.0605774" lon="11.4415800" />
      <trkpt lat="46.0605604" lon="11.4418690" />
      <trkpt lat="46.0605134" lon="11.4420480" />
      <trkpt lat="46.0604304" lon="11.4421850" />
      <trkpt lat="46.0602404" lon="11.4424220" />
      <trkpt lat="46.0598344" lon="11.4431800" />
      <trkpt lat="46.0597344" lon="11.4433320" />
      <trkpt lat="46.0596774" lon="11.4433900" />
      <trkpt lat="46.0595554" lon="11.4434660" />
      <trkpt lat="46.0592104" lon="11.4434830" />
      <trkpt lat="46.0586134" lon="11.4436600" />
      <trkpt lat="46.0581804" lon="11.4437500" />
      <trkpt lat="46.0579404" lon="11.4438580" />
      <trkpt lat="46.0574004" lon="11.4442250" />
      <trkpt lat="46.0570904" lon="11.4444730" />
      <trkpt lat="46.0569084" lon="11.4446430" />
      <trkpt lat="46.0567804" lon="11.4447830" />
      <trkpt lat="46.0567614" lon="11.4448108" />
      <trkpt lat="46.0566674" lon="11.4449480" />
      <trkpt lat="46.0565887" lon="11.4451473" />
      <trkpt lat="46.0565523" lon="11.4453833" />
      <trkpt lat="46.0565608" lon="11.4455125" />
      <trkpt lat="46.0566046" lon="11.4461767" />
      <trkpt lat="46.0566636" lon="11.4470710" />
      <trkpt lat="46.0566612" lon="11.4472610" />
      <trkpt lat="46.0567384" lon="11.4472682" />
      <trkpt lat="46.0570439" lon="11.4472318" />
      <trkpt lat="46.0577736" lon="11.4471736" />
      <trkpt lat="46.0579478" lon="11.4471627" />
      <trkpt lat="46.0580058" lon="11.4471445" />
      <trkpt lat="46.0580662" lon="11.4471180" />
      <trkpt lat="46.0581028" lon="11.4468264" />
      <trkpt lat="46.0581499" lon="11.4465801" />
      <trkpt lat="46.0582019" lon="11.4464293" />
      <trkpt lat="46.0582743" lon="11.4463122" />
      <trkpt lat="46.0583867" lon="11.4461860" />
      <trkpt lat="46.0586891" lon="11.4460397" />
      <trkpt lat="46.0590622" lon="11.4458792" />
      <trkpt lat="46.0592702" lon="11.4457245" />
      <trkpt lat="46.0595095" lon="11.4456085" />
      <trkpt lat="46.0596879" lon="11.4456100" />
      <trkpt lat="46.0598692" lon="11.4456404" />
      <trkpt lat="46.0600028" lon="11.4456409" />
      <trkpt lat="46.0601011" lon="11.4455964" />
      <trkpt lat="46.0601600" lon="11.4455316" />
      <trkpt lat="46.0602551" lon="11.4454728" />
      <trkpt lat="46.0603281" lon="11.4454828" />
      <trkpt lat="46.0603610" lon="11.4455412" />
      <trkpt lat="46.0604048" lon="11.4457677" />
      <trkpt lat="46.0604480" lon="11.4458611" />
      <trkpt lat="46.0605361" lon="11.4459566" />
      <trkpt lat="46.0607150" lon="11.4461145" />
      <trkpt lat="46.0607700" lon="11.4460831" />
      <trkpt lat="46.0607848" lon="11.4459605" />
      <trkpt lat="46.0608720" lon="11.4455774" />
      <trkpt lat="46.0609996" lon="11.4452525" />
      <trkpt lat="46.0610464" lon="11.4449767" />
      <trkpt lat="46.0610379" lon="11.4447162" />
      <trkpt lat="46.0611528" lon="11.4445967" />
      <trkpt lat="46.0612697" lon="11.4444649" />
      <trkpt lat="46.0613356" lon="11.4444434" />
      <trkpt lat="46.0614101" lon="11.4445813" />
      <trkpt lat="46.0614824" lon="11.4447959" />
      <trkpt lat="46.0616142" lon="11.4450809" />
      <trkpt lat="46.0616780" lon="11.4452893" />
      <trkpt lat="46.0617758" lon="11.4453874" />
      <trkpt lat="46.0619672" lon="11.4454425" />
      <trkpt lat="46.0617758" lon="11.4453874" />
      <trkpt lat="46.0616780" lon="11.4452893" />
      <trkpt lat="46.0616142" lon="11.4450809" />
      <trkpt lat="46.0614824" lon="11.4447959" />
      <trkpt lat="46.0614101" lon="11.4445813" />
      <trkpt lat="46.0613356" lon="11.4444434" />
      <trkpt lat="46.0612697" lon="11.4444649" />
      <trkpt lat="46.0611528" lon="11.4445967" />
      <trkpt lat="46.0610379" lon="11.4447162" />
      <trkpt lat="46.0610464" lon="11.4449767" />
      <trkpt lat="46.0609996" lon="11.4452525" />
      <trkpt lat="46.0608720" lon="11.4455774" />
      <trkpt lat="46.0607848" lon="11.4459605" />
      <trkpt lat="46.0607700" lon="11.4460831" />
      <trkpt lat="46.0607150" lon="11.4461145" />
      <trkpt lat="46.0605361" lon="11.4459566" />
      <trkpt lat="46.0604480" lon="11.4458611" />
      <trkpt lat="46.0604048" lon="11.4457677" />
      <trkpt lat="46.0603610" lon="11.4455412" />
      <trkpt lat="46.0603281" lon="11.4454828" />
      <trkpt lat="46.0606966" lon="11.4453203" />
      <trkpt lat="46.0609832" lon="11.4452452" />
      <trkpt lat="46.0610186" lon="11.4450467" />
      <trkpt lat="46.0610260" lon="11.4449314" />
      <trkpt lat="46.0610293" lon="11.4447085" />
      <trkpt lat="46.0611500" lon="11.4445801" />
      <trkpt lat="46.0612464" lon="11.4444657" />
      <trkpt lat="46.0613054" lon="11.4444104" />
      <trkpt lat="46.0614091" lon="11.4442283" />
      <trkpt lat="46.0614709" lon="11.4441503" />
      <trkpt lat="46.0615646" lon="11.4440321" />
      <trkpt lat="46.0616813" lon="11.4438640" />
      <trkpt lat="46.0617655" lon="11.4437986" />
      <trkpt lat="46.0619081" lon="11.4437659" />
      <trkpt lat="46.0619470" lon="11.4437006" />
      <trkpt lat="46.0621090" lon="11.4436585" />
      <trkpt lat="46.0622386" lon="11.4435931" />
      <trkpt lat="46.0622483" lon="11.4435138" />
      <trkpt lat="46.0622386" lon="11.4434577" />
      <trkpt lat="46.0622030" lon="11.4435231" />
      <trkpt lat="46.0619826" lon="11.4434157" />
      <trkpt lat="46.0618757" lon="11.4434157" />
      <trkpt lat="46.0617493" lon="11.4432849" />
      <trkpt lat="46.0617234" lon="11.4432242" />
      <trkpt lat="46.0617104" lon="11.4431495" />
      <trkpt lat="46.0617331" lon="11.4430608" />
      <trkpt lat="46.0617850" lon="11.4430281" />
      <trkpt lat="46.0618303" lon="11.4428880" />
      <trkpt lat="46.0618206" lon="11.4428179" />
      <trkpt lat="46.0618433" lon="11.4427619" />
      <trkpt lat="46.0619826" lon="11.4426918" />
      <trkpt lat="46.0621058" lon="11.4426311" />
      <trkpt lat="46.0622192" lon="11.4425190" />
      <trkpt lat="46.0623488" lon="11.4424864" />
      <trkpt lat="46.0624492" lon="11.4424910" />
      <trkpt lat="46.0626340" lon="11.4424210" />
      <trkpt lat="46.0626826" lon="11.4424770" />
      <trkpt lat="46.0628219" lon="11.4424583" />
      <trkpt lat="46.0630358" lon="11.4424817" />
      <trkpt lat="46.0632205" lon="11.4425377" />
      <trkpt lat="46.0632593" lon="11.4425331" />
      <trkpt lat="46.0635218" lon="11.4426078" />
      <trkpt lat="46.0636028" lon="11.4426732" />
      <trkpt lat="46.0637227" lon="11.4427012" />
      <trkpt lat="46.0638782" lon="11.4427759" />
      <trkpt lat="46.0639139" lon="11.4427339" />
      <trkpt lat="46.0640143" lon="11.4427572" />
      <trkpt lat="46.0641375" lon="11.4428086" />
      <trkpt lat="46.0642379" lon="11.4428740" />
      <trkpt lat="46.0642833" lon="11.4429580" />
      <trkpt lat="46.0643351" lon="11.4429393" />
      <trkpt lat="46.0643578" lon="11.4428926" />
      <trkpt lat="46.0643124" lon="11.4428413" />
      <trkpt lat="46.0642671" lon="11.4427339" />
      <trkpt lat="46.0642250" lon="11.4426451" />
      <trkpt lat="46.0641893" lon="11.4425564" />
      <trkpt lat="46.0641893" lon="11.4424677" />
      <trkpt lat="46.0642962" lon="11.4424070" />
      <trkpt lat="46.0643475" lon="11.4424210" />
      <trkpt lat="46.0644123" lon="11.4424910" />
      <trkpt lat="46.0644706" lon="11.4425938" />
      <trkpt lat="46.0645516" lon="11.4426311" />
      <trkpt lat="46.0646294" lon="11.4426591" />
      <trkpt lat="46.0647428" lon="11.4426872" />
      <trkpt lat="46.0648044" lon="11.4426965" />
      <trkpt lat="46.0648530" lon="11.4426265" />
      <trkpt lat="46.0648807" lon="11.4425956" />
      <trkpt lat="46.0648979" lon="11.4425001" />
      <trkpt lat="46.0649107" lon="11.4423892" />
      <trkpt lat="46.0649150" lon="11.4423368" />
      <trkpt lat="46.0649620" lon="11.4422567" />
      <trkpt lat="46.0650133" lon="11.4421581" />
      <trkpt lat="46.0650902" lon="11.4421026" />
      <trkpt lat="46.0651693" lon="11.4421026" />
      <trkpt lat="46.0652720" lon="11.4420780" />
      <trkpt lat="46.0653272" lon="11.4420953" />
      <trkpt lat="46.0653644" lon="11.4420832" />
      <trkpt lat="46.0654605" lon="11.4420920" />
      <trkpt lat="46.0655154" lon="11.4421140" />
      <trkpt lat="46.0655352" lon="11.4421426" />
      <trkpt lat="46.0655459" lon="11.4422019" />
      <trkpt lat="46.0655810" lon="11.4424569" />
      <trkpt lat="46.0656130" lon="11.4428372" />
      <trkpt lat="46.0656573" lon="11.4432702" />
      <trkpt lat="46.0656740" lon="11.4433494" />
      <trkpt lat="46.0656908" lon="11.4433890" />
      <trkpt lat="46.0657259" lon="11.4433846" />
      <trkpt lat="46.0657473" lon="11.4433604" />
      <trkpt lat="46.0657640" lon="11.4433142" />
      <trkpt lat="46.0657900" lon="11.4431230" />
      <trkpt lat="46.0657976" lon="11.4430196" />
      <trkpt lat="46.0658113" lon="11.4429757" />
      <trkpt lat="46.0658388" lon="11.4429757" />
      <trkpt lat="46.0658677" lon="11.4429933" />
      <trkpt lat="46.0658860" lon="11.4430416" />
      <trkpt lat="46.0658967" lon="11.4431318" />
      <trkpt lat="46.0659196" lon="11.4432658" />
      <trkpt lat="46.0659532" lon="11.4433846" />
      <trkpt lat="46.0659959" lon="11.4435011" />
      <trkpt lat="46.0660691" lon="11.4436374" />
      <trkpt lat="46.0661606" lon="11.4437583" />
      <trkpt lat="46.0661896" lon="11.4437934" />
      <trkpt lat="46.0662185" lon="11.4437934" />
      <trkpt lat="46.0662399" lon="11.4437692" />
      <trkpt lat="46.0662417" lon="11.4437378" />
      <trkpt lat="46.0662201" lon="11.4435886" />
      <trkpt lat="46.0661770" lon="11.4433585" />
      <trkpt lat="46.0661813" lon="11.4432155" />
      <trkpt lat="46.0661945" lon="11.4431458" />
      <trkpt lat="46.0662223" lon="11.4430562" />
      <trkpt lat="46.0662864" lon="11.4428628" />
      <trkpt lat="46.0663260" lon="11.4427287" />
      <trkpt lat="46.0663635" lon="11.4425597" />
      <trkpt lat="46.0663808" lon="11.4423421" />
      <trkpt lat="46.0664642" lon="11.4424907" />
      <trkpt lat="46.0665452" lon="11.4426868" />
      <trkpt lat="46.0667299" lon="11.4429763" />
      <trkpt lat="46.0667373" lon="11.4430230" />
      <trkpt lat="46.0667581" lon="11.4429708" />
      <trkpt lat="46.0667757" lon="11.4428853" />
      <trkpt lat="46.0667688" lon="11.4427860" />
      <trkpt lat="46.0667490" lon="11.4426943" />
      <trkpt lat="46.0667431" lon="11.4426574" />
      <trkpt lat="46.0667452" lon="11.4425365" />
      <trkpt lat="46.0667511" lon="11.4424533" />
      <trkpt lat="46.0667842" lon="11.4424140" />
      <trkpt lat="46.0668307" lon="11.4423871" />
      <trkpt lat="46.0668724" lon="11.4423770" />
      <trkpt lat="46.0669547" lon="11.4423085" />
      <trkpt lat="46.0669745" lon="11.4422584" />
      <trkpt lat="46.0670177" lon="11.4422107" />
      <trkpt lat="46.0670594" lon="11.4421714" />
      <trkpt lat="46.0670770" lon="11.4421506" />
      <trkpt lat="46.0671374" lon="11.4421321" />
      <trkpt lat="46.0671727" lon="11.4421074" />
      <trkpt lat="46.0672577" lon="11.4420528" />
      <trkpt lat="46.0672972" lon="11.4420289" />
      <trkpt lat="46.0673239" lon="11.4420358" />
      <trkpt lat="46.0673517" lon="11.4420135" />
      <trkpt lat="46.0673870" lon="11.4420004" />
      <trkpt lat="46.0674271" lon="11.4420127" />
      <trkpt lat="46.0674533" lon="11.4420350" />
      <trkpt lat="46.0674934" lon="11.4420682" />
      <trkpt lat="46.0676205" lon="11.4421768" />
      <trkpt lat="46.0677090" lon="11.4422261" />
      <trkpt lat="46.0677095" lon="11.4423172" />
      <trkpt lat="46.0677612" lon="11.4423732" />
      <trkpt lat="46.0678216" lon="11.4423607" />
      <trkpt lat="46.0678896" lon="11.4423307" />
      <trkpt lat="46.0679437" lon="11.4422594" />
      <trkpt lat="46.0680886" lon="11.4420412" />
      <trkpt lat="46.0681581" lon="11.4419037" />
      <trkpt lat="46.0682444" lon="11.4416830" />
      <trkpt lat="46.0683263" lon="11.4415400" />
      <trkpt lat="46.0684126" lon="11.4414467" />
      <trkpt lat="46.0685377" lon="11.4412727" />
      <trkpt lat="46.0687146" lon="11.4408561" />
      <trkpt lat="46.0688111" lon="11.4407181" />
      <trkpt lat="46.0689319" lon="11.4405503" />
      <trkpt lat="46.0690553" lon="11.4404830" />
      <trkpt lat="46.0691848" lon="11.4404582" />
      <trkpt lat="46.0693875" lon="11.4403525" />
      <trkpt lat="46.0698102" lon="11.4400975" />
      <trkpt lat="46.0699181" lon="11.4400851" />
      <trkpt lat="46.0700216" lon="11.4400291" />
      <trkpt lat="46.0700820" lon="11.4399608" />
      <trkpt lat="46.0700949" lon="11.4398861" />
      <trkpt lat="46.0700647" lon="11.4397742" />
      <trkpt lat="46.0701050" lon="11.4397775" />
      <trkpt lat="46.0701406" lon="11.4398040" />
      <trkpt lat="46.0701483" lon="11.4398532" />
      <trkpt lat="46.0701523" lon="11.4398783" />
      <trkpt lat="46.0701474" lon="11.4399742" />
      <trkpt lat="46.0700961" lon="11.4400358" />
      <trkpt lat="46.0699807" lon="11.4401406" />
      <trkpt lat="46.0693244" lon="11.4409450" />
      <trkpt lat="46.0690709" lon="11.4417297" />
      <trkpt lat="46.0688435" lon="11.4424822" />
      <trkpt lat="46.0687922" lon="11.4426794" />
      <trkpt lat="46.0688917" lon="11.4428508" />
      <trkpt lat="46.0689654" lon="11.4429817" />
      <trkpt lat="46.0690341" lon="11.4431835" />
      <trkpt lat="46.0690010" lon="11.4432613" />
      <trkpt lat="46.0690059" lon="11.4433126" />
      <trkpt lat="46.0689936" lon="11.4434471" />
      <trkpt lat="46.0689801" lon="11.4435958" />
      <trkpt lat="46.0690256" lon="11.4437126" />
      <trkpt lat="46.0690550" lon="11.4437427" />
      <trkpt lat="46.0691457" lon="11.4437940" />
      <trkpt lat="46.0693213" lon="11.4438187" />
      <trkpt lat="46.0694318" lon="11.4438506" />
      <trkpt lat="46.0695374" lon="11.4439355" />
      <trkpt lat="46.0696626" lon="11.4439815" />
      <trkpt lat="46.0697755" lon="11.4439904" />
      <trkpt lat="46.0699658" lon="11.4441514" />
      <trkpt lat="46.0700481" lon="11.4442824" />
      <trkpt lat="46.0700984" lon="11.4443195" />
      <trkpt lat="46.0704066" lon="11.4444487" />
      <trkpt lat="46.0704913" lon="11.4444859" />
      <trkpt lat="46.0705631" lon="11.4445659" />
      <trkpt lat="46.0706146" lon="11.4446915" />
      <trkpt lat="46.0706637" lon="11.4448826" />
      <trkpt lat="46.0707128" lon="11.4450224" />
      <trkpt lat="46.0707634" lon="11.4450934" />
      <trkpt lat="46.0707980" lon="11.4451871" />
      <trkpt lat="46.0708459" lon="11.4452950" />
      <trkpt lat="46.0708815" lon="11.4454543" />
      <trkpt lat="46.0709115" lon="11.4456615" />
      <trkpt lat="46.0709385" lon="11.4458172" />
      <trkpt lat="46.0709343" lon="11.4459538" />
      <trkpt lat="46.0709942" lon="11.4458643" />
      <trkpt lat="46.0710570" lon="11.4457958" />
      <trkpt lat="46.0711155" lon="11.4457420" />
      <trkpt lat="46.0711885" lon="11.4457032" />
      <trkpt lat="46.0712450" lon="11.4456804" />
      <trkpt lat="46.0713009" lon="11.4456595" />
      <trkpt lat="46.0714385" lon="11.4456268" />
      <trkpt lat="46.0715502" lon="11.4456053" />
      <trkpt lat="46.0716259" lon="11.4455901" />
      <trkpt lat="46.0717102" lon="11.4455492" />
      <trkpt lat="46.0717995" lon="11.4454766" />
      <trkpt lat="46.0718832" lon="11.4454176" />
      <trkpt lat="46.0719865" lon="11.4453423" />
      <trkpt lat="46.0721140" lon="11.4452379" />
      <trkpt lat="46.0722122" lon="11.4451428" />
      <trkpt lat="46.0723133" lon="11.4450411" />
      <trkpt lat="46.0723866" lon="11.4449381" />
      <trkpt lat="46.0724594" lon="11.4448074" />
      <trkpt lat="46.0725081" lon="11.4446849" />
      <trkpt lat="46.0725377" lon="11.4446224" />
      <trkpt lat="46.0725709" lon="11.4445927" />
      <trkpt lat="46.0726351" lon="11.4445570" />
      <trkpt lat="46.0727887" lon="11.4445105" />
      <trkpt lat="46.0728800" lon="11.4444963" />
      <trkpt lat="46.0729944" lon="11.4444970" />
      <trkpt lat="46.0731469" lon="11.4445312" />
      <trkpt lat="46.0733915" lon="11.4446093" />
      <trkpt lat="46.0735129" lon="11.4446204" />
      <trkpt lat="46.0735438" lon="11.4446006" />
      <trkpt lat="46.0735650" lon="11.4445530" />
      <trkpt lat="46.0735053" lon="11.4445207" />
      <trkpt lat="46.0733659" lon="11.4444479" />
      <trkpt lat="46.0725183" lon="11.4438976" />
      <trkpt lat="46.0723257" lon="11.4437710" />
      <trkpt lat="46.0722143" lon="11.4436799" />
      <trkpt lat="46.0720461" lon="11.4435000" />
      <trkpt lat="46.0719744" lon="11.4434529" />
      <trkpt lat="46.0718930" lon="11.4434519" />
      <trkpt lat="46.0718205" lon="11.4434793" />
      <trkpt lat="46.0717302" lon="11.4435660" />
      <trkpt lat="46.0715966" lon="11.4437250" />
      <trkpt lat="46.0715409" lon="11.4437913" />
      <trkpt lat="46.0714914" lon="11.4438268" />
      <trkpt lat="46.0714334" lon="11.4438368" />
      <trkpt lat="46.0713724" lon="11.4438178" />
      <trkpt lat="46.0712984" lon="11.4437728" />
      <trkpt lat="46.0711416" lon="11.4436285" />
      <trkpt lat="46.0711644" lon="11.4435612" />
      <trkpt lat="46.0711718" lon="11.4434462" />
      <trkpt lat="46.0712640" lon="11.4431261" />
      <trkpt lat="46.0714135" lon="11.4425554" />
      <trkpt lat="46.0714688" lon="11.4422242" />
      <trkpt lat="46.0715060" lon="11.4421305" />
      <trkpt lat="46.0716075" lon="11.4420371" />
      <trkpt lat="46.0717601" lon="11.4418512" />
      <trkpt lat="46.0719536" lon="11.4417654" />
      <trkpt lat="46.0721024" lon="11.4415615" />
      <trkpt lat="46.0723481" lon="11.4414971" />
      <trkpt lat="46.0726818" lon="11.4414583" />
      <trkpt lat="46.0729063" lon="11.4414006" />
      <trkpt lat="46.0731891" lon="11.4411002" />
      <trkpt lat="46.0735017" lon="11.4408319" />
      <trkpt lat="46.0738143" lon="11.4404028" />
      <trkpt lat="46.0741121" lon="11.4399093" />
      <trkpt lat="46.0743232" lon="11.4395918" />
      <trkpt lat="46.0740553" lon="11.4409758" />
      <trkpt lat="46.0739864" lon="11.4419682" />
      <trkpt lat="46.0739697" lon="11.4421560" />
      <trkpt lat="46.0739381" lon="11.4425449" />
      <trkpt lat="46.0739083" lon="11.4428265" />
      <trkpt lat="46.0738692" lon="11.4434488" />
      <trkpt lat="46.0738804" lon="11.4436258" />
      <trkpt lat="46.0739009" lon="11.4437702" />
      <trkpt lat="46.0739214" lon="11.4438374" />
      <trkpt lat="46.0739007" lon="11.4439470" />
      <trkpt lat="46.0738686" lon="11.4440752" />
      <trkpt lat="46.0738512" lon="11.4441137" />
      <trkpt lat="46.0738268" lon="11.4441431" />
      <trkpt lat="46.0737975" lon="11.4441610" />
      <trkpt lat="46.0737658" lon="11.4441657" />
      <trkpt lat="46.0737195" lon="11.4441650" />
      <trkpt lat="46.0736062" lon="11.4441541" />
      <trkpt lat="46.0734142" lon="11.4441258" />
      <trkpt lat="46.0731572" lon="11.4440493" />
      <trkpt lat="46.0730029" lon="11.4439971" />
      <trkpt lat="46.0729409" lon="11.4439691" />
      <trkpt lat="46.0728730" lon="11.4439288" />
      <trkpt lat="46.0727463" lon="11.4438211" />
      <trkpt lat="46.0726767" lon="11.4437705" />
      <trkpt lat="46.0726544" lon="11.4437492" />
      <trkpt lat="46.0726285" lon="11.4437392" />
      <trkpt lat="46.0726018" lon="11.4437414" />
      <trkpt lat="46.0725770" lon="11.4437558" />
      <trkpt lat="46.0725530" lon="11.4437841" />
      <trkpt lat="46.0725371" lon="11.4438153" />
      <trkpt lat="46.0725277" lon="11.4438573" />
      <trkpt lat="46.0725183" lon="11.4438976" />
      <trkpt lat="46.0733659" lon="11.4444479" />
      <trkpt lat="46.0735053" lon="11.4445207" />
      <trkpt lat="46.0735650" lon="11.4445530" />
      <trkpt lat="46.0736708" lon="11.4445714" />
      <trkpt lat="46.0738020" lon="11.4445638" />
      <trkpt lat="46.0741734" lon="11.4444424" />
      <trkpt lat="46.0742387" lon="11.4444286" />
      <trkpt lat="46.0742953" lon="11.4444242" />
      <trkpt lat="46.0743479" lon="11.4444401" />
      <trkpt lat="46.0744808" lon="11.4445220" />
      <trkpt lat="46.0745475" lon="11.4445668" />
      <trkpt lat="46.0745987" lon="11.4446141" />
      <trkpt lat="46.0746425" lon="11.4446760" />
      <trkpt lat="46.0745916" lon="11.4446706" />
      <trkpt lat="46.0745402" lon="11.4446787" />
      <trkpt lat="46.0744866" lon="11.4447111" />
      <trkpt lat="46.0744070" lon="11.4447872" />
      <trkpt lat="46.0743472" lon="11.4448842" />
      <trkpt lat="46.0743162" lon="11.4449254" />
      <trkpt lat="46.0742709" lon="11.4449731" />
      <trkpt lat="46.0741864" lon="11.4450486" />
      <trkpt lat="46.0741282" lon="11.4451618" />
      <trkpt lat="46.0740099" lon="11.4454040" />
      <trkpt lat="46.0739533" lon="11.4454817" />
      <trkpt lat="46.0738964" lon="11.4455380" />
      <trkpt lat="46.0737755" lon="11.4456262" />
      <trkpt lat="46.0736912" lon="11.4457140" />
      <trkpt lat="46.0736314" lon="11.4457733" />
      <trkpt lat="46.0735597" lon="11.4458191" />
      <trkpt lat="46.0735011" lon="11.4458786" />
      <trkpt lat="46.0734662" lon="11.4459612" />
      <trkpt lat="46.0734562" lon="11.4460741" />
      <trkpt lat="46.0734014" lon="11.4463279" />
      <trkpt lat="46.0733545" lon="11.4465008" />
      <trkpt lat="46.0732741" lon="11.4466702" />
      <trkpt lat="46.0732168" lon="11.4468204" />
      <trkpt lat="46.0731634" lon="11.4470184" />
      <trkpt lat="46.0731460" lon="11.4471496" />
      <trkpt lat="46.0731337" lon="11.4472256" />
      <trkpt lat="46.0730623" lon="11.4476506" />
      <trkpt lat="46.0730568" lon="11.4476831" />
      <trkpt lat="46.0730568" lon="11.4477881" />
      <trkpt lat="46.0730693" lon="11.4479059" />
      <trkpt lat="46.0731109" lon="11.4482132" />
      <trkpt lat="46.0731253" lon="11.4483194" />
      <trkpt lat="46.0731132" lon="11.4483451" />
      <trkpt lat="46.0730897" lon="11.4484136" />
      <trkpt lat="46.0730702" lon="11.4484941" />
      <trkpt lat="46.0730444" lon="11.4485782" />
      <trkpt lat="46.0730227" lon="11.4486362" />
      <trkpt lat="46.0729919" lon="11.4486802" />
      <trkpt lat="46.0729185" lon="11.4487368" />
      <trkpt lat="46.0729039" lon="11.4487446" />
      <trkpt lat="46.0729139" lon="11.4488065" />
      <trkpt lat="46.0729177" lon="11.4488234" />
      <trkpt lat="46.0729278" lon="11.4489943" />
      <trkpt lat="46.0729325" lon="11.4490640" />
      <trkpt lat="46.0729446" lon="11.4491110" />
      <trkpt lat="46.0729667" lon="11.4491666" />
      <trkpt lat="46.0729899" lon="11.4491769" />
      <trkpt lat="46.0730053" lon="11.4491939" />
      <trkpt lat="46.0730231" lon="11.4492052" />
      <trkpt lat="46.0730423" lon="11.4492102" />
      <trkpt lat="46.0731141" lon="11.4492197" />
      <trkpt lat="46.0730951" lon="11.4492638" />
      <trkpt lat="46.0730845" lon="11.4492973" />
      <trkpt lat="46.0730746" lon="11.4493336" />
      <trkpt lat="46.0730616" lon="11.4493926" />
      <trkpt lat="46.0730556" lon="11.4494194" />
      <trkpt lat="46.0730382" lon="11.4494973" />
      <trkpt lat="46.0730213" lon="11.4495731" />
      <trkpt lat="46.0730202" lon="11.4495791" />
      <trkpt lat="46.0729573" lon="11.4499288" />
      <trkpt lat="46.0729859" lon="11.4499387" />
      <trkpt lat="46.0729999" lon="11.4499458" />
      <trkpt lat="46.0730167" lon="11.4499599" />
      <trkpt lat="46.0730313" lon="11.4499785" />
      <trkpt lat="46.0730418" lon="11.4500041" />
      <trkpt lat="46.0730519" lon="11.4500390" />
      <trkpt lat="46.0730581" lon="11.4500766" />
      <trkpt lat="46.0730646" lon="11.4500973" />
      <trkpt lat="46.0730730" lon="11.4501081" />
      <trkpt lat="46.0730927" lon="11.4501299" />
      <trkpt lat="46.0730669" lon="11.4501289" />
      <trkpt lat="46.0730451" lon="11.4501436" />
      <trkpt lat="46.0730337" lon="11.4501701" />
      <trkpt lat="46.0729701" lon="11.4505419" />
      <trkpt lat="46.0729493" lon="11.4505365" />
      <trkpt lat="46.0728981" lon="11.4505399" />
      <trkpt lat="46.0728348" lon="11.4505507" />
      <trkpt lat="46.0727929" lon="11.4505721" />
      <trkpt lat="46.0727134" lon="11.4506061" />
      <trkpt lat="46.0726548" lon="11.4506449" />
      <trkpt lat="46.0725654" lon="11.4507344" />
      <trkpt lat="46.0724565" lon="11.4508021" />
      <trkpt lat="46.0723162" lon="11.4509549" />
      <trkpt lat="46.0722283" lon="11.4510695" />
      <trkpt lat="46.0721332" lon="11.4511935" />
      <trkpt lat="46.0719456" lon="11.4515231" />
      <trkpt lat="46.0718018" lon="11.4517369" />
      <trkpt lat="46.0716152" lon="11.4519898" />
      <trkpt lat="46.0714191" lon="11.4521993" />
      <trkpt lat="46.0713352" lon="11.4522753" />
      <trkpt lat="46.0708839" lon="11.4527145" />
      <trkpt lat="46.0708430" lon="11.4527543" />
      <trkpt lat="46.0704976" lon="11.4530994" />
      <trkpt lat="46.0703139" lon="11.4532849" />
      <trkpt lat="46.0701069" lon="11.4533998" />
      <trkpt lat="46.0698364" lon="11.4535110" />
      <trkpt lat="46.0695904" lon="11.4537320" />
      <trkpt lat="46.0695234" lon="11.4538160" />
      <trkpt lat="46.0694734" lon="11.4539170" />
      <trkpt lat="46.0693345" lon="11.4543568" />
      <trkpt lat="46.0692704" lon="11.4545600" />
      <trkpt lat="46.0691074" lon="11.4549970" />
      <trkpt lat="46.0690624" lon="11.4551836" />
      <trkpt lat="46.0690304" lon="11.4553600" />
      <trkpt lat="46.0689781" lon="11.4558595" />
      <trkpt lat="46.0689042" lon="11.4563772" />
      <trkpt lat="46.0688342" lon="11.4568233" />
      <trkpt lat="46.0687588" lon="11.4572531" />
      <trkpt lat="46.0687044" lon="11.4574657" />
      <trkpt lat="46.0686904" lon="11.4575054" />
      <trkpt lat="46.0686676" lon="11.4575526" />
      <trkpt lat="46.0686369" lon="11.4575844" />
      <trkpt lat="46.0685763" lon="11.4576313" />
      <trkpt lat="46.0684716" lon="11.4577049" />
      <trkpt lat="46.0684426" lon="11.4577210" />
      <trkpt lat="46.0684118" lon="11.4577269" />
      <trkpt lat="46.0683808" lon="11.4577224" />
      <trkpt lat="46.0683419" lon="11.4577000" />
      <trkpt lat="46.0681785" lon="11.4574468" />
      <trkpt lat="46.0681191" lon="11.4573704" />
      <trkpt lat="46.0681004" lon="11.4573568" />
      <trkpt lat="46.0680796" lon="11.4573529" />
      <trkpt lat="46.0680591" lon="11.4573593" />
      <trkpt lat="46.0680413" lon="11.4573751" />
      <trkpt lat="46.0680281" lon="11.4573986" />
      <trkpt lat="46.0680211" lon="11.4574271" />
      <trkpt lat="46.0680211" lon="11.4574573" />
      <trkpt lat="46.0680281" lon="11.4574858" />
      <trkpt lat="46.0680439" lon="11.4575586" />
      <trkpt lat="46.0680491" lon="11.4576309" />
      <trkpt lat="46.0680484" lon="11.4577234" />
      <trkpt lat="46.0680296" lon="11.4579069" />
      <trkpt lat="46.0679974" lon="11.4580371" />
      <trkpt lat="46.0678672" lon="11.4584769" />
      <trkpt lat="46.0678220" lon="11.4586200" />
      <trkpt lat="46.0678029" lon="11.4587748" />
      <trkpt lat="46.0678112" lon="11.4589316" />
      <trkpt lat="46.0678505" lon="11.4591901" />
      <trkpt lat="46.0678551" lon="11.4594468" />
      <trkpt lat="46.0678219" lon="11.4597107" />
      <trkpt lat="46.0678157" lon="11.4599830" />
      <trkpt lat="46.0678324" lon="11.4602538" />
      <trkpt lat="46.0678272" lon="11.4602775" />
      <trkpt lat="46.0678167" lon="11.4602969" />
      <trkpt lat="46.0678119" lon="11.4603509" />
      <trkpt lat="46.0678212" lon="11.4604360" />
      <trkpt lat="46.0679184" lon="11.4604788" />
      <trkpt lat="46.0679342" lon="11.4605177" />
      <trkpt lat="46.0679417" lon="11.4605614" />
      <trkpt lat="46.0679402" lon="11.4606064" />
      <trkpt lat="46.0679287" lon="11.4607118" />
      <trkpt lat="46.0679276" lon="11.4608210" />
      <trkpt lat="46.0679323" lon="11.4608415" />
      <trkpt lat="46.0679415" lon="11.4608586" />
      <trkpt lat="46.0679540" lon="11.4608704" />
      <trkpt lat="46.0679686" lon="11.4608756" />
      <trkpt lat="46.0680187" lon="11.4609080" />
      <trkpt lat="46.0680299" lon="11.4609139" />
      <trkpt lat="46.0680390" lon="11.4609247" />
      <trkpt lat="46.0680452" lon="11.4609393" />
      <trkpt lat="46.0680478" lon="11.4609560" />
      <trkpt lat="46.0680463" lon="11.4609729" />
      <trkpt lat="46.0680431" lon="11.4610126" />
      <trkpt lat="46.0680466" lon="11.4610522" />
      <trkpt lat="46.0680566" lon="11.4610895" />
      <trkpt lat="46.0680893" lon="11.4611337" />
      <trkpt lat="46.0680999" lon="11.4611441" />
      <trkpt lat="46.0681076" lon="11.4611588" />
      <trkpt lat="46.0681115" lon="11.4611763" />
      <trkpt lat="46.0681115" lon="11.4611804" />
      <trkpt lat="46.0681113" lon="11.4611948" />
      <trkpt lat="46.0681060" lon="11.4612224" />
      <trkpt lat="46.0680944" lon="11.4612457" />
      <trkpt lat="46.0680781" lon="11.4612621" />
      <trkpt lat="46.0678867" lon="11.4614612" />
      <trkpt lat="46.0677669" lon="11.4615335" />
      <trkpt lat="46.0676200" lon="11.4615914" />
      <trkpt lat="46.0676022" lon="11.4615984" />
      <trkpt lat="46.0675298" lon="11.4616251" />
      <trkpt lat="46.0674550" lon="11.4616236" />
      <trkpt lat="46.0673832" lon="11.4615940" />
      <trkpt lat="46.0673080" lon="11.4616087" />
      <trkpt lat="46.0672586" lon="11.4616183" />
      <trkpt lat="46.0671866" lon="11.4616323" />
      <trkpt lat="46.0671791" lon="11.4616308" />
      <trkpt lat="46.0671722" lon="11.4616261" />
      <trkpt lat="46.0671666" lon="11.4616186" />
      <trkpt lat="46.0671628" lon="11.4616091" />
      <trkpt lat="46.0671611" lon="11.4615984" />
      <trkpt lat="46.0671512" lon="11.4615873" />
      <trkpt lat="46.0671397" lon="11.4615804" />
      <trkpt lat="46.0671274" lon="11.4615781" />
      <trkpt lat="46.0671150" lon="11.4615807" />
      <trkpt lat="46.0670126" lon="11.4616339" />
      <trkpt lat="46.0669390" lon="11.4616721" />
      <trkpt lat="46.0669145" lon="11.4616872" />
      <trkpt lat="46.0668882" lon="11.4616913" />
      <trkpt lat="46.0668621" lon="11.4616843" />
      <trkpt lat="46.0668385" lon="11.4616667" />
      <trkpt lat="46.0667863" lon="11.4616652" />
      <trkpt lat="46.0667363" lon="11.4616869" />
      <trkpt lat="46.0667167" lon="11.4616915" />
      <trkpt lat="46.0666968" lon="11.4616941" />
      <trkpt lat="46.0666852" lon="11.4616903" />
      <trkpt lat="46.0666749" lon="11.4616817" />
      <trkpt lat="46.0666667" lon="11.4616692" />
      <trkpt lat="46.0666268" lon="11.4616338" />
      <trkpt lat="46.0665929" lon="11.4616159" />
      <trkpt lat="46.0665572" lon="11.4616072" />
      <trkpt lat="46.0664610" lon="11.4616692" />
      <trkpt lat="46.0663300" lon="11.4616972" />
      <trkpt lat="46.0662686" lon="11.4617076" />
      <trkpt lat="46.0662517" lon="11.4617040" />
      <trkpt lat="46.0662365" lon="11.4616928" />
      <trkpt lat="46.0662246" lon="11.4616751" />
      <trkpt lat="46.0662031" lon="11.4616161" />
      <trkpt lat="46.0661970" lon="11.4615822" />
      <trkpt lat="46.0661955" lon="11.4615759" />
      <trkpt lat="46.0661927" lon="11.4615706" />
      <trkpt lat="46.0661889" lon="11.4615670" />
      <trkpt lat="46.0661845" lon="11.4615654" />
      <trkpt lat="46.0661799" lon="11.4615660" />
      <trkpt lat="46.0661757" lon="11.4615688" />
      <trkpt lat="46.0661724" lon="11.4615733" />
      <trkpt lat="46.0661703" lon="11.4615792" />
      <trkpt lat="46.0661458" lon="11.4615984" />
      <trkpt lat="46.0661202" lon="11.4615940" />
      <trkpt lat="46.0660854" lon="11.4615630" />
      <trkpt lat="46.0660578" lon="11.4615173" />
      <trkpt lat="46.0660271" lon="11.4614922" />
      <trkpt lat="46.0660200" lon="11.4614857" />
      <trkpt lat="46.0660119" lon="11.4614827" />
      <trkpt lat="46.0660035" lon="11.4614833" />
      <trkpt lat="46.0659800" lon="11.4615202" />
      <trkpt lat="46.0659227" lon="11.4616028" />
      <trkpt lat="46.0658797" lon="11.4616633" />
      <trkpt lat="46.0658469" lon="11.4617223" />
      <trkpt lat="46.0658172" lon="11.4618138" />
      <trkpt lat="46.0657835" lon="11.4618698" />
      <trkpt lat="46.0657436" lon="11.4619052" />
      <trkpt lat="46.0657251" lon="11.4619332" />
      <trkpt lat="46.0657163" lon="11.4619511" />
      <trkpt lat="46.0657043" lon="11.4619645" />
      <trkpt lat="46.0656909" lon="11.4619751" />
      <trkpt lat="46.0656757" lon="11.4619786" />
      <trkpt lat="46.0656371" lon="11.4619672" />
      <trkpt lat="46.0656037" lon="11.4619495" />
      <trkpt lat="46.0655032" lon="11.4619264" />
      <trkpt lat="46.0653743" lon="11.4619088" />
      <trkpt lat="46.0652832" lon="11.4618943" />
      <trkpt lat="46.0652328" lon="11.4618720" />
      <trkpt lat="46.0652003" lon="11.4618603" />
      <trkpt lat="46.0651633" lon="11.4618300" />
      <trkpt lat="46.0651003" lon="11.4617513" />
      <trkpt lat="46.0650703" lon="11.4617481" />
      <trkpt lat="46.0650612" lon="11.4617379" />
      <trkpt lat="46.0650395" lon="11.4617164" />
      <trkpt lat="46.0649961" lon="11.4616964" />
      <trkpt lat="46.0649400" lon="11.4616853" />
      <trkpt lat="46.0648261" lon="11.4616122" />
      <trkpt lat="46.0648131" lon="11.4616001" />
      <trkpt lat="46.0648029" lon="11.4615486" />
      <trkpt lat="46.0647929" lon="11.4615275" />
      <trkpt lat="46.0647604" lon="11.4615020" />
      <trkpt lat="46.0647245" lon="11.4614745" />
      <trkpt lat="46.0646992" lon="11.4614348" />
      <trkpt lat="46.0646725" lon="11.4613963" />
      <trkpt lat="46.0646328" lon="11.4613687" />
      <trkpt lat="46.0646060" lon="11.4613280" />
      <trkpt lat="46.0645838" lon="11.4612674" />
      <trkpt lat="46.0645581" lon="11.4612408" />
      <trkpt lat="46.0645502" lon="11.4612338" />
      <trkpt lat="46.0645414" lon="11.4612303" />
      <trkpt lat="46.0645321" lon="11.4612305" />
      <trkpt lat="46.0645234" lon="11.4612346" />
      <trkpt lat="46.0645127" lon="11.4612564" />
      <trkpt lat="46.0645070" lon="11.4612774" />
      <trkpt lat="46.0645068" lon="11.4612842" />
      <trkpt lat="46.0645050" lon="11.4612904" />
      <trkpt lat="46.0645020" lon="11.4612956" />
      <trkpt lat="46.0644980" lon="11.4612992" />
      <trkpt lat="46.0644935" lon="11.4613007" />
      <trkpt lat="46.0644888" lon="11.4613001" />
      <trkpt lat="46.0644845" lon="11.4612975" />
      <trkpt lat="46.0644810" lon="11.4612929" />
      <trkpt lat="46.0644651" lon="11.4612633" />
      <trkpt lat="46.0644541" lon="11.4612401" />
      <trkpt lat="46.0644350" lon="11.4612169" />
      <trkpt lat="46.0644113" lon="11.4611992" />
      <trkpt lat="46.0644036" lon="11.4611935" />
      <trkpt lat="46.0643950" lon="11.4611917" />
      <trkpt lat="46.0643864" lon="11.4611940" />
      <trkpt lat="46.0643789" lon="11.4612002" />
      <trkpt lat="46.0643731" lon="11.4612096" />
      <trkpt lat="46.0643520" lon="11.4612236" />
      <trkpt lat="46.0643291" lon="11.4612328" />
      <trkpt lat="46.0643170" lon="11.4612319" />
      <trkpt lat="46.0643102" lon="11.4612337" />
      <trkpt lat="46.0643005" lon="11.4612362" />
      <trkpt lat="46.0642962" lon="11.4612346" />
      <trkpt lat="46.0642945" lon="11.4612411" />
      <trkpt lat="46.0642918" lon="11.4612417" />
      <trkpt lat="46.0642879" lon="11.4612399" />
      <trkpt lat="46.0642839" lon="11.4612398" />
      <trkpt lat="46.0642800" lon="11.4612416" />
      <trkpt lat="46.0642767" lon="11.4612450" />
      <trkpt lat="46.0642740" lon="11.4612486" />
      <trkpt lat="46.0642706" lon="11.4612507" />
      <trkpt lat="46.0642669" lon="11.4612512" />
      <trkpt lat="46.0642634" lon="11.4612499" />
      <trkpt lat="46.0642555" lon="11.4612421" />
      <trkpt lat="46.0642488" lon="11.4612325" />
      <trkpt lat="46.0642070" lon="11.4611650" />
      <trkpt lat="46.0641922" lon="11.4611537" />
      <trkpt lat="46.0641761" lon="11.4611464" />
      <trkpt lat="46.0641335" lon="11.4611400" />
      <trkpt lat="46.0641047" lon="11.4611400" />
      <trkpt lat="46.0640746" lon="11.4611446" />
      <trkpt lat="46.0640691" lon="11.4611446" />
      <trkpt lat="46.0640666" lon="11.4611424" />
      <trkpt lat="46.0640636" lon="11.4611473" />
      <trkpt lat="46.0640613" lon="11.4611562" />
      <trkpt lat="46.0640526" lon="11.4611592" />
      <trkpt lat="46.0640405" lon="11.4611650" />
      <trkpt lat="46.0640362" lon="11.4611701" />
      <trkpt lat="46.0640330" lon="11.4611767" />
      <trkpt lat="46.0640314" lon="11.4611844" />
      <trkpt lat="46.0640314" lon="11.4611925" />
      <trkpt lat="46.0640331" lon="11.4612001" />
      <trkpt lat="46.0640348" lon="11.4612105" />
      <trkpt lat="46.0640347" lon="11.4612174" />
      <trkpt lat="46.0640330" lon="11.4612239" />
      <trkpt lat="46.0640299" lon="11.4612292" />
      <trkpt lat="46.0640258" lon="11.4612326" />
      <trkpt lat="46.0640211" lon="11.4612339" />
      <trkpt lat="46.0640163" lon="11.4612328" />
      <trkpt lat="46.0640117" lon="11.4612296" />
      <trkpt lat="46.0640067" lon="11.4612285" />
      <trkpt lat="46.0640017" lon="11.4612296" />
      <trkpt lat="46.0639971" lon="11.4612328" />
      <trkpt lat="46.0639922" lon="11.4612346" />
      <trkpt lat="46.0639872" lon="11.4612341" />
      <trkpt lat="46.0639825" lon="11.4612315" />
      <trkpt lat="46.0639786" lon="11.4612270" />
      <trkpt lat="46.0639630" lon="11.4612142" />
      <trkpt lat="46.0639456" lon="11.4611904" />
      <trkpt lat="46.0639282" lon="11.4611653" />
      <trkpt lat="46.0639172" lon="11.4611556" />
      <trkpt lat="46.0639134" lon="11.4611539" />
      <trkpt lat="46.0639102" lon="11.4611506" />
      <trkpt lat="46.0639077" lon="11.4611461" />
      <trkpt lat="46.0639064" lon="11.4611408" />
      <trkpt lat="46.0639062" lon="11.4611351" />
      <trkpt lat="46.0639072" lon="11.4611296" />
      <trkpt lat="46.0639082" lon="11.4611229" />
      <trkpt lat="46.0639078" lon="11.4611160" />
      <trkpt lat="46.0639058" lon="11.4611097" />
      <trkpt lat="46.0639026" lon="11.4611046" />
      <trkpt lat="46.0638984" lon="11.4611012" />
      <trkpt lat="46.0638938" lon="11.4610998" />
      <trkpt lat="46.0638890" lon="11.4611006" />
      <trkpt lat="46.0638761" lon="11.4611036" />
      <trkpt lat="46.0638627" lon="11.4611012" />
      <trkpt lat="46.0638606" lon="11.4610985" />
      <trkpt lat="46.0638540" lon="11.4610975" />
      <trkpt lat="46.0638519" lon="11.4610908" />
      <trkpt lat="46.0638485" lon="11.4610853" />
      <trkpt lat="46.0638441" lon="11.4610816" />
      <trkpt lat="46.0638390" lon="11.4610800" />
      <trkpt lat="46.0638339" lon="11.4610807" />
      <trkpt lat="46.0638257" lon="11.4610749" />
      <trkpt lat="46.0638193" lon="11.4610804" />
      <trkpt lat="46.0638121" lon="11.4610827" />
      <trkpt lat="46.0638048" lon="11.4610816" />
      <trkpt lat="46.0637981" lon="11.4610771" />
      <trkpt lat="46.0637865" lon="11.4610655" />
      <trkpt lat="46.0637773" lon="11.4610548" />
      <trkpt lat="46.0637624" lon="11.4610436" />
      <trkpt lat="46.0637458" lon="11.4610389" />
      <trkpt lat="46.0637324" lon="11.4610395" />
      <trkpt lat="46.0637254" lon="11.4610403" />
      <trkpt lat="46.0637185" lon="11.4610378" />
      <trkpt lat="46.0637127" lon="11.4610321" />
      <trkpt lat="46.0637084" lon="11.4610240" />
      <trkpt lat="46.0637062" lon="11.4610143" />
      <trkpt lat="46.0637059" lon="11.4610080" />
      <trkpt lat="46.0637069" lon="11.4610019" />
      <trkpt lat="46.0637093" lon="11.4609966" />
      <trkpt lat="46.0637124" lon="11.4609912" />
      <trkpt lat="46.0637162" lon="11.4609869" />
      <trkpt lat="46.0637204" lon="11.4609881" />
      <trkpt lat="46.0637227" lon="11.4609873" />
      <trkpt lat="46.0637251" lon="11.4609767" />
      <trkpt lat="46.0637254" lon="11.4609658" />
      <trkpt lat="46.0637280" lon="11.4609586" />
      <trkpt lat="46.0637291" lon="11.4609560" />
      <trkpt lat="46.0637297" lon="11.4609530" />
      <trkpt lat="46.0637295" lon="11.4609500" />
      <trkpt lat="46.0637287" lon="11.4609471" />
      <trkpt lat="46.0637273" lon="11.4609447" />
      <trkpt lat="46.0637265" lon="11.4609442" />
      <trkpt lat="46.0637264" lon="11.4609429" />
      <trkpt lat="46.0637265" lon="11.4609416" />
      <trkpt lat="46.0637270" lon="11.4609404" />
      <trkpt lat="46.0637277" lon="11.4609395" />
      <trkpt lat="46.0637286" lon="11.4609389" />
      <trkpt lat="46.0637302" lon="11.4609387" />
      <trkpt lat="46.0637318" lon="11.4609388" />
      <trkpt lat="46.0637341" lon="11.4609410" />
      <trkpt lat="46.0637348" lon="11.4609416" />
      <trkpt lat="46.0637355" lon="11.4609417" />
      <trkpt lat="46.0637363" lon="11.4609416" />
      <trkpt lat="46.0637370" lon="11.4609410" />
      <trkpt lat="46.0637380" lon="11.4609401" />
      <trkpt lat="46.0637394" lon="11.4609391" />
      <trkpt lat="46.0637437" lon="11.4609350" />
      <trkpt lat="46.0637532" lon="11.4609313" />
      <trkpt lat="46.0637559" lon="11.4609326" />
      <trkpt lat="46.0637588" lon="11.4609342" />
      <trkpt lat="46.0637583" lon="11.4609135" />
      <trkpt lat="46.0637554" lon="11.4608994" />
      <trkpt lat="46.0637522" lon="11.4608933" />
      <trkpt lat="46.0637528" lon="11.4608874" />
      <trkpt lat="46.0637462" lon="11.4608897" />
      <trkpt lat="46.0637275" lon="11.4608878" />
      <trkpt lat="46.0637074" lon="11.4608793" />
      <trkpt lat="46.0636865" lon="11.4608787" />
      <trkpt lat="46.0636796" lon="11.4608771" />
      <trkpt lat="46.0636732" lon="11.4608732" />
      <trkpt lat="46.0636677" lon="11.4608672" />
      <trkpt lat="46.0636515" lon="11.4608359" />
      <trkpt lat="46.0636475" lon="11.4608268" />
      <trkpt lat="46.0636417" lon="11.4608201" />
      <trkpt lat="46.0636345" lon="11.4608167" />
      <trkpt lat="46.0636134" lon="11.4608054" />
      <trkpt lat="46.0635750" lon="11.4607901" />
      <trkpt lat="46.0635570" lon="11.4607889" />
      <trkpt lat="46.0635460" lon="11.4607828" />
      <trkpt lat="46.0635280" lon="11.4607831" />
      <trkpt lat="46.0635100" lon="11.4607831" />
      <trkpt lat="46.0634915" lon="11.4607700" />
      <trkpt lat="46.0634872" lon="11.4607626" />
      <trkpt lat="46.0634817" lon="11.4607574" />
      <trkpt lat="46.0634753" lon="11.4607547" />
      <trkpt lat="46.0634686" lon="11.4607547" />
      <trkpt lat="46.0634621" lon="11.4607521" />
      <trkpt lat="46.0634564" lon="11.4607471" />
      <trkpt lat="46.0634267" lon="11.4607248" />
      <trkpt lat="46.0634144" lon="11.4607046" />
      <trkpt lat="46.0633968" lon="11.4606893" />
      <trkpt lat="46.0633811" lon="11.4606765" />
      <trkpt lat="46.0633538" lon="11.4606695" />
      <trkpt lat="46.0633364" lon="11.4606729" />
      <trkpt lat="46.0633318" lon="11.4606735" />
      <trkpt lat="46.0633263" lon="11.4606701" />
      <trkpt lat="46.0633165" lon="11.4606707" />
      <trkpt lat="46.0632896" lon="11.4606613" />
      <trkpt lat="46.0632799" lon="11.4606515" />
      <trkpt lat="46.0632426" lon="11.4606383" />
      <trkpt lat="46.0632320" lon="11.4606274" />
      <trkpt lat="46.0632201" lon="11.4606234" />
      <trkpt lat="46.0631979" lon="11.4606041" />
      <trkpt lat="46.0631825" lon="11.4605927" />
      <trkpt lat="46.0631657" lon="11.4605874" />
      <trkpt lat="46.0631379" lon="11.4605935" />
      <trkpt lat="46.0631093" lon="11.4605932" />
      <trkpt lat="46.0630875" lon="11.4606014" />
      <trkpt lat="46.0630716" lon="11.4606145" />
      <trkpt lat="46.0630447" lon="11.4606383" />
      <trkpt lat="46.0630256" lon="11.4606606" />
      <trkpt lat="46.0630131" lon="11.4606799" />
      <trkpt lat="46.0630078" lon="11.4606936" />
      <trkpt lat="46.0630031" lon="11.4606981" />
      <trkpt lat="46.0629977" lon="11.4607004" />
      <trkpt lat="46.0629921" lon="11.4607006" />
      <trkpt lat="46.0629811" lon="11.4606991" />
      <trkpt lat="46.0629582" lon="11.4606958" />
      <trkpt lat="46.0629392" lon="11.4606918" />
      <trkpt lat="46.0629065" lon="11.4606674" />
      <trkpt lat="46.0628769" lon="11.4606448" />
      <trkpt lat="46.0628447" lon="11.4606319" />
      <trkpt lat="46.0628040" lon="11.4606350" />
      <trkpt lat="46.0628008" lon="11.4606370" />
      <trkpt lat="46.0627973" lon="11.4606375" />
      <trkpt lat="46.0627940" lon="11.4606363" />
      <trkpt lat="46.0627911" lon="11.4606335" />
      <trkpt lat="46.0627889" lon="11.4606295" />
      <trkpt lat="46.0627879" lon="11.4606248" />
      <trkpt lat="46.0627879" lon="11.4606198" />
      <trkpt lat="46.0627891" lon="11.4606151" />
      <trkpt lat="46.0627913" lon="11.4606112" />
      <trkpt lat="46.0628108" lon="11.4605800" />
      <trkpt lat="46.0628324" lon="11.4605587" />
      <trkpt lat="46.0628201" lon="11.4605519" />
      <trkpt lat="46.0627891" lon="11.4605434" />
      <trkpt lat="46.0627793" lon="11.4605289" />
      <trkpt lat="46.0627669" lon="11.4605191" />
      <trkpt lat="46.0627532" lon="11.4605149" />
      <trkpt lat="46.0627351" lon="11.4605178" />
      <trkpt lat="46.0627181" lon="11.4605275" />
      <trkpt lat="46.0627035" lon="11.4605434" />
      <trkpt lat="46.0626730" lon="11.4606093" />
      <trkpt lat="46.0626599" lon="11.4606352" />
      <trkpt lat="46.0626422" lon="11.4606546" />
      <trkpt lat="46.0626215" lon="11.4606661" />
      <trkpt lat="46.0625993" lon="11.4606686" />
      <trkpt lat="46.0625624" lon="11.4606405" />
      <trkpt lat="46.0625593" lon="11.4606406" />
      <trkpt lat="46.0625564" lon="11.4606391" />
      <trkpt lat="46.0625539" lon="11.4606364" />
      <trkpt lat="46.0625523" lon="11.4606325" />
      <trkpt lat="46.0625517" lon="11.4606281" />
      <trkpt lat="46.0625521" lon="11.4606237" />
      <trkpt lat="46.0625535" lon="11.4606197" />
      <trkpt lat="46.0625718" lon="11.4606100" />
      <trkpt lat="46.0625733" lon="11.4606085" />
      <trkpt lat="46.0625743" lon="11.4606063" />
      <trkpt lat="46.0625749" lon="11.4606038" />
      <trkpt lat="46.0625747" lon="11.4606012" />
      <trkpt lat="46.0625740" lon="11.4605988" />
      <trkpt lat="46.0625728" lon="11.4605968" />
      <trkpt lat="46.0625711" lon="11.4605956" />
      <trkpt lat="46.0625693" lon="11.4605953" />
      <trkpt lat="46.0625675" lon="11.4605959" />
      <trkpt lat="46.0625386" lon="11.4606008" />
      <trkpt lat="46.0625224" lon="11.4606074" />
      <trkpt lat="46.0625055" lon="11.4606066" />
      <trkpt lat="46.0624895" lon="11.4605983" />
      <trkpt lat="46.0624294" lon="11.4605593" />
      <trkpt lat="46.0623895" lon="11.4605232" />
      <trkpt lat="46.0623311" lon="11.4604860" />
      <trkpt lat="46.0623102" lon="11.4604723" />
      <trkpt lat="46.0622874" lon="11.4604695" />
      <trkpt lat="46.0622733" lon="11.4604710" />
      <trkpt lat="46.0622595" lon="11.4604669" />
      <trkpt lat="46.0622469" lon="11.4604577" />
      <trkpt lat="46.0622366" lon="11.4604438" />
      <trkpt lat="46.0621806" lon="11.4603510" />
      <trkpt lat="46.0621272" lon="11.4603284" />
      <trkpt lat="46.0621066" lon="11.4603234" />
      <trkpt lat="46.0620857" lon="11.4603266" />
      <trkpt lat="46.0620662" lon="11.4603376" />
      <trkpt lat="46.0619721" lon="11.4603577" />
      <trkpt lat="46.0619396" lon="11.4603589" />
      <trkpt lat="46.0619158" lon="11.4603533" />
      <trkpt lat="46.0618939" lon="11.4603391" />
      <trkpt lat="46.0618751" lon="11.4603174" />
      <trkpt lat="46.0618365" lon="11.4602796" />
      <trkpt lat="46.0618084" lon="11.4602944" />
      <trkpt lat="46.0617836" lon="11.4603186" />
      <trkpt lat="46.0617826" lon="11.4603193" />
      <trkpt lat="46.0617815" lon="11.4603194" />
      <trkpt lat="46.0617804" lon="11.4603190" />
      <trkpt lat="46.0617795" lon="11.4603181" />
      <trkpt lat="46.0617789" lon="11.4603168" />
      <trkpt lat="46.0617786" lon="11.4603153" />
      <trkpt lat="46.0617786" lon="11.4603137" />
      <trkpt lat="46.0617791" lon="11.4603122" />
      <trkpt lat="46.0617798" lon="11.4603111" />
      <trkpt lat="46.0617864" lon="11.4603058" />
      <trkpt lat="46.0617916" lon="11.4602979" />
      <trkpt lat="46.0617948" lon="11.4602880" />
      <trkpt lat="46.0617958" lon="11.4602804" />
      <trkpt lat="46.0617952" lon="11.4602726" />
      <trkpt lat="46.0617932" lon="11.4602654" />
      <trkpt lat="46.0617816" lon="11.4602483" />
      <trkpt lat="46.0617772" lon="11.4602429" />
      <trkpt lat="46.0617719" lon="11.4602398" />
      <trkpt lat="46.0617661" lon="11.4602391" />
      <trkpt lat="46.0617605" lon="11.4602410" />
      <trkpt lat="46.0617431" lon="11.4602453" />
      <trkpt lat="46.0617143" lon="11.4602349" />
      <trkpt lat="46.0616706" lon="11.4601909" />
      <trkpt lat="46.0616427" lon="11.4601561" />
      <trkpt lat="46.0616223" lon="11.4601830" />
      <trkpt lat="46.0615910" lon="11.4602062" />
      <trkpt lat="46.0615740" lon="11.4602252" />
      <trkpt lat="46.0615692" lon="11.4602068" />
      <trkpt lat="46.0615440" lon="11.4601301" />
      <trkpt lat="46.0614698" lon="11.4600140" />
      <trkpt lat="46.0613876" lon="11.4599316" />
      <trkpt lat="46.0613167" lon="11.4598989" />
      <trkpt lat="46.0612451" lon="11.4598899" />
      <trkpt lat="46.0610664" lon="11.4598984" />
      <trkpt lat="46.0609788" lon="11.4599084" />
      <trkpt lat="46.0608178" lon="11.4599312" />
      <trkpt lat="46.0606631" lon="11.4599617" />
      <trkpt lat="46.0605128" lon="11.4599787" />
      <trkpt lat="46.0604296" lon="11.4599708" />
      <trkpt lat="46.0603602" lon="11.4599536" />
      <trkpt lat="46.0602986" lon="11.4599309" />
      <trkpt lat="46.0602310" lon="11.4599101" />
      <trkpt lat="46.0601727" lon="11.4598973" />
      <trkpt lat="46.0601351" lon="11.4598897" />
      <trkpt lat="46.0600919" lon="11.4599071" />
      <trkpt lat="46.0600534" lon="11.4599541" />
      <trkpt lat="46.0600251" lon="11.4600621" />
      <trkpt lat="46.0599977" lon="11.4601665" />
      <trkpt lat="46.0599766" lon="11.4602997" />
      <trkpt lat="46.0599491" lon="11.4604896" />
      <trkpt lat="46.0599485" lon="11.4606206" />
      <trkpt lat="46.0599690" lon="11.4607743" />
      <trkpt lat="46.0599811" lon="11.4608464" />
      <trkpt lat="46.0599978" lon="11.4609362" />
      <trkpt lat="46.0600327" lon="11.4610723" />
      <trkpt lat="46.0600804" lon="11.4612398" />
      <trkpt lat="46.0601347" lon="11.4613806" />
      <trkpt lat="46.0601879" lon="11.4614720" />
      <trkpt lat="46.0604021" lon="11.4618048" />
      <trkpt lat="46.0605054" lon="11.4619680" />
      <trkpt lat="46.0607604" lon="11.4623300" />
      <trkpt lat="46.0608634" lon="11.4625450" />
      <trkpt lat="46.0609414" lon="11.4627949" />
      <trkpt lat="46.0610418" lon="11.4630174" />
      <trkpt lat="46.0610657" lon="11.4630744" />
      <trkpt lat="46.0610771" lon="11.4631361" />
      <trkpt lat="46.0611004" lon="11.4631817" />
      <trkpt lat="46.0611543" lon="11.4632725" />
      <trkpt lat="46.0612211" lon="11.4634191" />
      <trkpt lat="46.0612584" lon="11.4635150" />
      <trkpt lat="46.0612853" lon="11.4635909" />
      <trkpt lat="46.0613316" lon="11.4637464" />
      <trkpt lat="46.0613951" lon="11.4639124" />
      <trkpt lat="46.0614451" lon="11.4640059" />
      <trkpt lat="46.0615050" lon="11.4640981" />
      <trkpt lat="46.0615679" lon="11.4641759" />
      <trkpt lat="46.0616254" lon="11.4642391" />
      <trkpt lat="46.0616746" lon="11.4642795" />
      <trkpt lat="46.0617529" lon="11.4643425" />
      <trkpt lat="46.0618127" lon="11.4643831" />
      <trkpt lat="46.0618467" lon="11.4644184" />
      <trkpt lat="46.0618785" lon="11.4644627" />
      <trkpt lat="46.0619096" lon="11.4645183" />
      <trkpt lat="46.0619644" lon="11.4646230" />
      <trkpt lat="46.0621408" lon="11.4649793" />
      <trkpt lat="46.0623078" lon="11.4652940" />
      <trkpt lat="46.0623610" lon="11.4653789" />
      <trkpt lat="46.0624389" lon="11.4654828" />
      <trkpt lat="46.0625198" lon="11.4655717" />
      <trkpt lat="46.0625994" lon="11.4656698" />
      <trkpt lat="46.0626422" lon="11.4657422" />
      <trkpt lat="46.0627605" lon="11.4659577" />
      <trkpt lat="46.0629244" lon="11.4662011" />
      <trkpt lat="46.0630824" lon="11.4664880" />
      <trkpt lat="46.0631018" lon="11.4665229" />
      <trkpt lat="46.0631338" lon="11.4665806" />
      <trkpt lat="46.0631797" lon="11.4666609" />
      <trkpt lat="46.0632237" lon="11.4667120" />
      <trkpt lat="46.0632747" lon="11.4667523" />
      <trkpt lat="46.0633329" lon="11.4667787" />
      <trkpt lat="46.0634065" lon="11.4667924" />
      <trkpt lat="46.0636116" lon="11.4668009" />
      <trkpt lat="46.0636677" lon="11.4668056" />
      <trkpt lat="46.0637151" lon="11.4668183" />
      <trkpt lat="46.0637593" lon="11.4668509" />
      <trkpt lat="46.0638124" lon="11.4669250" />
      <trkpt lat="46.0641293" lon="11.4674581" />
      <trkpt lat="46.0643418" lon="11.4677858" />
      <trkpt lat="46.0644537" lon="11.4679467" />
      <trkpt lat="46.0643418" lon="11.4677858" />
      <trkpt lat="46.0641293" lon="11.4674581" />
      <trkpt lat="46.0638124" lon="11.4669250" />
      <trkpt lat="46.0637593" lon="11.4668509" />
      <trkpt lat="46.0637151" lon="11.4668183" />
      <trkpt lat="46.0636677" lon="11.4668056" />
      <trkpt lat="46.0636116" lon="11.4668009" />
      <trkpt lat="46.0634065" lon="11.4667924" />
      <trkpt lat="46.0633329" lon="11.4667787" />
      <trkpt lat="46.0632747" lon="11.4667523" />
      <trkpt lat="46.0632237" lon="11.4667120" />
      <trkpt lat="46.0631797" lon="11.4666609" />
      <trkpt lat="46.0631338" lon="11.4665806" />
      <trkpt lat="46.0631018" lon="11.4665229" />
      <trkpt lat="46.0630824" lon="11.4664880" />
      <trkpt lat="46.0629244" lon="11.4662011" />
      <trkpt lat="46.0627605" lon="11.4659577" />
      <trkpt lat="46.0626422" lon="11.4657422" />
      <trkpt lat="46.0625994" lon="11.4656698" />
      <trkpt lat="46.0625198" lon="11.4655717" />
      <trkpt lat="46.0624389" lon="11.4654828" />
      <trkpt lat="46.0623610" lon="11.4653789" />
      <trkpt lat="46.0623078" lon="11.4652940" />
      <trkpt lat="46.0621408" lon="11.4649793" />
      <trkpt lat="46.0619644" lon="11.4646230" />
      <trkpt lat="46.0619096" lon="11.4645183" />
      <trkpt lat="46.0618785" lon="11.4644627" />
      <trkpt lat="46.0618467" lon="11.4644184" />
      <trkpt lat="46.0618127" lon="11.4643831" />
      <trkpt lat="46.0617529" lon="11.4643425" />
      <trkpt lat="46.0616746" lon="11.4642795" />
      <trkpt lat="46.0616254" lon="11.4642391" />
      <trkpt lat="46.0615679" lon="11.4641759" />
      <trkpt lat="46.0615050" lon="11.4640981" />
      <trkpt lat="46.0614451" lon="11.4640059" />
      <trkpt lat="46.0613951" lon="11.4639124" />
      <trkpt lat="46.0613316" lon="11.4637464" />
      <trkpt lat="46.0612853" lon="11.4635909" />
      <trkpt lat="46.0612584" lon="11.4635150" />
      <trkpt lat="46.0612211" lon="11.4634191" />
      <trkpt lat="46.0611543" lon="11.4632725" />
      <trkpt lat="46.0611004" lon="11.4631817" />
      <trkpt lat="46.0610771" lon="11.4631361" />
      <trkpt lat="46.0610657" lon="11.4630744" />
      <trkpt lat="46.0610418" lon="11.4630174" />
      <trkpt lat="46.0609414" lon="11.4627949" />
      <trkpt lat="46.0608634" lon="11.4625450" />
      <trkpt lat="46.0607604" lon="11.4623300" />
      <trkpt lat="46.0605054" lon="11.4619680" />
      <trkpt lat="46.0604021" lon="11.4618048" />
      <trkpt lat="46.0603733" lon="11.4617925" />
      <trkpt lat="46.0603327" lon="11.4617601" />
      <trkpt lat="46.0602483" lon="11.4616839" />
      <trkpt lat="46.0601320" lon="11.4616119" />
      <trkpt lat="46.0599817" lon="11.4614928" />
      <trkpt lat="46.0598594" lon="11.4613959" />
      <trkpt lat="46.0597451" lon="11.4613068" />
      <trkpt lat="46.0596568" lon="11.4612137" />
      <trkpt lat="46.0596031" lon="11.4611272" />
      <trkpt lat="46.0595718" lon="11.4610612" />
      <trkpt lat="46.0595365" lon="11.4609372" />
      <trkpt lat="46.0595025" lon="11.4608392" />
      <trkpt lat="46.0594676" lon="11.4607911" />
      <trkpt lat="46.0593913" lon="11.4607086" />
      <trkpt lat="46.0592299" lon="11.4605089" />
      <trkpt lat="46.0591033" lon="11.4603583" />
      <trkpt lat="46.0590076" lon="11.4602340" />
      <trkpt lat="46.0589180" lon="11.4601307" />
      <trkpt lat="46.0587977" lon="11.4600094" />
      <trkpt lat="46.0587167" lon="11.4599347" />
      <trkpt lat="46.0586424" lon="11.4598684" />
      <trkpt lat="46.0585739" lon="11.4598074" />
      <trkpt lat="46.0585113" lon="11.4597574" />
      <trkpt lat="46.0584449" lon="11.4596836" />
      <trkpt lat="46.0583740" lon="11.4595914" />
      <trkpt lat="46.0583374" lon="11.4595225" />
      <trkpt lat="46.0583075" lon="11.4594692" />
      <trkpt lat="46.0582906" lon="11.4594358" />
      <trkpt lat="46.0582756" lon="11.4594034" />
      <trkpt lat="46.0582637" lon="11.4593625" />
      <trkpt lat="46.0582229" lon="11.4592021" />
      <trkpt lat="46.0582164" lon="11.4591806" />
      <trkpt lat="46.0582058" lon="11.4591629" />
      <trkpt lat="46.0581920" lon="11.4591506" />
      <trkpt lat="46.0581692" lon="11.4591309" />
      <trkpt lat="46.0581438" lon="11.4591131" />
      <trkpt lat="46.0580998" lon="11.4590692" />
      <trkpt lat="46.0580922" lon="11.4590574" />
      <trkpt lat="46.0580879" lon="11.4590427" />
      <trkpt lat="46.0580872" lon="11.4590267" />
      <trkpt lat="46.0580902" lon="11.4590113" />
      <trkpt lat="46.0580966" lon="11.4589982" />
      <trkpt lat="46.0581056" lon="11.4589889" />
      <trkpt lat="46.0581557" lon="11.4589712" />
      <trkpt lat="46.0582318" lon="11.4589406" />
      <trkpt lat="46.0583135" lon="11.4589097" />
      <trkpt lat="46.0583760" lon="11.4588900" />
      <trkpt lat="46.0584034" lon="11.4588850" />
      <trkpt lat="46.0584270" lon="11.4588855" />
      <trkpt lat="46.0584683" lon="11.4588961" />
      <trkpt lat="46.0585211" lon="11.4589150" />
      <trkpt lat="46.0585821" lon="11.4589354" />
      <trkpt lat="46.0586316" lon="11.4589445" />
      <trkpt lat="46.0586675" lon="11.4589422" />
      <trkpt lat="46.0586990" lon="11.4589332" />
      <trkpt lat="46.0587223" lon="11.4589183" />
      <trkpt lat="46.0587427" lon="11.4589031" />
      <trkpt lat="46.0587555" lon="11.4588834" />
      <trkpt lat="46.0587716" lon="11.4588490" />
      <trkpt lat="46.0587878" lon="11.4588032" />
      <trkpt lat="46.0587958" lon="11.4587783" />
      <trkpt lat="46.0588090" lon="11.4587539" />
      <trkpt lat="46.0588265" lon="11.4587307" />
      <trkpt lat="46.0588438" lon="11.4587091" />
      <trkpt lat="46.0588810" lon="11.4586758" />
      <trkpt lat="46.0589218" lon="11.4586405" />
      <trkpt lat="46.0589604" lon="11.4586098" />
      <trkpt lat="46.0590056" lon="11.4585701" />
      <trkpt lat="46.0590396" lon="11.4585429" />
      <trkpt lat="46.0590773" lon="11.4585060" />
      <trkpt lat="46.0591117" lon="11.4584749" />
      <trkpt lat="46.0591497" lon="11.4584363" />
      <trkpt lat="46.0591847" lon="11.4583943" />
      <trkpt lat="46.0592190" lon="11.4583427" />
      <trkpt lat="46.0592449" lon="11.4583075" />
      <trkpt lat="46.0592772" lon="11.4582671" />
      <trkpt lat="46.0593060" lon="11.4582309" />
      <trkpt lat="46.0593453" lon="11.4581940" />
      <trkpt lat="46.0593803" lon="11.4581504" />
      <trkpt lat="46.0594107" lon="11.4581107" />
      <trkpt lat="46.0594449" lon="11.4580761" />
      <trkpt lat="46.0594800" lon="11.4580421" />
      <trkpt lat="46.0595182" lon="11.4579897" />
      <trkpt lat="46.0595546" lon="11.4579356" />
      <trkpt lat="46.0595752" lon="11.4578991" />
      <trkpt lat="46.0595898" lon="11.4578687" />
      <trkpt lat="46.0595959" lon="11.4578547" />
      <trkpt lat="46.0596009" lon="11.4578409" />
      <trkpt lat="46.0596037" lon="11.4578279" />
      <trkpt lat="46.0596035" lon="11.4578145" />
      <trkpt lat="46.0596004" lon="11.4578017" />
      <trkpt lat="46.0595948" lon="11.4577909" />
      <trkpt lat="46.0595870" lon="11.4577833" />
      <trkpt lat="46.0595780" lon="11.4577796" />
      <trkpt lat="46.0595686" lon="11.4577801" />
      <trkpt lat="46.0594361" lon="11.4578066" />
      <trkpt lat="46.0593272" lon="11.4578286" />
      <trkpt lat="46.0592499" lon="11.4578409" />
      <trkpt lat="46.0590631" lon="11.4578471" />
      <trkpt lat="46.0589437" lon="11.4578656" />
      <trkpt lat="46.0587608" lon="11.4578748" />
      <trkpt lat="46.0585715" lon="11.4579502" />
      <trkpt lat="46.0584702" lon="11.4579954" />
      <trkpt lat="46.0584647" lon="11.4579978" />
      <trkpt lat="46.0584023" lon="11.4580111" />
      <trkpt lat="46.0583199" lon="11.4580015" />
      <trkpt lat="46.0582309" lon="11.4579557" />
      <trkpt lat="46.0581174" lon="11.4579541" />
      <trkpt lat="46.0580352" lon="11.4579194" />
      <trkpt lat="46.0579460" lon="11.4578749" />
      <trkpt lat="46.0579050" lon="11.4578368" />
      <trkpt lat="46.0578667" lon="11.4577762" />
      <trkpt lat="46.0577824" lon="11.4576715" />
      <trkpt lat="46.0576897" lon="11.4575763" />
      <trkpt lat="46.0574579" lon="11.4574172" />
      <trkpt lat="46.0572677" lon="11.4572845" />
      <trkpt lat="46.0570619" lon="11.4571978" />
      <trkpt lat="46.0569776" lon="11.4571192" />
      <trkpt lat="46.0568569" lon="11.4570193" />
      <trkpt lat="46.0567419" lon="11.4569061" />
      <trkpt lat="46.0565442" lon="11.4566839" />
      <trkpt lat="46.0562946" lon="11.4563737" />
      <trkpt lat="46.0561525" lon="11.4562278" />
      <trkpt lat="46.0561145" lon="11.4561869" />
      <trkpt lat="46.0560771" lon="11.4561537" />
      <trkpt lat="46.0560265" lon="11.4561282" />
      <trkpt lat="46.0559704" lon="11.4561098" />
      <trkpt lat="46.0559068" lon="11.4560913" />
      <trkpt lat="46.0558312" lon="11.4560749" />
      <trkpt lat="46.0558026" lon="11.4560723" />
      <trkpt lat="46.0558030" lon="11.4560565" />
      <trkpt lat="46.0558058" lon="11.4560454" />
      <trkpt lat="46.0558109" lon="11.4560362" />
      <trkpt lat="46.0560035" lon="11.4557111" />
      <trkpt lat="46.0560350" lon="11.4556808" />
      <trkpt lat="46.0560573" lon="11.4556683" />
      <trkpt lat="46.0560811" lon="11.4556638" />
      <trkpt lat="46.0561049" lon="11.4556677" />
      <trkpt lat="46.0564239" lon="11.4558189" />
      <trkpt lat="46.0565087" lon="11.4558447" />
      <trkpt lat="46.0566165" lon="11.4558727" />
      <trkpt lat="46.0567061" lon="11.4558754" />
      <trkpt lat="46.0567894" lon="11.4558706" />
      <trkpt lat="46.0568273" lon="11.4558636" />
      <trkpt lat="46.0568635" lon="11.4558458" />
      <trkpt lat="46.0568964" lon="11.4558180" />
      <trkpt lat="46.0569217" lon="11.4557859" />
      <trkpt lat="46.0569427" lon="11.4557480" />
      <trkpt lat="46.0569587" lon="11.4557052" />
      <trkpt lat="46.0569736" lon="11.4556443" />
      <trkpt lat="46.0569766" lon="11.4556257" />
      <trkpt lat="46.0569750" lon="11.4556068" />
      <trkpt lat="46.0569691" lon="11.4555898" />
      <trkpt lat="46.0569595" lon="11.4555767" />
      <trkpt lat="46.0567167" lon="11.4553953" />
      <trkpt lat="46.0566330" lon="11.4553265" />
      <trkpt lat="46.0564884" lon="11.4552077" />
      <trkpt lat="46.0560021" lon="11.4547802" />
      <trkpt lat="46.0559340" lon="11.4547267" />
      <trkpt lat="46.0558582" lon="11.4546858" />
      <trkpt lat="46.0556614" lon="11.4545828" />
      <trkpt lat="46.0555516" lon="11.4545292" />
      <trkpt lat="46.0554920" lon="11.4544976" />
      <trkpt lat="46.0554484" lon="11.4544692" />
      <trkpt lat="46.0554185" lon="11.4544420" />
      <trkpt lat="46.0553881" lon="11.4544067" />
      <trkpt lat="46.0554302" lon="11.4543458" />
      <trkpt lat="46.0553970" lon="11.4543150" />
      <trkpt lat="46.0551707" lon="11.4541095" />
      <trkpt lat="46.0551676" lon="11.4540394" />
      <trkpt lat="46.0551519" lon="11.4540242" />
      <trkpt lat="46.0550822" lon="11.4539567" />
      <trkpt lat="46.0550689" lon="11.4539258" />
      <trkpt lat="46.0550262" lon="11.4538260" />
      <trkpt lat="46.0548948" lon="11.4536099" />
      <trkpt lat="46.0548375" lon="11.4530811" />
      <trkpt lat="46.0547889" lon="11.4524265" />
      <trkpt lat="46.0548718" lon="11.4523434" />
      <trkpt lat="46.0548724" lon="11.4522392" />
      <trkpt lat="46.0548383" lon="11.4519824" />
      <trkpt lat="46.0547289" lon="11.4513206" />
      <trkpt lat="46.0547228" lon="11.4512834" />
      <trkpt lat="46.0546770" lon="11.4510062" />
      <trkpt lat="46.0546686" lon="11.4509574" />
      <trkpt lat="46.0545778" lon="11.4504325" />
      <trkpt lat="46.0545135" lon="11.4500603" />
      <trkpt lat="46.0545043" lon="11.4500072" />
      <trkpt lat="46.0544650" lon="11.4497801" />
      <trkpt lat="46.0544525" lon="11.4497065" />
      <trkpt lat="46.0544091" lon="11.4494516" />
      <trkpt lat="46.0543700" lon="11.4492227" />
    </trkseg>
  </trk>
</gpx>
