<?xml version="1.0" encoding="UTF-8"?>
<gpx xmlns="http://www.topografix.com/GPX/1/1" version="1.1" creator="ShapeRoute route-engine">
  <metadata>
    <name>bird 15 km · 2026-09-25</name>
    <author>
      <name>ShapeRoute route-engine</name>
    </author>
    <copyright author="OpenStreetMap contributors">
      <license>https://opendatacommons.org/licenses/odbl/1-0/</license>
    </copyright>
    <link href="https://www.openstreetmap.org/copyright">
      <text>© OpenStreetMap contributors</text>
    </link>
    <time>2026-09-25T12:03:16Z</time>
  </metadata>
  <trk>
    <name>bird 15 km · 2026-09-25</name>
    <trkseg>
      <trkpt lat="45.4643695" lon="9.1897716" />
      <trkpt lat="45.4644313" lon="9.1898582" />
      <trkpt lat="45.4644741" lon="9.1898729" />
      <trkpt lat="45.4645044" lon="9.1898425" />
      <trkpt lat="45.4645471" lon="9.1898437" />
      <trkpt lat="45.4645547" lon="9.1898439" />
      <trkpt lat="45.4645553" lon="9.1897951" />
      <trkpt lat="45.4645576" lon="9.1896132" />
      <trkpt lat="45.4645579" lon="9.1895821" />
      <trkpt lat="45.4645542" lon="9.1895730" />
      <trkpt lat="45.4645546" lon="9.1895295" />
      <trkpt lat="45.4645546" lon="9.1895206" />
      <trkpt lat="45.4645550" lon="9.1894793" />
      <trkpt lat="45.4645550" lon="9.1894735" />
      <trkpt lat="45.4645554" lon="9.1894275" />
      <trkpt lat="45.4645594" lon="9.1894058" />
      <trkpt lat="45.4646497" lon="9.1893463" />
      <trkpt lat="45.4646499" lon="9.1893273" />
      <trkpt lat="45.4646537" lon="9.1891261" />
      <trkpt lat="45.4646514" lon="9.1889880" />
      <trkpt lat="45.4647019" lon="9.1885788" />
      <trkpt lat="45.4647199" lon="9.1884860" />
      <trkpt lat="45.4647739" lon="9.1883495" />
      <trkpt lat="45.4654066" lon="9.1867618" />
      <trkpt lat="45.4654687" lon="9.1867973" />
      <trkpt lat="45.4656484" lon="9.1863067" />
      <trkpt lat="45.4656688" lon="9.1862528" />
      <trkpt lat="45.4656470" lon="9.1862350" />
      <trkpt lat="45.4656810" lon="9.1861478" />
      <trkpt lat="45.4657092" lon="9.1860760" />
      <trkpt lat="45.4657176" lon="9.1860549" />
      <trkpt lat="45.4656808" lon="9.1860254" />
      <trkpt lat="45.4658239" lon="9.1855988" />
      <trkpt lat="45.4659774" lon="9.1853828" />
      <trkpt lat="45.4659807" lon="9.1853788" />
      <trkpt lat="45.4659985" lon="9.1853571" />
      <trkpt lat="45.4660336" lon="9.1853143" />
      <trkpt lat="45.4660437" lon="9.1853020" />
      <trkpt lat="45.4661005" lon="9.1852088" />
      <trkpt lat="45.4664320" lon="9.1847326" />
      <trkpt lat="45.4664515" lon="9.1847066" />
      <trkpt lat="45.4664854" lon="9.1846614" />
      <trkpt lat="45.4669936" lon="9.1839840" />
      <trkpt lat="45.4670198" lon="9.1839490" />
      <trkpt lat="45.4670465" lon="9.1839144" />
      <trkpt lat="45.4678538" lon="9.1828665" />
      <trkpt lat="45.4678251" lon="9.1828236" />
      <trkpt lat="45.4678716" lon="9.1827646" />
      <trkpt lat="45.4679425" lon="9.1826703" />
      <trkpt lat="45.4679524" lon="9.1826584" />
      <trkpt lat="45.4679381" lon="9.1826311" />
      <trkpt lat="45.4679216" lon="9.1825962" />
      <trkpt lat="45.4678584" lon="9.1824440" />
      <trkpt lat="45.4678384" lon="9.1824094" />
      <trkpt lat="45.4678315" lon="9.1823941" />
      <trkpt lat="45.4678224" lon="9.1823649" />
      <trkpt lat="45.4678121" lon="9.1823303" />
      <trkpt lat="45.4678173" lon="9.1823272" />
      <trkpt lat="45.4678406" lon="9.1823139" />
      <trkpt lat="45.4677847" lon="9.1820901" />
      <trkpt lat="45.4677825" lon="9.1819998" />
      <trkpt lat="45.4677822" lon="9.1819613" />
      <trkpt lat="45.4677816" lon="9.1819337" />
      <trkpt lat="45.4677821" lon="9.1819006" />
      <trkpt lat="45.4677840" lon="9.1818855" />
      <trkpt lat="45.4678572" lon="9.1818223" />
      <trkpt lat="45.4678256" lon="9.1816872" />
      <trkpt lat="45.4677789" lon="9.1814917" />
      <trkpt lat="45.4677646" lon="9.1814412" />
      <trkpt lat="45.4677536" lon="9.1814024" />
      <trkpt lat="45.4677499" lon="9.1813890" />
      <trkpt lat="45.4677416" lon="9.1813596" />
      <trkpt lat="45.4677352" lon="9.1813371" />
      <trkpt lat="45.4677262" lon="9.1813052" />
      <trkpt lat="45.4677025" lon="9.1811988" />
      <trkpt lat="45.4676598" lon="9.1810091" />
      <trkpt lat="45.4675708" lon="9.1805372" />
      <trkpt lat="45.4675504" lon="9.1802865" />
      <trkpt lat="45.4674826" lon="9.1797369" />
      <trkpt lat="45.4674651" lon="9.1795651" />
      <trkpt lat="45.4674688" lon="9.1795234" />
      <trkpt lat="45.4674732" lon="9.1794725" />
      <trkpt lat="45.4674760" lon="9.1794404" />
      <trkpt lat="45.4674781" lon="9.1794168" />
      <trkpt lat="45.4674822" lon="9.1793714" />
      <trkpt lat="45.4674851" lon="9.1793382" />
      <trkpt lat="45.4675055" lon="9.1792761" />
      <trkpt lat="45.4675164" lon="9.1792843" />
      <trkpt lat="45.4675396" lon="9.1793017" />
      <trkpt lat="45.4675595" lon="9.1793157" />
      <trkpt lat="45.4675703" lon="9.1793233" />
      <trkpt lat="45.4675777" lon="9.1793255" />
      <trkpt lat="45.4675926" lon="9.1793280" />
      <trkpt lat="45.4676078" lon="9.1793285" />
      <trkpt lat="45.4676361" lon="9.1793297" />
      <trkpt lat="45.4676652" lon="9.1793295" />
      <trkpt lat="45.4676757" lon="9.1793278" />
      <trkpt lat="45.4677386" lon="9.1793165" />
      <trkpt lat="45.4677506" lon="9.1793412" />
      <trkpt lat="45.4679451" lon="9.1793718" />
      <trkpt lat="45.4682611" lon="9.1794215" />
      <trkpt lat="45.4684036" lon="9.1794439" />
      <trkpt lat="45.4684304" lon="9.1794194" />
      <trkpt lat="45.4684761" lon="9.1791646" />
      <trkpt lat="45.4685357" lon="9.1789279" />
      <trkpt lat="45.4686109" lon="9.1787226" />
      <trkpt lat="45.4687238" lon="9.1784710" />
      <trkpt lat="45.4688695" lon="9.1782297" />
      <trkpt lat="45.4688786" lon="9.1782172" />
      <trkpt lat="45.4689059" lon="9.1781723" />
      <trkpt lat="45.4689108" lon="9.1781095" />
      <trkpt lat="45.4689257" lon="9.1780882" />
      <trkpt lat="45.4689559" lon="9.1780450" />
      <trkpt lat="45.4689750" lon="9.1780178" />
      <trkpt lat="45.4689901" lon="9.1779962" />
      <trkpt lat="45.4690075" lon="9.1779710" />
      <trkpt lat="45.4690367" lon="9.1779297" />
      <trkpt lat="45.4690594" lon="9.1779123" />
      <trkpt lat="45.4691158" lon="9.1779052" />
      <trkpt lat="45.4697978" lon="9.1770103" />
      <trkpt lat="45.4698034" lon="9.1769820" />
      <trkpt lat="45.4698167" lon="9.1769633" />
      <trkpt lat="45.4698605" lon="9.1769015" />
      <trkpt lat="45.4698971" lon="9.1768500" />
      <trkpt lat="45.4699136" lon="9.1768267" />
      <trkpt lat="45.4699333" lon="9.1768238" />
      <trkpt lat="45.4702665" lon="9.1763854" />
      <trkpt lat="45.4703207" lon="9.1763207" />
      <trkpt lat="45.4703333" lon="9.1763068" />
      <trkpt lat="45.4703633" lon="9.1762712" />
      <trkpt lat="45.4703741" lon="9.1762586" />
      <trkpt lat="45.4703859" lon="9.1762450" />
      <trkpt lat="45.4704009" lon="9.1762275" />
      <trkpt lat="45.4704081" lon="9.1762192" />
      <trkpt lat="45.4704455" lon="9.1762762" />
      <trkpt lat="45.4704640" lon="9.1763044" />
      <trkpt lat="45.4704750" lon="9.1763372" />
      <trkpt lat="45.4704954" lon="9.1763227" />
      <trkpt lat="45.4705048" lon="9.1763141" />
      <trkpt lat="45.4707528" lon="9.1760759" />
      <trkpt lat="45.4710392" lon="9.1758216" />
      <trkpt lat="45.4711893" lon="9.1756437" />
      <trkpt lat="45.4712955" lon="9.1755348" />
      <trkpt lat="45.4714056" lon="9.1754484" />
      <trkpt lat="45.4716591" lon="9.1752836" />
      <trkpt lat="45.4717389" lon="9.1752275" />
      <trkpt lat="45.4718097" lon="9.1751915" />
      <trkpt lat="45.4718806" lon="9.1751738" />
      <trkpt lat="45.4719649" lon="9.1751728" />
      <trkpt lat="45.4721669" lon="9.1751936" />
      <trkpt lat="45.4723632" lon="9.1752075" />
      <trkpt lat="45.4725910" lon="9.1752092" />
      <trkpt lat="45.4727138" lon="9.1751806" />
      <trkpt lat="45.4727953" lon="9.1751408" />
      <trkpt lat="45.4728515" lon="9.1753531" />
      <trkpt lat="45.4729698" lon="9.1753976" />
      <trkpt lat="45.4730991" lon="9.1754416" />
      <trkpt lat="45.4732697" lon="9.1755567" />
      <trkpt lat="45.4733547" lon="9.1756479" />
      <trkpt lat="45.4733695" lon="9.1756726" />
      <trkpt lat="45.4734867" lon="9.1755789" />
      <trkpt lat="45.4734986" lon="9.1755577" />
      <trkpt lat="45.4735462" lon="9.1754736" />
      <trkpt lat="45.4736861" lon="9.1750833" />
      <trkpt lat="45.4737394" lon="9.1749519" />
      <trkpt lat="45.4743836" lon="9.1741097" />
      <trkpt lat="45.4745119" lon="9.1740439" />
      <trkpt lat="45.4747255" lon="9.1743933" />
      <trkpt lat="45.4747721" lon="9.1745195" />
      <trkpt lat="45.4748181" lon="9.1746442" />
      <trkpt lat="45.4748817" lon="9.1745426" />
      <trkpt lat="45.4749706" lon="9.1744006" />
      <trkpt lat="45.4750284" lon="9.1742415" />
      <trkpt lat="45.4754274" lon="9.1740102" />
      <trkpt lat="45.4754319" lon="9.1737464" />
      <trkpt lat="45.4754349" lon="9.1736016" />
      <trkpt lat="45.4755766" lon="9.1736476" />
      <trkpt lat="45.4756836" lon="9.1736494" />
      <trkpt lat="45.4757841" lon="9.1736475" />
      <trkpt lat="45.4758805" lon="9.1736207" />
      <trkpt lat="45.4759701" lon="9.1735631" />
      <trkpt lat="45.4760318" lon="9.1735056" />
      <trkpt lat="45.4760536" lon="9.1734759" />
      <trkpt lat="45.4761278" lon="9.1733751" />
      <trkpt lat="45.4761415" lon="9.1733492" />
      <trkpt lat="45.4761512" lon="9.1733224" />
      <trkpt lat="45.4761631" lon="9.1733086" />
      <trkpt lat="45.4761833" lon="9.1732839" />
      <trkpt lat="45.4761908" lon="9.1732832" />
      <trkpt lat="45.4762139" lon="9.1732513" />
      <trkpt lat="45.4762248" lon="9.1732363" />
      <trkpt lat="45.4762362" lon="9.1732206" />
      <trkpt lat="45.4762529" lon="9.1731977" />
      <trkpt lat="45.4762653" lon="9.1731755" />
      <trkpt lat="45.4762835" lon="9.1731431" />
      <trkpt lat="45.4763451" lon="9.1730077" />
      <trkpt lat="45.4764017" lon="9.1728477" />
      <trkpt lat="45.4764361" lon="9.1726763" />
      <trkpt lat="45.4764484" lon="9.1725545" />
      <trkpt lat="45.4764780" lon="9.1725582" />
      <trkpt lat="45.4773093" lon="9.1726628" />
      <trkpt lat="45.4776923" lon="9.1727065" />
      <trkpt lat="45.4777045" lon="9.1727218" />
      <trkpt lat="45.4777113" lon="9.1727235" />
      <trkpt lat="45.4777267" lon="9.1727272" />
      <trkpt lat="45.4777508" lon="9.1727331" />
      <trkpt lat="45.4777631" lon="9.1727361" />
      <trkpt lat="45.4778128" lon="9.1727345" />
      <trkpt lat="45.4778270" lon="9.1727225" />
      <trkpt lat="45.4783591" lon="9.1727847" />
      <trkpt lat="45.4783631" lon="9.1727615" />
      <trkpt lat="45.4783692" lon="9.1727266" />
      <trkpt lat="45.4785096" lon="9.1727415" />
      <trkpt lat="45.4786533" lon="9.1727579" />
      <trkpt lat="45.4786795" lon="9.1727606" />
      <trkpt lat="45.4789049" lon="9.1727859" />
      <trkpt lat="45.4794138" lon="9.1728431" />
      <trkpt lat="45.4794152" lon="9.1728335" />
      <trkpt lat="45.4794181" lon="9.1727995" />
      <trkpt lat="45.4794861" lon="9.1728115" />
      <trkpt lat="45.4795876" lon="9.1726935" />
      <trkpt lat="45.4798425" lon="9.1721666" />
      <trkpt lat="45.4799944" lon="9.1718525" />
      <trkpt lat="45.4801452" lon="9.1715408" />
      <trkpt lat="45.4802567" lon="9.1713309" />
      <trkpt lat="45.4802520" lon="9.1712786" />
      <trkpt lat="45.4802595" lon="9.1712622" />
      <trkpt lat="45.4802759" lon="9.1712268" />
      <trkpt lat="45.4803012" lon="9.1711718" />
      <trkpt lat="45.4803067" lon="9.1711599" />
      <trkpt lat="45.4803483" lon="9.1711428" />
      <trkpt lat="45.4805864" lon="9.1706532" />
      <trkpt lat="45.4806301" lon="9.1705637" />
      <trkpt lat="45.4806792" lon="9.1704631" />
      <trkpt lat="45.4807739" lon="9.1702662" />
      <trkpt lat="45.4808336" lon="9.1701305" />
      <trkpt lat="45.4808357" lon="9.1701254" />
      <trkpt lat="45.4808500" lon="9.1700892" />
      <trkpt lat="45.4808629" lon="9.1700577" />
      <trkpt lat="45.4808652" lon="9.1700522" />
      <trkpt lat="45.4809064" lon="9.1699532" />
      <trkpt lat="45.4809142" lon="9.1699366" />
      <trkpt lat="45.4809665" lon="9.1698247" />
      <trkpt lat="45.4810272" lon="9.1696951" />
      <trkpt lat="45.4810438" lon="9.1696597" />
      <trkpt lat="45.4809247" lon="9.1696519" />
      <trkpt lat="45.4804424" lon="9.1689309" />
      <trkpt lat="45.4804412" lon="9.1688797" />
      <trkpt lat="45.4804330" lon="9.1688661" />
      <trkpt lat="45.4803960" lon="9.1688049" />
      <trkpt lat="45.4803537" lon="9.1687350" />
      <trkpt lat="45.4803502" lon="9.1687292" />
      <trkpt lat="45.4803068" lon="9.1687200" />
      <trkpt lat="45.4802990" lon="9.1687292" />
      <trkpt lat="45.4802536" lon="9.1687828" />
      <trkpt lat="45.4799484" lon="9.1683200" />
      <trkpt lat="45.4798253" lon="9.1681333" />
      <trkpt lat="45.4796944" lon="9.1679347" />
      <trkpt lat="45.4796540" lon="9.1679910" />
      <trkpt lat="45.4796473" lon="9.1680004" />
      <trkpt lat="45.4796326" lon="9.1680036" />
      <trkpt lat="45.4796259" lon="9.1679931" />
      <trkpt lat="45.4795870" lon="9.1679319" />
      <trkpt lat="45.4795707" lon="9.1679062" />
      <trkpt lat="45.4795554" lon="9.1678823" />
      <trkpt lat="45.4793680" lon="9.1681303" />
      <trkpt lat="45.4791213" lon="9.1684574" />
      <trkpt lat="45.4790548" lon="9.1683602" />
      <trkpt lat="45.4790124" lon="9.1683004" />
      <trkpt lat="45.4787417" lon="9.1686480" />
      <trkpt lat="45.4787275" lon="9.1686639" />
      <trkpt lat="45.4787021" lon="9.1686225" />
      <trkpt lat="45.4786964" lon="9.1686132" />
      <trkpt lat="45.4786530" lon="9.1685425" />
      <trkpt lat="45.4786446" lon="9.1685290" />
      <trkpt lat="45.4786407" lon="9.1685226" />
      <trkpt lat="45.4785994" lon="9.1684552" />
      <trkpt lat="45.4785943" lon="9.1684469" />
      <trkpt lat="45.4785805" lon="9.1684244" />
      <trkpt lat="45.4785749" lon="9.1684173" />
      <trkpt lat="45.4785366" lon="9.1683582" />
      <trkpt lat="45.4784915" lon="9.1682887" />
      <trkpt lat="45.4784871" lon="9.1682830" />
      <trkpt lat="45.4784827" lon="9.1682757" />
      <trkpt lat="45.4784650" lon="9.1682465" />
      <trkpt lat="45.4784597" lon="9.1682381" />
      <trkpt lat="45.4784518" lon="9.1682258" />
      <trkpt lat="45.4784449" lon="9.1682149" />
      <trkpt lat="45.4784632" lon="9.1681911" />
      <trkpt lat="45.4784551" lon="9.1681789" />
      <trkpt lat="45.4784255" lon="9.1681345" />
      <trkpt lat="45.4784184" lon="9.1681240" />
      <trkpt lat="45.4784081" lon="9.1681085" />
      <trkpt lat="45.4783751" lon="9.1681087" />
      <trkpt lat="45.4778168" lon="9.1672750" />
      <trkpt lat="45.4778190" lon="9.1672348" />
      <trkpt lat="45.4778149" lon="9.1672287" />
      <trkpt lat="45.4777822" lon="9.1671800" />
      <trkpt lat="45.4777589" lon="9.1671453" />
      <trkpt lat="45.4777532" lon="9.1671368" />
      <trkpt lat="45.4777328" lon="9.1671325" />
      <trkpt lat="45.4772469" lon="9.1663652" />
      <trkpt lat="45.4771942" lon="9.1662890" />
      <trkpt lat="45.4770685" lon="9.1660938" />
      <trkpt lat="45.4770652" lon="9.1660890" />
      <trkpt lat="45.4770437" lon="9.1660557" />
      <trkpt lat="45.4770299" lon="9.1660349" />
      <trkpt lat="45.4770188" lon="9.1660183" />
      <trkpt lat="45.4768672" lon="9.1657868" />
      <trkpt lat="45.4765954" lon="9.1653729" />
      <trkpt lat="45.4763880" lon="9.1650626" />
      <trkpt lat="45.4763184" lon="9.1650163" />
      <trkpt lat="45.4762600" lon="9.1649909" />
      <trkpt lat="45.4761683" lon="9.1649569" />
      <trkpt lat="45.4759008" lon="9.1648286" />
      <trkpt lat="45.4758529" lon="9.1648069" />
      <trkpt lat="45.4758285" lon="9.1647960" />
      <trkpt lat="45.4758064" lon="9.1647859" />
      <trkpt lat="45.4750426" lon="9.1644406" />
      <trkpt lat="45.4748354" lon="9.1643376" />
      <trkpt lat="45.4748154" lon="9.1643395" />
      <trkpt lat="45.4747820" lon="9.1643439" />
      <trkpt lat="45.4747580" lon="9.1643487" />
      <trkpt lat="45.4747388" lon="9.1643533" />
      <trkpt lat="45.4747232" lon="9.1643331" />
      <trkpt lat="45.4747057" lon="9.1643156" />
      <trkpt lat="45.4746634" lon="9.1642868" />
      <trkpt lat="45.4746505" lon="9.1642775" />
      <trkpt lat="45.4746372" lon="9.1642672" />
      <trkpt lat="45.4746293" lon="9.1642569" />
      <trkpt lat="45.4746215" lon="9.1642434" />
      <trkpt lat="45.4746121" lon="9.1642299" />
      <trkpt lat="45.4745902" lon="9.1642240" />
      <trkpt lat="45.4745711" lon="9.1642179" />
      <trkpt lat="45.4745526" lon="9.1642130" />
      <trkpt lat="45.4745383" lon="9.1642278" />
      <trkpt lat="45.4745160" lon="9.1642177" />
      <trkpt lat="45.4744499" lon="9.1641879" />
      <trkpt lat="45.4740538" lon="9.1640088" />
      <trkpt lat="45.4740339" lon="9.1639998" />
      <trkpt lat="45.4740174" lon="9.1639924" />
      <trkpt lat="45.4738201" lon="9.1639032" />
      <trkpt lat="45.4737078" lon="9.1638524" />
      <trkpt lat="45.4725125" lon="9.1633122" />
      <trkpt lat="45.4721933" lon="9.1631670" />
      <trkpt lat="45.4721322" lon="9.1630992" />
      <trkpt lat="45.4721082" lon="9.1630013" />
      <trkpt lat="45.4720678" lon="9.1630132" />
      <trkpt lat="45.4720345" lon="9.1630230" />
      <trkpt lat="45.4720243" lon="9.1630260" />
      <trkpt lat="45.4719930" lon="9.1630352" />
      <trkpt lat="45.4719635" lon="9.1630095" />
      <trkpt lat="45.4719326" lon="9.1629826" />
      <trkpt lat="45.4718270" lon="9.1630689" />
      <trkpt lat="45.4717658" lon="9.1630850" />
      <trkpt lat="45.4716794" lon="9.1630069" />
      <trkpt lat="45.4709397" lon="9.1623796" />
      <trkpt lat="45.4708761" lon="9.1623234" />
      <trkpt lat="45.4709120" lon="9.1622706" />
      <trkpt lat="45.4709436" lon="9.1622243" />
      <trkpt lat="45.4709520" lon="9.1622316" />
      <trkpt lat="45.4709661" lon="9.1621574" />
      <trkpt lat="45.4709748" lon="9.1620256" />
      <trkpt lat="45.4709884" lon="9.1618714" />
      <trkpt lat="45.4709765" lon="9.1617661" />
      <trkpt lat="45.4708549" lon="9.1616110" />
      <trkpt lat="45.4709092" lon="9.1614580" />
      <trkpt lat="45.4709401" lon="9.1612791" />
      <trkpt lat="45.4709590" lon="9.1612330" />
      <trkpt lat="45.4709791" lon="9.1612016" />
      <trkpt lat="45.4710273" lon="9.1611549" />
      <trkpt lat="45.4710704" lon="9.1611197" />
      <trkpt lat="45.4711068" lon="9.1610727" />
      <trkpt lat="45.4711324" lon="9.1610230" />
      <trkpt lat="45.4711536" lon="9.1609667" />
      <trkpt lat="45.4711673" lon="9.1609003" />
      <trkpt lat="45.4711774" lon="9.1608237" />
      <trkpt lat="45.4711788" lon="9.1608142" />
      <trkpt lat="45.4709928" lon="9.1605306" />
      <trkpt lat="45.4709896" lon="9.1605034" />
      <trkpt lat="45.4709689" lon="9.1604728" />
      <trkpt lat="45.4709410" lon="9.1604596" />
      <trkpt lat="45.4709395" lon="9.1604164" />
      <trkpt lat="45.4709541" lon="9.1603837" />
      <trkpt lat="45.4709834" lon="9.1604274" />
      <trkpt lat="45.4710401" lon="9.1603518" />
      <trkpt lat="45.4712008" lon="9.1601425" />
      <trkpt lat="45.4713809" lon="9.1599019" />
      <trkpt lat="45.4715266" lon="9.1597130" />
      <trkpt lat="45.4716320" lon="9.1595779" />
      <trkpt lat="45.4717305" lon="9.1594606" />
      <trkpt lat="45.4718117" lon="9.1595934" />
      <trkpt lat="45.4718252" lon="9.1596155" />
      <trkpt lat="45.4718097" lon="9.1596354" />
      <trkpt lat="45.4718856" lon="9.1597538" />
      <trkpt lat="45.4719375" lon="9.1598303" />
      <trkpt lat="45.4719548" lon="9.1598078" />
      <trkpt lat="45.4719732" lon="9.1597951" />
      <trkpt lat="45.4720001" lon="9.1597891" />
      <trkpt lat="45.4720445" lon="9.1597907" />
      <trkpt lat="45.4720917" lon="9.1598013" />
      <trkpt lat="45.4722227" lon="9.1598544" />
      <trkpt lat="45.4724848" lon="9.1598624" />
      <trkpt lat="45.4728705" lon="9.1598816" />
      <trkpt lat="45.4728943" lon="9.1598822" />
      <trkpt lat="45.4728977" lon="9.1598252" />
      <trkpt lat="45.4729242" lon="9.1596131" />
      <trkpt lat="45.4729391" lon="9.1595533" />
      <trkpt lat="45.4729625" lon="9.1595089" />
      <trkpt lat="45.4730013" lon="9.1594622" />
      <trkpt lat="45.4730431" lon="9.1594128" />
      <trkpt lat="45.4730884" lon="9.1594694" />
      <trkpt lat="45.4731135" lon="9.1594876" />
      <trkpt lat="45.4731410" lon="9.1594883" />
      <trkpt lat="45.4731724" lon="9.1594786" />
      <trkpt lat="45.4731946" lon="9.1594628" />
      <trkpt lat="45.4732148" lon="9.1594518" />
      <trkpt lat="45.4732315" lon="9.1594440" />
      <trkpt lat="45.4732545" lon="9.1594316" />
      <trkpt lat="45.4732842" lon="9.1594165" />
      <trkpt lat="45.4733274" lon="9.1593564" />
      <trkpt lat="45.4733342" lon="9.1593401" />
      <trkpt lat="45.4733477" lon="9.1593496" />
      <trkpt lat="45.4733588" lon="9.1593608" />
      <trkpt lat="45.4733920" lon="9.1592487" />
      <trkpt lat="45.4734270" lon="9.1592318" />
      <trkpt lat="45.4734559" lon="9.1592178" />
      <trkpt lat="45.4734718" lon="9.1592102" />
      <trkpt lat="45.4734962" lon="9.1591950" />
      <trkpt lat="45.4735306" lon="9.1591737" />
      <trkpt lat="45.4735433" lon="9.1591636" />
      <trkpt lat="45.4735933" lon="9.1590948" />
      <trkpt lat="45.4736933" lon="9.1589969" />
      <trkpt lat="45.4736705" lon="9.1588992" />
      <trkpt lat="45.4736825" lon="9.1583989" />
      <trkpt lat="45.4737404" lon="9.1584014" />
      <trkpt lat="45.4744763" lon="9.1584333" />
      <trkpt lat="45.4745102" lon="9.1584348" />
      <trkpt lat="45.4745355" lon="9.1584719" />
      <trkpt lat="45.4745531" lon="9.1584469" />
      <trkpt lat="45.4745551" lon="9.1584441" />
      <trkpt lat="45.4748192" lon="9.1588379" />
      <trkpt lat="45.4748379" lon="9.1588430" />
      <trkpt lat="45.4752009" lon="9.1584310" />
      <trkpt lat="45.4752107" lon="9.1583582" />
      <trkpt lat="45.4752589" lon="9.1583064" />
      <trkpt lat="45.4752766" lon="9.1583071" />
      <trkpt lat="45.4753618" lon="9.1583112" />
      <trkpt lat="45.4753630" lon="9.1582669" />
      <trkpt lat="45.4765113" lon="9.1567614" />
      <trkpt lat="45.4767713" lon="9.1564303" />
      <trkpt lat="45.4768684" lon="9.1562889" />
      <trkpt lat="45.4769225" lon="9.1559385" />
      <trkpt lat="45.4769295" lon="9.1558960" />
      <trkpt lat="45.4769549" lon="9.1557412" />
      <trkpt lat="45.4769634" lon="9.1556896" />
      <trkpt lat="45.4769644" lon="9.1556832" />
      <trkpt lat="45.4770243" lon="9.1552979" />
      <trkpt lat="45.4771407" lon="9.1545037" />
      <trkpt lat="45.4772199" lon="9.1540272" />
      <trkpt lat="45.4773015" lon="9.1536448" />
      <trkpt lat="45.4773879" lon="9.1533337" />
      <trkpt lat="45.4772246" lon="9.1527215" />
      <trkpt lat="45.4771447" lon="9.1523730" />
      <trkpt lat="45.4770535" lon="9.1519948" />
      <trkpt lat="45.4769958" lon="9.1517453" />
      <trkpt lat="45.4770089" lon="9.1517428" />
      <trkpt lat="45.4770096" lon="9.1517196" />
      <trkpt lat="45.4770105" lon="9.1516858" />
      <trkpt lat="45.4770111" lon="9.1516583" />
      <trkpt lat="45.4770115" lon="9.1516397" />
      <trkpt lat="45.4769600" lon="9.1516372" />
      <trkpt lat="45.4769606" lon="9.1516204" />
      <trkpt lat="45.4769622" lon="9.1515723" />
      <trkpt lat="45.4769637" lon="9.1515245" />
      <trkpt lat="45.4769644" lon="9.1515047" />
      <trkpt lat="45.4769645" lon="9.1514840" />
      <trkpt lat="45.4769649" lon="9.1514368" />
      <trkpt lat="45.4769652" lon="9.1513889" />
      <trkpt lat="45.4769656" lon="9.1513256" />
      <trkpt lat="45.4769657" lon="9.1513144" />
      <trkpt lat="45.4761788" lon="9.1512689" />
      <trkpt lat="45.4761505" lon="9.1512673" />
      <trkpt lat="45.4761366" lon="9.1512665" />
      <trkpt lat="45.4761233" lon="9.1512658" />
      <trkpt lat="45.4757194" lon="9.1512430" />
      <trkpt lat="45.4756473" lon="9.1512389" />
      <trkpt lat="45.4756070" lon="9.1512372" />
      <trkpt lat="45.4755519" lon="9.1512335" />
      <trkpt lat="45.4746553" lon="9.1511828" />
      <trkpt lat="45.4746149" lon="9.1511828" />
      <trkpt lat="45.4745900" lon="9.1511547" />
      <trkpt lat="45.4745560" lon="9.1510985" />
      <trkpt lat="45.4744941" lon="9.1510092" />
      <trkpt lat="45.4744824" lon="9.1509893" />
      <trkpt lat="45.4744687" lon="9.1509683" />
      <trkpt lat="45.4744200" lon="9.1508934" />
      <trkpt lat="45.4742048" lon="9.1505583" />
      <trkpt lat="45.4741795" lon="9.1505287" />
      <trkpt lat="45.4741540" lon="9.1504908" />
      <trkpt lat="45.4741116" lon="9.1504278" />
      <trkpt lat="45.4740783" lon="9.1503782" />
      <trkpt lat="45.4740504" lon="9.1503367" />
      <trkpt lat="45.4740306" lon="9.1503075" />
      <trkpt lat="45.4740206" lon="9.1503209" />
      <trkpt lat="45.4740041" lon="9.1503427" />
      <trkpt lat="45.4739802" lon="9.1503744" />
      <trkpt lat="45.4739627" lon="9.1503976" />
      <trkpt lat="45.4739177" lon="9.1504628" />
      <trkpt lat="45.4738788" lon="9.1505190" />
      <trkpt lat="45.4730839" lon="9.1493408" />
      <trkpt lat="45.4729442" lon="9.1491095" />
      <trkpt lat="45.4728182" lon="9.1489177" />
      <trkpt lat="45.4728087" lon="9.1489303" />
      <trkpt lat="45.4727885" lon="9.1489570" />
      <trkpt lat="45.4727766" lon="9.1489729" />
      <trkpt lat="45.4727599" lon="9.1489950" />
      <trkpt lat="45.4727429" lon="9.1490170" />
      <trkpt lat="45.4727128" lon="9.1489701" />
      <trkpt lat="45.4726897" lon="9.1489349" />
      <trkpt lat="45.4720884" lon="9.1497425" />
      <trkpt lat="45.4720415" lon="9.1498057" />
      <trkpt lat="45.4720156" lon="9.1497664" />
      <trkpt lat="45.4719831" lon="9.1497171" />
      <trkpt lat="45.4719653" lon="9.1497408" />
      <trkpt lat="45.4719527" lon="9.1497577" />
      <trkpt lat="45.4716164" lon="9.1492613" />
      <trkpt lat="45.4713314" lon="9.1488406" />
      <trkpt lat="45.4708896" lon="9.1481758" />
      <trkpt lat="45.4708729" lon="9.1481742" />
      <trkpt lat="45.4708651" lon="9.1481623" />
      <trkpt lat="45.4708260" lon="9.1481033" />
      <trkpt lat="45.4702058" lon="9.1488782" />
      <trkpt lat="45.4701578" lon="9.1489431" />
      <trkpt lat="45.4701082" lon="9.1490077" />
      <trkpt lat="45.4694892" lon="9.1498145" />
      <trkpt lat="45.4694180" lon="9.1499073" />
      <trkpt lat="45.4693547" lon="9.1498534" />
      <trkpt lat="45.4693013" lon="9.1498102" />
      <trkpt lat="45.4692036" lon="9.1496819" />
      <trkpt lat="45.4689137" lon="9.1492424" />
      <trkpt lat="45.4687851" lon="9.1490472" />
      <trkpt lat="45.4684273" lon="9.1485053" />
      <trkpt lat="45.4683311" lon="9.1482965" />
      <trkpt lat="45.4683056" lon="9.1482076" />
      <trkpt lat="45.4682799" lon="9.1481657" />
      <trkpt lat="45.4682621" lon="9.1481371" />
      <trkpt lat="45.4682311" lon="9.1480912" />
      <trkpt lat="45.4677184" lon="9.1473034" />
      <trkpt lat="45.4671960" lon="9.1465034" />
      <trkpt lat="45.4672169" lon="9.1464753" />
      <trkpt lat="45.4672534" lon="9.1464261" />
      <trkpt lat="45.4672787" lon="9.1461921" />
      <trkpt lat="45.4672582" lon="9.1461960" />
      <trkpt lat="45.4672306" lon="9.1462012" />
      <trkpt lat="45.4672088" lon="9.1462053" />
      <trkpt lat="45.4671983" lon="9.1462073" />
      <trkpt lat="45.4670507" lon="9.1462440" />
      <trkpt lat="45.4670526" lon="9.1462242" />
      <trkpt lat="45.4670572" lon="9.1461745" />
      <trkpt lat="45.4670622" lon="9.1461195" />
      <trkpt lat="45.4670672" lon="9.1460648" />
      <trkpt lat="45.4670712" lon="9.1460217" />
      <trkpt lat="45.4670755" lon="9.1459750" />
      <trkpt lat="45.4670787" lon="9.1459395" />
      <trkpt lat="45.4670803" lon="9.1459227" />
      <trkpt lat="45.4670852" lon="9.1458685" />
      <trkpt lat="45.4670896" lon="9.1458149" />
      <trkpt lat="45.4670906" lon="9.1457995" />
      <trkpt lat="45.4670916" lon="9.1457832" />
      <trkpt lat="45.4670917" lon="9.1457818" />
      <trkpt lat="45.4670711" lon="9.1457633" />
      <trkpt lat="45.4672148" lon="9.1442617" />
      <trkpt lat="45.4672272" lon="9.1442399" />
      <trkpt lat="45.4672283" lon="9.1442138" />
      <trkpt lat="45.4672318" lon="9.1441351" />
      <trkpt lat="45.4672354" lon="9.1440535" />
      <trkpt lat="45.4672364" lon="9.1440365" />
      <trkpt lat="45.4674119" lon="9.1421920" />
      <trkpt lat="45.4674219" lon="9.1420904" />
      <trkpt lat="45.4674370" lon="9.1419322" />
      <trkpt lat="45.4674498" lon="9.1418260" />
      <trkpt lat="45.4674673" lon="9.1416570" />
      <trkpt lat="45.4674930" lon="9.1416092" />
      <trkpt lat="45.4674897" lon="9.1415482" />
      <trkpt lat="45.4674886" lon="9.1414630" />
      <trkpt lat="45.4674862" lon="9.1413862" />
      <trkpt lat="45.4674849" lon="9.1413431" />
      <trkpt lat="45.4674743" lon="9.1413087" />
      <trkpt lat="45.4674750" lon="9.1412134" />
      <trkpt lat="45.4674770" lon="9.1409231" />
      <trkpt lat="45.4674770" lon="9.1408691" />
      <trkpt lat="45.4674771" lon="9.1408294" />
      <trkpt lat="45.4674772" lon="9.1407058" />
      <trkpt lat="45.4674798" lon="9.1404547" />
      <trkpt lat="45.4674809" lon="9.1403444" />
      <trkpt lat="45.4674814" lon="9.1402956" />
      <trkpt lat="45.4674816" lon="9.1402762" />
      <trkpt lat="45.4674819" lon="9.1402459" />
      <trkpt lat="45.4674765" lon="9.1402146" />
      <trkpt lat="45.4674805" lon="9.1385714" />
      <trkpt lat="45.4674997" lon="9.1385449" />
      <trkpt lat="45.4674997" lon="9.1385265" />
      <trkpt lat="45.4674996" lon="9.1384513" />
      <trkpt lat="45.4674995" lon="9.1384182" />
      <trkpt lat="45.4674995" lon="9.1384018" />
      <trkpt lat="45.4674868" lon="9.1383780" />
      <trkpt lat="45.4674811" lon="9.1374821" />
      <trkpt lat="45.4675009" lon="9.1373836" />
      <trkpt lat="45.4675015" lon="9.1373621" />
      <trkpt lat="45.4675031" lon="9.1372999" />
      <trkpt lat="45.4675037" lon="9.1372752" />
      <trkpt lat="45.4675044" lon="9.1372478" />
      <trkpt lat="45.4675101" lon="9.1369249" />
      <trkpt lat="45.4675114" lon="9.1368994" />
      <trkpt lat="45.4675141" lon="9.1368520" />
      <trkpt lat="45.4674606" lon="9.1368461" />
      <trkpt lat="45.4674638" lon="9.1367508" />
      <trkpt lat="45.4674436" lon="9.1367425" />
      <trkpt lat="45.4674272" lon="9.1367357" />
      <trkpt lat="45.4674150" lon="9.1367308" />
      <trkpt lat="45.4673999" lon="9.1367245" />
      <trkpt lat="45.4673930" lon="9.1367217" />
      <trkpt lat="45.4673766" lon="9.1367139" />
      <trkpt lat="45.4673631" lon="9.1367093" />
      <trkpt lat="45.4673433" lon="9.1367012" />
      <trkpt lat="45.4673280" lon="9.1366949" />
      <trkpt lat="45.4673189" lon="9.1366911" />
      <trkpt lat="45.4672998" lon="9.1367492" />
      <trkpt lat="45.4670986" lon="9.1367613" />
      <trkpt lat="45.4664442" lon="9.1367161" />
      <trkpt lat="45.4663042" lon="9.1367064" />
      <trkpt lat="45.4662803" lon="9.1367047" />
      <trkpt lat="45.4662337" lon="9.1367015" />
      <trkpt lat="45.4662132" lon="9.1367001" />
      <trkpt lat="45.4661928" lon="9.1366987" />
      <trkpt lat="45.4660537" lon="9.1366895" />
      <trkpt lat="45.4657447" lon="9.1366688" />
      <trkpt lat="45.4656850" lon="9.1365977" />
      <trkpt lat="45.4656003" lon="9.1364676" />
      <trkpt lat="45.4654656" lon="9.1362517" />
      <trkpt lat="45.4654312" lon="9.1363063" />
      <trkpt lat="45.4653993" lon="9.1363571" />
      <trkpt lat="45.4653650" lon="9.1363166" />
      <trkpt lat="45.4653137" lon="9.1362673" />
      <trkpt lat="45.4652586" lon="9.1362276" />
      <trkpt lat="45.4652004" lon="9.1361978" />
      <trkpt lat="45.4651401" lon="9.1361787" />
      <trkpt lat="45.4650977" lon="9.1361729" />
      <trkpt lat="45.4650786" lon="9.1361703" />
      <trkpt lat="45.4650168" lon="9.1361729" />
      <trkpt lat="45.4649557" lon="9.1361864" />
      <trkpt lat="45.4648963" lon="9.1362106" />
      <trkpt lat="45.4648394" lon="9.1362451" />
      <trkpt lat="45.4647860" lon="9.1362895" />
      <trkpt lat="45.4647369" lon="9.1363429" />
      <trkpt lat="45.4647255" lon="9.1363588" />
      <trkpt lat="45.4646927" lon="9.1364046" />
      <trkpt lat="45.4646543" lon="9.1364737" />
      <trkpt lat="45.4646222" lon="9.1365490" />
      <trkpt lat="45.4646035" lon="9.1366087" />
      <trkpt lat="45.4644509" lon="9.1366313" />
      <trkpt lat="45.4638309" lon="9.1365733" />
      <trkpt lat="45.4634063" lon="9.1365401" />
      <trkpt lat="45.4633107" lon="9.1365327" />
      <trkpt lat="45.4632355" lon="9.1365289" />
      <trkpt lat="45.4632316" lon="9.1364863" />
      <trkpt lat="45.4632300" lon="9.1364693" />
      <trkpt lat="45.4625237" lon="9.1364149" />
      <trkpt lat="45.4624728" lon="9.1364110" />
      <trkpt lat="45.4620876" lon="9.1363814" />
      <trkpt lat="45.4620679" lon="9.1363730" />
      <trkpt lat="45.4620441" lon="9.1363107" />
      <trkpt lat="45.4619504" lon="9.1360653" />
      <trkpt lat="45.4619254" lon="9.1359999" />
      <trkpt lat="45.4619240" lon="9.1359663" />
      <trkpt lat="45.4619094" lon="9.1359567" />
      <trkpt lat="45.4618668" lon="9.1359284" />
      <trkpt lat="45.4618193" lon="9.1358969" />
      <trkpt lat="45.4617961" lon="9.1358815" />
      <trkpt lat="45.4612636" lon="9.1358514" />
      <trkpt lat="45.4608718" lon="9.1343253" />
      <trkpt lat="45.4608529" lon="9.1343352" />
      <trkpt lat="45.4611931" lon="9.1356364" />
      <trkpt lat="45.4612086" lon="9.1357420" />
      <trkpt lat="45.4612103" lon="9.1358175" />
      <trkpt lat="45.4612473" lon="9.1360065" />
      <trkpt lat="45.4612604" lon="9.1360706" />
      <trkpt lat="45.4613344" lon="9.1364658" />
      <trkpt lat="45.4613251" lon="9.1366184" />
      <trkpt lat="45.4613482" lon="9.1367505" />
      <trkpt lat="45.4613592" lon="9.1368325" />
      <trkpt lat="45.4613636" lon="9.1368652" />
      <trkpt lat="45.4613821" lon="9.1370127" />
      <trkpt lat="45.4613913" lon="9.1370944" />
      <trkpt lat="45.4613969" lon="9.1371436" />
      <trkpt lat="45.4614164" lon="9.1373053" />
      <trkpt lat="45.4614226" lon="9.1373641" />
      <trkpt lat="45.4614470" lon="9.1376074" />
      <trkpt lat="45.4614537" lon="9.1377400" />
      <trkpt lat="45.4614584" lon="9.1379759" />
      <trkpt lat="45.4614348" lon="9.1384055" />
      <trkpt lat="45.4614146" lon="9.1385661" />
      <trkpt lat="45.4612943" lon="9.1392876" />
      <trkpt lat="45.4612231" lon="9.1396846" />
      <trkpt lat="45.4612050" lon="9.1397751" />
      <trkpt lat="45.4609794" lon="9.1410463" />
      <trkpt lat="45.4609716" lon="9.1411022" />
      <trkpt lat="45.4609777" lon="9.1411409" />
      <trkpt lat="45.4609930" lon="9.1412225" />
      <trkpt lat="45.4610034" lon="9.1413113" />
      <trkpt lat="45.4610081" lon="9.1414173" />
      <trkpt lat="45.4609972" lon="9.1414772" />
      <trkpt lat="45.4609727" lon="9.1415539" />
      <trkpt lat="45.4609465" lon="9.1416113" />
      <trkpt lat="45.4609168" lon="9.1416616" />
      <trkpt lat="45.4608642" lon="9.1417265" />
      <trkpt lat="45.4608459" lon="9.1418194" />
      <trkpt lat="45.4606349" lon="9.1429698" />
      <trkpt lat="45.4605862" lon="9.1432143" />
      <trkpt lat="45.4605814" lon="9.1432348" />
      <trkpt lat="45.4605190" lon="9.1435483" />
      <trkpt lat="45.4604074" lon="9.1441916" />
      <trkpt lat="45.4602764" lon="9.1449463" />
      <trkpt lat="45.4602153" lon="9.1452985" />
      <trkpt lat="45.4601653" lon="9.1455575" />
      <trkpt lat="45.4601378" lon="9.1456923" />
      <trkpt lat="45.4601032" lon="9.1458661" />
      <trkpt lat="45.4601239" lon="9.1459479" />
      <trkpt lat="45.4601362" lon="9.1459816" />
      <trkpt lat="45.4601462" lon="9.1459927" />
      <trkpt lat="45.4601417" lon="9.1460653" />
      <trkpt lat="45.4601384" lon="9.1460803" />
      <trkpt lat="45.4601341" lon="9.1460945" />
      <trkpt lat="45.4601252" lon="9.1461430" />
      <trkpt lat="45.4601236" lon="9.1461574" />
      <trkpt lat="45.4601188" lon="9.1461947" />
      <trkpt lat="45.4601173" lon="9.1462354" />
      <trkpt lat="45.4601131" lon="9.1462618" />
      <trkpt lat="45.4601034" lon="9.1462751" />
      <trkpt lat="45.4600836" lon="9.1463730" />
      <trkpt lat="45.4600061" lon="9.1468250" />
      <trkpt lat="45.4599777" lon="9.1469745" />
      <trkpt lat="45.4599610" lon="9.1470627" />
      <trkpt lat="45.4598334" lon="9.1478321" />
      <trkpt lat="45.4601245" lon="9.1488289" />
      <trkpt lat="45.4601343" lon="9.1488616" />
      <trkpt lat="45.4601506" lon="9.1489163" />
      <trkpt lat="45.4601686" lon="9.1489764" />
      <trkpt lat="45.4601777" lon="9.1490069" />
      <trkpt lat="45.4602910" lon="9.1494139" />
      <trkpt lat="45.4603032" lon="9.1494305" />
      <trkpt lat="45.4603231" lon="9.1494306" />
      <trkpt lat="45.4603491" lon="9.1494151" />
      <trkpt lat="45.4603586" lon="9.1494341" />
      <trkpt lat="45.4603771" lon="9.1494671" />
      <trkpt lat="45.4604028" lon="9.1495167" />
      <trkpt lat="45.4604346" lon="9.1495467" />
      <trkpt lat="45.4604663" lon="9.1495754" />
      <trkpt lat="45.4605015" lon="9.1496096" />
      <trkpt lat="45.4605188" lon="9.1496259" />
      <trkpt lat="45.4605367" lon="9.1496427" />
      <trkpt lat="45.4605701" lon="9.1496736" />
      <trkpt lat="45.4606057" lon="9.1497076" />
      <trkpt lat="45.4606193" lon="9.1497492" />
      <trkpt lat="45.4605993" lon="9.1497621" />
      <trkpt lat="45.4605760" lon="9.1497775" />
      <trkpt lat="45.4605347" lon="9.1498036" />
      <trkpt lat="45.4604942" lon="9.1498296" />
      <trkpt lat="45.4604413" lon="9.1498627" />
      <trkpt lat="45.4604019" lon="9.1498887" />
      <trkpt lat="45.4603916" lon="9.1498955" />
      <trkpt lat="45.4603427" lon="9.1499270" />
      <trkpt lat="45.4603163" lon="9.1499225" />
      <trkpt lat="45.4601579" lon="9.1500141" />
      <trkpt lat="45.4598673" lon="9.1501720" />
      <trkpt lat="45.4598548" lon="9.1501809" />
      <trkpt lat="45.4598213" lon="9.1502005" />
      <trkpt lat="45.4598053" lon="9.1502049" />
      <trkpt lat="45.4597852" lon="9.1502185" />
      <trkpt lat="45.4597450" lon="9.1502425" />
      <trkpt lat="45.4598679" lon="9.1506935" />
      <trkpt lat="45.4598771" lon="9.1507353" />
      <trkpt lat="45.4598841" lon="9.1507673" />
      <trkpt lat="45.4598985" lon="9.1508323" />
      <trkpt lat="45.4599033" lon="9.1508542" />
      <trkpt lat="45.4598847" lon="9.1508973" />
      <trkpt lat="45.4598755" lon="9.1509185" />
      <trkpt lat="45.4598609" lon="9.1509521" />
      <trkpt lat="45.4598544" lon="9.1509672" />
      <trkpt lat="45.4599044" lon="9.1510160" />
      <trkpt lat="45.4598891" lon="9.1517600" />
      <trkpt lat="45.4598748" lon="9.1517744" />
      <trkpt lat="45.4598787" lon="9.1517984" />
      <trkpt lat="45.4598775" lon="9.1518379" />
      <trkpt lat="45.4598752" lon="9.1519155" />
      <trkpt lat="45.4598659" lon="9.1519428" />
      <trkpt lat="45.4598764" lon="9.1519666" />
      <trkpt lat="45.4598585" lon="9.1530307" />
      <trkpt lat="45.4597964" lon="9.1531192" />
      <trkpt lat="45.4598046" lon="9.1531389" />
      <trkpt lat="45.4598042" lon="9.1532026" />
      <trkpt lat="45.4598039" lon="9.1532502" />
      <trkpt lat="45.4598037" lon="9.1532696" />
      <trkpt lat="45.4598372" lon="9.1532857" />
      <trkpt lat="45.4598522" lon="9.1533018" />
      <trkpt lat="45.4598337" lon="9.1542731" />
      <trkpt lat="45.4598301" lon="9.1544615" />
      <trkpt lat="45.4598258" lon="9.1546142" />
      <trkpt lat="45.4598033" lon="9.1546340" />
      <trkpt lat="45.4597779" lon="9.1546550" />
      <trkpt lat="45.4597760" lon="9.1547036" />
      <trkpt lat="45.4597737" lon="9.1547644" />
      <trkpt lat="45.4597720" lon="9.1548101" />
      <trkpt lat="45.4597711" lon="9.1548334" />
      <trkpt lat="45.4597695" lon="9.1548869" />
      <trkpt lat="45.4597676" lon="9.1549251" />
      <trkpt lat="45.4597640" lon="9.1550200" />
      <trkpt lat="45.4598005" lon="9.1550224" />
      <trkpt lat="45.4597980" lon="9.1550408" />
      <trkpt lat="45.4597652" lon="9.1563807" />
      <trkpt lat="45.4597369" lon="9.1565769" />
      <trkpt lat="45.4597205" lon="9.1566030" />
      <trkpt lat="45.4597191" lon="9.1566450" />
      <trkpt lat="45.4596976" lon="9.1567513" />
      <trkpt lat="45.4596743" lon="9.1568744" />
      <trkpt lat="45.4596711" lon="9.1568913" />
      <trkpt lat="45.4596815" lon="9.1569244" />
      <trkpt lat="45.4595799" lon="9.1573338" />
      <trkpt lat="45.4595538" lon="9.1573666" />
      <trkpt lat="45.4595655" lon="9.1574037" />
      <trkpt lat="45.4595800" lon="9.1574492" />
      <trkpt lat="45.4595973" lon="9.1575043" />
      <trkpt lat="45.4596034" lon="9.1575236" />
      <trkpt lat="45.4596264" lon="9.1575243" />
      <trkpt lat="45.4596928" lon="9.1577321" />
      <trkpt lat="45.4597304" lon="9.1578479" />
      <trkpt lat="45.4599651" lon="9.1585710" />
      <trkpt lat="45.4600711" lon="9.1589022" />
      <trkpt lat="45.4601103" lon="9.1590274" />
      <trkpt lat="45.4600994" lon="9.1590648" />
      <trkpt lat="45.4601097" lon="9.1590989" />
      <trkpt lat="45.4601320" lon="9.1591701" />
      <trkpt lat="45.4601593" lon="9.1592572" />
      <trkpt lat="45.4601742" lon="9.1592964" />
      <trkpt lat="45.4601638" lon="9.1592891" />
      <trkpt lat="45.4601522" lon="9.1593672" />
      <trkpt lat="45.4601400" lon="9.1594476" />
      <trkpt lat="45.4601155" lon="9.1595150" />
      <trkpt lat="45.4600859" lon="9.1595646" />
      <trkpt lat="45.4601000" lon="9.1595948" />
      <trkpt lat="45.4601123" lon="9.1596280" />
      <trkpt lat="45.4601226" lon="9.1596619" />
      <trkpt lat="45.4601320" lon="9.1597095" />
      <trkpt lat="45.4601306" lon="9.1597960" />
      <trkpt lat="45.4601197" lon="9.1598697" />
      <trkpt lat="45.4601005" lon="9.1599301" />
      <trkpt lat="45.4600862" lon="9.1599651" />
      <trkpt lat="45.4600841" lon="9.1599755" />
      <trkpt lat="45.4600873" lon="9.1600192" />
      <trkpt lat="45.4599592" lon="9.1601003" />
      <trkpt lat="45.4598122" lon="9.1601929" />
      <trkpt lat="45.4596028" lon="9.1603321" />
      <trkpt lat="45.4595611" lon="9.1603512" />
      <trkpt lat="45.4595669" lon="9.1603712" />
      <trkpt lat="45.4595764" lon="9.1604058" />
      <trkpt lat="45.4595826" lon="9.1604255" />
      <trkpt lat="45.4595876" lon="9.1604426" />
      <trkpt lat="45.4596101" lon="9.1605199" />
      <trkpt lat="45.4596159" lon="9.1605400" />
      <trkpt lat="45.4596025" lon="9.1605847" />
      <trkpt lat="45.4597111" lon="9.1609421" />
      <trkpt lat="45.4598612" lon="9.1613686" />
      <trkpt lat="45.4598321" lon="9.1614088" />
      <trkpt lat="45.4598203" lon="9.1614251" />
      <trkpt lat="45.4598032" lon="9.1614488" />
      <trkpt lat="45.4597766" lon="9.1614855" />
      <trkpt lat="45.4597911" lon="9.1615295" />
      <trkpt lat="45.4593105" lon="9.1626164" />
      <trkpt lat="45.4592954" lon="9.1626507" />
      <trkpt lat="45.4592709" lon="9.1627215" />
      <trkpt lat="45.4592589" lon="9.1627562" />
      <trkpt lat="45.4592455" lon="9.1627953" />
      <trkpt lat="45.4592330" lon="9.1628315" />
      <trkpt lat="45.4592009" lon="9.1629244" />
      <trkpt lat="45.4591863" lon="9.1629668" />
      <trkpt lat="45.4591814" lon="9.1629810" />
      <trkpt lat="45.4591450" lon="9.1630472" />
      <trkpt lat="45.4589949" lon="9.1634841" />
      <trkpt lat="45.4590524" lon="9.1635191" />
      <trkpt lat="45.4591071" lon="9.1635557" />
      <trkpt lat="45.4589292" lon="9.1640989" />
      <trkpt lat="45.4589531" lon="9.1641733" />
      <trkpt lat="45.4590446" lon="9.1644605" />
      <trkpt lat="45.4590240" lon="9.1645281" />
      <trkpt lat="45.4589804" lon="9.1646800" />
      <trkpt lat="45.4589663" lon="9.1647154" />
      <trkpt lat="45.4591249" lon="9.1652178" />
      <trkpt lat="45.4593034" lon="9.1657835" />
      <trkpt lat="45.4593104" lon="9.1658404" />
      <trkpt lat="45.4593117" lon="9.1658675" />
      <trkpt lat="45.4592828" lon="9.1660335" />
      <trkpt lat="45.4584067" lon="9.1673339" />
      <trkpt lat="45.4583913" lon="9.1673267" />
      <trkpt lat="45.4584013" lon="9.1673361" />
      <trkpt lat="45.4583804" lon="9.1673626" />
      <trkpt lat="45.4583608" lon="9.1673859" />
      <trkpt lat="45.4583448" lon="9.1674078" />
      <trkpt lat="45.4583470" lon="9.1674378" />
      <trkpt lat="45.4583536" lon="9.1674473" />
      <trkpt lat="45.4583962" lon="9.1674951" />
      <trkpt lat="45.4584367" lon="9.1675415" />
      <trkpt lat="45.4584509" lon="9.1675576" />
      <trkpt lat="45.4584768" lon="9.1675453" />
      <trkpt lat="45.4589194" lon="9.1681010" />
      <trkpt lat="45.4589217" lon="9.1681227" />
      <trkpt lat="45.4589392" lon="9.1681471" />
      <trkpt lat="45.4589617" lon="9.1681785" />
      <trkpt lat="45.4590158" lon="9.1682541" />
      <trkpt lat="45.4590920" lon="9.1683571" />
      <trkpt lat="45.4591169" lon="9.1683954" />
      <trkpt lat="45.4591700" lon="9.1684695" />
      <trkpt lat="45.4591812" lon="9.1684850" />
      <trkpt lat="45.4591949" lon="9.1684879" />
      <trkpt lat="45.4595741" lon="9.1689734" />
      <trkpt lat="45.4595786" lon="9.1689791" />
      <trkpt lat="45.4596218" lon="9.1690356" />
      <trkpt lat="45.4596695" lon="9.1690904" />
      <trkpt lat="45.4596747" lon="9.1691542" />
      <trkpt lat="45.4596917" lon="9.1693794" />
      <trkpt lat="45.4596934" lon="9.1694028" />
      <trkpt lat="45.4596459" lon="9.1694112" />
      <trkpt lat="45.4596514" lon="9.1694771" />
      <trkpt lat="45.4596551" lon="9.1695228" />
      <trkpt lat="45.4596589" lon="9.1695688" />
      <trkpt lat="45.4596618" lon="9.1696079" />
      <trkpt lat="45.4596964" lon="9.1696024" />
      <trkpt lat="45.4597164" lon="9.1696216" />
      <trkpt lat="45.4597481" lon="9.1700562" />
      <trkpt lat="45.4597124" lon="9.1701444" />
      <trkpt lat="45.4596900" lon="9.1701831" />
      <trkpt lat="45.4596958" lon="9.1701898" />
      <trkpt lat="45.4597228" lon="9.1702213" />
      <trkpt lat="45.4597400" lon="9.1702413" />
      <trkpt lat="45.4597453" lon="9.1702474" />
      <trkpt lat="45.4595018" lon="9.1706955" />
      <trkpt lat="45.4600080" lon="9.1712466" />
      <trkpt lat="45.4600754" lon="9.1713209" />
      <trkpt lat="45.4600857" lon="9.1713326" />
      <trkpt lat="45.4601092" lon="9.1713593" />
      <trkpt lat="45.4601200" lon="9.1713735" />
      <trkpt lat="45.4601250" lon="9.1713837" />
      <trkpt lat="45.4601760" lon="9.1714427" />
      <trkpt lat="45.4601649" lon="9.1714619" />
      <trkpt lat="45.4601627" lon="9.1714654" />
      <trkpt lat="45.4601565" lon="9.1714760" />
      <trkpt lat="45.4601218" lon="9.1715354" />
      <trkpt lat="45.4600856" lon="9.1715972" />
      <trkpt lat="45.4600811" lon="9.1716049" />
      <trkpt lat="45.4604826" lon="9.1720368" />
      <trkpt lat="45.4599709" lon="9.1728629" />
      <trkpt lat="45.4599910" lon="9.1728862" />
      <trkpt lat="45.4600123" lon="9.1729107" />
      <trkpt lat="45.4610357" lon="9.1740100" />
      <trkpt lat="45.4610277" lon="9.1740254" />
      <trkpt lat="45.4610049" lon="9.1740689" />
      <trkpt lat="45.4609820" lon="9.1741129" />
      <trkpt lat="45.4609765" lon="9.1741234" />
      <trkpt lat="45.4609747" lon="9.1741443" />
      <trkpt lat="45.4609828" lon="9.1741566" />
      <trkpt lat="45.4610033" lon="9.1741877" />
      <trkpt lat="45.4610420" lon="9.1742464" />
      <trkpt lat="45.4610578" lon="9.1742703" />
      <trkpt lat="45.4605860" lon="9.1749516" />
      <trkpt lat="45.4607205" lon="9.1751485" />
      <trkpt lat="45.4607906" lon="9.1753115" />
      <trkpt lat="45.4608834" lon="9.1754413" />
      <trkpt lat="45.4609528" lon="9.1755339" />
      <trkpt lat="45.4609686" lon="9.1755550" />
      <trkpt lat="45.4609460" lon="9.1756184" />
      <trkpt lat="45.4609347" lon="9.1756778" />
      <trkpt lat="45.4609335" lon="9.1757518" />
      <trkpt lat="45.4609335" lon="9.1758206" />
      <trkpt lat="45.4609121" lon="9.1759729" />
      <trkpt lat="45.4608197" lon="9.1763047" />
      <trkpt lat="45.4608151" lon="9.1763173" />
      <trkpt lat="45.4608131" lon="9.1763264" />
      <trkpt lat="45.4608099" lon="9.1763417" />
      <trkpt lat="45.4608057" lon="9.1763611" />
      <trkpt lat="45.4607954" lon="9.1763634" />
      <trkpt lat="45.4608089" lon="9.1763812" />
      <trkpt lat="45.4608120" lon="9.1763831" />
      <trkpt lat="45.4608177" lon="9.1763865" />
      <trkpt lat="45.4606700" lon="9.1769276" />
      <trkpt lat="45.4605814" lon="9.1772772" />
      <trkpt lat="45.4605324" lon="9.1774387" />
      <trkpt lat="45.4604743" lon="9.1775753" />
      <trkpt lat="45.4604718" lon="9.1775809" />
      <trkpt lat="45.4604540" lon="9.1776260" />
      <trkpt lat="45.4603993" lon="9.1777646" />
      <trkpt lat="45.4604162" lon="9.1779261" />
      <trkpt lat="45.4607321" lon="9.1795549" />
      <trkpt lat="45.4607577" lon="9.1795486" />
      <trkpt lat="45.4607634" lon="9.1795442" />
      <trkpt lat="45.4607923" lon="9.1795828" />
      <trkpt lat="45.4607988" lon="9.1796053" />
      <trkpt lat="45.4608048" lon="9.1796461" />
      <trkpt lat="45.4608086" lon="9.1796736" />
      <trkpt lat="45.4608169" lon="9.1796972" />
      <trkpt lat="45.4612411" lon="9.1799165" />
      <trkpt lat="45.4614052" lon="9.1799741" />
      <trkpt lat="45.4614177" lon="9.1800108" />
      <trkpt lat="45.4615318" lon="9.1803987" />
      <trkpt lat="45.4615453" lon="9.1806860" />
      <trkpt lat="45.4615281" lon="9.1806888" />
      <trkpt lat="45.4615287" lon="9.1806990" />
      <trkpt lat="45.4615301" lon="9.1807303" />
      <trkpt lat="45.4615315" lon="9.1807550" />
      <trkpt lat="45.4615311" lon="9.1807656" />
      <trkpt lat="45.4615382" lon="9.1807877" />
      <trkpt lat="45.4615509" lon="9.1812076" />
      <trkpt lat="45.4615528" lon="9.1812426" />
      <trkpt lat="45.4615398" lon="9.1812571" />
      <trkpt lat="45.4615303" lon="9.1812577" />
      <trkpt lat="45.4615416" lon="9.1814652" />
      <trkpt lat="45.4615418" lon="9.1814698" />
      <trkpt lat="45.4615435" lon="9.1815015" />
      <trkpt lat="45.4615450" lon="9.1815310" />
      <trkpt lat="45.4615437" lon="9.1815333" />
      <trkpt lat="45.4615664" lon="9.1815340" />
      <trkpt lat="45.4615721" lon="9.1815825" />
      <trkpt lat="45.4616247" lon="9.1819298" />
      <trkpt lat="45.4616494" lon="9.1821380" />
      <trkpt lat="45.4616732" lon="9.1823751" />
      <trkpt lat="45.4616752" lon="9.1823896" />
      <trkpt lat="45.4616763" lon="9.1823979" />
      <trkpt lat="45.4616773" lon="9.1824051" />
      <trkpt lat="45.4616780" lon="9.1824103" />
      <trkpt lat="45.4616784" lon="9.1824137" />
      <trkpt lat="45.4616805" lon="9.1824289" />
      <trkpt lat="45.4617303" lon="9.1828602" />
      <trkpt lat="45.4617454" lon="9.1829570" />
      <trkpt lat="45.4618087" lon="9.1830710" />
      <trkpt lat="45.4618649" lon="9.1831396" />
      <trkpt lat="45.4619301" lon="9.1832083" />
      <trkpt lat="45.4621232" lon="9.1833894" />
      <trkpt lat="45.4621762" lon="9.1834254" />
      <trkpt lat="45.4624171" lon="9.1836081" />
      <trkpt lat="45.4624251" lon="9.1836138" />
      <trkpt lat="45.4624199" lon="9.1836234" />
      <trkpt lat="45.4624233" lon="9.1836278" />
      <trkpt lat="45.4624280" lon="9.1836341" />
      <trkpt lat="45.4621236" lon="9.1841150" />
      <trkpt lat="45.4620647" lon="9.1842269" />
      <trkpt lat="45.4620219" lon="9.1843160" />
      <trkpt lat="45.4619825" lon="9.1843775" />
      <trkpt lat="45.4617743" lon="9.1847020" />
      <trkpt lat="45.4616714" lon="9.1849107" />
      <trkpt lat="45.4615574" lon="9.1852908" />
      <trkpt lat="45.4615344" lon="9.1853633" />
      <trkpt lat="45.4615077" lon="9.1854471" />
      <trkpt lat="45.4615911" lon="9.1855672" />
      <trkpt lat="45.4616490" lon="9.1856540" />
      <trkpt lat="45.4616397" lon="9.1856649" />
      <trkpt lat="45.4616087" lon="9.1857014" />
      <trkpt lat="45.4616182" lon="9.1857141" />
      <trkpt lat="45.4616249" lon="9.1857232" />
      <trkpt lat="45.4618299" lon="9.1860079" />
      <trkpt lat="45.4618809" lon="9.1860732" />
      <trkpt lat="45.4620502" lon="9.1862800" />
      <trkpt lat="45.4620618" lon="9.1863240" />
      <trkpt lat="45.4620602" lon="9.1863268" />
      <trkpt lat="45.4620736" lon="9.1863439" />
      <trkpt lat="45.4620823" lon="9.1863545" />
      <trkpt lat="45.4620906" lon="9.1863638" />
      <trkpt lat="45.4621205" lon="9.1864044" />
      <trkpt lat="45.4623136" lon="9.1866341" />
      <trkpt lat="45.4624978" lon="9.1868642" />
      <trkpt lat="45.4625118" lon="9.1868800" />
      <trkpt lat="45.4625170" lon="9.1868867" />
      <trkpt lat="45.4625385" lon="9.1869146" />
      <trkpt lat="45.4625557" lon="9.1869368" />
      <trkpt lat="45.4625815" lon="9.1869703" />
      <trkpt lat="45.4625165" lon="9.1869724" />
      <trkpt lat="45.4623698" lon="9.1871741" />
      <trkpt lat="45.4623633" lon="9.1872663" />
      <trkpt lat="45.4626563" lon="9.1880668" />
      <trkpt lat="45.4626709" lon="9.1881100" />
      <trkpt lat="45.4627054" lon="9.1882123" />
      <trkpt lat="45.4627756" lon="9.1884203" />
      <trkpt lat="45.4628388" lon="9.1884389" />
      <trkpt lat="45.4628391" lon="9.1884746" />
      <trkpt lat="45.4628393" lon="9.1884922" />
      <trkpt lat="45.4628394" lon="9.1885131" />
      <trkpt lat="45.4628780" lon="9.1885136" />
      <trkpt lat="45.4632051" lon="9.1885178" />
      <trkpt lat="45.4632950" lon="9.1885189" />
      <trkpt lat="45.4635267" lon="9.1885191" />
      <trkpt lat="45.4635790" lon="9.1885192" />
      <trkpt lat="45.4635843" lon="9.1885356" />
      <trkpt lat="45.4635933" lon="9.1885635" />
      <trkpt lat="45.4635982" lon="9.1885736" />
      <trkpt lat="45.4636369" lon="9.1885741" />
      <trkpt lat="45.4636712" lon="9.1885745" />
      <trkpt lat="45.4636713" lon="9.1885837" />
      <trkpt lat="45.4636714" lon="9.1886805" />
      <trkpt lat="45.4636706" lon="9.1887812" />
      <trkpt lat="45.4636880" lon="9.1887996" />
      <trkpt lat="45.4636880" lon="9.1888097" />
      <trkpt lat="45.4636879" lon="9.1888363" />
      <trkpt lat="45.4637344" lon="9.1888372" />
      <trkpt lat="45.4637338" lon="9.1888841" />
      <trkpt lat="45.4637335" lon="9.1889066" />
      <trkpt lat="45.4637332" lon="9.1889265" />
      <trkpt lat="45.4637329" lon="9.1889492" />
      <trkpt lat="45.4637319" lon="9.1890225" />
      <trkpt lat="45.4637982" lon="9.1890213" />
      <trkpt lat="45.4637998" lon="9.1889533" />
      <trkpt lat="45.4638000" lon="9.1889344" />
      <trkpt lat="45.4638002" lon="9.1889146" />
      <trkpt lat="45.4638167" lon="9.1889146" />
      <trkpt lat="45.4640993" lon="9.1889147" />
      <trkpt lat="45.4641127" lon="9.1889147" />
      <trkpt lat="45.4641126" lon="9.1889477" />
      <trkpt lat="45.4641115" lon="9.1890703" />
      <trkpt lat="45.4641046" lon="9.1895113" />
      <trkpt lat="45.4641536" lon="9.1896431" />
      <trkpt lat="45.4643695" lon="9.1897716" />
    </trkseg>
  </trk>
</gpx>
