<?xml version="1.0" encoding="UTF-8"?>
<gpx xmlns="http://www.topografix.com/GPX/1/1" version="1.1" creator="ShapeRoute route-engine">
  <metadata>
    <name>MAX 15 km levico v1</name>
    <author>
      <name>ShapeRoute route-engine</name>
    </author>
    <copyright author="OpenStreetMap contributors">
      <license>https://opendatacommons.org/licenses/odbl/1-0/</license>
    </copyright>
    <link href="https://www.openstreetmap.org/copyright">
      <text>© OpenStreetMap contributors</text>
    </link>
    <time>2026-09-25T17:38:15Z</time>
  </metadata>
  <trk>
    <name>MAX 15 km levico v1</name>
    <trkseg>
      <trkpt lat="46.0123552" lon="11.2985082" />
      <trkpt lat="46.0122721" lon="11.2986350" />
      <trkpt lat="46.0121122" lon="11.2989819" />
      <trkpt lat="46.0119829" lon="11.2992330" />
      <trkpt lat="46.0118498" lon="11.2994411" />
      <trkpt lat="46.0116723" lon="11.2996863" />
      <trkpt lat="46.0112962" lon="11.3002246" />
      <trkpt lat="46.0113555" lon="11.3004664" />
      <trkpt lat="46.0113758" lon="11.3005772" />
      <trkpt lat="46.0113854" lon="11.3006619" />
      <trkpt lat="46.0114434" lon="11.3007649" />
      <trkpt lat="46.0115191" lon="11.3009521" />
      <trkpt lat="46.0115785" lon="11.3010636" />
      <trkpt lat="46.0115915" lon="11.3009636" />
      <trkpt lat="46.0116630" lon="11.3009231" />
      <trkpt lat="46.0118055" lon="11.3008842" />
      <trkpt lat="46.0118496" lon="11.3009037" />
      <trkpt lat="46.0119443" lon="11.3009640" />
      <trkpt lat="46.0120169" lon="11.3010306" />
      <trkpt lat="46.0120772" lon="11.3011040" />
      <trkpt lat="46.0121159" lon="11.3011788" />
      <trkpt lat="46.0122465" lon="11.3013586" />
      <trkpt lat="46.0122740" lon="11.3014141" />
      <trkpt lat="46.0124475" lon="11.3015655" />
      <trkpt lat="46.0126992" lon="11.3017516" />
      <trkpt lat="46.0130588" lon="11.3019822" />
      <trkpt lat="46.0129158" lon="11.3025677" />
      <trkpt lat="46.0128501" lon="11.3028052" />
      <trkpt lat="46.0128080" lon="11.3031323" />
      <trkpt lat="46.0127785" lon="11.3033938" />
      <trkpt lat="46.0127603" lon="11.3035217" />
      <trkpt lat="46.0127396" lon="11.3036685" />
      <trkpt lat="46.0127044" lon="11.3040536" />
      <trkpt lat="46.0126021" lon="11.3041601" />
      <trkpt lat="46.0123670" lon="11.3045484" />
      <trkpt lat="46.0122985" lon="11.3046550" />
      <trkpt lat="46.0122399" lon="11.3047086" />
      <trkpt lat="46.0121644" lon="11.3047010" />
      <trkpt lat="46.0121026" lon="11.3046545" />
      <trkpt lat="46.0120540" lon="11.3046312" />
      <trkpt lat="46.0119919" lon="11.3046366" />
      <trkpt lat="46.0119477" lon="11.3046725" />
      <trkpt lat="46.0118767" lon="11.3048065" />
      <trkpt lat="46.0118147" lon="11.3049397" />
      <trkpt lat="46.0117020" lon="11.3051613" />
      <trkpt lat="46.0116508" lon="11.3052644" />
      <trkpt lat="46.0115684" lon="11.3054490" />
      <trkpt lat="46.0115371" lon="11.3055262" />
      <trkpt lat="46.0114849" lon="11.3055945" />
      <trkpt lat="46.0114258" lon="11.3056108" />
      <trkpt lat="46.0113750" lon="11.3055987" />
      <trkpt lat="46.0113253" lon="11.3055475" />
      <trkpt lat="46.0112731" lon="11.3054781" />
      <trkpt lat="46.0112147" lon="11.3054262" />
      <trkpt lat="46.0111741" lon="11.3054104" />
      <trkpt lat="46.0111206" lon="11.3054196" />
      <trkpt lat="46.0110426" lon="11.3054683" />
      <trkpt lat="46.0109869" lon="11.3055846" />
      <trkpt lat="46.0108325" lon="11.3060187" />
      <trkpt lat="46.0107531" lon="11.3062424" />
      <trkpt lat="46.0106952" lon="11.3063601" />
      <trkpt lat="46.0106331" lon="11.3064053" />
      <trkpt lat="46.0105677" lon="11.3064149" />
      <trkpt lat="46.0105301" lon="11.3068092" />
      <trkpt lat="46.0104234" lon="11.3079874" />
      <trkpt lat="46.0103741" lon="11.3085116" />
      <trkpt lat="46.0107825" lon="11.3085826" />
      <trkpt lat="46.0108126" lon="11.3085884" />
      <trkpt lat="46.0109643" lon="11.3086201" />
      <trkpt lat="46.0110097" lon="11.3086295" />
      <trkpt lat="46.0111104" lon="11.3086507" />
      <trkpt lat="46.0110779" lon="11.3091249" />
      <trkpt lat="46.0115740" lon="11.3091767" />
      <trkpt lat="46.0110779" lon="11.3091249" />
      <trkpt lat="46.0111104" lon="11.3086507" />
      <trkpt lat="46.0110097" lon="11.3086295" />
      <trkpt lat="46.0109643" lon="11.3086201" />
      <trkpt lat="46.0108126" lon="11.3085884" />
      <trkpt lat="46.0107825" lon="11.3085826" />
      <trkpt lat="46.0103741" lon="11.3085116" />
      <trkpt lat="46.0104234" lon="11.3079874" />
      <trkpt lat="46.0105301" lon="11.3068092" />
      <trkpt lat="46.0105677" lon="11.3064149" />
      <trkpt lat="46.0106331" lon="11.3064053" />
      <trkpt lat="46.0106952" lon="11.3063601" />
      <trkpt lat="46.0107531" lon="11.3062424" />
      <trkpt lat="46.0108325" lon="11.3060187" />
      <trkpt lat="46.0109869" lon="11.3055846" />
      <trkpt lat="46.0110426" lon="11.3054683" />
      <trkpt lat="46.0111206" lon="11.3054196" />
      <trkpt lat="46.0111741" lon="11.3054104" />
      <trkpt lat="46.0112147" lon="11.3054262" />
      <trkpt lat="46.0112731" lon="11.3054781" />
      <trkpt lat="46.0113253" lon="11.3055475" />
      <trkpt lat="46.0113750" lon="11.3055987" />
      <trkpt lat="46.0114258" lon="11.3056108" />
      <trkpt lat="46.0114849" lon="11.3055945" />
      <trkpt lat="46.0115371" lon="11.3055262" />
      <trkpt lat="46.0115684" lon="11.3054490" />
      <trkpt lat="46.0116508" lon="11.3052644" />
      <trkpt lat="46.0117020" lon="11.3051613" />
      <trkpt lat="46.0118147" lon="11.3049397" />
      <trkpt lat="46.0118767" lon="11.3048065" />
      <trkpt lat="46.0119477" lon="11.3046725" />
      <trkpt lat="46.0119919" lon="11.3046366" />
      <trkpt lat="46.0120540" lon="11.3046312" />
      <trkpt lat="46.0121026" lon="11.3046545" />
      <trkpt lat="46.0121644" lon="11.3047010" />
      <trkpt lat="46.0122399" lon="11.3047086" />
      <trkpt lat="46.0122985" lon="11.3046550" />
      <trkpt lat="46.0123670" lon="11.3045484" />
      <trkpt lat="46.0126021" lon="11.3041601" />
      <trkpt lat="46.0127044" lon="11.3040536" />
      <trkpt lat="46.0127644" lon="11.3045046" />
      <trkpt lat="46.0127931" lon="11.3047943" />
      <trkpt lat="46.0127990" lon="11.3049468" />
      <trkpt lat="46.0127983" lon="11.3050318" />
      <trkpt lat="46.0126749" lon="11.3067415" />
      <trkpt lat="46.0126690" lon="11.3068184" />
      <trkpt lat="46.0125287" lon="11.3087845" />
      <trkpt lat="46.0125018" lon="11.3092123" />
      <trkpt lat="46.0124877" lon="11.3093217" />
      <trkpt lat="46.0125112" lon="11.3095719" />
      <trkpt lat="46.0125396" lon="11.3096631" />
      <trkpt lat="46.0126642" lon="11.3100298" />
      <trkpt lat="46.0125396" lon="11.3096631" />
      <trkpt lat="46.0125112" lon="11.3095719" />
      <trkpt lat="46.0124877" lon="11.3093217" />
      <trkpt lat="46.0128792" lon="11.3092834" />
      <trkpt lat="46.0129761" lon="11.3092566" />
      <trkpt lat="46.0130319" lon="11.3092083" />
      <trkpt lat="46.0130617" lon="11.3091225" />
      <trkpt lat="46.0131139" lon="11.3088596" />
      <trkpt lat="46.0131735" lon="11.3087524" />
      <trkpt lat="46.0132379" lon="11.3086679" />
      <trkpt lat="46.0132950" lon="11.3086265" />
      <trkpt lat="46.0133450" lon="11.3085849" />
      <trkpt lat="46.0134044" lon="11.3085949" />
      <trkpt lat="46.0134568" lon="11.3086278" />
      <trkpt lat="46.0134812" lon="11.3086513" />
      <trkpt lat="46.0135225" lon="11.3086854" />
      <trkpt lat="46.0135413" lon="11.3086948" />
      <trkpt lat="46.0135640" lon="11.3086957" />
      <trkpt lat="46.0135936" lon="11.3086788" />
      <trkpt lat="46.0136139" lon="11.3086583" />
      <trkpt lat="46.0136430" lon="11.3086202" />
      <trkpt lat="46.0137052" lon="11.3085868" />
      <trkpt lat="46.0137875" lon="11.3085719" />
      <trkpt lat="46.0141429" lon="11.3085671" />
      <trkpt lat="46.0137875" lon="11.3085719" />
      <trkpt lat="46.0137052" lon="11.3085868" />
      <trkpt lat="46.0136430" lon="11.3086202" />
      <trkpt lat="46.0136139" lon="11.3086583" />
      <trkpt lat="46.0135936" lon="11.3086788" />
      <trkpt lat="46.0135640" lon="11.3086957" />
      <trkpt lat="46.0135413" lon="11.3086948" />
      <trkpt lat="46.0135225" lon="11.3086854" />
      <trkpt lat="46.0134812" lon="11.3086513" />
      <trkpt lat="46.0134568" lon="11.3086278" />
      <trkpt lat="46.0134044" lon="11.3085949" />
      <trkpt lat="46.0133450" lon="11.3085849" />
      <trkpt lat="46.0132950" lon="11.3086265" />
      <trkpt lat="46.0132379" lon="11.3086679" />
      <trkpt lat="46.0131735" lon="11.3087524" />
      <trkpt lat="46.0131139" lon="11.3088596" />
      <trkpt lat="46.0130617" lon="11.3091225" />
      <trkpt lat="46.0130319" lon="11.3092083" />
      <trkpt lat="46.0129761" lon="11.3092566" />
      <trkpt lat="46.0128792" lon="11.3092834" />
      <trkpt lat="46.0124877" lon="11.3093217" />
      <trkpt lat="46.0125112" lon="11.3095719" />
      <trkpt lat="46.0125396" lon="11.3096631" />
      <trkpt lat="46.0126642" lon="11.3100298" />
      <trkpt lat="46.0125396" lon="11.3096631" />
      <trkpt lat="46.0125112" lon="11.3095719" />
      <trkpt lat="46.0124877" lon="11.3093217" />
      <trkpt lat="46.0123477" lon="11.3093205" />
      <trkpt lat="46.0121885" lon="11.3093191" />
      <trkpt lat="46.0121068" lon="11.3093195" />
      <trkpt lat="46.0120910" lon="11.3093193" />
      <trkpt lat="46.0121135" lon="11.3098988" />
      <trkpt lat="46.0121201" lon="11.3101029" />
      <trkpt lat="46.0121231" lon="11.3101936" />
      <trkpt lat="46.0121648" lon="11.3106056" />
      <trkpt lat="46.0122423" lon="11.3113437" />
      <trkpt lat="46.0121648" lon="11.3106056" />
      <trkpt lat="46.0121231" lon="11.3101936" />
      <trkpt lat="46.0121201" lon="11.3101029" />
      <trkpt lat="46.0121135" lon="11.3098988" />
      <trkpt lat="46.0120910" lon="11.3093193" />
      <trkpt lat="46.0121068" lon="11.3093195" />
      <trkpt lat="46.0121885" lon="11.3093191" />
      <trkpt lat="46.0123477" lon="11.3093205" />
      <trkpt lat="46.0124877" lon="11.3093217" />
      <trkpt lat="46.0125112" lon="11.3095719" />
      <trkpt lat="46.0125396" lon="11.3096631" />
      <trkpt lat="46.0126642" lon="11.3100298" />
      <trkpt lat="46.0130312" lon="11.3120209" />
      <trkpt lat="46.0131658" lon="11.3128957" />
      <trkpt lat="46.0130312" lon="11.3120209" />
      <trkpt lat="46.0126642" lon="11.3100298" />
      <trkpt lat="46.0125396" lon="11.3096631" />
      <trkpt lat="46.0125112" lon="11.3095719" />
      <trkpt lat="46.0124877" lon="11.3093217" />
      <trkpt lat="46.0123477" lon="11.3093205" />
      <trkpt lat="46.0121885" lon="11.3093191" />
      <trkpt lat="46.0121068" lon="11.3093195" />
      <trkpt lat="46.0120910" lon="11.3093193" />
      <trkpt lat="46.0121135" lon="11.3098988" />
      <trkpt lat="46.0121201" lon="11.3101029" />
      <trkpt lat="46.0121231" lon="11.3101936" />
      <trkpt lat="46.0121648" lon="11.3106056" />
      <trkpt lat="46.0122423" lon="11.3113437" />
      <trkpt lat="46.0121648" lon="11.3106056" />
      <trkpt lat="46.0121231" lon="11.3101936" />
      <trkpt lat="46.0121201" lon="11.3101029" />
      <trkpt lat="46.0121135" lon="11.3098988" />
      <trkpt lat="46.0120910" lon="11.3093193" />
      <trkpt lat="46.0119086" lon="11.3093218" />
      <trkpt lat="46.0117912" lon="11.3093198" />
      <trkpt lat="46.0117285" lon="11.3093139" />
      <trkpt lat="46.0115957" lon="11.3092885" />
      <trkpt lat="46.0113540" lon="11.3092369" />
      <trkpt lat="46.0113600" lon="11.3094444" />
      <trkpt lat="46.0113481" lon="11.3097706" />
      <trkpt lat="46.0113600" lon="11.3101482" />
      <trkpt lat="46.0113786" lon="11.3105933" />
      <trkpt lat="46.0114083" lon="11.3108287" />
      <trkpt lat="46.0113786" lon="11.3105933" />
      <trkpt lat="46.0113600" lon="11.3101482" />
      <trkpt lat="46.0113481" lon="11.3097706" />
      <trkpt lat="46.0113600" lon="11.3094444" />
      <trkpt lat="46.0113540" lon="11.3092369" />
      <trkpt lat="46.0112065" lon="11.3092161" />
      <trkpt lat="46.0110982" lon="11.3092079" />
      <trkpt lat="46.0110743" lon="11.3092062" />
      <trkpt lat="46.0105969" lon="11.3092274" />
      <trkpt lat="46.0104685" lon="11.3092444" />
      <trkpt lat="46.0103494" lon="11.3092761" />
      <trkpt lat="46.0098931" lon="11.3094071" />
      <trkpt lat="46.0098305" lon="11.3094158" />
      <trkpt lat="46.0097471" lon="11.3093905" />
      <trkpt lat="46.0096743" lon="11.3093517" />
      <trkpt lat="46.0096191" lon="11.3093162" />
      <trkpt lat="46.0095602" lon="11.3092690" />
      <trkpt lat="46.0095413" lon="11.3092533" />
      <trkpt lat="46.0095093" lon="11.3092309" />
      <trkpt lat="46.0094848" lon="11.3092210" />
      <trkpt lat="46.0094485" lon="11.3092101" />
      <trkpt lat="46.0094113" lon="11.3092100" />
      <trkpt lat="46.0093756" lon="11.3092212" />
      <trkpt lat="46.0093417" lon="11.3092364" />
      <trkpt lat="46.0093089" lon="11.3092664" />
      <trkpt lat="46.0092747" lon="11.3093032" />
      <trkpt lat="46.0092055" lon="11.3093792" />
      <trkpt lat="46.0092180" lon="11.3094163" />
      <trkpt lat="46.0092218" lon="11.3094572" />
      <trkpt lat="46.0092165" lon="11.3094977" />
      <trkpt lat="46.0092028" lon="11.3095339" />
      <trkpt lat="46.0091819" lon="11.3095621" />
      <trkpt lat="46.0092147" lon="11.3096070" />
      <trkpt lat="46.0092684" lon="11.3096785" />
      <trkpt lat="46.0093344" lon="11.3098344" />
      <trkpt lat="46.0093880" lon="11.3100457" />
      <trkpt lat="46.0094338" lon="11.3102144" />
      <trkpt lat="46.0093880" lon="11.3100457" />
      <trkpt lat="46.0093344" lon="11.3098344" />
      <trkpt lat="46.0092684" lon="11.3096785" />
      <trkpt lat="46.0092147" lon="11.3096070" />
      <trkpt lat="46.0091819" lon="11.3095621" />
      <trkpt lat="46.0092028" lon="11.3095339" />
      <trkpt lat="46.0092165" lon="11.3094977" />
      <trkpt lat="46.0092218" lon="11.3094572" />
      <trkpt lat="46.0092180" lon="11.3094163" />
      <trkpt lat="46.0092055" lon="11.3093792" />
      <trkpt lat="46.0092747" lon="11.3093032" />
      <trkpt lat="46.0093089" lon="11.3092664" />
      <trkpt lat="46.0093417" lon="11.3092364" />
      <trkpt lat="46.0093756" lon="11.3092212" />
      <trkpt lat="46.0094113" lon="11.3092100" />
      <trkpt lat="46.0094485" lon="11.3092101" />
      <trkpt lat="46.0094848" lon="11.3092210" />
      <trkpt lat="46.0095093" lon="11.3092309" />
      <trkpt lat="46.0095413" lon="11.3092533" />
      <trkpt lat="46.0095602" lon="11.3092690" />
      <trkpt lat="46.0096191" lon="11.3093162" />
      <trkpt lat="46.0096743" lon="11.3093517" />
      <trkpt lat="46.0097471" lon="11.3093905" />
      <trkpt lat="46.0098305" lon="11.3094158" />
      <trkpt lat="46.0098931" lon="11.3094071" />
      <trkpt lat="46.0103494" lon="11.3092761" />
      <trkpt lat="46.0104685" lon="11.3092444" />
      <trkpt lat="46.0105969" lon="11.3092274" />
      <trkpt lat="46.0110743" lon="11.3092062" />
      <trkpt lat="46.0110982" lon="11.3092079" />
      <trkpt lat="46.0112065" lon="11.3092161" />
      <trkpt lat="46.0113540" lon="11.3092369" />
      <trkpt lat="46.0113600" lon="11.3094444" />
      <trkpt lat="46.0113481" lon="11.3097706" />
      <trkpt lat="46.0113600" lon="11.3101482" />
      <trkpt lat="46.0113786" lon="11.3105933" />
      <trkpt lat="46.0114083" lon="11.3108287" />
      <trkpt lat="46.0113786" lon="11.3105933" />
      <trkpt lat="46.0113600" lon="11.3101482" />
      <trkpt lat="46.0113481" lon="11.3097706" />
      <trkpt lat="46.0113600" lon="11.3094444" />
      <trkpt lat="46.0113540" lon="11.3092369" />
      <trkpt lat="46.0115957" lon="11.3092885" />
      <trkpt lat="46.0117285" lon="11.3093139" />
      <trkpt lat="46.0117912" lon="11.3093198" />
      <trkpt lat="46.0119086" lon="11.3093218" />
      <trkpt lat="46.0120910" lon="11.3093193" />
      <trkpt lat="46.0121068" lon="11.3093195" />
      <trkpt lat="46.0121885" lon="11.3093191" />
      <trkpt lat="46.0123477" lon="11.3093205" />
      <trkpt lat="46.0124877" lon="11.3093217" />
      <trkpt lat="46.0125018" lon="11.3092123" />
      <trkpt lat="46.0125287" lon="11.3087845" />
      <trkpt lat="46.0126690" lon="11.3068184" />
      <trkpt lat="46.0126749" lon="11.3067415" />
      <trkpt lat="46.0127983" lon="11.3050318" />
      <trkpt lat="46.0127990" lon="11.3049468" />
      <trkpt lat="46.0127931" lon="11.3047943" />
      <trkpt lat="46.0127644" lon="11.3045046" />
      <trkpt lat="46.0127044" lon="11.3040536" />
      <trkpt lat="46.0126021" lon="11.3041601" />
      <trkpt lat="46.0123670" lon="11.3045484" />
      <trkpt lat="46.0122985" lon="11.3046550" />
      <trkpt lat="46.0122399" lon="11.3047086" />
      <trkpt lat="46.0121644" lon="11.3047010" />
      <trkpt lat="46.0121026" lon="11.3046545" />
      <trkpt lat="46.0120540" lon="11.3046312" />
      <trkpt lat="46.0119919" lon="11.3046366" />
      <trkpt lat="46.0119477" lon="11.3046725" />
      <trkpt lat="46.0118767" lon="11.3048065" />
      <trkpt lat="46.0118147" lon="11.3049397" />
      <trkpt lat="46.0117020" lon="11.3051613" />
      <trkpt lat="46.0116508" lon="11.3052644" />
      <trkpt lat="46.0115684" lon="11.3054490" />
      <trkpt lat="46.0115371" lon="11.3055262" />
      <trkpt lat="46.0114849" lon="11.3055945" />
      <trkpt lat="46.0114258" lon="11.3056108" />
      <trkpt lat="46.0113750" lon="11.3055987" />
      <trkpt lat="46.0113253" lon="11.3055475" />
      <trkpt lat="46.0112731" lon="11.3054781" />
      <trkpt lat="46.0112147" lon="11.3054262" />
      <trkpt lat="46.0111741" lon="11.3054104" />
      <trkpt lat="46.0111206" lon="11.3054196" />
      <trkpt lat="46.0110426" lon="11.3054683" />
      <trkpt lat="46.0109869" lon="11.3055846" />
      <trkpt lat="46.0108325" lon="11.3060187" />
      <trkpt lat="46.0107531" lon="11.3062424" />
      <trkpt lat="46.0106952" lon="11.3063601" />
      <trkpt lat="46.0106331" lon="11.3064053" />
      <trkpt lat="46.0105677" lon="11.3064149" />
      <trkpt lat="46.0105301" lon="11.3068092" />
      <trkpt lat="46.0104234" lon="11.3079874" />
      <trkpt lat="46.0105301" lon="11.3068092" />
      <trkpt lat="46.0105677" lon="11.3064149" />
      <trkpt lat="46.0106331" lon="11.3064053" />
      <trkpt lat="46.0106952" lon="11.3063601" />
      <trkpt lat="46.0107531" lon="11.3062424" />
      <trkpt lat="46.0108325" lon="11.3060187" />
      <trkpt lat="46.0109869" lon="11.3055846" />
      <trkpt lat="46.0110426" lon="11.3054683" />
      <trkpt lat="46.0111206" lon="11.3054196" />
      <trkpt lat="46.0111741" lon="11.3054104" />
      <trkpt lat="46.0112147" lon="11.3054262" />
      <trkpt lat="46.0112731" lon="11.3054781" />
      <trkpt lat="46.0113253" lon="11.3055475" />
      <trkpt lat="46.0113750" lon="11.3055987" />
      <trkpt lat="46.0114258" lon="11.3056108" />
      <trkpt lat="46.0114849" lon="11.3055945" />
      <trkpt lat="46.0115371" lon="11.3055262" />
      <trkpt lat="46.0115684" lon="11.3054490" />
      <trkpt lat="46.0116508" lon="11.3052644" />
      <trkpt lat="46.0117020" lon="11.3051613" />
      <trkpt lat="46.0118147" lon="11.3049397" />
      <trkpt lat="46.0118767" lon="11.3048065" />
      <trkpt lat="46.0119477" lon="11.3046725" />
      <trkpt lat="46.0119919" lon="11.3046366" />
      <trkpt lat="46.0120540" lon="11.3046312" />
      <trkpt lat="46.0121026" lon="11.3046545" />
      <trkpt lat="46.0121644" lon="11.3047010" />
      <trkpt lat="46.0122399" lon="11.3047086" />
      <trkpt lat="46.0122985" lon="11.3046550" />
      <trkpt lat="46.0123670" lon="11.3045484" />
      <trkpt lat="46.0126021" lon="11.3041601" />
      <trkpt lat="46.0127044" lon="11.3040536" />
      <trkpt lat="46.0127644" lon="11.3045046" />
      <trkpt lat="46.0127931" lon="11.3047943" />
      <trkpt lat="46.0127990" lon="11.3049468" />
      <trkpt lat="46.0130363" lon="11.3051489" />
      <trkpt lat="46.0134104" lon="11.3053479" />
      <trkpt lat="46.0136046" lon="11.3054330" />
      <trkpt lat="46.0136996" lon="11.3055082" />
      <trkpt lat="46.0139211" lon="11.3044210" />
      <trkpt lat="46.0139686" lon="11.3042444" />
      <trkpt lat="46.0141446" lon="11.3036802" />
      <trkpt lat="46.0143095" lon="11.3038059" />
      <trkpt lat="46.0144313" lon="11.3038947" />
      <trkpt lat="46.0144747" lon="11.3039626" />
      <trkpt lat="46.0146628" lon="11.3041178" />
      <trkpt lat="46.0147318" lon="11.3041906" />
      <trkpt lat="46.0148201" lon="11.3043045" />
      <trkpt lat="46.0148422" lon="11.3043504" />
      <trkpt lat="46.0150062" lon="11.3046932" />
      <trkpt lat="46.0151013" lon="11.3048752" />
      <trkpt lat="46.0151850" lon="11.3050411" />
      <trkpt lat="46.0152822" lon="11.3052221" />
      <trkpt lat="46.0155139" lon="11.3054905" />
      <trkpt lat="46.0157910" lon="11.3057765" />
      <trkpt lat="46.0159255" lon="11.3059359" />
      <trkpt lat="46.0158840" lon="11.3050997" />
      <trkpt lat="46.0158816" lon="11.3050492" />
      <trkpt lat="46.0158599" lon="11.3046138" />
      <trkpt lat="46.0157278" lon="11.3045000" />
      <trkpt lat="46.0156100" lon="11.3043753" />
      <trkpt lat="46.0154524" lon="11.3042572" />
      <trkpt lat="46.0153095" lon="11.3042188" />
      <trkpt lat="46.0152792" lon="11.3042107" />
      <trkpt lat="46.0152046" lon="11.3041889" />
      <trkpt lat="46.0151560" lon="11.3041575" />
      <trkpt lat="46.0149907" lon="11.3040148" />
      <trkpt lat="46.0148233" lon="11.3039722" />
      <trkpt lat="46.0148071" lon="11.3039585" />
      <trkpt lat="46.0147613" lon="11.3037166" />
      <trkpt lat="46.0146867" lon="11.3034741" />
      <trkpt lat="46.0146751" lon="11.3033359" />
      <trkpt lat="46.0146225" lon="11.3032314" />
      <trkpt lat="46.0144299" lon="11.3030043" />
      <trkpt lat="46.0139875" lon="11.3026424" />
      <trkpt lat="46.0137742" lon="11.3024673" />
      <trkpt lat="46.0135551" lon="11.3022875" />
      <trkpt lat="46.0130588" lon="11.3019822" />
      <trkpt lat="46.0126992" lon="11.3017516" />
      <trkpt lat="46.0124475" lon="11.3015655" />
      <trkpt lat="46.0122740" lon="11.3014141" />
      <trkpt lat="46.0122465" lon="11.3013586" />
      <trkpt lat="46.0121159" lon="11.3011788" />
      <trkpt lat="46.0120772" lon="11.3011040" />
      <trkpt lat="46.0120169" lon="11.3010306" />
      <trkpt lat="46.0119443" lon="11.3009640" />
      <trkpt lat="46.0118496" lon="11.3009037" />
      <trkpt lat="46.0118055" lon="11.3008842" />
      <trkpt lat="46.0116630" lon="11.3009231" />
      <trkpt lat="46.0115915" lon="11.3009636" />
      <trkpt lat="46.0115785" lon="11.3010636" />
      <trkpt lat="46.0115191" lon="11.3009521" />
      <trkpt lat="46.0114434" lon="11.3007649" />
      <trkpt lat="46.0113854" lon="11.3006619" />
      <trkpt lat="46.0113758" lon="11.3005772" />
      <trkpt lat="46.0113555" lon="11.3004664" />
      <trkpt lat="46.0112962" lon="11.3002246" />
      <trkpt lat="46.0116723" lon="11.2996863" />
      <trkpt lat="46.0118498" lon="11.2994411" />
      <trkpt lat="46.0119829" lon="11.2992330" />
      <trkpt lat="46.0121122" lon="11.2989819" />
      <trkpt lat="46.0122721" lon="11.2986350" />
      <trkpt lat="46.0123552" lon="11.2985082" />
      <trkpt lat="46.0125364" lon="11.2982718" />
      <trkpt lat="46.0127682" lon="11.2980215" />
      <trkpt lat="46.0128013" lon="11.2980024" />
      <trkpt lat="46.0128770" lon="11.2979586" />
      <trkpt lat="46.0129712" lon="11.2978899" />
      <trkpt lat="46.0129449" lon="11.2977945" />
      <trkpt lat="46.0127363" lon="11.2973759" />
      <trkpt lat="46.0129449" lon="11.2977945" />
      <trkpt lat="46.0129712" lon="11.2978899" />
      <trkpt lat="46.0130468" lon="11.2977714" />
      <trkpt lat="46.0131199" lon="11.2976603" />
      <trkpt lat="46.0131919" lon="11.2975460" />
      <trkpt lat="46.0132414" lon="11.2974829" />
      <trkpt lat="46.0133097" lon="11.2974064" />
      <trkpt lat="46.0136602" lon="11.2971080" />
      <trkpt lat="46.0136995" lon="11.2970791" />
      <trkpt lat="46.0138620" lon="11.2969480" />
      <trkpt lat="46.0139217" lon="11.2968977" />
      <trkpt lat="46.0140508" lon="11.2967979" />
      <trkpt lat="46.0140627" lon="11.2968161" />
      <trkpt lat="46.0140812" lon="11.2968272" />
      <trkpt lat="46.0141489" lon="11.2968261" />
      <trkpt lat="46.0143698" lon="11.2967863" />
      <trkpt lat="46.0144941" lon="11.2967329" />
      <trkpt lat="46.0147829" lon="11.2966885" />
      <trkpt lat="46.0149241" lon="11.2966919" />
      <trkpt lat="46.0151964" lon="11.2967112" />
      <trkpt lat="46.0155617" lon="11.2967634" />
      <trkpt lat="46.0158035" lon="11.2968203" />
      <trkpt lat="46.0159253" lon="11.2968559" />
      <trkpt lat="46.0163877" lon="11.2969577" />
      <trkpt lat="46.0165750" lon="11.2969819" />
      <trkpt lat="46.0166415" lon="11.2972575" />
      <trkpt lat="46.0167150" lon="11.2974094" />
      <trkpt lat="46.0168652" lon="11.2976236" />
      <trkpt lat="46.0170572" lon="11.2978665" />
      <trkpt lat="46.0168652" lon="11.2976236" />
      <trkpt lat="46.0167150" lon="11.2974094" />
      <trkpt lat="46.0166415" lon="11.2972575" />
      <trkpt lat="46.0165750" lon="11.2969819" />
      <trkpt lat="46.0163877" lon="11.2969577" />
      <trkpt lat="46.0159253" lon="11.2968559" />
      <trkpt lat="46.0158035" lon="11.2968203" />
      <trkpt lat="46.0155617" lon="11.2967634" />
      <trkpt lat="46.0151964" lon="11.2967112" />
      <trkpt lat="46.0149241" lon="11.2966919" />
      <trkpt lat="46.0147829" lon="11.2966885" />
      <trkpt lat="46.0144941" lon="11.2967329" />
      <trkpt lat="46.0143698" lon="11.2967863" />
      <trkpt lat="46.0141489" lon="11.2968261" />
      <trkpt lat="46.0140812" lon="11.2968272" />
      <trkpt lat="46.0140627" lon="11.2968161" />
      <trkpt lat="46.0140508" lon="11.2967979" />
      <trkpt lat="46.0141646" lon="11.2967071" />
      <trkpt lat="46.0141572" lon="11.2966653" />
      <trkpt lat="46.0141552" lon="11.2966227" />
      <trkpt lat="46.0141592" lon="11.2965634" />
      <trkpt lat="46.0144424" lon="11.2961166" />
      <trkpt lat="46.0146129" lon="11.2958593" />
      <trkpt lat="46.0148171" lon="11.2956264" />
      <trkpt lat="46.0149883" lon="11.2953797" />
      <trkpt lat="46.0151223" lon="11.2951830" />
      <trkpt lat="46.0152866" lon="11.2949696" />
      <trkpt lat="46.0154004" lon="11.2945721" />
      <trkpt lat="46.0154028" lon="11.2944370" />
      <trkpt lat="46.0152268" lon="11.2945032" />
      <trkpt lat="46.0149698" lon="11.2945964" />
      <trkpt lat="46.0147204" lon="11.2946646" />
      <trkpt lat="46.0149698" lon="11.2945964" />
      <trkpt lat="46.0152268" lon="11.2945032" />
      <trkpt lat="46.0154028" lon="11.2944370" />
      <trkpt lat="46.0154342" lon="11.2944115" />
      <trkpt lat="46.0155379" lon="11.2943323" />
      <trkpt lat="46.0156549" lon="11.2942128" />
      <trkpt lat="46.0157556" lon="11.2940659" />
      <trkpt lat="46.0158657" lon="11.2938677" />
      <trkpt lat="46.0160048" lon="11.2935632" />
      <trkpt lat="46.0161232" lon="11.2932305" />
      <trkpt lat="46.0162389" lon="11.2930351" />
      <trkpt lat="46.0163212" lon="11.2929241" />
      <trkpt lat="46.0163937" lon="11.2928688" />
      <trkpt lat="46.0164642" lon="11.2928393" />
      <trkpt lat="46.0165314" lon="11.2928600" />
      <trkpt lat="46.0165896" lon="11.2929174" />
      <trkpt lat="46.0166521" lon="11.2930221" />
      <trkpt lat="46.0167173" lon="11.2934673" />
      <trkpt lat="46.0167450" lon="11.2936566" />
      <trkpt lat="46.0167454" lon="11.2940527" />
      <trkpt lat="46.0166774" lon="11.2943284" />
      <trkpt lat="46.0166634" lon="11.2943853" />
      <trkpt lat="46.0169304" lon="11.2945945" />
      <trkpt lat="46.0170422" lon="11.2943575" />
      <trkpt lat="46.0172495" lon="11.2938798" />
      <trkpt lat="46.0173430" lon="11.2937574" />
      <trkpt lat="46.0173871" lon="11.2937052" />
      <trkpt lat="46.0174817" lon="11.2936170" />
      <trkpt lat="46.0175692" lon="11.2934869" />
      <trkpt lat="46.0176519" lon="11.2933103" />
      <trkpt lat="46.0178524" lon="11.2927823" />
      <trkpt lat="46.0179695" lon="11.2924714" />
      <trkpt lat="46.0180112" lon="11.2923515" />
      <trkpt lat="46.0180244" lon="11.2922908" />
      <trkpt lat="46.0181028" lon="11.2920184" />
      <trkpt lat="46.0180244" lon="11.2922908" />
      <trkpt lat="46.0180112" lon="11.2923515" />
      <trkpt lat="46.0179695" lon="11.2924714" />
      <trkpt lat="46.0178524" lon="11.2927823" />
      <trkpt lat="46.0176519" lon="11.2933103" />
      <trkpt lat="46.0175692" lon="11.2934869" />
      <trkpt lat="46.0174817" lon="11.2936170" />
      <trkpt lat="46.0173871" lon="11.2937052" />
      <trkpt lat="46.0173430" lon="11.2937574" />
      <trkpt lat="46.0172495" lon="11.2938798" />
      <trkpt lat="46.0170422" lon="11.2943575" />
      <trkpt lat="46.0169304" lon="11.2945945" />
      <trkpt lat="46.0166634" lon="11.2943853" />
      <trkpt lat="46.0166774" lon="11.2943284" />
      <trkpt lat="46.0167454" lon="11.2940527" />
      <trkpt lat="46.0167450" lon="11.2936566" />
      <trkpt lat="46.0167173" lon="11.2934673" />
      <trkpt lat="46.0166521" lon="11.2930221" />
      <trkpt lat="46.0165896" lon="11.2929174" />
      <trkpt lat="46.0165314" lon="11.2928600" />
      <trkpt lat="46.0164642" lon="11.2928393" />
      <trkpt lat="46.0163937" lon="11.2928688" />
      <trkpt lat="46.0163212" lon="11.2929241" />
      <trkpt lat="46.0162389" lon="11.2930351" />
      <trkpt lat="46.0161232" lon="11.2932305" />
      <trkpt lat="46.0160048" lon="11.2935632" />
      <trkpt lat="46.0158657" lon="11.2938677" />
      <trkpt lat="46.0157556" lon="11.2940659" />
      <trkpt lat="46.0156549" lon="11.2942128" />
      <trkpt lat="46.0155379" lon="11.2943323" />
      <trkpt lat="46.0154342" lon="11.2944115" />
      <trkpt lat="46.0154632" lon="11.2942013" />
      <trkpt lat="46.0154776" lon="11.2940381" />
      <trkpt lat="46.0154496" lon="11.2939212" />
      <trkpt lat="46.0156633" lon="11.2937085" />
      <trkpt lat="46.0157817" lon="11.2935851" />
      <trkpt lat="46.0158371" lon="11.2934691" />
      <trkpt lat="46.0156203" lon="11.2931027" />
      <trkpt lat="46.0154946" lon="11.2928902" />
      <trkpt lat="46.0154225" lon="11.2927684" />
      <trkpt lat="46.0153284" lon="11.2926093" />
      <trkpt lat="46.0152555" lon="11.2924861" />
      <trkpt lat="46.0151925" lon="11.2923573" />
      <trkpt lat="46.0150509" lon="11.2920681" />
      <trkpt lat="46.0150076" lon="11.2919050" />
      <trkpt lat="46.0147036" lon="11.2921944" />
      <trkpt lat="46.0145784" lon="11.2923231" />
      <trkpt lat="46.0146621" lon="11.2921448" />
      <trkpt lat="46.0147435" lon="11.2917832" />
      <trkpt lat="46.0147922" lon="11.2914870" />
      <trkpt lat="46.0147573" lon="11.2913349" />
      <trkpt lat="46.0147922" lon="11.2914870" />
      <trkpt lat="46.0147435" lon="11.2917832" />
      <trkpt lat="46.0146621" lon="11.2921448" />
      <trkpt lat="46.0145784" lon="11.2923231" />
      <trkpt lat="46.0147036" lon="11.2921944" />
      <trkpt lat="46.0150076" lon="11.2919050" />
      <trkpt lat="46.0150509" lon="11.2920681" />
      <trkpt lat="46.0151925" lon="11.2923573" />
      <trkpt lat="46.0152555" lon="11.2924861" />
      <trkpt lat="46.0153284" lon="11.2926093" />
      <trkpt lat="46.0154225" lon="11.2927684" />
      <trkpt lat="46.0154946" lon="11.2928902" />
      <trkpt lat="46.0156203" lon="11.2931027" />
      <trkpt lat="46.0158371" lon="11.2934691" />
      <trkpt lat="46.0157817" lon="11.2935851" />
      <trkpt lat="46.0156633" lon="11.2937085" />
      <trkpt lat="46.0154496" lon="11.2939212" />
      <trkpt lat="46.0154776" lon="11.2940381" />
      <trkpt lat="46.0154632" lon="11.2942013" />
      <trkpt lat="46.0154342" lon="11.2944115" />
      <trkpt lat="46.0155379" lon="11.2943323" />
      <trkpt lat="46.0156549" lon="11.2942128" />
      <trkpt lat="46.0157556" lon="11.2940659" />
      <trkpt lat="46.0158657" lon="11.2938677" />
      <trkpt lat="46.0160048" lon="11.2935632" />
      <trkpt lat="46.0161232" lon="11.2932305" />
      <trkpt lat="46.0162389" lon="11.2930351" />
      <trkpt lat="46.0163212" lon="11.2929241" />
      <trkpt lat="46.0163937" lon="11.2928688" />
      <trkpt lat="46.0164642" lon="11.2928393" />
      <trkpt lat="46.0165314" lon="11.2928600" />
      <trkpt lat="46.0165896" lon="11.2929174" />
      <trkpt lat="46.0166521" lon="11.2930221" />
      <trkpt lat="46.0167173" lon="11.2934673" />
      <trkpt lat="46.0167450" lon="11.2936566" />
      <trkpt lat="46.0167454" lon="11.2940527" />
      <trkpt lat="46.0166774" lon="11.2943284" />
      <trkpt lat="46.0166634" lon="11.2943853" />
      <trkpt lat="46.0169304" lon="11.2945945" />
      <trkpt lat="46.0170422" lon="11.2943575" />
      <trkpt lat="46.0172495" lon="11.2938798" />
      <trkpt lat="46.0173430" lon="11.2937574" />
      <trkpt lat="46.0173871" lon="11.2937052" />
      <trkpt lat="46.0174817" lon="11.2936170" />
      <trkpt lat="46.0175692" lon="11.2934869" />
      <trkpt lat="46.0176519" lon="11.2933103" />
      <trkpt lat="46.0178524" lon="11.2927823" />
      <trkpt lat="46.0179695" lon="11.2924714" />
      <trkpt lat="46.0180112" lon="11.2923515" />
      <trkpt lat="46.0180244" lon="11.2922908" />
      <trkpt lat="46.0181028" lon="11.2920184" />
      <trkpt lat="46.0180244" lon="11.2922908" />
      <trkpt lat="46.0180112" lon="11.2923515" />
      <trkpt lat="46.0179695" lon="11.2924714" />
      <trkpt lat="46.0178524" lon="11.2927823" />
      <trkpt lat="46.0176519" lon="11.2933103" />
      <trkpt lat="46.0175692" lon="11.2934869" />
      <trkpt lat="46.0174817" lon="11.2936170" />
      <trkpt lat="46.0173871" lon="11.2937052" />
      <trkpt lat="46.0173430" lon="11.2937574" />
      <trkpt lat="46.0172495" lon="11.2938798" />
      <trkpt lat="46.0170422" lon="11.2943575" />
      <trkpt lat="46.0169304" lon="11.2945945" />
      <trkpt lat="46.0166634" lon="11.2943853" />
      <trkpt lat="46.0165815" lon="11.2945784" />
      <trkpt lat="46.0164485" lon="11.2947194" />
      <trkpt lat="46.0163501" lon="11.2946240" />
      <trkpt lat="46.0163044" lon="11.2945247" />
      <trkpt lat="46.0162323" lon="11.2941864" />
      <trkpt lat="46.0161019" lon="11.2939130" />
      <trkpt lat="46.0158371" lon="11.2934691" />
      <trkpt lat="46.0157817" lon="11.2935851" />
      <trkpt lat="46.0156633" lon="11.2937085" />
      <trkpt lat="46.0154496" lon="11.2939212" />
      <trkpt lat="46.0154776" lon="11.2940381" />
      <trkpt lat="46.0154632" lon="11.2942013" />
      <trkpt lat="46.0154342" lon="11.2944115" />
      <trkpt lat="46.0154028" lon="11.2944370" />
      <trkpt lat="46.0152268" lon="11.2945032" />
      <trkpt lat="46.0149698" lon="11.2945964" />
      <trkpt lat="46.0147204" lon="11.2946646" />
      <trkpt lat="46.0149698" lon="11.2945964" />
      <trkpt lat="46.0152268" lon="11.2945032" />
      <trkpt lat="46.0154028" lon="11.2944370" />
      <trkpt lat="46.0154004" lon="11.2945721" />
      <trkpt lat="46.0152866" lon="11.2949696" />
      <trkpt lat="46.0151223" lon="11.2951830" />
      <trkpt lat="46.0149883" lon="11.2953797" />
      <trkpt lat="46.0148171" lon="11.2956264" />
      <trkpt lat="46.0146129" lon="11.2958593" />
      <trkpt lat="46.0144424" lon="11.2961166" />
      <trkpt lat="46.0141592" lon="11.2965634" />
      <trkpt lat="46.0141552" lon="11.2966227" />
      <trkpt lat="46.0141572" lon="11.2966653" />
      <trkpt lat="46.0141646" lon="11.2967071" />
      <trkpt lat="46.0140508" lon="11.2967979" />
      <trkpt lat="46.0140627" lon="11.2968161" />
      <trkpt lat="46.0140812" lon="11.2968272" />
      <trkpt lat="46.0141489" lon="11.2968261" />
      <trkpt lat="46.0143698" lon="11.2967863" />
      <trkpt lat="46.0144941" lon="11.2967329" />
      <trkpt lat="46.0147829" lon="11.2966885" />
      <trkpt lat="46.0149241" lon="11.2966919" />
      <trkpt lat="46.0151964" lon="11.2967112" />
      <trkpt lat="46.0155617" lon="11.2967634" />
      <trkpt lat="46.0158035" lon="11.2968203" />
      <trkpt lat="46.0159253" lon="11.2968559" />
      <trkpt lat="46.0163877" lon="11.2969577" />
      <trkpt lat="46.0165750" lon="11.2969819" />
      <trkpt lat="46.0166415" lon="11.2972575" />
      <trkpt lat="46.0167150" lon="11.2974094" />
      <trkpt lat="46.0168652" lon="11.2976236" />
      <trkpt lat="46.0170572" lon="11.2978665" />
      <trkpt lat="46.0168652" lon="11.2976236" />
      <trkpt lat="46.0167150" lon="11.2974094" />
      <trkpt lat="46.0166415" lon="11.2972575" />
      <trkpt lat="46.0165750" lon="11.2969819" />
      <trkpt lat="46.0163877" lon="11.2969577" />
      <trkpt lat="46.0159253" lon="11.2968559" />
      <trkpt lat="46.0158035" lon="11.2968203" />
      <trkpt lat="46.0155617" lon="11.2967634" />
      <trkpt lat="46.0151964" lon="11.2967112" />
      <trkpt lat="46.0149241" lon="11.2966919" />
      <trkpt lat="46.0147829" lon="11.2966885" />
      <trkpt lat="46.0144941" lon="11.2967329" />
      <trkpt lat="46.0143698" lon="11.2967863" />
      <trkpt lat="46.0141489" lon="11.2968261" />
      <trkpt lat="46.0140812" lon="11.2968272" />
      <trkpt lat="46.0140627" lon="11.2968161" />
      <trkpt lat="46.0140508" lon="11.2967979" />
      <trkpt lat="46.0139217" lon="11.2968977" />
      <trkpt lat="46.0138620" lon="11.2969480" />
      <trkpt lat="46.0136995" lon="11.2970791" />
      <trkpt lat="46.0136602" lon="11.2971080" />
      <trkpt lat="46.0133097" lon="11.2974064" />
      <trkpt lat="46.0132414" lon="11.2974829" />
      <trkpt lat="46.0131919" lon="11.2975460" />
      <trkpt lat="46.0131199" lon="11.2976603" />
      <trkpt lat="46.0130468" lon="11.2977714" />
      <trkpt lat="46.0129712" lon="11.2978899" />
      <trkpt lat="46.0129449" lon="11.2977945" />
      <trkpt lat="46.0127363" lon="11.2973759" />
      <trkpt lat="46.0129449" lon="11.2977945" />
      <trkpt lat="46.0129712" lon="11.2978899" />
      <trkpt lat="46.0128770" lon="11.2979586" />
      <trkpt lat="46.0128013" lon="11.2980024" />
      <trkpt lat="46.0127682" lon="11.2980215" />
      <trkpt lat="46.0125364" lon="11.2982718" />
      <trkpt lat="46.0123552" lon="11.2985082" />
    </trkseg>
  </trk>
</gpx>
