<?xml version="1.0" encoding="UTF-8"?>
<gpx xmlns="http://www.topografix.com/GPX/1/1" version="1.1" creator="ShapeRoute route-engine">
  <metadata>
    <name>fish 10 km · 2026-09-24</name>
    <author>
      <name>ShapeRoute route-engine</name>
    </author>
    <copyright author="OpenStreetMap contributors">
      <license>https://opendatacommons.org/licenses/odbl/1-0/</license>
    </copyright>
    <link href="https://www.openstreetmap.org/copyright">
      <text>© OpenStreetMap contributors</text>
    </link>
    <time>2026-09-24T06:38:34Z</time>
  </metadata>
  <trk>
    <name>fish 10 km · 2026-09-24</name>
    <trkseg>
      <trkpt lat="46.0668711" lon="11.1210492" />
      <trkpt lat="46.0668249" lon="11.1206182" />
      <trkpt lat="46.0667816" lon="11.1201952" />
      <trkpt lat="46.0667099" lon="11.1201551" />
      <trkpt lat="46.0666578" lon="11.1196518" />
      <trkpt lat="46.0666065" lon="11.1191557" />
      <trkpt lat="46.0665858" lon="11.1191592" />
      <trkpt lat="46.0665730" lon="11.1190499" />
      <trkpt lat="46.0665603" lon="11.1189419" />
      <trkpt lat="46.0666159" lon="11.1189281" />
      <trkpt lat="46.0664861" lon="11.1175884" />
      <trkpt lat="46.0664740" lon="11.1175211" />
      <trkpt lat="46.0664548" lon="11.1175120" />
      <trkpt lat="46.0664518" lon="11.1174437" />
      <trkpt lat="46.0664459" lon="11.1173714" />
      <trkpt lat="46.0664553" lon="11.1173406" />
      <trkpt lat="46.0664518" lon="11.1172941" />
      <trkpt lat="46.0664295" lon="11.1170349" />
      <trkpt lat="46.0664216" lon="11.1169920" />
      <trkpt lat="46.0664228" lon="11.1169318" />
      <trkpt lat="46.0664265" lon="11.1168526" />
      <trkpt lat="46.0664206" lon="11.1167830" />
      <trkpt lat="46.0663304" lon="11.1158787" />
      <trkpt lat="46.0662859" lon="11.1154964" />
      <trkpt lat="46.0662780" lon="11.1154225" />
      <trkpt lat="46.0662149" lon="11.1148160" />
      <trkpt lat="46.0662068" lon="11.1148053" />
      <trkpt lat="46.0661796" lon="11.1145362" />
      <trkpt lat="46.0662432" lon="11.1145505" />
      <trkpt lat="46.0663055" lon="11.1145612" />
      <trkpt lat="46.0663315" lon="11.1145516" />
      <trkpt lat="46.0663506" lon="11.1145446" />
      <trkpt lat="46.0663840" lon="11.1145473" />
      <trkpt lat="46.0664895" lon="11.1145858" />
      <trkpt lat="46.0668587" lon="11.1147689" />
      <trkpt lat="46.0669080" lon="11.1147934" />
      <trkpt lat="46.0669565" lon="11.1148188" />
      <trkpt lat="46.0677254" lon="11.1152228" />
      <trkpt lat="46.0677326" lon="11.1152266" />
      <trkpt lat="46.0677902" lon="11.1152526" />
      <trkpt lat="46.0679464" lon="11.1153270" />
      <trkpt lat="46.0679492" lon="11.1152645" />
      <trkpt lat="46.0679464" lon="11.1152036" />
      <trkpt lat="46.0679385" lon="11.1151351" />
      <trkpt lat="46.0679274" lon="11.1150878" />
      <trkpt lat="46.0679084" lon="11.1150043" />
      <trkpt lat="46.0679160" lon="11.1146998" />
      <trkpt lat="46.0680007" lon="11.1147262" />
      <trkpt lat="46.0682349" lon="11.1148330" />
      <trkpt lat="46.0684652" lon="11.1149557" />
      <trkpt lat="46.0693015" lon="11.1154028" />
      <trkpt lat="46.0695281" lon="11.1155240" />
      <trkpt lat="46.0698128" lon="11.1156739" />
      <trkpt lat="46.0698998" lon="11.1157127" />
      <trkpt lat="46.0699151" lon="11.1156990" />
      <trkpt lat="46.0702467" lon="11.1144529" />
      <trkpt lat="46.0702508" lon="11.1144356" />
      <trkpt lat="46.0702350" lon="11.1143612" />
      <trkpt lat="46.0702262" lon="11.1143187" />
      <trkpt lat="46.0702122" lon="11.1142749" />
      <trkpt lat="46.0701963" lon="11.1142414" />
      <trkpt lat="46.0701713" lon="11.1142018" />
      <trkpt lat="46.0701826" lon="11.1141474" />
      <trkpt lat="46.0701933" lon="11.1141300" />
      <trkpt lat="46.0702038" lon="11.1140736" />
      <trkpt lat="46.0702044" lon="11.1140479" />
      <trkpt lat="46.0702044" lon="11.1139869" />
      <trkpt lat="46.0701824" lon="11.1139941" />
      <trkpt lat="46.0701414" lon="11.1139943" />
      <trkpt lat="46.0701004" lon="11.1139878" />
      <trkpt lat="46.0698971" lon="11.1138947" />
      <trkpt lat="46.0693839" lon="11.1136877" />
      <trkpt lat="46.0693165" lon="11.1136571" />
      <trkpt lat="46.0691549" lon="11.1135817" />
      <trkpt lat="46.0691420" lon="11.1135756" />
      <trkpt lat="46.0689402" lon="11.1134705" />
      <trkpt lat="46.0689108" lon="11.1132998" />
      <trkpt lat="46.0688916" lon="11.1131872" />
      <trkpt lat="46.0688901" lon="11.1131189" />
      <trkpt lat="46.0687933" lon="11.1129260" />
      <trkpt lat="46.0684688" lon="11.1122666" />
      <trkpt lat="46.0683512" lon="11.1123880" />
      <trkpt lat="46.0687824" lon="11.1132301" />
      <trkpt lat="46.0688182" lon="11.1132474" />
      <trkpt lat="46.0688633" lon="11.1132603" />
      <trkpt lat="46.0688728" lon="11.1133145" />
      <trkpt lat="46.0688742" lon="11.1133928" />
      <trkpt lat="46.0688616" lon="11.1134384" />
      <trkpt lat="46.0687718" lon="11.1133981" />
      <trkpt lat="46.0686253" lon="11.1133238" />
      <trkpt lat="46.0685193" lon="11.1132700" />
      <trkpt lat="46.0685063" lon="11.1132629" />
      <trkpt lat="46.0685121" lon="11.1132361" />
      <trkpt lat="46.0685128" lon="11.1131975" />
      <trkpt lat="46.0685085" lon="11.1131533" />
      <trkpt lat="46.0684969" lon="11.1130964" />
      <trkpt lat="46.0684835" lon="11.1130467" />
      <trkpt lat="46.0683564" lon="11.1127915" />
      <trkpt lat="46.0681223" lon="11.1126059" />
      <trkpt lat="46.0681958" lon="11.1125499" />
      <trkpt lat="46.0682241" lon="11.1125259" />
      <trkpt lat="46.0678257" lon="11.1117174" />
      <trkpt lat="46.0676980" lon="11.1114593" />
      <trkpt lat="46.0675851" lon="11.1115627" />
      <trkpt lat="46.0675665" lon="11.1115761" />
      <trkpt lat="46.0675460" lon="11.1115895" />
      <trkpt lat="46.0675265" lon="11.1115975" />
      <trkpt lat="46.0675042" lon="11.1116002" />
      <trkpt lat="46.0674885" lon="11.1115995" />
      <trkpt lat="46.0671219" lon="11.1115940" />
      <trkpt lat="46.0666314" lon="11.1115567" />
      <trkpt lat="46.0664056" lon="11.1115441" />
      <trkpt lat="46.0663969" lon="11.1115653" />
      <trkpt lat="46.0663913" lon="11.1116056" />
      <trkpt lat="46.0663848" lon="11.1116740" />
      <trkpt lat="46.0663792" lon="11.1120025" />
      <trkpt lat="46.0663810" lon="11.1121917" />
      <trkpt lat="46.0663686" lon="11.1122400" />
      <trkpt lat="46.0663234" lon="11.1122960" />
      <trkpt lat="46.0662549" lon="11.1123373" />
      <trkpt lat="46.0663458" lon="11.1123873" />
      <trkpt lat="46.0664459" lon="11.1124424" />
      <trkpt lat="46.0666378" lon="11.1125382" />
      <trkpt lat="46.0671655" lon="11.1127930" />
      <trkpt lat="46.0673664" lon="11.1128912" />
      <trkpt lat="46.0673536" lon="11.1129461" />
      <trkpt lat="46.0673455" lon="11.1129810" />
      <trkpt lat="46.0669326" lon="11.1127701" />
      <trkpt lat="46.0665617" lon="11.1125893" />
      <trkpt lat="46.0660642" lon="11.1123444" />
      <trkpt lat="46.0659448" lon="11.1122803" />
      <trkpt lat="46.0657475" lon="11.1121655" />
      <trkpt lat="46.0654497" lon="11.1120193" />
      <trkpt lat="46.0650129" lon="11.1118153" />
      <trkpt lat="46.0645481" lon="11.1116363" />
      <trkpt lat="46.0637341" lon="11.1113826" />
      <trkpt lat="46.0632642" lon="11.1112501" />
      <trkpt lat="46.0627373" lon="11.1111248" />
      <trkpt lat="46.0625659" lon="11.1110885" />
      <trkpt lat="46.0623999" lon="11.1110614" />
      <trkpt lat="46.0620459" lon="11.1109974" />
      <trkpt lat="46.0619551" lon="11.1109905" />
      <trkpt lat="46.0618733" lon="11.1109959" />
      <trkpt lat="46.0616625" lon="11.1109625" />
      <trkpt lat="46.0614099" lon="11.1109141" />
      <trkpt lat="46.0611232" lon="11.1108706" />
      <trkpt lat="46.0606705" lon="11.1107908" />
      <trkpt lat="46.0600307" lon="11.1107022" />
      <trkpt lat="46.0593786" lon="11.1106518" />
      <trkpt lat="46.0593801" lon="11.1106811" />
      <trkpt lat="46.0594804" lon="11.1121372" />
      <trkpt lat="46.0594812" lon="11.1121658" />
      <trkpt lat="46.0594860" lon="11.1122524" />
      <trkpt lat="46.0595011" lon="11.1125259" />
      <trkpt lat="46.0600073" lon="11.1125645" />
      <trkpt lat="46.0605162" lon="11.1125968" />
      <trkpt lat="46.0610109" lon="11.1126279" />
      <trkpt lat="46.0610423" lon="11.1126297" />
      <trkpt lat="46.0613534" lon="11.1126473" />
      <trkpt lat="46.0619645" lon="11.1127245" />
      <trkpt lat="46.0620877" lon="11.1127329" />
      <trkpt lat="46.0621320" lon="11.1127376" />
      <trkpt lat="46.0622220" lon="11.1127150" />
      <trkpt lat="46.0622689" lon="11.1127093" />
      <trkpt lat="46.0623154" lon="11.1127240" />
      <trkpt lat="46.0623869" lon="11.1127798" />
      <trkpt lat="46.0625249" lon="11.1128273" />
      <trkpt lat="46.0627771" lon="11.1128789" />
      <trkpt lat="46.0629606" lon="11.1129202" />
      <trkpt lat="46.0633313" lon="11.1130252" />
      <trkpt lat="46.0633193" lon="11.1131060" />
      <trkpt lat="46.0631222" lon="11.1130525" />
      <trkpt lat="46.0628109" lon="11.1129723" />
      <trkpt lat="46.0625526" lon="11.1129237" />
      <trkpt lat="46.0624830" lon="11.1129005" />
      <trkpt lat="46.0623969" lon="11.1128608" />
      <trkpt lat="46.0623080" lon="11.1128204" />
      <trkpt lat="46.0623229" lon="11.1128374" />
      <trkpt lat="46.0623354" lon="11.1128582" />
      <trkpt lat="46.0623446" lon="11.1128809" />
      <trkpt lat="46.0623508" lon="11.1129055" />
      <trkpt lat="46.0623538" lon="11.1129314" />
      <trkpt lat="46.0623536" lon="11.1129576" />
      <trkpt lat="46.0623501" lon="11.1129834" />
      <trkpt lat="46.0623434" lon="11.1130078" />
      <trkpt lat="46.0623339" lon="11.1130301" />
      <trkpt lat="46.0623217" lon="11.1130495" />
      <trkpt lat="46.0623127" lon="11.1130601" />
      <trkpt lat="46.0622972" lon="11.1131488" />
      <trkpt lat="46.0622883" lon="11.1131807" />
      <trkpt lat="46.0622689" lon="11.1131729" />
      <trkpt lat="46.0622565" lon="11.1131685" />
      <trkpt lat="46.0622459" lon="11.1131747" />
      <trkpt lat="46.0622260" lon="11.1131862" />
      <trkpt lat="46.0621990" lon="11.1132050" />
      <trkpt lat="46.0621715" lon="11.1131360" />
      <trkpt lat="46.0621347" lon="11.1130679" />
      <trkpt lat="46.0621034" lon="11.1130154" />
      <trkpt lat="46.0620692" lon="11.1129745" />
      <trkpt lat="46.0620169" lon="11.1129246" />
      <trkpt lat="46.0619621" lon="11.1128956" />
      <trkpt lat="46.0618033" lon="11.1128686" />
      <trkpt lat="46.0614768" lon="11.1128432" />
      <trkpt lat="46.0610254" lon="11.1128130" />
      <trkpt lat="46.0610109" lon="11.1126279" />
      <trkpt lat="46.0609887" lon="11.1122398" />
      <trkpt lat="46.0604874" lon="11.1122210" />
      <trkpt lat="46.0599813" lon="11.1121852" />
      <trkpt lat="46.0595430" lon="11.1121682" />
      <trkpt lat="46.0594860" lon="11.1122524" />
      <trkpt lat="46.0595011" lon="11.1125259" />
      <trkpt lat="46.0594765" lon="11.1125262" />
      <trkpt lat="46.0583952" lon="11.1124558" />
      <trkpt lat="46.0583943" lon="11.1125574" />
      <trkpt lat="46.0583932" lon="11.1126167" />
      <trkpt lat="46.0583462" lon="11.1126125" />
      <trkpt lat="46.0582967" lon="11.1126081" />
      <trkpt lat="46.0582649" lon="11.1126053" />
      <trkpt lat="46.0573856" lon="11.1125479" />
      <trkpt lat="46.0573464" lon="11.1125459" />
      <trkpt lat="46.0573151" lon="11.1125443" />
      <trkpt lat="46.0571199" lon="11.1125299" />
      <trkpt lat="46.0571223" lon="11.1124710" />
      <trkpt lat="46.0571265" lon="11.1123712" />
      <trkpt lat="46.0583952" lon="11.1124558" />
      <trkpt lat="46.0583943" lon="11.1125574" />
      <trkpt lat="46.0583932" lon="11.1126167" />
      <trkpt lat="46.0585866" lon="11.1126234" />
      <trkpt lat="46.0585865" lon="11.1126407" />
      <trkpt lat="46.0585896" lon="11.1128142" />
      <trkpt lat="46.0586013" lon="11.1138978" />
      <trkpt lat="46.0586025" lon="11.1142396" />
      <trkpt lat="46.0586670" lon="11.1142227" />
      <trkpt lat="46.0589886" lon="11.1141188" />
      <trkpt lat="46.0590238" lon="11.1140969" />
      <trkpt lat="46.0590485" lon="11.1140876" />
      <trkpt lat="46.0591002" lon="11.1140813" />
      <trkpt lat="46.0591340" lon="11.1140740" />
      <trkpt lat="46.0591393" lon="11.1144647" />
      <trkpt lat="46.0591472" lon="11.1148142" />
      <trkpt lat="46.0591061" lon="11.1148199" />
      <trkpt lat="46.0591070" lon="11.1148572" />
      <trkpt lat="46.0591085" lon="11.1148873" />
      <trkpt lat="46.0591155" lon="11.1152755" />
      <trkpt lat="46.0591385" lon="11.1152736" />
      <trkpt lat="46.0591563" lon="11.1152721" />
      <trkpt lat="46.0591637" lon="11.1155638" />
      <trkpt lat="46.0591949" lon="11.1155876" />
      <trkpt lat="46.0592525" lon="11.1156314" />
      <trkpt lat="46.0593927" lon="11.1157435" />
      <trkpt lat="46.0595837" lon="11.1158552" />
      <trkpt lat="46.0596380" lon="11.1158637" />
      <trkpt lat="46.0596356" lon="11.1158808" />
      <trkpt lat="46.0596283" lon="11.1159318" />
      <trkpt lat="46.0596232" lon="11.1159672" />
      <trkpt lat="46.0596214" lon="11.1159799" />
      <trkpt lat="46.0596135" lon="11.1160344" />
      <trkpt lat="46.0596417" lon="11.1160436" />
      <trkpt lat="46.0596660" lon="11.1160623" />
      <trkpt lat="46.0596863" lon="11.1160996" />
      <trkpt lat="46.0597036" lon="11.1161407" />
      <trkpt lat="46.0597149" lon="11.1161927" />
      <trkpt lat="46.0597234" lon="11.1162671" />
      <trkpt lat="46.0597404" lon="11.1165261" />
      <trkpt lat="46.0597506" lon="11.1166640" />
      <trkpt lat="46.0597721" lon="11.1168495" />
      <trkpt lat="46.0598661" lon="11.1175765" />
      <trkpt lat="46.0598831" lon="11.1177082" />
      <trkpt lat="46.0599230" lon="11.1185401" />
      <trkpt lat="46.0599183" lon="11.1185811" />
      <trkpt lat="46.0599034" lon="11.1186373" />
      <trkpt lat="46.0598898" lon="11.1186566" />
      <trkpt lat="46.0599054" lon="11.1186811" />
      <trkpt lat="46.0599210" lon="11.1187056" />
      <trkpt lat="46.0599411" lon="11.1187314" />
      <trkpt lat="46.0599731" lon="11.1187389" />
      <trkpt lat="46.0599682" lon="11.1188002" />
      <trkpt lat="46.0599671" lon="11.1188682" />
      <trkpt lat="46.0599812" lon="11.1189057" />
      <trkpt lat="46.0599872" lon="11.1189398" />
      <trkpt lat="46.0599892" lon="11.1189781" />
      <trkpt lat="46.0599856" lon="11.1190148" />
      <trkpt lat="46.0599739" lon="11.1190512" />
      <trkpt lat="46.0599572" lon="11.1190813" />
      <trkpt lat="46.0599402" lon="11.1191022" />
      <trkpt lat="46.0599180" lon="11.1191142" />
      <trkpt lat="46.0598960" lon="11.1191215" />
      <trkpt lat="46.0598769" lon="11.1191229" />
      <trkpt lat="46.0598630" lon="11.1191620" />
      <trkpt lat="46.0598445" lon="11.1192270" />
      <trkpt lat="46.0598395" lon="11.1192833" />
      <trkpt lat="46.0598452" lon="11.1193238" />
      <trkpt lat="46.0598011" lon="11.1193380" />
      <trkpt lat="46.0598386" lon="11.1195324" />
      <trkpt lat="46.0598691" lon="11.1196907" />
      <trkpt lat="46.0599094" lon="11.1198994" />
      <trkpt lat="46.0599196" lon="11.1199536" />
      <trkpt lat="46.0591334" lon="11.1202676" />
      <trkpt lat="46.0591415" lon="11.1203149" />
      <trkpt lat="46.0591411" lon="11.1203329" />
      <trkpt lat="46.0591466" lon="11.1203615" />
      <trkpt lat="46.0592676" lon="11.1209984" />
      <trkpt lat="46.0592121" lon="11.1210181" />
      <trkpt lat="46.0592102" lon="11.1210453" />
      <trkpt lat="46.0592066" lon="11.1210726" />
      <trkpt lat="46.0591963" lon="11.1210946" />
      <trkpt lat="46.0591804" lon="11.1211130" />
      <trkpt lat="46.0591358" lon="11.1211309" />
      <trkpt lat="46.0587253" lon="11.1212955" />
      <trkpt lat="46.0585022" lon="11.1213850" />
      <trkpt lat="46.0583267" lon="11.1214554" />
      <trkpt lat="46.0583365" lon="11.1215291" />
      <trkpt lat="46.0583258" lon="11.1215660" />
      <trkpt lat="46.0584851" lon="11.1223788" />
      <trkpt lat="46.0584235" lon="11.1224163" />
      <trkpt lat="46.0584341" lon="11.1224777" />
      <trkpt lat="46.0584527" lon="11.1225748" />
      <trkpt lat="46.0584623" lon="11.1226185" />
      <trkpt lat="46.0584710" lon="11.1226610" />
      <trkpt lat="46.0584528" lon="11.1226739" />
      <trkpt lat="46.0584384" lon="11.1226945" />
      <trkpt lat="46.0584296" lon="11.1227208" />
      <trkpt lat="46.0584271" lon="11.1227497" />
      <trkpt lat="46.0584313" lon="11.1227783" />
      <trkpt lat="46.0584424" lon="11.1228044" />
      <trkpt lat="46.0584589" lon="11.1228235" />
      <trkpt lat="46.0584790" lon="11.1228333" />
      <trkpt lat="46.0586192" lon="11.1235598" />
      <trkpt lat="46.0587532" lon="11.1242783" />
      <trkpt lat="46.0587785" lon="11.1244138" />
      <trkpt lat="46.0588061" lon="11.1244923" />
      <trkpt lat="46.0588207" lon="11.1245214" />
      <trkpt lat="46.0588068" lon="11.1245782" />
      <trkpt lat="46.0588710" lon="11.1249462" />
      <trkpt lat="46.0588741" lon="11.1250093" />
      <trkpt lat="46.0588790" lon="11.1250706" />
      <trkpt lat="46.0588922" lon="11.1253216" />
      <trkpt lat="46.0589046" lon="11.1256300" />
      <trkpt lat="46.0589161" lon="11.1259789" />
      <trkpt lat="46.0589234" lon="11.1260169" />
      <trkpt lat="46.0588846" lon="11.1260221" />
      <trkpt lat="46.0588869" lon="11.1260524" />
      <trkpt lat="46.0589498" lon="11.1261532" />
      <trkpt lat="46.0589639" lon="11.1262086" />
      <trkpt lat="46.0590992" lon="11.1264946" />
      <trkpt lat="46.0591228" lon="11.1264697" />
      <trkpt lat="46.0591352" lon="11.1264946" />
      <trkpt lat="46.0591348" lon="11.1265101" />
      <trkpt lat="46.0591308" lon="11.1265272" />
      <trkpt lat="46.0591209" lon="11.1265390" />
      <trkpt lat="46.0591309" lon="11.1265601" />
      <trkpt lat="46.0591672" lon="11.1265224" />
      <trkpt lat="46.0591874" lon="11.1265638" />
      <trkpt lat="46.0588911" lon="11.1268848" />
      <trkpt lat="46.0588261" lon="11.1269596" />
      <trkpt lat="46.0588424" lon="11.1269858" />
      <trkpt lat="46.0588619" lon="11.1270173" />
      <trkpt lat="46.0588908" lon="11.1270638" />
      <trkpt lat="46.0589008" lon="11.1270798" />
      <trkpt lat="46.0588891" lon="11.1270924" />
      <trkpt lat="46.0587541" lon="11.1272559" />
      <trkpt lat="46.0587512" lon="11.1272621" />
      <trkpt lat="46.0587537" lon="11.1272716" />
      <trkpt lat="46.0587722" lon="11.1273023" />
      <trkpt lat="46.0587940" lon="11.1273741" />
      <trkpt lat="46.0588957" lon="11.1275222" />
      <trkpt lat="46.0588715" lon="11.1275629" />
      <trkpt lat="46.0589913" lon="11.1277325" />
      <trkpt lat="46.0590407" lon="11.1278024" />
      <trkpt lat="46.0591810" lon="11.1280011" />
      <trkpt lat="46.0591896" lon="11.1280247" />
      <trkpt lat="46.0592015" lon="11.1280728" />
      <trkpt lat="46.0592006" lon="11.1281064" />
      <trkpt lat="46.0591950" lon="11.1281393" />
      <trkpt lat="46.0591897" lon="11.1281682" />
      <trkpt lat="46.0591808" lon="11.1281945" />
      <trkpt lat="46.0591687" lon="11.1282120" />
      <trkpt lat="46.0589945" lon="11.1284648" />
      <trkpt lat="46.0588835" lon="11.1286353" />
      <trkpt lat="46.0588227" lon="11.1287495" />
      <trkpt lat="46.0587894" lon="11.1288240" />
      <trkpt lat="46.0587611" lon="11.1288978" />
      <trkpt lat="46.0587446" lon="11.1289533" />
      <trkpt lat="46.0587678" lon="11.1289793" />
      <trkpt lat="46.0586979" lon="11.1292643" />
      <trkpt lat="46.0586170" lon="11.1295928" />
      <trkpt lat="46.0583750" lon="11.1305034" />
      <trkpt lat="46.0583533" lon="11.1305912" />
      <trkpt lat="46.0583157" lon="11.1307408" />
      <trkpt lat="46.0582504" lon="11.1310088" />
      <trkpt lat="46.0581855" lon="11.1312753" />
      <trkpt lat="46.0581490" lon="11.1313857" />
      <trkpt lat="46.0581390" lon="11.1314252" />
      <trkpt lat="46.0580554" lon="11.1317883" />
      <trkpt lat="46.0581001" lon="11.1318051" />
      <trkpt lat="46.0580417" lon="11.1320633" />
      <trkpt lat="46.0580343" lon="11.1321014" />
      <trkpt lat="46.0580322" lon="11.1321510" />
      <trkpt lat="46.0579829" lon="11.1323672" />
      <trkpt lat="46.0579452" lon="11.1324515" />
      <trkpt lat="46.0579387" lon="11.1324800" />
      <trkpt lat="46.0579339" lon="11.1325063" />
      <trkpt lat="46.0579443" lon="11.1325262" />
      <trkpt lat="46.0579696" lon="11.1325600" />
      <trkpt lat="46.0579931" lon="11.1326134" />
      <trkpt lat="46.0580074" lon="11.1326629" />
      <trkpt lat="46.0580148" lon="11.1327110" />
      <trkpt lat="46.0580218" lon="11.1327749" />
      <trkpt lat="46.0580103" lon="11.1328510" />
      <trkpt lat="46.0580306" lon="11.1328612" />
      <trkpt lat="46.0580179" lon="11.1329138" />
      <trkpt lat="46.0580345" lon="11.1329213" />
      <trkpt lat="46.0580661" lon="11.1329611" />
      <trkpt lat="46.0583643" lon="11.1330759" />
      <trkpt lat="46.0584007" lon="11.1330709" />
      <trkpt lat="46.0584831" lon="11.1331017" />
      <trkpt lat="46.0585567" lon="11.1331267" />
      <trkpt lat="46.0586413" lon="11.1331554" />
      <trkpt lat="46.0586458" lon="11.1331936" />
      <trkpt lat="46.0586427" lon="11.1332594" />
      <trkpt lat="46.0586077" lon="11.1335117" />
      <trkpt lat="46.0585992" lon="11.1335697" />
      <trkpt lat="46.0585431" lon="11.1339393" />
      <trkpt lat="46.0585150" lon="11.1341345" />
      <trkpt lat="46.0584591" lon="11.1345221" />
      <trkpt lat="46.0584467" lon="11.1346079" />
      <trkpt lat="46.0583623" lon="11.1351341" />
      <trkpt lat="46.0583936" lon="11.1351420" />
      <trkpt lat="46.0584185" lon="11.1351469" />
      <trkpt lat="46.0584375" lon="11.1351809" />
      <trkpt lat="46.0591816" lon="11.1351951" />
      <trkpt lat="46.0592491" lon="11.1351965" />
      <trkpt lat="46.0592462" lon="11.1352539" />
      <trkpt lat="46.0592437" lon="11.1353074" />
      <trkpt lat="46.0591741" lon="11.1353047" />
      <trkpt lat="46.0591725" lon="11.1353249" />
      <trkpt lat="46.0591385" lon="11.1357545" />
      <trkpt lat="46.0595537" lon="11.1358172" />
      <trkpt lat="46.0597166" lon="11.1358183" />
      <trkpt lat="46.0597557" lon="11.1357861" />
      <trkpt lat="46.0597656" lon="11.1357717" />
      <trkpt lat="46.0598149" lon="11.1356995" />
      <trkpt lat="46.0598436" lon="11.1356627" />
      <trkpt lat="46.0600056" lon="11.1355702" />
      <trkpt lat="46.0600376" lon="11.1355215" />
      <trkpt lat="46.0600650" lon="11.1354562" />
      <trkpt lat="46.0601047" lon="11.1353403" />
      <trkpt lat="46.0602497" lon="11.1353433" />
      <trkpt lat="46.0603126" lon="11.1353395" />
      <trkpt lat="46.0606527" lon="11.1353513" />
      <trkpt lat="46.0606811" lon="11.1353524" />
      <trkpt lat="46.0607061" lon="11.1353528" />
      <trkpt lat="46.0607482" lon="11.1353535" />
      <trkpt lat="46.0607487" lon="11.1353311" />
      <trkpt lat="46.0607494" lon="11.1352953" />
      <trkpt lat="46.0607496" lon="11.1352718" />
      <trkpt lat="46.0607498" lon="11.1352484" />
      <trkpt lat="46.0611598" lon="11.1352591" />
      <trkpt lat="46.0612060" lon="11.1352626" />
      <trkpt lat="46.0616695" lon="11.1352707" />
      <trkpt lat="46.0616740" lon="11.1351219" />
      <trkpt lat="46.0617236" lon="11.1351221" />
      <trkpt lat="46.0617233" lon="11.1353284" />
      <trkpt lat="46.0617225" lon="11.1357159" />
      <trkpt lat="46.0617213" lon="11.1364198" />
      <trkpt lat="46.0617183" lon="11.1365075" />
      <trkpt lat="46.0617241" lon="11.1365907" />
      <trkpt lat="46.0617325" lon="11.1366438" />
      <trkpt lat="46.0617524" lon="11.1367326" />
      <trkpt lat="46.0617741" lon="11.1367771" />
      <trkpt lat="46.0617927" lon="11.1368040" />
      <trkpt lat="46.0618056" lon="11.1368227" />
      <trkpt lat="46.0618259" lon="11.1368397" />
      <trkpt lat="46.0618627" lon="11.1368455" />
      <trkpt lat="46.0618985" lon="11.1368357" />
      <trkpt lat="46.0619089" lon="11.1368943" />
      <trkpt lat="46.0620233" lon="11.1368443" />
      <trkpt lat="46.0620814" lon="11.1368136" />
      <trkpt lat="46.0621447" lon="11.1367745" />
      <trkpt lat="46.0622132" lon="11.1367294" />
      <trkpt lat="46.0626662" lon="11.1363977" />
      <trkpt lat="46.0628359" lon="11.1362712" />
      <trkpt lat="46.0628595" lon="11.1362101" />
      <trkpt lat="46.0628776" lon="11.1361623" />
      <trkpt lat="46.0628823" lon="11.1361027" />
      <trkpt lat="46.0628792" lon="11.1360455" />
      <trkpt lat="46.0628707" lon="11.1360076" />
      <trkpt lat="46.0628595" lon="11.1359746" />
      <trkpt lat="46.0628585" lon="11.1359598" />
      <trkpt lat="46.0628621" lon="11.1359507" />
      <trkpt lat="46.0628416" lon="11.1358957" />
      <trkpt lat="46.0628263" lon="11.1358533" />
      <trkpt lat="46.0627778" lon="11.1358520" />
      <trkpt lat="46.0626246" lon="11.1356817" />
      <trkpt lat="46.0625595" lon="11.1356153" />
      <trkpt lat="46.0624443" lon="11.1355183" />
      <trkpt lat="46.0623426" lon="11.1354487" />
      <trkpt lat="46.0623180" lon="11.1354315" />
      <trkpt lat="46.0624754" lon="11.1348748" />
      <trkpt lat="46.0625081" lon="11.1348081" />
      <trkpt lat="46.0627322" lon="11.1344744" />
      <trkpt lat="46.0627621" lon="11.1345177" />
      <trkpt lat="46.0629316" lon="11.1347486" />
      <trkpt lat="46.0629520" lon="11.1347179" />
      <trkpt lat="46.0629823" lon="11.1347616" />
      <trkpt lat="46.0631653" lon="11.1350261" />
      <trkpt lat="46.0631931" lon="11.1350282" />
      <trkpt lat="46.0632217" lon="11.1350092" />
      <trkpt lat="46.0635831" lon="11.1344688" />
      <trkpt lat="46.0636097" lon="11.1344291" />
      <trkpt lat="46.0641230" lon="11.1351879" />
      <trkpt lat="46.0643430" lon="11.1355222" />
      <trkpt lat="46.0644714" lon="11.1357258" />
      <trkpt lat="46.0645097" lon="11.1358120" />
      <trkpt lat="46.0645368" lon="11.1358857" />
      <trkpt lat="46.0645587" lon="11.1359610" />
      <trkpt lat="46.0645803" lon="11.1359489" />
      <trkpt lat="46.0646035" lon="11.1359470" />
      <trkpt lat="46.0646260" lon="11.1359557" />
      <trkpt lat="46.0646454" lon="11.1359741" />
      <trkpt lat="46.0646599" lon="11.1360003" />
      <trkpt lat="46.0646679" lon="11.1360317" />
      <trkpt lat="46.0646688" lon="11.1360651" />
      <trkpt lat="46.0647387" lon="11.1360504" />
      <trkpt lat="46.0647484" lon="11.1360380" />
      <trkpt lat="46.0649149" lon="11.1358081" />
      <trkpt lat="46.0649292" lon="11.1357846" />
      <trkpt lat="46.0649644" lon="11.1357256" />
      <trkpt lat="46.0651345" lon="11.1359714" />
      <trkpt lat="46.0651950" lon="11.1358541" />
      <trkpt lat="46.0652626" lon="11.1357477" />
      <trkpt lat="46.0652875" lon="11.1357100" />
      <trkpt lat="46.0651249" lon="11.1354976" />
      <trkpt lat="46.0651491" lon="11.1354441" />
      <trkpt lat="46.0651792" lon="11.1354971" />
      <trkpt lat="46.0652385" lon="11.1356027" />
      <trkpt lat="46.0653233" lon="11.1356535" />
      <trkpt lat="46.0654566" lon="11.1357405" />
      <trkpt lat="46.0655347" lon="11.1357705" />
      <trkpt lat="46.0657114" lon="11.1358023" />
      <trkpt lat="46.0657128" lon="11.1358240" />
      <trkpt lat="46.0657467" lon="11.1358838" />
      <trkpt lat="46.0657572" lon="11.1359521" />
      <trkpt lat="46.0657268" lon="11.1359380" />
      <trkpt lat="46.0656340" lon="11.1359161" />
      <trkpt lat="46.0655964" lon="11.1359023" />
      <trkpt lat="46.0654938" lon="11.1358506" />
      <trkpt lat="46.0654131" lon="11.1357890" />
      <trkpt lat="46.0653527" lon="11.1357398" />
      <trkpt lat="46.0652385" lon="11.1356027" />
      <trkpt lat="46.0651792" lon="11.1354971" />
      <trkpt lat="46.0651993" lon="11.1354464" />
      <trkpt lat="46.0652294" lon="11.1353876" />
      <trkpt lat="46.0652257" lon="11.1353185" />
      <trkpt lat="46.0652307" lon="11.1351489" />
      <trkpt lat="46.0652582" lon="11.1349182" />
      <trkpt lat="46.0652528" lon="11.1348082" />
      <trkpt lat="46.0652515" lon="11.1347479" />
      <trkpt lat="46.0652661" lon="11.1347473" />
      <trkpt lat="46.0653027" lon="11.1347458" />
      <trkpt lat="46.0653116" lon="11.1347093" />
      <trkpt lat="46.0653728" lon="11.1345987" />
      <trkpt lat="46.0654969" lon="11.1344635" />
      <trkpt lat="46.0656665" lon="11.1342993" />
      <trkpt lat="46.0657486" lon="11.1341604" />
      <trkpt lat="46.0657571" lon="11.1340079" />
      <trkpt lat="46.0657813" lon="11.1338316" />
      <trkpt lat="46.0658182" lon="11.1337106" />
      <trkpt lat="46.0659064" lon="11.1335917" />
      <trkpt lat="46.0659961" lon="11.1335364" />
      <trkpt lat="46.0661184" lon="11.1334666" />
      <trkpt lat="46.0662051" lon="11.1334131" />
      <trkpt lat="46.0662619" lon="11.1333280" />
      <trkpt lat="46.0663238" lon="11.1332178" />
      <trkpt lat="46.0663697" lon="11.1330520" />
      <trkpt lat="46.0663806" lon="11.1329312" />
      <trkpt lat="46.0663643" lon="11.1327481" />
      <trkpt lat="46.0664177" lon="11.1327423" />
      <trkpt lat="46.0664657" lon="11.1327371" />
      <trkpt lat="46.0664829" lon="11.1327440" />
      <trkpt lat="46.0665852" lon="11.1327426" />
      <trkpt lat="46.0666226" lon="11.1327424" />
      <trkpt lat="46.0666480" lon="11.1327144" />
      <trkpt lat="46.0666360" lon="11.1326814" />
      <trkpt lat="46.0666262" lon="11.1325765" />
      <trkpt lat="46.0666377" lon="11.1323946" />
      <trkpt lat="46.0666635" lon="11.1322235" />
      <trkpt lat="46.0667127" lon="11.1320416" />
      <trkpt lat="46.0665804" lon="11.1319119" />
      <trkpt lat="46.0665918" lon="11.1318836" />
      <trkpt lat="46.0665947" lon="11.1318773" />
      <trkpt lat="46.0665417" lon="11.1318344" />
      <trkpt lat="46.0669291" lon="11.1308955" />
      <trkpt lat="46.0669499" lon="11.1308480" />
      <trkpt lat="46.0670662" lon="11.1305822" />
      <trkpt lat="46.0671709" lon="11.1304027" />
      <trkpt lat="46.0676316" lon="11.1297529" />
      <trkpt lat="46.0676905" lon="11.1296887" />
      <trkpt lat="46.0676633" lon="11.1296383" />
      <trkpt lat="46.0677778" lon="11.1295168" />
      <trkpt lat="46.0679083" lon="11.1294018" />
      <trkpt lat="46.0680149" lon="11.1293389" />
      <trkpt lat="46.0682327" lon="11.1292333" />
      <trkpt lat="46.0682264" lon="11.1292093" />
      <trkpt lat="46.0682030" lon="11.1291172" />
      <trkpt lat="46.0681793" lon="11.1290225" />
      <trkpt lat="46.0682011" lon="11.1290129" />
      <trkpt lat="46.0681926" lon="11.1289843" />
      <trkpt lat="46.0681550" lon="11.1288650" />
      <trkpt lat="46.0680624" lon="11.1287669" />
      <trkpt lat="46.0679736" lon="11.1286626" />
      <trkpt lat="46.0678157" lon="11.1284547" />
      <trkpt lat="46.0677852" lon="11.1284430" />
      <trkpt lat="46.0677410" lon="11.1284260" />
      <trkpt lat="46.0675698" lon="11.1282843" />
      <trkpt lat="46.0674041" lon="11.1281471" />
      <trkpt lat="46.0674591" lon="11.1279752" />
      <trkpt lat="46.0674753" lon="11.1278541" />
      <trkpt lat="46.0674621" lon="11.1276608" />
      <trkpt lat="46.0674317" lon="11.1274771" />
      <trkpt lat="46.0674463" lon="11.1273902" />
      <trkpt lat="46.0674624" lon="11.1272949" />
      <trkpt lat="46.0674389" lon="11.1272505" />
      <trkpt lat="46.0674589" lon="11.1270980" />
      <trkpt lat="46.0674142" lon="11.1270839" />
      <trkpt lat="46.0673797" lon="11.1270731" />
      <trkpt lat="46.0673959" lon="11.1269904" />
      <trkpt lat="46.0674238" lon="11.1268989" />
      <trkpt lat="46.0674573" lon="11.1268523" />
      <trkpt lat="46.0675112" lon="11.1268155" />
      <trkpt lat="46.0675228" lon="11.1267715" />
      <trkpt lat="46.0675385" lon="11.1267116" />
      <trkpt lat="46.0675525" lon="11.1266584" />
      <trkpt lat="46.0675131" lon="11.1266040" />
      <trkpt lat="46.0675110" lon="11.1265653" />
      <trkpt lat="46.0675158" lon="11.1265438" />
      <trkpt lat="46.0675366" lon="11.1264538" />
      <trkpt lat="46.0675175" lon="11.1264316" />
      <trkpt lat="46.0674893" lon="11.1264071" />
      <trkpt lat="46.0674093" lon="11.1263325" />
      <trkpt lat="46.0673540" lon="11.1263081" />
      <trkpt lat="46.0672814" lon="11.1262921" />
      <trkpt lat="46.0672440" lon="11.1256701" />
      <trkpt lat="46.0672098" lon="11.1255545" />
      <trkpt lat="46.0672112" lon="11.1253651" />
      <trkpt lat="46.0672104" lon="11.1253055" />
      <trkpt lat="46.0671883" lon="11.1251108" />
      <trkpt lat="46.0671577" lon="11.1249223" />
      <trkpt lat="46.0671291" lon="11.1248045" />
      <trkpt lat="46.0670867" lon="11.1242261" />
      <trkpt lat="46.0671085" lon="11.1242194" />
      <trkpt lat="46.0671042" lon="11.1241841" />
      <trkpt lat="46.0671006" lon="11.1241540" />
      <trkpt lat="46.0670680" lon="11.1241626" />
      <trkpt lat="46.0670164" lon="11.1237560" />
      <trkpt lat="46.0670143" lon="11.1237397" />
      <trkpt lat="46.0670231" lon="11.1237366" />
      <trkpt lat="46.0671493" lon="11.1237041" />
      <trkpt lat="46.0671462" lon="11.1236709" />
      <trkpt lat="46.0670190" lon="11.1237046" />
      <trkpt lat="46.0670098" lon="11.1237070" />
      <trkpt lat="46.0669662" lon="11.1237185" />
      <trkpt lat="46.0669188" lon="11.1233181" />
      <trkpt lat="46.0668986" lon="11.1233290" />
      <trkpt lat="46.0668905" lon="11.1233334" />
      <trkpt lat="46.0668872" lon="11.1232848" />
      <trkpt lat="46.0668548" lon="11.1230552" />
      <trkpt lat="46.0667810" lon="11.1225726" />
      <trkpt lat="46.0667729" lon="11.1225194" />
      <trkpt lat="46.0667715" lon="11.1225101" />
      <trkpt lat="46.0667532" lon="11.1223909" />
      <trkpt lat="46.0667414" lon="11.1223091" />
      <trkpt lat="46.0667357" lon="11.1222747" />
      <trkpt lat="46.0667350" lon="11.1222603" />
      <trkpt lat="46.0667287" lon="11.1221612" />
      <trkpt lat="46.0667249" lon="11.1220591" />
      <trkpt lat="46.0667229" lon="11.1219913" />
      <trkpt lat="46.0667210" lon="11.1219626" />
      <trkpt lat="46.0667304" lon="11.1218751" />
      <trkpt lat="46.0667274" lon="11.1218448" />
      <trkpt lat="46.0666789" lon="11.1217092" />
      <trkpt lat="46.0666701" lon="11.1215352" />
      <trkpt lat="46.0667024" lon="11.1213629" />
      <trkpt lat="46.0667526" lon="11.1210542" />
      <trkpt lat="46.0667705" lon="11.1210629" />
      <trkpt lat="46.0668711" lon="11.1210492" />
    </trkseg>
  </trk>
</gpx>
