<?xml version="1.0" encoding="UTF-8"?>
<gpx xmlns="http://www.topografix.com/GPX/1/1" version="1.1" creator="ShapeRoute route-engine">
  <metadata>
    <name>balloon 10 km · 2026-10-03</name>
    <author>
      <name>ShapeRoute route-engine</name>
    </author>
    <copyright author="OpenStreetMap contributors">
      <license>https://opendatacommons.org/licenses/odbl/1-0/</license>
    </copyright>
    <link href="https://www.openstreetmap.org/copyright">
      <text>© OpenStreetMap contributors</text>
    </link>
    <time>2026-10-03T20:00:38Z</time>
  </metadata>
  <trk>
    <name>balloon 10 km · 2026-10-03</name>
    <trkseg>
      <trkpt lat="45.4643695" lon="9.1897716" />
      <trkpt lat="45.4644313" lon="9.1898582" />
      <trkpt lat="45.4644741" lon="9.1898729" />
      <trkpt lat="45.4645046" lon="9.1898833" />
      <trkpt lat="45.4645446" lon="9.1898970" />
      <trkpt lat="45.4645546" lon="9.1899005" />
      <trkpt lat="45.4645542" lon="9.1899580" />
      <trkpt lat="45.4645497" lon="9.1899580" />
      <trkpt lat="45.4645497" lon="9.1899743" />
      <trkpt lat="45.4645490" lon="9.1902933" />
      <trkpt lat="45.4645233" lon="9.1902840" />
      <trkpt lat="45.4645236" lon="9.1902631" />
      <trkpt lat="45.4645242" lon="9.1902105" />
      <trkpt lat="45.4644926" lon="9.1902113" />
      <trkpt lat="45.4644924" lon="9.1901827" />
      <trkpt lat="45.4644913" lon="9.1900241" />
      <trkpt lat="45.4644264" lon="9.1900245" />
      <trkpt lat="45.4638736" lon="9.1900090" />
      <trkpt lat="45.4638731" lon="9.1900740" />
      <trkpt lat="45.4638729" lon="9.1901285" />
      <trkpt lat="45.4639022" lon="9.1901304" />
      <trkpt lat="45.4639110" lon="9.1901309" />
      <trkpt lat="45.4639105" lon="9.1901614" />
      <trkpt lat="45.4638623" lon="9.1901606" />
      <trkpt lat="45.4638381" lon="9.1901611" />
      <trkpt lat="45.4638372" lon="9.1902606" />
      <trkpt lat="45.4637484" lon="9.1902593" />
      <trkpt lat="45.4636960" lon="9.1902610" />
      <trkpt lat="45.4635805" lon="9.1899838" />
      <trkpt lat="45.4635770" lon="9.1901104" />
      <trkpt lat="45.4635610" lon="9.1901107" />
      <trkpt lat="45.4632737" lon="9.1901156" />
      <trkpt lat="45.4632407" lon="9.1901151" />
      <trkpt lat="45.4627987" lon="9.1901081" />
      <trkpt lat="45.4627727" lon="9.1901079" />
      <trkpt lat="45.4627677" lon="9.1901082" />
      <trkpt lat="45.4627651" lon="9.1903616" />
      <trkpt lat="45.4627535" lon="9.1903615" />
      <trkpt lat="45.4627072" lon="9.1903611" />
      <trkpt lat="45.4626739" lon="9.1903608" />
      <trkpt lat="45.4626564" lon="9.1903613" />
      <trkpt lat="45.4626562" lon="9.1903478" />
      <trkpt lat="45.4626487" lon="9.1903477" />
      <trkpt lat="45.4620313" lon="9.1903566" />
      <trkpt lat="45.4620152" lon="9.1903654" />
      <trkpt lat="45.4619979" lon="9.1903872" />
      <trkpt lat="45.4619080" lon="9.1905010" />
      <trkpt lat="45.4617641" lon="9.1906829" />
      <trkpt lat="45.4617586" lon="9.1906748" />
      <trkpt lat="45.4617278" lon="9.1906300" />
      <trkpt lat="45.4616802" lon="9.1906911" />
      <trkpt lat="45.4616352" lon="9.1906385" />
      <trkpt lat="45.4615990" lon="9.1905963" />
      <trkpt lat="45.4615857" lon="9.1906159" />
      <trkpt lat="45.4615818" lon="9.1906217" />
      <trkpt lat="45.4610473" lon="9.1899927" />
      <trkpt lat="45.4610419" lon="9.1899855" />
      <trkpt lat="45.4610499" lon="9.1899034" />
      <trkpt lat="45.4610562" lon="9.1898389" />
      <trkpt lat="45.4610583" lon="9.1898178" />
      <trkpt lat="45.4610462" lon="9.1897975" />
      <trkpt lat="45.4610386" lon="9.1897949" />
      <trkpt lat="45.4610101" lon="9.1897853" />
      <trkpt lat="45.4609906" lon="9.1897787" />
      <trkpt lat="45.4609762" lon="9.1897738" />
      <trkpt lat="45.4609688" lon="9.1897713" />
      <trkpt lat="45.4609520" lon="9.1897660" />
      <trkpt lat="45.4609398" lon="9.1897615" />
      <trkpt lat="45.4609258" lon="9.1897566" />
      <trkpt lat="45.4609075" lon="9.1897506" />
      <trkpt lat="45.4608920" lon="9.1897454" />
      <trkpt lat="45.4608561" lon="9.1897332" />
      <trkpt lat="45.4608289" lon="9.1897240" />
      <trkpt lat="45.4608169" lon="9.1897151" />
      <trkpt lat="45.4608124" lon="9.1896910" />
      <trkpt lat="45.4605090" lon="9.1892925" />
      <trkpt lat="45.4605475" lon="9.1892437" />
      <trkpt lat="45.4603112" lon="9.1889246" />
      <trkpt lat="45.4598584" lon="9.1897469" />
      <trkpt lat="45.4598463" lon="9.1897396" />
      <trkpt lat="45.4598113" lon="9.1896947" />
      <trkpt lat="45.4597582" lon="9.1896287" />
      <trkpt lat="45.4597529" lon="9.1896220" />
      <trkpt lat="45.4594312" lon="9.1901833" />
      <trkpt lat="45.4594254" lon="9.1901943" />
      <trkpt lat="45.4594100" lon="9.1902233" />
      <trkpt lat="45.4591864" lon="9.1897566" />
      <trkpt lat="45.4590450" lon="9.1894108" />
      <trkpt lat="45.4590383" lon="9.1894656" />
      <trkpt lat="45.4590293" lon="9.1894739" />
      <trkpt lat="45.4590094" lon="9.1894922" />
      <trkpt lat="45.4587270" lon="9.1897532" />
      <trkpt lat="45.4580827" lon="9.1899088" />
      <trkpt lat="45.4580727" lon="9.1899111" />
      <trkpt lat="45.4575843" lon="9.1900272" />
      <trkpt lat="45.4575324" lon="9.1900382" />
      <trkpt lat="45.4574858" lon="9.1900490" />
      <trkpt lat="45.4574918" lon="9.1900846" />
      <trkpt lat="45.4574932" lon="9.1900878" />
      <trkpt lat="45.4573230" lon="9.1901365" />
      <trkpt lat="45.4572991" lon="9.1901434" />
      <trkpt lat="45.4571335" lon="9.1901770" />
      <trkpt lat="45.4571209" lon="9.1902188" />
      <trkpt lat="45.4571602" lon="9.1903535" />
      <trkpt lat="45.4572342" lon="9.1905600" />
      <trkpt lat="45.4572698" lon="9.1906942" />
      <trkpt lat="45.4572601" lon="9.1907050" />
      <trkpt lat="45.4572348" lon="9.1907169" />
      <trkpt lat="45.4572167" lon="9.1907254" />
      <trkpt lat="45.4571724" lon="9.1907463" />
      <trkpt lat="45.4571536" lon="9.1907551" />
      <trkpt lat="45.4571434" lon="9.1907599" />
      <trkpt lat="45.4571286" lon="9.1907668" />
      <trkpt lat="45.4571174" lon="9.1907713" />
      <trkpt lat="45.4570416" lon="9.1908077" />
      <trkpt lat="45.4570306" lon="9.1908129" />
      <trkpt lat="45.4571062" lon="9.1911492" />
      <trkpt lat="45.4568926" lon="9.1910789" />
      <trkpt lat="45.4557805" lon="9.1907576" />
      <trkpt lat="45.4557062" lon="9.1907377" />
      <trkpt lat="45.4554580" lon="9.1906713" />
      <trkpt lat="45.4554462" lon="9.1906681" />
      <trkpt lat="45.4554404" lon="9.1899943" />
      <trkpt lat="45.4554462" lon="9.1906681" />
      <trkpt lat="45.4554580" lon="9.1906713" />
      <trkpt lat="45.4557062" lon="9.1907377" />
      <trkpt lat="45.4557805" lon="9.1907576" />
      <trkpt lat="45.4568926" lon="9.1910789" />
      <trkpt lat="45.4571062" lon="9.1911492" />
      <trkpt lat="45.4570306" lon="9.1908129" />
      <trkpt lat="45.4570416" lon="9.1908077" />
      <trkpt lat="45.4571174" lon="9.1907713" />
      <trkpt lat="45.4571286" lon="9.1907668" />
      <trkpt lat="45.4571434" lon="9.1907599" />
      <trkpt lat="45.4571536" lon="9.1907551" />
      <trkpt lat="45.4571724" lon="9.1907463" />
      <trkpt lat="45.4572167" lon="9.1907254" />
      <trkpt lat="45.4572348" lon="9.1907169" />
      <trkpt lat="45.4572601" lon="9.1907050" />
      <trkpt lat="45.4572698" lon="9.1906942" />
      <trkpt lat="45.4572342" lon="9.1905600" />
      <trkpt lat="45.4571602" lon="9.1903535" />
      <trkpt lat="45.4573136" lon="9.1902544" />
      <trkpt lat="45.4573305" lon="9.1903053" />
      <trkpt lat="45.4573451" lon="9.1903046" />
      <trkpt lat="45.4575104" lon="9.1902563" />
      <trkpt lat="45.4574970" lon="9.1901194" />
      <trkpt lat="45.4575082" lon="9.1901189" />
      <trkpt lat="45.4575415" lon="9.1901126" />
      <trkpt lat="45.4575789" lon="9.1901018" />
      <trkpt lat="45.4575839" lon="9.1901003" />
      <trkpt lat="45.4575913" lon="9.1900645" />
      <trkpt lat="45.4575907" lon="9.1900566" />
      <trkpt lat="45.4575843" lon="9.1900272" />
      <trkpt lat="45.4580727" lon="9.1899111" />
      <trkpt lat="45.4580827" lon="9.1899088" />
      <trkpt lat="45.4587270" lon="9.1897532" />
      <trkpt lat="45.4590094" lon="9.1894922" />
      <trkpt lat="45.4590293" lon="9.1894739" />
      <trkpt lat="45.4590383" lon="9.1894656" />
      <trkpt lat="45.4590450" lon="9.1894108" />
      <trkpt lat="45.4591864" lon="9.1897566" />
      <trkpt lat="45.4594100" lon="9.1902233" />
      <trkpt lat="45.4594543" lon="9.1902977" />
      <trkpt lat="45.4594632" lon="9.1903093" />
      <trkpt lat="45.4597747" lon="9.1897590" />
      <trkpt lat="45.4597844" lon="9.1897720" />
      <trkpt lat="45.4598179" lon="9.1898169" />
      <trkpt lat="45.4600074" lon="9.1900709" />
      <trkpt lat="45.4600486" lon="9.1901261" />
      <trkpt lat="45.4605217" lon="9.1907603" />
      <trkpt lat="45.4605437" lon="9.1907275" />
      <trkpt lat="45.4605480" lon="9.1907254" />
      <trkpt lat="45.4605901" lon="9.1907404" />
      <trkpt lat="45.4606065" lon="9.1907535" />
      <trkpt lat="45.4606567" lon="9.1907964" />
      <trkpt lat="45.4607010" lon="9.1908291" />
      <trkpt lat="45.4607203" lon="9.1908445" />
      <trkpt lat="45.4607302" lon="9.1908524" />
      <trkpt lat="45.4607445" lon="9.1908638" />
      <trkpt lat="45.4607588" lon="9.1908752" />
      <trkpt lat="45.4607817" lon="9.1908936" />
      <trkpt lat="45.4607882" lon="9.1908988" />
      <trkpt lat="45.4608174" lon="9.1909221" />
      <trkpt lat="45.4608450" lon="9.1909441" />
      <trkpt lat="45.4608599" lon="9.1909561" />
      <trkpt lat="45.4608854" lon="9.1910388" />
      <trkpt lat="45.4609204" lon="9.1910981" />
      <trkpt lat="45.4609601" lon="9.1911520" />
      <trkpt lat="45.4610102" lon="9.1912208" />
      <trkpt lat="45.4610552" lon="9.1912899" />
      <trkpt lat="45.4610836" lon="9.1913187" />
      <trkpt lat="45.4610959" lon="9.1913107" />
      <trkpt lat="45.4611116" lon="9.1913330" />
      <trkpt lat="45.4611529" lon="9.1913922" />
      <trkpt lat="45.4616285" lon="9.1907599" />
      <trkpt lat="45.4616802" lon="9.1906911" />
      <trkpt lat="45.4617278" lon="9.1906300" />
      <trkpt lat="45.4617586" lon="9.1906748" />
      <trkpt lat="45.4617641" lon="9.1906829" />
      <trkpt lat="45.4619080" lon="9.1905010" />
      <trkpt lat="45.4619979" lon="9.1903872" />
      <trkpt lat="45.4620152" lon="9.1903654" />
      <trkpt lat="45.4620313" lon="9.1903566" />
      <trkpt lat="45.4626487" lon="9.1903477" />
      <trkpt lat="45.4626562" lon="9.1903478" />
      <trkpt lat="45.4626564" lon="9.1903613" />
      <trkpt lat="45.4626739" lon="9.1903608" />
      <trkpt lat="45.4627072" lon="9.1903611" />
      <trkpt lat="45.4627535" lon="9.1903615" />
      <trkpt lat="45.4627651" lon="9.1903616" />
      <trkpt lat="45.4627677" lon="9.1901082" />
      <trkpt lat="45.4627727" lon="9.1901079" />
      <trkpt lat="45.4627987" lon="9.1901081" />
      <trkpt lat="45.4632407" lon="9.1901151" />
      <trkpt lat="45.4632737" lon="9.1901156" />
      <trkpt lat="45.4635610" lon="9.1901107" />
      <trkpt lat="45.4635770" lon="9.1901104" />
      <trkpt lat="45.4635767" lon="9.1901213" />
      <trkpt lat="45.4635766" lon="9.1901391" />
      <trkpt lat="45.4635759" lon="9.1902779" />
      <trkpt lat="45.4635766" lon="9.1901391" />
      <trkpt lat="45.4635767" lon="9.1901213" />
      <trkpt lat="45.4635770" lon="9.1901104" />
      <trkpt lat="45.4635805" lon="9.1899838" />
      <trkpt lat="45.4636567" lon="9.1899866" />
      <trkpt lat="45.4637017" lon="9.1899880" />
      <trkpt lat="45.4636978" lon="9.1901189" />
      <trkpt lat="45.4636960" lon="9.1902610" />
      <trkpt lat="45.4637484" lon="9.1902593" />
      <trkpt lat="45.4638372" lon="9.1902606" />
      <trkpt lat="45.4640136" lon="9.1902632" />
      <trkpt lat="45.4643428" lon="9.1902682" />
      <trkpt lat="45.4644591" lon="9.1902695" />
      <trkpt lat="45.4645511" lon="9.1902713" />
      <trkpt lat="45.4646418" lon="9.1902726" />
      <trkpt lat="45.4646465" lon="9.1911206" />
      <trkpt lat="45.4646515" lon="9.1916688" />
      <trkpt lat="45.4646511" lon="9.1923052" />
      <trkpt lat="45.4646734" lon="9.1923054" />
      <trkpt lat="45.4646721" lon="9.1927654" />
      <trkpt lat="45.4647161" lon="9.1929137" />
      <trkpt lat="45.4648346" lon="9.1933799" />
      <trkpt lat="45.4648401" lon="9.1934008" />
      <trkpt lat="45.4648615" lon="9.1934817" />
      <trkpt lat="45.4650079" lon="9.1940222" />
      <trkpt lat="45.4650703" lon="9.1939879" />
      <trkpt lat="45.4650889" lon="9.1939783" />
      <trkpt lat="45.4650994" lon="9.1940150" />
      <trkpt lat="45.4651035" lon="9.1940266" />
      <trkpt lat="45.4651110" lon="9.1940574" />
      <trkpt lat="45.4652604" lon="9.1939879" />
      <trkpt lat="45.4652787" lon="9.1939789" />
      <trkpt lat="45.4654131" lon="9.1944516" />
      <trkpt lat="45.4654705" lon="9.1944198" />
      <trkpt lat="45.4655222" lon="9.1946232" />
      <trkpt lat="45.4656510" lon="9.1945444" />
      <trkpt lat="45.4656564" lon="9.1945649" />
      <trkpt lat="45.4656584" lon="9.1945681" />
      <trkpt lat="45.4657074" lon="9.1947466" />
      <trkpt lat="45.4657459" lon="9.1948872" />
      <trkpt lat="45.4658776" lon="9.1948182" />
      <trkpt lat="45.4659081" lon="9.1949200" />
      <trkpt lat="45.4660304" lon="9.1953188" />
      <trkpt lat="45.4660787" lon="9.1954900" />
      <trkpt lat="45.4660871" lon="9.1955174" />
      <trkpt lat="45.4668415" lon="9.1951692" />
      <trkpt lat="45.4668416" lon="9.1951791" />
      <trkpt lat="45.4668420" lon="9.1952301" />
      <trkpt lat="45.4668436" lon="9.1954172" />
      <trkpt lat="45.4669213" lon="9.1953630" />
      <trkpt lat="45.4669801" lon="9.1953221" />
      <trkpt lat="45.4669909" lon="9.1953146" />
      <trkpt lat="45.4669870" lon="9.1955430" />
      <trkpt lat="45.4669355" lon="9.1965984" />
      <trkpt lat="45.4669569" lon="9.1966008" />
      <trkpt lat="45.4669846" lon="9.1966023" />
      <trkpt lat="45.4669867" lon="9.1966290" />
      <trkpt lat="45.4669906" lon="9.1966780" />
      <trkpt lat="45.4673644" lon="9.1962485" />
      <trkpt lat="45.4673917" lon="9.1963110" />
      <trkpt lat="45.4675940" lon="9.1966922" />
      <trkpt lat="45.4677205" lon="9.1965244" />
      <trkpt lat="45.4679790" lon="9.1962516" />
      <trkpt lat="45.4681408" lon="9.1960963" />
      <trkpt lat="45.4684053" lon="9.1958432" />
      <trkpt lat="45.4684078" lon="9.1958509" />
      <trkpt lat="45.4684109" lon="9.1958577" />
      <trkpt lat="45.4684284" lon="9.1958578" />
      <trkpt lat="45.4685304" lon="9.1960680" />
      <trkpt lat="45.4686997" lon="9.1963329" />
      <trkpt lat="45.4689075" lon="9.1967126" />
      <trkpt lat="45.4692895" lon="9.1974108" />
      <trkpt lat="45.4694211" lon="9.1976968" />
      <trkpt lat="45.4694367" lon="9.1977235" />
      <trkpt lat="45.4694426" lon="9.1977185" />
      <trkpt lat="45.4694750" lon="9.1976909" />
      <trkpt lat="45.4695086" lon="9.1976623" />
      <trkpt lat="45.4695167" lon="9.1976554" />
      <trkpt lat="45.4695192" lon="9.1976650" />
      <trkpt lat="45.4697550" lon="9.1980788" />
      <trkpt lat="45.4697798" lon="9.1980761" />
      <trkpt lat="45.4697925" lon="9.1980838" />
      <trkpt lat="45.4698184" lon="9.1981031" />
      <trkpt lat="45.4698549" lon="9.1981303" />
      <trkpt lat="45.4698978" lon="9.1981624" />
      <trkpt lat="45.4699112" lon="9.1981724" />
      <trkpt lat="45.4699576" lon="9.1981219" />
      <trkpt lat="45.4700275" lon="9.1980457" />
      <trkpt lat="45.4700808" lon="9.1979880" />
      <trkpt lat="45.4702835" lon="9.1977410" />
      <trkpt lat="45.4702976" lon="9.1977227" />
      <trkpt lat="45.4703445" lon="9.1976617" />
      <trkpt lat="45.4704033" lon="9.1975853" />
      <trkpt lat="45.4704159" lon="9.1975689" />
      <trkpt lat="45.4705223" lon="9.1974375" />
      <trkpt lat="45.4705370" lon="9.1974297" />
      <trkpt lat="45.4705495" lon="9.1974347" />
      <trkpt lat="45.4705634" lon="9.1974190" />
      <trkpt lat="45.4706092" lon="9.1973638" />
      <trkpt lat="45.4706520" lon="9.1973124" />
      <trkpt lat="45.4706686" lon="9.1972924" />
      <trkpt lat="45.4708011" lon="9.1977119" />
      <trkpt lat="45.4710111" lon="9.1983800" />
      <trkpt lat="45.4710307" lon="9.1984688" />
      <trkpt lat="45.4711948" lon="9.1990600" />
      <trkpt lat="45.4712322" lon="9.1990355" />
      <trkpt lat="45.4712706" lon="9.1990220" />
      <trkpt lat="45.4713158" lon="9.1990100" />
      <trkpt lat="45.4713756" lon="9.1990094" />
      <trkpt lat="45.4714504" lon="9.1989010" />
      <trkpt lat="45.4715580" lon="9.1988331" />
      <trkpt lat="45.4715933" lon="9.1988142" />
      <trkpt lat="45.4717077" lon="9.1987960" />
      <trkpt lat="45.4718123" lon="9.1988128" />
      <trkpt lat="45.4718448" lon="9.1988250" />
      <trkpt lat="45.4719446" lon="9.1988623" />
      <trkpt lat="45.4720241" lon="9.1989583" />
      <trkpt lat="45.4720802" lon="9.1989573" />
      <trkpt lat="45.4721207" lon="9.1989408" />
      <trkpt lat="45.4721860" lon="9.1988906" />
      <trkpt lat="45.4722582" lon="9.1989390" />
      <trkpt lat="45.4723624" lon="9.1990254" />
      <trkpt lat="45.4724237" lon="9.1991228" />
      <trkpt lat="45.4724463" lon="9.1991977" />
      <trkpt lat="45.4724475" lon="9.1992680" />
      <trkpt lat="45.4722337" lon="9.1999894" />
      <trkpt lat="45.4722488" lon="9.2000253" />
      <trkpt lat="45.4722791" lon="9.2000998" />
      <trkpt lat="45.4723894" lon="9.2001909" />
      <trkpt lat="45.4726581" lon="9.2003655" />
      <trkpt lat="45.4726809" lon="9.2003780" />
      <trkpt lat="45.4725891" lon="9.2006575" />
      <trkpt lat="45.4726235" lon="9.2006824" />
      <trkpt lat="45.4726636" lon="9.2007094" />
      <trkpt lat="45.4727456" lon="9.2007645" />
      <trkpt lat="45.4727721" lon="9.2007823" />
      <trkpt lat="45.4728647" lon="9.2004641" />
      <trkpt lat="45.4729358" lon="9.2005041" />
      <trkpt lat="45.4729831" lon="9.2005301" />
      <trkpt lat="45.4730785" lon="9.2006077" />
      <trkpt lat="45.4732106" lon="9.2006346" />
      <trkpt lat="45.4732241" lon="9.2004582" />
      <trkpt lat="45.4732582" lon="9.2002349" />
      <trkpt lat="45.4733234" lon="9.2000559" />
      <trkpt lat="45.4733822" lon="9.1999687" />
      <trkpt lat="45.4734373" lon="9.1999139" />
      <trkpt lat="45.4735416" lon="9.1998794" />
      <trkpt lat="45.4735802" lon="9.1999586" />
      <trkpt lat="45.4736072" lon="9.2000198" />
      <trkpt lat="45.4736629" lon="9.2001032" />
      <trkpt lat="45.4737451" lon="9.2001121" />
      <trkpt lat="45.4738192" lon="9.2000985" />
      <trkpt lat="45.4740349" lon="9.2002607" />
      <trkpt lat="45.4740494" lon="9.2002346" />
      <trkpt lat="45.4741718" lon="9.2002249" />
      <trkpt lat="45.4742612" lon="9.2001659" />
      <trkpt lat="45.4743326" lon="9.2001230" />
      <trkpt lat="45.4743985" lon="9.2000560" />
      <trkpt lat="45.4744516" lon="9.1999837" />
      <trkpt lat="45.4746201" lon="9.2002404" />
      <trkpt lat="45.4746779" lon="9.2003177" />
      <trkpt lat="45.4747203" lon="9.2000758" />
      <trkpt lat="45.4747741" lon="9.1998687" />
      <trkpt lat="45.4748687" lon="9.1997147" />
      <trkpt lat="45.4749121" lon="9.1999006" />
      <trkpt lat="45.4750205" lon="9.1998577" />
      <trkpt lat="45.4751540" lon="9.1998547" />
      <trkpt lat="45.4753067" lon="9.1997327" />
      <trkpt lat="45.4754671" lon="9.1996885" />
      <trkpt lat="45.4755489" lon="9.1996660" />
      <trkpt lat="45.4757006" lon="9.1996259" />
      <trkpt lat="45.4758784" lon="9.1995953" />
      <trkpt lat="45.4759479" lon="9.1995487" />
      <trkpt lat="45.4760659" lon="9.1994538" />
      <trkpt lat="45.4761354" lon="9.1994786" />
      <trkpt lat="45.4764100" lon="9.1988664" />
      <trkpt lat="45.4764796" lon="9.1987277" />
      <trkpt lat="45.4765431" lon="9.1986308" />
      <trkpt lat="45.4766329" lon="9.1985178" />
      <trkpt lat="45.4767210" lon="9.1983062" />
      <trkpt lat="45.4767887" lon="9.1982921" />
      <trkpt lat="45.4768121" lon="9.1982875" />
      <trkpt lat="45.4768425" lon="9.1982819" />
      <trkpt lat="45.4768638" lon="9.1983711" />
      <trkpt lat="45.4768988" lon="9.1984388" />
      <trkpt lat="45.4769288" lon="9.1984588" />
      <trkpt lat="45.4770123" lon="9.1984558" />
      <trkpt lat="45.4770307" lon="9.1985094" />
      <trkpt lat="45.4770372" lon="9.1985008" />
      <trkpt lat="45.4770658" lon="9.1984632" />
      <trkpt lat="45.4770991" lon="9.1984192" />
      <trkpt lat="45.4771159" lon="9.1983970" />
      <trkpt lat="45.4771938" lon="9.1982956" />
      <trkpt lat="45.4772759" lon="9.1981548" />
      <trkpt lat="45.4772579" lon="9.1981381" />
      <trkpt lat="45.4772641" lon="9.1981215" />
      <trkpt lat="45.4772685" lon="9.1981093" />
      <trkpt lat="45.4773143" lon="9.1981373" />
      <trkpt lat="45.4773702" lon="9.1980500" />
      <trkpt lat="45.4774636" lon="9.1978593" />
      <trkpt lat="45.4774789" lon="9.1978735" />
      <trkpt lat="45.4775049" lon="9.1978993" />
      <trkpt lat="45.4775375" lon="9.1979329" />
      <trkpt lat="45.4775746" lon="9.1979835" />
      <trkpt lat="45.4775887" lon="9.1980190" />
      <trkpt lat="45.4776048" lon="9.1980589" />
      <trkpt lat="45.4776128" lon="9.1980802" />
      <trkpt lat="45.4776155" lon="9.1980869" />
      <trkpt lat="45.4776182" lon="9.1980937" />
      <trkpt lat="45.4776209" lon="9.1981005" />
      <trkpt lat="45.4776761" lon="9.1980592" />
      <trkpt lat="45.4777221" lon="9.1980587" />
      <trkpt lat="45.4777601" lon="9.1980840" />
      <trkpt lat="45.4777816" lon="9.1980965" />
      <trkpt lat="45.4777991" lon="9.1981068" />
      <trkpt lat="45.4778084" lon="9.1981122" />
      <trkpt lat="45.4778148" lon="9.1981159" />
      <trkpt lat="45.4778424" lon="9.1981320" />
      <trkpt lat="45.4778536" lon="9.1981386" />
      <trkpt lat="45.4778725" lon="9.1981496" />
      <trkpt lat="45.4778886" lon="9.1981590" />
      <trkpt lat="45.4779195" lon="9.1981770" />
      <trkpt lat="45.4779526" lon="9.1981980" />
      <trkpt lat="45.4779974" lon="9.1982225" />
      <trkpt lat="45.4780209" lon="9.1982175" />
      <trkpt lat="45.4780550" lon="9.1981948" />
      <trkpt lat="45.4780711" lon="9.1981551" />
      <trkpt lat="45.4781025" lon="9.1980696" />
      <trkpt lat="45.4781157" lon="9.1980349" />
      <trkpt lat="45.4781213" lon="9.1980201" />
      <trkpt lat="45.4782877" lon="9.1977869" />
      <trkpt lat="45.4782976" lon="9.1977766" />
      <trkpt lat="45.4783383" lon="9.1977293" />
      <trkpt lat="45.4783718" lon="9.1976912" />
      <trkpt lat="45.4783767" lon="9.1976856" />
      <trkpt lat="45.4784071" lon="9.1976367" />
      <trkpt lat="45.4784307" lon="9.1975990" />
      <trkpt lat="45.4784411" lon="9.1975894" />
      <trkpt lat="45.4784595" lon="9.1975920" />
      <trkpt lat="45.4786721" lon="9.1976751" />
      <trkpt lat="45.4787170" lon="9.1977169" />
      <trkpt lat="45.4789411" lon="9.1979345" />
      <trkpt lat="45.4791434" lon="9.1981309" />
      <trkpt lat="45.4791722" lon="9.1981570" />
      <trkpt lat="45.4792714" lon="9.1982469" />
      <trkpt lat="45.4792845" lon="9.1982198" />
      <trkpt lat="45.4792904" lon="9.1982079" />
      <trkpt lat="45.4792956" lon="9.1981972" />
      <trkpt lat="45.4793054" lon="9.1981770" />
      <trkpt lat="45.4793318" lon="9.1981226" />
      <trkpt lat="45.4793577" lon="9.1980693" />
      <trkpt lat="45.4793612" lon="9.1980621" />
      <trkpt lat="45.4794174" lon="9.1981135" />
      <trkpt lat="45.4794372" lon="9.1981047" />
      <trkpt lat="45.4795576" lon="9.1979015" />
      <trkpt lat="45.4795604" lon="9.1978956" />
      <trkpt lat="45.4795896" lon="9.1978325" />
      <trkpt lat="45.4796190" lon="9.1977693" />
      <trkpt lat="45.4796281" lon="9.1977496" />
      <trkpt lat="45.4796323" lon="9.1977406" />
      <trkpt lat="45.4796390" lon="9.1977261" />
      <trkpt lat="45.4796543" lon="9.1976932" />
      <trkpt lat="45.4796745" lon="9.1977109" />
      <trkpt lat="45.4797977" lon="9.1974405" />
      <trkpt lat="45.4799409" lon="9.1971264" />
      <trkpt lat="45.4801070" lon="9.1967620" />
      <trkpt lat="45.4802417" lon="9.1964575" />
      <trkpt lat="45.4802641" lon="9.1964175" />
      <trkpt lat="45.4802509" lon="9.1963889" />
      <trkpt lat="45.4802560" lon="9.1963835" />
      <trkpt lat="45.4802661" lon="9.1963728" />
      <trkpt lat="45.4803091" lon="9.1963271" />
      <trkpt lat="45.4803233" lon="9.1963121" />
      <trkpt lat="45.4803382" lon="9.1962964" />
      <trkpt lat="45.4803417" lon="9.1962927" />
      <trkpt lat="45.4803633" lon="9.1962697" />
      <trkpt lat="45.4803836" lon="9.1962482" />
      <trkpt lat="45.4803999" lon="9.1962308" />
      <trkpt lat="45.4804488" lon="9.1961789" />
      <trkpt lat="45.4804618" lon="9.1961651" />
      <trkpt lat="45.4804653" lon="9.1961597" />
      <trkpt lat="45.4804959" lon="9.1961290" />
      <trkpt lat="45.4805110" lon="9.1961623" />
      <trkpt lat="45.4805177" lon="9.1961770" />
      <trkpt lat="45.4806094" lon="9.1963790" />
      <trkpt lat="45.4806498" lon="9.1964354" />
      <trkpt lat="45.4806823" lon="9.1964810" />
      <trkpt lat="45.4807086" lon="9.1964997" />
      <trkpt lat="45.4807208" lon="9.1965105" />
      <trkpt lat="45.4807359" lon="9.1965211" />
      <trkpt lat="45.4808289" lon="9.1963266" />
      <trkpt lat="45.4808584" lon="9.1962648" />
      <trkpt lat="45.4810994" lon="9.1957904" />
      <trkpt lat="45.4811329" lon="9.1957356" />
      <trkpt lat="45.4812745" lon="9.1954169" />
      <trkpt lat="45.4814882" lon="9.1949473" />
      <trkpt lat="45.4815501" lon="9.1949602" />
      <trkpt lat="45.4817596" lon="9.1949989" />
      <trkpt lat="45.4817809" lon="9.1950036" />
      <trkpt lat="45.4817969" lon="9.1949693" />
      <trkpt lat="45.4818122" lon="9.1949365" />
      <trkpt lat="45.4818236" lon="9.1949106" />
      <trkpt lat="45.4821439" lon="9.1941695" />
      <trkpt lat="45.4821840" lon="9.1941978" />
      <trkpt lat="45.4821974" lon="9.1942072" />
      <trkpt lat="45.4822461" lon="9.1940997" />
      <trkpt lat="45.4823098" lon="9.1939647" />
      <trkpt lat="45.4823164" lon="9.1939507" />
      <trkpt lat="45.4823254" lon="9.1939326" />
      <trkpt lat="45.4824074" lon="9.1937560" />
      <trkpt lat="45.4824476" lon="9.1936722" />
      <trkpt lat="45.4825975" lon="9.1933545" />
      <trkpt lat="45.4826244" lon="9.1932490" />
      <trkpt lat="45.4826267" lon="9.1932406" />
      <trkpt lat="45.4826336" lon="9.1932130" />
      <trkpt lat="45.4826335" lon="9.1931797" />
      <trkpt lat="45.4826426" lon="9.1931785" />
      <trkpt lat="45.4826485" lon="9.1931782" />
      <trkpt lat="45.4826599" lon="9.1931765" />
      <trkpt lat="45.4826709" lon="9.1931752" />
      <trkpt lat="45.4826794" lon="9.1931742" />
      <trkpt lat="45.4826954" lon="9.1931723" />
      <trkpt lat="45.4827172" lon="9.1931710" />
      <trkpt lat="45.4827313" lon="9.1931701" />
      <trkpt lat="45.4827458" lon="9.1931434" />
      <trkpt lat="45.4827591" lon="9.1931189" />
      <trkpt lat="45.4827967" lon="9.1930496" />
      <trkpt lat="45.4828060" lon="9.1930324" />
      <trkpt lat="45.4828296" lon="9.1929888" />
      <trkpt lat="45.4828552" lon="9.1929417" />
      <trkpt lat="45.4828643" lon="9.1929249" />
      <trkpt lat="45.4828773" lon="9.1929262" />
      <trkpt lat="45.4828856" lon="9.1929262" />
      <trkpt lat="45.4829061" lon="9.1929272" />
      <trkpt lat="45.4829033" lon="9.1929107" />
      <trkpt lat="45.4828953" lon="9.1928627" />
      <trkpt lat="45.4828929" lon="9.1928482" />
      <trkpt lat="45.4828864" lon="9.1928094" />
      <trkpt lat="45.4828321" lon="9.1927893" />
      <trkpt lat="45.4827461" lon="9.1927203" />
      <trkpt lat="45.4826813" lon="9.1926524" />
      <trkpt lat="45.4827248" lon="9.1925365" />
      <trkpt lat="45.4827631" lon="9.1925677" />
      <trkpt lat="45.4827754" lon="9.1925328" />
      <trkpt lat="45.4827386" lon="9.1925036" />
      <trkpt lat="45.4828014" lon="9.1923197" />
      <trkpt lat="45.4828389" lon="9.1922100" />
      <trkpt lat="45.4830203" lon="9.1916604" />
      <trkpt lat="45.4830560" lon="9.1915522" />
      <trkpt lat="45.4831188" lon="9.1913919" />
      <trkpt lat="45.4833568" lon="9.1908708" />
      <trkpt lat="45.4833886" lon="9.1906264" />
      <trkpt lat="45.4834077" lon="9.1904005" />
      <trkpt lat="45.4834127" lon="9.1902546" />
      <trkpt lat="45.4834076" lon="9.1901122" />
      <trkpt lat="45.4833960" lon="9.1899292" />
      <trkpt lat="45.4833547" lon="9.1897599" />
      <trkpt lat="45.4833153" lon="9.1897163" />
      <trkpt lat="45.4832815" lon="9.1896641" />
      <trkpt lat="45.4832574" lon="9.1896131" />
      <trkpt lat="45.4832386" lon="9.1895578" />
      <trkpt lat="45.4832240" lon="9.1894892" />
      <trkpt lat="45.4832175" lon="9.1894182" />
      <trkpt lat="45.4832193" lon="9.1893466" />
      <trkpt lat="45.4832295" lon="9.1892763" />
      <trkpt lat="45.4832476" lon="9.1892093" />
      <trkpt lat="45.4832734" lon="9.1891475" />
      <trkpt lat="45.4833059" lon="9.1890927" />
      <trkpt lat="45.4833444" lon="9.1890463" />
      <trkpt lat="45.4832799" lon="9.1889653" />
      <trkpt lat="45.4832563" lon="9.1889315" />
      <trkpt lat="45.4832593" lon="9.1889251" />
      <trkpt lat="45.4832616" lon="9.1889157" />
      <trkpt lat="45.4832621" lon="9.1889054" />
      <trkpt lat="45.4832615" lon="9.1888945" />
      <trkpt lat="45.4832598" lon="9.1888823" />
      <trkpt lat="45.4832575" lon="9.1888684" />
      <trkpt lat="45.4832546" lon="9.1888581" />
      <trkpt lat="45.4832513" lon="9.1888485" />
      <trkpt lat="45.4832468" lon="9.1888360" />
      <trkpt lat="45.4832413" lon="9.1888252" />
      <trkpt lat="45.4832335" lon="9.1888125" />
      <trkpt lat="45.4832250" lon="9.1888071" />
      <trkpt lat="45.4832161" lon="9.1888085" />
      <trkpt lat="45.4832054" lon="9.1888195" />
      <trkpt lat="45.4831973" lon="9.1888293" />
      <trkpt lat="45.4831753" lon="9.1887884" />
      <trkpt lat="45.4831040" lon="9.1886702" />
      <trkpt lat="45.4829845" lon="9.1884763" />
      <trkpt lat="45.4829714" lon="9.1884497" />
      <trkpt lat="45.4827688" lon="9.1880903" />
      <trkpt lat="45.4825992" lon="9.1877891" />
      <trkpt lat="45.4826302" lon="9.1877486" />
      <trkpt lat="45.4826140" lon="9.1877206" />
      <trkpt lat="45.4825647" lon="9.1876362" />
      <trkpt lat="45.4824641" lon="9.1874623" />
      <trkpt lat="45.4824173" lon="9.1874521" />
      <trkpt lat="45.4824952" lon="9.1873513" />
      <trkpt lat="45.4825090" lon="9.1873537" />
      <trkpt lat="45.4825152" lon="9.1873166" />
      <trkpt lat="45.4825167" lon="9.1873079" />
      <trkpt lat="45.4825233" lon="9.1872684" />
      <trkpt lat="45.4825279" lon="9.1872408" />
      <trkpt lat="45.4828215" lon="9.1873232" />
      <trkpt lat="45.4828587" lon="9.1873318" />
      <trkpt lat="45.4828960" lon="9.1873404" />
      <trkpt lat="45.4830322" lon="9.1873869" />
      <trkpt lat="45.4830823" lon="9.1873967" />
      <trkpt lat="45.4830917" lon="9.1873975" />
      <trkpt lat="45.4831095" lon="9.1873809" />
      <trkpt lat="45.4831223" lon="9.1873595" />
      <trkpt lat="45.4831434" lon="9.1872901" />
      <trkpt lat="45.4832286" lon="9.1870317" />
      <trkpt lat="45.4833161" lon="9.1868151" />
      <trkpt lat="45.4833261" lon="9.1867933" />
      <trkpt lat="45.4833930" lon="9.1866467" />
      <trkpt lat="45.4834200" lon="9.1865922" />
      <trkpt lat="45.4835213" lon="9.1863727" />
      <trkpt lat="45.4836002" lon="9.1862018" />
      <trkpt lat="45.4836976" lon="9.1859979" />
      <trkpt lat="45.4837582" lon="9.1859132" />
      <trkpt lat="45.4838874" lon="9.1857398" />
      <trkpt lat="45.4839257" lon="9.1856884" />
      <trkpt lat="45.4839499" lon="9.1856559" />
      <trkpt lat="45.4839616" lon="9.1856378" />
      <trkpt lat="45.4839820" lon="9.1856062" />
      <trkpt lat="45.4839920" lon="9.1855907" />
      <trkpt lat="45.4840093" lon="9.1855569" />
      <trkpt lat="45.4840154" lon="9.1855451" />
      <trkpt lat="45.4838900" lon="9.1853813" />
      <trkpt lat="45.4838399" lon="9.1853096" />
      <trkpt lat="45.4838544" lon="9.1852945" />
      <trkpt lat="45.4838744" lon="9.1852586" />
      <trkpt lat="45.4838852" lon="9.1852273" />
      <trkpt lat="45.4838881" lon="9.1851855" />
      <trkpt lat="45.4838838" lon="9.1851348" />
      <trkpt lat="45.4838730" lon="9.1850408" />
      <trkpt lat="45.4838423" lon="9.1848943" />
      <trkpt lat="45.4838417" lon="9.1848812" />
      <trkpt lat="45.4838392" lon="9.1848251" />
      <trkpt lat="45.4838042" lon="9.1848318" />
      <trkpt lat="45.4837667" lon="9.1848325" />
      <trkpt lat="45.4834874" lon="9.1848236" />
      <trkpt lat="45.4830759" lon="9.1848058" />
      <trkpt lat="45.4828451" lon="9.1848006" />
      <trkpt lat="45.4828309" lon="9.1848536" />
      <trkpt lat="45.4827552" lon="9.1851355" />
      <trkpt lat="45.4827468" lon="9.1851668" />
      <trkpt lat="45.4827365" lon="9.1852052" />
      <trkpt lat="45.4824796" lon="9.1850683" />
      <trkpt lat="45.4824103" lon="9.1850317" />
      <trkpt lat="45.4822567" lon="9.1849506" />
      <trkpt lat="45.4821996" lon="9.1849204" />
      <trkpt lat="45.4820726" lon="9.1848534" />
      <trkpt lat="45.4820055" lon="9.1848180" />
      <trkpt lat="45.4816078" lon="9.1846067" />
      <trkpt lat="45.4815536" lon="9.1845785" />
      <trkpt lat="45.4815359" lon="9.1845693" />
      <trkpt lat="45.4813310" lon="9.1853617" />
      <trkpt lat="45.4813177" lon="9.1853547" />
      <trkpt lat="45.4812607" lon="9.1853246" />
      <trkpt lat="45.4811605" lon="9.1852720" />
      <trkpt lat="45.4809333" lon="9.1851580" />
      <trkpt lat="45.4809119" lon="9.1851682" />
      <trkpt lat="45.4808753" lon="9.1851857" />
      <trkpt lat="45.4808655" lon="9.1851648" />
      <trkpt lat="45.4808629" lon="9.1851761" />
      <trkpt lat="45.4808609" lon="9.1851845" />
      <trkpt lat="45.4808484" lon="9.1852473" />
      <trkpt lat="45.4808254" lon="9.1852377" />
      <trkpt lat="45.4807784" lon="9.1852180" />
      <trkpt lat="45.4807463" lon="9.1852046" />
      <trkpt lat="45.4807361" lon="9.1852003" />
      <trkpt lat="45.4807030" lon="9.1851865" />
      <trkpt lat="45.4807339" lon="9.1850287" />
      <trkpt lat="45.4808593" lon="9.1843594" />
      <trkpt lat="45.4810057" lon="9.1835573" />
      <trkpt lat="45.4810225" lon="9.1834744" />
      <trkpt lat="45.4810237" lon="9.1834169" />
      <trkpt lat="45.4810189" lon="9.1833561" />
      <trkpt lat="45.4809539" lon="9.1831161" />
      <trkpt lat="45.4808838" lon="9.1828637" />
      <trkpt lat="45.4808431" lon="9.1827368" />
      <trkpt lat="45.4808049" lon="9.1826233" />
      <trkpt lat="45.4807898" lon="9.1825848" />
      <trkpt lat="45.4807470" lon="9.1824759" />
      <trkpt lat="45.4807187" lon="9.1824186" />
      <trkpt lat="45.4806822" lon="9.1823663" />
      <trkpt lat="45.4806357" lon="9.1823348" />
      <trkpt lat="45.4805727" lon="9.1823057" />
      <trkpt lat="45.4799001" lon="9.1820743" />
      <trkpt lat="45.4798301" lon="9.1820504" />
      <trkpt lat="45.4797809" lon="9.1820345" />
      <trkpt lat="45.4797871" lon="9.1819991" />
      <trkpt lat="45.4798107" lon="9.1818625" />
      <trkpt lat="45.4798163" lon="9.1818353" />
      <trkpt lat="45.4797768" lon="9.1818242" />
      <trkpt lat="45.4794111" lon="9.1816962" />
      <trkpt lat="45.4792856" lon="9.1816610" />
      <trkpt lat="45.4791232" lon="9.1816442" />
      <trkpt lat="45.4790989" lon="9.1815860" />
      <trkpt lat="45.4790545" lon="9.1814629" />
      <trkpt lat="45.4785373" lon="9.1812979" />
      <trkpt lat="45.4784811" lon="9.1812799" />
      <trkpt lat="45.4783923" lon="9.1812516" />
      <trkpt lat="45.4783617" lon="9.1811516" />
      <trkpt lat="45.4783578" lon="9.1811500" />
      <trkpt lat="45.4783384" lon="9.1811419" />
      <trkpt lat="45.4783237" lon="9.1811377" />
      <trkpt lat="45.4780690" lon="9.1810647" />
      <trkpt lat="45.4780899" lon="9.1808739" />
      <trkpt lat="45.4779211" lon="9.1808359" />
      <trkpt lat="45.4779222" lon="9.1808152" />
      <trkpt lat="45.4779238" lon="9.1807757" />
      <trkpt lat="45.4778606" lon="9.1807643" />
      <trkpt lat="45.4777900" lon="9.1807688" />
      <trkpt lat="45.4777412" lon="9.1807770" />
      <trkpt lat="45.4777126" lon="9.1808139" />
      <trkpt lat="45.4776900" lon="9.1808722" />
      <trkpt lat="45.4776717" lon="9.1809379" />
      <trkpt lat="45.4776630" lon="9.1809852" />
      <trkpt lat="45.4776596" lon="9.1810036" />
      <trkpt lat="45.4775570" lon="9.1809574" />
      <trkpt lat="45.4775264" lon="9.1809436" />
      <trkpt lat="45.4774940" lon="9.1809290" />
      <trkpt lat="45.4774803" lon="9.1809229" />
      <trkpt lat="45.4774068" lon="9.1809682" />
      <trkpt lat="45.4773515" lon="9.1810002" />
      <trkpt lat="45.4773176" lon="9.1810159" />
      <trkpt lat="45.4772516" lon="9.1810380" />
      <trkpt lat="45.4770191" lon="9.1810880" />
      <trkpt lat="45.4770083" lon="9.1809821" />
      <trkpt lat="45.4770014" lon="9.1809610" />
      <trkpt lat="45.4769962" lon="9.1809413" />
      <trkpt lat="45.4768676" lon="9.1809526" />
      <trkpt lat="45.4752816" lon="9.1812108" />
      <trkpt lat="45.4752831" lon="9.1812476" />
      <trkpt lat="45.4752837" lon="9.1812632" />
      <trkpt lat="45.4749882" lon="9.1813270" />
      <trkpt lat="45.4749828" lon="9.1812617" />
      <trkpt lat="45.4749821" lon="9.1812502" />
      <trkpt lat="45.4749345" lon="9.1806249" />
      <trkpt lat="45.4749247" lon="9.1804961" />
      <trkpt lat="45.4748909" lon="9.1804558" />
      <trkpt lat="45.4748351" lon="9.1803787" />
      <trkpt lat="45.4748018" lon="9.1802908" />
      <trkpt lat="45.4747376" lon="9.1800734" />
      <trkpt lat="45.4746680" lon="9.1800010" />
      <trkpt lat="45.4745524" lon="9.1798622" />
      <trkpt lat="45.4744613" lon="9.1797448" />
      <trkpt lat="45.4743987" lon="9.1796493" />
      <trkpt lat="45.4743273" lon="9.1795193" />
      <trkpt lat="45.4742143" lon="9.1793111" />
      <trkpt lat="45.4741849" lon="9.1792604" />
      <trkpt lat="45.4739914" lon="9.1793088" />
      <trkpt lat="45.4738853" lon="9.1793827" />
      <trkpt lat="45.4736964" lon="9.1795137" />
      <trkpt lat="45.4735011" lon="9.1797885" />
      <trkpt lat="45.4732951" lon="9.1802045" />
      <trkpt lat="45.4732501" lon="9.1802992" />
      <trkpt lat="45.4732117" lon="9.1802542" />
      <trkpt lat="45.4731989" lon="9.1802576" />
      <trkpt lat="45.4731852" lon="9.1802528" />
      <trkpt lat="45.4731743" lon="9.1802673" />
      <trkpt lat="45.4731653" lon="9.1802798" />
      <trkpt lat="45.4731572" lon="9.1802904" />
      <trkpt lat="45.4731352" lon="9.1803192" />
      <trkpt lat="45.4730961" lon="9.1803702" />
      <trkpt lat="45.4730338" lon="9.1804517" />
      <trkpt lat="45.4730282" lon="9.1804594" />
      <trkpt lat="45.4725770" lon="9.1797529" />
      <trkpt lat="45.4725353" lon="9.1797565" />
      <trkpt lat="45.4724786" lon="9.1798309" />
      <trkpt lat="45.4724249" lon="9.1799013" />
      <trkpt lat="45.4721649" lon="9.1802507" />
      <trkpt lat="45.4721392" lon="9.1802840" />
      <trkpt lat="45.4720993" lon="9.1803357" />
      <trkpt lat="45.4720408" lon="9.1802563" />
      <trkpt lat="45.4714107" lon="9.1810971" />
      <trkpt lat="45.4713074" lon="9.1812339" />
      <trkpt lat="45.4712799" lon="9.1813012" />
      <trkpt lat="45.4712499" lon="9.1813482" />
      <trkpt lat="45.4712052" lon="9.1814072" />
      <trkpt lat="45.4711357" lon="9.1814947" />
      <trkpt lat="45.4711160" lon="9.1815177" />
      <trkpt lat="45.4710893" lon="9.1814785" />
      <trkpt lat="45.4710453" lon="9.1814137" />
      <trkpt lat="45.4709493" lon="9.1815394" />
      <trkpt lat="45.4708168" lon="9.1816707" />
      <trkpt lat="45.4706809" lon="9.1817671" />
      <trkpt lat="45.4705931" lon="9.1818175" />
      <trkpt lat="45.4704915" lon="9.1818530" />
      <trkpt lat="45.4703871" lon="9.1818790" />
      <trkpt lat="45.4702860" lon="9.1818945" />
      <trkpt lat="45.4701979" lon="9.1819003" />
      <trkpt lat="45.4700787" lon="9.1818969" />
      <trkpt lat="45.4700255" lon="9.1818911" />
      <trkpt lat="45.4699725" lon="9.1818828" />
      <trkpt lat="45.4699198" lon="9.1818720" />
      <trkpt lat="45.4698536" lon="9.1818546" />
      <trkpt lat="45.4697879" lon="9.1818332" />
      <trkpt lat="45.4697176" lon="9.1818055" />
      <trkpt lat="45.4696487" lon="9.1817733" />
      <trkpt lat="45.4695816" lon="9.1817371" />
      <trkpt lat="45.4695181" lon="9.1816980" />
      <trkpt lat="45.4694055" lon="9.1816165" />
      <trkpt lat="45.4692829" lon="9.1815077" />
      <trkpt lat="45.4692393" lon="9.1814634" />
      <trkpt lat="45.4691819" lon="9.1813999" />
      <trkpt lat="45.4690875" lon="9.1816228" />
      <trkpt lat="45.4690784" lon="9.1816385" />
      <trkpt lat="45.4690692" lon="9.1816546" />
      <trkpt lat="45.4690612" lon="9.1816684" />
      <trkpt lat="45.4690406" lon="9.1817041" />
      <trkpt lat="45.4690284" lon="9.1817469" />
      <trkpt lat="45.4687079" lon="9.1821287" />
      <trkpt lat="45.4686953" lon="9.1821440" />
      <trkpt lat="45.4686405" lon="9.1822175" />
      <trkpt lat="45.4686384" lon="9.1824914" />
      <trkpt lat="45.4685955" lon="9.1825243" />
      <trkpt lat="45.4685793" lon="9.1825374" />
      <trkpt lat="45.4685460" lon="9.1825642" />
      <trkpt lat="45.4685297" lon="9.1825763" />
      <trkpt lat="45.4685280" lon="9.1825776" />
      <trkpt lat="45.4685165" lon="9.1825922" />
      <trkpt lat="45.4685068" lon="9.1826065" />
      <trkpt lat="45.4684875" lon="9.1826348" />
      <trkpt lat="45.4684769" lon="9.1826506" />
      <trkpt lat="45.4684594" lon="9.1826975" />
      <trkpt lat="45.4684406" lon="9.1827456" />
      <trkpt lat="45.4684078" lon="9.1828452" />
      <trkpt lat="45.4684031" lon="9.1828594" />
      <trkpt lat="45.4683937" lon="9.1828899" />
      <trkpt lat="45.4682825" lon="9.1828219" />
      <trkpt lat="45.4681910" lon="9.1828566" />
      <trkpt lat="45.4681821" lon="9.1828816" />
      <trkpt lat="45.4681435" lon="9.1829882" />
      <trkpt lat="45.4680364" lon="9.1829239" />
      <trkpt lat="45.4680188" lon="9.1829722" />
      <trkpt lat="45.4680129" lon="9.1829690" />
      <trkpt lat="45.4679941" lon="9.1829588" />
      <trkpt lat="45.4679786" lon="9.1829504" />
      <trkpt lat="45.4679719" lon="9.1829468" />
      <trkpt lat="45.4679905" lon="9.1828912" />
      <trkpt lat="45.4679620" lon="9.1828775" />
      <trkpt lat="45.4679330" lon="9.1828453" />
      <trkpt lat="45.4679007" lon="9.1828057" />
      <trkpt lat="45.4678538" lon="9.1828665" />
      <trkpt lat="45.4670465" lon="9.1839144" />
      <trkpt lat="45.4670198" lon="9.1839490" />
      <trkpt lat="45.4669936" lon="9.1839840" />
      <trkpt lat="45.4664854" lon="9.1846614" />
      <trkpt lat="45.4664515" lon="9.1847066" />
      <trkpt lat="45.4664320" lon="9.1847326" />
      <trkpt lat="45.4661005" lon="9.1852088" />
      <trkpt lat="45.4660437" lon="9.1853020" />
      <trkpt lat="45.4660336" lon="9.1853143" />
      <trkpt lat="45.4659985" lon="9.1853571" />
      <trkpt lat="45.4659807" lon="9.1853788" />
      <trkpt lat="45.4659774" lon="9.1853828" />
      <trkpt lat="45.4658239" lon="9.1855988" />
      <trkpt lat="45.4656808" lon="9.1860254" />
      <trkpt lat="45.4656195" lon="9.1861981" />
      <trkpt lat="45.4655960" lon="9.1862778" />
      <trkpt lat="45.4655539" lon="9.1863613" />
      <trkpt lat="45.4655448" lon="9.1863819" />
      <trkpt lat="45.4655381" lon="9.1864031" />
      <trkpt lat="45.4655289" lon="9.1864322" />
      <trkpt lat="45.4655252" lon="9.1864441" />
      <trkpt lat="45.4655230" lon="9.1864508" />
      <trkpt lat="45.4655195" lon="9.1864618" />
      <trkpt lat="45.4655137" lon="9.1864804" />
      <trkpt lat="45.4655071" lon="9.1865012" />
      <trkpt lat="45.4655004" lon="9.1865226" />
      <trkpt lat="45.4654799" lon="9.1866298" />
      <trkpt lat="45.4654399" lon="9.1868401" />
      <trkpt lat="45.4654268" lon="9.1868635" />
      <trkpt lat="45.4652016" lon="9.1874331" />
      <trkpt lat="45.4651971" lon="9.1874440" />
      <trkpt lat="45.4651090" lon="9.1876697" />
      <trkpt lat="45.4651078" lon="9.1876727" />
      <trkpt lat="45.4647975" lon="9.1884428" />
      <trkpt lat="45.4647961" lon="9.1884652" />
      <trkpt lat="45.4647088" lon="9.1884654" />
      <trkpt lat="45.4646578" lon="9.1884650" />
      <trkpt lat="45.4646489" lon="9.1884649" />
      <trkpt lat="45.4646011" lon="9.1884658" />
      <trkpt lat="45.4645117" lon="9.1884662" />
      <trkpt lat="45.4643620" lon="9.1884668" />
      <trkpt lat="45.4645117" lon="9.1884662" />
      <trkpt lat="45.4645116" lon="9.1884809" />
      <trkpt lat="45.4645224" lon="9.1884811" />
      <trkpt lat="45.4645478" lon="9.1884814" />
      <trkpt lat="45.4645817" lon="9.1884816" />
      <trkpt lat="45.4647199" lon="9.1884860" />
      <trkpt lat="45.4647019" lon="9.1885788" />
      <trkpt lat="45.4646514" lon="9.1889880" />
      <trkpt lat="45.4646537" lon="9.1891261" />
      <trkpt lat="45.4646499" lon="9.1893273" />
      <trkpt lat="45.4646497" lon="9.1893463" />
      <trkpt lat="45.4645594" lon="9.1894058" />
      <trkpt lat="45.4645554" lon="9.1894275" />
      <trkpt lat="45.4645550" lon="9.1894735" />
      <trkpt lat="45.4645550" lon="9.1894793" />
      <trkpt lat="45.4645546" lon="9.1895206" />
      <trkpt lat="45.4645546" lon="9.1895295" />
      <trkpt lat="45.4645542" lon="9.1895730" />
      <trkpt lat="45.4645579" lon="9.1895821" />
      <trkpt lat="45.4645576" lon="9.1896132" />
      <trkpt lat="45.4645553" lon="9.1897951" />
      <trkpt lat="45.4645547" lon="9.1898439" />
      <trkpt lat="45.4645471" lon="9.1898437" />
      <trkpt lat="45.4645044" lon="9.1898425" />
      <trkpt lat="45.4644741" lon="9.1898729" />
      <trkpt lat="45.4644313" lon="9.1898582" />
      <trkpt lat="45.4643695" lon="9.1897716" />
    </trkseg>
  </trk>
</gpx>
