<?xml version="1.0" encoding="UTF-8"?>
<gpx xmlns="http://www.topografix.com/GPX/1/1" version="1.1" creator="ShapeRoute route-engine">
  <metadata>
    <name>star 10 km · 2026-10-03</name>
    <author>
      <name>ShapeRoute route-engine</name>
    </author>
    <copyright author="OpenStreetMap contributors">
      <license>https://opendatacommons.org/licenses/odbl/1-0/</license>
    </copyright>
    <link href="https://www.openstreetmap.org/copyright">
      <text>© OpenStreetMap contributors</text>
    </link>
    <time>2026-10-03T10:59:07Z</time>
  </metadata>
  <trk>
    <name>star 10 km · 2026-10-03</name>
    <trkseg>
      <trkpt lat="46.0668711" lon="11.1210492" />
      <trkpt lat="46.0667705" lon="11.1210629" />
      <trkpt lat="46.0667526" lon="11.1210542" />
      <trkpt lat="46.0667024" lon="11.1213629" />
      <trkpt lat="46.0666701" lon="11.1215352" />
      <trkpt lat="46.0666789" lon="11.1217092" />
      <trkpt lat="46.0666523" lon="11.1217176" />
      <trkpt lat="46.0665604" lon="11.1217424" />
      <trkpt lat="46.0665308" lon="11.1217471" />
      <trkpt lat="46.0665452" lon="11.1219954" />
      <trkpt lat="46.0665485" lon="11.1220283" />
      <trkpt lat="46.0665540" lon="11.1220838" />
      <trkpt lat="46.0664798" lon="11.1221149" />
      <trkpt lat="46.0665144" lon="11.1224055" />
      <trkpt lat="46.0663604" lon="11.1225220" />
      <trkpt lat="46.0663306" lon="11.1225479" />
      <trkpt lat="46.0662774" lon="11.1225941" />
      <trkpt lat="46.0662400" lon="11.1226907" />
      <trkpt lat="46.0660796" lon="11.1227720" />
      <trkpt lat="46.0657344" lon="11.1229534" />
      <trkpt lat="46.0655279" lon="11.1230558" />
      <trkpt lat="46.0654001" lon="11.1231014" />
      <trkpt lat="46.0653655" lon="11.1230951" />
      <trkpt lat="46.0652342" lon="11.1231340" />
      <trkpt lat="46.0651994" lon="11.1231586" />
      <trkpt lat="46.0651514" lon="11.1231779" />
      <trkpt lat="46.0651035" lon="11.1231638" />
      <trkpt lat="46.0650668" lon="11.1231370" />
      <trkpt lat="46.0649340" lon="11.1231560" />
      <trkpt lat="46.0649144" lon="11.1232038" />
      <trkpt lat="46.0648757" lon="11.1232274" />
      <trkpt lat="46.0648437" lon="11.1232342" />
      <trkpt lat="46.0648091" lon="11.1232416" />
      <trkpt lat="46.0647179" lon="11.1232609" />
      <trkpt lat="46.0646870" lon="11.1233245" />
      <trkpt lat="46.0645003" lon="11.1233651" />
      <trkpt lat="46.0638789" lon="11.1234916" />
      <trkpt lat="46.0636533" lon="11.1235375" />
      <trkpt lat="46.0635095" lon="11.1235838" />
      <trkpt lat="46.0633807" lon="11.1236164" />
      <trkpt lat="46.0633564" lon="11.1236226" />
      <trkpt lat="46.0632824" lon="11.1236419" />
      <trkpt lat="46.0629949" lon="11.1237028" />
      <trkpt lat="46.0627973" lon="11.1237488" />
      <trkpt lat="46.0626705" lon="11.1237780" />
      <trkpt lat="46.0625991" lon="11.1237944" />
      <trkpt lat="46.0623277" lon="11.1238568" />
      <trkpt lat="46.0621276" lon="11.1239028" />
      <trkpt lat="46.0618706" lon="11.1239641" />
      <trkpt lat="46.0618017" lon="11.1239840" />
      <trkpt lat="46.0611610" lon="11.1246414" />
      <trkpt lat="46.0610477" lon="11.1247577" />
      <trkpt lat="46.0609442" lon="11.1248663" />
      <trkpt lat="46.0608675" lon="11.1249438" />
      <trkpt lat="46.0606785" lon="11.1251382" />
      <trkpt lat="46.0604926" lon="11.1253248" />
      <trkpt lat="46.0603847" lon="11.1254332" />
      <trkpt lat="46.0602968" lon="11.1255216" />
      <trkpt lat="46.0603448" lon="11.1256153" />
      <trkpt lat="46.0599954" lon="11.1259916" />
      <trkpt lat="46.0599888" lon="11.1260047" />
      <trkpt lat="46.0599826" lon="11.1260290" />
      <trkpt lat="46.0599690" lon="11.1260502" />
      <trkpt lat="46.0599316" lon="11.1260886" />
      <trkpt lat="46.0599707" lon="11.1261632" />
      <trkpt lat="46.0603084" lon="11.1268068" />
      <trkpt lat="46.0604676" lon="11.1271101" />
      <trkpt lat="46.0605746" lon="11.1273141" />
      <trkpt lat="46.0605991" lon="11.1273680" />
      <trkpt lat="46.0606403" lon="11.1274586" />
      <trkpt lat="46.0607035" lon="11.1275885" />
      <trkpt lat="46.0608338" lon="11.1278450" />
      <trkpt lat="46.0608540" lon="11.1278797" />
      <trkpt lat="46.0610358" lon="11.1281559" />
      <trkpt lat="46.0611383" lon="11.1283061" />
      <trkpt lat="46.0612460" lon="11.1284667" />
      <trkpt lat="46.0616147" lon="11.1290083" />
      <trkpt lat="46.0616855" lon="11.1291085" />
      <trkpt lat="46.0616260" lon="11.1291989" />
      <trkpt lat="46.0612165" lon="11.1297888" />
      <trkpt lat="46.0612077" lon="11.1298023" />
      <trkpt lat="46.0611016" lon="11.1299632" />
      <trkpt lat="46.0610424" lon="11.1300545" />
      <trkpt lat="46.0610259" lon="11.1300787" />
      <trkpt lat="46.0610057" lon="11.1301194" />
      <trkpt lat="46.0609970" lon="11.1301334" />
      <trkpt lat="46.0608613" lon="11.1303377" />
      <trkpt lat="46.0608441" lon="11.1303702" />
      <trkpt lat="46.0607706" lon="11.1304938" />
      <trkpt lat="46.0605893" lon="11.1307965" />
      <trkpt lat="46.0605287" lon="11.1308969" />
      <trkpt lat="46.0602282" lon="11.1313988" />
      <trkpt lat="46.0601598" lon="11.1314874" />
      <trkpt lat="46.0601331" lon="11.1315313" />
      <trkpt lat="46.0600367" lon="11.1314940" />
      <trkpt lat="46.0600266" lon="11.1315383" />
      <trkpt lat="46.0600426" lon="11.1315441" />
      <trkpt lat="46.0600477" lon="11.1315517" />
      <trkpt lat="46.0600632" lon="11.1316046" />
      <trkpt lat="46.0600613" lon="11.1316221" />
      <trkpt lat="46.0600536" lon="11.1316457" />
      <trkpt lat="46.0600329" lon="11.1316672" />
      <trkpt lat="46.0599823" lon="11.1317988" />
      <trkpt lat="46.0599025" lon="11.1320092" />
      <trkpt lat="46.0598539" lon="11.1321752" />
      <trkpt lat="46.0597940" lon="11.1323996" />
      <trkpt lat="46.0597454" lon="11.1325969" />
      <trkpt lat="46.0597156" lon="11.1327439" />
      <trkpt lat="46.0597086" lon="11.1327871" />
      <trkpt lat="46.0593728" lon="11.1327899" />
      <trkpt lat="46.0592811" lon="11.1327906" />
      <trkpt lat="46.0591238" lon="11.1327613" />
      <trkpt lat="46.0591249" lon="11.1327422" />
      <trkpt lat="46.0591279" lon="11.1327079" />
      <trkpt lat="46.0591658" lon="11.1324852" />
      <trkpt lat="46.0592140" lon="11.1322019" />
      <trkpt lat="46.0592558" lon="11.1319568" />
      <trkpt lat="46.0592635" lon="11.1319115" />
      <trkpt lat="46.0592990" lon="11.1317710" />
      <trkpt lat="46.0594379" lon="11.1312214" />
      <trkpt lat="46.0594469" lon="11.1311830" />
      <trkpt lat="46.0590705" lon="11.1309840" />
      <trkpt lat="46.0588093" lon="11.1308421" />
      <trkpt lat="46.0584274" lon="11.1306345" />
      <trkpt lat="46.0583533" lon="11.1305912" />
      <trkpt lat="46.0582944" lon="11.1305651" />
      <trkpt lat="46.0582729" lon="11.1305558" />
      <trkpt lat="46.0580252" lon="11.1304445" />
      <trkpt lat="46.0577769" lon="11.1303406" />
      <trkpt lat="46.0576368" lon="11.1302834" />
      <trkpt lat="46.0575308" lon="11.1302394" />
      <trkpt lat="46.0574781" lon="11.1302125" />
      <trkpt lat="46.0574266" lon="11.1301740" />
      <trkpt lat="46.0573813" lon="11.1301310" />
      <trkpt lat="46.0572469" lon="11.1299757" />
      <trkpt lat="46.0571989" lon="11.1299202" />
      <trkpt lat="46.0571680" lon="11.1298414" />
      <trkpt lat="46.0571532" lon="11.1297797" />
      <trkpt lat="46.0571459" lon="11.1297230" />
      <trkpt lat="46.0571856" lon="11.1296561" />
      <trkpt lat="46.0572890" lon="11.1294820" />
      <trkpt lat="46.0573632" lon="11.1293571" />
      <trkpt lat="46.0575784" lon="11.1289973" />
      <trkpt lat="46.0576899" lon="11.1288087" />
      <trkpt lat="46.0577046" lon="11.1287822" />
      <trkpt lat="46.0578879" lon="11.1284808" />
      <trkpt lat="46.0579522" lon="11.1283750" />
      <trkpt lat="46.0579873" lon="11.1283174" />
      <trkpt lat="46.0580638" lon="11.1281851" />
      <trkpt lat="46.0581276" lon="11.1280747" />
      <trkpt lat="46.0582249" lon="11.1279061" />
      <trkpt lat="46.0582498" lon="11.1278631" />
      <trkpt lat="46.0582768" lon="11.1278163" />
      <trkpt lat="46.0582944" lon="11.1277851" />
      <trkpt lat="46.0583373" lon="11.1277093" />
      <trkpt lat="46.0583657" lon="11.1276575" />
      <trkpt lat="46.0583778" lon="11.1276336" />
      <trkpt lat="46.0584791" lon="11.1274918" />
      <trkpt lat="46.0581083" lon="11.1277067" />
      <trkpt lat="46.0580490" lon="11.1277391" />
      <trkpt lat="46.0579310" lon="11.1278020" />
      <trkpt lat="46.0579129" lon="11.1277292" />
      <trkpt lat="46.0579096" lon="11.1277159" />
      <trkpt lat="46.0578188" lon="11.1273512" />
      <trkpt lat="46.0578094" lon="11.1273328" />
      <trkpt lat="46.0578039" lon="11.1273272" />
      <trkpt lat="46.0577940" lon="11.1273172" />
      <trkpt lat="46.0577621" lon="11.1272891" />
      <trkpt lat="46.0576580" lon="11.1271958" />
      <trkpt lat="46.0574899" lon="11.1270471" />
      <trkpt lat="46.0574193" lon="11.1269817" />
      <trkpt lat="46.0571684" lon="11.1267610" />
      <trkpt lat="46.0571151" lon="11.1267240" />
      <trkpt lat="46.0570626" lon="11.1266766" />
      <trkpt lat="46.0570323" lon="11.1266495" />
      <trkpt lat="46.0569279" lon="11.1265562" />
      <trkpt lat="46.0567968" lon="11.1264400" />
      <trkpt lat="46.0567719" lon="11.1264179" />
      <trkpt lat="46.0565432" lon="11.1262103" />
      <trkpt lat="46.0564748" lon="11.1261490" />
      <trkpt lat="46.0563786" lon="11.1260609" />
      <trkpt lat="46.0562180" lon="11.1259136" />
      <trkpt lat="46.0561941" lon="11.1258983" />
      <trkpt lat="46.0558959" lon="11.1264837" />
      <trkpt lat="46.0557682" lon="11.1268159" />
      <trkpt lat="46.0557235" lon="11.1269139" />
      <trkpt lat="46.0556939" lon="11.1269170" />
      <trkpt lat="46.0556328" lon="11.1269196" />
      <trkpt lat="46.0556427" lon="11.1270586" />
      <trkpt lat="46.0556493" lon="11.1271832" />
      <trkpt lat="46.0556514" lon="11.1273519" />
      <trkpt lat="46.0556496" lon="11.1274832" />
      <trkpt lat="46.0556405" lon="11.1276568" />
      <trkpt lat="46.0556301" lon="11.1277894" />
      <trkpt lat="46.0556157" lon="11.1279165" />
      <trkpt lat="46.0555846" lon="11.1281186" />
      <trkpt lat="46.0555700" lon="11.1282001" />
      <trkpt lat="46.0555311" lon="11.1283764" />
      <trkpt lat="46.0554766" lon="11.1285802" />
      <trkpt lat="46.0554329" lon="11.1287233" />
      <trkpt lat="46.0554313" lon="11.1287327" />
      <trkpt lat="46.0554316" lon="11.1287425" />
      <trkpt lat="46.0554364" lon="11.1287516" />
      <trkpt lat="46.0554817" lon="11.1287812" />
      <trkpt lat="46.0555197" lon="11.1288065" />
      <trkpt lat="46.0555273" lon="11.1288142" />
      <trkpt lat="46.0555339" lon="11.1288260" />
      <trkpt lat="46.0555369" lon="11.1288428" />
      <trkpt lat="46.0555331" lon="11.1288649" />
      <trkpt lat="46.0555219" lon="11.1289017" />
      <trkpt lat="46.0554305" lon="11.1291823" />
      <trkpt lat="46.0553894" lon="11.1293003" />
      <trkpt lat="46.0553492" lon="11.1293761" />
      <trkpt lat="46.0552690" lon="11.1294499" />
      <trkpt lat="46.0552350" lon="11.1294713" />
      <trkpt lat="46.0552010" lon="11.1294758" />
      <trkpt lat="46.0551818" lon="11.1294724" />
      <trkpt lat="46.0551466" lon="11.1294434" />
      <trkpt lat="46.0551368" lon="11.1294284" />
      <trkpt lat="46.0551314" lon="11.1294025" />
      <trkpt lat="46.0551331" lon="11.1293715" />
      <trkpt lat="46.0551431" lon="11.1293436" />
      <trkpt lat="46.0551606" lon="11.1293225" />
      <trkpt lat="46.0551766" lon="11.1293159" />
      <trkpt lat="46.0551961" lon="11.1293223" />
      <trkpt lat="46.0552277" lon="11.1293505" />
      <trkpt lat="46.0552527" lon="11.1293601" />
      <trkpt lat="46.0552780" lon="11.1293564" />
      <trkpt lat="46.0552988" lon="11.1293352" />
      <trkpt lat="46.0553145" lon="11.1293069" />
      <trkpt lat="46.0553554" lon="11.1291999" />
      <trkpt lat="46.0553581" lon="11.1291711" />
      <trkpt lat="46.0551557" lon="11.1292676" />
      <trkpt lat="46.0549772" lon="11.1293785" />
      <trkpt lat="46.0549360" lon="11.1294057" />
      <trkpt lat="46.0549064" lon="11.1294264" />
      <trkpt lat="46.0548071" lon="11.1294917" />
      <trkpt lat="46.0546705" lon="11.1295597" />
      <trkpt lat="46.0546322" lon="11.1295735" />
      <trkpt lat="46.0546273" lon="11.1295006" />
      <trkpt lat="46.0544110" lon="11.1295641" />
      <trkpt lat="46.0539060" lon="11.1297049" />
      <trkpt lat="46.0536077" lon="11.1297706" />
      <trkpt lat="46.0535553" lon="11.1297785" />
      <trkpt lat="46.0532884" lon="11.1297847" />
      <trkpt lat="46.0532116" lon="11.1297843" />
      <trkpt lat="46.0528645" lon="11.1297828" />
      <trkpt lat="46.0527396" lon="11.1297846" />
      <trkpt lat="46.0526113" lon="11.1297885" />
      <trkpt lat="46.0524964" lon="11.1297930" />
      <trkpt lat="46.0523876" lon="11.1298038" />
      <trkpt lat="46.0522765" lon="11.1298206" />
      <trkpt lat="46.0521642" lon="11.1298412" />
      <trkpt lat="46.0520318" lon="11.1298749" />
      <trkpt lat="46.0518697" lon="11.1299310" />
      <trkpt lat="46.0516620" lon="11.1300140" />
      <trkpt lat="46.0515343" lon="11.1300644" />
      <trkpt lat="46.0513907" lon="11.1301254" />
      <trkpt lat="46.0511443" lon="11.1302581" />
      <trkpt lat="46.0510609" lon="11.1303075" />
      <trkpt lat="46.0511443" lon="11.1302581" />
      <trkpt lat="46.0511447" lon="11.1303065" />
      <trkpt lat="46.0511476" lon="11.1304360" />
      <trkpt lat="46.0513061" lon="11.1304728" />
      <trkpt lat="46.0513264" lon="11.1303878" />
      <trkpt lat="46.0513707" lon="11.1302048" />
      <trkpt lat="46.0516724" lon="11.1300613" />
      <trkpt lat="46.0516820" lon="11.1300567" />
      <trkpt lat="46.0518833" lon="11.1299803" />
      <trkpt lat="46.0519742" lon="11.1299511" />
      <trkpt lat="46.0520350" lon="11.1299335" />
      <trkpt lat="46.0520997" lon="11.1299160" />
      <trkpt lat="46.0524905" lon="11.1298557" />
      <trkpt lat="46.0525000" lon="11.1298613" />
      <trkpt lat="46.0524964" lon="11.1297930" />
      <trkpt lat="46.0526113" lon="11.1297885" />
      <trkpt lat="46.0527396" lon="11.1297846" />
      <trkpt lat="46.0527370" lon="11.1296329" />
      <trkpt lat="46.0527180" lon="11.1293917" />
      <trkpt lat="46.0526709" lon="11.1290453" />
      <trkpt lat="46.0526408" lon="11.1289268" />
      <trkpt lat="46.0525999" lon="11.1288272" />
      <trkpt lat="46.0524495" lon="11.1285953" />
      <trkpt lat="46.0523800" lon="11.1284333" />
      <trkpt lat="46.0523304" lon="11.1282847" />
      <trkpt lat="46.0522847" lon="11.1283295" />
      <trkpt lat="46.0522023" lon="11.1283653" />
      <trkpt lat="46.0519946" lon="11.1284056" />
      <trkpt lat="46.0518625" lon="11.1284339" />
      <trkpt lat="46.0517906" lon="11.1284351" />
      <trkpt lat="46.0517640" lon="11.1284318" />
      <trkpt lat="46.0517527" lon="11.1284304" />
      <trkpt lat="46.0516494" lon="11.1284016" />
      <trkpt lat="46.0515458" lon="11.1283312" />
      <trkpt lat="46.0514571" lon="11.1282289" />
      <trkpt lat="46.0513841" lon="11.1280834" />
      <trkpt lat="46.0513221" lon="11.1279059" />
      <trkpt lat="46.0512173" lon="11.1275969" />
      <trkpt lat="46.0511413" lon="11.1273640" />
      <trkpt lat="46.0510947" lon="11.1272211" />
      <trkpt lat="46.0510138" lon="11.1269646" />
      <trkpt lat="46.0509921" lon="11.1268926" />
      <trkpt lat="46.0509605" lon="11.1267659" />
      <trkpt lat="46.0509459" lon="11.1267073" />
      <trkpt lat="46.0509263" lon="11.1265690" />
      <trkpt lat="46.0508991" lon="11.1262884" />
      <trkpt lat="46.0508671" lon="11.1259786" />
      <trkpt lat="46.0508484" lon="11.1257710" />
      <trkpt lat="46.0508284" lon="11.1255701" />
      <trkpt lat="46.0507881" lon="11.1251023" />
      <trkpt lat="46.0507784" lon="11.1250048" />
      <trkpt lat="46.0507456" lon="11.1246569" />
      <trkpt lat="46.0507034" lon="11.1242413" />
      <trkpt lat="46.0507122" lon="11.1240971" />
      <trkpt lat="46.0507518" lon="11.1238776" />
      <trkpt lat="46.0507797" lon="11.1238847" />
      <trkpt lat="46.0508081" lon="11.1238807" />
      <trkpt lat="46.0508437" lon="11.1238663" />
      <trkpt lat="46.0508861" lon="11.1238325" />
      <trkpt lat="46.0509170" lon="11.1237911" />
      <trkpt lat="46.0509384" lon="11.1237465" />
      <trkpt lat="46.0509533" lon="11.1237080" />
      <trkpt lat="46.0509966" lon="11.1237414" />
      <trkpt lat="46.0510242" lon="11.1237698" />
      <trkpt lat="46.0510500" lon="11.1237992" />
      <trkpt lat="46.0512412" lon="11.1240869" />
      <trkpt lat="46.0513237" lon="11.1241923" />
      <trkpt lat="46.0513955" lon="11.1242620" />
      <trkpt lat="46.0514836" lon="11.1243117" />
      <trkpt lat="46.0515516" lon="11.1243333" />
      <trkpt lat="46.0516200" lon="11.1243422" />
      <trkpt lat="46.0516595" lon="11.1243397" />
      <trkpt lat="46.0518446" lon="11.1243239" />
      <trkpt lat="46.0523297" lon="11.1242814" />
      <trkpt lat="46.0523791" lon="11.1242805" />
      <trkpt lat="46.0523973" lon="11.1242851" />
      <trkpt lat="46.0524133" lon="11.1242937" />
      <trkpt lat="46.0524334" lon="11.1243108" />
      <trkpt lat="46.0524461" lon="11.1243317" />
      <trkpt lat="46.0524638" lon="11.1242104" />
      <trkpt lat="46.0524427" lon="11.1237744" />
      <trkpt lat="46.0524329" lon="11.1235231" />
      <trkpt lat="46.0524421" lon="11.1233056" />
      <trkpt lat="46.0524750" lon="11.1232929" />
      <trkpt lat="46.0524933" lon="11.1232859" />
      <trkpt lat="46.0525300" lon="11.1232751" />
      <trkpt lat="46.0525473" lon="11.1232751" />
      <trkpt lat="46.0527693" lon="11.1232757" />
      <trkpt lat="46.0531645" lon="11.1232767" />
      <trkpt lat="46.0531617" lon="11.1232155" />
      <trkpt lat="46.0531435" lon="11.1228213" />
      <trkpt lat="46.0531359" lon="11.1226326" />
      <trkpt lat="46.0531243" lon="11.1223440" />
      <trkpt lat="46.0531225" lon="11.1222988" />
      <trkpt lat="46.0531300" lon="11.1222514" />
      <trkpt lat="46.0531897" lon="11.1221755" />
      <trkpt lat="46.0532109" lon="11.1221654" />
      <trkpt lat="46.0532523" lon="11.1221425" />
      <trkpt lat="46.0531155" lon="11.1220216" />
      <trkpt lat="46.0529398" lon="11.1218719" />
      <trkpt lat="46.0527246" lon="11.1217060" />
      <trkpt lat="46.0526817" lon="11.1216740" />
      <trkpt lat="46.0526689" lon="11.1216645" />
      <trkpt lat="46.0526806" lon="11.1216301" />
      <trkpt lat="46.0527616" lon="11.1214065" />
      <trkpt lat="46.0527714" lon="11.1213796" />
      <trkpt lat="46.0527848" lon="11.1213421" />
      <trkpt lat="46.0528103" lon="11.1212554" />
      <trkpt lat="46.0528263" lon="11.1211766" />
      <trkpt lat="46.0528373" lon="11.1210849" />
      <trkpt lat="46.0528388" lon="11.1209198" />
      <trkpt lat="46.0528342" lon="11.1207970" />
      <trkpt lat="46.0528256" lon="11.1205494" />
      <trkpt lat="46.0528156" lon="11.1204424" />
      <trkpt lat="46.0528086" lon="11.1203455" />
      <trkpt lat="46.0527962" lon="11.1202378" />
      <trkpt lat="46.0527114" lon="11.1192307" />
      <trkpt lat="46.0527070" lon="11.1191789" />
      <trkpt lat="46.0526998" lon="11.1191375" />
      <trkpt lat="46.0526873" lon="11.1190835" />
      <trkpt lat="46.0526710" lon="11.1190213" />
      <trkpt lat="46.0526733" lon="11.1190099" />
      <trkpt lat="46.0526652" lon="11.1189887" />
      <trkpt lat="46.0526617" lon="11.1189482" />
      <trkpt lat="46.0526628" lon="11.1189188" />
      <trkpt lat="46.0526660" lon="11.1188859" />
      <trkpt lat="46.0526730" lon="11.1188443" />
      <trkpt lat="46.0526387" lon="11.1188251" />
      <trkpt lat="46.0526072" lon="11.1187909" />
      <trkpt lat="46.0525753" lon="11.1187338" />
      <trkpt lat="46.0525266" lon="11.1186378" />
      <trkpt lat="46.0524594" lon="11.1184390" />
      <trkpt lat="46.0523031" lon="11.1179764" />
      <trkpt lat="46.0522466" lon="11.1178092" />
      <trkpt lat="46.0522312" lon="11.1177412" />
      <trkpt lat="46.0522293" lon="11.1176894" />
      <trkpt lat="46.0522321" lon="11.1176336" />
      <trkpt lat="46.0522443" lon="11.1175343" />
      <trkpt lat="46.0522704" lon="11.1174923" />
      <trkpt lat="46.0522895" lon="11.1174429" />
      <trkpt lat="46.0523004" lon="11.1173887" />
      <trkpt lat="46.0523026" lon="11.1173323" />
      <trkpt lat="46.0522961" lon="11.1172766" />
      <trkpt lat="46.0522757" lon="11.1172112" />
      <trkpt lat="46.0522434" lon="11.1171568" />
      <trkpt lat="46.0522018" lon="11.1171176" />
      <trkpt lat="46.0521542" lon="11.1170970" />
      <trkpt lat="46.0521045" lon="11.1170964" />
      <trkpt lat="46.0520567" lon="11.1171161" />
      <trkpt lat="46.0520147" lon="11.1171543" />
      <trkpt lat="46.0519818" lon="11.1172080" />
      <trkpt lat="46.0519619" lon="11.1172675" />
      <trkpt lat="46.0519106" lon="11.1173235" />
      <trkpt lat="46.0518590" lon="11.1173859" />
      <trkpt lat="46.0518065" lon="11.1174190" />
      <trkpt lat="46.0517604" lon="11.1174283" />
      <trkpt lat="46.0517069" lon="11.1174438" />
      <trkpt lat="46.0514167" lon="11.1173220" />
      <trkpt lat="46.0511940" lon="11.1172266" />
      <trkpt lat="46.0510895" lon="11.1171791" />
      <trkpt lat="46.0506154" lon="11.1169749" />
      <trkpt lat="46.0505650" lon="11.1169532" />
      <trkpt lat="46.0505326" lon="11.1169005" />
      <trkpt lat="46.0504892" lon="11.1168293" />
      <trkpt lat="46.0504537" lon="11.1167867" />
      <trkpt lat="46.0501270" lon="11.1163998" />
      <trkpt lat="46.0503093" lon="11.1160772" />
      <trkpt lat="46.0501270" lon="11.1163998" />
      <trkpt lat="46.0504537" lon="11.1167867" />
      <trkpt lat="46.0504892" lon="11.1168293" />
      <trkpt lat="46.0505326" lon="11.1169005" />
      <trkpt lat="46.0505650" lon="11.1169532" />
      <trkpt lat="46.0503869" lon="11.1169743" />
      <trkpt lat="46.0502440" lon="11.1169928" />
      <trkpt lat="46.0501093" lon="11.1170103" />
      <trkpt lat="46.0499659" lon="11.1169915" />
      <trkpt lat="46.0494570" lon="11.1168735" />
      <trkpt lat="46.0493997" lon="11.1167818" />
      <trkpt lat="46.0493789" lon="11.1167376" />
      <trkpt lat="46.0493637" lon="11.1166808" />
      <trkpt lat="46.0493598" lon="11.1165983" />
      <trkpt lat="46.0493612" lon="11.1165906" />
      <trkpt lat="46.0493877" lon="11.1164557" />
      <trkpt lat="46.0494310" lon="11.1164735" />
      <trkpt lat="46.0495573" lon="11.1165214" />
      <trkpt lat="46.0495765" lon="11.1165197" />
      <trkpt lat="46.0496084" lon="11.1165101" />
      <trkpt lat="46.0496351" lon="11.1164874" />
      <trkpt lat="46.0496557" lon="11.1164461" />
      <trkpt lat="46.0496637" lon="11.1164039" />
      <trkpt lat="46.0497560" lon="11.1159137" />
      <trkpt lat="46.0497808" lon="11.1158318" />
      <trkpt lat="46.0498872" lon="11.1152938" />
      <trkpt lat="46.0499247" lon="11.1151064" />
      <trkpt lat="46.0499294" lon="11.1150664" />
      <trkpt lat="46.0499283" lon="11.1150300" />
      <trkpt lat="46.0499216" lon="11.1149872" />
      <trkpt lat="46.0499019" lon="11.1149424" />
      <trkpt lat="46.0498814" lon="11.1149175" />
      <trkpt lat="46.0498582" lon="11.1149037" />
      <trkpt lat="46.0492775" lon="11.1146694" />
      <trkpt lat="46.0492181" lon="11.1146551" />
      <trkpt lat="46.0491692" lon="11.1146606" />
      <trkpt lat="46.0491257" lon="11.1146747" />
      <trkpt lat="46.0490778" lon="11.1147071" />
      <trkpt lat="46.0490249" lon="11.1147621" />
      <trkpt lat="46.0489865" lon="11.1148328" />
      <trkpt lat="46.0489641" lon="11.1149007" />
      <trkpt lat="46.0489406" lon="11.1150212" />
      <trkpt lat="46.0488358" lon="11.1156102" />
      <trkpt lat="46.0488216" lon="11.1156909" />
      <trkpt lat="46.0488259" lon="11.1157398" />
      <trkpt lat="46.0488347" lon="11.1157745" />
      <trkpt lat="46.0488572" lon="11.1158050" />
      <trkpt lat="46.0488801" lon="11.1158211" />
      <trkpt lat="46.0490210" lon="11.1158834" />
      <trkpt lat="46.0490373" lon="11.1159113" />
      <trkpt lat="46.0490421" lon="11.1159374" />
      <trkpt lat="46.0490446" lon="11.1159709" />
      <trkpt lat="46.0490439" lon="11.1159947" />
      <trkpt lat="46.0489925" lon="11.1162576" />
      <trkpt lat="46.0489958" lon="11.1162755" />
      <trkpt lat="46.0490046" lon="11.1162911" />
      <trkpt lat="46.0490178" lon="11.1163025" />
      <trkpt lat="46.0490648" lon="11.1163211" />
      <trkpt lat="46.0491405" lon="11.1163511" />
      <trkpt lat="46.0492173" lon="11.1163832" />
      <trkpt lat="46.0492926" lon="11.1164139" />
      <trkpt lat="46.0493877" lon="11.1164557" />
      <trkpt lat="46.0493612" lon="11.1165906" />
      <trkpt lat="46.0493598" lon="11.1165983" />
      <trkpt lat="46.0493354" lon="11.1166923" />
      <trkpt lat="46.0493053" lon="11.1167478" />
      <trkpt lat="46.0492691" lon="11.1167790" />
      <trkpt lat="46.0492150" lon="11.1168189" />
      <trkpt lat="46.0493163" lon="11.1168418" />
      <trkpt lat="46.0494570" lon="11.1168735" />
      <trkpt lat="46.0499659" lon="11.1169915" />
      <trkpt lat="46.0499582" lon="11.1170611" />
      <trkpt lat="46.0499471" lon="11.1171618" />
      <trkpt lat="46.0498962" lon="11.1174852" />
      <trkpt lat="46.0501158" lon="11.1175214" />
      <trkpt lat="46.0503757" lon="11.1175643" />
      <trkpt lat="46.0504130" lon="11.1172534" />
      <trkpt lat="46.0504548" lon="11.1172600" />
      <trkpt lat="46.0504966" lon="11.1172665" />
      <trkpt lat="46.0505915" lon="11.1173304" />
      <trkpt lat="46.0506608" lon="11.1173770" />
      <trkpt lat="46.0518862" lon="11.1178746" />
      <trkpt lat="46.0519269" lon="11.1178296" />
      <trkpt lat="46.0520387" lon="11.1177059" />
      <trkpt lat="46.0520578" lon="11.1176773" />
      <trkpt lat="46.0521150" lon="11.1176417" />
      <trkpt lat="46.0520982" lon="11.1175944" />
      <trkpt lat="46.0521373" lon="11.1175977" />
      <trkpt lat="46.0521760" lon="11.1175884" />
      <trkpt lat="46.0522122" lon="11.1175669" />
      <trkpt lat="46.0522443" lon="11.1175343" />
      <trkpt lat="46.0522704" lon="11.1174923" />
      <trkpt lat="46.0522895" lon="11.1174429" />
      <trkpt lat="46.0523004" lon="11.1173887" />
      <trkpt lat="46.0523026" lon="11.1173323" />
      <trkpt lat="46.0522961" lon="11.1172766" />
      <trkpt lat="46.0522757" lon="11.1172112" />
      <trkpt lat="46.0522434" lon="11.1171568" />
      <trkpt lat="46.0522018" lon="11.1171176" />
      <trkpt lat="46.0521542" lon="11.1170970" />
      <trkpt lat="46.0520466" lon="11.1170065" />
      <trkpt lat="46.0520049" lon="11.1169479" />
      <trkpt lat="46.0519659" lon="11.1168687" />
      <trkpt lat="46.0518652" lon="11.1166065" />
      <trkpt lat="46.0514923" lon="11.1156350" />
      <trkpt lat="46.0513949" lon="11.1152821" />
      <trkpt lat="46.0513237" lon="11.1149159" />
      <trkpt lat="46.0512648" lon="11.1141902" />
      <trkpt lat="46.0511883" lon="11.1141991" />
      <trkpt lat="46.0512132" lon="11.1145170" />
      <trkpt lat="46.0511705" lon="11.1144990" />
      <trkpt lat="46.0511300" lon="11.1144890" />
      <trkpt lat="46.0510749" lon="11.1144795" />
      <trkpt lat="46.0511246" lon="11.1145561" />
      <trkpt lat="46.0511486" lon="11.1146129" />
      <trkpt lat="46.0511601" lon="11.1146596" />
      <trkpt lat="46.0511993" lon="11.1150520" />
      <trkpt lat="46.0512193" lon="11.1151634" />
      <trkpt lat="46.0512406" lon="11.1152768" />
      <trkpt lat="46.0512547" lon="11.1153422" />
      <trkpt lat="46.0512869" lon="11.1154641" />
      <trkpt lat="46.0513059" lon="11.1155311" />
      <trkpt lat="46.0513374" lon="11.1156355" />
      <trkpt lat="46.0513745" lon="11.1157493" />
      <trkpt lat="46.0514237" lon="11.1158908" />
      <trkpt lat="46.0514317" lon="11.1159135" />
      <trkpt lat="46.0514408" lon="11.1159194" />
      <trkpt lat="46.0516108" lon="11.1157846" />
      <trkpt lat="46.0516141" lon="11.1157619" />
      <trkpt lat="46.0516062" lon="11.1157385" />
      <trkpt lat="46.0515746" lon="11.1156532" />
      <trkpt lat="46.0514647" lon="11.1152659" />
      <trkpt lat="46.0514379" lon="11.1151260" />
      <trkpt lat="46.0514183" lon="11.1150350" />
      <trkpt lat="46.0514113" lon="11.1149675" />
      <trkpt lat="46.0514166" lon="11.1149480" />
      <trkpt lat="46.0514481" lon="11.1149013" />
      <trkpt lat="46.0515233" lon="11.1148882" />
      <trkpt lat="46.0523672" lon="11.1147623" />
      <trkpt lat="46.0524790" lon="11.1147434" />
      <trkpt lat="46.0527254" lon="11.1146787" />
      <trkpt lat="46.0527856" lon="11.1146504" />
      <trkpt lat="46.0529016" lon="11.1150655" />
      <trkpt lat="46.0530451" lon="11.1155481" />
      <trkpt lat="46.0532285" lon="11.1161297" />
      <trkpt lat="46.0532739" lon="11.1162915" />
      <trkpt lat="46.0533371" lon="11.1166312" />
      <trkpt lat="46.0533575" lon="11.1167489" />
      <trkpt lat="46.0539046" lon="11.1165510" />
      <trkpt lat="46.0545052" lon="11.1164223" />
      <trkpt lat="46.0546197" lon="11.1163964" />
      <trkpt lat="46.0550688" lon="11.1163289" />
      <trkpt lat="46.0551639" lon="11.1163218" />
      <trkpt lat="46.0555115" lon="11.1162741" />
      <trkpt lat="46.0559355" lon="11.1162139" />
      <trkpt lat="46.0561956" lon="11.1161794" />
      <trkpt lat="46.0569145" lon="11.1160769" />
      <trkpt lat="46.0571742" lon="11.1160341" />
      <trkpt lat="46.0572289" lon="11.1160278" />
      <trkpt lat="46.0572869" lon="11.1160147" />
      <trkpt lat="46.0573209" lon="11.1160069" />
      <trkpt lat="46.0572916" lon="11.1157724" />
      <trkpt lat="46.0572360" lon="11.1153223" />
      <trkpt lat="46.0572132" lon="11.1151379" />
      <trkpt lat="46.0571978" lon="11.1150050" />
      <trkpt lat="46.0571895" lon="11.1149335" />
      <trkpt lat="46.0571807" lon="11.1148557" />
      <trkpt lat="46.0571491" lon="11.1145975" />
      <trkpt lat="46.0571377" lon="11.1145071" />
      <trkpt lat="46.0569981" lon="11.1133448" />
      <trkpt lat="46.0569236" lon="11.1127116" />
      <trkpt lat="46.0569163" lon="11.1126392" />
      <trkpt lat="46.0569146" lon="11.1125996" />
      <trkpt lat="46.0569300" lon="11.1125961" />
      <trkpt lat="46.0569442" lon="11.1125867" />
      <trkpt lat="46.0569561" lon="11.1125721" />
      <trkpt lat="46.0569647" lon="11.1125534" />
      <trkpt lat="46.0569695" lon="11.1125319" />
      <trkpt lat="46.0569700" lon="11.1125094" />
      <trkpt lat="46.0569658" lon="11.1124864" />
      <trkpt lat="46.0569894" lon="11.1124772" />
      <trkpt lat="46.0570478" lon="11.1124668" />
      <trkpt lat="46.0571223" lon="11.1124710" />
      <trkpt lat="46.0573456" lon="11.1124816" />
      <trkpt lat="46.0582957" lon="11.1125513" />
      <trkpt lat="46.0583943" lon="11.1125574" />
      <trkpt lat="46.0583952" lon="11.1124558" />
      <trkpt lat="46.0594765" lon="11.1125262" />
      <trkpt lat="46.0595011" lon="11.1125259" />
      <trkpt lat="46.0594860" lon="11.1122524" />
      <trkpt lat="46.0594812" lon="11.1121658" />
      <trkpt lat="46.0594804" lon="11.1121372" />
      <trkpt lat="46.0593801" lon="11.1106811" />
      <trkpt lat="46.0593786" lon="11.1106518" />
      <trkpt lat="46.0593801" lon="11.1106811" />
      <trkpt lat="46.0594804" lon="11.1121372" />
      <trkpt lat="46.0594812" lon="11.1121658" />
      <trkpt lat="46.0594860" lon="11.1122524" />
      <trkpt lat="46.0595011" lon="11.1125259" />
      <trkpt lat="46.0595129" lon="11.1127099" />
      <trkpt lat="46.0595687" lon="11.1134622" />
      <trkpt lat="46.0595922" lon="11.1138712" />
      <trkpt lat="46.0596023" lon="11.1140148" />
      <trkpt lat="46.0596186" lon="11.1142493" />
      <trkpt lat="46.0596297" lon="11.1144066" />
      <trkpt lat="46.0596395" lon="11.1145368" />
      <trkpt lat="46.0596530" lon="11.1147354" />
      <trkpt lat="46.0596559" lon="11.1147777" />
      <trkpt lat="46.0596572" lon="11.1147945" />
      <trkpt lat="46.0597002" lon="11.1153866" />
      <trkpt lat="46.0597100" lon="11.1155269" />
      <trkpt lat="46.0597185" lon="11.1156524" />
      <trkpt lat="46.0597326" lon="11.1158616" />
      <trkpt lat="46.0597376" lon="11.1159531" />
      <trkpt lat="46.0597646" lon="11.1159561" />
      <trkpt lat="46.0597654" lon="11.1160141" />
      <trkpt lat="46.0597779" lon="11.1162643" />
      <trkpt lat="46.0597967" lon="11.1165212" />
      <trkpt lat="46.0598061" lon="11.1166461" />
      <trkpt lat="46.0598245" lon="11.1168213" />
      <trkpt lat="46.0599197" lon="11.1174723" />
      <trkpt lat="46.0599290" lon="11.1175625" />
      <trkpt lat="46.0599425" lon="11.1176923" />
      <trkpt lat="46.0599609" lon="11.1180494" />
      <trkpt lat="46.0599702" lon="11.1185497" />
      <trkpt lat="46.0599455" lon="11.1186480" />
      <trkpt lat="46.0599210" lon="11.1187056" />
      <trkpt lat="46.0598633" lon="11.1187982" />
      <trkpt lat="46.0598440" lon="11.1188020" />
      <trkpt lat="46.0598221" lon="11.1188116" />
      <trkpt lat="46.0597989" lon="11.1188265" />
      <trkpt lat="46.0597815" lon="11.1188529" />
      <trkpt lat="46.0597686" lon="11.1188841" />
      <trkpt lat="46.0597610" lon="11.1189180" />
      <trkpt lat="46.0597588" lon="11.1189534" />
      <trkpt lat="46.0597619" lon="11.1189886" />
      <trkpt lat="46.0597704" lon="11.1190220" />
      <trkpt lat="46.0597837" lon="11.1190519" />
      <trkpt lat="46.0598078" lon="11.1190827" />
      <trkpt lat="46.0598231" lon="11.1190964" />
      <trkpt lat="46.0598436" lon="11.1191105" />
      <trkpt lat="46.0598769" lon="11.1191229" />
      <trkpt lat="46.0598960" lon="11.1191215" />
      <trkpt lat="46.0599180" lon="11.1191142" />
      <trkpt lat="46.0599402" lon="11.1191022" />
      <trkpt lat="46.0600050" lon="11.1190980" />
      <trkpt lat="46.0600799" lon="11.1190896" />
      <trkpt lat="46.0601887" lon="11.1190242" />
      <trkpt lat="46.0602507" lon="11.1190133" />
      <trkpt lat="46.0602997" lon="11.1190100" />
      <trkpt lat="46.0604842" lon="11.1190089" />
      <trkpt lat="46.0612960" lon="11.1190016" />
      <trkpt lat="46.0613698" lon="11.1190007" />
      <trkpt lat="46.0614650" lon="11.1190010" />
      <trkpt lat="46.0615548" lon="11.1189989" />
      <trkpt lat="46.0616501" lon="11.1190029" />
      <trkpt lat="46.0616886" lon="11.1190057" />
      <trkpt lat="46.0617691" lon="11.1190149" />
      <trkpt lat="46.0620595" lon="11.1190647" />
      <trkpt lat="46.0621483" lon="11.1190799" />
      <trkpt lat="46.0622170" lon="11.1190898" />
      <trkpt lat="46.0622857" lon="11.1190929" />
      <trkpt lat="46.0623461" lon="11.1190926" />
      <trkpt lat="46.0624112" lon="11.1190875" />
      <trkpt lat="46.0624680" lon="11.1190822" />
      <trkpt lat="46.0628075" lon="11.1190581" />
      <trkpt lat="46.0630357" lon="11.1190402" />
      <trkpt lat="46.0630822" lon="11.1190488" />
      <trkpt lat="46.0631120" lon="11.1190563" />
      <trkpt lat="46.0631417" lon="11.1190685" />
      <trkpt lat="46.0633078" lon="11.1191797" />
      <trkpt lat="46.0633799" lon="11.1192338" />
      <trkpt lat="46.0635400" lon="11.1193559" />
      <trkpt lat="46.0635769" lon="11.1193834" />
      <trkpt lat="46.0637637" lon="11.1195382" />
      <trkpt lat="46.0638332" lon="11.1195948" />
      <trkpt lat="46.0638580" lon="11.1196052" />
      <trkpt lat="46.0638836" lon="11.1196100" />
      <trkpt lat="46.0639080" lon="11.1196074" />
      <trkpt lat="46.0641605" lon="11.1195542" />
      <trkpt lat="46.0642150" lon="11.1195434" />
      <trkpt lat="46.0643769" lon="11.1195104" />
      <trkpt lat="46.0644332" lon="11.1194960" />
      <trkpt lat="46.0644770" lon="11.1194864" />
      <trkpt lat="46.0646932" lon="11.1194429" />
      <trkpt lat="46.0649574" lon="11.1193858" />
      <trkpt lat="46.0652551" lon="11.1193171" />
      <trkpt lat="46.0653255" lon="11.1193045" />
      <trkpt lat="46.0658933" lon="11.1191867" />
      <trkpt lat="46.0659053" lon="11.1192886" />
      <trkpt lat="46.0660099" lon="11.1201785" />
      <trkpt lat="46.0660309" lon="11.1203589" />
      <trkpt lat="46.0660965" lon="11.1210453" />
      <trkpt lat="46.0661065" lon="11.1211467" />
      <trkpt lat="46.0661586" lon="11.1211285" />
      <trkpt lat="46.0664061" lon="11.1210506" />
      <trkpt lat="46.0665614" lon="11.1210220" />
      <trkpt lat="46.0666115" lon="11.1210169" />
      <trkpt lat="46.0666602" lon="11.1210169" />
      <trkpt lat="46.0667526" lon="11.1210542" />
      <trkpt lat="46.0667024" lon="11.1213629" />
      <trkpt lat="46.0666701" lon="11.1215352" />
      <trkpt lat="46.0666789" lon="11.1217092" />
      <trkpt lat="46.0666523" lon="11.1217176" />
      <trkpt lat="46.0665604" lon="11.1217424" />
      <trkpt lat="46.0665308" lon="11.1217471" />
      <trkpt lat="46.0665163" lon="11.1214025" />
      <trkpt lat="46.0665295" lon="11.1213821" />
      <trkpt lat="46.0665626" lon="11.1213706" />
      <trkpt lat="46.0666368" lon="11.1213644" />
      <trkpt lat="46.0667024" lon="11.1213629" />
      <trkpt lat="46.0667526" lon="11.1210542" />
      <trkpt lat="46.0667705" lon="11.1210629" />
      <trkpt lat="46.0668711" lon="11.1210492" />
    </trkseg>
  </trk>
</gpx>
