<?xml version="1.0" encoding="UTF-8"?>
<gpx xmlns="http://www.topografix.com/GPX/1/1" version="1.1" creator="ShapeRoute route-engine">
  <metadata>
    <name>circle 5 km · 2026-09-22</name>
    <author>
      <name>ShapeRoute route-engine</name>
    </author>
    <time>2026-09-22T22:34:47Z</time>
  </metadata>
  <trk>
    <name>circle 5 km · 2026-09-22</name>
    <trkseg>
      <trkpt lat="46.0668711" lon="11.1210492" />
      <trkpt lat="46.0668249" lon="11.1206182" />
      <trkpt lat="46.0667816" lon="11.1201952" />
      <trkpt lat="46.0668415" lon="11.1201785" />
      <trkpt lat="46.0667870" lon="11.1196244" />
      <trkpt lat="46.0667377" lon="11.1191227" />
      <trkpt lat="46.0667536" lon="11.1191108" />
      <trkpt lat="46.0667443" lon="11.1190130" />
      <trkpt lat="46.0667342" lon="11.1188998" />
      <trkpt lat="46.0666330" lon="11.1180667" />
      <trkpt lat="46.0666307" lon="11.1180277" />
      <trkpt lat="46.0666285" lon="11.1179842" />
      <trkpt lat="46.0665840" lon="11.1175686" />
      <trkpt lat="46.0665770" lon="11.1174755" />
      <trkpt lat="46.0665707" lon="11.1174180" />
      <trkpt lat="46.0665642" lon="11.1173398" />
      <trkpt lat="46.0665617" lon="11.1173234" />
      <trkpt lat="46.0665088" lon="11.1173312" />
      <trkpt lat="46.0664825" lon="11.1170755" />
      <trkpt lat="46.0664758" lon="11.1169809" />
      <trkpt lat="46.0664216" lon="11.1169920" />
      <trkpt lat="46.0664295" lon="11.1170349" />
      <trkpt lat="46.0664518" lon="11.1172941" />
      <trkpt lat="46.0664553" lon="11.1173406" />
      <trkpt lat="46.0664459" lon="11.1173714" />
      <trkpt lat="46.0661013" lon="11.1174434" />
      <trkpt lat="46.0652417" lon="11.1176356" />
      <trkpt lat="46.0652397" lon="11.1176989" />
      <trkpt lat="46.0651934" lon="11.1177089" />
      <trkpt lat="46.0651532" lon="11.1172758" />
      <trkpt lat="46.0651046" lon="11.1172245" />
      <trkpt lat="46.0650448" lon="11.1167071" />
      <trkpt lat="46.0650105" lon="11.1166051" />
      <trkpt lat="46.0649768" lon="11.1164589" />
      <trkpt lat="46.0648277" lon="11.1163932" />
      <trkpt lat="46.0646931" lon="11.1163053" />
      <trkpt lat="46.0646057" lon="11.1163224" />
      <trkpt lat="46.0645429" lon="11.1163936" />
      <trkpt lat="46.0645256" lon="11.1165274" />
      <trkpt lat="46.0645052" lon="11.1167422" />
      <trkpt lat="46.0644674" lon="11.1167469" />
      <trkpt lat="46.0641805" lon="11.1167941" />
      <trkpt lat="46.0635353" lon="11.1168949" />
      <trkpt lat="46.0634299" lon="11.1169932" />
      <trkpt lat="46.0633950" lon="11.1170509" />
      <trkpt lat="46.0633696" lon="11.1167056" />
      <trkpt lat="46.0633201" lon="11.1160412" />
      <trkpt lat="46.0632900" lon="11.1157231" />
      <trkpt lat="46.0632879" lon="11.1156921" />
      <trkpt lat="46.0633271" lon="11.1156837" />
      <trkpt lat="46.0633640" lon="11.1156171" />
      <trkpt lat="46.0634008" lon="11.1155391" />
      <trkpt lat="46.0634506" lon="11.1154336" />
      <trkpt lat="46.0634328" lon="11.1150619" />
      <trkpt lat="46.0634300" lon="11.1150156" />
      <trkpt lat="46.0632431" lon="11.1150335" />
      <trkpt lat="46.0631956" lon="11.1143358" />
      <trkpt lat="46.0628528" lon="11.1143739" />
      <trkpt lat="46.0628367" lon="11.1141601" />
      <trkpt lat="46.0628087" lon="11.1137879" />
      <trkpt lat="46.0627499" lon="11.1138055" />
      <trkpt lat="46.0627296" lon="11.1138256" />
      <trkpt lat="46.0626817" lon="11.1136839" />
      <trkpt lat="46.0626176" lon="11.1136671" />
      <trkpt lat="46.0623474" lon="11.1136024" />
      <trkpt lat="46.0623318" lon="11.1135988" />
      <trkpt lat="46.0622819" lon="11.1135872" />
      <trkpt lat="46.0622377" lon="11.1135805" />
      <trkpt lat="46.0620544" lon="11.1135429" />
      <trkpt lat="46.0618492" lon="11.1135112" />
      <trkpt lat="46.0616604" lon="11.1134805" />
      <trkpt lat="46.0615126" lon="11.1134600" />
      <trkpt lat="46.0612735" lon="11.1134347" />
      <trkpt lat="46.0611072" lon="11.1134227" />
      <trkpt lat="46.0610721" lon="11.1134257" />
      <trkpt lat="46.0605715" lon="11.1134088" />
      <trkpt lat="46.0606297" lon="11.1142799" />
      <trkpt lat="46.0604743" lon="11.1143324" />
      <trkpt lat="46.0603586" lon="11.1143677" />
      <trkpt lat="46.0601439" lon="11.1144309" />
      <trkpt lat="46.0601347" lon="11.1144337" />
      <trkpt lat="46.0596395" lon="11.1145368" />
      <trkpt lat="46.0596530" lon="11.1147354" />
      <trkpt lat="46.0594891" lon="11.1147610" />
      <trkpt lat="46.0592891" lon="11.1147921" />
      <trkpt lat="46.0591472" lon="11.1148142" />
      <trkpt lat="46.0591061" lon="11.1148199" />
      <trkpt lat="46.0587594" lon="11.1148608" />
      <trkpt lat="46.0587620" lon="11.1149087" />
      <trkpt lat="46.0585353" lon="11.1149430" />
      <trkpt lat="46.0584373" lon="11.1150024" />
      <trkpt lat="46.0583790" lon="11.1150491" />
      <trkpt lat="46.0583221" lon="11.1151063" />
      <trkpt lat="46.0582241" lon="11.1151208" />
      <trkpt lat="46.0574124" lon="11.1152374" />
      <trkpt lat="46.0574084" lon="11.1151807" />
      <trkpt lat="46.0573628" lon="11.1151863" />
      <trkpt lat="46.0573142" lon="11.1151938" />
      <trkpt lat="46.0573002" lon="11.1152056" />
      <trkpt lat="46.0572862" lon="11.1152365" />
      <trkpt lat="46.0572807" lon="11.1152652" />
      <trkpt lat="46.0572834" lon="11.1153113" />
      <trkpt lat="46.0572360" lon="11.1153223" />
      <trkpt lat="46.0571982" lon="11.1153312" />
      <trkpt lat="46.0572696" lon="11.1159161" />
      <trkpt lat="46.0572450" lon="11.1159689" />
      <trkpt lat="46.0572246" lon="11.1159758" />
      <trkpt lat="46.0572289" lon="11.1160278" />
      <trkpt lat="46.0572305" lon="11.1160775" />
      <trkpt lat="46.0572519" lon="11.1160740" />
      <trkpt lat="46.0572817" lon="11.1160970" />
      <trkpt lat="46.0572914" lon="11.1161286" />
      <trkpt lat="46.0573161" lon="11.1163155" />
      <trkpt lat="46.0574610" lon="11.1174088" />
      <trkpt lat="46.0574996" lon="11.1174023" />
      <trkpt lat="46.0575083" lon="11.1174670" />
      <trkpt lat="46.0575196" lon="11.1175314" />
      <trkpt lat="46.0575619" lon="11.1175238" />
      <trkpt lat="46.0576247" lon="11.1175180" />
      <trkpt lat="46.0577178" lon="11.1175073" />
      <trkpt lat="46.0578821" lon="11.1174818" />
      <trkpt lat="46.0578777" lon="11.1173488" />
      <trkpt lat="46.0579989" lon="11.1173345" />
      <trkpt lat="46.0580251" lon="11.1172878" />
      <trkpt lat="46.0580214" lon="11.1172128" />
      <trkpt lat="46.0580162" lon="11.1171421" />
      <trkpt lat="46.0579890" lon="11.1171005" />
      <trkpt lat="46.0577366" lon="11.1171304" />
      <trkpt lat="46.0577014" lon="11.1171926" />
      <trkpt lat="46.0577067" lon="11.1172629" />
      <trkpt lat="46.0576070" lon="11.1172835" />
      <trkpt lat="46.0576247" lon="11.1175180" />
      <trkpt lat="46.0575619" lon="11.1175238" />
      <trkpt lat="46.0575196" lon="11.1175314" />
      <trkpt lat="46.0575472" lon="11.1177681" />
      <trkpt lat="46.0575548" lon="11.1178704" />
      <trkpt lat="46.0575414" lon="11.1179814" />
      <trkpt lat="46.0575321" lon="11.1180479" />
      <trkpt lat="46.0575263" lon="11.1180843" />
      <trkpt lat="46.0575132" lon="11.1181609" />
      <trkpt lat="46.0574948" lon="11.1182024" />
      <trkpt lat="46.0574657" lon="11.1182243" />
      <trkpt lat="46.0574407" lon="11.1182569" />
      <trkpt lat="46.0574218" lon="11.1182991" />
      <trkpt lat="46.0574110" lon="11.1183492" />
      <trkpt lat="46.0574094" lon="11.1183854" />
      <trkpt lat="46.0574125" lon="11.1184211" />
      <trkpt lat="46.0574200" lon="11.1184544" />
      <trkpt lat="46.0574300" lon="11.1184899" />
      <trkpt lat="46.0574502" lon="11.1185227" />
      <trkpt lat="46.0574180" lon="11.1185424" />
      <trkpt lat="46.0573397" lon="11.1186109" />
      <trkpt lat="46.0571597" lon="11.1188150" />
      <trkpt lat="46.0571510" lon="11.1188255" />
      <trkpt lat="46.0571775" lon="11.1188808" />
      <trkpt lat="46.0571672" lon="11.1188964" />
      <trkpt lat="46.0571345" lon="11.1189446" />
      <trkpt lat="46.0569462" lon="11.1192219" />
      <trkpt lat="46.0569228" lon="11.1192867" />
      <trkpt lat="46.0568961" lon="11.1193548" />
      <trkpt lat="46.0567115" lon="11.1196265" />
      <trkpt lat="46.0566743" lon="11.1196850" />
      <trkpt lat="46.0566613" lon="11.1196996" />
      <trkpt lat="46.0566251" lon="11.1197401" />
      <trkpt lat="46.0565870" lon="11.1197704" />
      <trkpt lat="46.0565655" lon="11.1197852" />
      <trkpt lat="46.0565401" lon="11.1198034" />
      <trkpt lat="46.0563700" lon="11.1199545" />
      <trkpt lat="46.0562987" lon="11.1200155" />
      <trkpt lat="46.0562096" lon="11.1200819" />
      <trkpt lat="46.0562609" lon="11.1203035" />
      <trkpt lat="46.0562736" lon="11.1203518" />
      <trkpt lat="46.0562239" lon="11.1203753" />
      <trkpt lat="46.0561697" lon="11.1204043" />
      <trkpt lat="46.0562394" lon="11.1207451" />
      <trkpt lat="46.0562212" lon="11.1207637" />
      <trkpt lat="46.0562026" lon="11.1207578" />
      <trkpt lat="46.0561817" lon="11.1207623" />
      <trkpt lat="46.0560786" lon="11.1208056" />
      <trkpt lat="46.0560407" lon="11.1208203" />
      <trkpt lat="46.0560664" lon="11.1209508" />
      <trkpt lat="46.0561267" lon="11.1212571" />
      <trkpt lat="46.0561376" lon="11.1213126" />
      <trkpt lat="46.0562976" lon="11.1221360" />
      <trkpt lat="46.0564254" lon="11.1227747" />
      <trkpt lat="46.0564652" lon="11.1227617" />
      <trkpt lat="46.0564723" lon="11.1227978" />
      <trkpt lat="46.0564777" lon="11.1228251" />
      <trkpt lat="46.0564849" lon="11.1228612" />
      <trkpt lat="46.0565985" lon="11.1234466" />
      <trkpt lat="46.0566262" lon="11.1235244" />
      <trkpt lat="46.0566572" lon="11.1236085" />
      <trkpt lat="46.0567181" lon="11.1237492" />
      <trkpt lat="46.0570340" lon="11.1241895" />
      <trkpt lat="46.0569644" lon="11.1242180" />
      <trkpt lat="46.0574709" lon="11.1249022" />
      <trkpt lat="46.0578914" lon="11.1254026" />
      <trkpt lat="46.0579242" lon="11.1254347" />
      <trkpt lat="46.0579381" lon="11.1254483" />
      <trkpt lat="46.0579717" lon="11.1254582" />
      <trkpt lat="46.0579538" lon="11.1255362" />
      <trkpt lat="46.0579003" lon="11.1254811" />
      <trkpt lat="46.0578741" lon="11.1255407" />
      <trkpt lat="46.0577668" lon="11.1257904" />
      <trkpt lat="46.0583284" lon="11.1263150" />
      <trkpt lat="46.0586623" lon="11.1266225" />
      <trkpt lat="46.0586698" lon="11.1266261" />
      <trkpt lat="46.0586813" lon="11.1266261" />
      <trkpt lat="46.0586921" lon="11.1266284" />
      <trkpt lat="46.0587081" lon="11.1266351" />
      <trkpt lat="46.0587747" lon="11.1267065" />
      <trkpt lat="46.0588911" lon="11.1268848" />
      <trkpt lat="46.0588261" lon="11.1269596" />
      <trkpt lat="46.0588424" lon="11.1269858" />
      <trkpt lat="46.0588619" lon="11.1270173" />
      <trkpt lat="46.0588908" lon="11.1270638" />
      <trkpt lat="46.0589008" lon="11.1270798" />
      <trkpt lat="46.0588891" lon="11.1270924" />
      <trkpt lat="46.0587541" lon="11.1272559" />
      <trkpt lat="46.0587512" lon="11.1272621" />
      <trkpt lat="46.0587537" lon="11.1272716" />
      <trkpt lat="46.0587722" lon="11.1273023" />
      <trkpt lat="46.0587940" lon="11.1273741" />
      <trkpt lat="46.0588957" lon="11.1275222" />
      <trkpt lat="46.0592914" lon="11.1280981" />
      <trkpt lat="46.0592540" lon="11.1281552" />
      <trkpt lat="46.0592015" lon="11.1280728" />
      <trkpt lat="46.0591896" lon="11.1280247" />
      <trkpt lat="46.0591810" lon="11.1280011" />
      <trkpt lat="46.0590407" lon="11.1278024" />
      <trkpt lat="46.0589913" lon="11.1277325" />
      <trkpt lat="46.0588715" lon="11.1275629" />
      <trkpt lat="46.0587754" lon="11.1274216" />
      <trkpt lat="46.0587527" lon="11.1273783" />
      <trkpt lat="46.0587374" lon="11.1273493" />
      <trkpt lat="46.0587476" lon="11.1273363" />
      <trkpt lat="46.0587553" lon="11.1273261" />
      <trkpt lat="46.0587722" lon="11.1273023" />
      <trkpt lat="46.0587537" lon="11.1272716" />
      <trkpt lat="46.0587512" lon="11.1272621" />
      <trkpt lat="46.0587541" lon="11.1272559" />
      <trkpt lat="46.0588891" lon="11.1270924" />
      <trkpt lat="46.0589008" lon="11.1270798" />
      <trkpt lat="46.0589212" lon="11.1270694" />
      <trkpt lat="46.0589412" lon="11.1270785" />
      <trkpt lat="46.0589724" lon="11.1271099" />
      <trkpt lat="46.0589748" lon="11.1271079" />
      <trkpt lat="46.0589783" lon="11.1271051" />
      <trkpt lat="46.0590008" lon="11.1270867" />
      <trkpt lat="46.0590244" lon="11.1271318" />
      <trkpt lat="46.0590349" lon="11.1271380" />
      <trkpt lat="46.0590732" lon="11.1271445" />
      <trkpt lat="46.0591635" lon="11.1273036" />
      <trkpt lat="46.0597850" lon="11.1282180" />
      <trkpt lat="46.0598300" lon="11.1282789" />
      <trkpt lat="46.0602050" lon="11.1288262" />
      <trkpt lat="46.0602269" lon="11.1288582" />
      <trkpt lat="46.0602599" lon="11.1288096" />
      <trkpt lat="46.0607326" lon="11.1294911" />
      <trkpt lat="46.0608768" lon="11.1297155" />
      <trkpt lat="46.0610403" lon="11.1299387" />
      <trkpt lat="46.0610624" lon="11.1299081" />
      <trkpt lat="46.0611681" lon="11.1297520" />
      <trkpt lat="46.0611790" lon="11.1297359" />
      <trkpt lat="46.0615892" lon="11.1291469" />
      <trkpt lat="46.0616260" lon="11.1291989" />
      <trkpt lat="46.0616855" lon="11.1291085" />
      <trkpt lat="46.0617307" lon="11.1290432" />
      <trkpt lat="46.0617656" lon="11.1289925" />
      <trkpt lat="46.0620345" lon="11.1286015" />
      <trkpt lat="46.0621868" lon="11.1283752" />
      <trkpt lat="46.0622315" lon="11.1283417" />
      <trkpt lat="46.0622527" lon="11.1283717" />
      <trkpt lat="46.0622669" lon="11.1283922" />
      <trkpt lat="46.0622832" lon="11.1283746" />
      <trkpt lat="46.0623076" lon="11.1283411" />
      <trkpt lat="46.0623285" lon="11.1283074" />
      <trkpt lat="46.0624776" lon="11.1280998" />
      <trkpt lat="46.0626158" lon="11.1278848" />
      <trkpt lat="46.0626840" lon="11.1278065" />
      <trkpt lat="46.0627643" lon="11.1277171" />
      <trkpt lat="46.0628305" lon="11.1276484" />
      <trkpt lat="46.0628982" lon="11.1275786" />
      <trkpt lat="46.0629580" lon="11.1275212" />
      <trkpt lat="46.0629757" lon="11.1274870" />
      <trkpt lat="46.0630095" lon="11.1274609" />
      <trkpt lat="46.0630302" lon="11.1274548" />
      <trkpt lat="46.0630826" lon="11.1274160" />
      <trkpt lat="46.0631147" lon="11.1273922" />
      <trkpt lat="46.0631350" lon="11.1273812" />
      <trkpt lat="46.0631828" lon="11.1273634" />
      <trkpt lat="46.0632162" lon="11.1273455" />
      <trkpt lat="46.0632440" lon="11.1273260" />
      <trkpt lat="46.0632780" lon="11.1273019" />
      <trkpt lat="46.0633086" lon="11.1273001" />
      <trkpt lat="46.0633401" lon="11.1273160" />
      <trkpt lat="46.0633472" lon="11.1272918" />
      <trkpt lat="46.0633619" lon="11.1272414" />
      <trkpt lat="46.0633767" lon="11.1271905" />
      <trkpt lat="46.0633842" lon="11.1271649" />
      <trkpt lat="46.0638484" lon="11.1274271" />
      <trkpt lat="46.0643624" lon="11.1277123" />
      <trkpt lat="46.0644047" lon="11.1277363" />
      <trkpt lat="46.0644241" lon="11.1277455" />
      <trkpt lat="46.0648377" lon="11.1279594" />
      <trkpt lat="46.0648152" lon="11.1280463" />
      <trkpt lat="46.0647932" lon="11.1281318" />
      <trkpt lat="46.0647866" lon="11.1281574" />
      <trkpt lat="46.0648723" lon="11.1282038" />
      <trkpt lat="46.0649057" lon="11.1282221" />
      <trkpt lat="46.0649203" lon="11.1282300" />
      <trkpt lat="46.0649274" lon="11.1282017" />
      <trkpt lat="46.0649902" lon="11.1282361" />
      <trkpt lat="46.0650092" lon="11.1281598" />
      <trkpt lat="46.0650283" lon="11.1280830" />
      <trkpt lat="46.0655989" lon="11.1283923" />
      <trkpt lat="46.0656221" lon="11.1283866" />
      <trkpt lat="46.0656360" lon="11.1283556" />
      <trkpt lat="46.0657014" lon="11.1281023" />
      <trkpt lat="46.0659004" lon="11.1273426" />
      <trkpt lat="46.0659180" lon="11.1272752" />
      <trkpt lat="46.0659664" lon="11.1270981" />
      <trkpt lat="46.0662124" lon="11.1261632" />
      <trkpt lat="46.0662441" lon="11.1260428" />
      <trkpt lat="46.0659342" lon="11.1258733" />
      <trkpt lat="46.0659575" lon="11.1257955" />
      <trkpt lat="46.0659888" lon="11.1256911" />
      <trkpt lat="46.0657986" lon="11.1255218" />
      <trkpt lat="46.0657065" lon="11.1254149" />
      <trkpt lat="46.0656223" lon="11.1249238" />
      <trkpt lat="46.0656615" lon="11.1248850" />
      <trkpt lat="46.0656894" lon="11.1248307" />
      <trkpt lat="46.0657009" lon="11.1247688" />
      <trkpt lat="46.0656958" lon="11.1246657" />
      <trkpt lat="46.0656609" lon="11.1239761" />
      <trkpt lat="46.0658911" lon="11.1239464" />
      <trkpt lat="46.0659601" lon="11.1239522" />
      <trkpt lat="46.0660427" lon="11.1240327" />
      <trkpt lat="46.0662062" lon="11.1240774" />
      <trkpt lat="46.0664498" lon="11.1240203" />
      <trkpt lat="46.0663806" lon="11.1234542" />
      <trkpt lat="46.0666735" lon="11.1233841" />
      <trkpt lat="46.0668835" lon="11.1233350" />
      <trkpt lat="46.0668905" lon="11.1233334" />
      <trkpt lat="46.0668872" lon="11.1232848" />
      <trkpt lat="46.0668548" lon="11.1230552" />
      <trkpt lat="46.0667810" lon="11.1225726" />
      <trkpt lat="46.0667729" lon="11.1225194" />
      <trkpt lat="46.0667715" lon="11.1225101" />
      <trkpt lat="46.0667532" lon="11.1223909" />
      <trkpt lat="46.0667414" lon="11.1223091" />
      <trkpt lat="46.0667357" lon="11.1222747" />
      <trkpt lat="46.0667350" lon="11.1222603" />
      <trkpt lat="46.0667287" lon="11.1221612" />
      <trkpt lat="46.0667249" lon="11.1220591" />
      <trkpt lat="46.0667229" lon="11.1219913" />
      <trkpt lat="46.0667210" lon="11.1219626" />
      <trkpt lat="46.0667304" lon="11.1218751" />
      <trkpt lat="46.0667274" lon="11.1218448" />
      <trkpt lat="46.0666789" lon="11.1217092" />
      <trkpt lat="46.0666701" lon="11.1215352" />
      <trkpt lat="46.0667024" lon="11.1213629" />
      <trkpt lat="46.0667526" lon="11.1210542" />
      <trkpt lat="46.0667705" lon="11.1210629" />
      <trkpt lat="46.0668711" lon="11.1210492" />
    </trkseg>
  </trk>
</gpx>
