<?xml version="1.0" encoding="UTF-8"?>
<gpx xmlns="http://www.topografix.com/GPX/1/1" version="1.1" creator="ShapeRoute route-engine">
  <metadata>
    <name>smiley 10 km · 2026-10-03</name>
    <author>
      <name>ShapeRoute route-engine</name>
    </author>
    <copyright author="OpenStreetMap contributors">
      <license>https://opendatacommons.org/licenses/odbl/1-0/</license>
    </copyright>
    <link href="https://www.openstreetmap.org/copyright">
      <text>© OpenStreetMap contributors</text>
    </link>
    <time>2026-10-03T19:59:15Z</time>
  </metadata>
  <trk>
    <name>smiley 10 km · 2026-10-03</name>
    <trkseg>
      <trkpt lat="45.4643695" lon="9.1897716" />
      <trkpt lat="45.4644313" lon="9.1898582" />
      <trkpt lat="45.4644741" lon="9.1898729" />
      <trkpt lat="45.4645046" lon="9.1898833" />
      <trkpt lat="45.4645446" lon="9.1898970" />
      <trkpt lat="45.4645546" lon="9.1899005" />
      <trkpt lat="45.4645542" lon="9.1899580" />
      <trkpt lat="45.4645497" lon="9.1899580" />
      <trkpt lat="45.4645497" lon="9.1899743" />
      <trkpt lat="45.4645490" lon="9.1902933" />
      <trkpt lat="45.4645579" lon="9.1902970" />
      <trkpt lat="45.4645713" lon="9.1903119" />
      <trkpt lat="45.4645796" lon="9.1903211" />
      <trkpt lat="45.4645915" lon="9.1903344" />
      <trkpt lat="45.4645901" lon="9.1904077" />
      <trkpt lat="45.4646642" lon="9.1904112" />
      <trkpt lat="45.4646621" lon="9.1904786" />
      <trkpt lat="45.4645935" lon="9.1906061" />
      <trkpt lat="45.4646000" lon="9.1909552" />
      <trkpt lat="45.4646003" lon="9.1909797" />
      <trkpt lat="45.4646007" lon="9.1910693" />
      <trkpt lat="45.4646012" lon="9.1911209" />
      <trkpt lat="45.4646465" lon="9.1911206" />
      <trkpt lat="45.4646515" lon="9.1916688" />
      <trkpt lat="45.4646511" lon="9.1923052" />
      <trkpt lat="45.4645377" lon="9.1923059" />
      <trkpt lat="45.4645367" lon="9.1924709" />
      <trkpt lat="45.4643963" lon="9.1924716" />
      <trkpt lat="45.4642136" lon="9.1927217" />
      <trkpt lat="45.4645351" lon="9.1927354" />
      <trkpt lat="45.4645357" lon="9.1927628" />
      <trkpt lat="45.4638518" lon="9.1927544" />
      <trkpt lat="45.4637264" lon="9.1927530" />
      <trkpt lat="45.4637018" lon="9.1926368" />
      <trkpt lat="45.4636995" lon="9.1921135" />
      <trkpt lat="45.4636519" lon="9.1921174" />
      <trkpt lat="45.4636525" lon="9.1921553" />
      <trkpt lat="45.4636549" lon="9.1929747" />
      <trkpt lat="45.4636598" lon="9.1935381" />
      <trkpt lat="45.4636606" lon="9.1935664" />
      <trkpt lat="45.4636618" lon="9.1936068" />
      <trkpt lat="45.4636637" lon="9.1936701" />
      <trkpt lat="45.4636641" lon="9.1936841" />
      <trkpt lat="45.4636275" lon="9.1937913" />
      <trkpt lat="45.4636446" lon="9.1938337" />
      <trkpt lat="45.4636443" lon="9.1938826" />
      <trkpt lat="45.4636267" lon="9.1939246" />
      <trkpt lat="45.4635965" lon="9.1939480" />
      <trkpt lat="45.4636012" lon="9.1940812" />
      <trkpt lat="45.4636051" lon="9.1941328" />
      <trkpt lat="45.4636130" lon="9.1942404" />
      <trkpt lat="45.4636136" lon="9.1942488" />
      <trkpt lat="45.4635365" lon="9.1942471" />
      <trkpt lat="45.4635253" lon="9.1942503" />
      <trkpt lat="45.4635140" lon="9.1942577" />
      <trkpt lat="45.4634869" lon="9.1942882" />
      <trkpt lat="45.4634661" lon="9.1943206" />
      <trkpt lat="45.4634270" lon="9.1944557" />
      <trkpt lat="45.4634017" lon="9.1945835" />
      <trkpt lat="45.4633431" lon="9.1949500" />
      <trkpt lat="45.4631686" lon="9.1949087" />
      <trkpt lat="45.4631403" lon="9.1948631" />
      <trkpt lat="45.4631100" lon="9.1948143" />
      <trkpt lat="45.4630756" lon="9.1947588" />
      <trkpt lat="45.4630628" lon="9.1947382" />
      <trkpt lat="45.4629347" lon="9.1945397" />
      <trkpt lat="45.4629278" lon="9.1945469" />
      <trkpt lat="45.4628980" lon="9.1945780" />
      <trkpt lat="45.4628816" lon="9.1945951" />
      <trkpt lat="45.4628757" lon="9.1946012" />
      <trkpt lat="45.4628639" lon="9.1946136" />
      <trkpt lat="45.4628561" lon="9.1946216" />
      <trkpt lat="45.4628441" lon="9.1946341" />
      <trkpt lat="45.4625557" lon="9.1940340" />
      <trkpt lat="45.4625418" lon="9.1940033" />
      <trkpt lat="45.4625369" lon="9.1939937" />
      <trkpt lat="45.4624462" lon="9.1938153" />
      <trkpt lat="45.4624005" lon="9.1937188" />
      <trkpt lat="45.4623871" lon="9.1937314" />
      <trkpt lat="45.4623766" lon="9.1937414" />
      <trkpt lat="45.4623716" lon="9.1937461" />
      <trkpt lat="45.4623597" lon="9.1937574" />
      <trkpt lat="45.4623475" lon="9.1937689" />
      <trkpt lat="45.4623318" lon="9.1937838" />
      <trkpt lat="45.4623222" lon="9.1937929" />
      <trkpt lat="45.4622467" lon="9.1936735" />
      <trkpt lat="45.4621036" lon="9.1934014" />
      <trkpt lat="45.4620895" lon="9.1933779" />
      <trkpt lat="45.4620729" lon="9.1933502" />
      <trkpt lat="45.4620514" lon="9.1933144" />
      <trkpt lat="45.4620361" lon="9.1932890" />
      <trkpt lat="45.4618688" lon="9.1934483" />
      <trkpt lat="45.4618668" lon="9.1934682" />
      <trkpt lat="45.4618634" lon="9.1935030" />
      <trkpt lat="45.4618609" lon="9.1935286" />
      <trkpt lat="45.4618604" lon="9.1935337" />
      <trkpt lat="45.4618296" lon="9.1935274" />
      <trkpt lat="45.4614555" lon="9.1934512" />
      <trkpt lat="45.4614324" lon="9.1934465" />
      <trkpt lat="45.4612166" lon="9.1933988" />
      <trkpt lat="45.4610838" lon="9.1933578" />
      <trkpt lat="45.4610053" lon="9.1933336" />
      <trkpt lat="45.4607552" lon="9.1932647" />
      <trkpt lat="45.4605068" lon="9.1931779" />
      <trkpt lat="45.4605078" lon="9.1931743" />
      <trkpt lat="45.4605197" lon="9.1931330" />
      <trkpt lat="45.4605326" lon="9.1930883" />
      <trkpt lat="45.4605349" lon="9.1930802" />
      <trkpt lat="45.4605164" lon="9.1930436" />
      <trkpt lat="45.4605126" lon="9.1930419" />
      <trkpt lat="45.4604952" lon="9.1930342" />
      <trkpt lat="45.4604709" lon="9.1930236" />
      <trkpt lat="45.4604693" lon="9.1930217" />
      <trkpt lat="45.4604491" lon="9.1930434" />
      <trkpt lat="45.4595205" lon="9.1926837" />
      <trkpt lat="45.4593651" lon="9.1926235" />
      <trkpt lat="45.4592409" lon="9.1924782" />
      <trkpt lat="45.4592541" lon="9.1923905" />
      <trkpt lat="45.4592591" lon="9.1923649" />
      <trkpt lat="45.4592798" lon="9.1922586" />
      <trkpt lat="45.4595893" lon="9.1919249" />
      <trkpt lat="45.4599789" lon="9.1915883" />
      <trkpt lat="45.4599829" lon="9.1915852" />
      <trkpt lat="45.4599976" lon="9.1915738" />
      <trkpt lat="45.4601053" lon="9.1914964" />
      <trkpt lat="45.4602708" lon="9.1913774" />
      <trkpt lat="45.4603279" lon="9.1913272" />
      <trkpt lat="45.4604739" lon="9.1912503" />
      <trkpt lat="45.4605008" lon="9.1912343" />
      <trkpt lat="45.4605156" lon="9.1912231" />
      <trkpt lat="45.4606155" lon="9.1913999" />
      <trkpt lat="45.4607475" lon="9.1916242" />
      <trkpt lat="45.4607646" lon="9.1915823" />
      <trkpt lat="45.4607872" lon="9.1915146" />
      <trkpt lat="45.4608032" lon="9.1914710" />
      <trkpt lat="45.4608128" lon="9.1914836" />
      <trkpt lat="45.4608350" lon="9.1915152" />
      <trkpt lat="45.4608584" lon="9.1915432" />
      <trkpt lat="45.4608687" lon="9.1915498" />
      <trkpt lat="45.4608761" lon="9.1915587" />
      <trkpt lat="45.4608880" lon="9.1915422" />
      <trkpt lat="45.4609138" lon="9.1915063" />
      <trkpt lat="45.4609923" lon="9.1916149" />
      <trkpt lat="45.4610423" lon="9.1916856" />
      <trkpt lat="45.4614566" lon="9.1922643" />
      <trkpt lat="45.4610423" lon="9.1916856" />
      <trkpt lat="45.4609923" lon="9.1916149" />
      <trkpt lat="45.4610390" lon="9.1915486" />
      <trkpt lat="45.4610484" lon="9.1915352" />
      <trkpt lat="45.4618345" lon="9.1926732" />
      <trkpt lat="45.4619404" lon="9.1928254" />
      <trkpt lat="45.4619770" lon="9.1928804" />
      <trkpt lat="45.4620113" lon="9.1929327" />
      <trkpt lat="45.4620479" lon="9.1929957" />
      <trkpt lat="45.4623065" lon="9.1935237" />
      <trkpt lat="45.4623109" lon="9.1935326" />
      <trkpt lat="45.4623385" lon="9.1935880" />
      <trkpt lat="45.4624005" lon="9.1937188" />
      <trkpt lat="45.4624462" lon="9.1938153" />
      <trkpt lat="45.4625369" lon="9.1939937" />
      <trkpt lat="45.4625418" lon="9.1940033" />
      <trkpt lat="45.4625557" lon="9.1940340" />
      <trkpt lat="45.4625485" lon="9.1940405" />
      <trkpt lat="45.4625407" lon="9.1940476" />
      <trkpt lat="45.4625378" lon="9.1940502" />
      <trkpt lat="45.4625248" lon="9.1940621" />
      <trkpt lat="45.4625116" lon="9.1940741" />
      <trkpt lat="45.4624918" lon="9.1940922" />
      <trkpt lat="45.4624660" lon="9.1941156" />
      <trkpt lat="45.4624435" lon="9.1941361" />
      <trkpt lat="45.4624584" lon="9.1941658" />
      <trkpt lat="45.4624732" lon="9.1941953" />
      <trkpt lat="45.4624904" lon="9.1942286" />
      <trkpt lat="45.4624954" lon="9.1942382" />
      <trkpt lat="45.4623776" lon="9.1943568" />
      <trkpt lat="45.4623738" lon="9.1943884" />
      <trkpt lat="45.4624755" lon="9.1946086" />
      <trkpt lat="45.4624780" lon="9.1948997" />
      <trkpt lat="45.4624820" lon="9.1950767" />
      <trkpt lat="45.4623722" lon="9.1950738" />
      <trkpt lat="45.4623715" lon="9.1950994" />
      <trkpt lat="45.4623722" lon="9.1951570" />
      <trkpt lat="45.4623796" lon="9.1953633" />
      <trkpt lat="45.4623815" lon="9.1954346" />
      <trkpt lat="45.4623604" lon="9.1954373" />
      <trkpt lat="45.4621928" lon="9.1954585" />
      <trkpt lat="45.4621891" lon="9.1953784" />
      <trkpt lat="45.4621783" lon="9.1951262" />
      <trkpt lat="45.4621788" lon="9.1950796" />
      <trkpt lat="45.4620642" lon="9.1950114" />
      <trkpt lat="45.4619224" lon="9.1949879" />
      <trkpt lat="45.4618658" lon="9.1949796" />
      <trkpt lat="45.4618502" lon="9.1950213" />
      <trkpt lat="45.4618010" lon="9.1951317" />
      <trkpt lat="45.4617001" lon="9.1953736" />
      <trkpt lat="45.4615690" lon="9.1955584" />
      <trkpt lat="45.4615237" lon="9.1955888" />
      <trkpt lat="45.4614814" lon="9.1955955" />
      <trkpt lat="45.4614235" lon="9.1956391" />
      <trkpt lat="45.4613601" lon="9.1956287" />
      <trkpt lat="45.4613608" lon="9.1956416" />
      <trkpt lat="45.4613576" lon="9.1956637" />
      <trkpt lat="45.4613456" lon="9.1956856" />
      <trkpt lat="45.4611009" lon="9.1959758" />
      <trkpt lat="45.4608010" lon="9.1963368" />
      <trkpt lat="45.4607844" lon="9.1963347" />
      <trkpt lat="45.4607772" lon="9.1963500" />
      <trkpt lat="45.4607719" lon="9.1963614" />
      <trkpt lat="45.4607420" lon="9.1964253" />
      <trkpt lat="45.4607178" lon="9.1964772" />
      <trkpt lat="45.4607113" lon="9.1964968" />
      <trkpt lat="45.4604792" lon="9.1962689" />
      <trkpt lat="45.4603430" lon="9.1961476" />
      <trkpt lat="45.4600397" lon="9.1958612" />
      <trkpt lat="45.4600272" lon="9.1958906" />
      <trkpt lat="45.4600242" lon="9.1959060" />
      <trkpt lat="45.4600224" lon="9.1959164" />
      <trkpt lat="45.4600207" lon="9.1959251" />
      <trkpt lat="45.4600130" lon="9.1959661" />
      <trkpt lat="45.4600161" lon="9.1961605" />
      <trkpt lat="45.4600197" lon="9.1962786" />
      <trkpt lat="45.4599000" lon="9.1962766" />
      <trkpt lat="45.4599000" lon="9.1963087" />
      <trkpt lat="45.4598880" lon="9.1963157" />
      <trkpt lat="45.4598712" lon="9.1963266" />
      <trkpt lat="45.4598598" lon="9.1963490" />
      <trkpt lat="45.4598568" lon="9.1963779" />
      <trkpt lat="45.4597714" lon="9.1963788" />
      <trkpt lat="45.4597148" lon="9.1963831" />
      <trkpt lat="45.4597392" lon="9.1967831" />
      <trkpt lat="45.4597832" lon="9.1975275" />
      <trkpt lat="45.4597132" lon="9.1975348" />
      <trkpt lat="45.4597058" lon="9.1975358" />
      <trkpt lat="45.4597044" lon="9.1975360" />
      <trkpt lat="45.4596822" lon="9.1975387" />
      <trkpt lat="45.4596404" lon="9.1968719" />
      <trkpt lat="45.4596315" lon="9.1967446" />
      <trkpt lat="45.4595972" lon="9.1962077" />
      <trkpt lat="45.4595543" lon="9.1962132" />
      <trkpt lat="45.4595471" lon="9.1962147" />
      <trkpt lat="45.4595087" lon="9.1962201" />
      <trkpt lat="45.4592820" lon="9.1962523" />
      <trkpt lat="45.4583990" lon="9.1963774" />
      <trkpt lat="45.4583629" lon="9.1964323" />
      <trkpt lat="45.4582396" lon="9.1963501" />
      <trkpt lat="45.4581199" lon="9.1963015" />
      <trkpt lat="45.4580864" lon="9.1962970" />
      <trkpt lat="45.4580436" lon="9.1962964" />
      <trkpt lat="45.4579237" lon="9.1963329" />
      <trkpt lat="45.4578496" lon="9.1963412" />
      <trkpt lat="45.4577452" lon="9.1962584" />
      <trkpt lat="45.4576286" lon="9.1962843" />
      <trkpt lat="45.4576728" lon="9.1971287" />
      <trkpt lat="45.4574359" lon="9.1971748" />
      <trkpt lat="45.4573791" lon="9.1971892" />
      <trkpt lat="45.4573320" lon="9.1972188" />
      <trkpt lat="45.4565642" lon="9.1973669" />
      <trkpt lat="45.4565383" lon="9.1974929" />
      <trkpt lat="45.4564554" lon="9.1975261" />
      <trkpt lat="45.4564080" lon="9.1975512" />
      <trkpt lat="45.4563927" lon="9.1975578" />
      <trkpt lat="45.4563829" lon="9.1974957" />
      <trkpt lat="45.4563802" lon="9.1974965" />
      <trkpt lat="45.4563605" lon="9.1975027" />
      <trkpt lat="45.4563461" lon="9.1975073" />
      <trkpt lat="45.4563383" lon="9.1975098" />
      <trkpt lat="45.4563224" lon="9.1975148" />
      <trkpt lat="45.4563168" lon="9.1975166" />
      <trkpt lat="45.4562049" lon="9.1968080" />
      <trkpt lat="45.4561405" lon="9.1964001" />
      <trkpt lat="45.4560994" lon="9.1961392" />
      <trkpt lat="45.4560587" lon="9.1961118" />
      <trkpt lat="45.4560744" lon="9.1960790" />
      <trkpt lat="45.4560396" lon="9.1959483" />
      <trkpt lat="45.4560284" lon="9.1959041" />
      <trkpt lat="45.4560201" lon="9.1958707" />
      <trkpt lat="45.4559558" lon="9.1957621" />
      <trkpt lat="45.4559749" lon="9.1957347" />
      <trkpt lat="45.4560040" lon="9.1956966" />
      <trkpt lat="45.4559992" lon="9.1956893" />
      <trkpt lat="45.4560090" lon="9.1956780" />
      <trkpt lat="45.4560436" lon="9.1956408" />
      <trkpt lat="45.4560541" lon="9.1956579" />
      <trkpt lat="45.4561743" lon="9.1955253" />
      <trkpt lat="45.4562693" lon="9.1954487" />
      <trkpt lat="45.4562993" lon="9.1954246" />
      <trkpt lat="45.4562989" lon="9.1954069" />
      <trkpt lat="45.4563006" lon="9.1953170" />
      <trkpt lat="45.4563646" lon="9.1952305" />
      <trkpt lat="45.4564106" lon="9.1951683" />
      <trkpt lat="45.4564116" lon="9.1951170" />
      <trkpt lat="45.4564123" lon="9.1950781" />
      <trkpt lat="45.4564133" lon="9.1950445" />
      <trkpt lat="45.4564155" lon="9.1950253" />
      <trkpt lat="45.4564175" lon="9.1950146" />
      <trkpt lat="45.4564201" lon="9.1949997" />
      <trkpt lat="45.4564223" lon="9.1949924" />
      <trkpt lat="45.4564272" lon="9.1949848" />
      <trkpt lat="45.4564715" lon="9.1949287" />
      <trkpt lat="45.4564815" lon="9.1949166" />
      <trkpt lat="45.4564705" lon="9.1948970" />
      <trkpt lat="45.4564970" lon="9.1948643" />
      <trkpt lat="45.4566435" lon="9.1946957" />
      <trkpt lat="45.4568323" lon="9.1944558" />
      <trkpt lat="45.4569639" lon="9.1942381" />
      <trkpt lat="45.4570088" lon="9.1942208" />
      <trkpt lat="45.4573557" lon="9.1936929" />
      <trkpt lat="45.4573706" lon="9.1936721" />
      <trkpt lat="45.4575248" lon="9.1934125" />
      <trkpt lat="45.4574976" lon="9.1933718" />
      <trkpt lat="45.4574318" lon="9.1932798" />
      <trkpt lat="45.4574218" lon="9.1932635" />
      <trkpt lat="45.4574048" lon="9.1932355" />
      <trkpt lat="45.4573657" lon="9.1932431" />
      <trkpt lat="45.4573483" lon="9.1932385" />
      <trkpt lat="45.4572305" lon="9.1931855" />
      <trkpt lat="45.4569309" lon="9.1929804" />
      <trkpt lat="45.4566311" lon="9.1927593" />
      <trkpt lat="45.4563627" lon="9.1927155" />
      <trkpt lat="45.4563213" lon="9.1927087" />
      <trkpt lat="45.4563044" lon="9.1927059" />
      <trkpt lat="45.4562966" lon="9.1928057" />
      <trkpt lat="45.4558859" lon="9.1927760" />
      <trkpt lat="45.4555656" lon="9.1927649" />
      <trkpt lat="45.4555451" lon="9.1927563" />
      <trkpt lat="45.4555221" lon="9.1927906" />
      <trkpt lat="45.4554991" lon="9.1928261" />
      <trkpt lat="45.4554725" lon="9.1928407" />
      <trkpt lat="45.4554508" lon="9.1928407" />
      <trkpt lat="45.4554134" lon="9.1928406" />
      <trkpt lat="45.4553832" lon="9.1928406" />
      <trkpt lat="45.4553709" lon="9.1928406" />
      <trkpt lat="45.4553258" lon="9.1928231" />
      <trkpt lat="45.4552340" lon="9.1929327" />
      <trkpt lat="45.4550128" lon="9.1931539" />
      <trkpt lat="45.4549939" lon="9.1931711" />
      <trkpt lat="45.4542142" lon="9.1938937" />
      <trkpt lat="45.4541916" lon="9.1938578" />
      <trkpt lat="45.4541757" lon="9.1938527" />
      <trkpt lat="45.4541567" lon="9.1938537" />
      <trkpt lat="45.4541406" lon="9.1938596" />
      <trkpt lat="45.4541245" lon="9.1938728" />
      <trkpt lat="45.4541095" lon="9.1938935" />
      <trkpt lat="45.4540865" lon="9.1939310" />
      <trkpt lat="45.4541028" lon="9.1936558" />
      <trkpt lat="45.4541777" lon="9.1930095" />
      <trkpt lat="45.4541884" lon="9.1929155" />
      <trkpt lat="45.4541694" lon="9.1929112" />
      <trkpt lat="45.4541608" lon="9.1929093" />
      <trkpt lat="45.4542599" lon="9.1919749" />
      <trkpt lat="45.4542551" lon="9.1919447" />
      <trkpt lat="45.4542387" lon="9.1919228" />
      <trkpt lat="45.4542461" lon="9.1919065" />
      <trkpt lat="45.4542567" lon="9.1918446" />
      <trkpt lat="45.4542671" lon="9.1917621" />
      <trkpt lat="45.4542691" lon="9.1917525" />
      <trkpt lat="45.4542779" lon="9.1917412" />
      <trkpt lat="45.4544798" lon="9.1901123" />
      <trkpt lat="45.4544828" lon="9.1901129" />
      <trkpt lat="45.4545073" lon="9.1901177" />
      <trkpt lat="45.4545239" lon="9.1900227" />
      <trkpt lat="45.4545362" lon="9.1899226" />
      <trkpt lat="45.4545153" lon="9.1899217" />
      <trkpt lat="45.4544923" lon="9.1899219" />
      <trkpt lat="45.4545928" lon="9.1890115" />
      <trkpt lat="45.4546053" lon="9.1888863" />
      <trkpt lat="45.4546090" lon="9.1887335" />
      <trkpt lat="45.4543740" lon="9.1886668" />
      <trkpt lat="45.4541495" lon="9.1886092" />
      <trkpt lat="45.4540244" lon="9.1885867" />
      <trkpt lat="45.4537770" lon="9.1885355" />
      <trkpt lat="45.4538932" lon="9.1874178" />
      <trkpt lat="45.4539229" lon="9.1871176" />
      <trkpt lat="45.4539409" lon="9.1871221" />
      <trkpt lat="45.4539750" lon="9.1871271" />
      <trkpt lat="45.4540037" lon="9.1871365" />
      <trkpt lat="45.4540188" lon="9.1871414" />
      <trkpt lat="45.4540471" lon="9.1871056" />
      <trkpt lat="45.4540509" lon="9.1870746" />
      <trkpt lat="45.4540539" lon="9.1870295" />
      <trkpt lat="45.4540568" lon="9.1869860" />
      <trkpt lat="45.4540719" lon="9.1869877" />
      <trkpt lat="45.4542240" lon="9.1870039" />
      <trkpt lat="45.4544096" lon="9.1870237" />
      <trkpt lat="45.4544292" lon="9.1870117" />
      <trkpt lat="45.4544410" lon="9.1870129" />
      <trkpt lat="45.4544676" lon="9.1870157" />
      <trkpt lat="45.4545087" lon="9.1870199" />
      <trkpt lat="45.4545218" lon="9.1870226" />
      <trkpt lat="45.4546061" lon="9.1870398" />
      <trkpt lat="45.4546133" lon="9.1870413" />
      <trkpt lat="45.4546221" lon="9.1870431" />
      <trkpt lat="45.4546999" lon="9.1870577" />
      <trkpt lat="45.4547091" lon="9.1870597" />
      <trkpt lat="45.4547369" lon="9.1870655" />
      <trkpt lat="45.4547692" lon="9.1870727" />
      <trkpt lat="45.4548018" lon="9.1870778" />
      <trkpt lat="45.4548201" lon="9.1871010" />
      <trkpt lat="45.4551502" lon="9.1871724" />
      <trkpt lat="45.4551634" lon="9.1871486" />
      <trkpt lat="45.4553763" lon="9.1842457" />
      <trkpt lat="45.4553858" lon="9.1842471" />
      <trkpt lat="45.4554282" lon="9.1842533" />
      <trkpt lat="45.4554722" lon="9.1842596" />
      <trkpt lat="45.4554816" lon="9.1842610" />
      <trkpt lat="45.4554994" lon="9.1842463" />
      <trkpt lat="45.4554999" lon="9.1842411" />
      <trkpt lat="45.4555059" lon="9.1841745" />
      <trkpt lat="45.4555088" lon="9.1841419" />
      <trkpt lat="45.4555109" lon="9.1841186" />
      <trkpt lat="45.4555343" lon="9.1838052" />
      <trkpt lat="45.4555350" lon="9.1837917" />
      <trkpt lat="45.4555377" lon="9.1837378" />
      <trkpt lat="45.4555717" lon="9.1837432" />
      <trkpt lat="45.4557300" lon="9.1837553" />
      <trkpt lat="45.4558901" lon="9.1837676" />
      <trkpt lat="45.4559545" lon="9.1837725" />
      <trkpt lat="45.4560030" lon="9.1837620" />
      <trkpt lat="45.4564201" lon="9.1835855" />
      <trkpt lat="45.4564698" lon="9.1835708" />
      <trkpt lat="45.4565148" lon="9.1835693" />
      <trkpt lat="45.4566712" lon="9.1835829" />
      <trkpt lat="45.4567642" lon="9.1836177" />
      <trkpt lat="45.4567873" lon="9.1835159" />
      <trkpt lat="45.4568668" lon="9.1831239" />
      <trkpt lat="45.4568772" lon="9.1830756" />
      <trkpt lat="45.4569186" lon="9.1830812" />
      <trkpt lat="45.4569402" lon="9.1830843" />
      <trkpt lat="45.4569876" lon="9.1830887" />
      <trkpt lat="45.4570416" lon="9.1830937" />
      <trkpt lat="45.4570963" lon="9.1830995" />
      <trkpt lat="45.4574596" lon="9.1831383" />
      <trkpt lat="45.4575075" lon="9.1831434" />
      <trkpt lat="45.4575324" lon="9.1831463" />
      <trkpt lat="45.4575955" lon="9.1831538" />
      <trkpt lat="45.4576772" lon="9.1831934" />
      <trkpt lat="45.4578551" lon="9.1833300" />
      <trkpt lat="45.4579585" lon="9.1833425" />
      <trkpt lat="45.4581469" lon="9.1833652" />
      <trkpt lat="45.4584087" lon="9.1832416" />
      <trkpt lat="45.4584424" lon="9.1832275" />
      <trkpt lat="45.4584606" lon="9.1832203" />
      <trkpt lat="45.4584802" lon="9.1832110" />
      <trkpt lat="45.4585066" lon="9.1831963" />
      <trkpt lat="45.4585212" lon="9.1831876" />
      <trkpt lat="45.4585511" lon="9.1831056" />
      <trkpt lat="45.4587591" lon="9.1828125" />
      <trkpt lat="45.4587895" lon="9.1827661" />
      <trkpt lat="45.4588189" lon="9.1827392" />
      <trkpt lat="45.4588615" lon="9.1827181" />
      <trkpt lat="45.4589077" lon="9.1827226" />
      <trkpt lat="45.4590526" lon="9.1828438" />
      <trkpt lat="45.4593637" lon="9.1830571" />
      <trkpt lat="45.4593666" lon="9.1830503" />
      <trkpt lat="45.4593864" lon="9.1830028" />
      <trkpt lat="45.4594499" lon="9.1830509" />
      <trkpt lat="45.4594816" lon="9.1829722" />
      <trkpt lat="45.4595396" lon="9.1830152" />
      <trkpt lat="45.4597015" lon="9.1831342" />
      <trkpt lat="45.4597742" lon="9.1829611" />
      <trkpt lat="45.4598677" lon="9.1827639" />
      <trkpt lat="45.4598788" lon="9.1827745" />
      <trkpt lat="45.4599414" lon="9.1828341" />
      <trkpt lat="45.4600175" lon="9.1827973" />
      <trkpt lat="45.4605810" lon="9.1825271" />
      <trkpt lat="45.4605738" lon="9.1824847" />
      <trkpt lat="45.4605712" lon="9.1824688" />
      <trkpt lat="45.4605689" lon="9.1824442" />
      <trkpt lat="45.4606022" lon="9.1824334" />
      <trkpt lat="45.4606243" lon="9.1824267" />
      <trkpt lat="45.4606417" lon="9.1824215" />
      <trkpt lat="45.4606585" lon="9.1824164" />
      <trkpt lat="45.4606904" lon="9.1824068" />
      <trkpt lat="45.4607157" lon="9.1823991" />
      <trkpt lat="45.4607346" lon="9.1825571" />
      <trkpt lat="45.4607643" lon="9.1829277" />
      <trkpt lat="45.4607832" lon="9.1829873" />
      <trkpt lat="45.4608020" lon="9.1830336" />
      <trkpt lat="45.4609184" lon="9.1831733" />
      <trkpt lat="45.4610172" lon="9.1832795" />
      <trkpt lat="45.4611116" lon="9.1833854" />
      <trkpt lat="45.4611214" lon="9.1834044" />
      <trkpt lat="45.4611320" lon="9.1834173" />
      <trkpt lat="45.4613303" lon="9.1836081" />
      <trkpt lat="45.4616186" lon="9.1838788" />
      <trkpt lat="45.4616063" lon="9.1838949" />
      <trkpt lat="45.4619637" lon="9.1842827" />
      <trkpt lat="45.4620219" lon="9.1843160" />
      <trkpt lat="45.4620888" lon="9.1843345" />
      <trkpt lat="45.4625121" lon="9.1844545" />
      <trkpt lat="45.4625507" lon="9.1845046" />
      <trkpt lat="45.4625434" lon="9.1845472" />
      <trkpt lat="45.4624296" lon="9.1852125" />
      <trkpt lat="45.4624291" lon="9.1852368" />
      <trkpt lat="45.4624321" lon="9.1852654" />
      <trkpt lat="45.4624566" lon="9.1853554" />
      <trkpt lat="45.4623984" lon="9.1853774" />
      <trkpt lat="45.4623536" lon="9.1853810" />
      <trkpt lat="45.4623070" lon="9.1853704" />
      <trkpt lat="45.4621183" lon="9.1852671" />
      <trkpt lat="45.4620888" lon="9.1852619" />
      <trkpt lat="45.4620565" lon="9.1852640" />
      <trkpt lat="45.4620258" lon="9.1852851" />
      <trkpt lat="45.4620041" lon="9.1853214" />
      <trkpt lat="45.4618093" lon="9.1857666" />
      <trkpt lat="45.4618047" lon="9.1857788" />
      <trkpt lat="45.4618124" lon="9.1857896" />
      <trkpt lat="45.4620003" lon="9.1860531" />
      <trkpt lat="45.4619770" lon="9.1860885" />
      <trkpt lat="45.4619685" lon="9.1861014" />
      <trkpt lat="45.4621270" lon="9.1863070" />
      <trkpt lat="45.4621146" lon="9.1863156" />
      <trkpt lat="45.4620736" lon="9.1863439" />
      <trkpt lat="45.4618101" lon="9.1865373" />
      <trkpt lat="45.4617778" lon="9.1865494" />
      <trkpt lat="45.4617414" lon="9.1865534" />
      <trkpt lat="45.4619031" lon="9.1870050" />
      <trkpt lat="45.4619455" lon="9.1871171" />
      <trkpt lat="45.4620213" lon="9.1873999" />
      <trkpt lat="45.4620289" lon="9.1874283" />
      <trkpt lat="45.4621492" lon="9.1873532" />
      <trkpt lat="45.4622245" lon="9.1873062" />
      <trkpt lat="45.4622893" lon="9.1872600" />
      <trkpt lat="45.4622936" lon="9.1872673" />
      <trkpt lat="45.4622967" lon="9.1872752" />
      <trkpt lat="45.4620684" lon="9.1874323" />
      <trkpt lat="45.4615635" lon="9.1877134" />
      <trkpt lat="45.4614421" lon="9.1877767" />
      <trkpt lat="45.4613612" lon="9.1878246" />
      <trkpt lat="45.4612266" lon="9.1879044" />
      <trkpt lat="45.4610842" lon="9.1879810" />
      <trkpt lat="45.4609481" lon="9.1880541" />
      <trkpt lat="45.4609270" lon="9.1880655" />
      <trkpt lat="45.4609247" lon="9.1880581" />
      <trkpt lat="45.4609190" lon="9.1880405" />
      <trkpt lat="45.4609108" lon="9.1880142" />
      <trkpt lat="45.4609010" lon="9.1879833" />
      <trkpt lat="45.4608995" lon="9.1879784" />
      <trkpt lat="45.4608611" lon="9.1879978" />
      <trkpt lat="45.4608506" lon="9.1879840" />
      <trkpt lat="45.4608487" lon="9.1879725" />
      <trkpt lat="45.4608418" lon="9.1879743" />
      <trkpt lat="45.4608186" lon="9.1879804" />
      <trkpt lat="45.4607952" lon="9.1879866" />
      <trkpt lat="45.4607903" lon="9.1879879" />
      <trkpt lat="45.4607949" lon="9.1880024" />
      <trkpt lat="45.4608037" lon="9.1880753" />
      <trkpt lat="45.4608081" lon="9.1881501" />
      <trkpt lat="45.4608072" lon="9.1882007" />
      <trkpt lat="45.4606571" lon="9.1881558" />
      <trkpt lat="45.4606483" lon="9.1881532" />
      <trkpt lat="45.4605767" lon="9.1881284" />
      <trkpt lat="45.4604898" lon="9.1881360" />
      <trkpt lat="45.4604000" lon="9.1881480" />
      <trkpt lat="45.4602605" lon="9.1881254" />
      <trkpt lat="45.4602503" lon="9.1880978" />
      <trkpt lat="45.4602414" lon="9.1880946" />
      <trkpt lat="45.4602007" lon="9.1880801" />
      <trkpt lat="45.4601845" lon="9.1880743" />
      <trkpt lat="45.4601610" lon="9.1880674" />
      <trkpt lat="45.4601594" lon="9.1880774" />
      <trkpt lat="45.4601572" lon="9.1881114" />
      <trkpt lat="45.4601107" lon="9.1880986" />
      <trkpt lat="45.4598747" lon="9.1880284" />
      <trkpt lat="45.4595289" lon="9.1879255" />
      <trkpt lat="45.4594670" lon="9.1879006" />
      <trkpt lat="45.4590557" lon="9.1872504" />
      <trkpt lat="45.4590543" lon="9.1872079" />
      <trkpt lat="45.4592958" lon="9.1869908" />
      <trkpt lat="45.4594780" lon="9.1868549" />
      <trkpt lat="45.4595066" lon="9.1868378" />
      <trkpt lat="45.4595045" lon="9.1868295" />
      <trkpt lat="45.4595005" lon="9.1868140" />
      <trkpt lat="45.4594996" lon="9.1868104" />
      <trkpt lat="45.4594939" lon="9.1867875" />
      <trkpt lat="45.4594928" lon="9.1867833" />
      <trkpt lat="45.4593807" lon="9.1868519" />
      <trkpt lat="45.4590361" lon="9.1871607" />
      <trkpt lat="45.4589640" lon="9.1871622" />
      <trkpt lat="45.4589618" lon="9.1871636" />
      <trkpt lat="45.4589537" lon="9.1871690" />
      <trkpt lat="45.4588965" lon="9.1872069" />
      <trkpt lat="45.4588833" lon="9.1872156" />
      <trkpt lat="45.4588248" lon="9.1872723" />
      <trkpt lat="45.4587381" lon="9.1873614" />
      <trkpt lat="45.4587242" lon="9.1873747" />
      <trkpt lat="45.4587122" lon="9.1873872" />
      <trkpt lat="45.4587066" lon="9.1873949" />
      <trkpt lat="45.4586552" lon="9.1873974" />
      <trkpt lat="45.4585738" lon="9.1872538" />
      <trkpt lat="45.4585570" lon="9.1872259" />
      <trkpt lat="45.4583210" lon="9.1875563" />
      <trkpt lat="45.4580929" lon="9.1875645" />
      <trkpt lat="45.4576637" lon="9.1875131" />
      <trkpt lat="45.4574650" lon="9.1874770" />
      <trkpt lat="45.4574644" lon="9.1874908" />
      <trkpt lat="45.4574610" lon="9.1875642" />
      <trkpt lat="45.4573875" lon="9.1875515" />
      <trkpt lat="45.4573869" lon="9.1875750" />
      <trkpt lat="45.4573835" lon="9.1876892" />
      <trkpt lat="45.4573450" lon="9.1876715" />
      <trkpt lat="45.4573392" lon="9.1876688" />
      <trkpt lat="45.4573351" lon="9.1877912" />
      <trkpt lat="45.4572793" lon="9.1887877" />
      <trkpt lat="45.4574781" lon="9.1899896" />
      <trkpt lat="45.4574792" lon="9.1900092" />
      <trkpt lat="45.4570858" lon="9.1900946" />
      <trkpt lat="45.4570608" lon="9.1900536" />
      <trkpt lat="45.4570488" lon="9.1900611" />
      <trkpt lat="45.4570251" lon="9.1900799" />
      <trkpt lat="45.4570556" lon="9.1901480" />
      <trkpt lat="45.4571289" lon="9.1903815" />
      <trkpt lat="45.4572348" lon="9.1907169" />
      <trkpt lat="45.4572167" lon="9.1907254" />
      <trkpt lat="45.4571724" lon="9.1907463" />
      <trkpt lat="45.4571536" lon="9.1907551" />
      <trkpt lat="45.4571434" lon="9.1907599" />
      <trkpt lat="45.4571286" lon="9.1907668" />
      <trkpt lat="45.4571174" lon="9.1907713" />
      <trkpt lat="45.4570416" lon="9.1908077" />
      <trkpt lat="45.4570306" lon="9.1908129" />
      <trkpt lat="45.4571062" lon="9.1911492" />
      <trkpt lat="45.4571120" lon="9.1911875" />
      <trkpt lat="45.4571154" lon="9.1912131" />
      <trkpt lat="45.4571560" lon="9.1915510" />
      <trkpt lat="45.4572689" lon="9.1924871" />
      <trkpt lat="45.4572915" lon="9.1926582" />
      <trkpt lat="45.4573385" lon="9.1929960" />
      <trkpt lat="45.4573818" lon="9.1931922" />
      <trkpt lat="45.4573907" lon="9.1932089" />
      <trkpt lat="45.4574048" lon="9.1932355" />
      <trkpt lat="45.4574218" lon="9.1932635" />
      <trkpt lat="45.4574318" lon="9.1932798" />
      <trkpt lat="45.4574976" lon="9.1933718" />
      <trkpt lat="45.4575248" lon="9.1934125" />
      <trkpt lat="45.4575320" lon="9.1934228" />
      <trkpt lat="45.4575598" lon="9.1934625" />
      <trkpt lat="45.4575780" lon="9.1934896" />
      <trkpt lat="45.4575834" lon="9.1934956" />
      <trkpt lat="45.4576095" lon="9.1935054" />
      <trkpt lat="45.4576173" lon="9.1934997" />
      <trkpt lat="45.4576531" lon="9.1934447" />
      <trkpt lat="45.4576758" lon="9.1934121" />
      <trkpt lat="45.4576970" lon="9.1933804" />
      <trkpt lat="45.4577035" lon="9.1933585" />
      <trkpt lat="45.4579718" lon="9.1936762" />
      <trkpt lat="45.4579953" lon="9.1937008" />
      <trkpt lat="45.4581730" lon="9.1938777" />
      <trkpt lat="45.4579953" lon="9.1937008" />
      <trkpt lat="45.4579718" lon="9.1936762" />
      <trkpt lat="45.4577035" lon="9.1933585" />
      <trkpt lat="45.4577070" lon="9.1933255" />
      <trkpt lat="45.4577052" lon="9.1933222" />
      <trkpt lat="45.4576733" lon="9.1932763" />
      <trkpt lat="45.4576625" lon="9.1932614" />
      <trkpt lat="45.4576271" lon="9.1932099" />
      <trkpt lat="45.4576152" lon="9.1931927" />
      <trkpt lat="45.4575991" lon="9.1931957" />
      <trkpt lat="45.4575868" lon="9.1932171" />
      <trkpt lat="45.4575553" lon="9.1932717" />
      <trkpt lat="45.4575344" lon="9.1933122" />
      <trkpt lat="45.4575163" lon="9.1932915" />
      <trkpt lat="45.4574957" lon="9.1932647" />
      <trkpt lat="45.4574696" lon="9.1932146" />
      <trkpt lat="45.4574048" lon="9.1932355" />
      <trkpt lat="45.4573907" lon="9.1932089" />
      <trkpt lat="45.4573818" lon="9.1931922" />
      <trkpt lat="45.4573385" lon="9.1929960" />
      <trkpt lat="45.4572915" lon="9.1926582" />
      <trkpt lat="45.4572689" lon="9.1924871" />
      <trkpt lat="45.4571560" lon="9.1915510" />
      <trkpt lat="45.4571154" lon="9.1912131" />
      <trkpt lat="45.4571120" lon="9.1911875" />
      <trkpt lat="45.4571062" lon="9.1911492" />
      <trkpt lat="45.4570306" lon="9.1908129" />
      <trkpt lat="45.4570416" lon="9.1908077" />
      <trkpt lat="45.4571174" lon="9.1907713" />
      <trkpt lat="45.4571286" lon="9.1907668" />
      <trkpt lat="45.4571434" lon="9.1907599" />
      <trkpt lat="45.4571536" lon="9.1907551" />
      <trkpt lat="45.4571724" lon="9.1907463" />
      <trkpt lat="45.4572167" lon="9.1907254" />
      <trkpt lat="45.4572348" lon="9.1907169" />
      <trkpt lat="45.4571289" lon="9.1903815" />
      <trkpt lat="45.4570556" lon="9.1901480" />
      <trkpt lat="45.4570251" lon="9.1900799" />
      <trkpt lat="45.4570488" lon="9.1900611" />
      <trkpt lat="45.4570608" lon="9.1900536" />
      <trkpt lat="45.4570858" lon="9.1900946" />
      <trkpt lat="45.4574792" lon="9.1900092" />
      <trkpt lat="45.4574781" lon="9.1899896" />
      <trkpt lat="45.4572793" lon="9.1887877" />
      <trkpt lat="45.4573351" lon="9.1877912" />
      <trkpt lat="45.4573392" lon="9.1876688" />
      <trkpt lat="45.4573450" lon="9.1876715" />
      <trkpt lat="45.4573835" lon="9.1876892" />
      <trkpt lat="45.4573869" lon="9.1875750" />
      <trkpt lat="45.4573875" lon="9.1875515" />
      <trkpt lat="45.4574610" lon="9.1875642" />
      <trkpt lat="45.4574644" lon="9.1874908" />
      <trkpt lat="45.4574650" lon="9.1874770" />
      <trkpt lat="45.4576637" lon="9.1875131" />
      <trkpt lat="45.4580929" lon="9.1875645" />
      <trkpt lat="45.4583210" lon="9.1875563" />
      <trkpt lat="45.4585570" lon="9.1872259" />
      <trkpt lat="45.4585738" lon="9.1872538" />
      <trkpt lat="45.4585968" lon="9.1872210" />
      <trkpt lat="45.4586386" lon="9.1872812" />
      <trkpt lat="45.4587066" lon="9.1873949" />
      <trkpt lat="45.4587320" lon="9.1874374" />
      <trkpt lat="45.4590073" lon="9.1872260" />
      <trkpt lat="45.4592731" lon="9.1869973" />
      <trkpt lat="45.4593684" lon="9.1869166" />
      <trkpt lat="45.4595005" lon="9.1868140" />
      <trkpt lat="45.4595453" lon="9.1867792" />
      <trkpt lat="45.4597056" lon="9.1866784" />
      <trkpt lat="45.4599032" lon="9.1865541" />
      <trkpt lat="45.4601317" lon="9.1864250" />
      <trkpt lat="45.4601645" lon="9.1864068" />
      <trkpt lat="45.4601615" lon="9.1863925" />
      <trkpt lat="45.4601890" lon="9.1863784" />
      <trkpt lat="45.4601933" lon="9.1863761" />
      <trkpt lat="45.4604409" lon="9.1863169" />
      <trkpt lat="45.4605718" lon="9.1863392" />
      <trkpt lat="45.4608314" lon="9.1862749" />
      <trkpt lat="45.4611080" lon="9.1861292" />
      <trkpt lat="45.4611085" lon="9.1860312" />
      <trkpt lat="45.4610525" lon="9.1855580" />
      <trkpt lat="45.4610640" lon="9.1855520" />
      <trkpt lat="45.4611391" lon="9.1860582" />
      <trkpt lat="45.4611445" lon="9.1860947" />
      <trkpt lat="45.4613207" lon="9.1860139" />
      <trkpt lat="45.4615003" lon="9.1858438" />
      <trkpt lat="45.4615501" lon="9.1857765" />
      <trkpt lat="45.4615795" lon="9.1857366" />
      <trkpt lat="45.4616087" lon="9.1857014" />
      <trkpt lat="45.4616397" lon="9.1856649" />
      <trkpt lat="45.4616490" lon="9.1856540" />
      <trkpt lat="45.4615911" lon="9.1855672" />
      <trkpt lat="45.4615993" lon="9.1855547" />
      <trkpt lat="45.4616085" lon="9.1855408" />
      <trkpt lat="45.4616168" lon="9.1855282" />
      <trkpt lat="45.4617310" lon="9.1856796" />
      <trkpt lat="45.4617923" lon="9.1857612" />
      <trkpt lat="45.4618047" lon="9.1857788" />
      <trkpt lat="45.4618093" lon="9.1857666" />
      <trkpt lat="45.4620041" lon="9.1853214" />
      <trkpt lat="45.4620258" lon="9.1852851" />
      <trkpt lat="45.4620565" lon="9.1852640" />
      <trkpt lat="45.4620888" lon="9.1852619" />
      <trkpt lat="45.4621183" lon="9.1852671" />
      <trkpt lat="45.4623070" lon="9.1853704" />
      <trkpt lat="45.4623536" lon="9.1853810" />
      <trkpt lat="45.4623984" lon="9.1853774" />
      <trkpt lat="45.4624566" lon="9.1853554" />
      <trkpt lat="45.4625528" lon="9.1853240" />
      <trkpt lat="45.4625730" lon="9.1853247" />
      <trkpt lat="45.4627411" lon="9.1853576" />
      <trkpt lat="45.4627717" lon="9.1853738" />
      <trkpt lat="45.4628667" lon="9.1854833" />
      <trkpt lat="45.4629437" lon="9.1855773" />
      <trkpt lat="45.4629767" lon="9.1856372" />
      <trkpt lat="45.4630188" lon="9.1857208" />
      <trkpt lat="45.4631929" lon="9.1859616" />
      <trkpt lat="45.4632060" lon="9.1859789" />
      <trkpt lat="45.4631997" lon="9.1859863" />
      <trkpt lat="45.4631945" lon="9.1859924" />
      <trkpt lat="45.4634496" lon="9.1863183" />
      <trkpt lat="45.4635645" lon="9.1864707" />
      <trkpt lat="45.4637223" lon="9.1862406" />
      <trkpt lat="45.4639318" lon="9.1864894" />
      <trkpt lat="45.4639535" lon="9.1865186" />
      <trkpt lat="45.4637075" lon="9.1868512" />
      <trkpt lat="45.4636160" lon="9.1869693" />
      <trkpt lat="45.4636189" lon="9.1869739" />
      <trkpt lat="45.4636356" lon="9.1869996" />
      <trkpt lat="45.4636540" lon="9.1870283" />
      <trkpt lat="45.4636711" lon="9.1870547" />
      <trkpt lat="45.4636940" lon="9.1870276" />
      <trkpt lat="45.4637096" lon="9.1870552" />
      <trkpt lat="45.4637986" lon="9.1871957" />
      <trkpt lat="45.4640503" lon="9.1876143" />
      <trkpt lat="45.4640458" lon="9.1876546" />
      <trkpt lat="45.4638534" lon="9.1879133" />
      <trkpt lat="45.4638814" lon="9.1879510" />
      <trkpt lat="45.4639232" lon="9.1880072" />
      <trkpt lat="45.4639311" lon="9.1880178" />
      <trkpt lat="45.4639409" lon="9.1880310" />
      <trkpt lat="45.4639544" lon="9.1880492" />
      <trkpt lat="45.4639601" lon="9.1880569" />
      <trkpt lat="45.4639739" lon="9.1880754" />
      <trkpt lat="45.4639865" lon="9.1880923" />
      <trkpt lat="45.4640074" lon="9.1881204" />
      <trkpt lat="45.4639060" lon="9.1882914" />
      <trkpt lat="45.4638903" lon="9.1882694" />
      <trkpt lat="45.4638820" lon="9.1882835" />
      <trkpt lat="45.4638569" lon="9.1883233" />
      <trkpt lat="45.4638173" lon="9.1883817" />
      <trkpt lat="45.4636687" lon="9.1883914" />
      <trkpt lat="45.4636976" lon="9.1884988" />
      <trkpt lat="45.4637017" lon="9.1885182" />
      <trkpt lat="45.4637368" lon="9.1886597" />
      <trkpt lat="45.4637362" lon="9.1887051" />
      <trkpt lat="45.4637344" lon="9.1888372" />
      <trkpt lat="45.4637338" lon="9.1888841" />
      <trkpt lat="45.4637335" lon="9.1889066" />
      <trkpt lat="45.4637332" lon="9.1889265" />
      <trkpt lat="45.4637329" lon="9.1889492" />
      <trkpt lat="45.4637319" lon="9.1890225" />
      <trkpt lat="45.4637982" lon="9.1890213" />
      <trkpt lat="45.4637998" lon="9.1889533" />
      <trkpt lat="45.4638000" lon="9.1889344" />
      <trkpt lat="45.4638002" lon="9.1889146" />
      <trkpt lat="45.4638167" lon="9.1889146" />
      <trkpt lat="45.4640993" lon="9.1889147" />
      <trkpt lat="45.4641127" lon="9.1889147" />
      <trkpt lat="45.4641126" lon="9.1889477" />
      <trkpt lat="45.4641115" lon="9.1890703" />
      <trkpt lat="45.4641046" lon="9.1895113" />
      <trkpt lat="45.4641536" lon="9.1896431" />
      <trkpt lat="45.4643695" lon="9.1897716" />
    </trkseg>
  </trk>
</gpx>
