<?xml version="1.0" encoding="UTF-8"?>
<gpx xmlns="http://www.topografix.com/GPX/1/1" version="1.1" creator="ShapeRoute route-engine">
  <metadata>
    <name>heart 15 km · 2026-09-23</name>
    <author>
      <name>ShapeRoute route-engine</name>
    </author>
    <time>2026-09-23T05:04:31Z</time>
  </metadata>
  <trk>
    <name>heart 15 km · 2026-09-23</name>
    <trkseg>
      <trkpt lat="46.0543700" lon="11.4492227" />
      <trkpt lat="46.0542825" lon="11.4487092" />
      <trkpt lat="46.0542768" lon="11.4486759" />
      <trkpt lat="46.0542330" lon="11.4483994" />
      <trkpt lat="46.0541711" lon="11.4480081" />
      <trkpt lat="46.0541263" lon="11.4477248" />
      <trkpt lat="46.0540594" lon="11.4473024" />
      <trkpt lat="46.0539771" lon="11.4468137" />
      <trkpt lat="46.0539501" lon="11.4466534" />
      <trkpt lat="46.0538612" lon="11.4461805" />
      <trkpt lat="46.0538435" lon="11.4460863" />
      <trkpt lat="46.0538222" lon="11.4459727" />
      <trkpt lat="46.0538086" lon="11.4457036" />
      <trkpt lat="46.0538382" lon="11.4449855" />
      <trkpt lat="46.0538405" lon="11.4449307" />
      <trkpt lat="46.0538064" lon="11.4446615" />
      <trkpt lat="46.0536982" lon="11.4442591" />
      <trkpt lat="46.0536225" lon="11.4440047" />
      <trkpt lat="46.0534486" lon="11.4434202" />
      <trkpt lat="46.0533154" lon="11.4429724" />
      <trkpt lat="46.0531196" lon="11.4421994" />
      <trkpt lat="46.0530967" lon="11.4420557" />
      <trkpt lat="46.0531041" lon="11.4419862" />
      <trkpt lat="46.0531536" lon="11.4418551" />
      <trkpt lat="46.0532147" lon="11.4416933" />
      <trkpt lat="46.0533481" lon="11.4413401" />
      <trkpt lat="46.0534757" lon="11.4410022" />
      <trkpt lat="46.0538437" lon="11.4408986" />
      <trkpt lat="46.0557573" lon="11.4403601" />
      <trkpt lat="46.0561233" lon="11.4402952" />
      <trkpt lat="46.0562503" lon="11.4402904" />
      <trkpt lat="46.0562761" lon="11.4402746" />
      <trkpt lat="46.0562640" lon="11.4404150" />
      <trkpt lat="46.0563357" lon="11.4403962" />
      <trkpt lat="46.0565893" lon="11.4403899" />
      <trkpt lat="46.0569429" lon="11.4404743" />
      <trkpt lat="46.0571109" lon="11.4405234" />
      <trkpt lat="46.0573917" lon="11.4406521" />
      <trkpt lat="46.0574959" lon="11.4406460" />
      <trkpt lat="46.0575628" lon="11.4405946" />
      <trkpt lat="46.0576649" lon="11.4403402" />
      <trkpt lat="46.0578122" lon="11.4399412" />
      <trkpt lat="46.0578143" lon="11.4398347" />
      <trkpt lat="46.0577617" lon="11.4396928" />
      <trkpt lat="46.0576487" lon="11.4395372" />
      <trkpt lat="46.0574767" lon="11.4393618" />
      <trkpt lat="46.0572626" lon="11.4390636" />
      <trkpt lat="46.0571635" lon="11.4387444" />
      <trkpt lat="46.0571271" lon="11.4383100" />
      <trkpt lat="46.0571572" lon="11.4381356" />
      <trkpt lat="46.0572107" lon="11.4378310" />
      <trkpt lat="46.0571747" lon="11.4374702" />
      <trkpt lat="46.0570832" lon="11.4368702" />
      <trkpt lat="46.0570880" lon="11.4364825" />
      <trkpt lat="46.0570715" lon="11.4363645" />
      <trkpt lat="46.0570889" lon="11.4362788" />
      <trkpt lat="46.0571290" lon="11.4362731" />
      <trkpt lat="46.0571693" lon="11.4363501" />
      <trkpt lat="46.0572594" lon="11.4366235" />
      <trkpt lat="46.0574621" lon="11.4370261" />
      <trkpt lat="46.0576259" lon="11.4373378" />
      <trkpt lat="46.0577645" lon="11.4375783" />
      <trkpt lat="46.0578570" lon="11.4376753" />
      <trkpt lat="46.0579468" lon="11.4376793" />
      <trkpt lat="46.0579957" lon="11.4376180" />
      <trkpt lat="46.0580149" lon="11.4371506" />
      <trkpt lat="46.0579777" lon="11.4367586" />
      <trkpt lat="46.0578958" lon="11.4364232" />
      <trkpt lat="46.0578633" lon="11.4362654" />
      <trkpt lat="46.0579095" lon="11.4361445" />
      <trkpt lat="46.0580268" lon="11.4362179" />
      <trkpt lat="46.0580972" lon="11.4362559" />
      <trkpt lat="46.0580991" lon="11.4361566" />
      <trkpt lat="46.0581089" lon="11.4361163" />
      <trkpt lat="46.0581082" lon="11.4360358" />
      <trkpt lat="46.0581277" lon="11.4359655" />
      <trkpt lat="46.0581609" lon="11.4359187" />
      <trkpt lat="46.0581583" lon="11.4358841" />
      <trkpt lat="46.0582102" lon="11.4357801" />
      <trkpt lat="46.0582063" lon="11.4357417" />
      <trkpt lat="46.0581869" lon="11.4357070" />
      <trkpt lat="46.0582076" lon="11.4356349" />
      <trkpt lat="46.0581973" lon="11.4355834" />
      <trkpt lat="46.0582083" lon="11.4353942" />
      <trkpt lat="46.0581960" lon="11.4353530" />
      <trkpt lat="46.0582141" lon="11.4352566" />
      <trkpt lat="46.0581960" lon="11.4351610" />
      <trkpt lat="46.0582128" lon="11.4350768" />
      <trkpt lat="46.0581966" lon="11.4350103" />
      <trkpt lat="46.0581687" lon="11.4349447" />
      <trkpt lat="46.0581505" lon="11.4348220" />
      <trkpt lat="46.0581641" lon="11.4347452" />
      <trkpt lat="46.0581518" lon="11.4346937" />
      <trkpt lat="46.0581654" lon="11.4346019" />
      <trkpt lat="46.0581830" lon="11.4345429" />
      <trkpt lat="46.0581830" lon="11.4344783" />
      <trkpt lat="46.0582252" lon="11.4344530" />
      <trkpt lat="46.0582187" lon="11.4344212" />
      <trkpt lat="46.0582486" lon="11.4344296" />
      <trkpt lat="46.0583136" lon="11.4344830" />
      <trkpt lat="46.0583376" lon="11.4344605" />
      <trkpt lat="46.0583233" lon="11.4344015" />
      <trkpt lat="46.0583246" lon="11.4343781" />
      <trkpt lat="46.0583864" lon="11.4343875" />
      <trkpt lat="46.0585943" lon="11.4345457" />
      <trkpt lat="46.0586528" lon="11.4345944" />
      <trkpt lat="46.0586983" lon="11.4346984" />
      <trkpt lat="46.0586749" lon="11.4347284" />
      <trkpt lat="46.0587185" lon="11.4348080" />
      <trkpt lat="46.0587750" lon="11.4348651" />
      <trkpt lat="46.0588250" lon="11.4348651" />
      <trkpt lat="46.0589713" lon="11.4349606" />
      <trkpt lat="46.0589836" lon="11.4349484" />
      <trkpt lat="46.0590324" lon="11.4349484" />
      <trkpt lat="46.0591363" lon="11.4350224" />
      <trkpt lat="46.0592754" lon="11.4349934" />
      <trkpt lat="46.0593060" lon="11.4350065" />
      <trkpt lat="46.0593456" lon="11.4349990" />
      <trkpt lat="46.0593839" lon="11.4350262" />
      <trkpt lat="46.0595438" lon="11.4351311" />
      <trkpt lat="46.0597004" lon="11.4352893" />
      <trkpt lat="46.0598454" lon="11.4354055" />
      <trkpt lat="46.0599084" lon="11.4354935" />
      <trkpt lat="46.0599127" lon="11.4355200" />
      <trkpt lat="46.0597307" lon="11.4355371" />
      <trkpt lat="46.0595913" lon="11.4355721" />
      <trkpt lat="46.0595735" lon="11.4356024" />
      <trkpt lat="46.0597614" lon="11.4356855" />
      <trkpt lat="46.0598712" lon="11.4356962" />
      <trkpt lat="46.0599885" lon="11.4357606" />
      <trkpt lat="46.0601020" lon="11.4358062" />
      <trkpt lat="46.0602807" lon="11.4359028" />
      <trkpt lat="46.0604612" lon="11.4360503" />
      <trkpt lat="46.0606239" lon="11.4361498" />
      <trkpt lat="46.0606676" lon="11.4361275" />
      <trkpt lat="46.0607796" lon="11.4361045" />
      <trkpt lat="46.0609866" lon="11.4361450" />
      <trkpt lat="46.0610655" lon="11.4361688" />
      <trkpt lat="46.0613126" lon="11.4363307" />
      <trkpt lat="46.0616387" lon="11.4364445" />
      <trkpt lat="46.0618390" lon="11.4364761" />
      <trkpt lat="46.0619209" lon="11.4363855" />
      <trkpt lat="46.0620247" lon="11.4359134" />
      <trkpt lat="46.0621505" lon="11.4358186" />
      <trkpt lat="46.0622733" lon="11.4357132" />
      <trkpt lat="46.0625584" lon="11.4359008" />
      <trkpt lat="46.0627880" lon="11.4359303" />
      <trkpt lat="46.0629943" lon="11.4357448" />
      <trkpt lat="46.0632078" lon="11.4357680" />
      <trkpt lat="46.0635163" lon="11.4359598" />
      <trkpt lat="46.0636035" lon="11.4360543" />
      <trkpt lat="46.0637269" lon="11.4360595" />
      <trkpt lat="46.0637709" lon="11.4360615" />
      <trkpt lat="46.0639295" lon="11.4359917" />
      <trkpt lat="46.0639610" lon="11.4358159" />
      <trkpt lat="46.0639206" lon="11.4356433" />
      <trkpt lat="46.0639301" lon="11.4355573" />
      <trkpt lat="46.0639813" lon="11.4354946" />
      <trkpt lat="46.0639888" lon="11.4353745" />
      <trkpt lat="46.0640295" lon="11.4353360" />
      <trkpt lat="46.0640164" lon="11.4352370" />
      <trkpt lat="46.0640281" lon="11.4351295" />
      <trkpt lat="46.0640690" lon="11.4349925" />
      <trkpt lat="46.0641904" lon="11.4349272" />
      <trkpt lat="46.0642372" lon="11.4348850" />
      <trkpt lat="46.0643132" lon="11.4349461" />
      <trkpt lat="46.0644126" lon="11.4350241" />
      <trkpt lat="46.0644828" lon="11.4350494" />
      <trkpt lat="46.0646100" lon="11.4350115" />
      <trkpt lat="46.0647094" lon="11.4350810" />
      <trkpt lat="46.0648147" lon="11.4350536" />
      <trkpt lat="46.0648776" lon="11.4350347" />
      <trkpt lat="46.0649098" lon="11.4349532" />
      <trkpt lat="46.0649288" lon="11.4348197" />
      <trkpt lat="46.0649273" lon="11.4346891" />
      <trkpt lat="46.0649215" lon="11.4345774" />
      <trkpt lat="46.0649595" lon="11.4345078" />
      <trkpt lat="46.0650209" lon="11.4343793" />
      <trkpt lat="46.0650282" lon="11.4343013" />
      <trkpt lat="46.0650765" lon="11.4342402" />
      <trkpt lat="46.0650984" lon="11.4340695" />
      <trkpt lat="46.0651174" lon="11.4339915" />
      <trkpt lat="46.0651394" lon="11.4338524" />
      <trkpt lat="46.0651979" lon="11.4336986" />
      <trkpt lat="46.0652242" lon="11.4335701" />
      <trkpt lat="46.0652695" lon="11.4335743" />
      <trkpt lat="46.0653821" lon="11.4335174" />
      <trkpt lat="46.0655356" lon="11.4334563" />
      <trkpt lat="46.0656409" lon="11.4334415" />
      <trkpt lat="46.0657681" lon="11.4334268" />
      <trkpt lat="46.0658412" lon="11.4334057" />
      <trkpt lat="46.0659411" lon="11.4333644" />
      <trkpt lat="46.0660140" lon="11.4332615" />
      <trkpt lat="46.0660960" lon="11.4332156" />
      <trkpt lat="46.0662135" lon="11.4332130" />
      <trkpt lat="46.0662865" lon="11.4332130" />
      <trkpt lat="46.0663461" lon="11.4332517" />
      <trkpt lat="46.0664916" lon="11.4333979" />
      <trkpt lat="46.0666639" lon="11.4336210" />
      <trkpt lat="46.0669078" lon="11.4339904" />
      <trkpt lat="46.0670112" lon="11.4341014" />
      <trkpt lat="46.0671136" lon="11.4341447" />
      <trkpt lat="46.0671476" lon="11.4341054" />
      <trkpt lat="46.0672077" lon="11.4341771" />
      <trkpt lat="46.0672389" lon="11.4342143" />
      <trkpt lat="46.0675969" lon="11.4345691" />
      <trkpt lat="46.0676570" lon="11.4346522" />
      <trkpt lat="46.0677863" lon="11.4348309" />
      <trkpt lat="46.0679522" lon="11.4351006" />
      <trkpt lat="46.0680661" lon="11.4352440" />
      <trkpt lat="46.0684296" lon="11.4355241" />
      <trkpt lat="46.0685679" lon="11.4356565" />
      <trkpt lat="46.0687125" lon="11.4358173" />
      <trkpt lat="46.0687641" lon="11.4359044" />
      <trkpt lat="46.0687867" lon="11.4360205" />
      <trkpt lat="46.0687880" lon="11.4361892" />
      <trkpt lat="46.0687990" lon="11.4362636" />
      <trkpt lat="46.0688542" lon="11.4365161" />
      <trkpt lat="46.0689088" lon="11.4366373" />
      <trkpt lat="46.0690725" lon="11.4371181" />
      <trkpt lat="46.0693499" lon="11.4378045" />
      <trkpt lat="46.0695298" lon="11.4380706" />
      <trkpt lat="46.0696075" lon="11.4382509" />
      <trkpt lat="46.0695945" lon="11.4384126" />
      <trkpt lat="46.0695342" lon="11.4385618" />
      <trkpt lat="46.0694651" lon="11.4386862" />
      <trkpt lat="46.0694479" lon="11.4388665" />
      <trkpt lat="46.0694910" lon="11.4390468" />
      <trkpt lat="46.0695600" lon="11.4392022" />
      <trkpt lat="46.0697283" lon="11.4394634" />
      <trkpt lat="46.0699914" lon="11.4396872" />
      <trkpt lat="46.0700647" lon="11.4397742" />
      <trkpt lat="46.0700949" lon="11.4398861" />
      <trkpt lat="46.0700820" lon="11.4399608" />
      <trkpt lat="46.0700216" lon="11.4400291" />
      <trkpt lat="46.0699181" lon="11.4400851" />
      <trkpt lat="46.0698102" lon="11.4400975" />
      <trkpt lat="46.0693875" lon="11.4403525" />
      <trkpt lat="46.0691848" lon="11.4404582" />
      <trkpt lat="46.0690553" lon="11.4404830" />
      <trkpt lat="46.0689319" lon="11.4405503" />
      <trkpt lat="46.0688111" lon="11.4407181" />
      <trkpt lat="46.0687146" lon="11.4408561" />
      <trkpt lat="46.0685377" lon="11.4412727" />
      <trkpt lat="46.0684126" lon="11.4414467" />
      <trkpt lat="46.0683263" lon="11.4415400" />
      <trkpt lat="46.0682444" lon="11.4416830" />
      <trkpt lat="46.0681581" lon="11.4419037" />
      <trkpt lat="46.0680886" lon="11.4420412" />
      <trkpt lat="46.0679437" lon="11.4422594" />
      <trkpt lat="46.0678896" lon="11.4423307" />
      <trkpt lat="46.0680262" lon="11.4423164" />
      <trkpt lat="46.0681895" lon="11.4422226" />
      <trkpt lat="46.0684215" lon="11.4420651" />
      <trkpt lat="46.0684531" lon="11.4420736" />
      <trkpt lat="46.0684703" lon="11.4419990" />
      <trkpt lat="46.0685070" lon="11.4417813" />
      <trkpt lat="46.0685803" lon="11.4415793" />
      <trkpt lat="46.0686019" lon="11.4414549" />
      <trkpt lat="46.0686321" lon="11.4412622" />
      <trkpt lat="46.0686882" lon="11.4410881" />
      <trkpt lat="46.0687745" lon="11.4408736" />
      <trkpt lat="46.0688111" lon="11.4407181" />
      <trkpt lat="46.0689319" lon="11.4405503" />
      <trkpt lat="46.0690553" lon="11.4404830" />
      <trkpt lat="46.0691848" lon="11.4404582" />
      <trkpt lat="46.0693875" lon="11.4403525" />
      <trkpt lat="46.0698102" lon="11.4400975" />
      <trkpt lat="46.0699181" lon="11.4400851" />
      <trkpt lat="46.0700216" lon="11.4400291" />
      <trkpt lat="46.0700820" lon="11.4399608" />
      <trkpt lat="46.0700949" lon="11.4398861" />
      <trkpt lat="46.0700647" lon="11.4397742" />
      <trkpt lat="46.0699914" lon="11.4396872" />
      <trkpt lat="46.0697283" lon="11.4394634" />
      <trkpt lat="46.0695600" lon="11.4392022" />
      <trkpt lat="46.0694910" lon="11.4390468" />
      <trkpt lat="46.0694479" lon="11.4388665" />
      <trkpt lat="46.0694651" lon="11.4386862" />
      <trkpt lat="46.0695342" lon="11.4385618" />
      <trkpt lat="46.0695945" lon="11.4384126" />
      <trkpt lat="46.0696075" lon="11.4382509" />
      <trkpt lat="46.0695298" lon="11.4380706" />
      <trkpt lat="46.0693499" lon="11.4378045" />
      <trkpt lat="46.0690725" lon="11.4371181" />
      <trkpt lat="46.0689088" lon="11.4366373" />
      <trkpt lat="46.0688542" lon="11.4365161" />
      <trkpt lat="46.0687990" lon="11.4362636" />
      <trkpt lat="46.0687880" lon="11.4361892" />
      <trkpt lat="46.0687867" lon="11.4360205" />
      <trkpt lat="46.0687641" lon="11.4359044" />
      <trkpt lat="46.0687125" lon="11.4358173" />
      <trkpt lat="46.0685679" lon="11.4356565" />
      <trkpt lat="46.0684296" lon="11.4355241" />
      <trkpt lat="46.0680661" lon="11.4352440" />
      <trkpt lat="46.0679522" lon="11.4351006" />
      <trkpt lat="46.0677863" lon="11.4348309" />
      <trkpt lat="46.0676570" lon="11.4346522" />
      <trkpt lat="46.0675969" lon="11.4345691" />
      <trkpt lat="46.0672389" lon="11.4342143" />
      <trkpt lat="46.0673586" lon="11.4341426" />
      <trkpt lat="46.0674050" lon="11.4341256" />
      <trkpt lat="46.0673338" lon="11.4340864" />
      <trkpt lat="46.0672787" lon="11.4340527" />
      <trkpt lat="46.0672540" lon="11.4340045" />
      <trkpt lat="46.0672388" lon="11.4339441" />
      <trkpt lat="46.0672534" lon="11.4339040" />
      <trkpt lat="46.0672819" lon="11.4339030" />
      <trkpt lat="46.0673208" lon="11.4338889" />
      <trkpt lat="46.0673777" lon="11.4338288" />
      <trkpt lat="46.0674258" lon="11.4338467" />
      <trkpt lat="46.0675225" lon="11.4338663" />
      <trkpt lat="46.0675528" lon="11.4338724" />
      <trkpt lat="46.0676610" lon="11.4338874" />
      <trkpt lat="46.0677373" lon="11.4338959" />
      <trkpt lat="46.0681935" lon="11.4339470" />
      <trkpt lat="46.0682207" lon="11.4339500" />
      <trkpt lat="46.0683699" lon="11.4339661" />
      <trkpt lat="46.0685960" lon="11.4340413" />
      <trkpt lat="46.0687984" lon="11.4341830" />
      <trkpt lat="46.0690234" lon="11.4343230" />
      <trkpt lat="46.0692374" lon="11.4344930" />
      <trkpt lat="46.0697633" lon="11.4352212" />
      <trkpt lat="46.0698271" lon="11.4352952" />
      <trkpt lat="46.0700493" lon="11.4355529" />
      <trkpt lat="46.0702448" lon="11.4358203" />
      <trkpt lat="46.0702994" lon="11.4359457" />
      <trkpt lat="46.0703459" lon="11.4360963" />
      <trkpt lat="46.0703726" lon="11.4362443" />
      <trkpt lat="46.0704492" lon="11.4366115" />
      <trkpt lat="46.0704915" lon="11.4367214" />
      <trkpt lat="46.0705335" lon="11.4367846" />
      <trkpt lat="46.0705977" lon="11.4368546" />
      <trkpt lat="46.0706825" lon="11.4369126" />
      <trkpt lat="46.0709803" lon="11.4370379" />
      <trkpt lat="46.0710752" lon="11.4370872" />
      <trkpt lat="46.0711779" lon="11.4371703" />
      <trkpt lat="46.0712497" lon="11.4372443" />
      <trkpt lat="46.0712984" lon="11.4373058" />
      <trkpt lat="46.0713285" lon="11.4373437" />
      <trkpt lat="46.0714309" lon="11.4375096" />
      <trkpt lat="46.0715957" lon="11.4378428" />
      <trkpt lat="46.0716663" lon="11.4379740" />
      <trkpt lat="46.0717177" lon="11.4380448" />
      <trkpt lat="46.0717907" lon="11.4381188" />
      <trkpt lat="46.0718765" lon="11.4381718" />
      <trkpt lat="46.0720095" lon="11.4382366" />
      <trkpt lat="46.0723936" lon="11.4384052" />
      <trkpt lat="46.0724623" lon="11.4384492" />
      <trkpt lat="46.0725229" lon="11.4385090" />
      <trkpt lat="46.0725763" lon="11.4385782" />
      <trkpt lat="46.0726283" lon="11.4386770" />
      <trkpt lat="46.0726343" lon="11.4382856" />
      <trkpt lat="46.0725923" lon="11.4380855" />
      <trkpt lat="46.0725435" lon="11.4379982" />
      <trkpt lat="46.0725083" lon="11.4379354" />
      <trkpt lat="46.0724060" lon="11.4376169" />
      <trkpt lat="46.0722928" lon="11.4373878" />
      <trkpt lat="46.0722142" lon="11.4370561" />
      <trkpt lat="46.0721905" lon="11.4368060" />
      <trkpt lat="46.0721156" lon="11.4365454" />
      <trkpt lat="46.0719823" lon="11.4361742" />
      <trkpt lat="46.0718289" lon="11.4359320" />
      <trkpt lat="46.0717266" lon="11.4358188" />
      <trkpt lat="46.0715549" lon="11.4357161" />
      <trkpt lat="46.0714330" lon="11.4356036" />
      <trkpt lat="46.0712755" lon="11.4353418" />
      <trkpt lat="46.0710941" lon="11.4350110" />
      <trkpt lat="46.0710161" lon="11.4348081" />
      <trkpt lat="46.0709934" lon="11.4346264" />
      <trkpt lat="46.0709939" lon="11.4344563" />
      <trkpt lat="46.0710189" lon="11.4343497" />
      <trkpt lat="46.0710746" lon="11.4342680" />
      <trkpt lat="46.0712306" lon="11.4341379" />
      <trkpt lat="46.0713353" lon="11.4339807" />
      <trkpt lat="46.0714087" lon="11.4337954" />
      <trkpt lat="46.0714686" lon="11.4335461" />
      <trkpt lat="46.0714653" lon="11.4333495" />
      <trkpt lat="46.0714418" lon="11.4331254" />
      <trkpt lat="46.0713318" lon="11.4328043" />
      <trkpt lat="46.0711902" lon="11.4325137" />
      <trkpt lat="46.0712666" lon="11.4325672" />
      <trkpt lat="46.0713847" lon="11.4326920" />
      <trkpt lat="46.0715075" lon="11.4328220" />
      <trkpt lat="46.0716099" lon="11.4329401" />
      <trkpt lat="46.0716564" lon="11.4329977" />
      <trkpt lat="46.0716992" lon="11.4330849" />
      <trkpt lat="46.0717336" lon="11.4331788" />
      <trkpt lat="46.0717569" lon="11.4332606" />
      <trkpt lat="46.0717969" lon="11.4333062" />
      <trkpt lat="46.0718509" lon="11.4333343" />
      <trkpt lat="46.0719197" lon="11.4334081" />
      <trkpt lat="46.0720202" lon="11.4335328" />
      <trkpt lat="46.0721114" lon="11.4336240" />
      <trkpt lat="46.0722053" lon="11.4337340" />
      <trkpt lat="46.0723254" lon="11.4338239" />
      <trkpt lat="46.0724528" lon="11.4339177" />
      <trkpt lat="46.0725412" lon="11.4339767" />
      <trkpt lat="46.0726650" lon="11.4340746" />
      <trkpt lat="46.0727487" lon="11.4341283" />
      <trkpt lat="46.0729264" lon="11.4341900" />
      <trkpt lat="46.0730315" lon="11.4342195" />
      <trkpt lat="46.0731069" lon="11.4342369" />
      <trkpt lat="46.0731571" lon="11.4342611" />
      <trkpt lat="46.0732009" lon="11.4343241" />
      <trkpt lat="46.0732390" lon="11.4344099" />
      <trkpt lat="46.0732744" lon="11.4345051" />
      <trkpt lat="46.0733255" lon="11.4346191" />
      <trkpt lat="46.0734325" lon="11.4348672" />
      <trkpt lat="46.0734837" lon="11.4349665" />
      <trkpt lat="46.0735432" lon="11.4350711" />
      <trkpt lat="46.0736381" lon="11.4351797" />
      <trkpt lat="46.0736881" lon="11.4352441" />
      <trkpt lat="46.0737191" lon="11.4353473" />
      <trkpt lat="46.0737647" lon="11.4354748" />
      <trkpt lat="46.0738149" lon="11.4356008" />
      <trkpt lat="46.0738772" lon="11.4357148" />
      <trkpt lat="46.0739489" lon="11.4358261" />
      <trkpt lat="46.0740326" lon="11.4358771" />
      <trkpt lat="46.0741647" lon="11.4359334" />
      <trkpt lat="46.0742717" lon="11.4359321" />
      <trkpt lat="46.0743796" lon="11.4359227" />
      <trkpt lat="46.0744475" lon="11.4359441" />
      <trkpt lat="46.0744987" lon="11.4360019" />
      <trkpt lat="46.0745155" lon="11.4360461" />
      <trkpt lat="46.0745731" lon="11.4361212" />
      <trkpt lat="46.0746318" lon="11.4361815" />
      <trkpt lat="46.0746777" lon="11.4362078" />
      <trkpt lat="46.0746852" lon="11.4366692" />
      <trkpt lat="46.0747447" lon="11.4371734" />
      <trkpt lat="46.0747224" lon="11.4377313" />
      <trkpt lat="46.0746628" lon="11.4383750" />
      <trkpt lat="46.0744991" lon="11.4389437" />
      <trkpt lat="46.0744321" lon="11.4394801" />
      <trkpt lat="46.0743232" lon="11.4395918" />
      <trkpt lat="46.0740553" lon="11.4409758" />
      <trkpt lat="46.0739864" lon="11.4419682" />
      <trkpt lat="46.0739697" lon="11.4421560" />
      <trkpt lat="46.0740813" lon="11.4420809" />
      <trkpt lat="46.0744126" lon="11.4420380" />
      <trkpt lat="46.0746470" lon="11.4422042" />
      <trkpt lat="46.0752424" lon="11.4424698" />
      <trkpt lat="46.0752731" lon="11.4424778" />
      <trkpt lat="46.0754555" lon="11.4425342" />
      <trkpt lat="46.0755532" lon="11.4425811" />
      <trkpt lat="46.0756012" lon="11.4426098" />
      <trkpt lat="46.0756527" lon="11.4426200" />
      <trkpt lat="46.0756833" lon="11.4426238" />
      <trkpt lat="46.0757120" lon="11.4426397" />
      <trkpt lat="46.0757366" lon="11.4426664" />
      <trkpt lat="46.0757550" lon="11.4427018" />
      <trkpt lat="46.0757913" lon="11.4427829" />
      <trkpt lat="46.0758537" lon="11.4428433" />
      <trkpt lat="46.0759025" lon="11.4428849" />
      <trkpt lat="46.0759411" lon="11.4429124" />
      <trkpt lat="46.0760006" lon="11.4429385" />
      <trkpt lat="46.0760504" lon="11.4429479" />
      <trkpt lat="46.0761267" lon="11.4429667" />
      <trkpt lat="46.0761793" lon="11.4429814" />
      <trkpt lat="46.0762114" lon="11.4430076" />
      <trkpt lat="46.0763151" lon="11.4430981" />
      <trkpt lat="46.0763942" lon="11.4431437" />
      <trkpt lat="46.0765012" lon="11.4432020" />
      <trkpt lat="46.0765565" lon="11.4432094" />
      <trkpt lat="46.0765651" lon="11.4432135" />
      <trkpt lat="46.0765741" lon="11.4432133" />
      <trkpt lat="46.0765826" lon="11.4432089" />
      <trkpt lat="46.0765895" lon="11.4432007" />
      <trkpt lat="46.0765979" lon="11.4431873" />
      <trkpt lat="46.0766017" lon="11.4431847" />
      <trkpt lat="46.0766058" lon="11.4431839" />
      <trkpt lat="46.0766099" lon="11.4431848" />
      <trkpt lat="46.0766137" lon="11.4431874" />
      <trkpt lat="46.0766167" lon="11.4431915" />
      <trkpt lat="46.0766188" lon="11.4431967" />
      <trkpt lat="46.0766201" lon="11.4432063" />
      <trkpt lat="46.0766231" lon="11.4432150" />
      <trkpt lat="46.0766278" lon="11.4432220" />
      <trkpt lat="46.0766337" lon="11.4432268" />
      <trkpt lat="46.0766723" lon="11.4432496" />
      <trkpt lat="46.0767640" lon="11.4432711" />
      <trkpt lat="46.0768658" lon="11.4432979" />
      <trkpt lat="46.0769547" lon="11.4433113" />
      <trkpt lat="46.0770257" lon="11.4433147" />
      <trkpt lat="46.0770952" lon="11.4432939" />
      <trkpt lat="46.0771296" lon="11.4432946" />
      <trkpt lat="46.0771569" lon="11.4433031" />
      <trkpt lat="46.0771735" lon="11.4433187" />
      <trkpt lat="46.0771891" lon="11.4433268" />
      <trkpt lat="46.0772156" lon="11.4433321" />
      <trkpt lat="46.0772547" lon="11.4433496" />
      <trkpt lat="46.0772891" lon="11.4433609" />
      <trkpt lat="46.0773194" lon="11.4433699" />
      <trkpt lat="46.0773501" lon="11.4433911" />
      <trkpt lat="46.0773724" lon="11.4434025" />
      <trkpt lat="46.0773959" lon="11.4434111" />
      <trkpt lat="46.0774254" lon="11.4434153" />
      <trkpt lat="46.0774747" lon="11.4434139" />
      <trkpt lat="46.0775343" lon="11.4434166" />
      <trkpt lat="46.0775562" lon="11.4434172" />
      <trkpt lat="46.0775768" lon="11.4434281" />
      <trkpt lat="46.0775878" lon="11.4434334" />
      <trkpt lat="46.0776092" lon="11.4434468" />
      <trkpt lat="46.0776174" lon="11.4434584" />
      <trkpt lat="46.0776254" lon="11.4434660" />
      <trkpt lat="46.0776620" lon="11.4434870" />
      <trkpt lat="46.0777038" lon="11.4435011" />
      <trkpt lat="46.0777202" lon="11.4435072" />
      <trkpt lat="46.0777346" lon="11.4435198" />
      <trkpt lat="46.0777461" lon="11.4435376" />
      <trkpt lat="46.0777536" lon="11.4435594" />
      <trkpt lat="46.0777903" lon="11.4436144" />
      <trkpt lat="46.0778178" lon="11.4436406" />
      <trkpt lat="46.0778406" lon="11.4436560" />
      <trkpt lat="46.0778483" lon="11.4436658" />
      <trkpt lat="46.0778575" lon="11.4436722" />
      <trkpt lat="46.0778677" lon="11.4436747" />
      <trkpt lat="46.0778779" lon="11.4436733" />
      <trkpt lat="46.0778872" lon="11.4436755" />
      <trkpt lat="46.0778958" lon="11.4436813" />
      <trkpt lat="46.0779029" lon="11.4436902" />
      <trkpt lat="46.0779508" lon="11.4437150" />
      <trkpt lat="46.0780038" lon="11.4437660" />
      <trkpt lat="46.0780666" lon="11.4438136" />
      <trkpt lat="46.0780992" lon="11.4438230" />
      <trkpt lat="46.0781532" lon="11.4438330" />
      <trkpt lat="46.0782322" lon="11.4438417" />
      <trkpt lat="46.0782969" lon="11.4438377" />
      <trkpt lat="46.0783271" lon="11.4438357" />
      <trkpt lat="46.0783512" lon="11.4438460" />
      <trkpt lat="46.0783722" lon="11.4438659" />
      <trkpt lat="46.0783894" lon="11.4438786" />
      <trkpt lat="46.0784085" lon="11.4438826" />
      <trkpt lat="46.0784262" lon="11.4438786" />
      <trkpt lat="46.0784356" lon="11.4438763" />
      <trkpt lat="46.0784451" lon="11.4438774" />
      <trkpt lat="46.0784541" lon="11.4438820" />
      <trkpt lat="46.0784848" lon="11.4438967" />
      <trkpt lat="46.0785369" lon="11.4439041" />
      <trkpt lat="46.0785964" lon="11.4439148" />
      <trkpt lat="46.0786467" lon="11.4439142" />
      <trkpt lat="46.0786801" lon="11.4439124" />
      <trkpt lat="46.0787123" lon="11.4438994" />
      <trkpt lat="46.0787590" lon="11.4438746" />
      <trkpt lat="46.0787723" lon="11.4438638" />
      <trkpt lat="46.0787871" lon="11.4438585" />
      <trkpt lat="46.0788234" lon="11.4438538" />
      <trkpt lat="46.0788732" lon="11.4438471" />
      <trkpt lat="46.0789565" lon="11.4438411" />
      <trkpt lat="46.0790118" lon="11.4438471" />
      <trkpt lat="46.0790495" lon="11.4438444" />
      <trkpt lat="46.0790858" lon="11.4438290" />
      <trkpt lat="46.0791597" lon="11.4437968" />
      <trkpt lat="46.0792155" lon="11.4437653" />
      <trkpt lat="46.0792242" lon="11.4437620" />
      <trkpt lat="46.0792331" lon="11.4437623" />
      <trkpt lat="46.0792416" lon="11.4437660" />
      <trkpt lat="46.0792509" lon="11.4437759" />
      <trkpt lat="46.0792617" lon="11.4437819" />
      <trkpt lat="46.0792732" lon="11.4437834" />
      <trkpt lat="46.0793100" lon="11.4437834" />
      <trkpt lat="46.0793979" lon="11.4437821" />
      <trkpt lat="46.0794211" lon="11.4437745" />
      <trkpt lat="46.0794337" lon="11.4437653" />
      <trkpt lat="46.0794565" lon="11.4437598" />
      <trkpt lat="46.0794923" lon="11.4437546" />
      <trkpt lat="46.0795356" lon="11.4437552" />
      <trkpt lat="46.0795681" lon="11.4437526" />
      <trkpt lat="46.0795869" lon="11.4437430" />
      <trkpt lat="46.0796011" lon="11.4437316" />
      <trkpt lat="46.0796097" lon="11.4437158" />
      <trkpt lat="46.0796152" lon="11.4436985" />
      <trkpt lat="46.0796165" lon="11.4436939" />
      <trkpt lat="46.0796166" lon="11.4436890" />
      <trkpt lat="46.0796157" lon="11.4436843" />
      <trkpt lat="46.0796137" lon="11.4436803" />
      <trkpt lat="46.0796109" lon="11.4436775" />
      <trkpt lat="46.0796076" lon="11.4436761" />
      <trkpt lat="46.0795686" lon="11.4436560" />
      <trkpt lat="46.0795537" lon="11.4436372" />
      <trkpt lat="46.0794960" lon="11.4435715" />
      <trkpt lat="46.0794940" lon="11.4435659" />
      <trkpt lat="46.0794932" lon="11.4435597" />
      <trkpt lat="46.0794937" lon="11.4435535" />
      <trkpt lat="46.0794954" lon="11.4435477" />
      <trkpt lat="46.0794983" lon="11.4435429" />
      <trkpt lat="46.0795020" lon="11.4435396" />
      <trkpt lat="46.0795062" lon="11.4435380" />
      <trkpt lat="46.0795556" lon="11.4435299" />
      <trkpt lat="46.0796002" lon="11.4435340" />
      <trkpt lat="46.0796328" lon="11.4435715" />
      <trkpt lat="46.0797042" lon="11.4435797" />
      <trkpt lat="46.0797751" lon="11.4435648" />
      <trkpt lat="46.0797974" lon="11.4435622" />
      <trkpt lat="46.0798192" lon="11.4435696" />
      <trkpt lat="46.0798384" lon="11.4435863" />
      <trkpt lat="46.0798495" lon="11.4435943" />
      <trkpt lat="46.0798617" lon="11.4435974" />
      <trkpt lat="46.0798741" lon="11.4435954" />
      <trkpt lat="46.0798855" lon="11.4435883" />
      <trkpt lat="46.0798951" lon="11.4435769" />
      <trkpt lat="46.0799416" lon="11.4435447" />
      <trkpt lat="46.0799683" lon="11.4435290" />
      <trkpt lat="46.0799968" lon="11.4435235" />
      <trkpt lat="46.0800253" lon="11.4435286" />
      <trkpt lat="46.0801342" lon="11.4435460" />
      <trkpt lat="46.0802905" lon="11.4436024" />
      <trkpt lat="46.0804049" lon="11.4436225" />
      <trkpt lat="46.0805360" lon="11.4436251" />
      <trkpt lat="46.0806179" lon="11.4435970" />
      <trkpt lat="46.0806519" lon="11.4435870" />
      <trkpt lat="46.0806832" lon="11.4435655" />
      <trkpt lat="46.0807100" lon="11.4435340" />
      <trkpt lat="46.0807779" lon="11.4435004" />
      <trkpt lat="46.0808412" lon="11.4434763" />
      <trkpt lat="46.0809351" lon="11.4434763" />
      <trkpt lat="46.0809826" lon="11.4434749" />
      <trkpt lat="46.0810110" lon="11.4434843" />
      <trkpt lat="46.0811519" lon="11.4435112" />
      <trkpt lat="46.0812523" lon="11.4434991" />
      <trkpt lat="46.0813733" lon="11.4434025" />
      <trkpt lat="46.0815044" lon="11.4432966" />
      <trkpt lat="46.0816291" lon="11.4431799" />
      <trkpt lat="46.0817463" lon="11.4430324" />
      <trkpt lat="46.0817705" lon="11.4429948" />
      <trkpt lat="46.0817844" lon="11.4429680" />
      <trkpt lat="46.0817909" lon="11.4429412" />
      <trkpt lat="46.0817868" lon="11.4429049" />
      <trkpt lat="46.0819869" lon="11.4429030" />
      <trkpt lat="46.0820138" lon="11.4429032" />
      <trkpt lat="46.0820393" lon="11.4429153" />
      <trkpt lat="46.0820609" lon="11.4429383" />
      <trkpt lat="46.0820765" lon="11.4429698" />
      <trkpt lat="46.0820846" lon="11.4430067" />
      <trkpt lat="46.0820843" lon="11.4430454" />
      <trkpt lat="46.0820757" lon="11.4430821" />
      <trkpt lat="46.0820597" lon="11.4431131" />
      <trkpt lat="46.0820377" lon="11.4431354" />
      <trkpt lat="46.0817424" lon="11.4433444" />
      <trkpt lat="46.0812274" lon="11.4436848" />
      <trkpt lat="46.0810262" lon="11.4437520" />
      <trkpt lat="46.0809458" lon="11.4437782" />
      <trkpt lat="46.0808801" lon="11.4437908" />
      <trkpt lat="46.0807455" lon="11.4437940" />
      <trkpt lat="46.0804500" lon="11.4438150" />
      <trkpt lat="46.0803611" lon="11.4438310" />
      <trkpt lat="46.0802323" lon="11.4438741" />
      <trkpt lat="46.0800799" lon="11.4439338" />
      <trkpt lat="46.0799048" lon="11.4439572" />
      <trkpt lat="46.0798272" lon="11.4439566" />
      <trkpt lat="46.0796528" lon="11.4439703" />
      <trkpt lat="46.0795738" lon="11.4439830" />
      <trkpt lat="46.0794956" lon="11.4440038" />
      <trkpt lat="46.0794296" lon="11.4440330" />
      <trkpt lat="46.0793485" lon="11.4440860" />
      <trkpt lat="46.0792876" lon="11.4441255" />
      <trkpt lat="46.0792369" lon="11.4441584" />
      <trkpt lat="46.0791429" lon="11.4442051" />
      <trkpt lat="46.0790136" lon="11.4442281" />
      <trkpt lat="46.0788796" lon="11.4442207" />
      <trkpt lat="46.0786925" lon="11.4442194" />
      <trkpt lat="46.0785743" lon="11.4442530" />
      <trkpt lat="46.0784081" lon="11.4443200" />
      <trkpt lat="46.0782649" lon="11.4444904" />
      <trkpt lat="46.0781118" lon="11.4445703" />
      <trkpt lat="46.0779421" lon="11.4445875" />
      <trkpt lat="46.0777045" lon="11.4444710" />
      <trkpt lat="46.0774020" lon="11.4443923" />
      <trkpt lat="46.0770784" lon="11.4443680" />
      <trkpt lat="46.0764944" lon="11.4442469" />
      <trkpt lat="46.0763053" lon="11.4442166" />
      <trkpt lat="46.0761330" lon="11.4442045" />
      <trkpt lat="46.0757858" lon="11.4441119" />
      <trkpt lat="46.0756936" lon="11.4440888" />
      <trkpt lat="46.0756521" lon="11.4440616" />
      <trkpt lat="46.0755785" lon="11.4439963" />
      <trkpt lat="46.0755087" lon="11.4439365" />
      <trkpt lat="46.0754454" lon="11.4438786" />
      <trkpt lat="46.0754073" lon="11.4438515" />
      <trkpt lat="46.0753655" lon="11.4438408" />
      <trkpt lat="46.0753233" lon="11.4438476" />
      <trkpt lat="46.0752841" lon="11.4438712" />
      <trkpt lat="46.0751833" lon="11.4439561" />
      <trkpt lat="46.0750671" lon="11.4440562" />
      <trkpt lat="46.0750123" lon="11.4440682" />
      <trkpt lat="46.0749574" lon="11.4440579" />
      <trkpt lat="46.0749066" lon="11.4440262" />
      <trkpt lat="46.0748136" lon="11.4439743" />
      <trkpt lat="46.0744592" lon="11.4437145" />
      <trkpt lat="46.0743332" lon="11.4436378" />
      <trkpt lat="46.0742070" lon="11.4436099" />
      <trkpt lat="46.0741136" lon="11.4436207" />
      <trkpt lat="46.0740386" lon="11.4436775" />
      <trkpt lat="46.0739556" lon="11.4437606" />
      <trkpt lat="46.0739214" lon="11.4438374" />
      <trkpt lat="46.0739007" lon="11.4439470" />
      <trkpt lat="46.0738686" lon="11.4440752" />
      <trkpt lat="46.0738512" lon="11.4441137" />
      <trkpt lat="46.0738268" lon="11.4441431" />
      <trkpt lat="46.0737975" lon="11.4441610" />
      <trkpt lat="46.0737658" lon="11.4441657" />
      <trkpt lat="46.0737195" lon="11.4441650" />
      <trkpt lat="46.0736062" lon="11.4441541" />
      <trkpt lat="46.0734142" lon="11.4441258" />
      <trkpt lat="46.0731572" lon="11.4440493" />
      <trkpt lat="46.0730029" lon="11.4439971" />
      <trkpt lat="46.0729409" lon="11.4439691" />
      <trkpt lat="46.0728730" lon="11.4439288" />
      <trkpt lat="46.0727463" lon="11.4438211" />
      <trkpt lat="46.0726767" lon="11.4437705" />
      <trkpt lat="46.0726544" lon="11.4437492" />
      <trkpt lat="46.0726285" lon="11.4437392" />
      <trkpt lat="46.0726018" lon="11.4437414" />
      <trkpt lat="46.0725770" lon="11.4437558" />
      <trkpt lat="46.0725530" lon="11.4437841" />
      <trkpt lat="46.0725371" lon="11.4438153" />
      <trkpt lat="46.0725277" lon="11.4438573" />
      <trkpt lat="46.0725183" lon="11.4438976" />
      <trkpt lat="46.0733659" lon="11.4444479" />
      <trkpt lat="46.0735053" lon="11.4445207" />
      <trkpt lat="46.0735650" lon="11.4445530" />
      <trkpt lat="46.0736708" lon="11.4445714" />
      <trkpt lat="46.0738020" lon="11.4445638" />
      <trkpt lat="46.0741734" lon="11.4444424" />
      <trkpt lat="46.0742387" lon="11.4444286" />
      <trkpt lat="46.0742953" lon="11.4444242" />
      <trkpt lat="46.0743479" lon="11.4444401" />
      <trkpt lat="46.0744808" lon="11.4445220" />
      <trkpt lat="46.0745475" lon="11.4445668" />
      <trkpt lat="46.0745987" lon="11.4446141" />
      <trkpt lat="46.0746425" lon="11.4446760" />
      <trkpt lat="46.0747565" lon="11.4448373" />
      <trkpt lat="46.0747847" lon="11.4448641" />
      <trkpt lat="46.0748166" lon="11.4448800" />
      <trkpt lat="46.0748503" lon="11.4448841" />
      <trkpt lat="46.0750855" lon="11.4448877" />
      <trkpt lat="46.0751327" lon="11.4448959" />
      <trkpt lat="46.0751769" lon="11.4449207" />
      <trkpt lat="46.0757232" lon="11.4452939" />
      <trkpt lat="46.0759396" lon="11.4454093" />
      <trkpt lat="46.0764376" lon="11.4456535" />
      <trkpt lat="46.0766596" lon="11.4457855" />
      <trkpt lat="46.0767475" lon="11.4458638" />
      <trkpt lat="46.0768115" lon="11.4459518" />
      <trkpt lat="46.0768503" lon="11.4460103" />
      <trkpt lat="46.0768954" lon="11.4461139" />
      <trkpt lat="46.0769376" lon="11.4462502" />
      <trkpt lat="46.0769750" lon="11.4464695" />
      <trkpt lat="46.0770199" lon="11.4466169" />
      <trkpt lat="46.0770491" lon="11.4466830" />
      <trkpt lat="46.0770944" lon="11.4467515" />
      <trkpt lat="46.0771850" lon="11.4468610" />
      <trkpt lat="46.0772333" lon="11.4469003" />
      <trkpt lat="46.0773000" lon="11.4469396" />
      <trkpt lat="46.0773734" lon="11.4469663" />
      <trkpt lat="46.0774323" lon="11.4469749" />
      <trkpt lat="46.0774906" lon="11.4469593" />
      <trkpt lat="46.0775748" lon="11.4469169" />
      <trkpt lat="46.0776359" lon="11.4468577" />
      <trkpt lat="46.0778054" lon="11.4466816" />
      <trkpt lat="46.0778585" lon="11.4466396" />
      <trkpt lat="46.0779170" lon="11.4466167" />
      <trkpt lat="46.0779776" lon="11.4466142" />
      <trkpt lat="46.0781766" lon="11.4466053" />
      <trkpt lat="46.0783809" lon="11.4466120" />
      <trkpt lat="46.0786367" lon="11.4466516" />
      <trkpt lat="46.0790565" lon="11.4467633" />
      <trkpt lat="46.0793465" lon="11.4468829" />
      <trkpt lat="46.0794673" lon="11.4469646" />
      <trkpt lat="46.0795423" lon="11.4470482" />
      <trkpt lat="46.0795997" lon="11.4471620" />
      <trkpt lat="46.0796325" lon="11.4472954" />
      <trkpt lat="46.0796495" lon="11.4474167" />
      <trkpt lat="46.0796595" lon="11.4475323" />
      <trkpt lat="46.0796533" lon="11.4476168" />
      <trkpt lat="46.0796423" lon="11.4477011" />
      <trkpt lat="46.0797258" lon="11.4477793" />
      <trkpt lat="46.0797825" lon="11.4478324" />
      <trkpt lat="46.0800190" lon="11.4480918" />
      <trkpt lat="46.0800728" lon="11.4481684" />
      <trkpt lat="46.0801280" lon="11.4482353" />
      <trkpt lat="46.0801650" lon="11.4482802" />
      <trkpt lat="46.0802723" lon="11.4484910" />
      <trkpt lat="46.0803211" lon="11.4488987" />
      <trkpt lat="46.0802170" lon="11.4495500" />
      <trkpt lat="46.0800900" lon="11.4499334" />
      <trkpt lat="46.0800617" lon="11.4500189" />
      <trkpt lat="46.0798595" lon="11.4501123" />
      <trkpt lat="46.0793135" lon="11.4502997" />
      <trkpt lat="46.0789363" lon="11.4504756" />
      <trkpt lat="46.0788422" lon="11.4505250" />
      <trkpt lat="46.0787703" lon="11.4506249" />
      <trkpt lat="46.0787375" lon="11.4507404" />
      <trkpt lat="46.0787135" lon="11.4509632" />
      <trkpt lat="46.0787112" lon="11.4511401" />
      <trkpt lat="46.0786696" lon="11.4511939" />
      <trkpt lat="46.0786523" lon="11.4512726" />
      <trkpt lat="46.0786486" lon="11.4514390" />
      <trkpt lat="46.0786666" lon="11.4517055" />
      <trkpt lat="46.0786861" lon="11.4520616" />
      <trkpt lat="46.0787511" lon="11.4527270" />
      <trkpt lat="46.0788324" lon="11.4537860" />
      <trkpt lat="46.0788727" lon="11.4545477" />
      <trkpt lat="46.0788498" lon="11.4547800" />
      <trkpt lat="46.0787902" lon="11.4549949" />
      <trkpt lat="46.0786606" lon="11.4552226" />
      <trkpt lat="46.0786276" lon="11.4552807" />
      <trkpt lat="46.0785568" lon="11.4553827" />
      <trkpt lat="46.0785296" lon="11.4554218" />
      <trkpt lat="46.0784812" lon="11.4555263" />
      <trkpt lat="46.0784407" lon="11.4556766" />
      <trkpt lat="46.0784265" lon="11.4557843" />
      <trkpt lat="46.0783938" lon="11.4558591" />
      <trkpt lat="46.0783748" lon="11.4559414" />
      <trkpt lat="46.0784051" lon="11.4560318" />
      <trkpt lat="46.0783875" lon="11.4561784" />
      <trkpt lat="46.0782633" lon="11.4563648" />
      <trkpt lat="46.0781565" lon="11.4565367" />
      <trkpt lat="46.0781090" lon="11.4566538" />
      <trkpt lat="46.0780369" lon="11.4567063" />
      <trkpt lat="46.0778316" lon="11.4567097" />
      <trkpt lat="46.0776787" lon="11.4567381" />
      <trkpt lat="46.0775136" lon="11.4568691" />
      <trkpt lat="46.0774227" lon="11.4570174" />
      <trkpt lat="46.0773690" lon="11.4572011" />
      <trkpt lat="46.0772400" lon="11.4574516" />
      <trkpt lat="46.0771362" lon="11.4576668" />
      <trkpt lat="46.0770978" lon="11.4577544" />
      <trkpt lat="46.0770485" lon="11.4578602" />
      <trkpt lat="46.0769103" lon="11.4579296" />
      <trkpt lat="46.0767234" lon="11.4580456" />
      <trkpt lat="46.0766239" lon="11.4581367" />
      <trkpt lat="46.0764995" lon="11.4582997" />
      <trkpt lat="46.0763941" lon="11.4584559" />
      <trkpt lat="46.0762442" lon="11.4588053" />
      <trkpt lat="46.0760716" lon="11.4594117" />
      <trkpt lat="46.0758672" lon="11.4601254" />
      <trkpt lat="46.0756397" lon="11.4607698" />
      <trkpt lat="46.0755164" lon="11.4610585" />
      <trkpt lat="46.0753695" lon="11.4612625" />
      <trkpt lat="46.0752743" lon="11.4614012" />
      <trkpt lat="46.0751175" lon="11.4616848" />
      <trkpt lat="46.0750420" lon="11.4618482" />
      <trkpt lat="46.0749255" lon="11.4620252" />
      <trkpt lat="46.0748498" lon="11.4622046" />
      <trkpt lat="46.0748072" lon="11.4623878" />
      <trkpt lat="46.0747678" lon="11.4625054" />
      <trkpt lat="46.0746832" lon="11.4627127" />
      <trkpt lat="46.0746278" lon="11.4629134" />
      <trkpt lat="46.0745683" lon="11.4631689" />
      <trkpt lat="46.0745133" lon="11.4633602" />
      <trkpt lat="46.0744964" lon="11.4635770" />
      <trkpt lat="46.0744992" lon="11.4637780" />
      <trkpt lat="46.0744904" lon="11.4640257" />
      <trkpt lat="46.0744867" lon="11.4641220" />
      <trkpt lat="46.0744757" lon="11.4642292" />
      <trkpt lat="46.0744480" lon="11.4643964" />
      <trkpt lat="46.0744375" lon="11.4644601" />
      <trkpt lat="46.0745254" lon="11.4645817" />
      <trkpt lat="46.0746171" lon="11.4647939" />
      <trkpt lat="46.0746481" lon="11.4649889" />
      <trkpt lat="46.0746727" lon="11.4651848" />
      <trkpt lat="46.0746660" lon="11.4654631" />
      <trkpt lat="46.0746132" lon="11.4657455" />
      <trkpt lat="46.0744661" lon="11.4663951" />
      <trkpt lat="46.0741795" lon="11.4677012" />
      <trkpt lat="46.0741240" lon="11.4679888" />
      <trkpt lat="46.0740891" lon="11.4677235" />
      <trkpt lat="46.0739886" lon="11.4682896" />
      <trkpt lat="46.0738993" lon="11.4686323" />
      <trkpt lat="46.0737636" lon="11.4692878" />
      <trkpt lat="46.0737139" lon="11.4696160" />
      <trkpt lat="46.0736910" lon="11.4697361" />
      <trkpt lat="46.0736871" lon="11.4703150" />
      <trkpt lat="46.0736609" lon="11.4702848" />
      <trkpt lat="46.0735830" lon="11.4697220" />
      <trkpt lat="46.0735621" lon="11.4697097" />
      <trkpt lat="46.0735383" lon="11.4697042" />
      <trkpt lat="46.0735127" lon="11.4697330" />
      <trkpt lat="46.0734956" lon="11.4698151" />
      <trkpt lat="46.0734506" lon="11.4699369" />
      <trkpt lat="46.0734625" lon="11.4700203" />
      <trkpt lat="46.0734429" lon="11.4699828" />
      <trkpt lat="46.0734317" lon="11.4699803" />
      <trkpt lat="46.0734204" lon="11.4699825" />
      <trkpt lat="46.0734101" lon="11.4699893" />
      <trkpt lat="46.0734016" lon="11.4700002" />
      <trkpt lat="46.0733956" lon="11.4700141" />
      <trkpt lat="46.0733927" lon="11.4700299" />
      <trkpt lat="46.0733420" lon="11.4701951" />
      <trkpt lat="46.0733390" lon="11.4702112" />
      <trkpt lat="46.0733325" lon="11.4702249" />
      <trkpt lat="46.0733232" lon="11.4702347" />
      <trkpt lat="46.0733121" lon="11.4702395" />
      <trkpt lat="46.0733006" lon="11.4702389" />
      <trkpt lat="46.0731834" lon="11.4701653" />
      <trkpt lat="46.0730077" lon="11.4700849" />
      <trkpt lat="46.0730005" lon="11.4700684" />
      <trkpt lat="46.0730024" lon="11.4700372" />
      <trkpt lat="46.0730431" lon="11.4699098" />
      <trkpt lat="46.0730455" lon="11.4699034" />
      <trkpt lat="46.0730464" lon="11.4698963" />
      <trkpt lat="46.0730456" lon="11.4698892" />
      <trkpt lat="46.0730433" lon="11.4698828" />
      <trkpt lat="46.0730397" lon="11.4698778" />
      <trkpt lat="46.0730352" lon="11.4698747" />
      <trkpt lat="46.0730302" lon="11.4698739" />
      <trkpt lat="46.0730250" lon="11.4698692" />
      <trkpt lat="46.0729997" lon="11.4698468" />
      <trkpt lat="46.0729768" lon="11.4698340" />
      <trkpt lat="46.0729690" lon="11.4698095" />
      <trkpt lat="46.0729652" lon="11.4697884" />
      <trkpt lat="46.0729389" lon="11.4697749" />
      <trkpt lat="46.0729092" lon="11.4697812" />
      <trkpt lat="46.0729036" lon="11.4697807" />
      <trkpt lat="46.0728985" lon="11.4697776" />
      <trkpt lat="46.0728943" lon="11.4697722" />
      <trkpt lat="46.0728917" lon="11.4697651" />
      <trkpt lat="46.0728992" lon="11.4697441" />
      <trkpt lat="46.0729179" lon="11.4696740" />
      <trkpt lat="46.0729203" lon="11.4696650" />
      <trkpt lat="46.0729226" lon="11.4696581" />
      <trkpt lat="46.0729229" lon="11.4696502" />
      <trkpt lat="46.0729216" lon="11.4696427" />
      <trkpt lat="46.0729186" lon="11.4696363" />
      <trkpt lat="46.0729150" lon="11.4696300" />
      <trkpt lat="46.0729089" lon="11.4696260" />
      <trkpt lat="46.0729049" lon="11.4696256" />
      <trkpt lat="46.0728946" lon="11.4696239" />
      <trkpt lat="46.0728820" lon="11.4696226" />
      <trkpt lat="46.0728692" lon="11.4696293" />
      <trkpt lat="46.0728550" lon="11.4696286" />
      <trkpt lat="46.0728477" lon="11.4696238" />
      <trkpt lat="46.0728440" lon="11.4696234" />
      <trkpt lat="46.0728321" lon="11.4696213" />
      <trkpt lat="46.0728310" lon="11.4696211" />
      <trkpt lat="46.0728300" lon="11.4696204" />
      <trkpt lat="46.0728292" lon="11.4696192" />
      <trkpt lat="46.0728287" lon="11.4696178" />
      <trkpt lat="46.0728285" lon="11.4696162" />
      <trkpt lat="46.0728287" lon="11.4696146" />
      <trkpt lat="46.0728292" lon="11.4696132" />
      <trkpt lat="46.0728300" lon="11.4696121" />
      <trkpt lat="46.0728452" lon="11.4695976" />
      <trkpt lat="46.0728486" lon="11.4695957" />
      <trkpt lat="46.0728515" lon="11.4695924" />
      <trkpt lat="46.0728536" lon="11.4695879" />
      <trkpt lat="46.0728546" lon="11.4695828" />
      <trkpt lat="46.0728544" lon="11.4695775" />
      <trkpt lat="46.0728531" lon="11.4695725" />
      <trkpt lat="46.0728508" lon="11.4695683" />
      <trkpt lat="46.0728478" lon="11.4695653" />
      <trkpt lat="46.0728442" lon="11.4695638" />
      <trkpt lat="46.0728329" lon="11.4695634" />
      <trkpt lat="46.0728269" lon="11.4695664" />
      <trkpt lat="46.0728193" lon="11.4695683" />
      <trkpt lat="46.0728139" lon="11.4695681" />
      <trkpt lat="46.0728070" lon="11.4695646" />
      <trkpt lat="46.0728013" lon="11.4695591" />
      <trkpt lat="46.0727957" lon="11.4695547" />
      <trkpt lat="46.0727924" lon="11.4695509" />
      <trkpt lat="46.0727909" lon="11.4695478" />
      <trkpt lat="46.0727899" lon="11.4695452" />
      <trkpt lat="46.0727896" lon="11.4695423" />
      <trkpt lat="46.0727900" lon="11.4695395" />
      <trkpt lat="46.0727910" lon="11.4695370" />
      <trkpt lat="46.0727925" lon="11.4695351" />
      <trkpt lat="46.0727954" lon="11.4695321" />
      <trkpt lat="46.0728032" lon="11.4695258" />
      <trkpt lat="46.0728196" lon="11.4695192" />
      <trkpt lat="46.0728409" lon="11.4695099" />
      <trkpt lat="46.0728511" lon="11.4695099" />
      <trkpt lat="46.0728576" lon="11.4695001" />
      <trkpt lat="46.0728701" lon="11.4694828" />
      <trkpt lat="46.0728763" lon="11.4694737" />
      <trkpt lat="46.0728791" lon="11.4694631" />
      <trkpt lat="46.0728783" lon="11.4694524" />
      <trkpt lat="46.0728554" lon="11.4694625" />
      <trkpt lat="46.0728382" lon="11.4694671" />
      <trkpt lat="46.0727974" lon="11.4694469" />
      <trkpt lat="46.0727469" lon="11.4694032" />
      <trkpt lat="46.0727447" lon="11.4694008" />
      <trkpt lat="46.0727432" lon="11.4693975" />
      <trkpt lat="46.0727426" lon="11.4693936" />
      <trkpt lat="46.0727430" lon="11.4693896" />
      <trkpt lat="46.0727442" lon="11.4693860" />
      <trkpt lat="46.0727461" lon="11.4693833" />
      <trkpt lat="46.0727487" lon="11.4693817" />
      <trkpt lat="46.0727514" lon="11.4693814" />
      <trkpt lat="46.0727747" lon="11.4693798" />
      <trkpt lat="46.0728030" lon="11.4693814" />
      <trkpt lat="46.0728230" lon="11.4693581" />
      <trkpt lat="46.0728338" lon="11.4693488" />
      <trkpt lat="46.0728419" lon="11.4693352" />
      <trkpt lat="46.0728468" lon="11.4693185" />
      <trkpt lat="46.0728478" lon="11.4693005" />
      <trkpt lat="46.0728449" lon="11.4692830" />
      <trkpt lat="46.0728382" lon="11.4692678" />
      <trkpt lat="46.0728324" lon="11.4692468" />
      <trkpt lat="46.0728197" lon="11.4692285" />
      <trkpt lat="46.0728008" lon="11.4692083" />
      <trkpt lat="46.0727791" lon="11.4692007" />
      <trkpt lat="46.0727563" lon="11.4691968" />
      <trkpt lat="46.0727325" lon="11.4691767" />
      <trkpt lat="46.0727124" lon="11.4691484" />
      <trkpt lat="46.0726957" lon="11.4691187" />
      <trkpt lat="46.0726816" lon="11.4690901" />
      <trkpt lat="46.0726517" lon="11.4690363" />
      <trkpt lat="46.0726099" lon="11.4689670" />
      <trkpt lat="46.0725882" lon="11.4689227" />
      <trkpt lat="46.0725596" lon="11.4688828" />
      <trkpt lat="46.0725277" lon="11.4688480" />
      <trkpt lat="46.0724854" lon="11.4688308" />
      <trkpt lat="46.0724398" lon="11.4688276" />
      <trkpt lat="46.0723420" lon="11.4687776" />
      <trkpt lat="46.0722758" lon="11.4687525" />
      <trkpt lat="46.0721751" lon="11.4686873" />
      <trkpt lat="46.0721116" lon="11.4686555" />
      <trkpt lat="46.0720531" lon="11.4685981" />
      <trkpt lat="46.0719448" lon="11.4685025" />
      <trkpt lat="46.0718881" lon="11.4684989" />
      <trkpt lat="46.0718563" lon="11.4684698" />
      <trkpt lat="46.0718071" lon="11.4684433" />
      <trkpt lat="46.0717461" lon="11.4683881" />
      <trkpt lat="46.0717006" lon="11.4683024" />
      <trkpt lat="46.0716550" lon="11.4682487" />
      <trkpt lat="46.0715982" lon="11.4681790" />
      <trkpt lat="46.0715732" lon="11.4681255" />
      <trkpt lat="46.0715499" lon="11.4680920" />
      <trkpt lat="46.0715138" lon="11.4680672" />
      <trkpt lat="46.0714427" lon="11.4680054" />
      <trkpt lat="46.0713985" lon="11.4679719" />
      <trkpt lat="46.0713926" lon="11.4679713" />
      <trkpt lat="46.0713872" lon="11.4679679" />
      <trkpt lat="46.0713828" lon="11.4679621" />
      <trkpt lat="46.0713801" lon="11.4679545" />
      <trkpt lat="46.0713792" lon="11.4679461" />
      <trkpt lat="46.0713796" lon="11.4678934" />
      <trkpt lat="46.0713844" lon="11.4678710" />
      <trkpt lat="46.0713860" lon="11.4678554" />
      <trkpt lat="46.0713823" lon="11.4678327" />
      <trkpt lat="46.0713746" lon="11.4678123" />
      <trkpt lat="46.0713570" lon="11.4678017" />
      <trkpt lat="46.0712989" lon="11.4678056" />
      <trkpt lat="46.0712716" lon="11.4678114" />
      <trkpt lat="46.0712664" lon="11.4678068" />
      <trkpt lat="46.0712625" lon="11.4678003" />
      <trkpt lat="46.0712615" lon="11.4677941" />
      <trkpt lat="46.0712621" lon="11.4677893" />
      <trkpt lat="46.0712629" lon="11.4677844" />
      <trkpt lat="46.0712752" lon="11.4677498" />
      <trkpt lat="46.0712789" lon="11.4677352" />
      <trkpt lat="46.0712823" lon="11.4677236" />
      <trkpt lat="46.0712829" lon="11.4677111" />
      <trkpt lat="46.0712807" lon="11.4676990" />
      <trkpt lat="46.0712753" lon="11.4676909" />
      <trkpt lat="46.0712674" lon="11.4676844" />
      <trkpt lat="46.0712443" lon="11.4676795" />
      <trkpt lat="46.0712222" lon="11.4676694" />
      <trkpt lat="46.0711977" lon="11.4676525" />
      <trkpt lat="46.0711667" lon="11.4676437" />
      <trkpt lat="46.0711406" lon="11.4676273" />
      <trkpt lat="46.0711157" lon="11.4676230" />
      <trkpt lat="46.0710976" lon="11.4676226" />
      <trkpt lat="46.0710845" lon="11.4676262" />
      <trkpt lat="46.0710688" lon="11.4676254" />
      <trkpt lat="46.0710531" lon="11.4676161" />
      <trkpt lat="46.0710391" lon="11.4676168" />
      <trkpt lat="46.0710180" lon="11.4676479" />
      <trkpt lat="46.0709882" lon="11.4676790" />
      <trkpt lat="46.0709653" lon="11.4676880" />
      <trkpt lat="46.0709543" lon="11.4676918" />
      <trkpt lat="46.0709431" lon="11.4676902" />
      <trkpt lat="46.0709328" lon="11.4676832" />
      <trkpt lat="46.0709232" lon="11.4676760" />
      <trkpt lat="46.0709093" lon="11.4676563" />
      <trkpt lat="46.0708926" lon="11.4676246" />
      <trkpt lat="46.0708825" lon="11.4676087" />
      <trkpt lat="46.0708708" lon="11.4676034" />
      <trkpt lat="46.0708610" lon="11.4676007" />
      <trkpt lat="46.0708590" lon="11.4675998" />
      <trkpt lat="46.0708574" lon="11.4675979" />
      <trkpt lat="46.0708563" lon="11.4675954" />
      <trkpt lat="46.0708559" lon="11.4675925" />
      <trkpt lat="46.0708562" lon="11.4675896" />
      <trkpt lat="46.0708571" lon="11.4675869" />
      <trkpt lat="46.0708575" lon="11.4675812" />
      <trkpt lat="46.0708565" lon="11.4675739" />
      <trkpt lat="46.0708543" lon="11.4675636" />
      <trkpt lat="46.0708487" lon="11.4675576" />
      <trkpt lat="46.0708374" lon="11.4675471" />
      <trkpt lat="46.0707986" lon="11.4675266" />
      <trkpt lat="46.0707648" lon="11.4674966" />
      <trkpt lat="46.0707041" lon="11.4674546" />
      <trkpt lat="46.0706651" lon="11.4674182" />
      <trkpt lat="46.0706386" lon="11.4673562" />
      <trkpt lat="46.0705878" lon="11.4672616" />
      <trkpt lat="46.0705134" lon="11.4671492" />
      <trkpt lat="46.0705007" lon="11.4671161" />
      <trkpt lat="46.0704946" lon="11.4670793" />
      <trkpt lat="46.0704936" lon="11.4670570" />
      <trkpt lat="46.0704972" lon="11.4670352" />
      <trkpt lat="46.0705049" lon="11.4670158" />
      <trkpt lat="46.0705161" lon="11.4670004" />
      <trkpt lat="46.0705435" lon="11.4669657" />
      <trkpt lat="46.0705905" lon="11.4669322" />
      <trkpt lat="46.0706942" lon="11.4668959" />
      <trkpt lat="46.0706989" lon="11.4668942" />
      <trkpt lat="46.0707030" lon="11.4668904" />
      <trkpt lat="46.0707059" lon="11.4668849" />
      <trkpt lat="46.0707070" lon="11.4668750" />
      <trkpt lat="46.0706952" lon="11.4668459" />
      <trkpt lat="46.0706945" lon="11.4668285" />
      <trkpt lat="46.0706894" lon="11.4667997" />
      <trkpt lat="46.0706764" lon="11.4667740" />
      <trkpt lat="46.0706565" lon="11.4667028" />
      <trkpt lat="46.0706468" lon="11.4666356" />
      <trkpt lat="46.0706282" lon="11.4665782" />
      <trkpt lat="46.0706164" lon="11.4665227" />
      <trkpt lat="46.0706121" lon="11.4665029" />
      <trkpt lat="46.0706129" lon="11.4664878" />
      <trkpt lat="46.0706172" lon="11.4664783" />
      <trkpt lat="46.0706258" lon="11.4664777" />
      <trkpt lat="46.0706740" lon="11.4664847" />
      <trkpt lat="46.0706778" lon="11.4664839" />
      <trkpt lat="46.0706812" lon="11.4664814" />
      <trkpt lat="46.0706839" lon="11.4664774" />
      <trkpt lat="46.0706856" lon="11.4664723" />
      <trkpt lat="46.0706860" lon="11.4664668" />
      <trkpt lat="46.0706852" lon="11.4664614" />
      <trkpt lat="46.0706832" lon="11.4664566" />
      <trkpt lat="46.0706802" lon="11.4664530" />
      <trkpt lat="46.0706580" lon="11.4664093" />
      <trkpt lat="46.0706465" lon="11.4663602" />
      <trkpt lat="46.0706358" lon="11.4663374" />
      <trkpt lat="46.0706064" lon="11.4662908" />
      <trkpt lat="46.0706041" lon="11.4662760" />
      <trkpt lat="46.0706069" lon="11.4662494" />
      <trkpt lat="46.0706020" lon="11.4662339" />
      <trkpt lat="46.0705938" lon="11.4662217" />
      <trkpt lat="46.0705831" lon="11.4662143" />
      <trkpt lat="46.0705180" lon="11.4661232" />
      <trkpt lat="46.0705068" lon="11.4661050" />
      <trkpt lat="46.0705012" lon="11.4660916" />
      <trkpt lat="46.0704961" lon="11.4660713" />
      <trkpt lat="46.0704964" lon="11.4660616" />
      <trkpt lat="46.0704986" lon="11.4660525" />
      <trkpt lat="46.0705025" lon="11.4660446" />
      <trkpt lat="46.0705301" lon="11.4660256" />
      <trkpt lat="46.0706187" lon="11.4660173" />
      <trkpt lat="46.0706837" lon="11.4660342" />
      <trkpt lat="46.0707351" lon="11.4660584" />
      <trkpt lat="46.0707778" lon="11.4660693" />
      <trkpt lat="46.0707808" lon="11.4660687" />
      <trkpt lat="46.0707835" lon="11.4660669" />
      <trkpt lat="46.0707857" lon="11.4660639" />
      <trkpt lat="46.0707872" lon="11.4660600" />
      <trkpt lat="46.0707878" lon="11.4660557" />
      <trkpt lat="46.0707874" lon="11.4660514" />
      <trkpt lat="46.0707772" lon="11.4660130" />
      <trkpt lat="46.0707702" lon="11.4659494" />
      <trkpt lat="46.0707703" lon="11.4659460" />
      <trkpt lat="46.0707712" lon="11.4659429" />
      <trkpt lat="46.0707727" lon="11.4659402" />
      <trkpt lat="46.0707747" lon="11.4659384" />
      <trkpt lat="46.0707770" lon="11.4659376" />
      <trkpt lat="46.0707794" lon="11.4659378" />
      <trkpt lat="46.0707816" lon="11.4659391" />
      <trkpt lat="46.0707834" lon="11.4659413" />
      <trkpt lat="46.0708181" lon="11.4659809" />
      <trkpt lat="46.0708625" lon="11.4660301" />
      <trkpt lat="46.0708975" lon="11.4660603" />
      <trkpt lat="46.0709447" lon="11.4660950" />
      <trkpt lat="46.0710402" lon="11.4661663" />
      <trkpt lat="46.0710497" lon="11.4661728" />
      <trkpt lat="46.0710560" lon="11.4661749" />
      <trkpt lat="46.0710625" lon="11.4661740" />
      <trkpt lat="46.0710685" lon="11.4661701" />
      <trkpt lat="46.0710733" lon="11.4661637" />
      <trkpt lat="46.0710764" lon="11.4661554" />
      <trkpt lat="46.0710775" lon="11.4661461" />
      <trkpt lat="46.0710864" lon="11.4661971" />
      <trkpt lat="46.0710962" lon="11.4662192" />
      <trkpt lat="46.0711033" lon="11.4662449" />
      <trkpt lat="46.0711163" lon="11.4662656" />
      <trkpt lat="46.0711243" lon="11.4662911" />
      <trkpt lat="46.0711265" lon="11.4663190" />
      <trkpt lat="46.0711226" lon="11.4663464" />
      <trkpt lat="46.0711626" lon="11.4664060" />
      <trkpt lat="46.0713019" lon="11.4664796" />
      <trkpt lat="46.0713916" lon="11.4665730" />
      <trkpt lat="46.0714564" lon="11.4666068" />
      <trkpt lat="46.0715130" lon="11.4665889" />
      <trkpt lat="46.0715971" lon="11.4665432" />
      <trkpt lat="46.0716069" lon="11.4665429" />
      <trkpt lat="46.0716619" lon="11.4665412" />
      <trkpt lat="46.0716950" lon="11.4664935" />
      <trkpt lat="46.0717336" lon="11.4663504" />
      <trkpt lat="46.0717378" lon="11.4662072" />
      <trkpt lat="46.0717019" lon="11.4660899" />
      <trkpt lat="46.0715805" lon="11.4658414" />
      <trkpt lat="46.0715088" lon="11.4657102" />
      <trkpt lat="46.0714109" lon="11.4656247" />
      <trkpt lat="46.0712863" lon="11.4655445" />
      <trkpt lat="46.0712646" lon="11.4655276" />
      <trkpt lat="46.0711323" lon="11.4654180" />
      <trkpt lat="46.0708964" lon="11.4651536" />
      <trkpt lat="46.0706338" lon="11.4649278" />
      <trkpt lat="46.0706026" lon="11.4649031" />
      <trkpt lat="46.0705929" lon="11.4648981" />
      <trkpt lat="46.0705826" lon="11.4648971" />
      <trkpt lat="46.0705725" lon="11.4649002" />
      <trkpt lat="46.0705347" lon="11.4648724" />
      <trkpt lat="46.0704807" lon="11.4648568" />
      <trkpt lat="46.0704419" lon="11.4648553" />
      <trkpt lat="46.0704349" lon="11.4648694" />
      <trkpt lat="46.0704255" lon="11.4648780" />
      <trkpt lat="46.0704119" lon="11.4649016" />
      <trkpt lat="46.0704150" lon="11.4649303" />
      <trkpt lat="46.0704300" lon="11.4649905" />
      <trkpt lat="46.0704258" lon="11.4650495" />
      <trkpt lat="46.0704184" lon="11.4651172" />
      <trkpt lat="46.0704172" lon="11.4651803" />
      <trkpt lat="46.0703990" lon="11.4652713" />
      <trkpt lat="46.0703918" lon="11.4653213" />
      <trkpt lat="46.0703785" lon="11.4653639" />
      <trkpt lat="46.0703760" lon="11.4653692" />
      <trkpt lat="46.0703749" lon="11.4653753" />
      <trkpt lat="46.0703751" lon="11.4653816" />
      <trkpt lat="46.0703768" lon="11.4653875" />
      <trkpt lat="46.0703797" lon="11.4653922" />
      <trkpt lat="46.0703834" lon="11.4653955" />
      <trkpt lat="46.0703877" lon="11.4653967" />
      <trkpt lat="46.0704804" lon="11.4654110" />
      <trkpt lat="46.0705658" lon="11.4654335" />
      <trkpt lat="46.0706298" lon="11.4654721" />
      <trkpt lat="46.0706820" lon="11.4655333" />
      <trkpt lat="46.0707418" lon="11.4656103" />
      <trkpt lat="46.0708236" lon="11.4657216" />
      <trkpt lat="46.0708814" lon="11.4657947" />
      <trkpt lat="46.0709494" lon="11.4658810" />
      <trkpt lat="46.0710059" lon="11.4660027" />
      <trkpt lat="46.0710608" lon="11.4660986" />
      <trkpt lat="46.0710765" lon="11.4661368" />
      <trkpt lat="46.0710775" lon="11.4661461" />
      <trkpt lat="46.0710764" lon="11.4661554" />
      <trkpt lat="46.0710733" lon="11.4661637" />
      <trkpt lat="46.0710685" lon="11.4661701" />
      <trkpt lat="46.0710625" lon="11.4661740" />
      <trkpt lat="46.0710560" lon="11.4661749" />
      <trkpt lat="46.0710497" lon="11.4661728" />
      <trkpt lat="46.0710402" lon="11.4661663" />
      <trkpt lat="46.0709447" lon="11.4660950" />
      <trkpt lat="46.0708975" lon="11.4660603" />
      <trkpt lat="46.0708625" lon="11.4660301" />
      <trkpt lat="46.0708181" lon="11.4659809" />
      <trkpt lat="46.0707834" lon="11.4659413" />
      <trkpt lat="46.0707816" lon="11.4659391" />
      <trkpt lat="46.0707794" lon="11.4659378" />
      <trkpt lat="46.0707770" lon="11.4659376" />
      <trkpt lat="46.0707747" lon="11.4659384" />
      <trkpt lat="46.0707727" lon="11.4659402" />
      <trkpt lat="46.0707712" lon="11.4659429" />
      <trkpt lat="46.0707703" lon="11.4659460" />
      <trkpt lat="46.0707702" lon="11.4659494" />
      <trkpt lat="46.0707772" lon="11.4660130" />
      <trkpt lat="46.0707874" lon="11.4660514" />
      <trkpt lat="46.0707878" lon="11.4660557" />
      <trkpt lat="46.0707872" lon="11.4660600" />
      <trkpt lat="46.0707857" lon="11.4660639" />
      <trkpt lat="46.0707835" lon="11.4660669" />
      <trkpt lat="46.0707808" lon="11.4660687" />
      <trkpt lat="46.0707778" lon="11.4660693" />
      <trkpt lat="46.0707351" lon="11.4660584" />
      <trkpt lat="46.0706837" lon="11.4660342" />
      <trkpt lat="46.0706187" lon="11.4660173" />
      <trkpt lat="46.0705301" lon="11.4660256" />
      <trkpt lat="46.0705025" lon="11.4660446" />
      <trkpt lat="46.0704986" lon="11.4660525" />
      <trkpt lat="46.0704964" lon="11.4660616" />
      <trkpt lat="46.0704961" lon="11.4660713" />
      <trkpt lat="46.0705012" lon="11.4660916" />
      <trkpt lat="46.0705068" lon="11.4661050" />
      <trkpt lat="46.0705180" lon="11.4661232" />
      <trkpt lat="46.0705831" lon="11.4662143" />
      <trkpt lat="46.0705938" lon="11.4662217" />
      <trkpt lat="46.0706020" lon="11.4662339" />
      <trkpt lat="46.0706069" lon="11.4662494" />
      <trkpt lat="46.0706041" lon="11.4662760" />
      <trkpt lat="46.0706064" lon="11.4662908" />
      <trkpt lat="46.0706358" lon="11.4663374" />
      <trkpt lat="46.0706465" lon="11.4663602" />
      <trkpt lat="46.0706580" lon="11.4664093" />
      <trkpt lat="46.0706802" lon="11.4664530" />
      <trkpt lat="46.0706832" lon="11.4664566" />
      <trkpt lat="46.0706852" lon="11.4664614" />
      <trkpt lat="46.0706860" lon="11.4664668" />
      <trkpt lat="46.0706856" lon="11.4664723" />
      <trkpt lat="46.0706839" lon="11.4664774" />
      <trkpt lat="46.0706812" lon="11.4664814" />
      <trkpt lat="46.0706778" lon="11.4664839" />
      <trkpt lat="46.0706740" lon="11.4664847" />
      <trkpt lat="46.0706258" lon="11.4664777" />
      <trkpt lat="46.0706172" lon="11.4664783" />
      <trkpt lat="46.0706129" lon="11.4664878" />
      <trkpt lat="46.0706121" lon="11.4665029" />
      <trkpt lat="46.0706164" lon="11.4665227" />
      <trkpt lat="46.0706282" lon="11.4665782" />
      <trkpt lat="46.0706468" lon="11.4666356" />
      <trkpt lat="46.0706565" lon="11.4667028" />
      <trkpt lat="46.0706764" lon="11.4667740" />
      <trkpt lat="46.0706894" lon="11.4667997" />
      <trkpt lat="46.0706945" lon="11.4668285" />
      <trkpt lat="46.0706952" lon="11.4668459" />
      <trkpt lat="46.0707070" lon="11.4668750" />
      <trkpt lat="46.0707059" lon="11.4668849" />
      <trkpt lat="46.0707030" lon="11.4668904" />
      <trkpt lat="46.0706989" lon="11.4668942" />
      <trkpt lat="46.0706942" lon="11.4668959" />
      <trkpt lat="46.0705905" lon="11.4669322" />
      <trkpt lat="46.0705435" lon="11.4669657" />
      <trkpt lat="46.0705161" lon="11.4670004" />
      <trkpt lat="46.0705049" lon="11.4670158" />
      <trkpt lat="46.0704972" lon="11.4670352" />
      <trkpt lat="46.0704936" lon="11.4670570" />
      <trkpt lat="46.0704946" lon="11.4670793" />
      <trkpt lat="46.0705007" lon="11.4671161" />
      <trkpt lat="46.0705134" lon="11.4671492" />
      <trkpt lat="46.0705878" lon="11.4672616" />
      <trkpt lat="46.0706386" lon="11.4673562" />
      <trkpt lat="46.0706651" lon="11.4674182" />
      <trkpt lat="46.0707041" lon="11.4674546" />
      <trkpt lat="46.0707648" lon="11.4674966" />
      <trkpt lat="46.0707986" lon="11.4675266" />
      <trkpt lat="46.0708374" lon="11.4675471" />
      <trkpt lat="46.0708487" lon="11.4675576" />
      <trkpt lat="46.0708543" lon="11.4675636" />
      <trkpt lat="46.0708565" lon="11.4675739" />
      <trkpt lat="46.0708575" lon="11.4675812" />
      <trkpt lat="46.0708571" lon="11.4675869" />
      <trkpt lat="46.0708562" lon="11.4675896" />
      <trkpt lat="46.0708559" lon="11.4675925" />
      <trkpt lat="46.0708563" lon="11.4675954" />
      <trkpt lat="46.0708574" lon="11.4675979" />
      <trkpt lat="46.0708590" lon="11.4675998" />
      <trkpt lat="46.0708610" lon="11.4676007" />
      <trkpt lat="46.0708708" lon="11.4676034" />
      <trkpt lat="46.0708825" lon="11.4676087" />
      <trkpt lat="46.0708926" lon="11.4676246" />
      <trkpt lat="46.0709093" lon="11.4676563" />
      <trkpt lat="46.0709232" lon="11.4676760" />
      <trkpt lat="46.0709328" lon="11.4676832" />
      <trkpt lat="46.0709431" lon="11.4676902" />
      <trkpt lat="46.0709543" lon="11.4676918" />
      <trkpt lat="46.0709653" lon="11.4676880" />
      <trkpt lat="46.0709882" lon="11.4676790" />
      <trkpt lat="46.0710180" lon="11.4676479" />
      <trkpt lat="46.0710391" lon="11.4676168" />
      <trkpt lat="46.0710531" lon="11.4676161" />
      <trkpt lat="46.0710688" lon="11.4676254" />
      <trkpt lat="46.0710845" lon="11.4676262" />
      <trkpt lat="46.0710976" lon="11.4676226" />
      <trkpt lat="46.0711157" lon="11.4676230" />
      <trkpt lat="46.0711406" lon="11.4676273" />
      <trkpt lat="46.0711667" lon="11.4676437" />
      <trkpt lat="46.0711977" lon="11.4676525" />
      <trkpt lat="46.0712222" lon="11.4676694" />
      <trkpt lat="46.0712443" lon="11.4676795" />
      <trkpt lat="46.0712674" lon="11.4676844" />
      <trkpt lat="46.0712753" lon="11.4676909" />
      <trkpt lat="46.0712807" lon="11.4676990" />
      <trkpt lat="46.0712829" lon="11.4677111" />
      <trkpt lat="46.0712823" lon="11.4677236" />
      <trkpt lat="46.0712789" lon="11.4677352" />
      <trkpt lat="46.0712752" lon="11.4677498" />
      <trkpt lat="46.0712629" lon="11.4677844" />
      <trkpt lat="46.0712621" lon="11.4677893" />
      <trkpt lat="46.0712615" lon="11.4677941" />
      <trkpt lat="46.0712625" lon="11.4678003" />
      <trkpt lat="46.0712664" lon="11.4678068" />
      <trkpt lat="46.0712716" lon="11.4678114" />
      <trkpt lat="46.0712989" lon="11.4678056" />
      <trkpt lat="46.0713570" lon="11.4678017" />
      <trkpt lat="46.0713746" lon="11.4678123" />
      <trkpt lat="46.0713823" lon="11.4678327" />
      <trkpt lat="46.0713860" lon="11.4678554" />
      <trkpt lat="46.0713844" lon="11.4678710" />
      <trkpt lat="46.0713796" lon="11.4678934" />
      <trkpt lat="46.0713792" lon="11.4679461" />
      <trkpt lat="46.0713801" lon="11.4679545" />
      <trkpt lat="46.0713828" lon="11.4679621" />
      <trkpt lat="46.0713872" lon="11.4679679" />
      <trkpt lat="46.0713926" lon="11.4679713" />
      <trkpt lat="46.0713985" lon="11.4679719" />
      <trkpt lat="46.0714427" lon="11.4680054" />
      <trkpt lat="46.0715138" lon="11.4680672" />
      <trkpt lat="46.0715499" lon="11.4680920" />
      <trkpt lat="46.0715732" lon="11.4681255" />
      <trkpt lat="46.0715982" lon="11.4681790" />
      <trkpt lat="46.0716550" lon="11.4682487" />
      <trkpt lat="46.0717006" lon="11.4683024" />
      <trkpt lat="46.0716613" lon="11.4683251" />
      <trkpt lat="46.0716336" lon="11.4683282" />
      <trkpt lat="46.0716162" lon="11.4683504" />
      <trkpt lat="46.0716070" lon="11.4683813" />
      <trkpt lat="46.0716054" lon="11.4684379" />
      <trkpt lat="46.0715666" lon="11.4685347" />
      <trkpt lat="46.0715284" lon="11.4685910" />
      <trkpt lat="46.0715057" lon="11.4686690" />
      <trkpt lat="46.0714783" lon="11.4687549" />
      <trkpt lat="46.0714658" lon="11.4687878" />
      <trkpt lat="46.0715062" lon="11.4687989" />
      <trkpt lat="46.0715467" lon="11.4688059" />
      <trkpt lat="46.0715927" lon="11.4688068" />
      <trkpt lat="46.0716817" lon="11.4687833" />
      <trkpt lat="46.0717884" lon="11.4687331" />
      <trkpt lat="46.0718741" lon="11.4687257" />
      <trkpt lat="46.0719476" lon="11.4687221" />
      <trkpt lat="46.0720254" lon="11.4687306" />
      <trkpt lat="46.0721189" lon="11.4687507" />
      <trkpt lat="46.0722007" lon="11.4687789" />
      <trkpt lat="46.0722668" lon="11.4688157" />
      <trkpt lat="46.0723040" lon="11.4688468" />
      <trkpt lat="46.0723662" lon="11.4688981" />
      <trkpt lat="46.0724700" lon="11.4690169" />
      <trkpt lat="46.0725457" lon="11.4691203" />
      <trkpt lat="46.0726092" lon="11.4692395" />
      <trkpt lat="46.0726838" lon="11.4693870" />
      <trkpt lat="46.0727301" lon="11.4694470" />
      <trkpt lat="46.0727672" lon="11.4694705" />
      <trkpt lat="46.0728166" lon="11.4694738" />
      <trkpt lat="46.0728382" lon="11.4694671" />
      <trkpt lat="46.0728554" lon="11.4694625" />
      <trkpt lat="46.0728783" lon="11.4694524" />
      <trkpt lat="46.0728791" lon="11.4694631" />
      <trkpt lat="46.0728763" lon="11.4694737" />
      <trkpt lat="46.0728701" lon="11.4694828" />
      <trkpt lat="46.0728576" lon="11.4695001" />
      <trkpt lat="46.0728511" lon="11.4695099" />
      <trkpt lat="46.0728409" lon="11.4695099" />
      <trkpt lat="46.0728196" lon="11.4695192" />
      <trkpt lat="46.0728032" lon="11.4695258" />
      <trkpt lat="46.0727954" lon="11.4695321" />
      <trkpt lat="46.0727925" lon="11.4695351" />
      <trkpt lat="46.0727910" lon="11.4695370" />
      <trkpt lat="46.0727900" lon="11.4695395" />
      <trkpt lat="46.0727896" lon="11.4695423" />
      <trkpt lat="46.0727899" lon="11.4695452" />
      <trkpt lat="46.0727909" lon="11.4695478" />
      <trkpt lat="46.0727924" lon="11.4695509" />
      <trkpt lat="46.0727957" lon="11.4695547" />
      <trkpt lat="46.0728013" lon="11.4695591" />
      <trkpt lat="46.0728070" lon="11.4695646" />
      <trkpt lat="46.0728139" lon="11.4695681" />
      <trkpt lat="46.0728193" lon="11.4695683" />
      <trkpt lat="46.0728269" lon="11.4695664" />
      <trkpt lat="46.0728329" lon="11.4695634" />
      <trkpt lat="46.0728442" lon="11.4695638" />
      <trkpt lat="46.0728478" lon="11.4695653" />
      <trkpt lat="46.0728508" lon="11.4695683" />
      <trkpt lat="46.0728531" lon="11.4695725" />
      <trkpt lat="46.0728544" lon="11.4695775" />
      <trkpt lat="46.0728546" lon="11.4695828" />
      <trkpt lat="46.0728536" lon="11.4695879" />
      <trkpt lat="46.0728515" lon="11.4695924" />
      <trkpt lat="46.0728486" lon="11.4695957" />
      <trkpt lat="46.0728452" lon="11.4695976" />
      <trkpt lat="46.0728300" lon="11.4696121" />
      <trkpt lat="46.0728292" lon="11.4696132" />
      <trkpt lat="46.0728287" lon="11.4696146" />
      <trkpt lat="46.0728285" lon="11.4696162" />
      <trkpt lat="46.0728287" lon="11.4696178" />
      <trkpt lat="46.0728292" lon="11.4696192" />
      <trkpt lat="46.0728300" lon="11.4696204" />
      <trkpt lat="46.0728310" lon="11.4696211" />
      <trkpt lat="46.0728321" lon="11.4696213" />
      <trkpt lat="46.0728440" lon="11.4696234" />
      <trkpt lat="46.0728477" lon="11.4696238" />
      <trkpt lat="46.0728550" lon="11.4696286" />
      <trkpt lat="46.0728692" lon="11.4696293" />
      <trkpt lat="46.0728820" lon="11.4696226" />
      <trkpt lat="46.0728946" lon="11.4696239" />
      <trkpt lat="46.0729049" lon="11.4696256" />
      <trkpt lat="46.0729089" lon="11.4696260" />
      <trkpt lat="46.0729150" lon="11.4696300" />
      <trkpt lat="46.0729186" lon="11.4696363" />
      <trkpt lat="46.0729216" lon="11.4696427" />
      <trkpt lat="46.0729229" lon="11.4696502" />
      <trkpt lat="46.0729226" lon="11.4696581" />
      <trkpt lat="46.0729203" lon="11.4696650" />
      <trkpt lat="46.0729179" lon="11.4696740" />
      <trkpt lat="46.0728992" lon="11.4697441" />
      <trkpt lat="46.0728917" lon="11.4697651" />
      <trkpt lat="46.0728943" lon="11.4697722" />
      <trkpt lat="46.0728985" lon="11.4697776" />
      <trkpt lat="46.0729036" lon="11.4697807" />
      <trkpt lat="46.0729092" lon="11.4697812" />
      <trkpt lat="46.0729389" lon="11.4697749" />
      <trkpt lat="46.0729652" lon="11.4697884" />
      <trkpt lat="46.0729690" lon="11.4698095" />
      <trkpt lat="46.0729768" lon="11.4698340" />
      <trkpt lat="46.0729997" lon="11.4698468" />
      <trkpt lat="46.0730250" lon="11.4698692" />
      <trkpt lat="46.0730302" lon="11.4698739" />
      <trkpt lat="46.0730352" lon="11.4698747" />
      <trkpt lat="46.0730397" lon="11.4698778" />
      <trkpt lat="46.0730433" lon="11.4698828" />
      <trkpt lat="46.0730456" lon="11.4698892" />
      <trkpt lat="46.0730464" lon="11.4698963" />
      <trkpt lat="46.0730455" lon="11.4699034" />
      <trkpt lat="46.0730431" lon="11.4699098" />
      <trkpt lat="46.0730024" lon="11.4700372" />
      <trkpt lat="46.0730005" lon="11.4700684" />
      <trkpt lat="46.0730077" lon="11.4700849" />
      <trkpt lat="46.0731834" lon="11.4701653" />
      <trkpt lat="46.0733006" lon="11.4702389" />
      <trkpt lat="46.0733121" lon="11.4702395" />
      <trkpt lat="46.0733232" lon="11.4702347" />
      <trkpt lat="46.0733325" lon="11.4702249" />
      <trkpt lat="46.0733390" lon="11.4702112" />
      <trkpt lat="46.0733420" lon="11.4701951" />
      <trkpt lat="46.0734916" lon="11.4704902" />
      <trkpt lat="46.0734922" lon="11.4705102" />
      <trkpt lat="46.0734891" lon="11.4705296" />
      <trkpt lat="46.0734825" lon="11.4705472" />
      <trkpt lat="46.0734652" lon="11.4705822" />
      <trkpt lat="46.0734366" lon="11.4706353" />
      <trkpt lat="46.0734430" lon="11.4706592" />
      <trkpt lat="46.0734786" lon="11.4706825" />
      <trkpt lat="46.0734746" lon="11.4707057" />
      <trkpt lat="46.0734843" lon="11.4707276" />
      <trkpt lat="46.0734889" lon="11.4707419" />
      <trkpt lat="46.0735093" lon="11.4707501" />
      <trkpt lat="46.0735554" lon="11.4708057" />
      <trkpt lat="46.0736010" lon="11.4708613" />
      <trkpt lat="46.0736233" lon="11.4709022" />
      <trkpt lat="46.0736323" lon="11.4709408" />
      <trkpt lat="46.0736387" lon="11.4710068" />
      <trkpt lat="46.0736391" lon="11.4710165" />
      <trkpt lat="46.0736415" lon="11.4710256" />
      <trkpt lat="46.0736458" lon="11.4710331" />
      <trkpt lat="46.0736515" lon="11.4710383" />
      <trkpt lat="46.0736581" lon="11.4710407" />
      <trkpt lat="46.0736648" lon="11.4710401" />
      <trkpt lat="46.0736754" lon="11.4710406" />
      <trkpt lat="46.0736657" lon="11.4711155" />
      <trkpt lat="46.0736537" lon="11.4711958" />
      <trkpt lat="46.0736167" lon="11.4713104" />
      <trkpt lat="46.0735998" lon="11.4713824" />
      <trkpt lat="46.0735947" lon="11.4714039" />
      <trkpt lat="46.0735945" lon="11.4714266" />
      <trkpt lat="46.0735990" lon="11.4714484" />
      <trkpt lat="46.0736079" lon="11.4714671" />
      <trkpt lat="46.0736203" lon="11.4714811" />
      <trkpt lat="46.0735684" lon="11.4715478" />
      <trkpt lat="46.0735556" lon="11.4715642" />
      <trkpt lat="46.0735001" lon="11.4716248" />
      <trkpt lat="46.0734678" lon="11.4716567" />
      <trkpt lat="46.0734245" lon="11.4716897" />
      <trkpt lat="46.0733847" lon="11.4717104" />
      <trkpt lat="46.0733214" lon="11.4717273" />
      <trkpt lat="46.0732506" lon="11.4717239" />
      <trkpt lat="46.0729952" lon="11.4716845" />
      <trkpt lat="46.0726644" lon="11.4716483" />
      <trkpt lat="46.0724669" lon="11.4716176" />
      <trkpt lat="46.0724315" lon="11.4715794" />
      <trkpt lat="46.0723891" lon="11.4715238" />
      <trkpt lat="46.0723442" lon="11.4714229" />
      <trkpt lat="46.0723072" lon="11.4713643" />
      <trkpt lat="46.0723072" lon="11.4713480" />
      <trkpt lat="46.0723086" lon="11.4713358" />
      <trkpt lat="46.0723102" lon="11.4713211" />
      <trkpt lat="46.0723067" lon="11.4713082" />
      <trkpt lat="46.0722443" lon="11.4711771" />
      <trkpt lat="46.0722222" lon="11.4711425" />
      <trkpt lat="46.0721786" lon="11.4710780" />
      <trkpt lat="46.0721538" lon="11.4710235" />
      <trkpt lat="46.0721387" lon="11.4709842" />
      <trkpt lat="46.0721232" lon="11.4709309" />
      <trkpt lat="46.0720789" lon="11.4708511" />
      <trkpt lat="46.0719734" lon="11.4707267" />
      <trkpt lat="46.0718547" lon="11.4706120" />
      <trkpt lat="46.0718457" lon="11.4706115" />
      <trkpt lat="46.0718099" lon="11.4706094" />
      <trkpt lat="46.0717673" lon="11.4705897" />
      <trkpt lat="46.0717035" lon="11.4705444" />
      <trkpt lat="46.0716406" lon="11.4705231" />
      <trkpt lat="46.0715457" lon="11.4705133" />
      <trkpt lat="46.0713338" lon="11.4705060" />
      <trkpt lat="46.0712406" lon="11.4704913" />
      <trkpt lat="46.0711557" lon="11.4704518" />
      <trkpt lat="46.0707958" lon="11.4703190" />
      <trkpt lat="46.0704114" lon="11.4702204" />
      <trkpt lat="46.0702846" lon="11.4701946" />
      <trkpt lat="46.0702414" lon="11.4701858" />
      <trkpt lat="46.0701129" lon="11.4701646" />
      <trkpt lat="46.0700212" lon="11.4701655" />
      <trkpt lat="46.0699857" lon="11.4701792" />
      <trkpt lat="46.0699572" lon="11.4702021" />
      <trkpt lat="46.0699347" lon="11.4702265" />
      <trkpt lat="46.0699183" lon="11.4702673" />
      <trkpt lat="46.0699147" lon="11.4702924" />
      <trkpt lat="46.0699170" lon="11.4703177" />
      <trkpt lat="46.0699251" lon="11.4703405" />
      <trkpt lat="46.0699379" lon="11.4703580" />
      <trkpt lat="46.0699533" lon="11.4703770" />
      <trkpt lat="46.0701631" lon="11.4706108" />
      <trkpt lat="46.0702545" lon="11.4707213" />
      <trkpt lat="46.0703284" lon="11.4708268" />
      <trkpt lat="46.0703625" lon="11.4708643" />
      <trkpt lat="46.0704181" lon="11.4709000" />
      <trkpt lat="46.0705621" lon="11.4709657" />
      <trkpt lat="46.0706663" lon="11.4710085" />
      <trkpt lat="46.0706930" lon="11.4710312" />
      <trkpt lat="46.0707056" lon="11.4710606" />
      <trkpt lat="46.0707323" lon="11.4710800" />
      <trkpt lat="46.0709170" lon="11.4711679" />
      <trkpt lat="46.0710293" lon="11.4712331" />
      <trkpt lat="46.0711691" lon="11.4712892" />
      <trkpt lat="46.0711851" lon="11.4713042" />
      <trkpt lat="46.0711995" lon="11.4713278" />
      <trkpt lat="46.0712816" lon="11.4714254" />
      <trkpt lat="46.0713629" lon="11.4715049" />
      <trkpt lat="46.0713996" lon="11.4715373" />
      <trkpt lat="46.0714429" lon="11.4715702" />
      <trkpt lat="46.0714873" lon="11.4715996" />
      <trkpt lat="46.0715330" lon="11.4716474" />
      <trkpt lat="46.0715186" lon="11.4716813" />
      <trkpt lat="46.0715120" lon="11.4717199" />
      <trkpt lat="46.0715139" lon="11.4717596" />
      <trkpt lat="46.0715290" lon="11.4718141" />
      <trkpt lat="46.0715359" lon="11.4718303" />
      <trkpt lat="46.0713854" lon="11.4717920" />
      <trkpt lat="46.0713308" lon="11.4717797" />
      <trkpt lat="46.0712282" lon="11.4717340" />
      <trkpt lat="46.0712269" lon="11.4717334" />
      <trkpt lat="46.0711909" lon="11.4717204" />
      <trkpt lat="46.0710948" lon="11.4716842" />
      <trkpt lat="46.0710400" lon="11.4716872" />
      <trkpt lat="46.0707561" lon="11.4716280" />
      <trkpt lat="46.0706598" lon="11.4716002" />
      <trkpt lat="46.0706303" lon="11.4715900" />
      <trkpt lat="46.0706021" lon="11.4715876" />
      <trkpt lat="46.0705712" lon="11.4715910" />
      <trkpt lat="46.0705322" lon="11.4716051" />
      <trkpt lat="46.0702883" lon="11.4716994" />
      <trkpt lat="46.0701550" lon="11.4717743" />
      <trkpt lat="46.0700593" lon="11.4718154" />
      <trkpt lat="46.0700189" lon="11.4718251" />
      <trkpt lat="46.0699316" lon="11.4718367" />
      <trkpt lat="46.0692508" lon="11.4718947" />
      <trkpt lat="46.0691570" lon="11.4719023" />
      <trkpt lat="46.0690331" lon="11.4718917" />
      <trkpt lat="46.0689353" lon="11.4718651" />
      <trkpt lat="46.0689017" lon="11.4718559" />
      <trkpt lat="46.0687209" lon="11.4717680" />
      <trkpt lat="46.0686204" lon="11.4717240" />
      <trkpt lat="46.0685779" lon="11.4717085" />
      <trkpt lat="46.0685149" lon="11.4716937" />
      <trkpt lat="46.0683476" lon="11.4716767" />
      <trkpt lat="46.0679971" lon="11.4716411" />
      <trkpt lat="46.0679203" lon="11.4716234" />
      <trkpt lat="46.0678515" lon="11.4715997" />
      <trkpt lat="46.0677520" lon="11.4715512" />
      <trkpt lat="46.0676374" lon="11.4714874" />
      <trkpt lat="46.0675773" lon="11.4714382" />
      <trkpt lat="46.0675176" lon="11.4713753" />
      <trkpt lat="46.0674325" lon="11.4712689" />
      <trkpt lat="46.0671480" lon="11.4709025" />
      <trkpt lat="46.0671167" lon="11.4708622" />
      <trkpt lat="46.0670649" lon="11.4708107" />
      <trkpt lat="46.0670148" lon="11.4707792" />
      <trkpt lat="46.0669634" lon="11.4707422" />
      <trkpt lat="46.0669101" lon="11.4706965" />
      <trkpt lat="46.0667501" lon="11.4705239" />
      <trkpt lat="46.0661773" lon="11.4698517" />
      <trkpt lat="46.0660193" lon="11.4696814" />
      <trkpt lat="46.0658652" lon="11.4694944" />
      <trkpt lat="46.0656017" lon="11.4691789" />
      <trkpt lat="46.0655300" lon="11.4690853" />
      <trkpt lat="46.0652782" lon="11.4686595" />
      <trkpt lat="46.0652245" lon="11.4685657" />
      <trkpt lat="46.0651742" lon="11.4684985" />
      <trkpt lat="46.0651151" lon="11.4684355" />
      <trkpt lat="46.0650599" lon="11.4683856" />
      <trkpt lat="46.0649881" lon="11.4683226" />
      <trkpt lat="46.0648800" lon="11.4682523" />
      <trkpt lat="46.0647965" lon="11.4682115" />
      <trkpt lat="46.0647246" lon="11.4681801" />
      <trkpt lat="46.0646666" lon="11.4681463" />
      <trkpt lat="46.0646039" lon="11.4681042" />
      <trkpt lat="46.0645517" lon="11.4680560" />
      <trkpt lat="46.0645088" lon="11.4680116" />
      <trkpt lat="46.0644537" lon="11.4679467" />
      <trkpt lat="46.0643418" lon="11.4677858" />
      <trkpt lat="46.0641293" lon="11.4674581" />
      <trkpt lat="46.0638124" lon="11.4669250" />
      <trkpt lat="46.0637593" lon="11.4668509" />
      <trkpt lat="46.0637151" lon="11.4668183" />
      <trkpt lat="46.0636677" lon="11.4668056" />
      <trkpt lat="46.0636116" lon="11.4668009" />
      <trkpt lat="46.0634065" lon="11.4667924" />
      <trkpt lat="46.0633329" lon="11.4667787" />
      <trkpt lat="46.0632747" lon="11.4667523" />
      <trkpt lat="46.0632237" lon="11.4667120" />
      <trkpt lat="46.0631797" lon="11.4666609" />
      <trkpt lat="46.0631338" lon="11.4665806" />
      <trkpt lat="46.0631018" lon="11.4665229" />
      <trkpt lat="46.0630824" lon="11.4664880" />
      <trkpt lat="46.0629244" lon="11.4662011" />
      <trkpt lat="46.0627605" lon="11.4659577" />
      <trkpt lat="46.0626422" lon="11.4657422" />
      <trkpt lat="46.0625994" lon="11.4656698" />
      <trkpt lat="46.0625198" lon="11.4655717" />
      <trkpt lat="46.0624389" lon="11.4654828" />
      <trkpt lat="46.0623610" lon="11.4653789" />
      <trkpt lat="46.0623078" lon="11.4652940" />
      <trkpt lat="46.0621408" lon="11.4649793" />
      <trkpt lat="46.0619644" lon="11.4646230" />
      <trkpt lat="46.0619096" lon="11.4645183" />
      <trkpt lat="46.0618785" lon="11.4644627" />
      <trkpt lat="46.0618467" lon="11.4644184" />
      <trkpt lat="46.0618127" lon="11.4643831" />
      <trkpt lat="46.0617529" lon="11.4643425" />
      <trkpt lat="46.0616746" lon="11.4642795" />
      <trkpt lat="46.0616254" lon="11.4642391" />
      <trkpt lat="46.0615679" lon="11.4641759" />
      <trkpt lat="46.0615050" lon="11.4640981" />
      <trkpt lat="46.0614451" lon="11.4640059" />
      <trkpt lat="46.0613951" lon="11.4639124" />
      <trkpt lat="46.0613316" lon="11.4637464" />
      <trkpt lat="46.0612853" lon="11.4635909" />
      <trkpt lat="46.0612584" lon="11.4635150" />
      <trkpt lat="46.0612211" lon="11.4634191" />
      <trkpt lat="46.0611543" lon="11.4632725" />
      <trkpt lat="46.0611004" lon="11.4631817" />
      <trkpt lat="46.0610771" lon="11.4631361" />
      <trkpt lat="46.0610657" lon="11.4630744" />
      <trkpt lat="46.0610418" lon="11.4630174" />
      <trkpt lat="46.0609414" lon="11.4627949" />
      <trkpt lat="46.0608634" lon="11.4625450" />
      <trkpt lat="46.0607604" lon="11.4623300" />
      <trkpt lat="46.0605054" lon="11.4619680" />
      <trkpt lat="46.0604021" lon="11.4618048" />
      <trkpt lat="46.0603733" lon="11.4617925" />
      <trkpt lat="46.0603327" lon="11.4617601" />
      <trkpt lat="46.0602483" lon="11.4616839" />
      <trkpt lat="46.0601320" lon="11.4616119" />
      <trkpt lat="46.0599817" lon="11.4614928" />
      <trkpt lat="46.0598594" lon="11.4613959" />
      <trkpt lat="46.0597451" lon="11.4613068" />
      <trkpt lat="46.0596568" lon="11.4612137" />
      <trkpt lat="46.0596031" lon="11.4611272" />
      <trkpt lat="46.0595718" lon="11.4610612" />
      <trkpt lat="46.0595365" lon="11.4609372" />
      <trkpt lat="46.0595025" lon="11.4608392" />
      <trkpt lat="46.0594676" lon="11.4607911" />
      <trkpt lat="46.0593913" lon="11.4607086" />
      <trkpt lat="46.0592299" lon="11.4605089" />
      <trkpt lat="46.0591033" lon="11.4603583" />
      <trkpt lat="46.0590076" lon="11.4602340" />
      <trkpt lat="46.0589180" lon="11.4601307" />
      <trkpt lat="46.0587977" lon="11.4600094" />
      <trkpt lat="46.0587167" lon="11.4599347" />
      <trkpt lat="46.0586424" lon="11.4598684" />
      <trkpt lat="46.0585739" lon="11.4598074" />
      <trkpt lat="46.0585113" lon="11.4597574" />
      <trkpt lat="46.0584449" lon="11.4596836" />
      <trkpt lat="46.0583740" lon="11.4595914" />
      <trkpt lat="46.0583374" lon="11.4595225" />
      <trkpt lat="46.0583075" lon="11.4594692" />
      <trkpt lat="46.0582906" lon="11.4594358" />
      <trkpt lat="46.0582756" lon="11.4594034" />
      <trkpt lat="46.0582637" lon="11.4593625" />
      <trkpt lat="46.0582229" lon="11.4592021" />
      <trkpt lat="46.0582164" lon="11.4591806" />
      <trkpt lat="46.0582058" lon="11.4591629" />
      <trkpt lat="46.0581920" lon="11.4591506" />
      <trkpt lat="46.0581692" lon="11.4591309" />
      <trkpt lat="46.0581438" lon="11.4591131" />
      <trkpt lat="46.0580998" lon="11.4590692" />
      <trkpt lat="46.0580922" lon="11.4590574" />
      <trkpt lat="46.0580879" lon="11.4590427" />
      <trkpt lat="46.0580872" lon="11.4590267" />
      <trkpt lat="46.0580902" lon="11.4590113" />
      <trkpt lat="46.0580966" lon="11.4589982" />
      <trkpt lat="46.0581056" lon="11.4589889" />
      <trkpt lat="46.0581557" lon="11.4589712" />
      <trkpt lat="46.0582318" lon="11.4589406" />
      <trkpt lat="46.0583135" lon="11.4589097" />
      <trkpt lat="46.0583760" lon="11.4588900" />
      <trkpt lat="46.0584034" lon="11.4588850" />
      <trkpt lat="46.0584270" lon="11.4588855" />
      <trkpt lat="46.0584683" lon="11.4588961" />
      <trkpt lat="46.0585211" lon="11.4589150" />
      <trkpt lat="46.0585821" lon="11.4589354" />
      <trkpt lat="46.0586316" lon="11.4589445" />
      <trkpt lat="46.0586675" lon="11.4589422" />
      <trkpt lat="46.0586990" lon="11.4589332" />
      <trkpt lat="46.0587223" lon="11.4589183" />
      <trkpt lat="46.0587427" lon="11.4589031" />
      <trkpt lat="46.0587555" lon="11.4588834" />
      <trkpt lat="46.0587716" lon="11.4588490" />
      <trkpt lat="46.0587878" lon="11.4588032" />
      <trkpt lat="46.0587958" lon="11.4587783" />
      <trkpt lat="46.0588090" lon="11.4587539" />
      <trkpt lat="46.0588265" lon="11.4587307" />
      <trkpt lat="46.0588438" lon="11.4587091" />
      <trkpt lat="46.0588810" lon="11.4586758" />
      <trkpt lat="46.0589218" lon="11.4586405" />
      <trkpt lat="46.0589604" lon="11.4586098" />
      <trkpt lat="46.0590056" lon="11.4585701" />
      <trkpt lat="46.0590396" lon="11.4585429" />
      <trkpt lat="46.0590773" lon="11.4585060" />
      <trkpt lat="46.0591117" lon="11.4584749" />
      <trkpt lat="46.0591497" lon="11.4584363" />
      <trkpt lat="46.0591847" lon="11.4583943" />
      <trkpt lat="46.0592190" lon="11.4583427" />
      <trkpt lat="46.0592449" lon="11.4583075" />
      <trkpt lat="46.0592772" lon="11.4582671" />
      <trkpt lat="46.0593060" lon="11.4582309" />
      <trkpt lat="46.0593453" lon="11.4581940" />
      <trkpt lat="46.0593803" lon="11.4581504" />
      <trkpt lat="46.0594107" lon="11.4581107" />
      <trkpt lat="46.0594449" lon="11.4580761" />
      <trkpt lat="46.0594800" lon="11.4580421" />
      <trkpt lat="46.0595182" lon="11.4579897" />
      <trkpt lat="46.0595546" lon="11.4579356" />
      <trkpt lat="46.0595752" lon="11.4578991" />
      <trkpt lat="46.0595898" lon="11.4578687" />
      <trkpt lat="46.0595959" lon="11.4578547" />
      <trkpt lat="46.0596009" lon="11.4578409" />
      <trkpt lat="46.0596037" lon="11.4578279" />
      <trkpt lat="46.0596035" lon="11.4578145" />
      <trkpt lat="46.0596004" lon="11.4578017" />
      <trkpt lat="46.0595948" lon="11.4577909" />
      <trkpt lat="46.0595870" lon="11.4577833" />
      <trkpt lat="46.0595780" lon="11.4577796" />
      <trkpt lat="46.0595686" lon="11.4577801" />
      <trkpt lat="46.0594361" lon="11.4578066" />
      <trkpt lat="46.0593272" lon="11.4578286" />
      <trkpt lat="46.0592499" lon="11.4578409" />
      <trkpt lat="46.0590631" lon="11.4578471" />
      <trkpt lat="46.0589437" lon="11.4578656" />
      <trkpt lat="46.0587608" lon="11.4578748" />
      <trkpt lat="46.0585715" lon="11.4579502" />
      <trkpt lat="46.0584702" lon="11.4579954" />
      <trkpt lat="46.0584647" lon="11.4579978" />
      <trkpt lat="46.0584023" lon="11.4580111" />
      <trkpt lat="46.0583199" lon="11.4580015" />
      <trkpt lat="46.0582309" lon="11.4579557" />
      <trkpt lat="46.0581174" lon="11.4579541" />
      <trkpt lat="46.0580352" lon="11.4579194" />
      <trkpt lat="46.0579460" lon="11.4578749" />
      <trkpt lat="46.0579050" lon="11.4578368" />
      <trkpt lat="46.0578667" lon="11.4577762" />
      <trkpt lat="46.0577824" lon="11.4576715" />
      <trkpt lat="46.0576897" lon="11.4575763" />
      <trkpt lat="46.0574579" lon="11.4574172" />
      <trkpt lat="46.0572677" lon="11.4572845" />
      <trkpt lat="46.0570619" lon="11.4571978" />
      <trkpt lat="46.0569776" lon="11.4571192" />
      <trkpt lat="46.0568569" lon="11.4570193" />
      <trkpt lat="46.0567419" lon="11.4569061" />
      <trkpt lat="46.0565442" lon="11.4566839" />
      <trkpt lat="46.0562946" lon="11.4563737" />
      <trkpt lat="46.0561525" lon="11.4562278" />
      <trkpt lat="46.0561145" lon="11.4561869" />
      <trkpt lat="46.0560771" lon="11.4561537" />
      <trkpt lat="46.0560265" lon="11.4561282" />
      <trkpt lat="46.0559704" lon="11.4561098" />
      <trkpt lat="46.0559068" lon="11.4560913" />
      <trkpt lat="46.0558312" lon="11.4560749" />
      <trkpt lat="46.0558026" lon="11.4560723" />
      <trkpt lat="46.0558030" lon="11.4560565" />
      <trkpt lat="46.0558058" lon="11.4560454" />
      <trkpt lat="46.0558109" lon="11.4560362" />
      <trkpt lat="46.0560035" lon="11.4557111" />
      <trkpt lat="46.0560350" lon="11.4556808" />
      <trkpt lat="46.0560573" lon="11.4556683" />
      <trkpt lat="46.0560811" lon="11.4556638" />
      <trkpt lat="46.0561049" lon="11.4556677" />
      <trkpt lat="46.0564239" lon="11.4558189" />
      <trkpt lat="46.0565087" lon="11.4558447" />
      <trkpt lat="46.0566165" lon="11.4558727" />
      <trkpt lat="46.0567061" lon="11.4558754" />
      <trkpt lat="46.0567894" lon="11.4558706" />
      <trkpt lat="46.0568273" lon="11.4558636" />
      <trkpt lat="46.0568635" lon="11.4558458" />
      <trkpt lat="46.0568964" lon="11.4558180" />
      <trkpt lat="46.0569217" lon="11.4557859" />
      <trkpt lat="46.0569427" lon="11.4557480" />
      <trkpt lat="46.0569587" lon="11.4557052" />
      <trkpt lat="46.0569736" lon="11.4556443" />
      <trkpt lat="46.0569766" lon="11.4556257" />
      <trkpt lat="46.0569750" lon="11.4556068" />
      <trkpt lat="46.0569691" lon="11.4555898" />
      <trkpt lat="46.0569595" lon="11.4555767" />
      <trkpt lat="46.0567167" lon="11.4553953" />
      <trkpt lat="46.0566330" lon="11.4553265" />
      <trkpt lat="46.0564884" lon="11.4552077" />
      <trkpt lat="46.0560021" lon="11.4547802" />
      <trkpt lat="46.0559340" lon="11.4547267" />
      <trkpt lat="46.0558582" lon="11.4546858" />
      <trkpt lat="46.0556614" lon="11.4545828" />
      <trkpt lat="46.0555516" lon="11.4545292" />
      <trkpt lat="46.0554920" lon="11.4544976" />
      <trkpt lat="46.0554484" lon="11.4544692" />
      <trkpt lat="46.0554185" lon="11.4544420" />
      <trkpt lat="46.0553881" lon="11.4544067" />
      <trkpt lat="46.0554302" lon="11.4543458" />
      <trkpt lat="46.0553970" lon="11.4543150" />
      <trkpt lat="46.0551707" lon="11.4541095" />
      <trkpt lat="46.0551676" lon="11.4540394" />
      <trkpt lat="46.0551519" lon="11.4540242" />
      <trkpt lat="46.0550822" lon="11.4539567" />
      <trkpt lat="46.0550689" lon="11.4539258" />
      <trkpt lat="46.0550262" lon="11.4538260" />
      <trkpt lat="46.0548948" lon="11.4536099" />
      <trkpt lat="46.0548375" lon="11.4530811" />
      <trkpt lat="46.0542827" lon="11.4527914" />
      <trkpt lat="46.0541857" lon="11.4527408" />
      <trkpt lat="46.0542187" lon="11.4526061" />
      <trkpt lat="46.0542299" lon="11.4525428" />
      <trkpt lat="46.0542314" lon="11.4525016" />
      <trkpt lat="46.0542313" lon="11.4524775" />
      <trkpt lat="46.0542463" lon="11.4524754" />
      <trkpt lat="46.0543067" lon="11.4524653" />
      <trkpt lat="46.0544000" lon="11.4524523" />
      <trkpt lat="46.0546691" lon="11.4524289" />
      <trkpt lat="46.0547889" lon="11.4524265" />
      <trkpt lat="46.0548718" lon="11.4523434" />
      <trkpt lat="46.0548724" lon="11.4522392" />
      <trkpt lat="46.0548383" lon="11.4519824" />
      <trkpt lat="46.0547289" lon="11.4513206" />
      <trkpt lat="46.0547228" lon="11.4512834" />
      <trkpt lat="46.0546770" lon="11.4510062" />
      <trkpt lat="46.0546686" lon="11.4509574" />
      <trkpt lat="46.0545778" lon="11.4504325" />
      <trkpt lat="46.0545135" lon="11.4500603" />
      <trkpt lat="46.0545043" lon="11.4500072" />
      <trkpt lat="46.0544650" lon="11.4497801" />
      <trkpt lat="46.0544525" lon="11.4497065" />
      <trkpt lat="46.0544091" lon="11.4494516" />
      <trkpt lat="46.0543700" lon="11.4492227" />
    </trkseg>
  </trk>
</gpx>
