<?xml version="1.0" encoding="UTF-8"?>
<gpx xmlns="http://www.topografix.com/GPX/1/1" version="1.1" creator="ShapeRoute route-engine">
  <metadata>
    <name>heart 5 km · 2026-09-22</name>
    <author>
      <name>ShapeRoute route-engine</name>
    </author>
    <time>2026-09-22T21:32:32Z</time>
  </metadata>
  <trk>
    <name>heart 5 km · 2026-09-22</name>
    <trkseg>
      <trkpt lat="46.0543700" lon="11.4492227" />
      <trkpt lat="46.0544091" lon="11.4494516" />
      <trkpt lat="46.0544525" lon="11.4497065" />
      <trkpt lat="46.0544650" lon="11.4497801" />
      <trkpt lat="46.0545043" lon="11.4500072" />
      <trkpt lat="46.0545135" lon="11.4500603" />
      <trkpt lat="46.0545778" lon="11.4504325" />
      <trkpt lat="46.0546686" lon="11.4509574" />
      <trkpt lat="46.0546770" lon="11.4510062" />
      <trkpt lat="46.0547228" lon="11.4512834" />
      <trkpt lat="46.0547289" lon="11.4513206" />
      <trkpt lat="46.0548383" lon="11.4519824" />
      <trkpt lat="46.0548724" lon="11.4522392" />
      <trkpt lat="46.0548718" lon="11.4523434" />
      <trkpt lat="46.0549004" lon="11.4523506" />
      <trkpt lat="46.0549084" lon="11.4523526" />
      <trkpt lat="46.0550524" lon="11.4524383" />
      <trkpt lat="46.0551662" lon="11.4525253" />
      <trkpt lat="46.0552531" lon="11.4525923" />
      <trkpt lat="46.0552940" lon="11.4526254" />
      <trkpt lat="46.0554180" lon="11.4527256" />
      <trkpt lat="46.0556818" lon="11.4529551" />
      <trkpt lat="46.0558953" lon="11.4531331" />
      <trkpt lat="46.0559154" lon="11.4531498" />
      <trkpt lat="46.0560705" lon="11.4532782" />
      <trkpt lat="46.0560919" lon="11.4532963" />
      <trkpt lat="46.0560753" lon="11.4533347" />
      <trkpt lat="46.0560090" lon="11.4534714" />
      <trkpt lat="46.0559256" lon="11.4536450" />
      <trkpt lat="46.0558848" lon="11.4537044" />
      <trkpt lat="46.0558485" lon="11.4537528" />
      <trkpt lat="46.0557962" lon="11.4538107" />
      <trkpt lat="46.0555953" lon="11.4540522" />
      <trkpt lat="46.0555644" lon="11.4541115" />
      <trkpt lat="46.0555868" lon="11.4541388" />
      <trkpt lat="46.0557777" lon="11.4543037" />
      <trkpt lat="46.0558388" lon="11.4543531" />
      <trkpt lat="46.0558876" lon="11.4543917" />
      <trkpt lat="46.0559467" lon="11.4544302" />
      <trkpt lat="46.0559586" lon="11.4544386" />
      <trkpt lat="46.0559853" lon="11.4544608" />
      <trkpt lat="46.0559952" lon="11.4544769" />
      <trkpt lat="46.0560007" lon="11.4544970" />
      <trkpt lat="46.0560012" lon="11.4545159" />
      <trkpt lat="46.0559976" lon="11.4545342" />
      <trkpt lat="46.0559904" lon="11.4545553" />
      <trkpt lat="46.0559391" lon="11.4546998" />
      <trkpt lat="46.0559340" lon="11.4547267" />
      <trkpt lat="46.0560021" lon="11.4547802" />
      <trkpt lat="46.0564884" lon="11.4552077" />
      <trkpt lat="46.0566330" lon="11.4553265" />
      <trkpt lat="46.0567167" lon="11.4553953" />
      <trkpt lat="46.0569595" lon="11.4555767" />
      <trkpt lat="46.0569691" lon="11.4555898" />
      <trkpt lat="46.0569750" lon="11.4556068" />
      <trkpt lat="46.0569766" lon="11.4556257" />
      <trkpt lat="46.0569736" lon="11.4556443" />
      <trkpt lat="46.0569587" lon="11.4557052" />
      <trkpt lat="46.0569427" lon="11.4557480" />
      <trkpt lat="46.0569217" lon="11.4557859" />
      <trkpt lat="46.0568964" lon="11.4558180" />
      <trkpt lat="46.0568635" lon="11.4558458" />
      <trkpt lat="46.0568273" lon="11.4558636" />
      <trkpt lat="46.0567894" lon="11.4558706" />
      <trkpt lat="46.0567061" lon="11.4558754" />
      <trkpt lat="46.0566165" lon="11.4558727" />
      <trkpt lat="46.0565087" lon="11.4558447" />
      <trkpt lat="46.0564239" lon="11.4558189" />
      <trkpt lat="46.0561049" lon="11.4556677" />
      <trkpt lat="46.0560811" lon="11.4556638" />
      <trkpt lat="46.0560573" lon="11.4556683" />
      <trkpt lat="46.0560350" lon="11.4556808" />
      <trkpt lat="46.0560035" lon="11.4557111" />
      <trkpt lat="46.0558109" lon="11.4560362" />
      <trkpt lat="46.0558058" lon="11.4560454" />
      <trkpt lat="46.0558030" lon="11.4560565" />
      <trkpt lat="46.0558026" lon="11.4560723" />
      <trkpt lat="46.0556793" lon="11.4560856" />
      <trkpt lat="46.0556020" lon="11.4561010" />
      <trkpt lat="46.0554898" lon="11.4561233" />
      <trkpt lat="46.0554262" lon="11.4561511" />
      <trkpt lat="46.0553843" lon="11.4561859" />
      <trkpt lat="46.0553164" lon="11.4562714" />
      <trkpt lat="46.0549442" lon="11.4568280" />
      <trkpt lat="46.0549020" lon="11.4568897" />
      <trkpt lat="46.0548254" lon="11.4570107" />
      <trkpt lat="46.0547896" lon="11.4570736" />
      <trkpt lat="46.0547485" lon="11.4571599" />
      <trkpt lat="46.0547113" lon="11.4572393" />
      <trkpt lat="46.0547057" lon="11.4572457" />
      <trkpt lat="46.0546990" lon="11.4572493" />
      <trkpt lat="46.0546918" lon="11.4572497" />
      <trkpt lat="46.0546849" lon="11.4572468" />
      <trkpt lat="46.0546715" lon="11.4572803" />
      <trkpt lat="46.0546390" lon="11.4573456" />
      <trkpt lat="46.0546114" lon="11.4573938" />
      <trkpt lat="46.0545934" lon="11.4574160" />
      <trkpt lat="46.0545682" lon="11.4574452" />
      <trkpt lat="46.0545495" lon="11.4574533" />
      <trkpt lat="46.0545304" lon="11.4574550" />
      <trkpt lat="46.0545070" lon="11.4574467" />
      <trkpt lat="46.0544181" lon="11.4573974" />
      <trkpt lat="46.0543355" lon="11.4573574" />
      <trkpt lat="46.0543255" lon="11.4573832" />
      <trkpt lat="46.0543233" lon="11.4573875" />
      <trkpt lat="46.0543203" lon="11.4573907" />
      <trkpt lat="46.0543168" lon="11.4573923" />
      <trkpt lat="46.0543131" lon="11.4573924" />
      <trkpt lat="46.0543096" lon="11.4573908" />
      <trkpt lat="46.0542660" lon="11.4573742" />
      <trkpt lat="46.0542621" lon="11.4573739" />
      <trkpt lat="46.0542584" lon="11.4573755" />
      <trkpt lat="46.0542192" lon="11.4574034" />
      <trkpt lat="46.0540668" lon="11.4574439" />
      <trkpt lat="46.0539656" lon="11.4574732" />
      <trkpt lat="46.0539246" lon="11.4574946" />
      <trkpt lat="46.0539293" lon="11.4576315" />
      <trkpt lat="46.0539412" lon="11.4576929" />
      <trkpt lat="46.0538560" lon="11.4577351" />
      <trkpt lat="46.0537780" lon="11.4577670" />
      <trkpt lat="46.0537610" lon="11.4577757" />
      <trkpt lat="46.0536664" lon="11.4578166" />
      <trkpt lat="46.0536204" lon="11.4578337" />
      <trkpt lat="46.0534950" lon="11.4578548" />
      <trkpt lat="46.0534639" lon="11.4578672" />
      <trkpt lat="46.0534069" lon="11.4578983" />
      <trkpt lat="46.0533588" lon="11.4579257" />
      <trkpt lat="46.0533435" lon="11.4580776" />
      <trkpt lat="46.0533032" lon="11.4582182" />
      <trkpt lat="46.0532813" lon="11.4583243" />
      <trkpt lat="46.0532546" lon="11.4584558" />
      <trkpt lat="46.0532492" lon="11.4585334" />
      <trkpt lat="46.0532497" lon="11.4586083" />
      <trkpt lat="46.0532576" lon="11.4588470" />
      <trkpt lat="46.0532582" lon="11.4589141" />
      <trkpt lat="46.0532159" lon="11.4589180" />
      <trkpt lat="46.0531712" lon="11.4589341" />
      <trkpt lat="46.0530115" lon="11.4589853" />
      <trkpt lat="46.0528020" lon="11.4590543" />
      <trkpt lat="46.0526746" lon="11.4590963" />
      <trkpt lat="46.0525519" lon="11.4591401" />
      <trkpt lat="46.0523887" lon="11.4591901" />
      <trkpt lat="46.0523328" lon="11.4589916" />
      <trkpt lat="46.0523211" lon="11.4589524" />
      <trkpt lat="46.0522902" lon="11.4588827" />
      <trkpt lat="46.0522274" lon="11.4587652" />
      <trkpt lat="46.0521460" lon="11.4586367" />
      <trkpt lat="46.0520845" lon="11.4585621" />
      <trkpt lat="46.0520807" lon="11.4585526" />
      <trkpt lat="46.0520668" lon="11.4584945" />
      <trkpt lat="46.0519360" lon="11.4585556" />
      <trkpt lat="46.0519327" lon="11.4585583" />
      <trkpt lat="46.0519301" lon="11.4585625" />
      <trkpt lat="46.0519286" lon="11.4585676" />
      <trkpt lat="46.0519284" lon="11.4585731" />
      <trkpt lat="46.0519294" lon="11.4585784" />
      <trkpt lat="46.0520510" lon="11.4593044" />
      <trkpt lat="46.0523689" lon="11.4591974" />
      <trkpt lat="46.0523887" lon="11.4591901" />
      <trkpt lat="46.0525519" lon="11.4591401" />
      <trkpt lat="46.0525461" lon="11.4591051" />
      <trkpt lat="46.0525173" lon="11.4588661" />
      <trkpt lat="46.0524649" lon="11.4585414" />
      <trkpt lat="46.0526655" lon="11.4585305" />
      <trkpt lat="46.0526835" lon="11.4585654" />
      <trkpt lat="46.0528236" lon="11.4588004" />
      <trkpt lat="46.0529415" lon="11.4588429" />
      <trkpt lat="46.0528328" lon="11.4582187" />
      <trkpt lat="46.0528199" lon="11.4581373" />
      <trkpt lat="46.0528119" lon="11.4580873" />
      <trkpt lat="46.0527670" lon="11.4576834" />
      <trkpt lat="46.0527468" lon="11.4576950" />
      <trkpt lat="46.0526840" lon="11.4577182" />
      <trkpt lat="46.0526374" lon="11.4577327" />
      <trkpt lat="46.0526243" lon="11.4577378" />
      <trkpt lat="46.0525888" lon="11.4577449" />
      <trkpt lat="46.0524380" lon="11.4577560" />
      <trkpt lat="46.0523009" lon="11.4577585" />
      <trkpt lat="46.0521670" lon="11.4577344" />
      <trkpt lat="46.0521262" lon="11.4577229" />
      <trkpt lat="46.0519581" lon="11.4577022" />
      <trkpt lat="46.0517598" lon="11.4576581" />
      <trkpt lat="46.0517652" lon="11.4576898" />
      <trkpt lat="46.0518907" lon="11.4584220" />
      <trkpt lat="46.0518934" lon="11.4584379" />
      <trkpt lat="46.0518957" lon="11.4584417" />
      <trkpt lat="46.0518986" lon="11.4584443" />
      <trkpt lat="46.0519020" lon="11.4584456" />
      <trkpt lat="46.0519055" lon="11.4584454" />
      <trkpt lat="46.0519087" lon="11.4584438" />
      <trkpt lat="46.0523158" lon="11.4582967" />
      <trkpt lat="46.0526528" lon="11.4581643" />
      <trkpt lat="46.0526517" lon="11.4580236" />
      <trkpt lat="46.0526471" lon="11.4579027" />
      <trkpt lat="46.0526382" lon="11.4577470" />
      <trkpt lat="46.0526374" lon="11.4577327" />
      <trkpt lat="46.0526840" lon="11.4577182" />
      <trkpt lat="46.0527468" lon="11.4576950" />
      <trkpt lat="46.0527670" lon="11.4576834" />
      <trkpt lat="46.0528119" lon="11.4580873" />
      <trkpt lat="46.0528199" lon="11.4581373" />
      <trkpt lat="46.0528328" lon="11.4582187" />
      <trkpt lat="46.0529415" lon="11.4588429" />
      <trkpt lat="46.0529470" lon="11.4588743" />
      <trkpt lat="46.0529607" lon="11.4589198" />
      <trkpt lat="46.0529828" lon="11.4589578" />
      <trkpt lat="46.0530115" lon="11.4589853" />
      <trkpt lat="46.0531712" lon="11.4589341" />
      <trkpt lat="46.0532159" lon="11.4589180" />
      <trkpt lat="46.0532582" lon="11.4589141" />
      <trkpt lat="46.0532832" lon="11.4589013" />
      <trkpt lat="46.0536169" lon="11.4587566" />
      <trkpt lat="46.0536251" lon="11.4588652" />
      <trkpt lat="46.0536355" lon="11.4589955" />
      <trkpt lat="46.0536396" lon="11.4590631" />
      <trkpt lat="46.0536383" lon="11.4590831" />
      <trkpt lat="46.0536326" lon="11.4591014" />
      <trkpt lat="46.0536231" lon="11.4591160" />
      <trkpt lat="46.0535368" lon="11.4591339" />
      <trkpt lat="46.0535256" lon="11.4591466" />
      <trkpt lat="46.0535175" lon="11.4591634" />
      <trkpt lat="46.0535132" lon="11.4591829" />
      <trkpt lat="46.0535129" lon="11.4592033" />
      <trkpt lat="46.0535153" lon="11.4592281" />
      <trkpt lat="46.0535637" lon="11.4596586" />
      <trkpt lat="46.0535634" lon="11.4596902" />
      <trkpt lat="46.0535559" lon="11.4597198" />
      <trkpt lat="46.0535431" lon="11.4597383" />
      <trkpt lat="46.0535211" lon="11.4597596" />
      <trkpt lat="46.0535123" lon="11.4597847" />
      <trkpt lat="46.0535091" lon="11.4598124" />
      <trkpt lat="46.0535277" lon="11.4599850" />
      <trkpt lat="46.0535270" lon="11.4600080" />
      <trkpt lat="46.0535378" lon="11.4601229" />
      <trkpt lat="46.0535577" lon="11.4603200" />
      <trkpt lat="46.0535743" lon="11.4605231" />
      <trkpt lat="46.0535860" lon="11.4607479" />
      <trkpt lat="46.0535908" lon="11.4609025" />
      <trkpt lat="46.0535945" lon="11.4613027" />
      <trkpt lat="46.0535937" lon="11.4613372" />
      <trkpt lat="46.0536039" lon="11.4614326" />
      <trkpt lat="46.0536133" lon="11.4615208" />
      <trkpt lat="46.0536140" lon="11.4615279" />
      <trkpt lat="46.0536131" lon="11.4615803" />
      <trkpt lat="46.0536078" lon="11.4615790" />
      <trkpt lat="46.0535789" lon="11.4615763" />
      <trkpt lat="46.0535813" lon="11.4616837" />
      <trkpt lat="46.0535817" lon="11.4617421" />
      <trkpt lat="46.0535829" lon="11.4619075" />
      <trkpt lat="46.0535784" lon="11.4620633" />
      <trkpt lat="46.0535742" lon="11.4621605" />
      <trkpt lat="46.0535658" lon="11.4622583" />
      <trkpt lat="46.0535634" lon="11.4622745" />
      <trkpt lat="46.0535557" lon="11.4623370" />
      <trkpt lat="46.0535498" lon="11.4623846" />
      <trkpt lat="46.0535407" lon="11.4624621" />
      <trkpt lat="46.0535208" lon="11.4626070" />
      <trkpt lat="46.0535446" lon="11.4626089" />
      <trkpt lat="46.0535463" lon="11.4626105" />
      <trkpt lat="46.0535472" lon="11.4626137" />
      <trkpt lat="46.0535475" lon="11.4626172" />
      <trkpt lat="46.0535474" lon="11.4626204" />
      <trkpt lat="46.0535411" lon="11.4626880" />
      <trkpt lat="46.0535143" lon="11.4629973" />
      <trkpt lat="46.0535147" lon="11.4630000" />
      <trkpt lat="46.0535156" lon="11.4630026" />
      <trkpt lat="46.0535170" lon="11.4630046" />
      <trkpt lat="46.0535187" lon="11.4630059" />
      <trkpt lat="46.0535207" lon="11.4630064" />
      <trkpt lat="46.0535226" lon="11.4630061" />
      <trkpt lat="46.0535491" lon="11.4630109" />
      <trkpt lat="46.0535416" lon="11.4631021" />
      <trkpt lat="46.0535346" lon="11.4631872" />
      <trkpt lat="46.0534940" lon="11.4631791" />
      <trkpt lat="46.0534744" lon="11.4631753" />
      <trkpt lat="46.0534622" lon="11.4632975" />
      <trkpt lat="46.0534388" lon="11.4632919" />
      <trkpt lat="46.0533728" lon="11.4632807" />
      <trkpt lat="46.0532858" lon="11.4633338" />
      <trkpt lat="46.0532630" lon="11.4633706" />
      <trkpt lat="46.0532181" lon="11.4633923" />
      <trkpt lat="46.0530020" lon="11.4635276" />
      <trkpt lat="46.0529832" lon="11.4635393" />
      <trkpt lat="46.0529229" lon="11.4635883" />
      <trkpt lat="46.0528842" lon="11.4636090" />
      <trkpt lat="46.0528467" lon="11.4636115" />
      <trkpt lat="46.0528162" lon="11.4635949" />
      <trkpt lat="46.0527961" lon="11.4635520" />
      <trkpt lat="46.0528396" lon="11.4634878" />
      <trkpt lat="46.0527933" lon="11.4634026" />
      <trkpt lat="46.0527840" lon="11.4634182" />
      <trkpt lat="46.0527609" lon="11.4634503" />
      <trkpt lat="46.0527277" lon="11.4634870" />
      <trkpt lat="46.0526910" lon="11.4635156" />
      <trkpt lat="46.0526678" lon="11.4635270" />
      <trkpt lat="46.0526352" lon="11.4635397" />
      <trkpt lat="46.0525442" lon="11.4635552" />
      <trkpt lat="46.0525110" lon="11.4635627" />
      <trkpt lat="46.0525053" lon="11.4636018" />
      <trkpt lat="46.0525035" lon="11.4636145" />
      <trkpt lat="46.0524692" lon="11.4638312" />
      <trkpt lat="46.0524383" lon="11.4638541" />
      <trkpt lat="46.0524419" lon="11.4638646" />
      <trkpt lat="46.0524384" lon="11.4638540" />
      <trkpt lat="46.0524020" lon="11.4638803" />
      <trkpt lat="46.0522757" lon="11.4639670" />
      <trkpt lat="46.0521669" lon="11.4640360" />
      <trkpt lat="46.0522402" lon="11.4642236" />
      <trkpt lat="46.0522103" lon="11.4642556" />
      <trkpt lat="46.0522150" lon="11.4643691" />
      <trkpt lat="46.0521930" lon="11.4644210" />
      <trkpt lat="46.0521223" lon="11.4644693" />
      <trkpt lat="46.0520152" lon="11.4644573" />
      <trkpt lat="46.0515815" lon="11.4641403" />
      <trkpt lat="46.0514608" lon="11.4640492" />
      <trkpt lat="46.0513393" lon="11.4639463" />
      <trkpt lat="46.0513277" lon="11.4639365" />
      <trkpt lat="46.0510126" lon="11.4636808" />
      <trkpt lat="46.0511757" lon="11.4632766" />
      <trkpt lat="46.0509322" lon="11.4632106" />
      <trkpt lat="46.0509128" lon="11.4632053" />
      <trkpt lat="46.0506083" lon="11.4631123" />
      <trkpt lat="46.0505255" lon="11.4630880" />
      <trkpt lat="46.0504395" lon="11.4630628" />
      <trkpt lat="46.0503365" lon="11.4630325" />
      <trkpt lat="46.0502216" lon="11.4629873" />
      <trkpt lat="46.0501228" lon="11.4629670" />
      <trkpt lat="46.0498142" lon="11.4628759" />
      <trkpt lat="46.0497256" lon="11.4628249" />
      <trkpt lat="46.0496809" lon="11.4627991" />
      <trkpt lat="46.0494970" lon="11.4626931" />
      <trkpt lat="46.0494498" lon="11.4627983" />
      <trkpt lat="46.0493346" lon="11.4631032" />
      <trkpt lat="46.0492451" lon="11.4630913" />
      <trkpt lat="46.0491520" lon="11.4630628" />
      <trkpt lat="46.0491185" lon="11.4630525" />
      <trkpt lat="46.0489607" lon="11.4629902" />
      <trkpt lat="46.0489436" lon="11.4629835" />
      <trkpt lat="46.0488869" lon="11.4629406" />
      <trkpt lat="46.0488044" lon="11.4628778" />
      <trkpt lat="46.0494135" lon="11.4613948" />
      <trkpt lat="46.0494504" lon="11.4613010" />
      <trkpt lat="46.0494381" lon="11.4612355" />
      <trkpt lat="46.0494258" lon="11.4611559" />
      <trkpt lat="46.0494441" lon="11.4611121" />
      <trkpt lat="46.0498247" lon="11.4601292" />
      <trkpt lat="46.0499461" lon="11.4597791" />
      <trkpt lat="46.0499072" lon="11.4597839" />
      <trkpt lat="46.0497136" lon="11.4597998" />
      <trkpt lat="46.0492336" lon="11.4598391" />
      <trkpt lat="46.0491948" lon="11.4598423" />
      <trkpt lat="46.0484439" lon="11.4599038" />
      <trkpt lat="46.0484261" lon="11.4598470" />
      <trkpt lat="46.0483447" lon="11.4595864" />
      <trkpt lat="46.0483358" lon="11.4595381" />
      <trkpt lat="46.0483274" lon="11.4594923" />
      <trkpt lat="46.0483355" lon="11.4594155" />
      <trkpt lat="46.0483362" lon="11.4593239" />
      <trkpt lat="46.0483000" lon="11.4592191" />
      <trkpt lat="46.0482044" lon="11.4589843" />
      <trkpt lat="46.0481810" lon="11.4589269" />
      <trkpt lat="46.0482015" lon="11.4588914" />
      <trkpt lat="46.0484431" lon="11.4585287" />
      <trkpt lat="46.0484786" lon="11.4584716" />
      <trkpt lat="46.0485151" lon="11.4584241" />
      <trkpt lat="46.0488010" lon="11.4581728" />
      <trkpt lat="46.0488554" lon="11.4581209" />
      <trkpt lat="46.0490628" lon="11.4579400" />
      <trkpt lat="46.0491816" lon="11.4578436" />
      <trkpt lat="46.0493157" lon="11.4577268" />
      <trkpt lat="46.0493391" lon="11.4577064" />
      <trkpt lat="46.0495164" lon="11.4575519" />
      <trkpt lat="46.0495927" lon="11.4574877" />
      <trkpt lat="46.0496266" lon="11.4574592" />
      <trkpt lat="46.0496527" lon="11.4574372" />
      <trkpt lat="46.0496690" lon="11.4574218" />
      <trkpt lat="46.0497204" lon="11.4573733" />
      <trkpt lat="46.0497438" lon="11.4573512" />
      <trkpt lat="46.0497990" lon="11.4572893" />
      <trkpt lat="46.0498568" lon="11.4572146" />
      <trkpt lat="46.0498913" lon="11.4571701" />
      <trkpt lat="46.0499084" lon="11.4571481" />
      <trkpt lat="46.0500187" lon="11.4570041" />
      <trkpt lat="46.0500298" lon="11.4569890" />
      <trkpt lat="46.0500488" lon="11.4569632" />
      <trkpt lat="46.0501118" lon="11.4568966" />
      <trkpt lat="46.0501628" lon="11.4568511" />
      <trkpt lat="46.0502221" lon="11.4568079" />
      <trkpt lat="46.0502712" lon="11.4567784" />
      <trkpt lat="46.0502631" lon="11.4567456" />
      <trkpt lat="46.0501413" lon="11.4564159" />
      <trkpt lat="46.0501201" lon="11.4563538" />
      <trkpt lat="46.0500310" lon="11.4561312" />
      <trkpt lat="46.0500032" lon="11.4560598" />
      <trkpt lat="46.0498246" lon="11.4557093" />
      <trkpt lat="46.0497460" lon="11.4555773" />
      <trkpt lat="46.0496445" lon="11.4554069" />
      <trkpt lat="46.0495772" lon="11.4553235" />
      <trkpt lat="46.0494842" lon="11.4551635" />
      <trkpt lat="46.0493669" lon="11.4549860" />
      <trkpt lat="46.0491645" lon="11.4547099" />
      <trkpt lat="46.0490213" lon="11.4545227" />
      <trkpt lat="46.0488769" lon="11.4543455" />
      <trkpt lat="46.0488495" lon="11.4543172" />
      <trkpt lat="46.0487736" lon="11.4542391" />
      <trkpt lat="46.0487346" lon="11.4541989" />
      <trkpt lat="46.0486486" lon="11.4541102" />
      <trkpt lat="46.0485987" lon="11.4540731" />
      <trkpt lat="46.0485558" lon="11.4540412" />
      <trkpt lat="46.0484669" lon="11.4539751" />
      <trkpt lat="46.0483970" lon="11.4539145" />
      <trkpt lat="46.0482460" lon="11.4537834" />
      <trkpt lat="46.0481586" lon="11.4536884" />
      <trkpt lat="46.0481203" lon="11.4536467" />
      <trkpt lat="46.0480429" lon="11.4535346" />
      <trkpt lat="46.0479768" lon="11.4533737" />
      <trkpt lat="46.0479306" lon="11.4531878" />
      <trkpt lat="46.0479168" lon="11.4529528" />
      <trkpt lat="46.0479617" lon="11.4526480" />
      <trkpt lat="46.0480022" lon="11.4525126" />
      <trkpt lat="46.0480720" lon="11.4522791" />
      <trkpt lat="46.0480805" lon="11.4522477" />
      <trkpt lat="46.0481529" lon="11.4519810" />
      <trkpt lat="46.0481699" lon="11.4519186" />
      <trkpt lat="46.0481969" lon="11.4518191" />
      <trkpt lat="46.0482672" lon="11.4515675" />
      <trkpt lat="46.0482902" lon="11.4515156" />
      <trkpt lat="46.0481704" lon="11.4514679" />
      <trkpt lat="46.0480571" lon="11.4513969" />
      <trkpt lat="46.0478461" lon="11.4512522" />
      <trkpt lat="46.0474889" lon="11.4509186" />
      <trkpt lat="46.0471611" lon="11.4504256" />
      <trkpt lat="46.0468361" lon="11.4498763" />
      <trkpt lat="46.0468191" lon="11.4498107" />
      <trkpt lat="46.0468147" lon="11.4497410" />
      <trkpt lat="46.0468231" lon="11.4496721" />
      <trkpt lat="46.0469997" lon="11.4489270" />
      <trkpt lat="46.0470083" lon="11.4488626" />
      <trkpt lat="46.0470025" lon="11.4487975" />
      <trkpt lat="46.0469870" lon="11.4487151" />
      <trkpt lat="46.0469546" lon="11.4486582" />
      <trkpt lat="46.0469227" lon="11.4486315" />
      <trkpt lat="46.0465124" lon="11.4485491" />
      <trkpt lat="46.0462624" lon="11.4485005" />
      <trkpt lat="46.0463514" lon="11.4481773" />
      <trkpt lat="46.0464331" lon="11.4478442" />
      <trkpt lat="46.0464615" lon="11.4475822" />
      <trkpt lat="46.0464657" lon="11.4474414" />
      <trkpt lat="46.0464761" lon="11.4470972" />
      <trkpt lat="46.0464787" lon="11.4467271" />
      <trkpt lat="46.0464722" lon="11.4464611" />
      <trkpt lat="46.0464409" lon="11.4462832" />
      <trkpt lat="46.0463686" lon="11.4460603" />
      <trkpt lat="46.0462634" lon="11.4458409" />
      <trkpt lat="46.0460642" lon="11.4456065" />
      <trkpt lat="46.0460058" lon="11.4454958" />
      <trkpt lat="46.0459547" lon="11.4453246" />
      <trkpt lat="46.0459263" lon="11.4451942" />
      <trkpt lat="46.0458937" lon="11.4449854" />
      <trkpt lat="46.0458725" lon="11.4440716" />
      <trkpt lat="46.0458594" lon="11.4439532" />
      <trkpt lat="46.0458435" lon="11.4438811" />
      <trkpt lat="46.0458229" lon="11.4438351" />
      <trkpt lat="46.0458030" lon="11.4438056" />
      <trkpt lat="46.0457728" lon="11.4437899" />
      <trkpt lat="46.0457006" lon="11.4437892" />
      <trkpt lat="46.0455776" lon="11.4437990" />
      <trkpt lat="46.0454380" lon="11.4438204" />
      <trkpt lat="46.0453232" lon="11.4438276" />
      <trkpt lat="46.0452164" lon="11.4438272" />
      <trkpt lat="46.0451202" lon="11.4438199" />
      <trkpt lat="46.0449021" lon="11.4437781" />
      <trkpt lat="46.0447825" lon="11.4437397" />
      <trkpt lat="46.0447584" lon="11.4437302" />
      <trkpt lat="46.0447374" lon="11.4437106" />
      <trkpt lat="46.0447215" lon="11.4436828" />
      <trkpt lat="46.0447085" lon="11.4436400" />
      <trkpt lat="46.0445151" lon="11.4430442" />
      <trkpt lat="46.0443594" lon="11.4426923" />
      <trkpt lat="46.0442056" lon="11.4423825" />
      <trkpt lat="46.0441505" lon="11.4422790" />
      <trkpt lat="46.0440721" lon="11.4421800" />
      <trkpt lat="46.0439801" lon="11.4421095" />
      <trkpt lat="46.0439204" lon="11.4420814" />
      <trkpt lat="46.0438385" lon="11.4420541" />
      <trkpt lat="46.0435016" lon="11.4419728" />
      <trkpt lat="46.0434720" lon="11.4419649" />
      <trkpt lat="46.0434458" lon="11.4419438" />
      <trkpt lat="46.0434191" lon="11.4419104" />
      <trkpt lat="46.0433733" lon="11.4418276" />
      <trkpt lat="46.0433245" lon="11.4417264" />
      <trkpt lat="46.0432936" lon="11.4416661" />
      <trkpt lat="46.0432656" lon="11.4416377" />
      <trkpt lat="46.0432326" lon="11.4416245" />
      <trkpt lat="46.0430341" lon="11.4416112" />
      <trkpt lat="46.0429975" lon="11.4416044" />
      <trkpt lat="46.0429642" lon="11.4415811" />
      <trkpt lat="46.0429379" lon="11.4415436" />
      <trkpt lat="46.0429023" lon="11.4414963" />
      <trkpt lat="46.0428432" lon="11.4414302" />
      <trkpt lat="46.0427924" lon="11.4413877" />
      <trkpt lat="46.0427002" lon="11.4413157" />
      <trkpt lat="46.0426549" lon="11.4412581" />
      <trkpt lat="46.0426218" lon="11.4411854" />
      <trkpt lat="46.0425430" lon="11.4408268" />
      <trkpt lat="46.0424881" lon="11.4405491" />
      <trkpt lat="46.0424748" lon="11.4403904" />
      <trkpt lat="46.0424827" lon="11.4402269" />
      <trkpt lat="46.0425488" lon="11.4399127" />
      <trkpt lat="46.0427118" lon="11.4394723" />
      <trkpt lat="46.0428776" lon="11.4388288" />
      <trkpt lat="46.0429988" lon="11.4385040" />
      <trkpt lat="46.0430665" lon="11.4383844" />
      <trkpt lat="46.0431609" lon="11.4382697" />
      <trkpt lat="46.0432133" lon="11.4382319" />
      <trkpt lat="46.0432451" lon="11.4382099" />
      <trkpt lat="46.0432707" lon="11.4381748" />
      <trkpt lat="46.0432875" lon="11.4381449" />
      <trkpt lat="46.0433246" lon="11.4381634" />
      <trkpt lat="46.0433644" lon="11.4381847" />
      <trkpt lat="46.0434278" lon="11.4382272" />
      <trkpt lat="46.0435119" lon="11.4382590" />
      <trkpt lat="46.0435739" lon="11.4382782" />
      <trkpt lat="46.0437445" lon="11.4383947" />
      <trkpt lat="46.0441488" lon="11.4386784" />
      <trkpt lat="46.0441852" lon="11.4387227" />
      <trkpt lat="46.0442098" lon="11.4387815" />
      <trkpt lat="46.0442199" lon="11.4388486" />
      <trkpt lat="46.0442196" lon="11.4388999" />
      <trkpt lat="46.0442232" lon="11.4389365" />
      <trkpt lat="46.0442346" lon="11.4389697" />
      <trkpt lat="46.0442527" lon="11.4389959" />
      <trkpt lat="46.0442756" lon="11.4390126" />
      <trkpt lat="46.0445680" lon="11.4391320" />
      <trkpt lat="46.0449920" lon="11.4392439" />
      <trkpt lat="46.0451802" lon="11.4393309" />
      <trkpt lat="46.0454369" lon="11.4394802" />
      <trkpt lat="46.0456424" lon="11.4396503" />
      <trkpt lat="46.0458106" lon="11.4398486" />
      <trkpt lat="46.0459069" lon="11.4399669" />
      <trkpt lat="46.0459416" lon="11.4400204" />
      <trkpt lat="46.0459656" lon="11.4400656" />
      <trkpt lat="46.0459718" lon="11.4400713" />
      <trkpt lat="46.0459811" lon="11.4400797" />
      <trkpt lat="46.0459917" lon="11.4400836" />
      <trkpt lat="46.0460025" lon="11.4400825" />
      <trkpt lat="46.0460134" lon="11.4400830" />
      <trkpt lat="46.0460381" lon="11.4400792" />
      <trkpt lat="46.0463847" lon="11.4400147" />
      <trkpt lat="46.0464291" lon="11.4400102" />
      <trkpt lat="46.0464591" lon="11.4400159" />
      <trkpt lat="46.0464868" lon="11.4400330" />
      <trkpt lat="46.0465103" lon="11.4400604" />
      <trkpt lat="46.0465277" lon="11.4401004" />
      <trkpt lat="46.0465397" lon="11.4401452" />
      <trkpt lat="46.0465531" lon="11.4402994" />
      <trkpt lat="46.0465596" lon="11.4403818" />
      <trkpt lat="46.0465701" lon="11.4404382" />
      <trkpt lat="46.0465823" lon="11.4404743" />
      <trkpt lat="46.0466013" lon="11.4405115" />
      <trkpt lat="46.0466285" lon="11.4405302" />
      <trkpt lat="46.0466646" lon="11.4405423" />
      <trkpt lat="46.0467078" lon="11.4405361" />
      <trkpt lat="46.0468028" lon="11.4405094" />
      <trkpt lat="46.0468823" lon="11.4404793" />
      <trkpt lat="46.0469295" lon="11.4404751" />
      <trkpt lat="46.0469724" lon="11.4404864" />
      <trkpt lat="46.0470259" lon="11.4405179" />
      <trkpt lat="46.0470855" lon="11.4405719" />
      <trkpt lat="46.0471401" lon="11.4406413" />
      <trkpt lat="46.0471945" lon="11.4407325" />
      <trkpt lat="46.0472412" lon="11.4408317" />
      <trkpt lat="46.0472864" lon="11.4409369" />
      <trkpt lat="46.0473331" lon="11.4410591" />
      <trkpt lat="46.0473996" lon="11.4412530" />
      <trkpt lat="46.0474480" lon="11.4414237" />
      <trkpt lat="46.0475662" lon="11.4417824" />
      <trkpt lat="46.0476351" lon="11.4419740" />
      <trkpt lat="46.0477056" lon="11.4421591" />
      <trkpt lat="46.0478314" lon="11.4424341" />
      <trkpt lat="46.0478744" lon="11.4425423" />
      <trkpt lat="46.0479107" lon="11.4426513" />
      <trkpt lat="46.0479720" lon="11.4428715" />
      <trkpt lat="46.0482282" lon="11.4441452" />
      <trkpt lat="46.0484084" lon="11.4451768" />
      <trkpt lat="46.0484082" lon="11.4452760" />
      <trkpt lat="46.0484113" lon="11.4453719" />
      <trkpt lat="46.0484761" lon="11.4460122" />
      <trkpt lat="46.0485206" lon="11.4463592" />
      <trkpt lat="46.0485597" lon="11.4466026" />
      <trkpt lat="46.0486116" lon="11.4468939" />
      <trkpt lat="46.0486338" lon="11.4470081" />
      <trkpt lat="46.0486866" lon="11.4472791" />
      <trkpt lat="46.0488071" lon="11.4479350" />
      <trkpt lat="46.0488510" lon="11.4481165" />
      <trkpt lat="46.0489051" lon="11.4482970" />
      <trkpt lat="46.0489545" lon="11.4483928" />
      <trkpt lat="46.0490156" lon="11.4484703" />
      <trkpt lat="46.0490500" lon="11.4485600" />
      <trkpt lat="46.0490857" lon="11.4486477" />
      <trkpt lat="46.0491061" lon="11.4486980" />
      <trkpt lat="46.0491658" lon="11.4488629" />
      <trkpt lat="46.0491997" lon="11.4489528" />
      <trkpt lat="46.0492248" lon="11.4490355" />
      <trkpt lat="46.0492524" lon="11.4491495" />
      <trkpt lat="46.0493180" lon="11.4494118" />
      <trkpt lat="46.0493716" lon="11.4497943" />
      <trkpt lat="46.0495036" lon="11.4505485" />
      <trkpt lat="46.0495316" lon="11.4506831" />
      <trkpt lat="46.0495471" lon="11.4507784" />
      <trkpt lat="46.0495371" lon="11.4507833" />
      <trkpt lat="46.0495253" lon="11.4507888" />
      <trkpt lat="46.0495155" lon="11.4507996" />
      <trkpt lat="46.0495199" lon="11.4508750" />
      <trkpt lat="46.0495350" lon="11.4509613" />
      <trkpt lat="46.0495603" lon="11.4510695" />
      <trkpt lat="46.0495753" lon="11.4511947" />
      <trkpt lat="46.0495825" lon="11.4512310" />
      <trkpt lat="46.0496045" lon="11.4512805" />
      <trkpt lat="46.0496624" lon="11.4513803" />
      <trkpt lat="46.0497286" lon="11.4514685" />
      <trkpt lat="46.0498144" lon="11.4515716" />
      <trkpt lat="46.0499117" lon="11.4516732" />
      <trkpt lat="46.0500704" lon="11.4518165" />
      <trkpt lat="46.0500836" lon="11.4518246" />
      <trkpt lat="46.0500946" lon="11.4518380" />
      <trkpt lat="46.0501023" lon="11.4518554" />
      <trkpt lat="46.0501075" lon="11.4519138" />
      <trkpt lat="46.0498631" lon="11.4519153" />
      <trkpt lat="46.0496697" lon="11.4518972" />
      <trkpt lat="46.0494791" lon="11.4518531" />
      <trkpt lat="46.0493079" lon="11.4518123" />
      <trkpt lat="46.0487631" lon="11.4516894" />
      <trkpt lat="46.0486774" lon="11.4521242" />
      <trkpt lat="46.0486125" lon="11.4524320" />
      <trkpt lat="46.0485683" lon="11.4525039" />
      <trkpt lat="46.0485530" lon="11.4526034" />
      <trkpt lat="46.0485664" lon="11.4526726" />
      <trkpt lat="46.0485645" lon="11.4527555" />
      <trkpt lat="46.0483970" lon="11.4539145" />
      <trkpt lat="46.0484669" lon="11.4539751" />
      <trkpt lat="46.0485558" lon="11.4540412" />
      <trkpt lat="46.0485987" lon="11.4540731" />
      <trkpt lat="46.0486486" lon="11.4541102" />
      <trkpt lat="46.0487346" lon="11.4541989" />
      <trkpt lat="46.0487736" lon="11.4542391" />
      <trkpt lat="46.0488495" lon="11.4543172" />
      <trkpt lat="46.0488769" lon="11.4543455" />
      <trkpt lat="46.0490213" lon="11.4545227" />
      <trkpt lat="46.0491645" lon="11.4547099" />
      <trkpt lat="46.0493669" lon="11.4549860" />
      <trkpt lat="46.0494842" lon="11.4551635" />
      <trkpt lat="46.0495772" lon="11.4553235" />
      <trkpt lat="46.0494972" lon="11.4552612" />
      <trkpt lat="46.0493970" lon="11.4552276" />
      <trkpt lat="46.0493116" lon="11.4552094" />
      <trkpt lat="46.0492121" lon="11.4552066" />
      <trkpt lat="46.0491107" lon="11.4552290" />
      <trkpt lat="46.0490040" lon="11.4552682" />
      <trkpt lat="46.0489728" lon="11.4552797" />
      <trkpt lat="46.0489398" lon="11.4552918" />
      <trkpt lat="46.0487483" lon="11.4553717" />
      <trkpt lat="46.0487118" lon="11.4554012" />
      <trkpt lat="46.0487023" lon="11.4554089" />
      <trkpt lat="46.0485416" lon="11.4555268" />
      <trkpt lat="46.0484804" lon="11.4555717" />
      <trkpt lat="46.0484253" lon="11.4556357" />
      <trkpt lat="46.0484022" lon="11.4556737" />
      <trkpt lat="46.0483867" lon="11.4556993" />
      <trkpt lat="46.0483419" lon="11.4557730" />
      <trkpt lat="46.0482054" lon="11.4560432" />
      <trkpt lat="46.0481940" lon="11.4560637" />
      <trkpt lat="46.0481417" lon="11.4561575" />
      <trkpt lat="46.0480358" lon="11.4563475" />
      <trkpt lat="46.0480088" lon="11.4563867" />
      <trkpt lat="46.0479747" lon="11.4564179" />
      <trkpt lat="46.0478987" lon="11.4564692" />
      <trkpt lat="46.0477724" lon="11.4565566" />
      <trkpt lat="46.0477612" lon="11.4565643" />
      <trkpt lat="46.0476618" lon="11.4566317" />
      <trkpt lat="46.0475906" lon="11.4566917" />
      <trkpt lat="46.0474964" lon="11.4568003" />
      <trkpt lat="46.0474341" lon="11.4568929" />
      <trkpt lat="46.0473245" lon="11.4570558" />
      <trkpt lat="46.0472282" lon="11.4571806" />
      <trkpt lat="46.0471575" lon="11.4572847" />
      <trkpt lat="46.0471309" lon="11.4573240" />
      <trkpt lat="46.0469826" lon="11.4575150" />
      <trkpt lat="46.0469785" lon="11.4575462" />
      <trkpt lat="46.0469866" lon="11.4576323" />
      <trkpt lat="46.0470378" lon="11.4578812" />
      <trkpt lat="46.0470991" lon="11.4582398" />
      <trkpt lat="46.0472032" lon="11.4588145" />
      <trkpt lat="46.0472402" lon="11.4589561" />
      <trkpt lat="46.0472676" lon="11.4590324" />
      <trkpt lat="46.0473650" lon="11.4592021" />
      <trkpt lat="46.0474390" lon="11.4593059" />
      <trkpt lat="46.0476909" lon="11.4596596" />
      <trkpt lat="46.0476196" lon="11.4597712" />
      <trkpt lat="46.0475721" lon="11.4598341" />
      <trkpt lat="46.0475303" lon="11.4598797" />
      <trkpt lat="46.0474803" lon="11.4599218" />
      <trkpt lat="46.0474322" lon="11.4599583" />
      <trkpt lat="46.0473838" lon="11.4599836" />
      <trkpt lat="46.0473370" lon="11.4600083" />
      <trkpt lat="46.0472766" lon="11.4600308" />
      <trkpt lat="46.0471251" lon="11.4600523" />
      <trkpt lat="46.0468252" lon="11.4600875" />
      <trkpt lat="46.0466875" lon="11.4601037" />
      <trkpt lat="46.0466696" lon="11.4601676" />
      <trkpt lat="46.0466501" lon="11.4602374" />
      <trkpt lat="46.0466379" lon="11.4602844" />
      <trkpt lat="46.0466414" lon="11.4603280" />
      <trkpt lat="46.0466650" lon="11.4603763" />
      <trkpt lat="46.0467200" lon="11.4604352" />
      <trkpt lat="46.0468523" lon="11.4605208" />
      <trkpt lat="46.0469148" lon="11.4605612" />
      <trkpt lat="46.0469687" lon="11.4606189" />
      <trkpt lat="46.0470583" lon="11.4607741" />
      <trkpt lat="46.0470930" lon="11.4608342" />
      <trkpt lat="46.0472652" lon="11.4610819" />
      <trkpt lat="46.0473436" lon="11.4611907" />
      <trkpt lat="46.0474364" lon="11.4613043" />
      <trkpt lat="46.0475275" lon="11.4613972" />
      <trkpt lat="46.0476068" lon="11.4614751" />
      <trkpt lat="46.0476654" lon="11.4615414" />
      <trkpt lat="46.0477149" lon="11.4616099" />
      <trkpt lat="46.0478081" lon="11.4617319" />
      <trkpt lat="46.0478288" lon="11.4617590" />
      <trkpt lat="46.0479032" lon="11.4618636" />
      <trkpt lat="46.0479208" lon="11.4618883" />
      <trkpt lat="46.0479985" lon="11.4619954" />
      <trkpt lat="46.0481113" lon="11.4621510" />
      <trkpt lat="46.0481588" lon="11.4622091" />
      <trkpt lat="46.0482424" lon="11.4622747" />
      <trkpt lat="46.0483027" lon="11.4623418" />
      <trkpt lat="46.0484102" lon="11.4624911" />
      <trkpt lat="46.0484466" lon="11.4625553" />
      <trkpt lat="46.0484590" lon="11.4625691" />
      <trkpt lat="46.0485330" lon="11.4626515" />
      <trkpt lat="46.0487771" lon="11.4628577" />
      <trkpt lat="46.0488044" lon="11.4628778" />
      <trkpt lat="46.0488869" lon="11.4629406" />
      <trkpt lat="46.0489436" lon="11.4629835" />
      <trkpt lat="46.0489607" lon="11.4629902" />
      <trkpt lat="46.0491185" lon="11.4630525" />
      <trkpt lat="46.0491520" lon="11.4630628" />
      <trkpt lat="46.0492451" lon="11.4630913" />
      <trkpt lat="46.0493346" lon="11.4631032" />
      <trkpt lat="46.0492209" lon="11.4633838" />
      <trkpt lat="46.0498875" lon="11.4642386" />
      <trkpt lat="46.0502922" lon="11.4647635" />
      <trkpt lat="46.0503495" lon="11.4647001" />
      <trkpt lat="46.0505078" lon="11.4645573" />
      <trkpt lat="46.0505523" lon="11.4644973" />
      <trkpt lat="46.0506914" lon="11.4643154" />
      <trkpt lat="46.0508051" lon="11.4641666" />
      <trkpt lat="46.0508917" lon="11.4640141" />
      <trkpt lat="46.0509843" lon="11.4637549" />
      <trkpt lat="46.0510126" lon="11.4636808" />
      <trkpt lat="46.0513277" lon="11.4639365" />
      <trkpt lat="46.0513393" lon="11.4639463" />
      <trkpt lat="46.0514608" lon="11.4640492" />
      <trkpt lat="46.0515815" lon="11.4641403" />
      <trkpt lat="46.0518436" lon="11.4634679" />
      <trkpt lat="46.0518517" lon="11.4634322" />
      <trkpt lat="46.0518522" lon="11.4633946" />
      <trkpt lat="46.0521332" lon="11.4640785" />
      <trkpt lat="46.0522093" lon="11.4642329" />
      <trkpt lat="46.0522103" lon="11.4642556" />
      <trkpt lat="46.0522402" lon="11.4642236" />
      <trkpt lat="46.0521669" lon="11.4640360" />
      <trkpt lat="46.0522757" lon="11.4639670" />
      <trkpt lat="46.0524020" lon="11.4638803" />
      <trkpt lat="46.0524384" lon="11.4638540" />
      <trkpt lat="46.0524419" lon="11.4638646" />
      <trkpt lat="46.0524383" lon="11.4638541" />
      <trkpt lat="46.0524692" lon="11.4638312" />
      <trkpt lat="46.0525035" lon="11.4636145" />
      <trkpt lat="46.0525053" lon="11.4636018" />
      <trkpt lat="46.0525110" lon="11.4635627" />
      <trkpt lat="46.0525142" lon="11.4634999" />
      <trkpt lat="46.0525133" lon="11.4634208" />
      <trkpt lat="46.0526443" lon="11.4633852" />
      <trkpt lat="46.0527315" lon="11.4632890" />
      <trkpt lat="46.0527423" lon="11.4633088" />
      <trkpt lat="46.0527933" lon="11.4634026" />
      <trkpt lat="46.0528396" lon="11.4634878" />
      <trkpt lat="46.0527961" lon="11.4635520" />
      <trkpt lat="46.0528162" lon="11.4635949" />
      <trkpt lat="46.0528467" lon="11.4636115" />
      <trkpt lat="46.0528842" lon="11.4636090" />
      <trkpt lat="46.0529229" lon="11.4635883" />
      <trkpt lat="46.0529832" lon="11.4635393" />
      <trkpt lat="46.0530020" lon="11.4635276" />
      <trkpt lat="46.0532181" lon="11.4633923" />
      <trkpt lat="46.0532630" lon="11.4633706" />
      <trkpt lat="46.0532858" lon="11.4633338" />
      <trkpt lat="46.0533728" lon="11.4632807" />
      <trkpt lat="46.0534388" lon="11.4632919" />
      <trkpt lat="46.0534622" lon="11.4632975" />
      <trkpt lat="46.0534812" lon="11.4633020" />
      <trkpt lat="46.0534940" lon="11.4631791" />
      <trkpt lat="46.0535346" lon="11.4631872" />
      <trkpt lat="46.0535416" lon="11.4631021" />
      <trkpt lat="46.0535491" lon="11.4630109" />
      <trkpt lat="46.0535226" lon="11.4630061" />
      <trkpt lat="46.0535207" lon="11.4630064" />
      <trkpt lat="46.0535187" lon="11.4630059" />
      <trkpt lat="46.0535170" lon="11.4630046" />
      <trkpt lat="46.0535156" lon="11.4630026" />
      <trkpt lat="46.0535147" lon="11.4630000" />
      <trkpt lat="46.0535143" lon="11.4629973" />
      <trkpt lat="46.0535411" lon="11.4626880" />
      <trkpt lat="46.0535474" lon="11.4626204" />
      <trkpt lat="46.0535475" lon="11.4626172" />
      <trkpt lat="46.0535472" lon="11.4626137" />
      <trkpt lat="46.0535463" lon="11.4626105" />
      <trkpt lat="46.0535446" lon="11.4626089" />
      <trkpt lat="46.0535208" lon="11.4626070" />
      <trkpt lat="46.0534764" lon="11.4626035" />
      <trkpt lat="46.0535169" lon="11.4624360" />
      <trkpt lat="46.0535238" lon="11.4623862" />
      <trkpt lat="46.0535288" lon="11.4623334" />
      <trkpt lat="46.0535331" lon="11.4622884" />
      <trkpt lat="46.0535357" lon="11.4622526" />
      <trkpt lat="46.0535452" lon="11.4620931" />
      <trkpt lat="46.0535469" lon="11.4618908" />
      <trkpt lat="46.0535463" lon="11.4617431" />
      <trkpt lat="46.0535453" lon="11.4615215" />
      <trkpt lat="46.0535776" lon="11.4615212" />
      <trkpt lat="46.0536133" lon="11.4615208" />
      <trkpt lat="46.0536039" lon="11.4614326" />
      <trkpt lat="46.0535937" lon="11.4613372" />
      <trkpt lat="46.0535945" lon="11.4613027" />
      <trkpt lat="46.0535908" lon="11.4609025" />
      <trkpt lat="46.0535860" lon="11.4607479" />
      <trkpt lat="46.0535743" lon="11.4605231" />
      <trkpt lat="46.0535577" lon="11.4603200" />
      <trkpt lat="46.0535378" lon="11.4601229" />
      <trkpt lat="46.0535270" lon="11.4600080" />
      <trkpt lat="46.0535277" lon="11.4599850" />
      <trkpt lat="46.0535091" lon="11.4598124" />
      <trkpt lat="46.0535123" lon="11.4597847" />
      <trkpt lat="46.0535211" lon="11.4597596" />
      <trkpt lat="46.0535431" lon="11.4597383" />
      <trkpt lat="46.0535559" lon="11.4597198" />
      <trkpt lat="46.0535634" lon="11.4596902" />
      <trkpt lat="46.0535637" lon="11.4596586" />
      <trkpt lat="46.0535153" lon="11.4592281" />
      <trkpt lat="46.0535129" lon="11.4592033" />
      <trkpt lat="46.0535132" lon="11.4591829" />
      <trkpt lat="46.0535175" lon="11.4591634" />
      <trkpt lat="46.0535256" lon="11.4591466" />
      <trkpt lat="46.0535368" lon="11.4591339" />
      <trkpt lat="46.0536231" lon="11.4591160" />
      <trkpt lat="46.0536326" lon="11.4591014" />
      <trkpt lat="46.0536383" lon="11.4590831" />
      <trkpt lat="46.0536396" lon="11.4590631" />
      <trkpt lat="46.0536355" lon="11.4589955" />
      <trkpt lat="46.0536557" lon="11.4589977" />
      <trkpt lat="46.0536704" lon="11.4590064" />
      <trkpt lat="46.0536829" lon="11.4590206" />
      <trkpt lat="46.0537531" lon="11.4591449" />
      <trkpt lat="46.0537577" lon="11.4591526" />
      <trkpt lat="46.0537608" lon="11.4591616" />
      <trkpt lat="46.0537623" lon="11.4591715" />
      <trkpt lat="46.0537958" lon="11.4594009" />
      <trkpt lat="46.0537974" lon="11.4594096" />
      <trkpt lat="46.0537998" lon="11.4594166" />
      <trkpt lat="46.0538036" lon="11.4594221" />
      <trkpt lat="46.0538086" lon="11.4594255" />
      <trkpt lat="46.0538214" lon="11.4594229" />
      <trkpt lat="46.0538839" lon="11.4594019" />
      <trkpt lat="46.0539367" lon="11.4593814" />
      <trkpt lat="46.0539518" lon="11.4593755" />
      <trkpt lat="46.0540434" lon="11.4593332" />
      <trkpt lat="46.0541034" lon="11.4593046" />
      <trkpt lat="46.0540593" lon="11.4590705" />
      <trkpt lat="46.0540419" lon="11.4589430" />
      <trkpt lat="46.0540178" lon="11.4588281" />
      <trkpt lat="46.0539764" lon="11.4586307" />
      <trkpt lat="46.0539603" lon="11.4585571" />
      <trkpt lat="46.0539451" lon="11.4584800" />
      <trkpt lat="46.0539305" lon="11.4584059" />
      <trkpt lat="46.0541290" lon="11.4583151" />
      <trkpt lat="46.0541424" lon="11.4583075" />
      <trkpt lat="46.0540288" lon="11.4579677" />
      <trkpt lat="46.0540850" lon="11.4579288" />
      <trkpt lat="46.0540999" lon="11.4579190" />
      <trkpt lat="46.0541137" lon="11.4579144" />
      <trkpt lat="46.0541317" lon="11.4579164" />
      <trkpt lat="46.0541632" lon="11.4579541" />
      <trkpt lat="46.0542265" lon="11.4578594" />
      <trkpt lat="46.0542302" lon="11.4578561" />
      <trkpt lat="46.0542331" lon="11.4578514" />
      <trkpt lat="46.0542348" lon="11.4578457" />
      <trkpt lat="46.0542353" lon="11.4578395" />
      <trkpt lat="46.0542344" lon="11.4578333" />
      <trkpt lat="46.0542310" lon="11.4577898" />
      <trkpt lat="46.0542307" lon="11.4577701" />
      <trkpt lat="46.0542309" lon="11.4577563" />
      <trkpt lat="46.0542477" lon="11.4574431" />
      <trkpt lat="46.0542518" lon="11.4573887" />
      <trkpt lat="46.0542529" lon="11.4573833" />
      <trkpt lat="46.0542552" lon="11.4573787" />
      <trkpt lat="46.0542584" lon="11.4573755" />
      <trkpt lat="46.0542621" lon="11.4573739" />
      <trkpt lat="46.0542660" lon="11.4573742" />
      <trkpt lat="46.0543096" lon="11.4573908" />
      <trkpt lat="46.0543131" lon="11.4573924" />
      <trkpt lat="46.0543168" lon="11.4573923" />
      <trkpt lat="46.0543203" lon="11.4573907" />
      <trkpt lat="46.0543233" lon="11.4573875" />
      <trkpt lat="46.0543255" lon="11.4573832" />
      <trkpt lat="46.0543355" lon="11.4573574" />
      <trkpt lat="46.0543426" lon="11.4573401" />
      <trkpt lat="46.0544012" lon="11.4571889" />
      <trkpt lat="46.0544028" lon="11.4571849" />
      <trkpt lat="46.0544052" lon="11.4571818" />
      <trkpt lat="46.0544082" lon="11.4571800" />
      <trkpt lat="46.0544114" lon="11.4571795" />
      <trkpt lat="46.0544145" lon="11.4571805" />
      <trkpt lat="46.0544623" lon="11.4572077" />
      <trkpt lat="46.0544651" lon="11.4572096" />
      <trkpt lat="46.0544680" lon="11.4572101" />
      <trkpt lat="46.0544710" lon="11.4572094" />
      <trkpt lat="46.0544736" lon="11.4572073" />
      <trkpt lat="46.0544757" lon="11.4572042" />
      <trkpt lat="46.0545165" lon="11.4571119" />
      <trkpt lat="46.0546233" lon="11.4568228" />
      <trkpt lat="46.0547163" lon="11.4565623" />
      <trkpt lat="46.0548374" lon="11.4562127" />
      <trkpt lat="46.0549060" lon="11.4559387" />
      <trkpt lat="46.0549238" lon="11.4558405" />
      <trkpt lat="46.0549319" lon="11.4556359" />
      <trkpt lat="46.0549373" lon="11.4555604" />
      <trkpt lat="46.0549511" lon="11.4555043" />
      <trkpt lat="46.0549708" lon="11.4554343" />
      <trkpt lat="46.0549885" lon="11.4553860" />
      <trkpt lat="46.0550106" lon="11.4553276" />
      <trkpt lat="46.0550525" lon="11.4552553" />
      <trkpt lat="46.0550824" lon="11.4552079" />
      <trkpt lat="46.0550977" lon="11.4551849" />
      <trkpt lat="46.0552251" lon="11.4550947" />
      <trkpt lat="46.0553786" lon="11.4549722" />
      <trkpt lat="46.0553877" lon="11.4549574" />
      <trkpt lat="46.0553931" lon="11.4549392" />
      <trkpt lat="46.0553943" lon="11.4549194" />
      <trkpt lat="46.0553901" lon="11.4548969" />
      <trkpt lat="46.0553805" lon="11.4548782" />
      <trkpt lat="46.0552477" lon="11.4546713" />
      <trkpt lat="46.0552407" lon="11.4546588" />
      <trkpt lat="46.0552181" lon="11.4546220" />
      <trkpt lat="46.0552430" lon="11.4545916" />
      <trkpt lat="46.0553181" lon="11.4544967" />
      <trkpt lat="46.0553303" lon="11.4544735" />
      <trkpt lat="46.0553881" lon="11.4544067" />
      <trkpt lat="46.0554302" lon="11.4543458" />
      <trkpt lat="46.0553970" lon="11.4543150" />
      <trkpt lat="46.0551707" lon="11.4541095" />
      <trkpt lat="46.0551676" lon="11.4540394" />
      <trkpt lat="46.0551519" lon="11.4540242" />
      <trkpt lat="46.0550822" lon="11.4539567" />
      <trkpt lat="46.0550689" lon="11.4539258" />
      <trkpt lat="46.0550262" lon="11.4538260" />
      <trkpt lat="46.0548948" lon="11.4536099" />
      <trkpt lat="46.0548375" lon="11.4530811" />
      <trkpt lat="46.0547889" lon="11.4524265" />
      <trkpt lat="46.0546691" lon="11.4524289" />
      <trkpt lat="46.0544000" lon="11.4524523" />
      <trkpt lat="46.0543067" lon="11.4524653" />
      <trkpt lat="46.0542463" lon="11.4524754" />
      <trkpt lat="46.0542313" lon="11.4524775" />
      <trkpt lat="46.0541921" lon="11.4524876" />
      <trkpt lat="46.0540071" lon="11.4525399" />
      <trkpt lat="46.0538085" lon="11.4525921" />
      <trkpt lat="46.0537929" lon="11.4525971" />
      <trkpt lat="46.0537302" lon="11.4525984" />
      <trkpt lat="46.0537137" lon="11.4525988" />
      <trkpt lat="46.0536963" lon="11.4525983" />
      <trkpt lat="46.0536316" lon="11.4525898" />
      <trkpt lat="46.0535871" lon="11.4525488" />
      <trkpt lat="46.0535601" lon="11.4524922" />
      <trkpt lat="46.0535395" lon="11.4524093" />
      <trkpt lat="46.0534331" lon="11.4519044" />
      <trkpt lat="46.0533846" lon="11.4516360" />
      <trkpt lat="46.0532811" lon="11.4510637" />
      <trkpt lat="46.0532192" lon="11.4507212" />
      <trkpt lat="46.0531473" lon="11.4503496" />
      <trkpt lat="46.0529821" lon="11.4493773" />
      <trkpt lat="46.0527936" lon="11.4484098" />
      <trkpt lat="46.0523539" lon="11.4459728" />
      <trkpt lat="46.0518851" lon="11.4435254" />
      <trkpt lat="46.0512256" lon="11.4399863" />
      <trkpt lat="46.0510712" lon="11.4391735" />
      <trkpt lat="46.0507676" lon="11.4392753" />
      <trkpt lat="46.0503318" lon="11.4394306" />
      <trkpt lat="46.0502742" lon="11.4394696" />
      <trkpt lat="46.0501545" lon="11.4395301" />
      <trkpt lat="46.0500702" lon="11.4395796" />
      <trkpt lat="46.0500178" lon="11.4396104" />
      <trkpt lat="46.0503678" lon="11.4410296" />
      <trkpt lat="46.0507642" lon="11.4427495" />
      <trkpt lat="46.0512603" lon="11.4449154" />
      <trkpt lat="46.0513246" lon="11.4451961" />
      <trkpt lat="46.0518207" lon="11.4473623" />
      <trkpt lat="46.0523380" lon="11.4494300" />
      <trkpt lat="46.0524380" lon="11.4498473" />
      <trkpt lat="46.0524757" lon="11.4500219" />
      <trkpt lat="46.0525056" lon="11.4501959" />
      <trkpt lat="46.0525275" lon="11.4503536" />
      <trkpt lat="46.0525396" lon="11.4504824" />
      <trkpt lat="46.0525429" lon="11.4505313" />
      <trkpt lat="46.0525956" lon="11.4506598" />
      <trkpt lat="46.0526320" lon="11.4507111" />
      <trkpt lat="46.0526863" lon="11.4507417" />
      <trkpt lat="46.0527423" lon="11.4507472" />
      <trkpt lat="46.0528128" lon="11.4507450" />
      <trkpt lat="46.0528213" lon="11.4507384" />
      <trkpt lat="46.0527916" lon="11.4508180" />
      <trkpt lat="46.0527835" lon="11.4508465" />
      <trkpt lat="46.0527729" lon="11.4509012" />
      <trkpt lat="46.0527700" lon="11.4509745" />
      <trkpt lat="46.0527747" lon="11.4510696" />
      <trkpt lat="46.0527969" lon="11.4511286" />
      <trkpt lat="46.0528053" lon="11.4511946" />
      <trkpt lat="46.0527990" lon="11.4512611" />
      <trkpt lat="46.0528096" lon="11.4513603" />
      <trkpt lat="46.0528267" lon="11.4514725" />
      <trkpt lat="46.0528656" lon="11.4516928" />
      <trkpt lat="46.0528751" lon="11.4517258" />
      <trkpt lat="46.0529638" lon="11.4521035" />
      <trkpt lat="46.0532425" lon="11.4532620" />
      <trkpt lat="46.0533432" lon="11.4537452" />
      <trkpt lat="46.0534105" lon="11.4540688" />
      <trkpt lat="46.0534912" lon="11.4544557" />
      <trkpt lat="46.0534937" lon="11.4544664" />
      <trkpt lat="46.0534973" lon="11.4544774" />
      <trkpt lat="46.0535021" lon="11.4544854" />
      <trkpt lat="46.0535080" lon="11.4544925" />
      <trkpt lat="46.0535172" lon="11.4544987" />
      <trkpt lat="46.0535652" lon="11.4545279" />
      <trkpt lat="46.0536189" lon="11.4545599" />
      <trkpt lat="46.0536279" lon="11.4545644" />
      <trkpt lat="46.0536816" lon="11.4545921" />
      <trkpt lat="46.0537430" lon="11.4543665" />
      <trkpt lat="46.0537677" lon="11.4542760" />
      <trkpt lat="46.0541574" lon="11.4545180" />
      <trkpt lat="46.0541798" lon="11.4545297" />
      <trkpt lat="46.0543759" lon="11.4546359" />
      <trkpt lat="46.0543595" lon="11.4547072" />
      <trkpt lat="46.0543995" lon="11.4547346" />
      <trkpt lat="46.0544473" lon="11.4547679" />
      <trkpt lat="46.0544702" lon="11.4548007" />
      <trkpt lat="46.0544858" lon="11.4548414" />
      <trkpt lat="46.0544928" lon="11.4548868" />
      <trkpt lat="46.0545197" lon="11.4548795" />
      <trkpt lat="46.0545694" lon="11.4548575" />
      <trkpt lat="46.0547038" lon="11.4547789" />
      <trkpt lat="46.0547689" lon="11.4547384" />
      <trkpt lat="46.0548217" lon="11.4546878" />
      <trkpt lat="46.0549120" lon="11.4546072" />
      <trkpt lat="46.0549575" lon="11.4545668" />
      <trkpt lat="46.0550270" lon="11.4545234" />
      <trkpt lat="46.0550472" lon="11.4545105" />
      <trkpt lat="46.0550997" lon="11.4544630" />
      <trkpt lat="46.0551263" lon="11.4544120" />
      <trkpt lat="46.0553181" lon="11.4544967" />
      <trkpt lat="46.0553303" lon="11.4544735" />
      <trkpt lat="46.0553881" lon="11.4544067" />
      <trkpt lat="46.0554302" lon="11.4543458" />
      <trkpt lat="46.0555315" lon="11.4541778" />
      <trkpt lat="46.0555644" lon="11.4541115" />
      <trkpt lat="46.0555953" lon="11.4540522" />
      <trkpt lat="46.0557962" lon="11.4538107" />
      <trkpt lat="46.0558485" lon="11.4537528" />
      <trkpt lat="46.0558848" lon="11.4537044" />
      <trkpt lat="46.0559256" lon="11.4536450" />
      <trkpt lat="46.0560090" lon="11.4534714" />
      <trkpt lat="46.0560753" lon="11.4533347" />
      <trkpt lat="46.0560919" lon="11.4532963" />
      <trkpt lat="46.0561072" lon="11.4532565" />
      <trkpt lat="46.0561402" lon="11.4531744" />
      <trkpt lat="46.0561863" lon="11.4530147" />
      <trkpt lat="46.0561916" lon="11.4529705" />
      <trkpt lat="46.0562297" lon="11.4526542" />
      <trkpt lat="46.0562600" lon="11.4524304" />
      <trkpt lat="46.0563050" lon="11.4520978" />
      <trkpt lat="46.0563507" lon="11.4517599" />
      <trkpt lat="46.0563892" lon="11.4514750" />
      <trkpt lat="46.0564254" lon="11.4510470" />
      <trkpt lat="46.0564312" lon="11.4509773" />
      <trkpt lat="46.0564546" lon="11.4507009" />
      <trkpt lat="46.0565915" lon="11.4498151" />
      <trkpt lat="46.0566396" lon="11.4495036" />
      <trkpt lat="46.0566724" lon="11.4491661" />
      <trkpt lat="46.0566681" lon="11.4489583" />
      <trkpt lat="46.0566506" lon="11.4481080" />
      <trkpt lat="46.0566553" lon="11.4477320" />
      <trkpt lat="46.0566612" lon="11.4472610" />
      <trkpt lat="46.0566636" lon="11.4470710" />
      <trkpt lat="46.0566046" lon="11.4461767" />
      <trkpt lat="46.0565608" lon="11.4455125" />
      <trkpt lat="46.0565523" lon="11.4453833" />
      <trkpt lat="46.0565009" lon="11.4450730" />
      <trkpt lat="46.0564587" lon="11.4448183" />
      <trkpt lat="46.0563955" lon="11.4445773" />
      <trkpt lat="46.0563589" lon="11.4444374" />
      <trkpt lat="46.0562686" lon="11.4441487" />
      <trkpt lat="46.0562221" lon="11.4438915" />
      <trkpt lat="46.0562587" lon="11.4438792" />
      <trkpt lat="46.0562802" lon="11.4438701" />
      <trkpt lat="46.0562953" lon="11.4438519" />
      <trkpt lat="46.0563824" lon="11.4440520" />
      <trkpt lat="46.0564405" lon="11.4442394" />
      <trkpt lat="46.0564620" lon="11.4443303" />
      <trkpt lat="46.0564506" lon="11.4444358" />
      <trkpt lat="46.0564254" lon="11.4445159" />
      <trkpt lat="46.0563955" lon="11.4445773" />
      <trkpt lat="46.0564587" lon="11.4448183" />
      <trkpt lat="46.0565009" lon="11.4450730" />
      <trkpt lat="46.0565523" lon="11.4453833" />
      <trkpt lat="46.0565608" lon="11.4455125" />
      <trkpt lat="46.0566046" lon="11.4461767" />
      <trkpt lat="46.0566636" lon="11.4470710" />
      <trkpt lat="46.0566612" lon="11.4472610" />
      <trkpt lat="46.0566553" lon="11.4477320" />
      <trkpt lat="46.0566506" lon="11.4481080" />
      <trkpt lat="46.0566681" lon="11.4489583" />
      <trkpt lat="46.0566724" lon="11.4491661" />
      <trkpt lat="46.0566396" lon="11.4495036" />
      <trkpt lat="46.0565915" lon="11.4498151" />
      <trkpt lat="46.0564546" lon="11.4507009" />
      <trkpt lat="46.0564312" lon="11.4509773" />
      <trkpt lat="46.0564254" lon="11.4510470" />
      <trkpt lat="46.0563892" lon="11.4514750" />
      <trkpt lat="46.0563507" lon="11.4517599" />
      <trkpt lat="46.0563050" lon="11.4520978" />
      <trkpt lat="46.0562600" lon="11.4524304" />
      <trkpt lat="46.0562297" lon="11.4526542" />
      <trkpt lat="46.0561916" lon="11.4529705" />
      <trkpt lat="46.0561863" lon="11.4530147" />
      <trkpt lat="46.0561402" lon="11.4531744" />
      <trkpt lat="46.0561072" lon="11.4532565" />
      <trkpt lat="46.0560919" lon="11.4532963" />
      <trkpt lat="46.0560705" lon="11.4532782" />
      <trkpt lat="46.0559154" lon="11.4531498" />
      <trkpt lat="46.0558953" lon="11.4531331" />
      <trkpt lat="46.0556818" lon="11.4529551" />
      <trkpt lat="46.0554180" lon="11.4527256" />
      <trkpt lat="46.0552940" lon="11.4526254" />
      <trkpt lat="46.0552531" lon="11.4525923" />
      <trkpt lat="46.0551662" lon="11.4525253" />
      <trkpt lat="46.0550524" lon="11.4524383" />
      <trkpt lat="46.0549084" lon="11.4523526" />
      <trkpt lat="46.0549004" lon="11.4523506" />
      <trkpt lat="46.0548718" lon="11.4523434" />
      <trkpt lat="46.0548724" lon="11.4522392" />
      <trkpt lat="46.0548383" lon="11.4519824" />
      <trkpt lat="46.0547289" lon="11.4513206" />
      <trkpt lat="46.0547228" lon="11.4512834" />
      <trkpt lat="46.0546770" lon="11.4510062" />
      <trkpt lat="46.0546686" lon="11.4509574" />
      <trkpt lat="46.0545778" lon="11.4504325" />
      <trkpt lat="46.0545135" lon="11.4500603" />
      <trkpt lat="46.0545043" lon="11.4500072" />
      <trkpt lat="46.0544650" lon="11.4497801" />
      <trkpt lat="46.0544525" lon="11.4497065" />
      <trkpt lat="46.0544091" lon="11.4494516" />
      <trkpt lat="46.0543700" lon="11.4492227" />
    </trkseg>
  </trk>
</gpx>
