<?xml version="1.0" encoding="UTF-8"?>
<gpx xmlns="http://www.topografix.com/GPX/1/1" version="1.1" creator="ShapeRoute route-engine">
  <metadata>
    <name>heart 15 km · 2026-09-23</name>
    <author>
      <name>ShapeRoute route-engine</name>
    </author>
    <time>2026-09-23T09:29:55Z</time>
  </metadata>
  <trk>
    <name>heart 15 km · 2026-09-23</name>
    <trkseg>
      <trkpt lat="46.0668711" lon="11.1210492" />
      <trkpt lat="46.0668249" lon="11.1206182" />
      <trkpt lat="46.0670289" lon="11.1205458" />
      <trkpt lat="46.0670444" lon="11.1205090" />
      <trkpt lat="46.0670559" lon="11.1205068" />
      <trkpt lat="46.0671281" lon="11.1204977" />
      <trkpt lat="46.0672643" lon="11.1204667" />
      <trkpt lat="46.0672800" lon="11.1204559" />
      <trkpt lat="46.0672765" lon="11.1203235" />
      <trkpt lat="46.0672696" lon="11.1202246" />
      <trkpt lat="46.0672684" lon="11.1202069" />
      <trkpt lat="46.0673967" lon="11.1201946" />
      <trkpt lat="46.0675208" lon="11.1202206" />
      <trkpt lat="46.0675481" lon="11.1202039" />
      <trkpt lat="46.0675648" lon="11.1201851" />
      <trkpt lat="46.0675899" lon="11.1201529" />
      <trkpt lat="46.0676157" lon="11.1201320" />
      <trkpt lat="46.0676225" lon="11.1201073" />
      <trkpt lat="46.0676206" lon="11.1200671" />
      <trkpt lat="46.0676272" lon="11.1199974" />
      <trkpt lat="46.0676448" lon="11.1199678" />
      <trkpt lat="46.0676821" lon="11.1199464" />
      <trkpt lat="46.0677323" lon="11.1199236" />
      <trkpt lat="46.0677742" lon="11.1198820" />
      <trkpt lat="46.0678130" lon="11.1198242" />
      <trkpt lat="46.0678540" lon="11.1197239" />
      <trkpt lat="46.0678811" lon="11.1196664" />
      <trkpt lat="46.0679043" lon="11.1196359" />
      <trkpt lat="46.0681147" lon="11.1195474" />
      <trkpt lat="46.0681837" lon="11.1195184" />
      <trkpt lat="46.0684278" lon="11.1194633" />
      <trkpt lat="46.0684351" lon="11.1194617" />
      <trkpt lat="46.0684727" lon="11.1194502" />
      <trkpt lat="46.0684705" lon="11.1194031" />
      <trkpt lat="46.0684842" lon="11.1192388" />
      <trkpt lat="46.0687066" lon="11.1191764" />
      <trkpt lat="46.0686626" lon="11.1187409" />
      <trkpt lat="46.0686577" lon="11.1186973" />
      <trkpt lat="46.0686992" lon="11.1186809" />
      <trkpt lat="46.0688008" lon="11.1186481" />
      <trkpt lat="46.0689449" lon="11.1186015" />
      <trkpt lat="46.0690320" lon="11.1185750" />
      <trkpt lat="46.0692756" lon="11.1185147" />
      <trkpt lat="46.0693153" lon="11.1185044" />
      <trkpt lat="46.0693622" lon="11.1184902" />
      <trkpt lat="46.0694212" lon="11.1184664" />
      <trkpt lat="46.0695558" lon="11.1183976" />
      <trkpt lat="46.0696180" lon="11.1183567" />
      <trkpt lat="46.0697546" lon="11.1182695" />
      <trkpt lat="46.0698110" lon="11.1182381" />
      <trkpt lat="46.0698295" lon="11.1182314" />
      <trkpt lat="46.0698226" lon="11.1181539" />
      <trkpt lat="46.0698227" lon="11.1180755" />
      <trkpt lat="46.0698565" lon="11.1180693" />
      <trkpt lat="46.0698926" lon="11.1180856" />
      <trkpt lat="46.0699602" lon="11.1180863" />
      <trkpt lat="46.0699644" lon="11.1181025" />
      <trkpt lat="46.0699803" lon="11.1181633" />
      <trkpt lat="46.0700084" lon="11.1181540" />
      <trkpt lat="46.0699905" lon="11.1180483" />
      <trkpt lat="46.0699871" lon="11.1179668" />
      <trkpt lat="46.0699908" lon="11.1179414" />
      <trkpt lat="46.0700269" lon="11.1179061" />
      <trkpt lat="46.0700294" lon="11.1178856" />
      <trkpt lat="46.0700305" lon="11.1178362" />
      <trkpt lat="46.0700369" lon="11.1177882" />
      <trkpt lat="46.0700431" lon="11.1177476" />
      <trkpt lat="46.0700527" lon="11.1177069" />
      <trkpt lat="46.0700861" lon="11.1176034" />
      <trkpt lat="46.0701805" lon="11.1173050" />
      <trkpt lat="46.0702169" lon="11.1171918" />
      <trkpt lat="46.0702287" lon="11.1171541" />
      <trkpt lat="46.0702731" lon="11.1171733" />
      <trkpt lat="46.0703201" lon="11.1171936" />
      <trkpt lat="46.0703117" lon="11.1172218" />
      <trkpt lat="46.0703597" lon="11.1171696" />
      <trkpt lat="46.0703845" lon="11.1170776" />
      <trkpt lat="46.0704216" lon="11.1170936" />
      <trkpt lat="46.0704056" lon="11.1171552" />
      <trkpt lat="46.0704377" lon="11.1171721" />
      <trkpt lat="46.0705294" lon="11.1172114" />
      <trkpt lat="46.0707303" lon="11.1170747" />
      <trkpt lat="46.0709924" lon="11.1171707" />
      <trkpt lat="46.0710414" lon="11.1171481" />
      <trkpt lat="46.0710461" lon="11.1171924" />
      <trkpt lat="46.0711623" lon="11.1172452" />
      <trkpt lat="46.0713754" lon="11.1173445" />
      <trkpt lat="46.0714676" lon="11.1173874" />
      <trkpt lat="46.0717695" lon="11.1175280" />
      <trkpt lat="46.0720787" lon="11.1176720" />
      <trkpt lat="46.0724077" lon="11.1178252" />
      <trkpt lat="46.0726696" lon="11.1179464" />
      <trkpt lat="46.0732498" lon="11.1182117" />
      <trkpt lat="46.0732990" lon="11.1182317" />
      <trkpt lat="46.0733337" lon="11.1182458" />
      <trkpt lat="46.0733672" lon="11.1182610" />
      <trkpt lat="46.0736860" lon="11.1184060" />
      <trkpt lat="46.0739335" lon="11.1185186" />
      <trkpt lat="46.0743370" lon="11.1187020" />
      <trkpt lat="46.0743641" lon="11.1187140" />
      <trkpt lat="46.0743863" lon="11.1187238" />
      <trkpt lat="46.0744507" lon="11.1187536" />
      <trkpt lat="46.0746999" lon="11.1188696" />
      <trkpt lat="46.0747156" lon="11.1188769" />
      <trkpt lat="46.0750208" lon="11.1190189" />
      <trkpt lat="46.0750415" lon="11.1190286" />
      <trkpt lat="46.0750628" lon="11.1190385" />
      <trkpt lat="46.0753476" lon="11.1191710" />
      <trkpt lat="46.0753629" lon="11.1191778" />
      <trkpt lat="46.0753779" lon="11.1191846" />
      <trkpt lat="46.0755177" lon="11.1192475" />
      <trkpt lat="46.0755386" lon="11.1192569" />
      <trkpt lat="46.0755511" lon="11.1192625" />
      <trkpt lat="46.0755583" lon="11.1192657" />
      <trkpt lat="46.0755736" lon="11.1192726" />
      <trkpt lat="46.0756642" lon="11.1193162" />
      <trkpt lat="46.0761384" lon="11.1195358" />
      <trkpt lat="46.0766298" lon="11.1197633" />
      <trkpt lat="46.0766446" lon="11.1196944" />
      <trkpt lat="46.0767420" lon="11.1197397" />
      <trkpt lat="46.0768069" lon="11.1197697" />
      <trkpt lat="46.0770264" lon="11.1198714" />
      <trkpt lat="46.0772084" lon="11.1199557" />
      <trkpt lat="46.0771914" lon="11.1200420" />
      <trkpt lat="46.0772583" lon="11.1200707" />
      <trkpt lat="46.0772412" lon="11.1201537" />
      <trkpt lat="46.0772779" lon="11.1201695" />
      <trkpt lat="46.0772407" lon="11.1203335" />
      <trkpt lat="46.0772073" lon="11.1204808" />
      <trkpt lat="46.0772475" lon="11.1204985" />
      <trkpt lat="46.0772399" lon="11.1205331" />
      <trkpt lat="46.0770339" lon="11.1214766" />
      <trkpt lat="46.0770585" lon="11.1214887" />
      <trkpt lat="46.0770434" lon="11.1215564" />
      <trkpt lat="46.0769658" lon="11.1215447" />
      <trkpt lat="46.0764842" lon="11.1213962" />
      <trkpt lat="46.0764800" lon="11.1214382" />
      <trkpt lat="46.0764304" lon="11.1214206" />
      <trkpt lat="46.0764169" lon="11.1214396" />
      <trkpt lat="46.0763328" lon="11.1218518" />
      <trkpt lat="46.0762862" lon="11.1220724" />
      <trkpt lat="46.0762396" lon="11.1221997" />
      <trkpt lat="46.0761632" lon="11.1223471" />
      <trkpt lat="46.0760719" lon="11.1224844" />
      <trkpt lat="46.0759949" lon="11.1226286" />
      <trkpt lat="46.0759915" lon="11.1226564" />
      <trkpt lat="46.0760114" lon="11.1227072" />
      <trkpt lat="46.0764339" lon="11.1230083" />
      <trkpt lat="46.0764543" lon="11.1229927" />
      <trkpt lat="46.0764656" lon="11.1229618" />
      <trkpt lat="46.0765038" lon="11.1229977" />
      <trkpt lat="46.0765495" lon="11.1230379" />
      <trkpt lat="46.0765450" lon="11.1230658" />
      <trkpt lat="46.0765537" lon="11.1230905" />
      <trkpt lat="46.0772230" lon="11.1235516" />
      <trkpt lat="46.0772178" lon="11.1235871" />
      <trkpt lat="46.0773179" lon="11.1235909" />
      <trkpt lat="46.0776413" lon="11.1234073" />
      <trkpt lat="46.0776599" lon="11.1234746" />
      <trkpt lat="46.0777618" lon="11.1238413" />
      <trkpt lat="46.0777471" lon="11.1238564" />
      <trkpt lat="46.0777288" lon="11.1238780" />
      <trkpt lat="46.0776558" lon="11.1239618" />
      <trkpt lat="46.0775557" lon="11.1240701" />
      <trkpt lat="46.0773550" lon="11.1242867" />
      <trkpt lat="46.0772625" lon="11.1243815" />
      <trkpt lat="46.0771321" lon="11.1245118" />
      <trkpt lat="46.0770710" lon="11.1245728" />
      <trkpt lat="46.0770397" lon="11.1245951" />
      <trkpt lat="46.0770039" lon="11.1246217" />
      <trkpt lat="46.0768398" lon="11.1247273" />
      <trkpt lat="46.0766480" lon="11.1248356" />
      <trkpt lat="46.0766354" lon="11.1248421" />
      <trkpt lat="46.0765820" lon="11.1248704" />
      <trkpt lat="46.0763716" lon="11.1249296" />
      <trkpt lat="46.0763231" lon="11.1249364" />
      <trkpt lat="46.0762695" lon="11.1249440" />
      <trkpt lat="46.0763331" lon="11.1249703" />
      <trkpt lat="46.0763588" lon="11.1249809" />
      <trkpt lat="46.0764404" lon="11.1250085" />
      <trkpt lat="46.0766304" lon="11.1250492" />
      <trkpt lat="46.0769194" lon="11.1250928" />
      <trkpt lat="46.0770888" lon="11.1251062" />
      <trkpt lat="46.0771282" lon="11.1251145" />
      <trkpt lat="46.0771427" lon="11.1251284" />
      <trkpt lat="46.0771485" lon="11.1251453" />
      <trkpt lat="46.0771788" lon="11.1250861" />
      <trkpt lat="46.0772623" lon="11.1250648" />
      <trkpt lat="46.0773713" lon="11.1250427" />
      <trkpt lat="46.0774201" lon="11.1250347" />
      <trkpt lat="46.0774781" lon="11.1249858" />
      <trkpt lat="46.0774940" lon="11.1249490" />
      <trkpt lat="46.0775195" lon="11.1248790" />
      <trkpt lat="46.0775387" lon="11.1247986" />
      <trkpt lat="46.0775687" lon="11.1246881" />
      <trkpt lat="46.0775836" lon="11.1246569" />
      <trkpt lat="46.0776045" lon="11.1246245" />
      <trkpt lat="46.0776286" lon="11.1245969" />
      <trkpt lat="46.0776694" lon="11.1245765" />
      <trkpt lat="46.0777019" lon="11.1245705" />
      <trkpt lat="46.0777402" lon="11.1245693" />
      <trkpt lat="46.0778809" lon="11.1244745" />
      <trkpt lat="46.0781931" lon="11.1242632" />
      <trkpt lat="46.0782939" lon="11.1242056" />
      <trkpt lat="46.0784038" lon="11.1241732" />
      <trkpt lat="46.0784875" lon="11.1241689" />
      <trkpt lat="46.0785221" lon="11.1241749" />
      <trkpt lat="46.0785814" lon="11.1241956" />
      <trkpt lat="46.0786156" lon="11.1242196" />
      <trkpt lat="46.0786788" lon="11.1242940" />
      <trkpt lat="46.0787436" lon="11.1243705" />
      <trkpt lat="46.0787417" lon="11.1243899" />
      <trkpt lat="46.0787322" lon="11.1244902" />
      <trkpt lat="46.0786860" lon="11.1244818" />
      <trkpt lat="46.0786679" lon="11.1245942" />
      <trkpt lat="46.0786295" lon="11.1247290" />
      <trkpt lat="46.0785672" lon="11.1248890" />
      <trkpt lat="46.0785499" lon="11.1249317" />
      <trkpt lat="46.0784480" lon="11.1250675" />
      <trkpt lat="46.0782439" lon="11.1252306" />
      <trkpt lat="46.0780801" lon="11.1254054" />
      <trkpt lat="46.0778389" lon="11.1257179" />
      <trkpt lat="46.0776466" lon="11.1259896" />
      <trkpt lat="46.0775885" lon="11.1260716" />
      <trkpt lat="46.0775313" lon="11.1262105" />
      <trkpt lat="46.0775071" lon="11.1262879" />
      <trkpt lat="46.0774895" lon="11.1263747" />
      <trkpt lat="46.0774476" lon="11.1266083" />
      <trkpt lat="46.0774140" lon="11.1267203" />
      <trkpt lat="46.0773621" lon="11.1268230" />
      <trkpt lat="46.0772324" lon="11.1270697" />
      <trkpt lat="46.0769676" lon="11.1273889" />
      <trkpt lat="46.0768882" lon="11.1274744" />
      <trkpt lat="46.0768848" lon="11.1274787" />
      <trkpt lat="46.0768259" lon="11.1275549" />
      <trkpt lat="46.0766061" lon="11.1277146" />
      <trkpt lat="46.0762954" lon="11.1279100" />
      <trkpt lat="46.0761818" lon="11.1279798" />
      <trkpt lat="46.0761026" lon="11.1280285" />
      <trkpt lat="46.0760286" lon="11.1281419" />
      <trkpt lat="46.0760795" lon="11.1281456" />
      <trkpt lat="46.0760836" lon="11.1281590" />
      <trkpt lat="46.0760940" lon="11.1281654" />
      <trkpt lat="46.0767485" lon="11.1281104" />
      <trkpt lat="46.0768070" lon="11.1281047" />
      <trkpt lat="46.0768762" lon="11.1280965" />
      <trkpt lat="46.0769500" lon="11.1280838" />
      <trkpt lat="46.0770521" lon="11.1280586" />
      <trkpt lat="46.0771387" lon="11.1280315" />
      <trkpt lat="46.0772351" lon="11.1279981" />
      <trkpt lat="46.0773365" lon="11.1279517" />
      <trkpt lat="46.0773897" lon="11.1279228" />
      <trkpt lat="46.0774895" lon="11.1278673" />
      <trkpt lat="46.0778746" lon="11.1276524" />
      <trkpt lat="46.0779662" lon="11.1275939" />
      <trkpt lat="46.0780451" lon="11.1275393" />
      <trkpt lat="46.0782225" lon="11.1274081" />
      <trkpt lat="46.0782381" lon="11.1274532" />
      <trkpt lat="46.0782658" lon="11.1274334" />
      <trkpt lat="46.0784095" lon="11.1273344" />
      <trkpt lat="46.0785119" lon="11.1272821" />
      <trkpt lat="46.0787592" lon="11.1272029" />
      <trkpt lat="46.0792979" lon="11.1270501" />
      <trkpt lat="46.0795959" lon="11.1269632" />
      <trkpt lat="46.0796981" lon="11.1269069" />
      <trkpt lat="46.0797792" lon="11.1268369" />
      <trkpt lat="46.0798298" lon="11.1267715" />
      <trkpt lat="46.0798964" lon="11.1266673" />
      <trkpt lat="46.0800450" lon="11.1264255" />
      <trkpt lat="46.0800800" lon="11.1264739" />
      <trkpt lat="46.0800999" lon="11.1265217" />
      <trkpt lat="46.0801088" lon="11.1265673" />
      <trkpt lat="46.0801078" lon="11.1265880" />
      <trkpt lat="46.0800759" lon="11.1265943" />
      <trkpt lat="46.0800598" lon="11.1266054" />
      <trkpt lat="46.0799367" lon="11.1267374" />
      <trkpt lat="46.0798610" lon="11.1268409" />
      <trkpt lat="46.0796674" lon="11.1270160" />
      <trkpt lat="46.0795171" lon="11.1271437" />
      <trkpt lat="46.0792278" lon="11.1273539" />
      <trkpt lat="46.0790283" lon="11.1275021" />
      <trkpt lat="46.0788334" lon="11.1276463" />
      <trkpt lat="46.0783868" lon="11.1279507" />
      <trkpt lat="46.0780715" lon="11.1281881" />
      <trkpt lat="46.0779728" lon="11.1283021" />
      <trkpt lat="46.0778566" lon="11.1284496" />
      <trkpt lat="46.0777217" lon="11.1286588" />
      <trkpt lat="46.0775924" lon="11.1289391" />
      <trkpt lat="46.0774975" lon="11.1292476" />
      <trkpt lat="46.0774528" lon="11.1294434" />
      <trkpt lat="46.0774035" lon="11.1297424" />
      <trkpt lat="46.0773561" lon="11.1301086" />
      <trkpt lat="46.0773025" lon="11.1303101" />
      <trkpt lat="46.0773230" lon="11.1303168" />
      <trkpt lat="46.0773849" lon="11.1303350" />
      <trkpt lat="46.0774388" lon="11.1303508" />
      <trkpt lat="46.0774325" lon="11.1304096" />
      <trkpt lat="46.0774373" lon="11.1304360" />
      <trkpt lat="46.0775009" lon="11.1304709" />
      <trkpt lat="46.0775197" lon="11.1304694" />
      <trkpt lat="46.0775337" lon="11.1304329" />
      <trkpt lat="46.0775656" lon="11.1304390" />
      <trkpt lat="46.0775989" lon="11.1304453" />
      <trkpt lat="46.0776032" lon="11.1304911" />
      <trkpt lat="46.0776156" lon="11.1305261" />
      <trkpt lat="46.0776344" lon="11.1305470" />
      <trkpt lat="46.0776694" lon="11.1305579" />
      <trkpt lat="46.0779802" lon="11.1305929" />
      <trkpt lat="46.0780405" lon="11.1306123" />
      <trkpt lat="46.0781019" lon="11.1306449" />
      <trkpt lat="46.0781547" lon="11.1306814" />
      <trkpt lat="46.0782187" lon="11.1307435" />
      <trkpt lat="46.0783329" lon="11.1308848" />
      <trkpt lat="46.0783749" lon="11.1309601" />
      <trkpt lat="46.0784035" lon="11.1310478" />
      <trkpt lat="46.0784223" lon="11.1311425" />
      <trkpt lat="46.0784249" lon="11.1312009" />
      <trkpt lat="46.0783974" lon="11.1312138" />
      <trkpt lat="46.0783974" lon="11.1311663" />
      <trkpt lat="46.0783826" lon="11.1310924" />
      <trkpt lat="46.0783495" lon="11.1309923" />
      <trkpt lat="46.0782903" lon="11.1308929" />
      <trkpt lat="46.0782004" lon="11.1307831" />
      <trkpt lat="46.0781185" lon="11.1307095" />
      <trkpt lat="46.0780404" lon="11.1306618" />
      <trkpt lat="46.0779757" lon="11.1306368" />
      <trkpt lat="46.0776813" lon="11.1306004" />
      <trkpt lat="46.0776351" lon="11.1305890" />
      <trkpt lat="46.0775462" lon="11.1305548" />
      <trkpt lat="46.0775614" lon="11.1304887" />
      <trkpt lat="46.0775656" lon="11.1304390" />
      <trkpt lat="46.0775629" lon="11.1303269" />
      <trkpt lat="46.0775711" lon="11.1302232" />
      <trkpt lat="46.0775900" lon="11.1301316" />
      <trkpt lat="46.0776279" lon="11.1300650" />
      <trkpt lat="46.0776874" lon="11.1300366" />
      <trkpt lat="46.0779180" lon="11.1300020" />
      <trkpt lat="46.0780466" lon="11.1299816" />
      <trkpt lat="46.0781763" lon="11.1299414" />
      <trkpt lat="46.0782490" lon="11.1299260" />
      <trkpt lat="46.0783163" lon="11.1299243" />
      <trkpt lat="46.0783906" lon="11.1299293" />
      <trkpt lat="46.0785548" lon="11.1299618" />
      <trkpt lat="46.0786418" lon="11.1299666" />
      <trkpt lat="46.0787288" lon="11.1299601" />
      <trkpt lat="46.0789921" lon="11.1299344" />
      <trkpt lat="46.0790521" lon="11.1299157" />
      <trkpt lat="46.0793126" lon="11.1297461" />
      <trkpt lat="46.0796726" lon="11.1295490" />
      <trkpt lat="46.0798156" lon="11.1294976" />
      <trkpt lat="46.0799238" lon="11.1295105" />
      <trkpt lat="46.0800759" lon="11.1295993" />
      <trkpt lat="46.0802294" lon="11.1297350" />
      <trkpt lat="46.0803431" lon="11.1298752" />
      <trkpt lat="46.0805364" lon="11.1304627" />
      <trkpt lat="46.0810921" lon="11.1308584" />
      <trkpt lat="46.0812424" lon="11.1308982" />
      <trkpt lat="46.0819491" lon="11.1308048" />
      <trkpt lat="46.0821325" lon="11.1307893" />
      <trkpt lat="46.0823644" lon="11.1308225" />
      <trkpt lat="46.0826511" lon="11.1309406" />
      <trkpt lat="46.0830649" lon="11.1310185" />
      <trkpt lat="46.0832754" lon="11.1310418" />
      <trkpt lat="46.0833775" lon="11.1310753" />
      <trkpt lat="46.0838140" lon="11.1312241" />
      <trkpt lat="46.0842486" lon="11.1313328" />
      <trkpt lat="46.0846007" lon="11.1312493" />
      <trkpt lat="46.0847679" lon="11.1311787" />
      <trkpt lat="46.0848566" lon="11.1311506" />
      <trkpt lat="46.0849361" lon="11.1311765" />
      <trkpt lat="46.0849352" lon="11.1313537" />
      <trkpt lat="46.0849777" lon="11.1315003" />
      <trkpt lat="46.0851373" lon="11.1315706" />
      <trkpt lat="46.0852651" lon="11.1316015" />
      <trkpt lat="46.0854271" lon="11.1316488" />
      <trkpt lat="46.0854829" lon="11.1317274" />
      <trkpt lat="46.0855288" lon="11.1319577" />
      <trkpt lat="46.0856067" lon="11.1319465" />
      <trkpt lat="46.0857256" lon="11.1318289" />
      <trkpt lat="46.0858037" lon="11.1317340" />
      <trkpt lat="46.0857903" lon="11.1317940" />
      <trkpt lat="46.0857605" lon="11.1318785" />
      <trkpt lat="46.0857233" lon="11.1319911" />
      <trkpt lat="46.0856815" lon="11.1321091" />
      <trkpt lat="46.0856582" lon="11.1321682" />
      <trkpt lat="46.0856424" lon="11.1322017" />
      <trkpt lat="46.0856471" lon="11.1322205" />
      <trkpt lat="46.0856703" lon="11.1322178" />
      <trkpt lat="46.0857066" lon="11.1321789" />
      <trkpt lat="46.0857885" lon="11.1321547" />
      <trkpt lat="46.0858731" lon="11.1320984" />
      <trkpt lat="46.0859280" lon="11.1320609" />
      <trkpt lat="46.0859959" lon="11.1320166" />
      <trkpt lat="46.0860452" lon="11.1319925" />
      <trkpt lat="46.0860638" lon="11.1319643" />
      <trkpt lat="46.0861131" lon="11.1319710" />
      <trkpt lat="46.0861121" lon="11.1320126" />
      <trkpt lat="46.0860787" lon="11.1320957" />
      <trkpt lat="46.0860163" lon="11.1322419" />
      <trkpt lat="46.0859754" lon="11.1323613" />
      <trkpt lat="46.0859391" lon="11.1324471" />
      <trkpt lat="46.0858889" lon="11.1325718" />
      <trkpt lat="46.0858361" lon="11.1327155" />
      <trkpt lat="46.0858216" lon="11.1327430" />
      <trkpt lat="46.0857623" lon="11.1329721" />
      <trkpt lat="46.0858446" lon="11.1332630" />
      <trkpt lat="46.0858583" lon="11.1333075" />
      <trkpt lat="46.0855523" lon="11.1337449" />
      <trkpt lat="46.0855008" lon="11.1338136" />
      <trkpt lat="46.0855159" lon="11.1338430" />
      <trkpt lat="46.0856678" lon="11.1340939" />
      <trkpt lat="46.0859255" lon="11.1345305" />
      <trkpt lat="46.0859668" lon="11.1346326" />
      <trkpt lat="46.0859848" lon="11.1347216" />
      <trkpt lat="46.0859899" lon="11.1348994" />
      <trkpt lat="46.0860471" lon="11.1349881" />
      <trkpt lat="46.0862183" lon="11.1350579" />
      <trkpt lat="46.0863373" lon="11.1351142" />
      <trkpt lat="46.0864601" lon="11.1351678" />
      <trkpt lat="46.0866313" lon="11.1353851" />
      <trkpt lat="46.0866852" lon="11.1354736" />
      <trkpt lat="46.0867596" lon="11.1355273" />
      <trkpt lat="46.0869382" lon="11.1355380" />
      <trkpt lat="46.0870963" lon="11.1355112" />
      <trkpt lat="46.0871800" lon="11.1355165" />
      <trkpt lat="46.0872991" lon="11.1356024" />
      <trkpt lat="46.0873642" lon="11.1356694" />
      <trkpt lat="46.0874740" lon="11.1356801" />
      <trkpt lat="46.0875480" lon="11.1355929" />
      <trkpt lat="46.0878823" lon="11.1355702" />
      <trkpt lat="46.0880041" lon="11.1355822" />
      <trkpt lat="46.0881250" lon="11.1355849" />
      <trkpt lat="46.0882021" lon="11.1356313" />
      <trkpt lat="46.0881200" lon="11.1356868" />
      <trkpt lat="46.0879710" lon="11.1356916" />
      <trkpt lat="46.0877862" lon="11.1356643" />
      <trkpt lat="46.0876833" lon="11.1356963" />
      <trkpt lat="46.0875473" lon="11.1357876" />
      <trkpt lat="46.0873701" lon="11.1359473" />
      <trkpt lat="46.0871011" lon="11.1361478" />
      <trkpt lat="46.0870252" lon="11.1362528" />
      <trkpt lat="46.0869148" lon="11.1364174" />
      <trkpt lat="46.0869051" lon="11.1364457" />
      <trkpt lat="46.0868550" lon="11.1365922" />
      <trkpt lat="46.0867904" lon="11.1368804" />
      <trkpt lat="46.0868691" lon="11.1368876" />
      <trkpt lat="46.0869208" lon="11.1368924" />
      <trkpt lat="46.0870409" lon="11.1369691" />
      <trkpt lat="46.0871644" lon="11.1370143" />
      <trkpt lat="46.0872958" lon="11.1370580" />
      <trkpt lat="46.0874403" lon="11.1371091" />
      <trkpt lat="46.0875444" lon="11.1371673" />
      <trkpt lat="46.0876062" lon="11.1372778" />
      <trkpt lat="46.0876421" lon="11.1373943" />
      <trkpt lat="46.0876741" lon="11.1375186" />
      <trkpt lat="46.0877093" lon="11.1376118" />
      <trkpt lat="46.0877460" lon="11.1376606" />
      <trkpt lat="46.0878029" lon="11.1377452" />
      <trkpt lat="46.0878581" lon="11.1378210" />
      <trkpt lat="46.0879428" lon="11.1379180" />
      <trkpt lat="46.0880922" lon="11.1380698" />
      <trkpt lat="46.0881799" lon="11.1381183" />
      <trkpt lat="46.0882513" lon="11.1381349" />
      <trkpt lat="46.0885939" lon="11.1380263" />
      <trkpt lat="46.0889380" lon="11.1379501" />
      <trkpt lat="46.0891104" lon="11.1379273" />
      <trkpt lat="46.0894079" lon="11.1379774" />
      <trkpt lat="46.0895866" lon="11.1380390" />
      <trkpt lat="46.0896927" lon="11.1381416" />
      <trkpt lat="46.0897306" lon="11.1382099" />
      <trkpt lat="46.0897527" lon="11.1383171" />
      <trkpt lat="46.0897573" lon="11.1384706" />
      <trkpt lat="46.0897244" lon="11.1386297" />
      <trkpt lat="46.0896237" lon="11.1389104" />
      <trkpt lat="46.0895624" lon="11.1390849" />
      <trkpt lat="46.0895337" lon="11.1392858" />
      <trkpt lat="46.0895749" lon="11.1394635" />
      <trkpt lat="46.0896276" lon="11.1396036" />
      <trkpt lat="46.0896625" lon="11.1397366" />
      <trkpt lat="46.0896984" lon="11.1398302" />
      <trkpt lat="46.0896868" lon="11.1400265" />
      <trkpt lat="46.0896947" lon="11.1401967" />
      <trkpt lat="46.0897041" lon="11.1403640" />
      <trkpt lat="46.0897060" lon="11.1404177" />
      <trkpt lat="46.0896177" lon="11.1404907" />
      <trkpt lat="46.0895327" lon="11.1405526" />
      <trkpt lat="46.0894427" lon="11.1405916" />
      <trkpt lat="46.0893105" lon="11.1406354" />
      <trkpt lat="46.0890626" lon="11.1407338" />
      <trkpt lat="46.0888852" lon="11.1407441" />
      <trkpt lat="46.0886754" lon="11.1406411" />
      <trkpt lat="46.0883533" lon="11.1405883" />
      <trkpt lat="46.0881284" lon="11.1405087" />
      <trkpt lat="46.0878130" lon="11.1402686" />
      <trkpt lat="46.0876467" lon="11.1401636" />
      <trkpt lat="46.0875642" lon="11.1401357" />
      <trkpt lat="46.0874094" lon="11.1400672" />
      <trkpt lat="46.0872930" lon="11.1401039" />
      <trkpt lat="46.0871049" lon="11.1401517" />
      <trkpt lat="46.0869167" lon="11.1402358" />
      <trkpt lat="46.0867161" lon="11.1403837" />
      <trkpt lat="46.0864861" lon="11.1406098" />
      <trkpt lat="46.0862548" lon="11.1408367" />
      <trkpt lat="46.0862145" lon="11.1408712" />
      <trkpt lat="46.0861692" lon="11.1408907" />
      <trkpt lat="46.0860651" lon="11.1408948" />
      <trkpt lat="46.0858082" lon="11.1408909" />
      <trkpt lat="46.0856426" lon="11.1409022" />
      <trkpt lat="46.0855021" lon="11.1409841" />
      <trkpt lat="46.0854027" lon="11.1410296" />
      <trkpt lat="46.0852304" lon="11.1411254" />
      <trkpt lat="46.0850974" lon="11.1412029" />
      <trkpt lat="46.0849279" lon="11.1413989" />
      <trkpt lat="46.0847963" lon="11.1416203" />
      <trkpt lat="46.0846330" lon="11.1420357" />
      <trkpt lat="46.0845556" lon="11.1423000" />
      <trkpt lat="46.0845336" lon="11.1424052" />
      <trkpt lat="46.0845203" lon="11.1425178" />
      <trkpt lat="46.0845989" lon="11.1425311" />
      <trkpt lat="46.0848005" lon="11.1425174" />
      <trkpt lat="46.0850775" lon="11.1425446" />
      <trkpt lat="46.0854081" lon="11.1424830" />
      <trkpt lat="46.0856672" lon="11.1424509" />
      <trkpt lat="46.0859255" lon="11.1424578" />
      <trkpt lat="46.0861058" lon="11.1424872" />
      <trkpt lat="46.0862797" lon="11.1425537" />
      <trkpt lat="46.0865068" lon="11.1426866" />
      <trkpt lat="46.0867658" lon="11.1428723" />
      <trkpt lat="46.0868953" lon="11.1429694" />
      <trkpt lat="46.0869546" lon="11.1430296" />
      <trkpt lat="46.0870665" lon="11.1430630" />
      <trkpt lat="46.0871945" lon="11.1430393" />
      <trkpt lat="46.0874096" lon="11.1429734" />
      <trkpt lat="46.0875771" lon="11.1429189" />
      <trkpt lat="46.0877064" lon="11.1429179" />
      <trkpt lat="46.0878472" lon="11.1429396" />
      <trkpt lat="46.0879325" lon="11.1431200" />
      <trkpt lat="46.0880804" lon="11.1439184" />
      <trkpt lat="46.0880096" lon="11.1441232" />
      <trkpt lat="46.0879018" lon="11.1441812" />
      <trkpt lat="46.0877232" lon="11.1442188" />
      <trkpt lat="46.0875707" lon="11.1443314" />
      <trkpt lat="46.0874739" lon="11.1444012" />
      <trkpt lat="46.0866740" lon="11.1444656" />
      <trkpt lat="46.0859262" lon="11.1447525" />
      <trkpt lat="46.0855988" lon="11.1450047" />
      <trkpt lat="46.0855281" lon="11.1451737" />
      <trkpt lat="46.0853197" lon="11.1453292" />
      <trkpt lat="46.0852378" lon="11.1454902" />
      <trkpt lat="46.0852602" lon="11.1458013" />
      <trkpt lat="46.0852416" lon="11.1462090" />
      <trkpt lat="46.0852230" lon="11.1463431" />
      <trkpt lat="46.0851386" lon="11.1466623" />
      <trkpt lat="46.0850523" lon="11.1466719" />
      <trkpt lat="46.0849421" lon="11.1468905" />
      <trkpt lat="46.0848592" lon="11.1469648" />
      <trkpt lat="46.0847491" lon="11.1471572" />
      <trkpt lat="46.0846656" lon="11.1473867" />
      <trkpt lat="46.0845810" lon="11.1476657" />
      <trkpt lat="46.0845116" lon="11.1477321" />
      <trkpt lat="46.0843572" lon="11.1477061" />
      <trkpt lat="46.0842650" lon="11.1476948" />
      <trkpt lat="46.0838050" lon="11.1473417" />
      <trkpt lat="46.0836403" lon="11.1472274" />
      <trkpt lat="46.0834902" lon="11.1471692" />
      <trkpt lat="46.0834666" lon="11.1471415" />
      <trkpt lat="46.0832990" lon="11.1471003" />
      <trkpt lat="46.0831675" lon="11.1471184" />
      <trkpt lat="46.0830683" lon="11.1471547" />
      <trkpt lat="46.0829907" lon="11.1472198" />
      <trkpt lat="46.0829004" lon="11.1473815" />
      <trkpt lat="46.0828812" lon="11.1476474" />
      <trkpt lat="46.0828656" lon="11.1479596" />
      <trkpt lat="46.0828124" lon="11.1481352" />
      <trkpt lat="46.0827641" lon="11.1482911" />
      <trkpt lat="46.0826619" lon="11.1484774" />
      <trkpt lat="46.0826082" lon="11.1486125" />
      <trkpt lat="46.0825896" lon="11.1488492" />
      <trkpt lat="46.0825641" lon="11.1489514" />
      <trkpt lat="46.0824045" lon="11.1489549" />
      <trkpt lat="46.0822945" lon="11.1489378" />
      <trkpt lat="46.0822778" lon="11.1486745" />
      <trkpt lat="46.0821439" lon="11.1485712" />
      <trkpt lat="46.0821113" lon="11.1488231" />
      <trkpt lat="46.0820867" lon="11.1488865" />
      <trkpt lat="46.0820202" lon="11.1490015" />
      <trkpt lat="46.0819547" lon="11.1492762" />
      <trkpt lat="46.0819368" lon="11.1497054" />
      <trkpt lat="46.0819362" lon="11.1500591" />
      <trkpt lat="46.0819439" lon="11.1502669" />
      <trkpt lat="46.0818598" lon="11.1500939" />
      <trkpt lat="46.0815005" lon="11.1496674" />
      <trkpt lat="46.0814436" lon="11.1496596" />
      <trkpt lat="46.0813788" lon="11.1496508" />
      <trkpt lat="46.0812217" lon="11.1497356" />
      <trkpt lat="46.0808533" lon="11.1498205" />
      <trkpt lat="46.0807802" lon="11.1497926" />
      <trkpt lat="46.0806649" lon="11.1495003" />
      <trkpt lat="46.0806520" lon="11.1491217" />
      <trkpt lat="46.0807294" lon="11.1486099" />
      <trkpt lat="46.0807629" lon="11.1482919" />
      <trkpt lat="46.0807228" lon="11.1480244" />
      <trkpt lat="46.0806969" lon="11.1479323" />
      <trkpt lat="46.0806664" lon="11.1478671" />
      <trkpt lat="46.0806474" lon="11.1478266" />
      <trkpt lat="46.0805278" lon="11.1477856" />
      <trkpt lat="46.0803548" lon="11.1476711" />
      <trkpt lat="46.0802488" lon="11.1473940" />
      <trkpt lat="46.0800515" lon="11.1469755" />
      <trkpt lat="46.0798394" lon="11.1466483" />
      <trkpt lat="46.0797596" lon="11.1465284" />
      <trkpt lat="46.0796980" lon="11.1463211" />
      <trkpt lat="46.0796218" lon="11.1459115" />
      <trkpt lat="46.0796273" lon="11.1455111" />
      <trkpt lat="46.0795901" lon="11.1453609" />
      <trkpt lat="46.0794509" lon="11.1451959" />
      <trkpt lat="46.0792442" lon="11.1450786" />
      <trkpt lat="46.0789142" lon="11.1446823" />
      <trkpt lat="46.0787040" lon="11.1445240" />
      <trkpt lat="46.0783646" lon="11.1443781" />
      <trkpt lat="46.0781746" lon="11.1442844" />
      <trkpt lat="46.0781329" lon="11.1442157" />
      <trkpt lat="46.0780512" lon="11.1441738" />
      <trkpt lat="46.0779930" lon="11.1441909" />
      <trkpt lat="46.0778203" lon="11.1442424" />
      <trkpt lat="46.0776786" lon="11.1442970" />
      <trkpt lat="46.0774845" lon="11.1443500" />
      <trkpt lat="46.0773126" lon="11.1445956" />
      <trkpt lat="46.0771652" lon="11.1447861" />
      <trkpt lat="46.0770912" lon="11.1448848" />
      <trkpt lat="46.0770284" lon="11.1449719" />
      <trkpt lat="46.0768498" lon="11.1451522" />
      <trkpt lat="46.0766425" lon="11.1452641" />
      <trkpt lat="46.0764931" lon="11.1454526" />
      <trkpt lat="46.0763419" lon="11.1456342" />
      <trkpt lat="46.0761303" lon="11.1458453" />
      <trkpt lat="46.0760056" lon="11.1459311" />
      <trkpt lat="46.0759781" lon="11.1459552" />
      <trkpt lat="46.0759634" lon="11.1465911" />
      <trkpt lat="46.0759711" lon="11.1467266" />
      <trkpt lat="46.0759801" lon="11.1468837" />
      <trkpt lat="46.0760113" lon="11.1475013" />
      <trkpt lat="46.0760703" lon="11.1478196" />
      <trkpt lat="46.0761348" lon="11.1480490" />
      <trkpt lat="46.0760964" lon="11.1480754" />
      <trkpt lat="46.0760717" lon="11.1480924" />
      <trkpt lat="46.0760072" lon="11.1478295" />
      <trkpt lat="46.0759592" lon="11.1475151" />
      <trkpt lat="46.0759139" lon="11.1467421" />
      <trkpt lat="46.0759155" lon="11.1466711" />
      <trkpt lat="46.0759165" lon="11.1466263" />
      <trkpt lat="46.0758593" lon="11.1465937" />
      <trkpt lat="46.0757431" lon="11.1465275" />
      <trkpt lat="46.0756208" lon="11.1464438" />
      <trkpt lat="46.0755085" lon="11.1463525" />
      <trkpt lat="46.0754784" lon="11.1463269" />
      <trkpt lat="46.0753913" lon="11.1462528" />
      <trkpt lat="46.0751825" lon="11.1459941" />
      <trkpt lat="46.0751273" lon="11.1459705" />
      <trkpt lat="46.0749748" lon="11.1459054" />
      <trkpt lat="46.0746811" lon="11.1458327" />
      <trkpt lat="46.0746487" lon="11.1458183" />
      <trkpt lat="46.0744438" lon="11.1457733" />
      <trkpt lat="46.0744115" lon="11.1457665" />
      <trkpt lat="46.0743394" lon="11.1459332" />
      <trkpt lat="46.0742112" lon="11.1462299" />
      <trkpt lat="46.0740266" lon="11.1468117" />
      <trkpt lat="46.0739112" lon="11.1469852" />
      <trkpt lat="46.0737449" lon="11.1470891" />
      <trkpt lat="46.0736122" lon="11.1471970" />
      <trkpt lat="46.0735472" lon="11.1472740" />
      <trkpt lat="46.0734074" lon="11.1474537" />
      <trkpt lat="46.0733438" lon="11.1475583" />
      <trkpt lat="46.0732805" lon="11.1477023" />
      <trkpt lat="46.0732164" lon="11.1478455" />
      <trkpt lat="46.0731986" lon="11.1479102" />
      <trkpt lat="46.0731692" lon="11.1480321" />
      <trkpt lat="46.0730830" lon="11.1483800" />
      <trkpt lat="46.0730693" lon="11.1484486" />
      <trkpt lat="46.0730060" lon="11.1484228" />
      <trkpt lat="46.0728551" lon="11.1484371" />
      <trkpt lat="46.0728294" lon="11.1485047" />
      <trkpt lat="46.0728185" lon="11.1489250" />
      <trkpt lat="46.0728176" lon="11.1491329" />
      <trkpt lat="46.0726937" lon="11.1492133" />
      <trkpt lat="46.0726104" lon="11.1492809" />
      <trkpt lat="46.0725694" lon="11.1493298" />
      <trkpt lat="46.0725553" lon="11.1493787" />
      <trkpt lat="46.0725708" lon="11.1494847" />
      <trkpt lat="46.0726161" lon="11.1496254" />
      <trkpt lat="46.0726755" lon="11.1497823" />
      <trkpt lat="46.0727730" lon="11.1499168" />
      <trkpt lat="46.0729682" lon="11.1501003" />
      <trkpt lat="46.0731947" lon="11.1502638" />
      <trkpt lat="46.0732057" lon="11.1502803" />
      <trkpt lat="46.0732329" lon="11.1503096" />
      <trkpt lat="46.0733050" lon="11.1503409" />
      <trkpt lat="46.0733836" lon="11.1503761" />
      <trkpt lat="46.0735869" lon="11.1504493" />
      <trkpt lat="46.0736142" lon="11.1504548" />
      <trkpt lat="46.0736544" lon="11.1504341" />
      <trkpt lat="46.0737739" lon="11.1503230" />
      <trkpt lat="46.0738120" lon="11.1502872" />
      <trkpt lat="46.0738382" lon="11.1502821" />
      <trkpt lat="46.0738706" lon="11.1502968" />
      <trkpt lat="46.0738862" lon="11.1503298" />
      <trkpt lat="46.0738097" lon="11.1504015" />
      <trkpt lat="46.0738137" lon="11.1504478" />
      <trkpt lat="46.0738172" lon="11.1504916" />
      <trkpt lat="46.0738242" lon="11.1505689" />
      <trkpt lat="46.0738340" lon="11.1507583" />
      <trkpt lat="46.0738384" lon="11.1509548" />
      <trkpt lat="46.0738561" lon="11.1512187" />
      <trkpt lat="46.0738513" lon="11.1512777" />
      <trkpt lat="46.0738370" lon="11.1513101" />
      <trkpt lat="46.0738265" lon="11.1513755" />
      <trkpt lat="46.0737908" lon="11.1514269" />
      <trkpt lat="46.0737470" lon="11.1514946" />
      <trkpt lat="46.0737075" lon="11.1515758" />
      <trkpt lat="46.0736738" lon="11.1516633" />
      <trkpt lat="46.0736417" lon="11.1517564" />
      <trkpt lat="46.0736296" lon="11.1517666" />
      <trkpt lat="46.0736034" lon="11.1517746" />
      <trkpt lat="46.0735772" lon="11.1518722" />
      <trkpt lat="46.0735545" lon="11.1519535" />
      <trkpt lat="46.0735422" lon="11.1520154" />
      <trkpt lat="46.0735617" lon="11.1520581" />
      <trkpt lat="46.0735681" lon="11.1520721" />
      <trkpt lat="46.0735671" lon="11.1521282" />
      <trkpt lat="46.0735702" lon="11.1523118" />
      <trkpt lat="46.0735655" lon="11.1523619" />
      <trkpt lat="46.0735518" lon="11.1524104" />
      <trkpt lat="46.0735318" lon="11.1524491" />
      <trkpt lat="46.0735081" lon="11.1524749" />
      <trkpt lat="46.0734781" lon="11.1524886" />
      <trkpt lat="46.0734450" lon="11.1524939" />
      <trkpt lat="46.0734092" lon="11.1524840" />
      <trkpt lat="46.0733808" lon="11.1524620" />
      <trkpt lat="46.0733534" lon="11.1524264" />
      <trkpt lat="46.0733371" lon="11.1523915" />
      <trkpt lat="46.0732560" lon="11.1520744" />
      <trkpt lat="46.0732376" lon="11.1520175" />
      <trkpt lat="46.0732155" lon="11.1519765" />
      <trkpt lat="46.0731534" lon="11.1518930" />
      <trkpt lat="46.0731203" lon="11.1518612" />
      <trkpt lat="46.0730908" lon="11.1518475" />
      <trkpt lat="46.0730582" lon="11.1518559" />
      <trkpt lat="46.0730350" lon="11.1518756" />
      <trkpt lat="46.0730192" lon="11.1519067" />
      <trkpt lat="46.0730139" lon="11.1519416" />
      <trkpt lat="46.0730213" lon="11.1519939" />
      <trkpt lat="46.0730350" lon="11.1520296" />
      <trkpt lat="46.0730703" lon="11.1520774" />
      <trkpt lat="46.0731687" lon="11.1521904" />
      <trkpt lat="46.0731945" lon="11.1522413" />
      <trkpt lat="46.0732113" lon="11.1523057" />
      <trkpt lat="46.0732171" lon="11.1523664" />
      <trkpt lat="46.0732103" lon="11.1524431" />
      <trkpt lat="46.0732013" lon="11.1525075" />
      <trkpt lat="46.0732018" lon="11.1525432" />
      <trkpt lat="46.0731836" lon="11.1525705" />
      <trkpt lat="46.0731592" lon="11.1526069" />
      <trkpt lat="46.0731397" lon="11.1526054" />
      <trkpt lat="46.0731187" lon="11.1526122" />
      <trkpt lat="46.0730718" lon="11.1526350" />
      <trkpt lat="46.0730029" lon="11.1526494" />
      <trkpt lat="46.0729434" lon="11.1526615" />
      <trkpt lat="46.0729050" lon="11.1526889" />
      <trkpt lat="46.0728750" lon="11.1527238" />
      <trkpt lat="46.0728561" lon="11.1527662" />
      <trkpt lat="46.0727866" lon="11.1530106" />
      <trkpt lat="46.0727769" lon="11.1529376" />
      <trkpt lat="46.0727535" lon="11.1530179" />
      <trkpt lat="46.0727280" lon="11.1530617" />
      <trkpt lat="46.0726936" lon="11.1530971" />
      <trkpt lat="46.0726183" lon="11.1531457" />
      <trkpt lat="46.0724065" lon="11.1532515" />
      <trkpt lat="46.0723550" lon="11.1532703" />
      <trkpt lat="46.0723031" lon="11.1532715" />
      <trkpt lat="46.0722488" lon="11.1532618" />
      <trkpt lat="46.0721865" lon="11.1532283" />
      <trkpt lat="46.0721321" lon="11.1531753" />
      <trkpt lat="46.0720461" lon="11.1530860" />
      <trkpt lat="46.0718046" lon="11.1528130" />
      <trkpt lat="46.0716771" lon="11.1526513" />
      <trkpt lat="46.0715614" lon="11.1524494" />
      <trkpt lat="46.0714126" lon="11.1521247" />
      <trkpt lat="46.0712050" lon="11.1516738" />
      <trkpt lat="46.0711728" lon="11.1516156" />
      <trkpt lat="46.0710902" lon="11.1514704" />
      <trkpt lat="46.0710573" lon="11.1514049" />
      <trkpt lat="46.0708692" lon="11.1510112" />
      <trkpt lat="46.0708086" lon="11.1509107" />
      <trkpt lat="46.0707679" lon="11.1508647" />
      <trkpt lat="46.0707313" lon="11.1508299" />
      <trkpt lat="46.0706940" lon="11.1508091" />
      <trkpt lat="46.0706203" lon="11.1507682" />
      <trkpt lat="46.0703886" lon="11.1506376" />
      <trkpt lat="46.0703018" lon="11.1505759" />
      <trkpt lat="46.0701249" lon="11.1504501" />
      <trkpt lat="46.0700691" lon="11.1504187" />
      <trkpt lat="46.0700236" lon="11.1504023" />
      <trkpt lat="46.0699831" lon="11.1503967" />
      <trkpt lat="46.0698476" lon="11.1503880" />
      <trkpt lat="46.0697005" lon="11.1503930" />
      <trkpt lat="46.0696140" lon="11.1504044" />
      <trkpt lat="46.0693164" lon="11.1504773" />
      <trkpt lat="46.0691969" lon="11.1505045" />
      <trkpt lat="46.0689702" lon="11.1505561" />
      <trkpt lat="46.0686593" lon="11.1506505" />
      <trkpt lat="46.0686308" lon="11.1506609" />
      <trkpt lat="46.0686531" lon="11.1507017" />
      <trkpt lat="46.0686650" lon="11.1507508" />
      <trkpt lat="46.0686653" lon="11.1508028" />
      <trkpt lat="46.0686539" lon="11.1508519" />
      <trkpt lat="46.0686322" lon="11.1508930" />
      <trkpt lat="46.0686024" lon="11.1509219" />
      <trkpt lat="46.0685677" lon="11.1509353" />
      <trkpt lat="46.0685319" lon="11.1509320" />
      <trkpt lat="46.0685305" lon="11.1509835" />
      <trkpt lat="46.0685265" lon="11.1510534" />
      <trkpt lat="46.0684792" lon="11.1510383" />
      <trkpt lat="46.0684749" lon="11.1509983" />
      <trkpt lat="46.0684671" lon="11.1509587" />
      <trkpt lat="46.0684501" lon="11.1509228" />
      <trkpt lat="46.0684252" lon="11.1508713" />
      <trkpt lat="46.0684130" lon="11.1508259" />
      <trkpt lat="46.0684041" lon="11.1507697" />
      <trkpt lat="46.0683881" lon="11.1507148" />
      <trkpt lat="46.0683636" lon="11.1506782" />
      <trkpt lat="46.0683190" lon="11.1506355" />
      <trkpt lat="46.0682235" lon="11.1506071" />
      <trkpt lat="46.0679034" lon="11.1505657" />
      <trkpt lat="46.0675236" lon="11.1505381" />
      <trkpt lat="46.0674365" lon="11.1505356" />
      <trkpt lat="46.0673434" lon="11.1505330" />
      <trkpt lat="46.0672500" lon="11.1505303" />
      <trkpt lat="46.0665985" lon="11.1505068" />
      <trkpt lat="46.0665988" lon="11.1504875" />
      <trkpt lat="46.0665992" lon="11.1504632" />
      <trkpt lat="46.0665999" lon="11.1504014" />
      <trkpt lat="46.0665177" lon="11.1503989" />
      <trkpt lat="46.0664486" lon="11.1503967" />
      <trkpt lat="46.0664494" lon="11.1501264" />
      <trkpt lat="46.0664568" lon="11.1500009" />
      <trkpt lat="46.0664779" lon="11.1497393" />
      <trkpt lat="46.0664716" lon="11.1489768" />
      <trkpt lat="46.0664362" lon="11.1483208" />
      <trkpt lat="46.0664109" lon="11.1476428" />
      <trkpt lat="46.0663783" lon="11.1475654" />
      <trkpt lat="46.0663293" lon="11.1473004" />
      <trkpt lat="46.0662953" lon="11.1469399" />
      <trkpt lat="46.0662772" lon="11.1468065" />
      <trkpt lat="46.0662971" lon="11.1467670" />
      <trkpt lat="46.0663578" lon="11.1466463" />
      <trkpt lat="46.0664590" lon="11.1464170" />
      <trkpt lat="46.0665208" lon="11.1462493" />
      <trkpt lat="46.0666428" lon="11.1458295" />
      <trkpt lat="46.0666868" lon="11.1455928" />
      <trkpt lat="46.0666939" lon="11.1454210" />
      <trkpt lat="46.0666803" lon="11.1452341" />
      <trkpt lat="46.0666277" lon="11.1449739" />
      <trkpt lat="46.0665433" lon="11.1447067" />
      <trkpt lat="46.0664627" lon="11.1445210" />
      <trkpt lat="46.0664385" lon="11.1443889" />
      <trkpt lat="46.0664354" lon="11.1438107" />
      <trkpt lat="46.0664392" lon="11.1434688" />
      <trkpt lat="46.0664336" lon="11.1432185" />
      <trkpt lat="46.0664151" lon="11.1430925" />
      <trkpt lat="46.0663843" lon="11.1429730" />
      <trkpt lat="46.0663405" lon="11.1428407" />
      <trkpt lat="46.0662179" lon="11.1428467" />
      <trkpt lat="46.0662026" lon="11.1428681" />
      <trkpt lat="46.0659856" lon="11.1427282" />
      <trkpt lat="46.0659453" lon="11.1427003" />
      <trkpt lat="46.0659455" lon="11.1426746" />
      <trkpt lat="46.0659461" lon="11.1425720" />
      <trkpt lat="46.0660194" lon="11.1425738" />
      <trkpt lat="46.0661005" lon="11.1425788" />
      <trkpt lat="46.0661009" lon="11.1425586" />
      <trkpt lat="46.0660712" lon="11.1425172" />
      <trkpt lat="46.0660893" lon="11.1424905" />
      <trkpt lat="46.0658843" lon="11.1421947" />
      <trkpt lat="46.0652467" lon="11.1415634" />
      <trkpt lat="46.0651016" lon="11.1413508" />
      <trkpt lat="46.0651275" lon="11.1412021" />
      <trkpt lat="46.0651763" lon="11.1409264" />
      <trkpt lat="46.0651931" lon="11.1408723" />
      <trkpt lat="46.0652204" lon="11.1408004" />
      <trkpt lat="46.0652630" lon="11.1407500" />
      <trkpt lat="46.0653001" lon="11.1407139" />
      <trkpt lat="46.0653531" lon="11.1406753" />
      <trkpt lat="46.0653950" lon="11.1406580" />
      <trkpt lat="46.0654385" lon="11.1406500" />
      <trkpt lat="46.0657525" lon="11.1406088" />
      <trkpt lat="46.0660838" lon="11.1405737" />
      <trkpt lat="46.0661054" lon="11.1405686" />
      <trkpt lat="46.0660949" lon="11.1405165" />
      <trkpt lat="46.0662231" lon="11.1404852" />
      <trkpt lat="46.0662142" lon="11.1404164" />
      <trkpt lat="46.0662558" lon="11.1404081" />
      <trkpt lat="46.0664866" lon="11.1403601" />
      <trkpt lat="46.0667169" lon="11.1403686" />
      <trkpt lat="46.0667766" lon="11.1403560" />
      <trkpt lat="46.0668318" lon="11.1403350" />
      <trkpt lat="46.0668823" lon="11.1402980" />
      <trkpt lat="46.0669426" lon="11.1402327" />
      <trkpt lat="46.0669918" lon="11.1401479" />
      <trkpt lat="46.0670387" lon="11.1400272" />
      <trkpt lat="46.0670604" lon="11.1399248" />
      <trkpt lat="46.0671392" lon="11.1392674" />
      <trkpt lat="46.0671415" lon="11.1392509" />
      <trkpt lat="46.0671556" lon="11.1391835" />
      <trkpt lat="46.0671918" lon="11.1390935" />
      <trkpt lat="46.0672539" lon="11.1389531" />
      <trkpt lat="46.0672485" lon="11.1389416" />
      <trkpt lat="46.0672018" lon="11.1388340" />
      <trkpt lat="46.0672139" lon="11.1384187" />
      <trkpt lat="46.0672428" lon="11.1381262" />
      <trkpt lat="46.0672673" lon="11.1379769" />
      <trkpt lat="46.0672811" lon="11.1379453" />
      <trkpt lat="46.0673044" lon="11.1379228" />
      <trkpt lat="46.0673215" lon="11.1378986" />
      <trkpt lat="46.0673516" lon="11.1378834" />
      <trkpt lat="46.0674531" lon="11.1378712" />
      <trkpt lat="46.0674652" lon="11.1378492" />
      <trkpt lat="46.0674668" lon="11.1378283" />
      <trkpt lat="46.0674599" lon="11.1378120" />
      <trkpt lat="46.0674480" lon="11.1377871" />
      <trkpt lat="46.0674043" lon="11.1377294" />
      <trkpt lat="46.0672839" lon="11.1375703" />
      <trkpt lat="46.0672729" lon="11.1375606" />
      <trkpt lat="46.0672583" lon="11.1375544" />
      <trkpt lat="46.0672417" lon="11.1375601" />
      <trkpt lat="46.0672260" lon="11.1375704" />
      <trkpt lat="46.0671903" lon="11.1376082" />
      <trkpt lat="46.0671660" lon="11.1376322" />
      <trkpt lat="46.0671663" lon="11.1375921" />
      <trkpt lat="46.0670657" lon="11.1376903" />
      <trkpt lat="46.0669617" lon="11.1377731" />
      <trkpt lat="46.0668245" lon="11.1378579" />
      <trkpt lat="46.0668019" lon="11.1378600" />
      <trkpt lat="46.0667790" lon="11.1378516" />
      <trkpt lat="46.0667629" lon="11.1378286" />
      <trkpt lat="46.0667579" lon="11.1377948" />
      <trkpt lat="46.0667569" lon="11.1377711" />
      <trkpt lat="46.0667605" lon="11.1377435" />
      <trkpt lat="46.0667909" lon="11.1377035" />
      <trkpt lat="46.0669565" lon="11.1373186" />
      <trkpt lat="46.0669485" lon="11.1370766" />
      <trkpt lat="46.0669119" lon="11.1370406" />
      <trkpt lat="46.0668957" lon="11.1370294" />
      <trkpt lat="46.0668630" lon="11.1370144" />
      <trkpt lat="46.0668043" lon="11.1369847" />
      <trkpt lat="46.0667427" lon="11.1369357" />
      <trkpt lat="46.0666097" lon="11.1367658" />
      <trkpt lat="46.0666011" lon="11.1367615" />
      <trkpt lat="46.0665653" lon="11.1367554" />
      <trkpt lat="46.0664807" lon="11.1367333" />
      <trkpt lat="46.0663618" lon="11.1366839" />
      <trkpt lat="46.0663092" lon="11.1366570" />
      <trkpt lat="46.0662155" lon="11.1365977" />
      <trkpt lat="46.0661586" lon="11.1365284" />
      <trkpt lat="46.0660516" lon="11.1363747" />
      <trkpt lat="46.0659041" lon="11.1361217" />
      <trkpt lat="46.0658664" lon="11.1360698" />
      <trkpt lat="46.0657572" lon="11.1359521" />
      <trkpt lat="46.0657268" lon="11.1359380" />
      <trkpt lat="46.0656340" lon="11.1359161" />
      <trkpt lat="46.0655964" lon="11.1359023" />
      <trkpt lat="46.0654938" lon="11.1358506" />
      <trkpt lat="46.0654131" lon="11.1357890" />
      <trkpt lat="46.0653527" lon="11.1357398" />
      <trkpt lat="46.0652385" lon="11.1356027" />
      <trkpt lat="46.0651792" lon="11.1354971" />
      <trkpt lat="46.0651993" lon="11.1354464" />
      <trkpt lat="46.0651878" lon="11.1353888" />
      <trkpt lat="46.0651805" lon="11.1351790" />
      <trkpt lat="46.0651793" lon="11.1349244" />
      <trkpt lat="46.0651779" lon="11.1346935" />
      <trkpt lat="46.0651899" lon="11.1342266" />
      <trkpt lat="46.0651966" lon="11.1340777" />
      <trkpt lat="46.0651984" lon="11.1340365" />
      <trkpt lat="46.0652243" lon="11.1337433" />
      <trkpt lat="46.0652354" lon="11.1336929" />
      <trkpt lat="46.0652801" lon="11.1334660" />
      <trkpt lat="46.0653070" lon="11.1333588" />
      <trkpt lat="46.0653306" lon="11.1332858" />
      <trkpt lat="46.0654039" lon="11.1330664" />
      <trkpt lat="46.0654450" lon="11.1329561" />
      <trkpt lat="46.0655801" lon="11.1326072" />
      <trkpt lat="46.0657298" lon="11.1322207" />
      <trkpt lat="46.0659533" lon="11.1316534" />
      <trkpt lat="46.0660560" lon="11.1313928" />
      <trkpt lat="46.0660704" lon="11.1313564" />
      <trkpt lat="46.0660807" lon="11.1313301" />
      <trkpt lat="46.0661961" lon="11.1310374" />
      <trkpt lat="46.0662020" lon="11.1310224" />
      <trkpt lat="46.0662110" lon="11.1310004" />
      <trkpt lat="46.0661968" lon="11.1309856" />
      <trkpt lat="46.0662535" lon="11.1308450" />
      <trkpt lat="46.0662274" lon="11.1308204" />
      <trkpt lat="46.0661815" lon="11.1307770" />
      <trkpt lat="46.0663226" lon="11.1304402" />
      <trkpt lat="46.0667026" lon="11.1295738" />
      <trkpt lat="46.0668142" lon="11.1292747" />
      <trkpt lat="46.0668188" lon="11.1292183" />
      <trkpt lat="46.0668274" lon="11.1291887" />
      <trkpt lat="46.0668494" lon="11.1291127" />
      <trkpt lat="46.0664625" lon="11.1288956" />
      <trkpt lat="46.0664215" lon="11.1288729" />
      <trkpt lat="46.0663816" lon="11.1288471" />
      <trkpt lat="46.0663544" lon="11.1288314" />
      <trkpt lat="46.0657607" lon="11.1284880" />
      <trkpt lat="46.0657270" lon="11.1284685" />
      <trkpt lat="46.0660378" lon="11.1273383" />
      <trkpt lat="46.0660492" lon="11.1272866" />
      <trkpt lat="46.0660811" lon="11.1273035" />
      <trkpt lat="46.0660933" lon="11.1272524" />
      <trkpt lat="46.0661080" lon="11.1271906" />
      <trkpt lat="46.0660946" lon="11.1271778" />
      <trkpt lat="46.0660788" lon="11.1271557" />
      <trkpt lat="46.0660419" lon="11.1271369" />
      <trkpt lat="46.0659664" lon="11.1270981" />
      <trkpt lat="46.0662124" lon="11.1261632" />
      <trkpt lat="46.0662441" lon="11.1260428" />
      <trkpt lat="46.0659342" lon="11.1258733" />
      <trkpt lat="46.0659575" lon="11.1257955" />
      <trkpt lat="46.0659888" lon="11.1256911" />
      <trkpt lat="46.0657986" lon="11.1255218" />
      <trkpt lat="46.0657065" lon="11.1254149" />
      <trkpt lat="46.0656223" lon="11.1249238" />
      <trkpt lat="46.0656615" lon="11.1248850" />
      <trkpt lat="46.0656894" lon="11.1248307" />
      <trkpt lat="46.0657009" lon="11.1247688" />
      <trkpt lat="46.0656958" lon="11.1246657" />
      <trkpt lat="46.0656609" lon="11.1239761" />
      <trkpt lat="46.0656326" lon="11.1239012" />
      <trkpt lat="46.0656080" lon="11.1235626" />
      <trkpt lat="46.0655279" lon="11.1230558" />
      <trkpt lat="46.0657344" lon="11.1229534" />
      <trkpt lat="46.0660796" lon="11.1227720" />
      <trkpt lat="46.0662400" lon="11.1226907" />
      <trkpt lat="46.0662774" lon="11.1225941" />
      <trkpt lat="46.0663306" lon="11.1225479" />
      <trkpt lat="46.0663604" lon="11.1225220" />
      <trkpt lat="46.0665144" lon="11.1224055" />
      <trkpt lat="46.0665753" lon="11.1223823" />
      <trkpt lat="46.0667414" lon="11.1223091" />
      <trkpt lat="46.0667357" lon="11.1222747" />
      <trkpt lat="46.0667350" lon="11.1222603" />
      <trkpt lat="46.0667287" lon="11.1221612" />
      <trkpt lat="46.0667249" lon="11.1220591" />
      <trkpt lat="46.0667229" lon="11.1219913" />
      <trkpt lat="46.0667210" lon="11.1219626" />
      <trkpt lat="46.0667304" lon="11.1218751" />
      <trkpt lat="46.0667274" lon="11.1218448" />
      <trkpt lat="46.0666789" lon="11.1217092" />
      <trkpt lat="46.0666701" lon="11.1215352" />
      <trkpt lat="46.0667024" lon="11.1213629" />
      <trkpt lat="46.0667526" lon="11.1210542" />
      <trkpt lat="46.0667705" lon="11.1210629" />
      <trkpt lat="46.0668711" lon="11.1210492" />
    </trkseg>
  </trk>
</gpx>
