<?xml version="1.0" encoding="UTF-8"?>
<gpx xmlns="http://www.topografix.com/GPX/1/1" version="1.1" creator="ShapeRoute route-engine">
  <metadata>
    <name>BELLO 15 km milano block</name>
    <author>
      <name>ShapeRoute route-engine</name>
    </author>
    <copyright author="OpenStreetMap contributors">
      <license>https://opendatacommons.org/licenses/odbl/1-0/</license>
    </copyright>
    <link href="https://www.openstreetmap.org/copyright">
      <text>© OpenStreetMap contributors</text>
    </link>
    <time>2026-09-26T06:44:04Z</time>
  </metadata>
  <trk>
    <name>BELLO 15 km milano block</name>
    <trkseg>
      <trkpt lat="45.4643695" lon="9.1897716" />
      <trkpt lat="45.4644313" lon="9.1898582" />
      <trkpt lat="45.4644741" lon="9.1898729" />
      <trkpt lat="45.4645046" lon="9.1898833" />
      <trkpt lat="45.4645446" lon="9.1898970" />
      <trkpt lat="45.4645546" lon="9.1899005" />
      <trkpt lat="45.4645542" lon="9.1899580" />
      <trkpt lat="45.4645591" lon="9.1899581" />
      <trkpt lat="45.4645591" lon="9.1899739" />
      <trkpt lat="45.4645579" lon="9.1902970" />
      <trkpt lat="45.4645713" lon="9.1903119" />
      <trkpt lat="45.4645796" lon="9.1903211" />
      <trkpt lat="45.4645915" lon="9.1903344" />
      <trkpt lat="45.4645901" lon="9.1904077" />
      <trkpt lat="45.4646642" lon="9.1904112" />
      <trkpt lat="45.4646621" lon="9.1904786" />
      <trkpt lat="45.4647559" lon="9.1906084" />
      <trkpt lat="45.4647643" lon="9.1907699" />
      <trkpt lat="45.4648336" lon="9.1907690" />
      <trkpt lat="45.4649417" lon="9.1907691" />
      <trkpt lat="45.4649955" lon="9.1907679" />
      <trkpt lat="45.4649955" lon="9.1907749" />
      <trkpt lat="45.4649955" lon="9.1907816" />
      <trkpt lat="45.4649958" lon="9.1908180" />
      <trkpt lat="45.4650063" lon="9.1908178" />
      <trkpt lat="45.4655683" lon="9.1908105" />
      <trkpt lat="45.4655760" lon="9.1908105" />
      <trkpt lat="45.4656127" lon="9.1908102" />
      <trkpt lat="45.4656131" lon="9.1907635" />
      <trkpt lat="45.4658150" lon="9.1907649" />
      <trkpt lat="45.4658665" lon="9.1907643" />
      <trkpt lat="45.4659350" lon="9.1908475" />
      <trkpt lat="45.4659541" lon="9.1908131" />
      <trkpt lat="45.4660304" lon="9.1909037" />
      <trkpt lat="45.4660482" lon="9.1908736" />
      <trkpt lat="45.4661236" lon="9.1907498" />
      <trkpt lat="45.4661970" lon="9.1906285" />
      <trkpt lat="45.4663289" lon="9.1904106" />
      <trkpt lat="45.4665254" lon="9.1900996" />
      <trkpt lat="45.4665440" lon="9.1900713" />
      <trkpt lat="45.4665589" lon="9.1900900" />
      <trkpt lat="45.4665747" lon="9.1901091" />
      <trkpt lat="45.4668229" lon="9.1900476" />
      <trkpt lat="45.4669037" lon="9.1900297" />
      <trkpt lat="45.4669106" lon="9.1900575" />
      <trkpt lat="45.4669227" lon="9.1900813" />
      <trkpt lat="45.4669392" lon="9.1900992" />
      <trkpt lat="45.4669585" lon="9.1901097" />
      <trkpt lat="45.4669791" lon="9.1901120" />
      <trkpt lat="45.4670010" lon="9.1901048" />
      <trkpt lat="45.4670204" lon="9.1900882" />
      <trkpt lat="45.4670351" lon="9.1900639" />
      <trkpt lat="45.4670439" lon="9.1900343" />
      <trkpt lat="45.4670458" lon="9.1900023" />
      <trkpt lat="45.4671379" lon="9.1899836" />
      <trkpt lat="45.4672617" lon="9.1899583" />
      <trkpt lat="45.4672740" lon="9.1899558" />
      <trkpt lat="45.4672755" lon="9.1899502" />
      <trkpt lat="45.4672760" lon="9.1899447" />
      <trkpt lat="45.4672753" lon="9.1899382" />
      <trkpt lat="45.4672738" lon="9.1899321" />
      <trkpt lat="45.4672591" lon="9.1899119" />
      <trkpt lat="45.4672663" lon="9.1899069" />
      <trkpt lat="45.4672754" lon="9.1899007" />
      <trkpt lat="45.4672890" lon="9.1898913" />
      <trkpt lat="45.4673022" lon="9.1898822" />
      <trkpt lat="45.4673276" lon="9.1899056" />
      <trkpt lat="45.4673586" lon="9.1899336" />
      <trkpt lat="45.4673917" lon="9.1899608" />
      <trkpt lat="45.4674225" lon="9.1899833" />
      <trkpt lat="45.4674472" lon="9.1900080" />
      <trkpt lat="45.4674688" lon="9.1900294" />
      <trkpt lat="45.4674927" lon="9.1900531" />
      <trkpt lat="45.4677584" lon="9.1903404" />
      <trkpt lat="45.4680732" lon="9.1906724" />
      <trkpt lat="45.4682587" lon="9.1908613" />
      <trkpt lat="45.4682507" lon="9.1908740" />
      <trkpt lat="45.4682208" lon="9.1909212" />
      <trkpt lat="45.4682125" lon="9.1909344" />
      <trkpt lat="45.4683925" lon="9.1911214" />
      <trkpt lat="45.4683960" lon="9.1911249" />
      <trkpt lat="45.4684034" lon="9.1911323" />
      <trkpt lat="45.4684179" lon="9.1911468" />
      <trkpt lat="45.4684196" lon="9.1911485" />
      <trkpt lat="45.4685634" lon="9.1912677" />
      <trkpt lat="45.4686940" lon="9.1913818" />
      <trkpt lat="45.4689281" lon="9.1915862" />
      <trkpt lat="45.4689875" lon="9.1916448" />
      <trkpt lat="45.4690432" lon="9.1917080" />
      <trkpt lat="45.4690732" lon="9.1917449" />
      <trkpt lat="45.4690748" lon="9.1917420" />
      <trkpt lat="45.4690888" lon="9.1917174" />
      <trkpt lat="45.4690937" lon="9.1917088" />
      <trkpt lat="45.4693869" lon="9.1920348" />
      <trkpt lat="45.4693936" lon="9.1920205" />
      <trkpt lat="45.4694101" lon="9.1919871" />
      <trkpt lat="45.4694200" lon="9.1919985" />
      <trkpt lat="45.4696795" lon="9.1922784" />
      <trkpt lat="45.4700115" lon="9.1926347" />
      <trkpt lat="45.4700045" lon="9.1926526" />
      <trkpt lat="45.4699836" lon="9.1927118" />
      <trkpt lat="45.4699785" lon="9.1927326" />
      <trkpt lat="45.4699567" lon="9.1927711" />
      <trkpt lat="45.4699511" lon="9.1927811" />
      <trkpt lat="45.4699604" lon="9.1928486" />
      <trkpt lat="45.4697753" lon="9.1931850" />
      <trkpt lat="45.4696913" lon="9.1933278" />
      <trkpt lat="45.4696216" lon="9.1934191" />
      <trkpt lat="45.4694351" lon="9.1937277" />
      <trkpt lat="45.4693845" lon="9.1938036" />
      <trkpt lat="45.4693437" lon="9.1938404" />
      <trkpt lat="45.4693347" lon="9.1938495" />
      <trkpt lat="45.4693437" lon="9.1938404" />
      <trkpt lat="45.4693845" lon="9.1938036" />
      <trkpt lat="45.4694351" lon="9.1937277" />
      <trkpt lat="45.4696216" lon="9.1934191" />
      <trkpt lat="45.4696913" lon="9.1933278" />
      <trkpt lat="45.4697753" lon="9.1931850" />
      <trkpt lat="45.4699604" lon="9.1928486" />
      <trkpt lat="45.4699511" lon="9.1927811" />
      <trkpt lat="45.4699567" lon="9.1927711" />
      <trkpt lat="45.4699785" lon="9.1927326" />
      <trkpt lat="45.4699836" lon="9.1927118" />
      <trkpt lat="45.4700045" lon="9.1926526" />
      <trkpt lat="45.4700115" lon="9.1926347" />
      <trkpt lat="45.4696795" lon="9.1922784" />
      <trkpt lat="45.4694200" lon="9.1919985" />
      <trkpt lat="45.4694101" lon="9.1919871" />
      <trkpt lat="45.4693936" lon="9.1920205" />
      <trkpt lat="45.4693869" lon="9.1920348" />
      <trkpt lat="45.4690937" lon="9.1917088" />
      <trkpt lat="45.4690888" lon="9.1917174" />
      <trkpt lat="45.4690748" lon="9.1917420" />
      <trkpt lat="45.4690732" lon="9.1917449" />
      <trkpt lat="45.4690432" lon="9.1917080" />
      <trkpt lat="45.4689875" lon="9.1916448" />
      <trkpt lat="45.4689281" lon="9.1915862" />
      <trkpt lat="45.4686940" lon="9.1913818" />
      <trkpt lat="45.4685634" lon="9.1912677" />
      <trkpt lat="45.4684196" lon="9.1911485" />
      <trkpt lat="45.4684179" lon="9.1911468" />
      <trkpt lat="45.4684034" lon="9.1911323" />
      <trkpt lat="45.4683960" lon="9.1911249" />
      <trkpt lat="45.4683925" lon="9.1911214" />
      <trkpt lat="45.4682125" lon="9.1909344" />
      <trkpt lat="45.4682208" lon="9.1909212" />
      <trkpt lat="45.4682507" lon="9.1908740" />
      <trkpt lat="45.4682587" lon="9.1908613" />
      <trkpt lat="45.4680732" lon="9.1906724" />
      <trkpt lat="45.4677584" lon="9.1903404" />
      <trkpt lat="45.4674927" lon="9.1900531" />
      <trkpt lat="45.4677584" lon="9.1903404" />
      <trkpt lat="45.4680732" lon="9.1906724" />
      <trkpt lat="45.4682587" lon="9.1908613" />
      <trkpt lat="45.4682507" lon="9.1908740" />
      <trkpt lat="45.4682208" lon="9.1909212" />
      <trkpt lat="45.4682125" lon="9.1909344" />
      <trkpt lat="45.4683925" lon="9.1911214" />
      <trkpt lat="45.4682023" lon="9.1915011" />
      <trkpt lat="45.4681884" lon="9.1915819" />
      <trkpt lat="45.4681697" lon="9.1917381" />
      <trkpt lat="45.4681507" lon="9.1918079" />
      <trkpt lat="45.4680984" lon="9.1919003" />
      <trkpt lat="45.4679714" lon="9.1920631" />
      <trkpt lat="45.4678086" lon="9.1922156" />
      <trkpt lat="45.4673849" lon="9.1925426" />
      <trkpt lat="45.4671723" lon="9.1926814" />
      <trkpt lat="45.4671699" lon="9.1926738" />
      <trkpt lat="45.4671607" lon="9.1926809" />
      <trkpt lat="45.4671110" lon="9.1927207" />
      <trkpt lat="45.4671020" lon="9.1927203" />
      <trkpt lat="45.4670372" lon="9.1925589" />
      <trkpt lat="45.4670412" lon="9.1925299" />
      <trkpt lat="45.4670335" lon="9.1925276" />
      <trkpt lat="45.4670029" lon="9.1925186" />
      <trkpt lat="45.4669536" lon="9.1925040" />
      <trkpt lat="45.4669426" lon="9.1925007" />
      <trkpt lat="45.4668817" lon="9.1926629" />
      <trkpt lat="45.4667671" lon="9.1927284" />
      <trkpt lat="45.4667754" lon="9.1927526" />
      <trkpt lat="45.4667960" lon="9.1928131" />
      <trkpt lat="45.4668192" lon="9.1928814" />
      <trkpt lat="45.4668283" lon="9.1929081" />
      <trkpt lat="45.4668332" lon="9.1929110" />
      <trkpt lat="45.4668438" lon="9.1929172" />
      <trkpt lat="45.4668639" lon="9.1929290" />
      <trkpt lat="45.4668653" lon="9.1929260" />
      <trkpt lat="45.4668843" lon="9.1929383" />
      <trkpt lat="45.4670703" lon="9.1930051" />
      <trkpt lat="45.4671843" lon="9.1934572" />
      <trkpt lat="45.4672009" lon="9.1935221" />
      <trkpt lat="45.4671843" lon="9.1934572" />
      <trkpt lat="45.4670703" lon="9.1930051" />
      <trkpt lat="45.4668843" lon="9.1929383" />
      <trkpt lat="45.4668653" lon="9.1929260" />
      <trkpt lat="45.4668639" lon="9.1929290" />
      <trkpt lat="45.4668438" lon="9.1929172" />
      <trkpt lat="45.4668332" lon="9.1929110" />
      <trkpt lat="45.4668283" lon="9.1929081" />
      <trkpt lat="45.4668192" lon="9.1928814" />
      <trkpt lat="45.4667960" lon="9.1928131" />
      <trkpt lat="45.4667754" lon="9.1927526" />
      <trkpt lat="45.4667671" lon="9.1927284" />
      <trkpt lat="45.4668817" lon="9.1926629" />
      <trkpt lat="45.4669426" lon="9.1925007" />
      <trkpt lat="45.4669462" lon="9.1924713" />
      <trkpt lat="45.4670104" lon="9.1917909" />
      <trkpt lat="45.4670030" lon="9.1916877" />
      <trkpt lat="45.4669271" lon="9.1915083" />
      <trkpt lat="45.4667714" lon="9.1912790" />
      <trkpt lat="45.4667279" lon="9.1912150" />
      <trkpt lat="45.4667157" lon="9.1912083" />
      <trkpt lat="45.4666918" lon="9.1911944" />
      <trkpt lat="45.4666614" lon="9.1911756" />
      <trkpt lat="45.4665187" lon="9.1910906" />
      <trkpt lat="45.4664131" lon="9.1910960" />
      <trkpt lat="45.4661683" lon="9.1908029" />
      <trkpt lat="45.4661480" lon="9.1907788" />
      <trkpt lat="45.4661236" lon="9.1907498" />
      <trkpt lat="45.4660482" lon="9.1908736" />
      <trkpt lat="45.4660304" lon="9.1909037" />
      <trkpt lat="45.4659541" lon="9.1908131" />
      <trkpt lat="45.4659350" lon="9.1908475" />
      <trkpt lat="45.4658665" lon="9.1907643" />
      <trkpt lat="45.4658150" lon="9.1907649" />
      <trkpt lat="45.4656131" lon="9.1907635" />
      <trkpt lat="45.4656127" lon="9.1908102" />
      <trkpt lat="45.4655760" lon="9.1908105" />
      <trkpt lat="45.4655683" lon="9.1908105" />
      <trkpt lat="45.4655740" lon="9.1909391" />
      <trkpt lat="45.4655736" lon="9.1910398" />
      <trkpt lat="45.4656105" lon="9.1910394" />
      <trkpt lat="45.4656089" lon="9.1912201" />
      <trkpt lat="45.4656082" lon="9.1912922" />
      <trkpt lat="45.4656090" lon="9.1913329" />
      <trkpt lat="45.4656092" lon="9.1913433" />
      <trkpt lat="45.4656121" lon="9.1914440" />
      <trkpt lat="45.4656324" lon="9.1914773" />
      <trkpt lat="45.4656378" lon="9.1914861" />
      <trkpt lat="45.4656431" lon="9.1914948" />
      <trkpt lat="45.4656848" lon="9.1915633" />
      <trkpt lat="45.4656907" lon="9.1915708" />
      <trkpt lat="45.4657081" lon="9.1915907" />
      <trkpt lat="45.4657246" lon="9.1916086" />
      <trkpt lat="45.4657108" lon="9.1916339" />
      <trkpt lat="45.4656595" lon="9.1917110" />
      <trkpt lat="45.4656461" lon="9.1917323" />
      <trkpt lat="45.4656276" lon="9.1917559" />
      <trkpt lat="45.4654273" lon="9.1919086" />
      <trkpt lat="45.4654177" lon="9.1919522" />
      <trkpt lat="45.4653184" lon="9.1920388" />
      <trkpt lat="45.4653617" lon="9.1921422" />
      <trkpt lat="45.4654847" lon="9.1923097" />
      <trkpt lat="45.4655062" lon="9.1923393" />
      <trkpt lat="45.4655550" lon="9.1924098" />
      <trkpt lat="45.4655649" lon="9.1924199" />
      <trkpt lat="45.4651906" lon="9.1930413" />
      <trkpt lat="45.4652074" lon="9.1930851" />
      <trkpt lat="45.4652283" lon="9.1931358" />
      <trkpt lat="45.4652328" lon="9.1931469" />
      <trkpt lat="45.4652294" lon="9.1931502" />
      <trkpt lat="45.4652272" lon="9.1931527" />
      <trkpt lat="45.4651974" lon="9.1931811" />
      <trkpt lat="45.4652107" lon="9.1931830" />
      <trkpt lat="45.4652745" lon="9.1933046" />
      <trkpt lat="45.4652990" lon="9.1933495" />
      <trkpt lat="45.4653269" lon="9.1934294" />
      <trkpt lat="45.4653684" lon="9.1935625" />
      <trkpt lat="45.4653753" lon="9.1935879" />
      <trkpt lat="45.4653910" lon="9.1935802" />
      <trkpt lat="45.4654156" lon="9.1935669" />
      <trkpt lat="45.4654327" lon="9.1936102" />
      <trkpt lat="45.4654424" lon="9.1936217" />
      <trkpt lat="45.4654563" lon="9.1936296" />
      <trkpt lat="45.4654703" lon="9.1936326" />
      <trkpt lat="45.4654871" lon="9.1936312" />
      <trkpt lat="45.4655006" lon="9.1936260" />
      <trkpt lat="45.4654731" lon="9.1937634" />
      <trkpt lat="45.4655006" lon="9.1936260" />
      <trkpt lat="45.4654871" lon="9.1936312" />
      <trkpt lat="45.4654703" lon="9.1936326" />
      <trkpt lat="45.4654563" lon="9.1936296" />
      <trkpt lat="45.4654424" lon="9.1936217" />
      <trkpt lat="45.4654327" lon="9.1936102" />
      <trkpt lat="45.4654156" lon="9.1935669" />
      <trkpt lat="45.4653910" lon="9.1935802" />
      <trkpt lat="45.4653753" lon="9.1935879" />
      <trkpt lat="45.4653684" lon="9.1935625" />
      <trkpt lat="45.4653269" lon="9.1934294" />
      <trkpt lat="45.4652990" lon="9.1933495" />
      <trkpt lat="45.4652745" lon="9.1933046" />
      <trkpt lat="45.4652107" lon="9.1931830" />
      <trkpt lat="45.4651974" lon="9.1931811" />
      <trkpt lat="45.4652272" lon="9.1931527" />
      <trkpt lat="45.4652294" lon="9.1931502" />
      <trkpt lat="45.4652328" lon="9.1931469" />
      <trkpt lat="45.4652283" lon="9.1931358" />
      <trkpt lat="45.4652074" lon="9.1930851" />
      <trkpt lat="45.4651906" lon="9.1930413" />
      <trkpt lat="45.4655649" lon="9.1924199" />
      <trkpt lat="45.4655550" lon="9.1924098" />
      <trkpt lat="45.4655062" lon="9.1923393" />
      <trkpt lat="45.4654847" lon="9.1923097" />
      <trkpt lat="45.4653617" lon="9.1921422" />
      <trkpt lat="45.4653184" lon="9.1920388" />
      <trkpt lat="45.4654177" lon="9.1919522" />
      <trkpt lat="45.4654273" lon="9.1919086" />
      <trkpt lat="45.4656276" lon="9.1917559" />
      <trkpt lat="45.4656461" lon="9.1917323" />
      <trkpt lat="45.4656595" lon="9.1917110" />
      <trkpt lat="45.4657108" lon="9.1916339" />
      <trkpt lat="45.4657246" lon="9.1916086" />
      <trkpt lat="45.4657081" lon="9.1915907" />
      <trkpt lat="45.4656907" lon="9.1915708" />
      <trkpt lat="45.4656848" lon="9.1915633" />
      <trkpt lat="45.4656431" lon="9.1914948" />
      <trkpt lat="45.4656378" lon="9.1914861" />
      <trkpt lat="45.4656324" lon="9.1914773" />
      <trkpt lat="45.4656121" lon="9.1914440" />
      <trkpt lat="45.4656092" lon="9.1913433" />
      <trkpt lat="45.4656090" lon="9.1913329" />
      <trkpt lat="45.4656082" lon="9.1912922" />
      <trkpt lat="45.4656089" lon="9.1912201" />
      <trkpt lat="45.4656105" lon="9.1910394" />
      <trkpt lat="45.4655736" lon="9.1910398" />
      <trkpt lat="45.4655740" lon="9.1909391" />
      <trkpt lat="45.4655683" lon="9.1908105" />
      <trkpt lat="45.4650063" lon="9.1908178" />
      <trkpt lat="45.4649958" lon="9.1908180" />
      <trkpt lat="45.4649955" lon="9.1907816" />
      <trkpt lat="45.4649955" lon="9.1907749" />
      <trkpt lat="45.4649955" lon="9.1907679" />
      <trkpt lat="45.4649417" lon="9.1907691" />
      <trkpt lat="45.4648336" lon="9.1907690" />
      <trkpt lat="45.4647643" lon="9.1907699" />
      <trkpt lat="45.4647559" lon="9.1906084" />
      <trkpt lat="45.4646621" lon="9.1904786" />
      <trkpt lat="45.4647559" lon="9.1906084" />
      <trkpt lat="45.4647643" lon="9.1907699" />
      <trkpt lat="45.4647675" lon="9.1909566" />
      <trkpt lat="45.4647675" lon="9.1909702" />
      <trkpt lat="45.4647676" lon="9.1910589" />
      <trkpt lat="45.4647676" lon="9.1910957" />
      <trkpt lat="45.4647796" lon="9.1910960" />
      <trkpt lat="45.4648194" lon="9.1910982" />
      <trkpt lat="45.4648202" lon="9.1913259" />
      <trkpt lat="45.4648216" lon="9.1913504" />
      <trkpt lat="45.4648223" lon="9.1913551" />
      <trkpt lat="45.4648216" lon="9.1913957" />
      <trkpt lat="45.4648212" lon="9.1914219" />
      <trkpt lat="45.4648207" lon="9.1914483" />
      <trkpt lat="45.4648205" lon="9.1914632" />
      <trkpt lat="45.4648121" lon="9.1922176" />
      <trkpt lat="45.4648118" lon="9.1922424" />
      <trkpt lat="45.4648121" lon="9.1922694" />
      <trkpt lat="45.4648120" lon="9.1923044" />
      <trkpt lat="45.4648120" lon="9.1923292" />
      <trkpt lat="45.4647964" lon="9.1923673" />
      <trkpt lat="45.4647925" lon="9.1925163" />
      <trkpt lat="45.4647927" lon="9.1925773" />
      <trkpt lat="45.4647921" lon="9.1927081" />
      <trkpt lat="45.4647961" lon="9.1928010" />
      <trkpt lat="45.4648166" lon="9.1929116" />
      <trkpt lat="45.4648997" lon="9.1932702" />
      <trkpt lat="45.4649046" lon="9.1932837" />
      <trkpt lat="45.4649151" lon="9.1933109" />
      <trkpt lat="45.4649222" lon="9.1933376" />
      <trkpt lat="45.4649421" lon="9.1934032" />
      <trkpt lat="45.4649431" lon="9.1934066" />
      <trkpt lat="45.4649452" lon="9.1934134" />
      <trkpt lat="45.4649515" lon="9.1934409" />
      <trkpt lat="45.4650645" lon="9.1938900" />
      <trkpt lat="45.4650755" lon="9.1939299" />
      <trkpt lat="45.4650792" lon="9.1939432" />
      <trkpt lat="45.4650889" lon="9.1939783" />
      <trkpt lat="45.4650994" lon="9.1940150" />
      <trkpt lat="45.4651035" lon="9.1940266" />
      <trkpt lat="45.4651110" lon="9.1940574" />
      <trkpt lat="45.4650840" lon="9.1940777" />
      <trkpt lat="45.4650659" lon="9.1940991" />
      <trkpt lat="45.4650350" lon="9.1941188" />
      <trkpt lat="45.4649773" lon="9.1941579" />
      <trkpt lat="45.4649652" lon="9.1941659" />
      <trkpt lat="45.4650677" lon="9.1945421" />
      <trkpt lat="45.4650720" lon="9.1945582" />
      <trkpt lat="45.4650792" lon="9.1945842" />
      <trkpt lat="45.4650842" lon="9.1946006" />
      <trkpt lat="45.4648404" lon="9.1947038" />
      <trkpt lat="45.4648277" lon="9.1947834" />
      <trkpt lat="45.4648196" lon="9.1949786" />
      <trkpt lat="45.4648248" lon="9.1951415" />
      <trkpt lat="45.4645350" lon="9.1951923" />
      <trkpt lat="45.4644331" lon="9.1952091" />
      <trkpt lat="45.4644072" lon="9.1952141" />
      <trkpt lat="45.4644090" lon="9.1952477" />
      <trkpt lat="45.4644163" lon="9.1953905" />
      <trkpt lat="45.4644201" lon="9.1954685" />
      <trkpt lat="45.4644360" lon="9.1957847" />
      <trkpt lat="45.4644542" lon="9.1957839" />
      <trkpt lat="45.4647357" lon="9.1957715" />
      <trkpt lat="45.4649157" lon="9.1957029" />
      <trkpt lat="45.4650951" lon="9.1963869" />
      <trkpt lat="45.4651216" lon="9.1964079" />
      <trkpt lat="45.4649181" lon="9.1965298" />
      <trkpt lat="45.4647296" lon="9.1966439" />
      <trkpt lat="45.4647264" lon="9.1966593" />
      <trkpt lat="45.4647339" lon="9.1966672" />
      <trkpt lat="45.4647802" lon="9.1967158" />
      <trkpt lat="45.4649740" lon="9.1969013" />
      <trkpt lat="45.4652510" lon="9.1971846" />
      <trkpt lat="45.4652680" lon="9.1972044" />
      <trkpt lat="45.4652863" lon="9.1972246" />
      <trkpt lat="45.4654316" lon="9.1973642" />
      <trkpt lat="45.4654650" lon="9.1973984" />
      <trkpt lat="45.4654780" lon="9.1974124" />
      <trkpt lat="45.4654936" lon="9.1974252" />
      <trkpt lat="45.4655604" lon="9.1974816" />
      <trkpt lat="45.4655869" lon="9.1974922" />
      <trkpt lat="45.4656446" lon="9.1975141" />
      <trkpt lat="45.4660114" lon="9.1975389" />
      <trkpt lat="45.4660125" lon="9.1974880" />
      <trkpt lat="45.4660133" lon="9.1974356" />
      <trkpt lat="45.4660326" lon="9.1974357" />
      <trkpt lat="45.4660635" lon="9.1974456" />
      <trkpt lat="45.4661228" lon="9.1974483" />
      <trkpt lat="45.4661901" lon="9.1974504" />
      <trkpt lat="45.4664876" lon="9.1975515" />
      <trkpt lat="45.4664724" lon="9.1978047" />
      <trkpt lat="45.4665073" lon="9.1978089" />
      <trkpt lat="45.4665400" lon="9.1978306" />
      <trkpt lat="45.4665661" lon="9.1978445" />
      <trkpt lat="45.4668378" lon="9.1979795" />
      <trkpt lat="45.4668462" lon="9.1980032" />
      <trkpt lat="45.4668541" lon="9.1980257" />
      <trkpt lat="45.4668588" lon="9.1980391" />
      <trkpt lat="45.4668783" lon="9.1980368" />
      <trkpt lat="45.4668917" lon="9.1980345" />
      <trkpt lat="45.4668988" lon="9.1980333" />
      <trkpt lat="45.4669593" lon="9.1980172" />
      <trkpt lat="45.4669628" lon="9.1980382" />
      <trkpt lat="45.4669651" lon="9.1980516" />
      <trkpt lat="45.4669676" lon="9.1980679" />
      <trkpt lat="45.4670892" lon="9.1980413" />
      <trkpt lat="45.4671470" lon="9.1979977" />
      <trkpt lat="45.4671915" lon="9.1980653" />
      <trkpt lat="45.4672311" lon="9.1981079" />
      <trkpt lat="45.4676239" lon="9.1983498" />
      <trkpt lat="45.4682916" lon="9.1988949" />
      <trkpt lat="45.4683672" lon="9.1988753" />
      <trkpt lat="45.4682916" lon="9.1988949" />
      <trkpt lat="45.4676239" lon="9.1983498" />
      <trkpt lat="45.4672311" lon="9.1981079" />
      <trkpt lat="45.4671915" lon="9.1980653" />
      <trkpt lat="45.4671470" lon="9.1979977" />
      <trkpt lat="45.4670892" lon="9.1980413" />
      <trkpt lat="45.4669676" lon="9.1980679" />
      <trkpt lat="45.4669651" lon="9.1980516" />
      <trkpt lat="45.4669628" lon="9.1980382" />
      <trkpt lat="45.4669593" lon="9.1980172" />
      <trkpt lat="45.4668988" lon="9.1980333" />
      <trkpt lat="45.4668917" lon="9.1980345" />
      <trkpt lat="45.4668783" lon="9.1980368" />
      <trkpt lat="45.4668588" lon="9.1980391" />
      <trkpt lat="45.4668541" lon="9.1980257" />
      <trkpt lat="45.4668462" lon="9.1980032" />
      <trkpt lat="45.4668378" lon="9.1979795" />
      <trkpt lat="45.4665661" lon="9.1978445" />
      <trkpt lat="45.4665400" lon="9.1978306" />
      <trkpt lat="45.4665073" lon="9.1978089" />
      <trkpt lat="45.4664724" lon="9.1978047" />
      <trkpt lat="45.4663035" lon="9.1977866" />
      <trkpt lat="45.4662606" lon="9.1978259" />
      <trkpt lat="45.4662367" lon="9.1978402" />
      <trkpt lat="45.4662205" lon="9.1978499" />
      <trkpt lat="45.4662041" lon="9.1978490" />
      <trkpt lat="45.4661476" lon="9.1978467" />
      <trkpt lat="45.4661369" lon="9.1978461" />
      <trkpt lat="45.4661361" lon="9.1978725" />
      <trkpt lat="45.4661347" lon="9.1978982" />
      <trkpt lat="45.4661330" lon="9.1979253" />
      <trkpt lat="45.4659702" lon="9.1979080" />
      <trkpt lat="45.4659690" lon="9.1979493" />
      <trkpt lat="45.4659454" lon="9.1985473" />
      <trkpt lat="45.4659433" lon="9.1985900" />
      <trkpt lat="45.4659418" lon="9.1986493" />
      <trkpt lat="45.4659169" lon="9.1991893" />
      <trkpt lat="45.4659138" lon="9.1992108" />
      <trkpt lat="45.4659121" lon="9.1992421" />
      <trkpt lat="45.4659093" lon="9.1992913" />
      <trkpt lat="45.4659074" lon="9.1993256" />
      <trkpt lat="45.4659051" lon="9.1993679" />
      <trkpt lat="45.4658847" lon="9.1993983" />
      <trkpt lat="45.4658657" lon="9.2001187" />
      <trkpt lat="45.4658670" lon="9.2001258" />
      <trkpt lat="45.4658684" lon="9.2001341" />
      <trkpt lat="45.4658686" lon="9.2001443" />
      <trkpt lat="45.4658689" lon="9.2001506" />
      <trkpt lat="45.4658645" lon="9.2003771" />
      <trkpt lat="45.4658808" lon="9.2003933" />
      <trkpt lat="45.4658848" lon="9.2004309" />
      <trkpt lat="45.4658911" lon="9.2004906" />
      <trkpt lat="45.4658979" lon="9.2005538" />
      <trkpt lat="45.4658986" lon="9.2005660" />
      <trkpt lat="45.4658881" lon="9.2006128" />
      <trkpt lat="45.4658721" lon="9.2006064" />
      <trkpt lat="45.4657987" lon="9.2005998" />
      <trkpt lat="45.4658462" lon="9.2009433" />
      <trkpt lat="45.4658588" lon="9.2010160" />
      <trkpt lat="45.4660159" lon="9.2018167" />
      <trkpt lat="45.4659429" lon="9.2018543" />
      <trkpt lat="45.4660159" lon="9.2018167" />
      <trkpt lat="45.4658588" lon="9.2010160" />
      <trkpt lat="45.4658462" lon="9.2009433" />
      <trkpt lat="45.4657987" lon="9.2005998" />
      <trkpt lat="45.4658721" lon="9.2006064" />
      <trkpt lat="45.4658881" lon="9.2006128" />
      <trkpt lat="45.4658986" lon="9.2005660" />
      <trkpt lat="45.4658979" lon="9.2005538" />
      <trkpt lat="45.4658911" lon="9.2004906" />
      <trkpt lat="45.4658848" lon="9.2004309" />
      <trkpt lat="45.4658808" lon="9.2003933" />
      <trkpt lat="45.4658645" lon="9.2003771" />
      <trkpt lat="45.4658689" lon="9.2001506" />
      <trkpt lat="45.4658686" lon="9.2001443" />
      <trkpt lat="45.4658684" lon="9.2001341" />
      <trkpt lat="45.4658670" lon="9.2001258" />
      <trkpt lat="45.4658657" lon="9.2001187" />
      <trkpt lat="45.4658847" lon="9.1993983" />
      <trkpt lat="45.4659051" lon="9.1993679" />
      <trkpt lat="45.4659074" lon="9.1993256" />
      <trkpt lat="45.4659093" lon="9.1992913" />
      <trkpt lat="45.4659121" lon="9.1992421" />
      <trkpt lat="45.4659138" lon="9.1992108" />
      <trkpt lat="45.4659121" lon="9.1992421" />
      <trkpt lat="45.4659093" lon="9.1992913" />
      <trkpt lat="45.4658897" lon="9.1992929" />
      <trkpt lat="45.4658570" lon="9.1993029" />
      <trkpt lat="45.4658392" lon="9.1993108" />
      <trkpt lat="45.4658138" lon="9.1993309" />
      <trkpt lat="45.4657740" lon="9.1993532" />
      <trkpt lat="45.4657646" lon="9.1993639" />
      <trkpt lat="45.4657470" lon="9.1993768" />
      <trkpt lat="45.4657285" lon="9.1993870" />
      <trkpt lat="45.4657090" lon="9.1993974" />
      <trkpt lat="45.4656885" lon="9.1994050" />
      <trkpt lat="45.4656805" lon="9.1994129" />
      <trkpt lat="45.4656806" lon="9.1994480" />
      <trkpt lat="45.4656803" lon="9.1994560" />
      <trkpt lat="45.4656885" lon="9.1994813" />
      <trkpt lat="45.4656823" lon="9.1996725" />
      <trkpt lat="45.4656738" lon="9.1999327" />
      <trkpt lat="45.4656705" lon="9.2000358" />
      <trkpt lat="45.4656704" lon="9.2000434" />
      <trkpt lat="45.4656701" lon="9.2000647" />
      <trkpt lat="45.4656695" lon="9.2000922" />
      <trkpt lat="45.4656697" lon="9.2000942" />
      <trkpt lat="45.4656614" lon="9.2003197" />
      <trkpt lat="45.4656539" lon="9.2003247" />
      <trkpt lat="45.4656566" lon="9.2003360" />
      <trkpt lat="45.4656745" lon="9.2004110" />
      <trkpt lat="45.4656893" lon="9.2004733" />
      <trkpt lat="45.4657033" lon="9.2005272" />
      <trkpt lat="45.4657089" lon="9.2005501" />
      <trkpt lat="45.4657230" lon="9.2005944" />
      <trkpt lat="45.4657665" lon="9.2005974" />
      <trkpt lat="45.4657987" lon="9.2005998" />
      <trkpt lat="45.4658462" lon="9.2009433" />
      <trkpt lat="45.4658588" lon="9.2010160" />
      <trkpt lat="45.4660159" lon="9.2018167" />
      <trkpt lat="45.4659429" lon="9.2018543" />
      <trkpt lat="45.4659043" lon="9.2018707" />
      <trkpt lat="45.4657432" lon="9.2019473" />
      <trkpt lat="45.4656942" lon="9.2019709" />
      <trkpt lat="45.4657156" lon="9.2020914" />
      <trkpt lat="45.4657221" lon="9.2021366" />
      <trkpt lat="45.4657400" lon="9.2022616" />
      <trkpt lat="45.4657546" lon="9.2023881" />
      <trkpt lat="45.4657749" lon="9.2024998" />
      <trkpt lat="45.4658102" lon="9.2026947" />
      <trkpt lat="45.4658182" lon="9.2027241" />
      <trkpt lat="45.4656078" lon="9.2028055" />
      <trkpt lat="45.4652019" lon="9.2029556" />
      <trkpt lat="45.4651797" lon="9.2029262" />
      <trkpt lat="45.4651704" lon="9.2029249" />
      <trkpt lat="45.4651445" lon="9.2029209" />
      <trkpt lat="45.4651184" lon="9.2029153" />
      <trkpt lat="45.4651159" lon="9.2029142" />
      <trkpt lat="45.4651018" lon="9.2029303" />
      <trkpt lat="45.4651039" lon="9.2029450" />
      <trkpt lat="45.4651121" lon="9.2030046" />
      <trkpt lat="45.4651173" lon="9.2030428" />
      <trkpt lat="45.4651187" lon="9.2030499" />
      <trkpt lat="45.4653614" lon="9.2029782" />
      <trkpt lat="45.4653937" lon="9.2030248" />
      <trkpt lat="45.4654993" lon="9.2038446" />
      <trkpt lat="45.4655023" lon="9.2038763" />
      <trkpt lat="45.4655144" lon="9.2038744" />
      <trkpt lat="45.4655463" lon="9.2038693" />
      <trkpt lat="45.4655692" lon="9.2038657" />
      <trkpt lat="45.4655793" lon="9.2038641" />
      <trkpt lat="45.4655902" lon="9.2038727" />
      <trkpt lat="45.4662570" lon="9.2036889" />
      <trkpt lat="45.4662582" lon="9.2037025" />
      <trkpt lat="45.4662617" lon="9.2037424" />
      <trkpt lat="45.4662650" lon="9.2037814" />
      <trkpt lat="45.4662658" lon="9.2037903" />
      <trkpt lat="45.4662743" lon="9.2038575" />
      <trkpt lat="45.4663399" lon="9.2038425" />
      <trkpt lat="45.4663723" lon="9.2038351" />
      <trkpt lat="45.4664065" lon="9.2038273" />
      <trkpt lat="45.4664702" lon="9.2038128" />
      <trkpt lat="45.4664900" lon="9.2039814" />
      <trkpt lat="45.4665191" lon="9.2044988" />
      <trkpt lat="45.4665211" lon="9.2045345" />
      <trkpt lat="45.4665262" lon="9.2046069" />
      <trkpt lat="45.4665402" lon="9.2046035" />
      <trkpt lat="45.4671270" lon="9.2044886" />
      <trkpt lat="45.4674520" lon="9.2043836" />
      <trkpt lat="45.4675087" lon="9.2043638" />
      <trkpt lat="45.4675568" lon="9.2043470" />
      <trkpt lat="45.4675677" lon="9.2043434" />
      <trkpt lat="45.4675720" lon="9.2043416" />
      <trkpt lat="45.4675848" lon="9.2043386" />
      <trkpt lat="45.4676049" lon="9.2043995" />
      <trkpt lat="45.4676666" lon="9.2044737" />
      <trkpt lat="45.4681565" lon="9.2043156" />
      <trkpt lat="45.4676666" lon="9.2044737" />
      <trkpt lat="45.4676049" lon="9.2043995" />
      <trkpt lat="45.4675848" lon="9.2043386" />
      <trkpt lat="45.4675720" lon="9.2043416" />
      <trkpt lat="45.4675677" lon="9.2043434" />
      <trkpt lat="45.4675568" lon="9.2043470" />
      <trkpt lat="45.4675087" lon="9.2043638" />
      <trkpt lat="45.4674520" lon="9.2043836" />
      <trkpt lat="45.4671270" lon="9.2044886" />
      <trkpt lat="45.4665402" lon="9.2046035" />
      <trkpt lat="45.4665423" lon="9.2046361" />
      <trkpt lat="45.4665452" lon="9.2046815" />
      <trkpt lat="45.4665461" lon="9.2046962" />
      <trkpt lat="45.4665516" lon="9.2047834" />
      <trkpt lat="45.4665518" lon="9.2047867" />
      <trkpt lat="45.4665359" lon="9.2047889" />
      <trkpt lat="45.4665664" lon="9.2053016" />
      <trkpt lat="45.4665852" lon="9.2056910" />
      <trkpt lat="45.4665889" lon="9.2057591" />
      <trkpt lat="45.4666057" lon="9.2057818" />
      <trkpt lat="45.4666272" lon="9.2057798" />
      <trkpt lat="45.4666278" lon="9.2057899" />
      <trkpt lat="45.4666304" lon="9.2058313" />
      <trkpt lat="45.4666332" lon="9.2058755" />
      <trkpt lat="45.4666409" lon="9.2059972" />
      <trkpt lat="45.4666451" lon="9.2060632" />
      <trkpt lat="45.4666492" lon="9.2061291" />
      <trkpt lat="45.4666540" lon="9.2061744" />
      <trkpt lat="45.4666573" lon="9.2062216" />
      <trkpt lat="45.4657982" lon="9.2063579" />
      <trkpt lat="45.4653128" lon="9.2064345" />
      <trkpt lat="45.4652994" lon="9.2064604" />
      <trkpt lat="45.4652859" lon="9.2064863" />
      <trkpt lat="45.4653114" lon="9.2070715" />
      <trkpt lat="45.4653272" lon="9.2070926" />
      <trkpt lat="45.4653602" lon="9.2070892" />
      <trkpt lat="45.4653610" lon="9.2071241" />
      <trkpt lat="45.4653611" lon="9.2071284" />
      <trkpt lat="45.4653612" lon="9.2071327" />
      <trkpt lat="45.4653620" lon="9.2071733" />
      <trkpt lat="45.4653625" lon="9.2071971" />
      <trkpt lat="45.4653632" lon="9.2072282" />
      <trkpt lat="45.4653635" lon="9.2072434" />
      <trkpt lat="45.4654014" lon="9.2072400" />
      <trkpt lat="45.4654028" lon="9.2072706" />
      <trkpt lat="45.4654035" lon="9.2072846" />
      <trkpt lat="45.4654045" lon="9.2073065" />
      <trkpt lat="45.4654055" lon="9.2073300" />
      <trkpt lat="45.4654091" lon="9.2074065" />
      <trkpt lat="45.4654107" lon="9.2074417" />
      <trkpt lat="45.4654125" lon="9.2074747" />
      <trkpt lat="45.4653977" lon="9.2075050" />
      <trkpt lat="45.4656053" lon="9.2086831" />
      <trkpt lat="45.4653977" lon="9.2075050" />
      <trkpt lat="45.4654125" lon="9.2074747" />
      <trkpt lat="45.4654107" lon="9.2074417" />
      <trkpt lat="45.4654091" lon="9.2074065" />
      <trkpt lat="45.4654055" lon="9.2073300" />
      <trkpt lat="45.4654045" lon="9.2073065" />
      <trkpt lat="45.4654035" lon="9.2072846" />
      <trkpt lat="45.4654028" lon="9.2072706" />
      <trkpt lat="45.4654014" lon="9.2072400" />
      <trkpt lat="45.4653635" lon="9.2072434" />
      <trkpt lat="45.4653632" lon="9.2072282" />
      <trkpt lat="45.4653625" lon="9.2071971" />
      <trkpt lat="45.4653620" lon="9.2071733" />
      <trkpt lat="45.4653612" lon="9.2071327" />
      <trkpt lat="45.4653611" lon="9.2071284" />
      <trkpt lat="45.4653610" lon="9.2071241" />
      <trkpt lat="45.4653602" lon="9.2070892" />
      <trkpt lat="45.4653272" lon="9.2070926" />
      <trkpt lat="45.4653114" lon="9.2070715" />
      <trkpt lat="45.4652859" lon="9.2064863" />
      <trkpt lat="45.4652994" lon="9.2064604" />
      <trkpt lat="45.4653128" lon="9.2064345" />
      <trkpt lat="45.4657982" lon="9.2063579" />
      <trkpt lat="45.4657945" lon="9.2063102" />
      <trkpt lat="45.4657850" lon="9.2062699" />
      <trkpt lat="45.4657820" lon="9.2062199" />
      <trkpt lat="45.4657811" lon="9.2062067" />
      <trkpt lat="45.4657754" lon="9.2061177" />
      <trkpt lat="45.4657547" lon="9.2061201" />
      <trkpt lat="45.4657050" lon="9.2061257" />
      <trkpt lat="45.4657547" lon="9.2061201" />
      <trkpt lat="45.4657754" lon="9.2061177" />
      <trkpt lat="45.4657811" lon="9.2062067" />
      <trkpt lat="45.4657820" lon="9.2062199" />
      <trkpt lat="45.4657850" lon="9.2062699" />
      <trkpt lat="45.4657945" lon="9.2063102" />
      <trkpt lat="45.4657982" lon="9.2063579" />
      <trkpt lat="45.4653128" lon="9.2064345" />
      <trkpt lat="45.4652994" lon="9.2064604" />
      <trkpt lat="45.4652859" lon="9.2064863" />
      <trkpt lat="45.4653114" lon="9.2070715" />
      <trkpt lat="45.4653272" lon="9.2070926" />
      <trkpt lat="45.4653602" lon="9.2070892" />
      <trkpt lat="45.4653610" lon="9.2071241" />
      <trkpt lat="45.4653611" lon="9.2071284" />
      <trkpt lat="45.4653612" lon="9.2071327" />
      <trkpt lat="45.4653620" lon="9.2071733" />
      <trkpt lat="45.4653625" lon="9.2071971" />
      <trkpt lat="45.4653632" lon="9.2072282" />
      <trkpt lat="45.4653635" lon="9.2072434" />
      <trkpt lat="45.4654014" lon="9.2072400" />
      <trkpt lat="45.4654028" lon="9.2072706" />
      <trkpt lat="45.4654035" lon="9.2072846" />
      <trkpt lat="45.4654045" lon="9.2073065" />
      <trkpt lat="45.4654055" lon="9.2073300" />
      <trkpt lat="45.4654091" lon="9.2074065" />
      <trkpt lat="45.4654107" lon="9.2074417" />
      <trkpt lat="45.4654125" lon="9.2074747" />
      <trkpt lat="45.4653977" lon="9.2075050" />
      <trkpt lat="45.4656053" lon="9.2086831" />
      <trkpt lat="45.4656025" lon="9.2086841" />
      <trkpt lat="45.4655674" lon="9.2086969" />
      <trkpt lat="45.4655374" lon="9.2087078" />
      <trkpt lat="45.4655336" lon="9.2087092" />
      <trkpt lat="45.4657529" lon="9.2099379" />
      <trkpt lat="45.4657904" lon="9.2101990" />
      <trkpt lat="45.4657772" lon="9.2102123" />
      <trkpt lat="45.4654246" lon="9.2102109" />
      <trkpt lat="45.4657772" lon="9.2102123" />
      <trkpt lat="45.4657796" lon="9.2102277" />
      <trkpt lat="45.4657866" lon="9.2102725" />
      <trkpt lat="45.4657972" lon="9.2103399" />
      <trkpt lat="45.4658003" lon="9.2103596" />
      <trkpt lat="45.4658254" lon="9.2103742" />
      <trkpt lat="45.4658352" lon="9.2103733" />
      <trkpt lat="45.4658661" lon="9.2103705" />
      <trkpt lat="45.4659131" lon="9.2103664" />
      <trkpt lat="45.4659195" lon="9.2103658" />
      <trkpt lat="45.4660640" lon="9.2111798" />
      <trkpt lat="45.4660873" lon="9.2111796" />
      <trkpt lat="45.4665295" lon="9.2111761" />
      <trkpt lat="45.4665296" lon="9.2111926" />
      <trkpt lat="45.4665300" lon="9.2112818" />
      <trkpt lat="45.4665310" lon="9.2113636" />
      <trkpt lat="45.4665312" lon="9.2113920" />
      <trkpt lat="45.4665517" lon="9.2113918" />
      <trkpt lat="45.4665920" lon="9.2113914" />
      <trkpt lat="45.4666448" lon="9.2113904" />
      <trkpt lat="45.4666569" lon="9.2113902" />
      <trkpt lat="45.4666567" lon="9.2113741" />
      <trkpt lat="45.4675057" lon="9.2113509" />
      <trkpt lat="45.4675285" lon="9.2113500" />
      <trkpt lat="45.4675473" lon="9.2113729" />
      <trkpt lat="45.4675477" lon="9.2113985" />
      <trkpt lat="45.4675683" lon="9.2113997" />
      <trkpt lat="45.4675969" lon="9.2114014" />
      <trkpt lat="45.4676524" lon="9.2114046" />
      <trkpt lat="45.4676855" lon="9.2114065" />
      <trkpt lat="45.4676853" lon="9.2113826" />
      <trkpt lat="45.4677208" lon="9.2113821" />
      <trkpt lat="45.4677310" lon="9.2113820" />
      <trkpt lat="45.4677413" lon="9.2113819" />
      <trkpt lat="45.4677696" lon="9.2113815" />
      <trkpt lat="45.4679394" lon="9.2113794" />
      <trkpt lat="45.4679975" lon="9.2113787" />
      <trkpt lat="45.4680917" lon="9.2113775" />
      <trkpt lat="45.4681028" lon="9.2113774" />
      <trkpt lat="45.4681136" lon="9.2113772" />
      <trkpt lat="45.4681485" lon="9.2113768" />
      <trkpt lat="45.4681808" lon="9.2113764" />
      <trkpt lat="45.4682146" lon="9.2113560" />
      <trkpt lat="45.4682442" lon="9.2113541" />
      <trkpt lat="45.4682540" lon="9.2113534" />
      <trkpt lat="45.4682788" lon="9.2113515" />
      <trkpt lat="45.4683096" lon="9.2113508" />
      <trkpt lat="45.4691565" lon="9.2113284" />
      <trkpt lat="45.4691711" lon="9.2113375" />
      <trkpt lat="45.4691751" lon="9.2113649" />
      <trkpt lat="45.4691943" lon="9.2132519" />
      <trkpt lat="45.4691944" lon="9.2132639" />
      <trkpt lat="45.4691951" lon="9.2133196" />
      <trkpt lat="45.4691958" lon="9.2133873" />
      <trkpt lat="45.4691959" lon="9.2134017" />
      <trkpt lat="45.4692073" lon="9.2134017" />
      <trkpt lat="45.4692442" lon="9.2134015" />
      <trkpt lat="45.4692957" lon="9.2134012" />
      <trkpt lat="45.4693168" lon="9.2134011" />
      <trkpt lat="45.4693214" lon="9.2146062" />
      <trkpt lat="45.4693215" lon="9.2146197" />
      <trkpt lat="45.4693224" lon="9.2147297" />
      <trkpt lat="45.4693233" lon="9.2148511" />
      <trkpt lat="45.4693235" lon="9.2148804" />
      <trkpt lat="45.4693335" lon="9.2158777" />
      <trkpt lat="45.4693337" lon="9.2158945" />
      <trkpt lat="45.4693343" lon="9.2159544" />
      <trkpt lat="45.4693350" lon="9.2160212" />
      <trkpt lat="45.4693351" lon="9.2160348" />
      <trkpt lat="45.4693253" lon="9.2160351" />
      <trkpt lat="45.4692750" lon="9.2160364" />
      <trkpt lat="45.4692312" lon="9.2160376" />
      <trkpt lat="45.4692221" lon="9.2160379" />
      <trkpt lat="45.4685645" lon="9.2160470" />
      <trkpt lat="45.4685649" lon="9.2160664" />
      <trkpt lat="45.4685494" lon="9.2160669" />
      <trkpt lat="45.4685209" lon="9.2160679" />
      <trkpt lat="45.4685040" lon="9.2160684" />
      <trkpt lat="45.4684838" lon="9.2160691" />
      <trkpt lat="45.4684851" lon="9.2162081" />
      <trkpt lat="45.4684879" lon="9.2165051" />
      <trkpt lat="45.4684880" lon="9.2165171" />
      <trkpt lat="45.4683346" lon="9.2165190" />
      <trkpt lat="45.4683351" lon="9.2165843" />
      <trkpt lat="45.4683365" lon="9.2167114" />
      <trkpt lat="45.4683399" lon="9.2167623" />
      <trkpt lat="45.4683378" lon="9.2168327" />
      <trkpt lat="45.4683397" lon="9.2170028" />
      <trkpt lat="45.4683398" lon="9.2170139" />
      <trkpt lat="45.4683293" lon="9.2170142" />
      <trkpt lat="45.4682707" lon="9.2170157" />
      <trkpt lat="45.4682435" lon="9.2170115" />
      <trkpt lat="45.4682180" lon="9.2170120" />
      <trkpt lat="45.4681662" lon="9.2170129" />
      <trkpt lat="45.4677891" lon="9.2170190" />
      <trkpt lat="45.4677470" lon="9.2170196" />
      <trkpt lat="45.4677472" lon="9.2170484" />
      <trkpt lat="45.4677142" lon="9.2170490" />
      <trkpt lat="45.4676689" lon="9.2170484" />
      <trkpt lat="45.4676286" lon="9.2170492" />
      <trkpt lat="45.4676121" lon="9.2170496" />
      <trkpt lat="45.4675738" lon="9.2170504" />
      <trkpt lat="45.4674498" lon="9.2170529" />
      <trkpt lat="45.4674395" lon="9.2170532" />
      <trkpt lat="45.4674133" lon="9.2170537" />
      <trkpt lat="45.4673953" lon="9.2170538" />
      <trkpt lat="45.4673727" lon="9.2170540" />
      <trkpt lat="45.4673728" lon="9.2170657" />
      <trkpt lat="45.4667222" lon="9.2170799" />
      <trkpt lat="45.4667128" lon="9.2170630" />
      <trkpt lat="45.4667012" lon="9.2170632" />
      <trkpt lat="45.4666527" lon="9.2170638" />
      <trkpt lat="45.4666175" lon="9.2170643" />
      <trkpt lat="45.4665994" lon="9.2170645" />
      <trkpt lat="45.4665858" lon="9.2170846" />
      <trkpt lat="45.4655785" lon="9.2171011" />
      <trkpt lat="45.4655623" lon="9.2170867" />
      <trkpt lat="45.4655559" lon="9.2161247" />
      <trkpt lat="45.4655557" lon="9.2161097" />
      <trkpt lat="45.4655548" lon="9.2160234" />
      <trkpt lat="45.4655546" lon="9.2159722" />
      <trkpt lat="45.4655540" lon="9.2159575" />
      <trkpt lat="45.4655453" lon="9.2148859" />
      <trkpt lat="45.4655316" lon="9.2148863" />
      <trkpt lat="45.4655033" lon="9.2148870" />
      <trkpt lat="45.4655026" lon="9.2147312" />
      <trkpt lat="45.4655024" lon="9.2145756" />
      <trkpt lat="45.4654696" lon="9.2145763" />
      <trkpt lat="45.4654573" lon="9.2145766" />
      <trkpt lat="45.4654511" lon="9.2134903" />
      <trkpt lat="45.4654364" lon="9.2134893" />
      <trkpt lat="45.4654349" lon="9.2134516" />
      <trkpt lat="45.4654330" lon="9.2134067" />
      <trkpt lat="45.4654325" lon="9.2133953" />
      <trkpt lat="45.4654313" lon="9.2133667" />
      <trkpt lat="45.4654525" lon="9.2133390" />
      <trkpt lat="45.4650622" lon="9.2114295" />
      <trkpt lat="45.4650347" lon="9.2114085" />
      <trkpt lat="45.4650314" lon="9.2113908" />
      <trkpt lat="45.4650189" lon="9.2113148" />
      <trkpt lat="45.4650016" lon="9.2112329" />
      <trkpt lat="45.4649969" lon="9.2112086" />
      <trkpt lat="45.4650102" lon="9.2111908" />
      <trkpt lat="45.4648598" lon="9.2104061" />
      <trkpt lat="45.4648384" lon="9.2103873" />
      <trkpt lat="45.4648337" lon="9.2103584" />
      <trkpt lat="45.4648228" lon="9.2102919" />
      <trkpt lat="45.4648152" lon="9.2102546" />
      <trkpt lat="45.4648115" lon="9.2102368" />
      <trkpt lat="45.4648251" lon="9.2102078" />
      <trkpt lat="45.4645647" lon="9.2088895" />
      <trkpt lat="45.4645807" lon="9.2088903" />
      <trkpt lat="45.4646181" lon="9.2088921" />
      <trkpt lat="45.4646028" lon="9.2087949" />
      <trkpt lat="45.4645838" lon="9.2086963" />
      <trkpt lat="45.4643682" lon="9.2075976" />
      <trkpt lat="45.4643502" lon="9.2075128" />
      <trkpt lat="45.4643430" lon="9.2074020" />
      <trkpt lat="45.4643424" lon="9.2073874" />
      <trkpt lat="45.4643413" lon="9.2073694" />
      <trkpt lat="45.4643385" lon="9.2073230" />
      <trkpt lat="45.4643330" lon="9.2072356" />
      <trkpt lat="45.4643281" lon="9.2071736" />
      <trkpt lat="45.4642942" lon="9.2066071" />
      <trkpt lat="45.4642903" lon="9.2065457" />
      <trkpt lat="45.4642881" lon="9.2065070" />
      <trkpt lat="45.4642769" lon="9.2063304" />
      <trkpt lat="45.4642662" lon="9.2061570" />
      <trkpt lat="45.4638482" lon="9.2062124" />
      <trkpt lat="45.4638436" lon="9.2061688" />
      <trkpt lat="45.4638276" lon="9.2060984" />
      <trkpt lat="45.4637465" lon="9.2052364" />
      <trkpt lat="45.4637634" lon="9.2052296" />
      <trkpt lat="45.4637802" lon="9.2052210" />
      <trkpt lat="45.4637960" lon="9.2051892" />
      <trkpt lat="45.4638001" lon="9.2051659" />
      <trkpt lat="45.4637994" lon="9.2051464" />
      <trkpt lat="45.4637984" lon="9.2051248" />
      <trkpt lat="45.4637965" lon="9.2051075" />
      <trkpt lat="45.4637659" lon="9.2050764" />
      <trkpt lat="45.4637140" lon="9.2045324" />
      <trkpt lat="45.4636952" lon="9.2045352" />
      <trkpt lat="45.4636703" lon="9.2045386" />
      <trkpt lat="45.4636621" lon="9.2044622" />
      <trkpt lat="45.4635809" lon="9.2036538" />
      <trkpt lat="45.4635636" lon="9.2034441" />
      <trkpt lat="45.4635834" lon="9.2034415" />
      <trkpt lat="45.4635996" lon="9.2034384" />
      <trkpt lat="45.4636080" lon="9.2034043" />
      <trkpt lat="45.4639620" lon="9.2033119" />
      <trkpt lat="45.4639875" lon="9.2033056" />
      <trkpt lat="45.4643379" lon="9.2032236" />
      <trkpt lat="45.4643669" lon="9.2032173" />
      <trkpt lat="45.4643861" lon="9.2032133" />
      <trkpt lat="45.4644139" lon="9.2032091" />
      <trkpt lat="45.4651187" lon="9.2030499" />
      <trkpt lat="45.4651173" lon="9.2030428" />
      <trkpt lat="45.4651121" lon="9.2030046" />
      <trkpt lat="45.4651039" lon="9.2029450" />
      <trkpt lat="45.4651018" lon="9.2029303" />
      <trkpt lat="45.4651159" lon="9.2029142" />
      <trkpt lat="45.4650233" lon="9.2021559" />
      <trkpt lat="45.4649003" lon="9.2011463" />
      <trkpt lat="45.4647781" lon="9.2001404" />
      <trkpt lat="45.4647751" lon="9.2001135" />
      <trkpt lat="45.4647495" lon="9.2000972" />
      <trkpt lat="45.4647530" lon="9.2000856" />
      <trkpt lat="45.4647711" lon="9.2000250" />
      <trkpt lat="45.4647888" lon="9.1999659" />
      <trkpt lat="45.4647977" lon="9.1999362" />
      <trkpt lat="45.4648004" lon="9.1999271" />
      <trkpt lat="45.4642486" lon="9.1996311" />
      <trkpt lat="45.4642066" lon="9.1996070" />
      <trkpt lat="45.4642458" lon="9.1994407" />
      <trkpt lat="45.4642562" lon="9.1993964" />
      <trkpt lat="45.4642175" lon="9.1993667" />
      <trkpt lat="45.4641721" lon="9.1993318" />
      <trkpt lat="45.4638447" lon="9.1990207" />
      <trkpt lat="45.4637777" lon="9.1989551" />
      <trkpt lat="45.4637319" lon="9.1989077" />
      <trkpt lat="45.4635669" lon="9.1987280" />
      <trkpt lat="45.4633823" lon="9.1985282" />
      <trkpt lat="45.4633860" lon="9.1984977" />
      <trkpt lat="45.4633888" lon="9.1984646" />
      <trkpt lat="45.4634626" lon="9.1981522" />
      <trkpt lat="45.4634674" lon="9.1981374" />
      <trkpt lat="45.4634842" lon="9.1980911" />
      <trkpt lat="45.4634899" lon="9.1980755" />
      <trkpt lat="45.4634966" lon="9.1980570" />
      <trkpt lat="45.4634883" lon="9.1980233" />
      <trkpt lat="45.4635886" lon="9.1975487" />
      <trkpt lat="45.4635946" lon="9.1975269" />
      <trkpt lat="45.4636141" lon="9.1974396" />
      <trkpt lat="45.4636264" lon="9.1973841" />
      <trkpt lat="45.4636312" lon="9.1973629" />
      <trkpt lat="45.4635960" lon="9.1973417" />
      <trkpt lat="45.4637454" lon="9.1969297" />
      <trkpt lat="45.4638206" lon="9.1967304" />
      <trkpt lat="45.4638851" lon="9.1965594" />
      <trkpt lat="45.4638902" lon="9.1965458" />
      <trkpt lat="45.4639740" lon="9.1963203" />
      <trkpt lat="45.4639712" lon="9.1962701" />
      <trkpt lat="45.4639505" lon="9.1962524" />
      <trkpt lat="45.4639132" lon="9.1962204" />
      <trkpt lat="45.4639076" lon="9.1962156" />
      <trkpt lat="45.4639124" lon="9.1962017" />
      <trkpt lat="45.4638997" lon="9.1961910" />
      <trkpt lat="45.4635898" lon="9.1958986" />
      <trkpt lat="45.4634283" lon="9.1957498" />
      <trkpt lat="45.4633339" lon="9.1956389" />
      <trkpt lat="45.4631703" lon="9.1953535" />
      <trkpt lat="45.4631373" lon="9.1952804" />
      <trkpt lat="45.4631160" lon="9.1952354" />
      <trkpt lat="45.4630861" lon="9.1952223" />
      <trkpt lat="45.4630577" lon="9.1952349" />
      <trkpt lat="45.4630369" lon="9.1952678" />
      <trkpt lat="45.4630228" lon="9.1951950" />
      <trkpt lat="45.4630158" lon="9.1951253" />
      <trkpt lat="45.4630095" lon="9.1950620" />
      <trkpt lat="45.4630043" lon="9.1949901" />
      <trkpt lat="45.4630414" lon="9.1949771" />
      <trkpt lat="45.4630590" lon="9.1949651" />
      <trkpt lat="45.4631291" lon="9.1949181" />
      <trkpt lat="45.4631686" lon="9.1949087" />
      <trkpt lat="45.4633431" lon="9.1949500" />
      <trkpt lat="45.4636646" lon="9.1949342" />
      <trkpt lat="45.4636567" lon="9.1945039" />
      <trkpt lat="45.4636520" lon="9.1944236" />
      <trkpt lat="45.4636457" lon="9.1943613" />
      <trkpt lat="45.4636367" lon="9.1943097" />
      <trkpt lat="45.4636248" lon="9.1942636" />
      <trkpt lat="45.4636384" lon="9.1942604" />
      <trkpt lat="45.4636862" lon="9.1942492" />
      <trkpt lat="45.4637447" lon="9.1942355" />
      <trkpt lat="45.4637624" lon="9.1942314" />
      <trkpt lat="45.4638223" lon="9.1942277" />
      <trkpt lat="45.4638214" lon="9.1936766" />
      <trkpt lat="45.4638223" lon="9.1936715" />
      <trkpt lat="45.4638241" lon="9.1936686" />
      <trkpt lat="45.4638265" lon="9.1936671" />
      <trkpt lat="45.4638595" lon="9.1936659" />
      <trkpt lat="45.4638597" lon="9.1936511" />
      <trkpt lat="45.4638604" lon="9.1936123" />
      <trkpt lat="45.4638607" lon="9.1935793" />
      <trkpt lat="45.4638618" lon="9.1935050" />
      <trkpt lat="45.4641098" lon="9.1934909" />
      <trkpt lat="45.4641108" lon="9.1935539" />
      <trkpt lat="45.4643434" lon="9.1935520" />
      <trkpt lat="45.4643976" lon="9.1935450" />
      <trkpt lat="45.4644552" lon="9.1935360" />
      <trkpt lat="45.4644849" lon="9.1935284" />
      <trkpt lat="45.4645224" lon="9.1935138" />
      <trkpt lat="45.4645350" lon="9.1935625" />
      <trkpt lat="45.4645818" lon="9.1935379" />
      <trkpt lat="45.4646239" lon="9.1935156" />
      <trkpt lat="45.4647112" lon="9.1934693" />
      <trkpt lat="45.4647702" lon="9.1934379" />
      <trkpt lat="45.4647775" lon="9.1934342" />
      <trkpt lat="45.4648401" lon="9.1934008" />
      <trkpt lat="45.4649040" lon="9.1933476" />
      <trkpt lat="45.4649222" lon="9.1933376" />
      <trkpt lat="45.4649151" lon="9.1933109" />
      <trkpt lat="45.4649046" lon="9.1932837" />
      <trkpt lat="45.4648997" lon="9.1932702" />
      <trkpt lat="45.4648166" lon="9.1929116" />
      <trkpt lat="45.4647961" lon="9.1928010" />
      <trkpt lat="45.4647921" lon="9.1927081" />
      <trkpt lat="45.4647927" lon="9.1925773" />
      <trkpt lat="45.4647925" lon="9.1925163" />
      <trkpt lat="45.4647964" lon="9.1923673" />
      <trkpt lat="45.4648120" lon="9.1923292" />
      <trkpt lat="45.4648120" lon="9.1923044" />
      <trkpt lat="45.4648121" lon="9.1922694" />
      <trkpt lat="45.4648118" lon="9.1922424" />
      <trkpt lat="45.4648121" lon="9.1922176" />
      <trkpt lat="45.4648205" lon="9.1914632" />
      <trkpt lat="45.4648207" lon="9.1914483" />
      <trkpt lat="45.4648212" lon="9.1914219" />
      <trkpt lat="45.4648216" lon="9.1913957" />
      <trkpt lat="45.4648223" lon="9.1913551" />
      <trkpt lat="45.4648216" lon="9.1913504" />
      <trkpt lat="45.4648202" lon="9.1913259" />
      <trkpt lat="45.4648194" lon="9.1910982" />
      <trkpt lat="45.4647796" lon="9.1910960" />
      <trkpt lat="45.4647676" lon="9.1910957" />
      <trkpt lat="45.4647676" lon="9.1910589" />
      <trkpt lat="45.4647675" lon="9.1909702" />
      <trkpt lat="45.4647675" lon="9.1909566" />
      <trkpt lat="45.4647643" lon="9.1907699" />
      <trkpt lat="45.4647559" lon="9.1906084" />
      <trkpt lat="45.4646621" lon="9.1904786" />
      <trkpt lat="45.4646642" lon="9.1904112" />
      <trkpt lat="45.4645901" lon="9.1904077" />
      <trkpt lat="45.4645915" lon="9.1903344" />
      <trkpt lat="45.4645796" lon="9.1903211" />
      <trkpt lat="45.4645713" lon="9.1903119" />
      <trkpt lat="45.4645579" lon="9.1902970" />
      <trkpt lat="45.4645591" lon="9.1899739" />
      <trkpt lat="45.4645591" lon="9.1899581" />
      <trkpt lat="45.4645542" lon="9.1899580" />
      <trkpt lat="45.4645546" lon="9.1899005" />
      <trkpt lat="45.4645446" lon="9.1898970" />
      <trkpt lat="45.4645046" lon="9.1898833" />
      <trkpt lat="45.4644741" lon="9.1898729" />
      <trkpt lat="45.4644313" lon="9.1898582" />
      <trkpt lat="45.4643695" lon="9.1897716" />
      <trkpt lat="45.4643626" lon="9.1896728" />
      <trkpt lat="45.4643635" lon="9.1895749" />
      <trkpt lat="45.4643720" lon="9.1889427" />
      <trkpt lat="45.4643722" lon="9.1888592" />
      <trkpt lat="45.4643723" lon="9.1888159" />
      <trkpt lat="45.4643724" lon="9.1887782" />
      <trkpt lat="45.4643724" lon="9.1887658" />
      <trkpt lat="45.4643725" lon="9.1887263" />
      <trkpt lat="45.4643731" lon="9.1885996" />
      <trkpt lat="45.4643728" lon="9.1885235" />
      <trkpt lat="45.4641153" lon="9.1885231" />
      <trkpt lat="45.4641146" lon="9.1885990" />
      <trkpt lat="45.4641136" lon="9.1887358" />
      <trkpt lat="45.4641134" lon="9.1887924" />
      <trkpt lat="45.4641133" lon="9.1888034" />
      <trkpt lat="45.4641131" lon="9.1888335" />
      <trkpt lat="45.4641128" lon="9.1889054" />
      <trkpt lat="45.4641127" lon="9.1889147" />
      <trkpt lat="45.4640993" lon="9.1889147" />
      <trkpt lat="45.4638167" lon="9.1889146" />
      <trkpt lat="45.4638002" lon="9.1889146" />
      <trkpt lat="45.4638000" lon="9.1889344" />
      <trkpt lat="45.4637998" lon="9.1889533" />
      <trkpt lat="45.4637982" lon="9.1890213" />
      <trkpt lat="45.4637319" lon="9.1890225" />
      <trkpt lat="45.4637329" lon="9.1889492" />
      <trkpt lat="45.4637332" lon="9.1889265" />
      <trkpt lat="45.4637335" lon="9.1889066" />
      <trkpt lat="45.4637338" lon="9.1888841" />
      <trkpt lat="45.4637344" lon="9.1888372" />
      <trkpt lat="45.4637362" lon="9.1887051" />
      <trkpt lat="45.4637368" lon="9.1886597" />
      <trkpt lat="45.4637017" lon="9.1885182" />
      <trkpt lat="45.4636976" lon="9.1884988" />
      <trkpt lat="45.4636687" lon="9.1883914" />
      <trkpt lat="45.4637155" lon="9.1881595" />
      <trkpt lat="45.4637869" lon="9.1880588" />
      <trkpt lat="45.4638130" lon="9.1880219" />
      <trkpt lat="45.4638410" lon="9.1879824" />
      <trkpt lat="45.4638534" lon="9.1879133" />
      <trkpt lat="45.4640458" lon="9.1876546" />
      <trkpt lat="45.4640503" lon="9.1876143" />
      <trkpt lat="45.4640568" lon="9.1876040" />
      <trkpt lat="45.4640786" lon="9.1875692" />
      <trkpt lat="45.4640557" lon="9.1875315" />
      <trkpt lat="45.4637539" lon="9.1870620" />
      <trkpt lat="45.4637361" lon="9.1870196" />
      <trkpt lat="45.4637594" lon="9.1870152" />
      <trkpt lat="45.4637712" lon="9.1870130" />
      <trkpt lat="45.4637465" lon="9.1869630" />
      <trkpt lat="45.4638104" lon="9.1868908" />
      <trkpt lat="45.4640062" lon="9.1866543" />
      <trkpt lat="45.4640364" lon="9.1866526" />
      <trkpt lat="45.4640477" lon="9.1866330" />
      <trkpt lat="45.4640573" lon="9.1866178" />
      <trkpt lat="45.4640723" lon="9.1865927" />
      <trkpt lat="45.4640886" lon="9.1865669" />
      <trkpt lat="45.4641068" lon="9.1865370" />
      <trkpt lat="45.4640959" lon="9.1865034" />
      <trkpt lat="45.4643241" lon="9.1860559" />
      <trkpt lat="45.4644654" lon="9.1857791" />
      <trkpt lat="45.4645713" lon="9.1855714" />
      <trkpt lat="45.4645670" lon="9.1855666" />
      <trkpt lat="45.4645128" lon="9.1855071" />
      <trkpt lat="45.4645027" lon="9.1854960" />
      <trkpt lat="45.4645321" lon="9.1854333" />
      <trkpt lat="45.4645140" lon="9.1852547" />
      <trkpt lat="45.4645051" lon="9.1852421" />
      <trkpt lat="45.4645121" lon="9.1852314" />
      <trkpt lat="45.4645459" lon="9.1851800" />
      <trkpt lat="45.4645753" lon="9.1851353" />
      <trkpt lat="45.4645892" lon="9.1851142" />
      <trkpt lat="45.4645578" lon="9.1850677" />
      <trkpt lat="45.4644566" lon="9.1843103" />
      <trkpt lat="45.4644239" lon="9.1840450" />
      <trkpt lat="45.4643870" lon="9.1837618" />
      <trkpt lat="45.4649747" lon="9.1836270" />
      <trkpt lat="45.4649871" lon="9.1836237" />
      <trkpt lat="45.4650261" lon="9.1836134" />
      <trkpt lat="45.4650661" lon="9.1836028" />
      <trkpt lat="45.4650792" lon="9.1835993" />
      <trkpt lat="45.4652304" lon="9.1843705" />
      <trkpt lat="45.4652696" lon="9.1843619" />
      <trkpt lat="45.4653822" lon="9.1843392" />
      <trkpt lat="45.4657269" lon="9.1842675" />
      <trkpt lat="45.4658497" lon="9.1842423" />
      <trkpt lat="45.4658609" lon="9.1842398" />
      <trkpt lat="45.4658664" lon="9.1842387" />
      <trkpt lat="45.4658225" lon="9.1837268" />
      <trkpt lat="45.4658317" lon="9.1837248" />
      <trkpt lat="45.4658550" lon="9.1837199" />
      <trkpt lat="45.4658729" lon="9.1837161" />
      <trkpt lat="45.4658812" lon="9.1837141" />
      <trkpt lat="45.4658912" lon="9.1837122" />
      <trkpt lat="45.4659030" lon="9.1837088" />
      <trkpt lat="45.4659007" lon="9.1836760" />
      <trkpt lat="45.4658994" lon="9.1836511" />
      <trkpt lat="45.4659185" lon="9.1836423" />
      <trkpt lat="45.4660330" lon="9.1835896" />
      <trkpt lat="45.4661398" lon="9.1835158" />
      <trkpt lat="45.4661707" lon="9.1834965" />
      <trkpt lat="45.4665082" lon="9.1832590" />
      <trkpt lat="45.4665279" lon="9.1832633" />
      <trkpt lat="45.4665645" lon="9.1832434" />
      <trkpt lat="45.4666021" lon="9.1832244" />
      <trkpt lat="45.4667028" lon="9.1833853" />
      <trkpt lat="45.4668626" lon="9.1836411" />
      <trkpt lat="45.4669092" lon="9.1837099" />
      <trkpt lat="45.4669323" lon="9.1837440" />
      <trkpt lat="45.4669592" lon="9.1837835" />
      <trkpt lat="45.4670215" lon="9.1838770" />
      <trkpt lat="45.4670465" lon="9.1839144" />
      <trkpt lat="45.4678538" lon="9.1828665" />
      <trkpt lat="45.4679007" lon="9.1828057" />
      <trkpt lat="45.4679330" lon="9.1828453" />
      <trkpt lat="45.4679620" lon="9.1828775" />
      <trkpt lat="45.4679905" lon="9.1828912" />
      <trkpt lat="45.4679719" lon="9.1829468" />
      <trkpt lat="45.4679458" lon="9.1830251" />
      <trkpt lat="45.4679417" lon="9.1830374" />
      <trkpt lat="45.4678740" lon="9.1832993" />
      <trkpt lat="45.4679374" lon="9.1838692" />
      <trkpt lat="45.4679414" lon="9.1838684" />
      <trkpt lat="45.4679612" lon="9.1838645" />
      <trkpt lat="45.4679784" lon="9.1838611" />
      <trkpt lat="45.4679831" lon="9.1838602" />
      <trkpt lat="45.4679921" lon="9.1838756" />
      <trkpt lat="45.4681732" lon="9.1839056" />
      <trkpt lat="45.4684633" lon="9.1841062" />
      <trkpt lat="45.4686396" lon="9.1841842" />
      <trkpt lat="45.4686399" lon="9.1841922" />
      <trkpt lat="45.4686409" lon="9.1842129" />
      <trkpt lat="45.4686419" lon="9.1842347" />
      <trkpt lat="45.4686424" lon="9.1842457" />
      <trkpt lat="45.4686652" lon="9.1845062" />
      <trkpt lat="45.4686848" lon="9.1847244" />
      <trkpt lat="45.4687266" lon="9.1851909" />
      <trkpt lat="45.4687338" lon="9.1852732" />
      <trkpt lat="45.4687669" lon="9.1852334" />
      <trkpt lat="45.4688046" lon="9.1853138" />
      <trkpt lat="45.4688151" lon="9.1853363" />
      <trkpt lat="45.4688287" lon="9.1853657" />
      <trkpt lat="45.4688327" lon="9.1853742" />
      <trkpt lat="45.4688362" lon="9.1853818" />
      <trkpt lat="45.4688450" lon="9.1854014" />
      <trkpt lat="45.4688775" lon="9.1854705" />
      <trkpt lat="45.4688904" lon="9.1854981" />
      <trkpt lat="45.4689091" lon="9.1854982" />
      <trkpt lat="45.4689265" lon="9.1855067" />
      <trkpt lat="45.4689383" lon="9.1855222" />
      <trkpt lat="45.4689689" lon="9.1858157" />
      <trkpt lat="45.4689717" lon="9.1858426" />
      <trkpt lat="45.4689921" lon="9.1861391" />
      <trkpt lat="45.4690837" lon="9.1874458" />
      <trkpt lat="45.4691295" lon="9.1881328" />
      <trkpt lat="45.4691341" lon="9.1882023" />
      <trkpt lat="45.4691074" lon="9.1882095" />
      <trkpt lat="45.4691013" lon="9.1882111" />
      <trkpt lat="45.4689349" lon="9.1882655" />
      <trkpt lat="45.4686546" lon="9.1884137" />
      <trkpt lat="45.4686528" lon="9.1884150" />
      <trkpt lat="45.4686369" lon="9.1884262" />
      <trkpt lat="45.4686279" lon="9.1884323" />
      <trkpt lat="45.4686199" lon="9.1884379" />
      <trkpt lat="45.4683318" lon="9.1886017" />
      <trkpt lat="45.4682228" lon="9.1887707" />
      <trkpt lat="45.4678601" lon="9.1893125" />
      <trkpt lat="45.4674977" lon="9.1898434" />
      <trkpt lat="45.4674846" lon="9.1898598" />
      <trkpt lat="45.4674784" lon="9.1898654" />
      <trkpt lat="45.4674715" lon="9.1898684" />
      <trkpt lat="45.4674661" lon="9.1898686" />
      <trkpt lat="45.4674613" lon="9.1898666" />
      <trkpt lat="45.4674577" lon="9.1898640" />
      <trkpt lat="45.4674090" lon="9.1898087" />
      <trkpt lat="45.4673834" lon="9.1897779" />
      <trkpt lat="45.4672789" lon="9.1896442" />
      <trkpt lat="45.4671946" lon="9.1895285" />
      <trkpt lat="45.4671878" lon="9.1895185" />
      <trkpt lat="45.4671886" lon="9.1895228" />
      <trkpt lat="45.4671681" lon="9.1894970" />
      <trkpt lat="45.4670413" lon="9.1893372" />
      <trkpt lat="45.4670302" lon="9.1893233" />
      <trkpt lat="45.4670113" lon="9.1893010" />
      <trkpt lat="45.4670014" lon="9.1892886" />
      <trkpt lat="45.4669885" lon="9.1892725" />
      <trkpt lat="45.4669756" lon="9.1892616" />
      <trkpt lat="45.4668132" lon="9.1891007" />
      <trkpt lat="45.4665703" lon="9.1888832" />
      <trkpt lat="45.4665607" lon="9.1888747" />
      <trkpt lat="45.4665553" lon="9.1888698" />
      <trkpt lat="45.4667508" lon="9.1885645" />
      <trkpt lat="45.4664102" lon="9.1879620" />
      <trkpt lat="45.4664129" lon="9.1879590" />
      <trkpt lat="45.4664236" lon="9.1879474" />
      <trkpt lat="45.4664126" lon="9.1879269" />
      <trkpt lat="45.4664756" lon="9.1876098" />
      <trkpt lat="45.4664813" lon="9.1876060" />
      <trkpt lat="45.4664778" lon="9.1875956" />
      <trkpt lat="45.4664668" lon="9.1875847" />
      <trkpt lat="45.4663033" lon="9.1876797" />
      <trkpt lat="45.4662644" lon="9.1876509" />
      <trkpt lat="45.4662254" lon="9.1875089" />
      <trkpt lat="45.4661296" lon="9.1867523" />
      <trkpt lat="45.4660817" lon="9.1863818" />
      <trkpt lat="45.4660973" lon="9.1863457" />
      <trkpt lat="45.4660857" lon="9.1863596" />
      <trkpt lat="45.4660758" lon="9.1863653" />
      <trkpt lat="45.4660687" lon="9.1863016" />
      <trkpt lat="45.4660668" lon="9.1862834" />
      <trkpt lat="45.4660652" lon="9.1862647" />
      <trkpt lat="45.4660612" lon="9.1862102" />
      <trkpt lat="45.4660186" lon="9.1856363" />
      <trkpt lat="45.4659985" lon="9.1853571" />
      <trkpt lat="45.4660186" lon="9.1856363" />
      <trkpt lat="45.4660612" lon="9.1862102" />
      <trkpt lat="45.4660652" lon="9.1862647" />
      <trkpt lat="45.4660668" lon="9.1862834" />
      <trkpt lat="45.4660687" lon="9.1863016" />
      <trkpt lat="45.4660758" lon="9.1863653" />
      <trkpt lat="45.4660857" lon="9.1863596" />
      <trkpt lat="45.4660973" lon="9.1863457" />
      <trkpt lat="45.4660817" lon="9.1863818" />
      <trkpt lat="45.4661296" lon="9.1867523" />
      <trkpt lat="45.4662254" lon="9.1875089" />
      <trkpt lat="45.4662644" lon="9.1876509" />
      <trkpt lat="45.4663033" lon="9.1876797" />
      <trkpt lat="45.4663153" lon="9.1876832" />
      <trkpt lat="45.4663081" lon="9.1877266" />
      <trkpt lat="45.4663022" lon="9.1877621" />
      <trkpt lat="45.4663011" lon="9.1877689" />
      <trkpt lat="45.4661970" lon="9.1877552" />
      <trkpt lat="45.4660583" lon="9.1879960" />
      <trkpt lat="45.4659090" lon="9.1882607" />
      <trkpt lat="45.4659024" lon="9.1882533" />
      <trkpt lat="45.4658801" lon="9.1882285" />
      <trkpt lat="45.4658603" lon="9.1882633" />
      <trkpt lat="45.4658295" lon="9.1883174" />
      <trkpt lat="45.4658189" lon="9.1883360" />
      <trkpt lat="45.4658146" lon="9.1883308" />
      <trkpt lat="45.4657363" lon="9.1882636" />
      <trkpt lat="45.4656950" lon="9.1882274" />
      <trkpt lat="45.4656494" lon="9.1881720" />
      <trkpt lat="45.4655697" lon="9.1880750" />
      <trkpt lat="45.4652737" lon="9.1877942" />
      <trkpt lat="45.4652387" lon="9.1878617" />
      <trkpt lat="45.4652301" lon="9.1878781" />
      <trkpt lat="45.4652256" lon="9.1878892" />
      <trkpt lat="45.4650375" lon="9.1883531" />
      <trkpt lat="45.4650372" lon="9.1884580" />
      <trkpt lat="45.4649862" lon="9.1884824" />
      <trkpt lat="45.4649736" lon="9.1884896" />
      <trkpt lat="45.4649441" lon="9.1884897" />
      <trkpt lat="45.4648224" lon="9.1884900" />
      <trkpt lat="45.4648226" lon="9.1884992" />
      <trkpt lat="45.4648227" lon="9.1885082" />
      <trkpt lat="45.4648234" lon="9.1885464" />
      <trkpt lat="45.4648243" lon="9.1885985" />
      <trkpt lat="45.4648244" lon="9.1886045" />
      <trkpt lat="45.4648240" lon="9.1886223" />
      <trkpt lat="45.4648219" lon="9.1887820" />
      <trkpt lat="45.4648231" lon="9.1890382" />
      <trkpt lat="45.4647852" lon="9.1890432" />
      <trkpt lat="45.4647694" lon="9.1890380" />
      <trkpt lat="45.4647691" lon="9.1890685" />
      <trkpt lat="45.4647697" lon="9.1891591" />
      <trkpt lat="45.4647696" lon="9.1892209" />
      <trkpt lat="45.4647267" lon="9.1892186" />
      <trkpt lat="45.4646537" lon="9.1891261" />
      <trkpt lat="45.4646499" lon="9.1893273" />
      <trkpt lat="45.4646497" lon="9.1893463" />
      <trkpt lat="45.4646490" lon="9.1895528" />
      <trkpt lat="45.4646152" lon="9.1896494" />
      <trkpt lat="45.4646065" lon="9.1896748" />
      <trkpt lat="45.4646058" lon="9.1897460" />
      <trkpt lat="45.4645897" lon="9.1897690" />
      <trkpt lat="45.4645895" lon="9.1898041" />
      <trkpt lat="45.4645894" lon="9.1898161" />
      <trkpt lat="45.4645892" lon="9.1898476" />
      <trkpt lat="45.4645891" lon="9.1898632" />
      <trkpt lat="45.4645547" lon="9.1898629" />
      <trkpt lat="45.4645546" lon="9.1899005" />
      <trkpt lat="45.4645446" lon="9.1898970" />
      <trkpt lat="45.4645046" lon="9.1898833" />
      <trkpt lat="45.4644741" lon="9.1898729" />
      <trkpt lat="45.4644313" lon="9.1898582" />
      <trkpt lat="45.4643695" lon="9.1897716" />
    </trkseg>
  </trk>
</gpx>
