<?xml version="1.0" encoding="UTF-8"?>
<gpx xmlns="http://www.topografix.com/GPX/1/1" version="1.1" creator="ShapeRoute route-engine">
  <metadata>
    <name>smiley 15 km · 2026-10-05</name>
    <author>
      <name>ShapeRoute route-engine</name>
    </author>
    <copyright author="OpenStreetMap contributors">
      <license>https://opendatacommons.org/licenses/odbl/1-0/</license>
    </copyright>
    <link href="https://www.openstreetmap.org/copyright">
      <text>© OpenStreetMap contributors</text>
    </link>
    <time>2026-10-05T10:22:41Z</time>
  </metadata>
  <wpt lat="45.4665440" lon="9.1900713">
    <name>Pause</name>
  </wpt>
  <wpt lat="45.4598747" lon="9.1880284">
    <name>Resume</name>
  </wpt>
  <wpt lat="45.4598747" lon="9.1880284">
    <name>Pause</name>
  </wpt>
  <wpt lat="45.4610401" lon="9.1959364">
    <name>Resume</name>
  </wpt>
  <wpt lat="45.4610401" lon="9.1959364">
    <name>Pause</name>
  </wpt>
  <wpt lat="45.4554481" lon="9.2026115">
    <name>Resume</name>
  </wpt>
  <trk>
    <name>smiley 15 km · 2026-10-05</name>
    <trkseg>
      <trkpt lat="45.4665440" lon="9.1900713" />
      <trkpt lat="45.4665589" lon="9.1900900" />
      <trkpt lat="45.4665747" lon="9.1901091" />
      <trkpt lat="45.4667929" lon="9.1903646" />
      <trkpt lat="45.4669767" lon="9.1905800" />
      <trkpt lat="45.4669831" lon="9.1905875" />
      <trkpt lat="45.4668281" lon="9.1909644" />
      <trkpt lat="45.4668404" lon="9.1909689" />
      <trkpt lat="45.4668943" lon="9.1909886" />
      <trkpt lat="45.4668860" lon="9.1910466" />
      <trkpt lat="45.4668849" lon="9.1911257" />
      <trkpt lat="45.4668901" lon="9.1911854" />
      <trkpt lat="45.4669026" lon="9.1912621" />
      <trkpt lat="45.4669278" lon="9.1913358" />
      <trkpt lat="45.4670107" lon="9.1915256" />
      <trkpt lat="45.4670372" lon="9.1915882" />
      <trkpt lat="45.4670562" lon="9.1916504" />
      <trkpt lat="45.4670662" lon="9.1917144" />
      <trkpt lat="45.4670707" lon="9.1917920" />
      <trkpt lat="45.4670258" lon="9.1917912" />
      <trkpt lat="45.4670104" lon="9.1917909" />
      <trkpt lat="45.4669462" lon="9.1924713" />
      <trkpt lat="45.4669426" lon="9.1925007" />
      <trkpt lat="45.4668817" lon="9.1926629" />
      <trkpt lat="45.4667671" lon="9.1927284" />
      <trkpt lat="45.4667754" lon="9.1927526" />
      <trkpt lat="45.4667960" lon="9.1928131" />
      <trkpt lat="45.4668192" lon="9.1928814" />
      <trkpt lat="45.4668283" lon="9.1929081" />
      <trkpt lat="45.4668101" lon="9.1929268" />
      <trkpt lat="45.4667725" lon="9.1929656" />
      <trkpt lat="45.4667478" lon="9.1929911" />
      <trkpt lat="45.4667272" lon="9.1930123" />
      <trkpt lat="45.4668995" lon="9.1937104" />
      <trkpt lat="45.4669052" lon="9.1938178" />
      <trkpt lat="45.4669038" lon="9.1938641" />
      <trkpt lat="45.4668655" lon="9.1950972" />
      <trkpt lat="45.4668650" lon="9.1951256" />
      <trkpt lat="45.4668415" lon="9.1951692" />
      <trkpt lat="45.4668416" lon="9.1951791" />
      <trkpt lat="45.4668420" lon="9.1952301" />
      <trkpt lat="45.4668436" lon="9.1954172" />
      <trkpt lat="45.4668438" lon="9.1954482" />
      <trkpt lat="45.4668441" lon="9.1954807" />
      <trkpt lat="45.4667905" lon="9.1967930" />
      <trkpt lat="45.4667758" lon="9.1971534" />
      <trkpt lat="45.4667740" lon="9.1971959" />
      <trkpt lat="45.4667729" lon="9.1972236" />
      <trkpt lat="45.4667595" lon="9.1975998" />
      <trkpt lat="45.4667591" lon="9.1976528" />
      <trkpt lat="45.4667587" lon="9.1979475" />
      <trkpt lat="45.4667452" lon="9.1979455" />
      <trkpt lat="45.4667454" lon="9.1979573" />
      <trkpt lat="45.4667550" lon="9.1986667" />
      <trkpt lat="45.4667544" lon="9.1989930" />
      <trkpt lat="45.4667403" lon="9.1990249" />
      <trkpt lat="45.4667415" lon="9.1990393" />
      <trkpt lat="45.4667445" lon="9.1990773" />
      <trkpt lat="45.4665574" lon="9.1991255" />
      <trkpt lat="45.4665151" lon="9.1991360" />
      <trkpt lat="45.4661616" lon="9.1992266" />
      <trkpt lat="45.4661227" lon="9.1992366" />
      <trkpt lat="45.4659093" lon="9.1992913" />
      <trkpt lat="45.4659074" lon="9.1993256" />
      <trkpt lat="45.4659051" lon="9.1993679" />
      <trkpt lat="45.4658847" lon="9.1993983" />
      <trkpt lat="45.4658657" lon="9.2001187" />
      <trkpt lat="45.4658670" lon="9.2001258" />
      <trkpt lat="45.4658684" lon="9.2001341" />
      <trkpt lat="45.4658686" lon="9.2001443" />
      <trkpt lat="45.4658689" lon="9.2001506" />
      <trkpt lat="45.4658645" lon="9.2003771" />
      <trkpt lat="45.4658808" lon="9.2003933" />
      <trkpt lat="45.4658848" lon="9.2004309" />
      <trkpt lat="45.4658911" lon="9.2004906" />
      <trkpt lat="45.4658979" lon="9.2005538" />
      <trkpt lat="45.4658986" lon="9.2005660" />
      <trkpt lat="45.4658881" lon="9.2006128" />
      <trkpt lat="45.4658721" lon="9.2006064" />
      <trkpt lat="45.4657987" lon="9.2005998" />
      <trkpt lat="45.4658462" lon="9.2009433" />
      <trkpt lat="45.4658588" lon="9.2010160" />
      <trkpt lat="45.4660159" lon="9.2018167" />
      <trkpt lat="45.4659429" lon="9.2018543" />
      <trkpt lat="45.4659043" lon="9.2018707" />
      <trkpt lat="45.4657432" lon="9.2019473" />
      <trkpt lat="45.4656942" lon="9.2019709" />
      <trkpt lat="45.4657156" lon="9.2020914" />
      <trkpt lat="45.4657221" lon="9.2021366" />
      <trkpt lat="45.4657400" lon="9.2022616" />
      <trkpt lat="45.4657546" lon="9.2023881" />
      <trkpt lat="45.4657749" lon="9.2024998" />
      <trkpt lat="45.4658102" lon="9.2026947" />
      <trkpt lat="45.4658182" lon="9.2027241" />
      <trkpt lat="45.4656078" lon="9.2028055" />
      <trkpt lat="45.4652019" lon="9.2029556" />
      <trkpt lat="45.4651797" lon="9.2029262" />
      <trkpt lat="45.4651704" lon="9.2029249" />
      <trkpt lat="45.4651445" lon="9.2029209" />
      <trkpt lat="45.4651184" lon="9.2029153" />
      <trkpt lat="45.4651159" lon="9.2029142" />
      <trkpt lat="45.4651018" lon="9.2029303" />
      <trkpt lat="45.4643748" lon="9.2031053" />
      <trkpt lat="45.4643773" lon="9.2031296" />
      <trkpt lat="45.4643812" lon="9.2031661" />
      <trkpt lat="45.4643852" lon="9.2032050" />
      <trkpt lat="45.4643861" lon="9.2032133" />
      <trkpt lat="45.4643669" lon="9.2032173" />
      <trkpt lat="45.4643379" lon="9.2032236" />
      <trkpt lat="45.4639875" lon="9.2033056" />
      <trkpt lat="45.4639620" lon="9.2033119" />
      <trkpt lat="45.4636080" lon="9.2034043" />
      <trkpt lat="45.4635996" lon="9.2034384" />
      <trkpt lat="45.4635834" lon="9.2034415" />
      <trkpt lat="45.4635636" lon="9.2034441" />
      <trkpt lat="45.4635809" lon="9.2036538" />
      <trkpt lat="45.4636621" lon="9.2044622" />
      <trkpt lat="45.4636703" lon="9.2045386" />
      <trkpt lat="45.4637296" lon="9.2050808" />
      <trkpt lat="45.4637139" lon="9.2050835" />
      <trkpt lat="45.4637082" lon="9.2050845" />
      <trkpt lat="45.4636973" lon="9.2051216" />
      <trkpt lat="45.4631374" lon="9.2051834" />
      <trkpt lat="45.4631373" lon="9.2052032" />
      <trkpt lat="45.4631365" lon="9.2052383" />
      <trkpt lat="45.4631364" lon="9.2052590" />
      <trkpt lat="45.4631302" lon="9.2052836" />
      <trkpt lat="45.4630961" lon="9.2053352" />
      <trkpt lat="45.4631379" lon="9.2062067" />
      <trkpt lat="45.4631399" lon="9.2062191" />
      <trkpt lat="45.4631006" lon="9.2062212" />
      <trkpt lat="45.4630791" lon="9.2062224" />
      <trkpt lat="45.4630657" lon="9.2062214" />
      <trkpt lat="45.4630774" lon="9.2063674" />
      <trkpt lat="45.4630717" lon="9.2063866" />
      <trkpt lat="45.4624395" lon="9.2064905" />
      <trkpt lat="45.4624092" lon="9.2064697" />
      <trkpt lat="45.4623826" lon="9.2064750" />
      <trkpt lat="45.4623468" lon="9.2064822" />
      <trkpt lat="45.4623134" lon="9.2064890" />
      <trkpt lat="45.4623062" lon="9.2064904" />
      <trkpt lat="45.4622943" lon="9.2064928" />
      <trkpt lat="45.4622695" lon="9.2064978" />
      <trkpt lat="45.4622533" lon="9.2065010" />
      <trkpt lat="45.4622515" lon="9.2065014" />
      <trkpt lat="45.4622452" lon="9.2065027" />
      <trkpt lat="45.4622136" lon="9.2065090" />
      <trkpt lat="45.4621713" lon="9.2065175" />
      <trkpt lat="45.4621639" lon="9.2065190" />
      <trkpt lat="45.4621505" lon="9.2065531" />
      <trkpt lat="45.4620867" lon="9.2065617" />
      <trkpt lat="45.4612892" lon="9.2066603" />
      <trkpt lat="45.4612556" lon="9.2066562" />
      <trkpt lat="45.4611890" lon="9.2066401" />
      <trkpt lat="45.4611817" lon="9.2066495" />
      <trkpt lat="45.4611518" lon="9.2066464" />
      <trkpt lat="45.4610956" lon="9.2068349" />
      <trkpt lat="45.4610493" lon="9.2070041" />
      <trkpt lat="45.4610103" lon="9.2071399" />
      <trkpt lat="45.4609025" lon="9.2075171" />
      <trkpt lat="45.4608630" lon="9.2075153" />
      <trkpt lat="45.4608516" lon="9.2075148" />
      <trkpt lat="45.4607883" lon="9.2075641" />
      <trkpt lat="45.4605666" lon="9.2075644" />
      <trkpt lat="45.4604666" lon="9.2075389" />
      <trkpt lat="45.4603047" lon="9.2074380" />
      <trkpt lat="45.4598925" lon="9.2071047" />
      <trkpt lat="45.4598885" lon="9.2071145" />
      <trkpt lat="45.4598766" lon="9.2071439" />
      <trkpt lat="45.4598703" lon="9.2071593" />
      <trkpt lat="45.4598661" lon="9.2071695" />
      <trkpt lat="45.4598570" lon="9.2071917" />
      <trkpt lat="45.4598471" lon="9.2072268" />
      <trkpt lat="45.4598436" lon="9.2072249" />
      <trkpt lat="45.4598282" lon="9.2072625" />
      <trkpt lat="45.4598253" lon="9.2072692" />
      <trkpt lat="45.4598221" lon="9.2072775" />
      <trkpt lat="45.4598149" lon="9.2072952" />
      <trkpt lat="45.4598030" lon="9.2073244" />
      <trkpt lat="45.4597907" lon="9.2073545" />
      <trkpt lat="45.4597800" lon="9.2073808" />
      <trkpt lat="45.4597513" lon="9.2073894" />
      <trkpt lat="45.4596748" lon="9.2076168" />
      <trkpt lat="45.4596159" lon="9.2077836" />
      <trkpt lat="45.4591867" lon="9.2089994" />
      <trkpt lat="45.4591786" lon="9.2089934" />
      <trkpt lat="45.4591258" lon="9.2089538" />
      <trkpt lat="45.4590911" lon="9.2089277" />
      <trkpt lat="45.4590853" lon="9.2089233" />
      <trkpt lat="45.4590456" lon="9.2090258" />
      <trkpt lat="45.4590214" lon="9.2090272" />
      <trkpt lat="45.4590182" lon="9.2090357" />
      <trkpt lat="45.4590037" lon="9.2090747" />
      <trkpt lat="45.4589828" lon="9.2091308" />
      <trkpt lat="45.4589783" lon="9.2091427" />
      <trkpt lat="45.4588372" lon="9.2090354" />
      <trkpt lat="45.4587198" lon="9.2089408" />
      <trkpt lat="45.4586429" lon="9.2088789" />
      <trkpt lat="45.4585619" lon="9.2088136" />
      <trkpt lat="45.4580207" lon="9.2083776" />
      <trkpt lat="45.4579991" lon="9.2083769" />
      <trkpt lat="45.4574372" lon="9.2097896" />
      <trkpt lat="45.4574175" lon="9.2097728" />
      <trkpt lat="45.4573815" lon="9.2097419" />
      <trkpt lat="45.4573505" lon="9.2097154" />
      <trkpt lat="45.4573403" lon="9.2097067" />
      <trkpt lat="45.4573130" lon="9.2097214" />
      <trkpt lat="45.4570111" lon="9.2094585" />
      <trkpt lat="45.4565846" lon="9.2091106" />
      <trkpt lat="45.4565456" lon="9.2090871" />
      <trkpt lat="45.4565322" lon="9.2091221" />
      <trkpt lat="45.4565134" lon="9.2091711" />
      <trkpt lat="45.4564895" lon="9.2092330" />
      <trkpt lat="45.4564788" lon="9.2092608" />
      <trkpt lat="45.4564472" lon="9.2092642" />
      <trkpt lat="45.4564280" lon="9.2092482" />
      <trkpt lat="45.4564082" lon="9.2092316" />
      <trkpt lat="45.4563952" lon="9.2092207" />
      <trkpt lat="45.4563846" lon="9.2092116" />
      <trkpt lat="45.4563647" lon="9.2091953" />
      <trkpt lat="45.4563531" lon="9.2091856" />
      <trkpt lat="45.4563418" lon="9.2091502" />
      <trkpt lat="45.4558956" lon="9.2087986" />
      <trkpt lat="45.4558875" lon="9.2087920" />
      <trkpt lat="45.4558553" lon="9.2087658" />
      <trkpt lat="45.4554942" lon="9.2096125" />
      <trkpt lat="45.4554739" lon="9.2095938" />
      <trkpt lat="45.4554658" lon="9.2095863" />
      <trkpt lat="45.4554413" lon="9.2095960" />
      <trkpt lat="45.4550118" lon="9.2092386" />
      <trkpt lat="45.4550104" lon="9.2092057" />
      <trkpt lat="45.4549954" lon="9.2091926" />
      <trkpt lat="45.4549594" lon="9.2091610" />
      <trkpt lat="45.4549244" lon="9.2092454" />
      <trkpt lat="45.4546570" lon="9.2090358" />
      <trkpt lat="45.4546152" lon="9.2090032" />
      <trkpt lat="45.4541652" lon="9.2086365" />
      <trkpt lat="45.4541368" lon="9.2086138" />
      <trkpt lat="45.4541106" lon="9.2085928" />
      <trkpt lat="45.4540556" lon="9.2085476" />
      <trkpt lat="45.4540363" lon="9.2085913" />
      <trkpt lat="45.4540287" lon="9.2086083" />
      <trkpt lat="45.4535993" lon="9.2082542" />
      <trkpt lat="45.4535753" lon="9.2082673" />
      <trkpt lat="45.4533001" lon="9.2089603" />
      <trkpt lat="45.4532896" lon="9.2089515" />
      <trkpt lat="45.4532533" lon="9.2089213" />
      <trkpt lat="45.4532170" lon="9.2088911" />
      <trkpt lat="45.4532051" lon="9.2088812" />
      <trkpt lat="45.4531882" lon="9.2088912" />
      <trkpt lat="45.4531663" lon="9.2089225" />
      <trkpt lat="45.4531350" lon="9.2089674" />
      <trkpt lat="45.4531075" lon="9.2090069" />
      <trkpt lat="45.4530978" lon="9.2090207" />
      <trkpt lat="45.4529205" lon="9.2088691" />
      <trkpt lat="45.4527446" lon="9.2087275" />
      <trkpt lat="45.4525570" lon="9.2087949" />
      <trkpt lat="45.4530367" lon="9.2091849" />
      <trkpt lat="45.4530278" lon="9.2092075" />
      <trkpt lat="45.4530128" lon="9.2092452" />
      <trkpt lat="45.4524753" lon="9.2088055" />
      <trkpt lat="45.4522720" lon="9.2086392" />
      <trkpt lat="45.4520390" lon="9.2084486" />
      <trkpt lat="45.4519071" lon="9.2083373" />
      <trkpt lat="45.4518933" lon="9.2083260" />
      <trkpt lat="45.4518742" lon="9.2083777" />
      <trkpt lat="45.4518541" lon="9.2084393" />
      <trkpt lat="45.4518377" lon="9.2084359" />
      <trkpt lat="45.4518204" lon="9.2083913" />
      <trkpt lat="45.4517904" lon="9.2083440" />
      <trkpt lat="45.4517621" lon="9.2083022" />
      <trkpt lat="45.4517406" lon="9.2082692" />
      <trkpt lat="45.4517137" lon="9.2082219" />
      <trkpt lat="45.4516798" lon="9.2081762" />
      <trkpt lat="45.4516646" lon="9.2081530" />
      <trkpt lat="45.4516471" lon="9.2081107" />
      <trkpt lat="45.4507195" lon="9.2073597" />
      <trkpt lat="45.4506838" lon="9.2073580" />
      <trkpt lat="45.4506729" lon="9.2073497" />
      <trkpt lat="45.4506407" lon="9.2073251" />
      <trkpt lat="45.4505961" lon="9.2072910" />
      <trkpt lat="45.4505859" lon="9.2072833" />
      <trkpt lat="45.4505751" lon="9.2072551" />
      <trkpt lat="45.4504358" lon="9.2071442" />
      <trkpt lat="45.4502696" lon="9.2070119" />
      <trkpt lat="45.4501522" lon="9.2069185" />
      <trkpt lat="45.4498370" lon="9.2066603" />
      <trkpt lat="45.4497582" lon="9.2065983" />
      <trkpt lat="45.4497683" lon="9.2065817" />
      <trkpt lat="45.4497941" lon="9.2065394" />
      <trkpt lat="45.4497162" lon="9.2065339" />
      <trkpt lat="45.4496406" lon="9.2065347" />
      <trkpt lat="45.4495979" lon="9.2065351" />
      <trkpt lat="45.4495609" lon="9.2065410" />
      <trkpt lat="45.4495355" lon="9.2065470" />
      <trkpt lat="45.4495168" lon="9.2065514" />
      <trkpt lat="45.4494996" lon="9.2065589" />
      <trkpt lat="45.4494774" lon="9.2065557" />
      <trkpt lat="45.4494389" lon="9.2065578" />
      <trkpt lat="45.4493992" lon="9.2065542" />
      <trkpt lat="45.4493675" lon="9.2065464" />
      <trkpt lat="45.4493372" lon="9.2065330" />
      <trkpt lat="45.4493146" lon="9.2065163" />
      <trkpt lat="45.4492969" lon="9.2064934" />
      <trkpt lat="45.4492656" lon="9.2064449" />
      <trkpt lat="45.4492387" lon="9.2063616" />
      <trkpt lat="45.4492292" lon="9.2063261" />
      <trkpt lat="45.4492237" lon="9.2062806" />
      <trkpt lat="45.4492226" lon="9.2062303" />
      <trkpt lat="45.4492252" lon="9.2061719" />
      <trkpt lat="45.4492311" lon="9.2061287" />
      <trkpt lat="45.4492408" lon="9.2060802" />
      <trkpt lat="45.4492514" lon="9.2060376" />
      <trkpt lat="45.4492657" lon="9.2059924" />
      <trkpt lat="45.4492322" lon="9.2059643" />
      <trkpt lat="45.4492082" lon="9.2059456" />
      <trkpt lat="45.4491948" lon="9.2059349" />
      <trkpt lat="45.4492090" lon="9.2059031" />
      <trkpt lat="45.4492372" lon="9.2058402" />
      <trkpt lat="45.4480654" lon="9.2048854" />
      <trkpt lat="45.4480621" lon="9.2048628" />
      <trkpt lat="45.4480470" lon="9.2048509" />
      <trkpt lat="45.4479915" lon="9.2048072" />
      <trkpt lat="45.4478959" lon="9.2047320" />
      <trkpt lat="45.4478771" lon="9.2047172" />
      <trkpt lat="45.4478584" lon="9.2047372" />
      <trkpt lat="45.4473456" lon="9.2043147" />
      <trkpt lat="45.4472403" lon="9.2042359" />
      <trkpt lat="45.4472078" lon="9.2041853" />
      <trkpt lat="45.4472024" lon="9.2041238" />
      <trkpt lat="45.4471956" lon="9.2040452" />
      <trkpt lat="45.4472120" lon="9.2040431" />
      <trkpt lat="45.4471929" lon="9.2036311" />
      <trkpt lat="45.4471707" lon="9.2031509" />
      <trkpt lat="45.4471685" lon="9.2031010" />
      <trkpt lat="45.4471639" lon="9.2030790" />
      <trkpt lat="45.4471523" lon="9.2030228" />
      <trkpt lat="45.4471427" lon="9.2029765" />
      <trkpt lat="45.4471400" lon="9.2029633" />
      <trkpt lat="45.4471307" lon="9.2027145" />
      <trkpt lat="45.4471301" lon="9.2026960" />
      <trkpt lat="45.4471276" lon="9.2026276" />
      <trkpt lat="45.4471001" lon="9.2026302" />
      <trkpt lat="45.4470765" lon="9.2026318" />
      <trkpt lat="45.4470752" lon="9.2026025" />
      <trkpt lat="45.4470275" lon="9.2025886" />
      <trkpt lat="45.4470169" lon="9.2024660" />
      <trkpt lat="45.4470049" lon="9.2021540" />
      <trkpt lat="45.4470023" lon="9.2020759" />
      <trkpt lat="45.4469993" lon="9.2020135" />
      <trkpt lat="45.4469873" lon="9.2016735" />
      <trkpt lat="45.4469852" lon="9.2016192" />
      <trkpt lat="45.4469810" lon="9.2015058" />
      <trkpt lat="45.4469672" lon="9.2014918" />
      <trkpt lat="45.4469403" lon="9.2014749" />
      <trkpt lat="45.4468989" lon="9.2014686" />
      <trkpt lat="45.4468559" lon="9.2014724" />
      <trkpt lat="45.4468129" lon="9.2014763" />
      <trkpt lat="45.4467479" lon="9.2014821" />
      <trkpt lat="45.4466459" lon="9.2014911" />
      <trkpt lat="45.4465364" lon="9.2015009" />
      <trkpt lat="45.4465317" lon="9.2013969" />
      <trkpt lat="45.4465052" lon="9.2013995" />
      <trkpt lat="45.4464802" lon="9.2014019" />
      <trkpt lat="45.4463363" lon="9.1983252" />
      <trkpt lat="45.4463279" lon="9.1983171" />
      <trkpt lat="45.4463259" lon="9.1982939" />
      <trkpt lat="45.4463187" lon="9.1982122" />
      <trkpt lat="45.4463134" lon="9.1981297" />
      <trkpt lat="45.4463122" lon="9.1981105" />
      <trkpt lat="45.4463100" lon="9.1980738" />
      <trkpt lat="45.4463081" lon="9.1980432" />
      <trkpt lat="45.4463050" lon="9.1979768" />
      <trkpt lat="45.4462998" lon="9.1979066" />
      <trkpt lat="45.4462981" lon="9.1978784" />
      <trkpt lat="45.4463204" lon="9.1978339" />
      <trkpt lat="45.4462729" lon="9.1967147" />
      <trkpt lat="45.4461874" lon="9.1947030" />
      <trkpt lat="45.4461533" lon="9.1946772" />
      <trkpt lat="45.4461522" lon="9.1946534" />
      <trkpt lat="45.4461503" lon="9.1946122" />
      <trkpt lat="45.4461494" lon="9.1945935" />
      <trkpt lat="45.4461417" lon="9.1944273" />
      <trkpt lat="45.4461406" lon="9.1944037" />
      <trkpt lat="45.4461390" lon="9.1943685" />
      <trkpt lat="45.4461380" lon="9.1943470" />
      <trkpt lat="45.4459578" lon="9.1943631" />
      <trkpt lat="45.4456351" lon="9.1944382" />
      <trkpt lat="45.4454429" lon="9.1944612" />
      <trkpt lat="45.4453982" lon="9.1944665" />
      <trkpt lat="45.4453591" lon="9.1944709" />
      <trkpt lat="45.4452283" lon="9.1944856" />
      <trkpt lat="45.4451279" lon="9.1944971" />
      <trkpt lat="45.4450561" lon="9.1945041" />
      <trkpt lat="45.4450224" lon="9.1945073" />
      <trkpt lat="45.4449980" lon="9.1944840" />
      <trkpt lat="45.4449822" lon="9.1944656" />
      <trkpt lat="45.4449555" lon="9.1944298" />
      <trkpt lat="45.4449397" lon="9.1944021" />
      <trkpt lat="45.4449256" lon="9.1943635" />
      <trkpt lat="45.4449133" lon="9.1943232" />
      <trkpt lat="45.4449001" lon="9.1942642" />
      <trkpt lat="45.4448719" lon="9.1942280" />
      <trkpt lat="45.4448286" lon="9.1942173" />
      <trkpt lat="45.4447596" lon="9.1929555" />
      <trkpt lat="45.4447345" lon="9.1926294" />
      <trkpt lat="45.4447358" lon="9.1925343" />
      <trkpt lat="45.4447405" lon="9.1921976" />
      <trkpt lat="45.4447421" lon="9.1920849" />
      <trkpt lat="45.4447289" lon="9.1916424" />
      <trkpt lat="45.4447289" lon="9.1915887" />
      <trkpt lat="45.4447571" lon="9.1915190" />
      <trkpt lat="45.4448493" lon="9.1913768" />
      <trkpt lat="45.4448681" lon="9.1912132" />
      <trkpt lat="45.4449027" lon="9.1909402" />
      <trkpt lat="45.4449179" lon="9.1907656" />
      <trkpt lat="45.4448764" lon="9.1901853" />
      <trkpt lat="45.4448444" lon="9.1899014" />
      <trkpt lat="45.4448186" lon="9.1896714" />
      <trkpt lat="45.4447635" lon="9.1891822" />
      <trkpt lat="45.4447280" lon="9.1889267" />
      <trkpt lat="45.4446945" lon="9.1886665" />
      <trkpt lat="45.4446308" lon="9.1885975" />
      <trkpt lat="45.4446140" lon="9.1884209" />
      <trkpt lat="45.4446062" lon="9.1883395" />
      <trkpt lat="45.4446007" lon="9.1882901" />
      <trkpt lat="45.4445741" lon="9.1880672" />
      <trkpt lat="45.4445581" lon="9.1879275" />
      <trkpt lat="45.4452089" lon="9.1878493" />
      <trkpt lat="45.4456129" lon="9.1878146" />
      <trkpt lat="45.4456299" lon="9.1878131" />
      <trkpt lat="45.4456241" lon="9.1877958" />
      <trkpt lat="45.4455996" lon="9.1877224" />
      <trkpt lat="45.4455884" lon="9.1876676" />
      <trkpt lat="45.4455604" lon="9.1875776" />
      <trkpt lat="45.4455287" lon="9.1875101" />
      <trkpt lat="45.4455062" lon="9.1874426" />
      <trkpt lat="45.4455017" lon="9.1874292" />
      <trkpt lat="45.4455037" lon="9.1874049" />
      <trkpt lat="45.4455160" lon="9.1873996" />
      <trkpt lat="45.4455662" lon="9.1873781" />
      <trkpt lat="45.4455998" lon="9.1873638" />
      <trkpt lat="45.4456382" lon="9.1873473" />
      <trkpt lat="45.4456622" lon="9.1873370" />
      <trkpt lat="45.4457080" lon="9.1873175" />
      <trkpt lat="45.4457337" lon="9.1873065" />
      <trkpt lat="45.4457721" lon="9.1872900" />
      <trkpt lat="45.4458131" lon="9.1872725" />
      <trkpt lat="45.4458238" lon="9.1872679" />
      <trkpt lat="45.4458384" lon="9.1872773" />
      <trkpt lat="45.4460938" lon="9.1871547" />
      <trkpt lat="45.4461046" lon="9.1871505" />
      <trkpt lat="45.4461532" lon="9.1871190" />
      <trkpt lat="45.4460927" lon="9.1869809" />
      <trkpt lat="45.4460184" lon="9.1867680" />
      <trkpt lat="45.4459781" lon="9.1866314" />
      <trkpt lat="45.4460516" lon="9.1866218" />
      <trkpt lat="45.4461266" lon="9.1866000" />
      <trkpt lat="45.4461925" lon="9.1865774" />
      <trkpt lat="45.4462676" lon="9.1865344" />
      <trkpt lat="45.4463287" lon="9.1864805" />
      <trkpt lat="45.4464086" lon="9.1863927" />
      <trkpt lat="45.4464537" lon="9.1863096" />
      <trkpt lat="45.4464760" lon="9.1862413" />
      <trkpt lat="45.4465081" lon="9.1860769" />
      <trkpt lat="45.4465105" lon="9.1859945" />
      <trkpt lat="45.4465041" lon="9.1858918" />
      <trkpt lat="45.4464820" lon="9.1857837" />
      <trkpt lat="45.4464469" lon="9.1856834" />
      <trkpt lat="45.4464901" lon="9.1856361" />
      <trkpt lat="45.4467942" lon="9.1852685" />
      <trkpt lat="45.4468079" lon="9.1852435" />
      <trkpt lat="45.4468151" lon="9.1852158" />
      <trkpt lat="45.4468110" lon="9.1851673" />
      <trkpt lat="45.4467872" lon="9.1851071" />
      <trkpt lat="45.4467579" lon="9.1850660" />
      <trkpt lat="45.4467308" lon="9.1850555" />
      <trkpt lat="45.4467364" lon="9.1850223" />
      <trkpt lat="45.4467378" lon="9.1850115" />
      <trkpt lat="45.4467138" lon="9.1850055" />
      <trkpt lat="45.4467169" lon="9.1849891" />
      <trkpt lat="45.4467196" lon="9.1849655" />
      <trkpt lat="45.4467253" lon="9.1849296" />
      <trkpt lat="45.4467280" lon="9.1849122" />
      <trkpt lat="45.4467315" lon="9.1848880" />
      <trkpt lat="45.4468415" lon="9.1849180" />
      <trkpt lat="45.4468451" lon="9.1847181" />
      <trkpt lat="45.4473189" lon="9.1846323" />
      <trkpt lat="45.4472655" lon="9.1841291" />
      <trkpt lat="45.4473138" lon="9.1841209" />
      <trkpt lat="45.4474724" lon="9.1840937" />
      <trkpt lat="45.4475977" lon="9.1838741" />
      <trkpt lat="45.4476486" lon="9.1838648" />
      <trkpt lat="45.4475734" lon="9.1830580" />
      <trkpt lat="45.4475603" lon="9.1829172" />
      <trkpt lat="45.4476687" lon="9.1828966" />
      <trkpt lat="45.4477807" lon="9.1828753" />
      <trkpt lat="45.4477855" lon="9.1829235" />
      <trkpt lat="45.4485927" lon="9.1827448" />
      <trkpt lat="45.4491544" lon="9.1826203" />
      <trkpt lat="45.4491629" lon="9.1826043" />
      <trkpt lat="45.4491399" lon="9.1824287" />
      <trkpt lat="45.4491482" lon="9.1824267" />
      <trkpt lat="45.4491800" lon="9.1824191" />
      <trkpt lat="45.4492161" lon="9.1824104" />
      <trkpt lat="45.4492241" lon="9.1824085" />
      <trkpt lat="45.4492349" lon="9.1823857" />
      <trkpt lat="45.4494520" lon="9.1823539" />
      <trkpt lat="45.4494476" lon="9.1822929" />
      <trkpt lat="45.4492258" lon="9.1823257" />
      <trkpt lat="45.4492222" lon="9.1822807" />
      <trkpt lat="45.4492212" lon="9.1822717" />
      <trkpt lat="45.4492141" lon="9.1822668" />
      <trkpt lat="45.4491855" lon="9.1820376" />
      <trkpt lat="45.4491379" lon="9.1816856" />
      <trkpt lat="45.4490605" lon="9.1810754" />
      <trkpt lat="45.4489656" lon="9.1803617" />
      <trkpt lat="45.4489420" lon="9.1801419" />
      <trkpt lat="45.4489187" lon="9.1799461" />
      <trkpt lat="45.4488958" lon="9.1797870" />
      <trkpt lat="45.4489150" lon="9.1797899" />
      <trkpt lat="45.4496307" lon="9.1799095" />
      <trkpt lat="45.4497404" lon="9.1799272" />
      <trkpt lat="45.4501908" lon="9.1799858" />
      <trkpt lat="45.4502356" lon="9.1799908" />
      <trkpt lat="45.4505987" lon="9.1800233" />
      <trkpt lat="45.4510864" lon="9.1800669" />
      <trkpt lat="45.4512214" lon="9.1800843" />
      <trkpt lat="45.4512943" lon="9.1800937" />
      <trkpt lat="45.4517058" lon="9.1801598" />
      <trkpt lat="45.4518700" lon="9.1801862" />
      <trkpt lat="45.4519376" lon="9.1801973" />
      <trkpt lat="45.4519324" lon="9.1801702" />
      <trkpt lat="45.4519329" lon="9.1801466" />
      <trkpt lat="45.4519332" lon="9.1801263" />
      <trkpt lat="45.4519338" lon="9.1801091" />
      <trkpt lat="45.4519355" lon="9.1800706" />
      <trkpt lat="45.4519364" lon="9.1800370" />
      <trkpt lat="45.4519769" lon="9.1800146" />
      <trkpt lat="45.4519854" lon="9.1800142" />
      <trkpt lat="45.4520214" lon="9.1800127" />
      <trkpt lat="45.4520490" lon="9.1800118" />
      <trkpt lat="45.4520686" lon="9.1800106" />
      <trkpt lat="45.4520900" lon="9.1800099" />
      <trkpt lat="45.4521120" lon="9.1800101" />
      <trkpt lat="45.4521170" lon="9.1800087" />
      <trkpt lat="45.4521167" lon="9.1800604" />
      <trkpt lat="45.4521557" lon="9.1800688" />
      <trkpt lat="45.4521881" lon="9.1800546" />
      <trkpt lat="45.4522090" lon="9.1800378" />
      <trkpt lat="45.4522318" lon="9.1800176" />
      <trkpt lat="45.4522598" lon="9.1799960" />
      <trkpt lat="45.4522837" lon="9.1799650" />
      <trkpt lat="45.4522960" lon="9.1799596" />
      <trkpt lat="45.4523143" lon="9.1799625" />
      <trkpt lat="45.4523240" lon="9.1799629" />
      <trkpt lat="45.4523306" lon="9.1799625" />
      <trkpt lat="45.4523387" lon="9.1799621" />
      <trkpt lat="45.4523444" lon="9.1799621" />
      <trkpt lat="45.4523586" lon="9.1799610" />
      <trkpt lat="45.4523651" lon="9.1799600" />
      <trkpt lat="45.4523700" lon="9.1799595" />
      <trkpt lat="45.4523854" lon="9.1799606" />
      <trkpt lat="45.4523975" lon="9.1799616" />
      <trkpt lat="45.4524081" lon="9.1799653" />
      <trkpt lat="45.4524271" lon="9.1799683" />
      <trkpt lat="45.4524930" lon="9.1799673" />
      <trkpt lat="45.4525972" lon="9.1799942" />
      <trkpt lat="45.4526378" lon="9.1797047" />
      <trkpt lat="45.4526859" lon="9.1790764" />
      <trkpt lat="45.4528588" lon="9.1791087" />
      <trkpt lat="45.4529262" lon="9.1797873" />
      <trkpt lat="45.4529650" lon="9.1797949" />
      <trkpt lat="45.4529756" lon="9.1797995" />
      <trkpt lat="45.4529831" lon="9.1796978" />
      <trkpt lat="45.4529907" lon="9.1795959" />
      <trkpt lat="45.4529982" lon="9.1794940" />
      <trkpt lat="45.4529850" lon="9.1793160" />
      <trkpt lat="45.4529791" lon="9.1792366" />
      <trkpt lat="45.4529288" lon="9.1785597" />
      <trkpt lat="45.4529502" lon="9.1785544" />
      <trkpt lat="45.4529696" lon="9.1785496" />
      <trkpt lat="45.4529934" lon="9.1785433" />
      <trkpt lat="45.4530186" lon="9.1785367" />
      <trkpt lat="45.4530472" lon="9.1785292" />
      <trkpt lat="45.4530742" lon="9.1785219" />
      <trkpt lat="45.4530844" lon="9.1785192" />
      <trkpt lat="45.4530829" lon="9.1784967" />
      <trkpt lat="45.4530913" lon="9.1784799" />
      <trkpt lat="45.4532032" lon="9.1784424" />
      <trkpt lat="45.4535178" lon="9.1783042" />
      <trkpt lat="45.4543058" lon="9.1777971" />
      <trkpt lat="45.4543346" lon="9.1778199" />
      <trkpt lat="45.4546265" lon="9.1781314" />
      <trkpt lat="45.4546373" lon="9.1781130" />
      <trkpt lat="45.4546549" lon="9.1780833" />
      <trkpt lat="45.4549003" lon="9.1783791" />
      <trkpt lat="45.4549470" lon="9.1783457" />
      <trkpt lat="45.4549849" lon="9.1783925" />
      <trkpt lat="45.4551113" lon="9.1785489" />
      <trkpt lat="45.4552813" lon="9.1787648" />
      <trkpt lat="45.4553606" lon="9.1788486" />
      <trkpt lat="45.4554012" lon="9.1787287" />
      <trkpt lat="45.4556544" lon="9.1789084" />
      <trkpt lat="45.4559144" lon="9.1790930" />
      <trkpt lat="45.4558701" lon="9.1792259" />
      <trkpt lat="45.4560182" lon="9.1793326" />
      <trkpt lat="45.4563260" lon="9.1795544" />
      <trkpt lat="45.4563553" lon="9.1795755" />
      <trkpt lat="45.4568587" lon="9.1798811" />
      <trkpt lat="45.4573187" lon="9.1801490" />
      <trkpt lat="45.4573316" lon="9.1802015" />
      <trkpt lat="45.4573893" lon="9.1802998" />
      <trkpt lat="45.4575198" lon="9.1803481" />
      <trkpt lat="45.4575142" lon="9.1803648" />
      <trkpt lat="45.4575063" lon="9.1803881" />
      <trkpt lat="45.4575330" lon="9.1803926" />
      <trkpt lat="45.4575587" lon="9.1803981" />
      <trkpt lat="45.4578943" lon="9.1796695" />
      <trkpt lat="45.4579489" lon="9.1795525" />
      <trkpt lat="45.4580060" lon="9.1794464" />
      <trkpt lat="45.4580434" lon="9.1794791" />
      <trkpt lat="45.4580581" lon="9.1794947" />
      <trkpt lat="45.4580666" lon="9.1794710" />
      <trkpt lat="45.4580759" lon="9.1794506" />
      <trkpt lat="45.4585077" lon="9.1784874" />
      <trkpt lat="45.4586841" lon="9.1781262" />
      <trkpt lat="45.4587297" lon="9.1780388" />
      <trkpt lat="45.4587673" lon="9.1780147" />
      <trkpt lat="45.4588047" lon="9.1780056" />
      <trkpt lat="45.4589191" lon="9.1781496" />
      <trkpt lat="45.4589273" lon="9.1781592" />
      <trkpt lat="45.4589294" lon="9.1781617" />
      <trkpt lat="45.4589427" lon="9.1781769" />
      <trkpt lat="45.4589504" lon="9.1781847" />
      <trkpt lat="45.4589576" lon="9.1781815" />
      <trkpt lat="45.4590028" lon="9.1782236" />
      <trkpt lat="45.4590045" lon="9.1782307" />
      <trkpt lat="45.4589955" lon="9.1782766" />
      <trkpt lat="45.4590049" lon="9.1782970" />
      <trkpt lat="45.4590175" lon="9.1783242" />
      <trkpt lat="45.4590447" lon="9.1783829" />
      <trkpt lat="45.4590476" lon="9.1783892" />
      <trkpt lat="45.4590533" lon="9.1783984" />
      <trkpt lat="45.4590729" lon="9.1783808" />
      <trkpt lat="45.4591175" lon="9.1783399" />
      <trkpt lat="45.4591291" lon="9.1783293" />
      <trkpt lat="45.4591399" lon="9.1783194" />
      <trkpt lat="45.4591639" lon="9.1782974" />
      <trkpt lat="45.4591952" lon="9.1782688" />
      <trkpt lat="45.4592016" lon="9.1782629" />
      <trkpt lat="45.4591820" lon="9.1782111" />
      <trkpt lat="45.4591831" lon="9.1781704" />
      <trkpt lat="45.4592024" lon="9.1781409" />
      <trkpt lat="45.4594933" lon="9.1778660" />
      <trkpt lat="45.4596038" lon="9.1777588" />
      <trkpt lat="45.4598155" lon="9.1777267" />
      <trkpt lat="45.4602288" lon="9.1776573" />
      <trkpt lat="45.4602962" lon="9.1776465" />
      <trkpt lat="45.4603418" lon="9.1776936" />
      <trkpt lat="45.4603801" lon="9.1779380" />
      <trkpt lat="45.4607136" lon="9.1795612" />
      <trkpt lat="45.4607191" lon="9.1795593" />
      <trkpt lat="45.4607321" lon="9.1795549" />
      <trkpt lat="45.4607577" lon="9.1795486" />
      <trkpt lat="45.4607634" lon="9.1795442" />
      <trkpt lat="45.4607923" lon="9.1795828" />
      <trkpt lat="45.4607988" lon="9.1796053" />
      <trkpt lat="45.4608048" lon="9.1796461" />
      <trkpt lat="45.4608086" lon="9.1796736" />
      <trkpt lat="45.4608169" lon="9.1796972" />
      <trkpt lat="45.4612411" lon="9.1799165" />
      <trkpt lat="45.4614052" lon="9.1799741" />
      <trkpt lat="45.4614177" lon="9.1800108" />
      <trkpt lat="45.4615318" lon="9.1803987" />
      <trkpt lat="45.4615453" lon="9.1806860" />
      <trkpt lat="45.4615281" lon="9.1806888" />
      <trkpt lat="45.4615287" lon="9.1806990" />
      <trkpt lat="45.4615301" lon="9.1807303" />
      <trkpt lat="45.4615315" lon="9.1807550" />
      <trkpt lat="45.4615311" lon="9.1807656" />
      <trkpt lat="45.4615382" lon="9.1807877" />
      <trkpt lat="45.4615509" lon="9.1812076" />
      <trkpt lat="45.4615564" lon="9.1812066" />
      <trkpt lat="45.4615886" lon="9.1812013" />
      <trkpt lat="45.4615993" lon="9.1811996" />
      <trkpt lat="45.4616173" lon="9.1811966" />
      <trkpt lat="45.4616492" lon="9.1815654" />
      <trkpt lat="45.4616512" lon="9.1815796" />
      <trkpt lat="45.4616663" lon="9.1815852" />
      <trkpt lat="45.4619950" lon="9.1815284" />
      <trkpt lat="45.4621522" lon="9.1814886" />
      <trkpt lat="45.4623578" lon="9.1812063" />
      <trkpt lat="45.4625136" lon="9.1811010" />
      <trkpt lat="45.4627212" lon="9.1809688" />
      <trkpt lat="45.4627219" lon="9.1809709" />
      <trkpt lat="45.4627290" lon="9.1809907" />
      <trkpt lat="45.4627348" lon="9.1810067" />
      <trkpt lat="45.4627358" lon="9.1810092" />
      <trkpt lat="45.4627671" lon="9.1809927" />
      <trkpt lat="45.4627746" lon="9.1810260" />
      <trkpt lat="45.4627775" lon="9.1810249" />
      <trkpt lat="45.4627869" lon="9.1810212" />
      <trkpt lat="45.4629257" lon="9.1816096" />
      <trkpt lat="45.4631322" lon="9.1824765" />
      <trkpt lat="45.4631550" lon="9.1825476" />
      <trkpt lat="45.4631712" lon="9.1825979" />
      <trkpt lat="45.4632508" lon="9.1828735" />
      <trkpt lat="45.4632719" lon="9.1829470" />
      <trkpt lat="45.4633415" lon="9.1831888" />
      <trkpt lat="45.4634746" lon="9.1837007" />
      <trkpt lat="45.4635490" lon="9.1838253" />
      <trkpt lat="45.4636026" lon="9.1838996" />
      <trkpt lat="45.4636255" lon="9.1838867" />
      <trkpt lat="45.4636394" lon="9.1838754" />
      <trkpt lat="45.4641045" lon="9.1843769" />
      <trkpt lat="45.4641553" lon="9.1844260" />
      <trkpt lat="45.4641395" lon="9.1844417" />
      <trkpt lat="45.4640957" lon="9.1844844" />
      <trkpt lat="45.4640670" lon="9.1845123" />
      <trkpt lat="45.4640628" lon="9.1845173" />
      <trkpt lat="45.4640674" lon="9.1845321" />
      <trkpt lat="45.4640324" lon="9.1846009" />
      <trkpt lat="45.4640397" lon="9.1846104" />
      <trkpt lat="45.4640621" lon="9.1846372" />
      <trkpt lat="45.4640858" lon="9.1846654" />
      <trkpt lat="45.4641062" lon="9.1846898" />
      <trkpt lat="45.4641328" lon="9.1846971" />
      <trkpt lat="45.4641500" lon="9.1847118" />
      <trkpt lat="45.4641755" lon="9.1847441" />
      <trkpt lat="45.4645051" lon="9.1852421" />
      <trkpt lat="45.4645140" lon="9.1852547" />
      <trkpt lat="45.4645321" lon="9.1854333" />
      <trkpt lat="45.4645027" lon="9.1854960" />
      <trkpt lat="45.4645128" lon="9.1855071" />
      <trkpt lat="45.4645670" lon="9.1855666" />
      <trkpt lat="45.4645713" lon="9.1855714" />
      <trkpt lat="45.4645867" lon="9.1855413" />
      <trkpt lat="45.4646483" lon="9.1855219" />
      <trkpt lat="45.4647081" lon="9.1855320" />
      <trkpt lat="45.4647804" lon="9.1856360" />
      <trkpt lat="45.4647866" lon="9.1856449" />
      <trkpt lat="45.4650054" lon="9.1859794" />
      <trkpt lat="45.4650302" lon="9.1860201" />
      <trkpt lat="45.4650630" lon="9.1860678" />
      <trkpt lat="45.4651107" lon="9.1861522" />
      <trkpt lat="45.4650844" lon="9.1862544" />
      <trkpt lat="45.4650978" lon="9.1862834" />
      <trkpt lat="45.4651074" lon="9.1863040" />
      <trkpt lat="45.4651400" lon="9.1863743" />
      <trkpt lat="45.4651659" lon="9.1864300" />
      <trkpt lat="45.4651740" lon="9.1864476" />
      <trkpt lat="45.4651412" lon="9.1864760" />
      <trkpt lat="45.4651553" lon="9.1864973" />
      <trkpt lat="45.4652005" lon="9.1865509" />
      <trkpt lat="45.4652533" lon="9.1866095" />
      <trkpt lat="45.4652325" lon="9.1866621" />
      <trkpt lat="45.4654066" lon="9.1867618" />
      <trkpt lat="45.4654687" lon="9.1867973" />
      <trkpt lat="45.4655382" lon="9.1868371" />
      <trkpt lat="45.4655696" lon="9.1868133" />
      <trkpt lat="45.4655699" lon="9.1867928" />
      <trkpt lat="45.4655713" lon="9.1866962" />
      <trkpt lat="45.4655443" lon="9.1866956" />
      <trkpt lat="45.4655439" lon="9.1867125" />
      <trkpt lat="45.4655421" lon="9.1867883" />
      <trkpt lat="45.4655423" lon="9.1868011" />
      <trkpt lat="45.4655412" lon="9.1868491" />
      <trkpt lat="45.4655639" lon="9.1868511" />
      <trkpt lat="45.4655632" lon="9.1868723" />
      <trkpt lat="45.4655717" lon="9.1873491" />
      <trkpt lat="45.4655768" lon="9.1879091" />
      <trkpt lat="45.4655801" lon="9.1879714" />
      <trkpt lat="45.4655688" lon="9.1879775" />
      <trkpt lat="45.4655689" lon="9.1879865" />
      <trkpt lat="45.4655697" lon="9.1880750" />
      <trkpt lat="45.4656494" lon="9.1881720" />
      <trkpt lat="45.4656950" lon="9.1882274" />
      <trkpt lat="45.4657363" lon="9.1882636" />
      <trkpt lat="45.4658146" lon="9.1883308" />
      <trkpt lat="45.4658189" lon="9.1883360" />
      <trkpt lat="45.4659953" lon="9.1884729" />
      <trkpt lat="45.4660603" lon="9.1885291" />
      <trkpt lat="45.4660871" lon="9.1885523" />
      <trkpt lat="45.4661744" lon="9.1886277" />
      <trkpt lat="45.4662217" lon="9.1886687" />
      <trkpt lat="45.4664073" lon="9.1888404" />
      <trkpt lat="45.4664971" lon="9.1889226" />
      <trkpt lat="45.4665170" lon="9.1889408" />
      <trkpt lat="45.4665899" lon="9.1890074" />
      <trkpt lat="45.4666066" lon="9.1890228" />
      <trkpt lat="45.4668728" lon="9.1892950" />
      <trkpt lat="45.4668934" lon="9.1893225" />
      <trkpt lat="45.4669184" lon="9.1893557" />
      <trkpt lat="45.4669126" lon="9.1893652" />
      <trkpt lat="45.4668796" lon="9.1894196" />
      <trkpt lat="45.4668742" lon="9.1894276" />
      <trkpt lat="45.4669004" lon="9.1894606" />
      <trkpt lat="45.4668988" lon="9.1894638" />
      <trkpt lat="45.4667367" lon="9.1897447" />
      <trkpt lat="45.4665605" lon="9.1900449" />
      <trkpt lat="45.4665440" lon="9.1900713" />
      <trkpt lat="45.4665605" lon="9.1900449" />
      <trkpt lat="45.4665392" lon="9.1900178" />
      <trkpt lat="45.4664632" lon="9.1900269" />
      <trkpt lat="45.4664257" lon="9.1900265" />
      <trkpt lat="45.4663725" lon="9.1900268" />
      <trkpt lat="45.4660513" lon="9.1900267" />
      <trkpt lat="45.4657805" lon="9.1900258" />
      <trkpt lat="45.4657697" lon="9.1900266" />
      <trkpt lat="45.4657212" lon="9.1900266" />
      <trkpt lat="45.4656114" lon="9.1900265" />
      <trkpt lat="45.4656107" lon="9.1898627" />
      <trkpt lat="45.4656106" lon="9.1898145" />
      <trkpt lat="45.4656107" lon="9.1897779" />
      <trkpt lat="45.4656092" lon="9.1893366" />
      <trkpt lat="45.4656089" lon="9.1893183" />
      <trkpt lat="45.4655431" lon="9.1893182" />
      <trkpt lat="45.4649102" lon="9.1893067" />
      <trkpt lat="45.4648556" lon="9.1893038" />
      <trkpt lat="45.4648555" lon="9.1892875" />
      <trkpt lat="45.4648485" lon="9.1892874" />
      <trkpt lat="45.4647267" lon="9.1892868" />
      <trkpt lat="45.4647267" lon="9.1892186" />
      <trkpt lat="45.4646537" lon="9.1891261" />
      <trkpt lat="45.4644636" lon="9.1890292" />
      <trkpt lat="45.4644469" lon="9.1890273" />
      <trkpt lat="45.4643411" lon="9.1890264" />
      <trkpt lat="45.4642356" lon="9.1890243" />
      <trkpt lat="45.4639910" lon="9.1890236" />
      <trkpt lat="45.4639341" lon="9.1890226" />
      <trkpt lat="45.4637982" lon="9.1890213" />
      <trkpt lat="45.4637319" lon="9.1890225" />
      <trkpt lat="45.4637329" lon="9.1889492" />
      <trkpt lat="45.4637332" lon="9.1889265" />
      <trkpt lat="45.4637335" lon="9.1889066" />
      <trkpt lat="45.4637338" lon="9.1888841" />
      <trkpt lat="45.4637344" lon="9.1888372" />
      <trkpt lat="45.4636879" lon="9.1888363" />
      <trkpt lat="45.4636880" lon="9.1888097" />
      <trkpt lat="45.4636880" lon="9.1887996" />
      <trkpt lat="45.4636706" lon="9.1887812" />
      <trkpt lat="45.4636714" lon="9.1886805" />
      <trkpt lat="45.4636713" lon="9.1885837" />
      <trkpt lat="45.4636712" lon="9.1885745" />
      <trkpt lat="45.4636369" lon="9.1885741" />
      <trkpt lat="45.4635982" lon="9.1885736" />
      <trkpt lat="45.4635933" lon="9.1885635" />
      <trkpt lat="45.4635843" lon="9.1885356" />
      <trkpt lat="45.4635790" lon="9.1885192" />
      <trkpt lat="45.4635267" lon="9.1885191" />
      <trkpt lat="45.4632950" lon="9.1885189" />
      <trkpt lat="45.4632051" lon="9.1885178" />
      <trkpt lat="45.4628780" lon="9.1885136" />
      <trkpt lat="45.4628394" lon="9.1885131" />
      <trkpt lat="45.4628393" lon="9.1884922" />
      <trkpt lat="45.4628391" lon="9.1884746" />
      <trkpt lat="45.4628388" lon="9.1884389" />
      <trkpt lat="45.4627756" lon="9.1884203" />
      <trkpt lat="45.4627610" lon="9.1884201" />
      <trkpt lat="45.4627262" lon="9.1884192" />
      <trkpt lat="45.4627041" lon="9.1884191" />
      <trkpt lat="45.4626842" lon="9.1884188" />
      <trkpt lat="45.4626733" lon="9.1884445" />
      <trkpt lat="45.4619162" lon="9.1884342" />
      <trkpt lat="45.4617297" lon="9.1884365" />
      <trkpt lat="45.4613923" lon="9.1884132" />
      <trkpt lat="45.4613522" lon="9.1883922" />
      <trkpt lat="45.4612129" lon="9.1883608" />
      <trkpt lat="45.4610869" lon="9.1883090" />
      <trkpt lat="45.4610420" lon="9.1882814" />
      <trkpt lat="45.4608958" lon="9.1882187" />
      <trkpt lat="45.4608797" lon="9.1882158" />
      <trkpt lat="45.4608532" lon="9.1882109" />
      <trkpt lat="45.4608293" lon="9.1882066" />
      <trkpt lat="45.4608201" lon="9.1882044" />
      <trkpt lat="45.4608072" lon="9.1882007" />
      <trkpt lat="45.4606571" lon="9.1881558" />
      <trkpt lat="45.4606483" lon="9.1881532" />
      <trkpt lat="45.4605767" lon="9.1881284" />
      <trkpt lat="45.4604898" lon="9.1881360" />
      <trkpt lat="45.4604000" lon="9.1881480" />
      <trkpt lat="45.4602605" lon="9.1881254" />
      <trkpt lat="45.4602503" lon="9.1880978" />
      <trkpt lat="45.4602414" lon="9.1880946" />
      <trkpt lat="45.4602007" lon="9.1880801" />
      <trkpt lat="45.4601845" lon="9.1880743" />
      <trkpt lat="45.4601610" lon="9.1880674" />
      <trkpt lat="45.4601594" lon="9.1880774" />
      <trkpt lat="45.4601572" lon="9.1881114" />
      <trkpt lat="45.4601107" lon="9.1880986" />
      <trkpt lat="45.4598747" lon="9.1880284" />
      <trkpt lat="45.4595289" lon="9.1879255" />
      <trkpt lat="45.4595318" lon="9.1879297" />
      <trkpt lat="45.4595259" lon="9.1879667" />
      <trkpt lat="45.4595240" lon="9.1879787" />
      <trkpt lat="45.4595175" lon="9.1880195" />
      <trkpt lat="45.4593657" lon="9.1879789" />
      <trkpt lat="45.4592694" lon="9.1879528" />
      <trkpt lat="45.4592566" lon="9.1880232" />
      <trkpt lat="45.4592541" lon="9.1880384" />
      <trkpt lat="45.4592457" lon="9.1880343" />
      <trkpt lat="45.4586930" lon="9.1878819" />
      <trkpt lat="45.4583681" lon="9.1878020" />
      <trkpt lat="45.4583523" lon="9.1878005" />
      <trkpt lat="45.4582834" lon="9.1877938" />
      <trkpt lat="45.4590450" lon="9.1894108" />
      <trkpt lat="45.4590383" lon="9.1894656" />
      <trkpt lat="45.4590293" lon="9.1894739" />
      <trkpt lat="45.4590094" lon="9.1894922" />
      <trkpt lat="45.4587270" lon="9.1897532" />
      <trkpt lat="45.4580827" lon="9.1899088" />
      <trkpt lat="45.4580727" lon="9.1899111" />
      <trkpt lat="45.4575843" lon="9.1900272" />
      <trkpt lat="45.4575324" lon="9.1900382" />
      <trkpt lat="45.4574858" lon="9.1900490" />
      <trkpt lat="45.4573166" lon="9.1900879" />
      <trkpt lat="45.4571139" lon="9.1901368" />
      <trkpt lat="45.4570870" lon="9.1901408" />
      <trkpt lat="45.4570556" lon="9.1901480" />
      <trkpt lat="45.4570251" lon="9.1900799" />
      <trkpt lat="45.4570488" lon="9.1900611" />
      <trkpt lat="45.4570608" lon="9.1900536" />
      <trkpt lat="45.4567420" lon="9.1891840" />
      <trkpt lat="45.4567361" lon="9.1891672" />
      <trkpt lat="45.4566632" lon="9.1889612" />
      <trkpt lat="45.4563420" lon="9.1880532" />
      <trkpt lat="45.4563442" lon="9.1877023" />
      <trkpt lat="45.4563447" lon="9.1875340" />
      <trkpt lat="45.4562484" lon="9.1875232" />
      <trkpt lat="45.4562341" lon="9.1875216" />
      <trkpt lat="45.4562185" lon="9.1875199" />
      <trkpt lat="45.4562056" lon="9.1875185" />
      <trkpt lat="45.4561906" lon="9.1875167" />
      <trkpt lat="45.4561284" lon="9.1875098" />
      <trkpt lat="45.4561284" lon="9.1875084" />
      <trkpt lat="45.4561301" lon="9.1874864" />
      <trkpt lat="45.4561326" lon="9.1874592" />
      <trkpt lat="45.4561351" lon="9.1874317" />
      <trkpt lat="45.4561364" lon="9.1874168" />
      <trkpt lat="45.4561386" lon="9.1873928" />
      <trkpt lat="45.4561411" lon="9.1873659" />
      <trkpt lat="45.4562399" lon="9.1873841" />
      <trkpt lat="45.4563171" lon="9.1874051" />
      <trkpt lat="45.4563249" lon="9.1873978" />
      <trkpt lat="45.4563335" lon="9.1873984" />
      <trkpt lat="45.4563539" lon="9.1873999" />
      <trkpt lat="45.4563677" lon="9.1874010" />
      <trkpt lat="45.4563736" lon="9.1874014" />
      <trkpt lat="45.4566388" lon="9.1874242" />
      <trkpt lat="45.4566435" lon="9.1873611" />
      <trkpt lat="45.4569752" lon="9.1873981" />
      <trkpt lat="45.4569891" lon="9.1871983" />
      <trkpt lat="45.4569963" lon="9.1863627" />
      <trkpt lat="45.4569907" lon="9.1863150" />
      <trkpt lat="45.4570199" lon="9.1859579" />
      <trkpt lat="45.4570231" lon="9.1859585" />
      <trkpt lat="45.4570328" lon="9.1859604" />
      <trkpt lat="45.4571523" lon="9.1848935" />
      <trkpt lat="45.4571923" lon="9.1845229" />
      <trkpt lat="45.4572096" lon="9.1845235" />
      <trkpt lat="45.4572226" lon="9.1845239" />
      <trkpt lat="45.4572492" lon="9.1844937" />
      <trkpt lat="45.4572513" lon="9.1844628" />
      <trkpt lat="45.4572539" lon="9.1844243" />
      <trkpt lat="45.4577250" lon="9.1844032" />
      <trkpt lat="45.4580501" lon="9.1843942" />
      <trkpt lat="45.4581956" lon="9.1843901" />
      <trkpt lat="45.4583888" lon="9.1843890" />
      <trkpt lat="45.4584758" lon="9.1843971" />
      <trkpt lat="45.4585082" lon="9.1844010" />
      <trkpt lat="45.4585184" lon="9.1844007" />
      <trkpt lat="45.4585288" lon="9.1844648" />
      <trkpt lat="45.4587707" lon="9.1846669" />
      <trkpt lat="45.4588125" lon="9.1846974" />
      <trkpt lat="45.4589660" lon="9.1848422" />
      <trkpt lat="45.4590062" lon="9.1848739" />
      <trkpt lat="45.4593540" lon="9.1851620" />
      <trkpt lat="45.4594306" lon="9.1852341" />
      <trkpt lat="45.4596446" lon="9.1854356" />
      <trkpt lat="45.4599233" lon="9.1856945" />
      <trkpt lat="45.4599186" lon="9.1857011" />
      <trkpt lat="45.4599160" lon="9.1857048" />
      <trkpt lat="45.4599353" lon="9.1857282" />
      <trkpt lat="45.4599624" lon="9.1857731" />
      <trkpt lat="45.4600003" lon="9.1858551" />
      <trkpt lat="45.4601457" lon="9.1864006" />
      <trkpt lat="45.4601269" lon="9.1864109" />
      <trkpt lat="45.4601278" lon="9.1864137" />
      <trkpt lat="45.4601317" lon="9.1864250" />
      <trkpt lat="45.4601351" lon="9.1864373" />
      <trkpt lat="45.4601358" lon="9.1864397" />
      <trkpt lat="45.4600962" lon="9.1864604" />
      <trkpt lat="45.4599365" lon="9.1865513" />
      <trkpt lat="45.4599401" lon="9.1865845" />
      <trkpt lat="45.4599312" lon="9.1865910" />
      <trkpt lat="45.4599191" lon="9.1865989" />
      <trkpt lat="45.4599059" lon="9.1866091" />
      <trkpt lat="45.4599029" lon="9.1866113" />
      <trkpt lat="45.4599486" lon="9.1867600" />
      <trkpt lat="45.4600172" lon="9.1870289" />
      <trkpt lat="45.4602099" lon="9.1877600" />
      <trkpt lat="45.4601610" lon="9.1880674" />
      <trkpt lat="45.4601594" lon="9.1880774" />
      <trkpt lat="45.4601572" lon="9.1881114" />
      <trkpt lat="45.4601107" lon="9.1880986" />
      <trkpt lat="45.4598747" lon="9.1880284" />
      <trkpt lat="45.4601107" lon="9.1880986" />
      <trkpt lat="45.4601572" lon="9.1881114" />
      <trkpt lat="45.4601594" lon="9.1880774" />
      <trkpt lat="45.4601610" lon="9.1880674" />
      <trkpt lat="45.4601845" lon="9.1880743" />
      <trkpt lat="45.4602007" lon="9.1880801" />
      <trkpt lat="45.4602414" lon="9.1880946" />
      <trkpt lat="45.4602503" lon="9.1880978" />
      <trkpt lat="45.4602605" lon="9.1881254" />
      <trkpt lat="45.4604000" lon="9.1881480" />
      <trkpt lat="45.4604898" lon="9.1881360" />
      <trkpt lat="45.4604871" lon="9.1881597" />
      <trkpt lat="45.4604805" lon="9.1882163" />
      <trkpt lat="45.4604752" lon="9.1882629" />
      <trkpt lat="45.4604738" lon="9.1882748" />
      <trkpt lat="45.4604707" lon="9.1883018" />
      <trkpt lat="45.4604682" lon="9.1883234" />
      <trkpt lat="45.4604647" lon="9.1883535" />
      <trkpt lat="45.4604500" lon="9.1884007" />
      <trkpt lat="45.4604580" lon="9.1884218" />
      <trkpt lat="45.4604659" lon="9.1884427" />
      <trkpt lat="45.4604730" lon="9.1884614" />
      <trkpt lat="45.4604796" lon="9.1884788" />
      <trkpt lat="45.4604865" lon="9.1884968" />
      <trkpt lat="45.4604914" lon="9.1885097" />
      <trkpt lat="45.4604972" lon="9.1885250" />
      <trkpt lat="45.4605157" lon="9.1885736" />
      <trkpt lat="45.4605267" lon="9.1886029" />
      <trkpt lat="45.4605375" lon="9.1886304" />
      <trkpt lat="45.4604713" lon="9.1886908" />
      <trkpt lat="45.4604405" lon="9.1887323" />
      <trkpt lat="45.4603373" lon="9.1888883" />
      <trkpt lat="45.4603324" lon="9.1888971" />
      <trkpt lat="45.4603247" lon="9.1889070" />
      <trkpt lat="45.4603181" lon="9.1889156" />
      <trkpt lat="45.4603112" lon="9.1889246" />
      <trkpt lat="45.4605475" lon="9.1892437" />
      <trkpt lat="45.4605090" lon="9.1892925" />
      <trkpt lat="45.4608124" lon="9.1896910" />
      <trkpt lat="45.4608169" lon="9.1897151" />
      <trkpt lat="45.4608289" lon="9.1897240" />
      <trkpt lat="45.4608561" lon="9.1897332" />
      <trkpt lat="45.4606567" lon="9.1907964" />
      <trkpt lat="45.4606522" lon="9.1908815" />
      <trkpt lat="45.4606613" lon="9.1909639" />
      <trkpt lat="45.4606684" lon="9.1910377" />
      <trkpt lat="45.4606870" lon="9.1911048" />
      <trkpt lat="45.4607116" lon="9.1911702" />
      <trkpt lat="45.4607398" lon="9.1912281" />
      <trkpt lat="45.4608681" lon="9.1914325" />
      <trkpt lat="45.4608350" lon="9.1915152" />
      <trkpt lat="45.4608584" lon="9.1915432" />
      <trkpt lat="45.4608687" lon="9.1915498" />
      <trkpt lat="45.4608761" lon="9.1915587" />
      <trkpt lat="45.4609452" lon="9.1916338" />
      <trkpt lat="45.4617534" lon="9.1927578" />
      <trkpt lat="45.4619105" lon="9.1930294" />
      <trkpt lat="45.4620361" lon="9.1932890" />
      <trkpt lat="45.4620514" lon="9.1933144" />
      <trkpt lat="45.4620729" lon="9.1933502" />
      <trkpt lat="45.4620895" lon="9.1933779" />
      <trkpt lat="45.4621036" lon="9.1934014" />
      <trkpt lat="45.4622467" lon="9.1936735" />
      <trkpt lat="45.4623222" lon="9.1937929" />
      <trkpt lat="45.4623476" lon="9.1938372" />
      <trkpt lat="45.4624435" lon="9.1941361" />
      <trkpt lat="45.4621288" lon="9.1944618" />
      <trkpt lat="45.4620850" lon="9.1945305" />
      <trkpt lat="45.4619207" lon="9.1948811" />
      <trkpt lat="45.4619072" lon="9.1949200" />
      <trkpt lat="45.4618883" lon="9.1949199" />
      <trkpt lat="45.4618293" lon="9.1948889" />
      <trkpt lat="45.4618267" lon="9.1948968" />
      <trkpt lat="45.4618124" lon="9.1949397" />
      <trkpt lat="45.4618017" lon="9.1949720" />
      <trkpt lat="45.4618004" lon="9.1949760" />
      <trkpt lat="45.4617996" lon="9.1949936" />
      <trkpt lat="45.4617255" lon="9.1952110" />
      <trkpt lat="45.4616910" lon="9.1953031" />
      <trkpt lat="45.4615889" lon="9.1954801" />
      <trkpt lat="45.4615612" lon="9.1955059" />
      <trkpt lat="45.4614410" lon="9.1955664" />
      <trkpt lat="45.4614237" lon="9.1955636" />
      <trkpt lat="45.4613913" lon="9.1955788" />
      <trkpt lat="45.4613561" lon="9.1955953" />
      <trkpt lat="45.4613601" lon="9.1956287" />
      <trkpt lat="45.4613514" lon="9.1956269" />
      <trkpt lat="45.4613330" lon="9.1956243" />
      <trkpt lat="45.4613052" lon="9.1956211" />
      <trkpt lat="45.4612523" lon="9.1957239" />
      <trkpt lat="45.4612398" lon="9.1957320" />
      <trkpt lat="45.4611916" lon="9.1957247" />
      <trkpt lat="45.4611518" lon="9.1957223" />
      <trkpt lat="45.4611342" lon="9.1957360" />
      <trkpt lat="45.4610401" lon="9.1959364" />
      <trkpt lat="45.4611342" lon="9.1957360" />
      <trkpt lat="45.4611518" lon="9.1957223" />
      <trkpt lat="45.4611916" lon="9.1957247" />
      <trkpt lat="45.4612398" lon="9.1957320" />
      <trkpt lat="45.4612523" lon="9.1957239" />
      <trkpt lat="45.4613052" lon="9.1956211" />
      <trkpt lat="45.4613330" lon="9.1956243" />
      <trkpt lat="45.4613514" lon="9.1956269" />
      <trkpt lat="45.4613601" lon="9.1956287" />
      <trkpt lat="45.4614235" lon="9.1956391" />
      <trkpt lat="45.4613120" lon="9.1957900" />
      <trkpt lat="45.4613392" lon="9.1958334" />
      <trkpt lat="45.4615267" lon="9.1961740" />
      <trkpt lat="45.4615778" lon="9.1962728" />
      <trkpt lat="45.4616289" lon="9.1963503" />
      <trkpt lat="45.4618120" lon="9.1965594" />
      <trkpt lat="45.4622794" lon="9.1969466" />
      <trkpt lat="45.4626760" lon="9.1973095" />
      <trkpt lat="45.4626566" lon="9.1973505" />
      <trkpt lat="45.4626546" lon="9.1973539" />
      <trkpt lat="45.4626329" lon="9.1973898" />
      <trkpt lat="45.4625377" lon="9.1975782" />
      <trkpt lat="45.4624089" lon="9.1978084" />
      <trkpt lat="45.4623919" lon="9.1978188" />
      <trkpt lat="45.4623628" lon="9.1978195" />
      <trkpt lat="45.4623489" lon="9.1978352" />
      <trkpt lat="45.4623405" lon="9.1978486" />
      <trkpt lat="45.4623315" lon="9.1978631" />
      <trkpt lat="45.4623133" lon="9.1978926" />
      <trkpt lat="45.4622935" lon="9.1979245" />
      <trkpt lat="45.4622721" lon="9.1979590" />
      <trkpt lat="45.4622626" lon="9.1979744" />
      <trkpt lat="45.4622624" lon="9.1980088" />
      <trkpt lat="45.4621733" lon="9.1982624" />
      <trkpt lat="45.4621733" lon="9.1982768" />
      <trkpt lat="45.4621732" lon="9.1983066" />
      <trkpt lat="45.4621733" lon="9.1983162" />
      <trkpt lat="45.4621719" lon="9.1983285" />
      <trkpt lat="45.4621252" lon="9.1983390" />
      <trkpt lat="45.4613081" lon="9.1984842" />
      <trkpt lat="45.4609912" lon="9.1985406" />
      <trkpt lat="45.4609788" lon="9.1985775" />
      <trkpt lat="45.4609688" lon="9.1985784" />
      <trkpt lat="45.4609200" lon="9.1985826" />
      <trkpt lat="45.4608976" lon="9.1985845" />
      <trkpt lat="45.4608908" lon="9.1985851" />
      <trkpt lat="45.4608899" lon="9.1985986" />
      <trkpt lat="45.4609199" lon="9.1996129" />
      <trkpt lat="45.4608832" lon="9.1999533" />
      <trkpt lat="45.4606323" lon="9.1999212" />
      <trkpt lat="45.4606213" lon="9.2000975" />
      <trkpt lat="45.4599758" lon="9.1999789" />
      <trkpt lat="45.4599076" lon="9.1999664" />
      <trkpt lat="45.4598830" lon="9.1999434" />
      <trkpt lat="45.4598650" lon="9.1999452" />
      <trkpt lat="45.4598434" lon="9.1999473" />
      <trkpt lat="45.4598190" lon="9.1999498" />
      <trkpt lat="45.4598127" lon="9.1999504" />
      <trkpt lat="45.4597974" lon="9.1996851" />
      <trkpt lat="45.4597487" lon="9.1990536" />
      <trkpt lat="45.4597491" lon="9.1988801" />
      <trkpt lat="45.4597365" lon="9.1987795" />
      <trkpt lat="45.4597110" lon="9.1987494" />
      <trkpt lat="45.4595754" lon="9.1987696" />
      <trkpt lat="45.4588442" lon="9.1989048" />
      <trkpt lat="45.4588539" lon="9.1988534" />
      <trkpt lat="45.4590463" lon="9.1988206" />
      <trkpt lat="45.4590431" lon="9.1987590" />
      <trkpt lat="45.4591421" lon="9.1987428" />
      <trkpt lat="45.4591659" lon="9.1987388" />
      <trkpt lat="45.4591848" lon="9.1987356" />
      <trkpt lat="45.4591930" lon="9.1987345" />
      <trkpt lat="45.4592332" lon="9.1986536" />
      <trkpt lat="45.4592320" lon="9.1986399" />
      <trkpt lat="45.4592257" lon="9.1985045" />
      <trkpt lat="45.4592041" lon="9.1985020" />
      <trkpt lat="45.4591838" lon="9.1984914" />
      <trkpt lat="45.4591663" lon="9.1984734" />
      <trkpt lat="45.4591527" lon="9.1984493" />
      <trkpt lat="45.4591442" lon="9.1984209" />
      <trkpt lat="45.4591413" lon="9.1983904" />
      <trkpt lat="45.4591443" lon="9.1983598" />
      <trkpt lat="45.4591922" lon="9.1981268" />
      <trkpt lat="45.4593213" lon="9.1974991" />
      <trkpt lat="45.4593683" lon="9.1972704" />
      <trkpt lat="45.4593781" lon="9.1972384" />
      <trkpt lat="45.4593945" lon="9.1972123" />
      <trkpt lat="45.4594157" lon="9.1971947" />
      <trkpt lat="45.4594397" lon="9.1971872" />
      <trkpt lat="45.4594641" lon="9.1971907" />
      <trkpt lat="45.4595175" lon="9.1969744" />
      <trkpt lat="45.4595473" lon="9.1969709" />
      <trkpt lat="45.4595605" lon="9.1969705" />
      <trkpt lat="45.4595611" lon="9.1969274" />
      <trkpt lat="45.4595438" lon="9.1968480" />
      <trkpt lat="45.4596039" lon="9.1968113" />
      <trkpt lat="45.4596315" lon="9.1967446" />
      <trkpt lat="45.4595972" lon="9.1962077" />
      <trkpt lat="45.4595461" lon="9.1954210" />
      <trkpt lat="45.4595875" lon="9.1954658" />
      <trkpt lat="45.4596066" lon="9.1954811" />
      <trkpt lat="45.4596261" lon="9.1954832" />
      <trkpt lat="45.4600397" lon="9.1958612" />
      <trkpt lat="45.4603430" lon="9.1961476" />
      <trkpt lat="45.4604792" lon="9.1962689" />
      <trkpt lat="45.4607113" lon="9.1964968" />
      <trkpt lat="45.4607178" lon="9.1964772" />
      <trkpt lat="45.4607420" lon="9.1964253" />
      <trkpt lat="45.4607719" lon="9.1963614" />
      <trkpt lat="45.4607772" lon="9.1963500" />
      <trkpt lat="45.4607844" lon="9.1963347" />
      <trkpt lat="45.4608010" lon="9.1963368" />
      <trkpt lat="45.4611009" lon="9.1959758" />
      <trkpt lat="45.4613456" lon="9.1956856" />
      <trkpt lat="45.4613576" lon="9.1956637" />
      <trkpt lat="45.4613608" lon="9.1956416" />
      <trkpt lat="45.4613601" lon="9.1956287" />
      <trkpt lat="45.4613514" lon="9.1956269" />
      <trkpt lat="45.4613330" lon="9.1956243" />
      <trkpt lat="45.4613052" lon="9.1956211" />
      <trkpt lat="45.4612523" lon="9.1957239" />
      <trkpt lat="45.4612398" lon="9.1957320" />
      <trkpt lat="45.4611916" lon="9.1957247" />
      <trkpt lat="45.4611518" lon="9.1957223" />
      <trkpt lat="45.4611342" lon="9.1957360" />
      <trkpt lat="45.4610401" lon="9.1959364" />
      <trkpt lat="45.4611342" lon="9.1957360" />
      <trkpt lat="45.4611518" lon="9.1957223" />
      <trkpt lat="45.4611916" lon="9.1957247" />
      <trkpt lat="45.4612398" lon="9.1957320" />
      <trkpt lat="45.4612523" lon="9.1957239" />
      <trkpt lat="45.4613052" lon="9.1956211" />
      <trkpt lat="45.4613330" lon="9.1956243" />
      <trkpt lat="45.4613514" lon="9.1956269" />
      <trkpt lat="45.4613601" lon="9.1956287" />
      <trkpt lat="45.4613608" lon="9.1956416" />
      <trkpt lat="45.4613576" lon="9.1956637" />
      <trkpt lat="45.4613456" lon="9.1956856" />
      <trkpt lat="45.4611009" lon="9.1959758" />
      <trkpt lat="45.4608010" lon="9.1963368" />
      <trkpt lat="45.4607844" lon="9.1963347" />
      <trkpt lat="45.4607772" lon="9.1963500" />
      <trkpt lat="45.4607719" lon="9.1963614" />
      <trkpt lat="45.4607420" lon="9.1964253" />
      <trkpt lat="45.4607178" lon="9.1964772" />
      <trkpt lat="45.4607113" lon="9.1964968" />
      <trkpt lat="45.4608434" lon="9.1966069" />
      <trkpt lat="45.4608616" lon="9.1966566" />
      <trkpt lat="45.4608621" lon="9.1967059" />
      <trkpt lat="45.4608883" lon="9.1984481" />
      <trkpt lat="45.4608702" lon="9.1984910" />
      <trkpt lat="45.4603967" lon="9.1985637" />
      <trkpt lat="45.4603115" lon="9.1985777" />
      <trkpt lat="45.4597987" lon="9.1986527" />
      <trkpt lat="45.4597734" lon="9.1986108" />
      <trkpt lat="45.4597677" lon="9.1986113" />
      <trkpt lat="45.4597487" lon="9.1986129" />
      <trkpt lat="45.4597537" lon="9.1987063" />
      <trkpt lat="45.4597014" lon="9.1987172" />
      <trkpt lat="45.4595559" lon="9.1987407" />
      <trkpt lat="45.4592504" lon="9.1987901" />
      <trkpt lat="45.4591702" lon="9.1988033" />
      <trkpt lat="45.4590463" lon="9.1988206" />
      <trkpt lat="45.4588539" lon="9.1988534" />
      <trkpt lat="45.4588442" lon="9.1989048" />
      <trkpt lat="45.4585626" lon="9.1989503" />
      <trkpt lat="45.4584908" lon="9.1989626" />
      <trkpt lat="45.4584774" lon="9.1989649" />
      <trkpt lat="45.4578356" lon="9.1990571" />
      <trkpt lat="45.4578197" lon="9.1990901" />
      <trkpt lat="45.4577810" lon="9.1990983" />
      <trkpt lat="45.4577553" lon="9.1991037" />
      <trkpt lat="45.4577468" lon="9.1991055" />
      <trkpt lat="45.4578816" lon="9.2003106" />
      <trkpt lat="45.4578884" lon="9.2003484" />
      <trkpt lat="45.4578932" lon="9.2003759" />
      <trkpt lat="45.4579006" lon="9.2004297" />
      <trkpt lat="45.4579074" lon="9.2004789" />
      <trkpt lat="45.4579067" lon="9.2004846" />
      <trkpt lat="45.4569423" lon="9.2007959" />
      <trkpt lat="45.4569275" lon="9.2008010" />
      <trkpt lat="45.4569193" lon="9.2008279" />
      <trkpt lat="45.4569096" lon="9.2008309" />
      <trkpt lat="45.4568961" lon="9.2008351" />
      <trkpt lat="45.4568801" lon="9.2008401" />
      <trkpt lat="45.4569679" lon="9.2013745" />
      <trkpt lat="45.4569740" lon="9.2014255" />
      <trkpt lat="45.4569773" lon="9.2014815" />
      <trkpt lat="45.4569778" lon="9.2015291" />
      <trkpt lat="45.4569780" lon="9.2015917" />
      <trkpt lat="45.4569644" lon="9.2015900" />
      <trkpt lat="45.4569346" lon="9.2015861" />
      <trkpt lat="45.4568926" lon="9.2015682" />
      <trkpt lat="45.4569751" lon="9.2020878" />
      <trkpt lat="45.4569737" lon="9.2020986" />
      <trkpt lat="45.4569703" lon="9.2021054" />
      <trkpt lat="45.4569656" lon="9.2021088" />
      <trkpt lat="45.4563122" lon="9.2023268" />
      <trkpt lat="45.4554481" lon="9.2026115" />
      <trkpt lat="45.4554292" lon="9.2026180" />
      <trkpt lat="45.4554157" lon="9.2026215" />
      <trkpt lat="45.4553938" lon="9.2026293" />
      <trkpt lat="45.4553857" lon="9.2026320" />
      <trkpt lat="45.4553782" lon="9.2026418" />
      <trkpt lat="45.4548633" lon="9.2028021" />
      <trkpt lat="45.4548346" lon="9.2027970" />
      <trkpt lat="45.4544151" lon="9.2025524" />
      <trkpt lat="45.4541215" lon="9.2023812" />
      <trkpt lat="45.4540475" lon="9.2023380" />
      <trkpt lat="45.4540202" lon="9.2023252" />
      <trkpt lat="45.4539692" lon="9.2023012" />
      <trkpt lat="45.4538981" lon="9.2022678" />
      <trkpt lat="45.4538728" lon="9.2022559" />
      <trkpt lat="45.4537127" lon="9.2022103" />
      <trkpt lat="45.4528926" lon="9.2020271" />
      <trkpt lat="45.4527917" lon="9.2019887" />
      <trkpt lat="45.4526678" lon="9.2019173" />
      <trkpt lat="45.4525892" lon="9.2018280" />
      <trkpt lat="45.4525494" lon="9.2017712" />
      <trkpt lat="45.4525406" lon="9.2017362" />
      <trkpt lat="45.4525320" lon="9.2017246" />
      <trkpt lat="45.4525104" lon="9.2016955" />
      <trkpt lat="45.4525023" lon="9.2016846" />
      <trkpt lat="45.4524913" lon="9.2016698" />
      <trkpt lat="45.4524610" lon="9.2016290" />
      <trkpt lat="45.4524492" lon="9.2016131" />
      <trkpt lat="45.4524268" lon="9.2016445" />
      <trkpt lat="45.4523947" lon="9.2016123" />
      <trkpt lat="45.4521688" lon="9.2013288" />
      <trkpt lat="45.4521015" lon="9.2012279" />
      <trkpt lat="45.4520626" lon="9.2004042" />
      <trkpt lat="45.4520816" lon="9.2000095" />
      <trkpt lat="45.4521007" lon="9.2000034" />
      <trkpt lat="45.4521014" lon="9.1999905" />
      <trkpt lat="45.4521045" lon="9.1999386" />
      <trkpt lat="45.4521071" lon="9.1998959" />
      <trkpt lat="45.4521086" lon="9.1998703" />
      <trkpt lat="45.4520990" lon="9.1998538" />
      <trkpt lat="45.4520663" lon="9.1998486" />
      <trkpt lat="45.4520316" lon="9.1998432" />
      <trkpt lat="45.4519937" lon="9.1998372" />
      <trkpt lat="45.4519731" lon="9.1998339" />
      <trkpt lat="45.4519420" lon="9.1998290" />
      <trkpt lat="45.4519183" lon="9.1998252" />
      <trkpt lat="45.4518917" lon="9.1998210" />
      <trkpt lat="45.4519693" lon="9.1987874" />
      <trkpt lat="45.4519745" lon="9.1984679" />
      <trkpt lat="45.4519802" lon="9.1983016" />
      <trkpt lat="45.4519605" lon="9.1977655" />
      <trkpt lat="45.4519554" lon="9.1976175" />
      <trkpt lat="45.4519236" lon="9.1966871" />
      <trkpt lat="45.4518963" lon="9.1966542" />
      <trkpt lat="45.4518197" lon="9.1966600" />
      <trkpt lat="45.4518184" lon="9.1966495" />
      <trkpt lat="45.4518148" lon="9.1966192" />
      <trkpt lat="45.4518123" lon="9.1965990" />
      <trkpt lat="45.4518107" lon="9.1965857" />
      <trkpt lat="45.4518095" lon="9.1965753" />
      <trkpt lat="45.4517967" lon="9.1964695" />
      <trkpt lat="45.4517940" lon="9.1964470" />
      <trkpt lat="45.4515636" lon="9.1965080" />
      <trkpt lat="45.4515035" lon="9.1965475" />
      <trkpt lat="45.4512118" lon="9.1966341" />
      <trkpt lat="45.4511509" lon="9.1966475" />
      <trkpt lat="45.4510541" lon="9.1966706" />
      <trkpt lat="45.4510403" lon="9.1966609" />
      <trkpt lat="45.4510285" lon="9.1966362" />
      <trkpt lat="45.4510219" lon="9.1966075" />
      <trkpt lat="45.4510140" lon="9.1966071" />
      <trkpt lat="45.4509578" lon="9.1966045" />
      <trkpt lat="45.4509497" lon="9.1966042" />
      <trkpt lat="45.4509383" lon="9.1966036" />
      <trkpt lat="45.4509352" lon="9.1966034" />
      <trkpt lat="45.4509245" lon="9.1966030" />
      <trkpt lat="45.4509219" lon="9.1966029" />
      <trkpt lat="45.4509058" lon="9.1966022" />
      <trkpt lat="45.4508828" lon="9.1966011" />
      <trkpt lat="45.4508686" lon="9.1966004" />
      <trkpt lat="45.4508620" lon="9.1966277" />
      <trkpt lat="45.4508528" lon="9.1966546" />
      <trkpt lat="45.4508419" lon="9.1966808" />
      <trkpt lat="45.4508296" lon="9.1967058" />
      <trkpt lat="45.4508156" lon="9.1967271" />
      <trkpt lat="45.4507965" lon="9.1967482" />
      <trkpt lat="45.4507575" lon="9.1965735" />
      <trkpt lat="45.4505046" lon="9.1953935" />
      <trkpt lat="45.4502740" lon="9.1943157" />
      <trkpt lat="45.4502759" lon="9.1943100" />
      <trkpt lat="45.4502814" lon="9.1943070" />
      <trkpt lat="45.4502893" lon="9.1943059" />
      <trkpt lat="45.4502882" lon="9.1942866" />
      <trkpt lat="45.4502851" lon="9.1942339" />
      <trkpt lat="45.4502825" lon="9.1941882" />
      <trkpt lat="45.4502793" lon="9.1941320" />
      <trkpt lat="45.4502764" lon="9.1940817" />
      <trkpt lat="45.4502735" lon="9.1940325" />
      <trkpt lat="45.4502725" lon="9.1940147" />
      <trkpt lat="45.4502702" lon="9.1939756" />
      <trkpt lat="45.4502179" lon="9.1939783" />
      <trkpt lat="45.4502100" lon="9.1939150" />
      <trkpt lat="45.4501529" lon="9.1932367" />
      <trkpt lat="45.4501680" lon="9.1932127" />
      <trkpt lat="45.4501628" lon="9.1931571" />
      <trkpt lat="45.4500906" lon="9.1931574" />
      <trkpt lat="45.4500661" lon="9.1928545" />
      <trkpt lat="45.4500198" lon="9.1922843" />
      <trkpt lat="45.4499916" lon="9.1919362" />
      <trkpt lat="45.4499324" lon="9.1906163" />
      <trkpt lat="45.4499692" lon="9.1906154" />
      <trkpt lat="45.4499834" lon="9.1906149" />
      <trkpt lat="45.4500119" lon="9.1906130" />
      <trkpt lat="45.4508390" lon="9.1905437" />
      <trkpt lat="45.4508393" lon="9.1905120" />
      <trkpt lat="45.4508402" lon="9.1903981" />
      <trkpt lat="45.4508411" lon="9.1902931" />
      <trkpt lat="45.4508415" lon="9.1902479" />
      <trkpt lat="45.4508551" lon="9.1902286" />
      <trkpt lat="45.4508769" lon="9.1902300" />
      <trkpt lat="45.4508992" lon="9.1902342" />
      <trkpt lat="45.4509104" lon="9.1902324" />
      <trkpt lat="45.4509242" lon="9.1902329" />
      <trkpt lat="45.4509293" lon="9.1902331" />
      <trkpt lat="45.4509407" lon="9.1902340" />
      <trkpt lat="45.4509549" lon="9.1902348" />
      <trkpt lat="45.4509670" lon="9.1902356" />
      <trkpt lat="45.4510235" lon="9.1902391" />
      <trkpt lat="45.4510416" lon="9.1902402" />
      <trkpt lat="45.4510650" lon="9.1902561" />
      <trkpt lat="45.4514331" lon="9.1901818" />
      <trkpt lat="45.4517163" lon="9.1897262" />
      <trkpt lat="45.4519044" lon="9.1886434" />
      <trkpt lat="45.4520711" lon="9.1876601" />
      <trkpt lat="45.4521819" lon="9.1871074" />
      <trkpt lat="45.4521728" lon="9.1870854" />
    </trkseg>
  </trk>
</gpx>
