<?xml version="1.0" encoding="UTF-8"?>
<gpx xmlns="http://www.topografix.com/GPX/1/1" version="1.1" creator="ShapeRoute route-engine">
  <metadata>
    <name>CIAO 15 km trento block</name>
    <author>
      <name>ShapeRoute route-engine</name>
    </author>
    <copyright author="OpenStreetMap contributors">
      <license>https://opendatacommons.org/licenses/odbl/1-0/</license>
    </copyright>
    <link href="https://www.openstreetmap.org/copyright">
      <text>© OpenStreetMap contributors</text>
    </link>
    <time>2026-09-26T06:44:04Z</time>
  </metadata>
  <trk>
    <name>CIAO 15 km trento block</name>
    <trkseg>
      <trkpt lat="46.0668711" lon="11.1210492" />
      <trkpt lat="46.0667705" lon="11.1210629" />
      <trkpt lat="46.0667526" lon="11.1210542" />
      <trkpt lat="46.0667024" lon="11.1213629" />
      <trkpt lat="46.0666701" lon="11.1215352" />
      <trkpt lat="46.0666789" lon="11.1217092" />
      <trkpt lat="46.0667274" lon="11.1218448" />
      <trkpt lat="46.0667304" lon="11.1218751" />
      <trkpt lat="46.0667697" lon="11.1219637" />
      <trkpt lat="46.0668675" lon="11.1221842" />
      <trkpt lat="46.0668704" lon="11.1222043" />
      <trkpt lat="46.0668726" lon="11.1222251" />
      <trkpt lat="46.0667963" lon="11.1222541" />
      <trkpt lat="46.0667787" lon="11.1222601" />
      <trkpt lat="46.0667357" lon="11.1222747" />
      <trkpt lat="46.0667414" lon="11.1223091" />
      <trkpt lat="46.0667532" lon="11.1223909" />
      <trkpt lat="46.0667715" lon="11.1225101" />
      <trkpt lat="46.0667729" lon="11.1225194" />
      <trkpt lat="46.0667810" lon="11.1225726" />
      <trkpt lat="46.0668548" lon="11.1230552" />
      <trkpt lat="46.0668872" lon="11.1232848" />
      <trkpt lat="46.0668905" lon="11.1233334" />
      <trkpt lat="46.0668986" lon="11.1233290" />
      <trkpt lat="46.0669188" lon="11.1233181" />
      <trkpt lat="46.0669670" lon="11.1232923" />
      <trkpt lat="46.0672635" lon="11.1232024" />
      <trkpt lat="46.0672653" lon="11.1232368" />
      <trkpt lat="46.0672686" lon="11.1232351" />
      <trkpt lat="46.0672810" lon="11.1232291" />
      <trkpt lat="46.0672821" lon="11.1232581" />
      <trkpt lat="46.0672873" lon="11.1232576" />
      <trkpt lat="46.0673011" lon="11.1232564" />
      <trkpt lat="46.0673146" lon="11.1232553" />
      <trkpt lat="46.0673183" lon="11.1232550" />
      <trkpt lat="46.0673371" lon="11.1232534" />
      <trkpt lat="46.0674008" lon="11.1232483" />
      <trkpt lat="46.0674156" lon="11.1232472" />
      <trkpt lat="46.0676659" lon="11.1232331" />
      <trkpt lat="46.0677631" lon="11.1232283" />
      <trkpt lat="46.0678077" lon="11.1232267" />
      <trkpt lat="46.0678142" lon="11.1235709" />
      <trkpt lat="46.0680250" lon="11.1235503" />
      <trkpt lat="46.0682343" lon="11.1235128" />
      <trkpt lat="46.0682565" lon="11.1234891" />
      <trkpt lat="46.0682783" lon="11.1234658" />
      <trkpt lat="46.0685395" lon="11.1234315" />
      <trkpt lat="46.0687294" lon="11.1233985" />
      <trkpt lat="46.0688361" lon="11.1233813" />
      <trkpt lat="46.0690627" lon="11.1233576" />
      <trkpt lat="46.0690639" lon="11.1234329" />
      <trkpt lat="46.0690806" lon="11.1237071" />
      <trkpt lat="46.0690525" lon="11.1237112" />
      <trkpt lat="46.0688864" lon="11.1237325" />
      <trkpt lat="46.0682805" lon="11.1238337" />
      <trkpt lat="46.0682827" lon="11.1238602" />
      <trkpt lat="46.0682835" lon="11.1238873" />
      <trkpt lat="46.0683250" lon="11.1239053" />
      <trkpt lat="46.0683541" lon="11.1239478" />
      <trkpt lat="46.0683766" lon="11.1242292" />
      <trkpt lat="46.0683684" lon="11.1245203" />
      <trkpt lat="46.0683518" lon="11.1247826" />
      <trkpt lat="46.0683737" lon="11.1247791" />
      <trkpt lat="46.0684074" lon="11.1247738" />
      <trkpt lat="46.0686416" lon="11.1247367" />
      <trkpt lat="46.0689190" lon="11.1246745" />
      <trkpt lat="46.0690475" lon="11.1246554" />
      <trkpt lat="46.0691707" lon="11.1246269" />
      <trkpt lat="46.0691965" lon="11.1246012" />
      <trkpt lat="46.0692481" lon="11.1245332" />
      <trkpt lat="46.0694052" lon="11.1245238" />
      <trkpt lat="46.0695598" lon="11.1244935" />
      <trkpt lat="46.0700381" lon="11.1244249" />
      <trkpt lat="46.0700639" lon="11.1244390" />
      <trkpt lat="46.0700749" lon="11.1244576" />
      <trkpt lat="46.0700921" lon="11.1245372" />
      <trkpt lat="46.0701056" lon="11.1246991" />
      <trkpt lat="46.0701090" lon="11.1248579" />
      <trkpt lat="46.0701202" lon="11.1250443" />
      <trkpt lat="46.0701360" lon="11.1251878" />
      <trkpt lat="46.0701636" lon="11.1253748" />
      <trkpt lat="46.0701757" lon="11.1254398" />
      <trkpt lat="46.0701951" lon="11.1255251" />
      <trkpt lat="46.0703104" lon="11.1258937" />
      <trkpt lat="46.0703744" lon="11.1261142" />
      <trkpt lat="46.0704496" lon="11.1264614" />
      <trkpt lat="46.0704611" lon="11.1265307" />
      <trkpt lat="46.0704804" lon="11.1266564" />
      <trkpt lat="46.0705083" lon="11.1266443" />
      <trkpt lat="46.0705378" lon="11.1266280" />
      <trkpt lat="46.0705253" lon="11.1265592" />
      <trkpt lat="46.0704854" lon="11.1263179" />
      <trkpt lat="46.0704310" lon="11.1260912" />
      <trkpt lat="46.0704251" lon="11.1260668" />
      <trkpt lat="46.0706554" lon="11.1259825" />
      <trkpt lat="46.0708260" lon="11.1259603" />
      <trkpt lat="46.0708465" lon="11.1259592" />
      <trkpt lat="46.0708679" lon="11.1259562" />
      <trkpt lat="46.0709448" lon="11.1264026" />
      <trkpt lat="46.0709514" lon="11.1264411" />
      <trkpt lat="46.0709658" lon="11.1265217" />
      <trkpt lat="46.0709703" lon="11.1265422" />
      <trkpt lat="46.0709427" lon="11.1265551" />
      <trkpt lat="46.0705687" lon="11.1266685" />
      <trkpt lat="46.0705967" lon="11.1267698" />
      <trkpt lat="46.0706168" lon="11.1268395" />
      <trkpt lat="46.0706463" lon="11.1269426" />
      <trkpt lat="46.0706575" lon="11.1269811" />
      <trkpt lat="46.0707283" lon="11.1269408" />
      <trkpt lat="46.0707397" lon="11.1269815" />
      <trkpt lat="46.0707473" lon="11.1270088" />
      <trkpt lat="46.0708008" lon="11.1272006" />
      <trkpt lat="46.0708310" lon="11.1273090" />
      <trkpt lat="46.0708551" lon="11.1273949" />
      <trkpt lat="46.0707200" lon="11.1274690" />
      <trkpt lat="46.0705564" lon="11.1275589" />
      <trkpt lat="46.0705506" lon="11.1275580" />
      <trkpt lat="46.0705344" lon="11.1275585" />
      <trkpt lat="46.0700829" lon="11.1274439" />
      <trkpt lat="46.0700838" lon="11.1273345" />
      <trkpt lat="46.0701338" lon="11.1272889" />
      <trkpt lat="46.0701441" lon="11.1272813" />
      <trkpt lat="46.0701335" lon="11.1272571" />
      <trkpt lat="46.0701274" lon="11.1272407" />
      <trkpt lat="46.0700069" lon="11.1273936" />
      <trkpt lat="46.0699719" lon="11.1274335" />
      <trkpt lat="46.0699578" lon="11.1274338" />
      <trkpt lat="46.0699232" lon="11.1274344" />
      <trkpt lat="46.0699231" lon="11.1274466" />
      <trkpt lat="46.0699231" lon="11.1274554" />
      <trkpt lat="46.0699221" lon="11.1275173" />
      <trkpt lat="46.0699209" lon="11.1275983" />
      <trkpt lat="46.0699206" lon="11.1276259" />
      <trkpt lat="46.0699262" lon="11.1276890" />
      <trkpt lat="46.0699314" lon="11.1277523" />
      <trkpt lat="46.0699398" lon="11.1278053" />
      <trkpt lat="46.0699595" lon="11.1278391" />
      <trkpt lat="46.0699423" lon="11.1279639" />
      <trkpt lat="46.0699317" lon="11.1280657" />
      <trkpt lat="46.0699156" lon="11.1280643" />
      <trkpt lat="46.0698968" lon="11.1280672" />
      <trkpt lat="46.0698804" lon="11.1280920" />
      <trkpt lat="46.0698727" lon="11.1281221" />
      <trkpt lat="46.0698805" lon="11.1283204" />
      <trkpt lat="46.0698261" lon="11.1284497" />
      <trkpt lat="46.0698402" lon="11.1286135" />
      <trkpt lat="46.0698570" lon="11.1286746" />
      <trkpt lat="46.0698171" lon="11.1287601" />
      <trkpt lat="46.0697673" lon="11.1288385" />
      <trkpt lat="46.0696669" lon="11.1289332" />
      <trkpt lat="46.0694804" lon="11.1290691" />
      <trkpt lat="46.0688348" lon="11.1293939" />
      <trkpt lat="46.0687211" lon="11.1294348" />
      <trkpt lat="46.0686560" lon="11.1294429" />
      <trkpt lat="46.0685184" lon="11.1294392" />
      <trkpt lat="46.0684387" lon="11.1294344" />
      <trkpt lat="46.0684046" lon="11.1294416" />
      <trkpt lat="46.0683501" lon="11.1293914" />
      <trkpt lat="46.0683302" lon="11.1294010" />
      <trkpt lat="46.0683123" lon="11.1294097" />
      <trkpt lat="46.0682925" lon="11.1293320" />
      <trkpt lat="46.0682679" lon="11.1293437" />
      <trkpt lat="46.0682805" lon="11.1293978" />
      <trkpt lat="46.0682864" lon="11.1294242" />
      <trkpt lat="46.0683023" lon="11.1294154" />
      <trkpt lat="46.0682952" lon="11.1293883" />
      <trkpt lat="46.0682492" lon="11.1291994" />
      <trkpt lat="46.0682011" lon="11.1290129" />
      <trkpt lat="46.0681926" lon="11.1289843" />
      <trkpt lat="46.0679327" lon="11.1290117" />
      <trkpt lat="46.0677760" lon="11.1290764" />
      <trkpt lat="46.0675431" lon="11.1289875" />
      <trkpt lat="46.0675234" lon="11.1289800" />
      <trkpt lat="46.0674601" lon="11.1289333" />
      <trkpt lat="46.0671609" lon="11.1286784" />
      <trkpt lat="46.0670564" lon="11.1289334" />
      <trkpt lat="46.0669807" lon="11.1291233" />
      <trkpt lat="46.0669684" lon="11.1291146" />
      <trkpt lat="46.0669527" lon="11.1291035" />
      <trkpt lat="46.0669053" lon="11.1290700" />
      <trkpt lat="46.0668956" lon="11.1290931" />
      <trkpt lat="46.0668863" lon="11.1291066" />
      <trkpt lat="46.0668740" lon="11.1291156" />
      <trkpt lat="46.0668618" lon="11.1291195" />
      <trkpt lat="46.0668494" lon="11.1291127" />
      <trkpt lat="46.0664625" lon="11.1288956" />
      <trkpt lat="46.0664215" lon="11.1288729" />
      <trkpt lat="46.0663816" lon="11.1288471" />
      <trkpt lat="46.0663544" lon="11.1288314" />
      <trkpt lat="46.0657607" lon="11.1284880" />
      <trkpt lat="46.0657270" lon="11.1284685" />
      <trkpt lat="46.0660378" lon="11.1273383" />
      <trkpt lat="46.0659942" lon="11.1273145" />
      <trkpt lat="46.0659180" lon="11.1272752" />
      <trkpt lat="46.0659664" lon="11.1270981" />
      <trkpt lat="46.0662124" lon="11.1261632" />
      <trkpt lat="46.0662441" lon="11.1260428" />
      <trkpt lat="46.0659342" lon="11.1258733" />
      <trkpt lat="46.0659575" lon="11.1257955" />
      <trkpt lat="46.0659888" lon="11.1256911" />
      <trkpt lat="46.0657986" lon="11.1255218" />
      <trkpt lat="46.0657065" lon="11.1254149" />
      <trkpt lat="46.0656223" lon="11.1249238" />
      <trkpt lat="46.0656615" lon="11.1248850" />
      <trkpt lat="46.0656894" lon="11.1248307" />
      <trkpt lat="46.0657009" lon="11.1247688" />
      <trkpt lat="46.0656958" lon="11.1246657" />
      <trkpt lat="46.0656609" lon="11.1239761" />
      <trkpt lat="46.0658911" lon="11.1239464" />
      <trkpt lat="46.0658857" lon="11.1238752" />
      <trkpt lat="46.0658473" lon="11.1235325" />
      <trkpt lat="46.0660744" lon="11.1234355" />
      <trkpt lat="46.0661275" lon="11.1234176" />
      <trkpt lat="46.0662435" lon="11.1233852" />
      <trkpt lat="46.0663262" lon="11.1233667" />
      <trkpt lat="46.0663678" lon="11.1233580" />
      <trkpt lat="46.0663806" lon="11.1234542" />
      <trkpt lat="46.0666735" lon="11.1233841" />
      <trkpt lat="46.0668835" lon="11.1233350" />
      <trkpt lat="46.0668905" lon="11.1233334" />
      <trkpt lat="46.0668872" lon="11.1232848" />
      <trkpt lat="46.0668548" lon="11.1230552" />
      <trkpt lat="46.0667810" lon="11.1225726" />
      <trkpt lat="46.0667729" lon="11.1225194" />
      <trkpt lat="46.0667715" lon="11.1225101" />
      <trkpt lat="46.0667532" lon="11.1223909" />
      <trkpt lat="46.0667414" lon="11.1223091" />
      <trkpt lat="46.0667357" lon="11.1222747" />
      <trkpt lat="46.0667787" lon="11.1222601" />
      <trkpt lat="46.0667963" lon="11.1222541" />
      <trkpt lat="46.0668726" lon="11.1222251" />
      <trkpt lat="46.0668704" lon="11.1222043" />
      <trkpt lat="46.0668675" lon="11.1221842" />
      <trkpt lat="46.0667697" lon="11.1219637" />
      <trkpt lat="46.0667304" lon="11.1218751" />
      <trkpt lat="46.0667274" lon="11.1218448" />
      <trkpt lat="46.0666789" lon="11.1217092" />
      <trkpt lat="46.0666701" lon="11.1215352" />
      <trkpt lat="46.0667024" lon="11.1213629" />
      <trkpt lat="46.0667526" lon="11.1210542" />
      <trkpt lat="46.0667705" lon="11.1210629" />
      <trkpt lat="46.0668711" lon="11.1210492" />
      <trkpt lat="46.0668249" lon="11.1206182" />
      <trkpt lat="46.0670289" lon="11.1205458" />
      <trkpt lat="46.0670637" lon="11.1207156" />
      <trkpt lat="46.0670730" lon="11.1209842" />
      <trkpt lat="46.0670745" lon="11.1210291" />
      <trkpt lat="46.0673165" lon="11.1210193" />
      <trkpt lat="46.0674358" lon="11.1209903" />
      <trkpt lat="46.0675759" lon="11.1209222" />
      <trkpt lat="46.0676386" lon="11.1208917" />
      <trkpt lat="46.0677393" lon="11.1208327" />
      <trkpt lat="46.0678148" lon="11.1207864" />
      <trkpt lat="46.0678457" lon="11.1207672" />
      <trkpt lat="46.0679032" lon="11.1207116" />
      <trkpt lat="46.0681018" lon="11.1205393" />
      <trkpt lat="46.0681669" lon="11.1204445" />
      <trkpt lat="46.0682945" lon="11.1202664" />
      <trkpt lat="46.0683846" lon="11.1201435" />
      <trkpt lat="46.0684504" lon="11.1200865" />
      <trkpt lat="46.0684776" lon="11.1200039" />
      <trkpt lat="46.0685273" lon="11.1200042" />
      <trkpt lat="46.0685313" lon="11.1200706" />
      <trkpt lat="46.0686910" lon="11.1200385" />
      <trkpt lat="46.0686922" lon="11.1200685" />
      <trkpt lat="46.0686941" lon="11.1200894" />
      <trkpt lat="46.0686963" lon="11.1201124" />
      <trkpt lat="46.0687020" lon="11.1201725" />
      <trkpt lat="46.0687388" lon="11.1203760" />
      <trkpt lat="46.0687499" lon="11.1204587" />
      <trkpt lat="46.0687388" lon="11.1203760" />
      <trkpt lat="46.0687020" lon="11.1201725" />
      <trkpt lat="46.0686963" lon="11.1201124" />
      <trkpt lat="46.0686941" lon="11.1200894" />
      <trkpt lat="46.0686922" lon="11.1200685" />
      <trkpt lat="46.0686910" lon="11.1200385" />
      <trkpt lat="46.0685313" lon="11.1200706" />
      <trkpt lat="46.0685273" lon="11.1200042" />
      <trkpt lat="46.0686285" lon="11.1199921" />
      <trkpt lat="46.0687055" lon="11.1199855" />
      <trkpt lat="46.0687688" lon="11.1199699" />
      <trkpt lat="46.0687784" lon="11.1199700" />
      <trkpt lat="46.0688097" lon="11.1199685" />
      <trkpt lat="46.0688503" lon="11.1199666" />
      <trkpt lat="46.0688785" lon="11.1199652" />
      <trkpt lat="46.0688928" lon="11.1199633" />
      <trkpt lat="46.0689900" lon="11.1199487" />
      <trkpt lat="46.0690484" lon="11.1199429" />
      <trkpt lat="46.0691086" lon="11.1199380" />
      <trkpt lat="46.0691667" lon="11.1199367" />
      <trkpt lat="46.0692352" lon="11.1199271" />
      <trkpt lat="46.0693982" lon="11.1198734" />
      <trkpt lat="46.0694763" lon="11.1198434" />
      <trkpt lat="46.0695220" lon="11.1198116" />
      <trkpt lat="46.0695229" lon="11.1197302" />
      <trkpt lat="46.0695538" lon="11.1194352" />
      <trkpt lat="46.0695663" lon="11.1193364" />
      <trkpt lat="46.0695759" lon="11.1192602" />
      <trkpt lat="46.0696024" lon="11.1192604" />
      <trkpt lat="46.0696052" lon="11.1192349" />
      <trkpt lat="46.0696189" lon="11.1187623" />
      <trkpt lat="46.0696191" lon="11.1187510" />
      <trkpt lat="46.0696197" lon="11.1187227" />
      <trkpt lat="46.0696099" lon="11.1185848" />
      <trkpt lat="46.0696086" lon="11.1185638" />
      <trkpt lat="46.0696063" lon="11.1185267" />
      <trkpt lat="46.0696082" lon="11.1184989" />
      <trkpt lat="46.0696142" lon="11.1184596" />
      <trkpt lat="46.0696258" lon="11.1184346" />
      <trkpt lat="46.0696374" lon="11.1184169" />
      <trkpt lat="46.0696180" lon="11.1183567" />
      <trkpt lat="46.0697546" lon="11.1182695" />
      <trkpt lat="46.0698110" lon="11.1182381" />
      <trkpt lat="46.0698295" lon="11.1182314" />
      <trkpt lat="46.0698226" lon="11.1181539" />
      <trkpt lat="46.0698227" lon="11.1180755" />
      <trkpt lat="46.0698565" lon="11.1180693" />
      <trkpt lat="46.0698926" lon="11.1180856" />
      <trkpt lat="46.0699602" lon="11.1180863" />
      <trkpt lat="46.0699644" lon="11.1181025" />
      <trkpt lat="46.0699803" lon="11.1181633" />
      <trkpt lat="46.0700084" lon="11.1181540" />
      <trkpt lat="46.0699905" lon="11.1180483" />
      <trkpt lat="46.0699871" lon="11.1179668" />
      <trkpt lat="46.0699908" lon="11.1179414" />
      <trkpt lat="46.0700269" lon="11.1179061" />
      <trkpt lat="46.0700294" lon="11.1178856" />
      <trkpt lat="46.0700305" lon="11.1178362" />
      <trkpt lat="46.0700369" lon="11.1177882" />
      <trkpt lat="46.0700431" lon="11.1177476" />
      <trkpt lat="46.0700527" lon="11.1177069" />
      <trkpt lat="46.0700861" lon="11.1176034" />
      <trkpt lat="46.0701805" lon="11.1173050" />
      <trkpt lat="46.0702169" lon="11.1171918" />
      <trkpt lat="46.0702287" lon="11.1171541" />
      <trkpt lat="46.0702367" lon="11.1170213" />
      <trkpt lat="46.0702292" lon="11.1169470" />
      <trkpt lat="46.0702123" lon="11.1168786" />
      <trkpt lat="46.0701743" lon="11.1167917" />
      <trkpt lat="46.0701363" lon="11.1167225" />
      <trkpt lat="46.0701165" lon="11.1166890" />
      <trkpt lat="46.0700680" lon="11.1166069" />
      <trkpt lat="46.0700236" lon="11.1165374" />
      <trkpt lat="46.0700000" lon="11.1164941" />
      <trkpt lat="46.0699495" lon="11.1164167" />
      <trkpt lat="46.0699295" lon="11.1163939" />
      <trkpt lat="46.0698035" lon="11.1162762" />
      <trkpt lat="46.0696531" lon="11.1161456" />
      <trkpt lat="46.0695837" lon="11.1160774" />
      <trkpt lat="46.0694825" lon="11.1159653" />
      <trkpt lat="46.0693849" lon="11.1158089" />
      <trkpt lat="46.0694235" lon="11.1157469" />
      <trkpt lat="46.0694630" lon="11.1156868" />
      <trkpt lat="46.0694379" lon="11.1156582" />
      <trkpt lat="46.0693862" lon="11.1155966" />
      <trkpt lat="46.0693025" lon="11.1155178" />
      <trkpt lat="46.0692873" lon="11.1154626" />
      <trkpt lat="46.0693025" lon="11.1155178" />
      <trkpt lat="46.0693862" lon="11.1155966" />
      <trkpt lat="46.0694379" lon="11.1156582" />
      <trkpt lat="46.0694630" lon="11.1156868" />
      <trkpt lat="46.0695555" lon="11.1157924" />
      <trkpt lat="46.0696120" lon="11.1158421" />
      <trkpt lat="46.0696409" lon="11.1158489" />
      <trkpt lat="46.0696957" lon="11.1158516" />
      <trkpt lat="46.0697290" lon="11.1158495" />
      <trkpt lat="46.0697948" lon="11.1158159" />
      <trkpt lat="46.0698507" lon="11.1157710" />
      <trkpt lat="46.0698998" lon="11.1157127" />
      <trkpt lat="46.0699151" lon="11.1156990" />
      <trkpt lat="46.0702467" lon="11.1144529" />
      <trkpt lat="46.0702508" lon="11.1144356" />
      <trkpt lat="46.0702350" lon="11.1143612" />
      <trkpt lat="46.0702262" lon="11.1143187" />
      <trkpt lat="46.0702122" lon="11.1142749" />
      <trkpt lat="46.0701963" lon="11.1142414" />
      <trkpt lat="46.0701713" lon="11.1142018" />
      <trkpt lat="46.0701555" lon="11.1141871" />
      <trkpt lat="46.0701270" lon="11.1141662" />
      <trkpt lat="46.0701061" lon="11.1141508" />
      <trkpt lat="46.0700735" lon="11.1141344" />
      <trkpt lat="46.0699724" lon="11.1140894" />
      <trkpt lat="46.0699342" lon="11.1141162" />
      <trkpt lat="46.0692827" lon="11.1138365" />
      <trkpt lat="46.0692891" lon="11.1138032" />
      <trkpt lat="46.0693007" lon="11.1137442" />
      <trkpt lat="46.0693165" lon="11.1136571" />
      <trkpt lat="46.0693345" lon="11.1135667" />
      <trkpt lat="46.0693442" lon="11.1135415" />
      <trkpt lat="46.0693600" lon="11.1135294" />
      <trkpt lat="46.0693740" lon="11.1135254" />
      <trkpt lat="46.0693963" lon="11.1135240" />
      <trkpt lat="46.0694187" lon="11.1135240" />
      <trkpt lat="46.0694559" lon="11.1135254" />
      <trkpt lat="46.0695438" lon="11.1135398" />
      <trkpt lat="46.0696193" lon="11.1134541" />
      <trkpt lat="46.0696727" lon="11.1134020" />
      <trkpt lat="46.0696877" lon="11.1133875" />
      <trkpt lat="46.0697929" lon="11.1132763" />
      <trkpt lat="46.0698001" lon="11.1132688" />
      <trkpt lat="46.0698237" lon="11.1132449" />
      <trkpt lat="46.0698039" lon="11.1131995" />
      <trkpt lat="46.0694819" lon="11.1124795" />
      <trkpt lat="46.0694749" lon="11.1124507" />
      <trkpt lat="46.0694766" lon="11.1124185" />
      <trkpt lat="46.0694892" lon="11.1123979" />
      <trkpt lat="46.0695200" lon="11.1123774" />
      <trkpt lat="46.0695621" lon="11.1123584" />
      <trkpt lat="46.0698340" lon="11.1122175" />
      <trkpt lat="46.0699575" lon="11.1121507" />
      <trkpt lat="46.0700153" lon="11.1121170" />
      <trkpt lat="46.0700745" lon="11.1120853" />
      <trkpt lat="46.0702743" lon="11.1119716" />
      <trkpt lat="46.0704794" lon="11.1118659" />
      <trkpt lat="46.0705169" lon="11.1118466" />
      <trkpt lat="46.0705047" lon="11.1117917" />
      <trkpt lat="46.0704958" lon="11.1117395" />
      <trkpt lat="46.0705106" lon="11.1117214" />
      <trkpt lat="46.0705136" lon="11.1116151" />
      <trkpt lat="46.0705187" lon="11.1114760" />
      <trkpt lat="46.0705257" lon="11.1113296" />
      <trkpt lat="46.0705361" lon="11.1111626" />
      <trkpt lat="46.0705413" lon="11.1111003" />
      <trkpt lat="46.0705787" lon="11.1108167" />
      <trkpt lat="46.0705938" lon="11.1107384" />
      <trkpt lat="46.0706014" lon="11.1107079" />
      <trkpt lat="46.0706453" lon="11.1105284" />
      <trkpt lat="46.0706665" lon="11.1104467" />
      <trkpt lat="46.0707018" lon="11.1103180" />
      <trkpt lat="46.0707497" lon="11.1101838" />
      <trkpt lat="46.0708316" lon="11.1099613" />
      <trkpt lat="46.0708554" lon="11.1099003" />
      <trkpt lat="46.0708693" lon="11.1098647" />
      <trkpt lat="46.0709205" lon="11.1097366" />
      <trkpt lat="46.0710196" lon="11.1095462" />
      <trkpt lat="46.0710705" lon="11.1094582" />
      <trkpt lat="46.0710922" lon="11.1094943" />
      <trkpt lat="46.0713762" lon="11.1089573" />
      <trkpt lat="46.0714398" lon="11.1088371" />
      <trkpt lat="46.0714759" lon="11.1087687" />
      <trkpt lat="46.0716956" lon="11.1083682" />
      <trkpt lat="46.0718427" lon="11.1081567" />
      <trkpt lat="46.0721237" lon="11.1078214" />
      <trkpt lat="46.0725572" lon="11.1073568" />
      <trkpt lat="46.0725875" lon="11.1073177" />
      <trkpt lat="46.0726076" lon="11.1072787" />
      <trkpt lat="46.0726278" lon="11.1072317" />
      <trkpt lat="46.0726430" lon="11.1071846" />
      <trkpt lat="46.0726664" lon="11.1070611" />
      <trkpt lat="46.0727016" lon="11.1068147" />
      <trkpt lat="46.0727248" lon="11.1067023" />
      <trkpt lat="46.0727592" lon="11.1065954" />
      <trkpt lat="46.0727777" lon="11.1065370" />
      <trkpt lat="46.0728000" lon="11.1064839" />
      <trkpt lat="46.0728539" lon="11.1063993" />
      <trkpt lat="46.0729383" lon="11.1063107" />
      <trkpt lat="46.0730228" lon="11.1062328" />
      <trkpt lat="46.0731749" lon="11.1061013" />
      <trkpt lat="46.0732200" lon="11.1060497" />
      <trkpt lat="46.0732529" lon="11.1059914" />
      <trkpt lat="46.0733083" lon="11.1058057" />
      <trkpt lat="46.0733780" lon="11.1055867" />
      <trkpt lat="46.0734030" lon="11.1055081" />
      <trkpt lat="46.0733756" lon="11.1055039" />
      <trkpt lat="46.0733551" lon="11.1055019" />
      <trkpt lat="46.0732163" lon="11.1055082" />
      <trkpt lat="46.0732021" lon="11.1055067" />
      <trkpt lat="46.0731860" lon="11.1055039" />
      <trkpt lat="46.0731631" lon="11.1054990" />
      <trkpt lat="46.0731436" lon="11.1055008" />
      <trkpt lat="46.0730665" lon="11.1055186" />
      <trkpt lat="46.0729591" lon="11.1055567" />
      <trkpt lat="46.0728648" lon="11.1056031" />
      <trkpt lat="46.0727759" lon="11.1056658" />
      <trkpt lat="46.0726814" lon="11.1057606" />
      <trkpt lat="46.0724810" lon="11.1060040" />
      <trkpt lat="46.0722893" lon="11.1062431" />
      <trkpt lat="46.0722320" lon="11.1062946" />
      <trkpt lat="46.0721887" lon="11.1063259" />
      <trkpt lat="46.0721134" lon="11.1063618" />
      <trkpt lat="46.0720068" lon="11.1064030" />
      <trkpt lat="46.0718550" lon="11.1064816" />
      <trkpt lat="46.0716749" lon="11.1066140" />
      <trkpt lat="46.0715860" lon="11.1067126" />
      <trkpt lat="46.0714814" lon="11.1068834" />
      <trkpt lat="46.0713812" lon="11.1070307" />
      <trkpt lat="46.0713099" lon="11.1071258" />
      <trkpt lat="46.0711960" lon="11.1072143" />
      <trkpt lat="46.0711537" lon="11.1072441" />
      <trkpt lat="46.0711289" lon="11.1072599" />
      <trkpt lat="46.0711111" lon="11.1072710" />
      <trkpt lat="46.0710934" lon="11.1072680" />
      <trkpt lat="46.0710770" lon="11.1072479" />
      <trkpt lat="46.0710690" lon="11.1072037" />
      <trkpt lat="46.0710615" lon="11.1071404" />
      <trkpt lat="46.0710658" lon="11.1069633" />
      <trkpt lat="46.0710817" lon="11.1067605" />
      <trkpt lat="46.0710883" lon="11.1066279" />
      <trkpt lat="46.0710837" lon="11.1065577" />
      <trkpt lat="46.0710809" lon="11.1064921" />
      <trkpt lat="46.0710684" lon="11.1064607" />
      <trkpt lat="46.0710494" lon="11.1064437" />
      <trkpt lat="46.0710283" lon="11.1064457" />
      <trkpt lat="46.0710111" lon="11.1064552" />
      <trkpt lat="46.0709871" lon="11.1064903" />
      <trkpt lat="46.0710111" lon="11.1064552" />
      <trkpt lat="46.0710283" lon="11.1064457" />
      <trkpt lat="46.0710494" lon="11.1064437" />
      <trkpt lat="46.0710684" lon="11.1064607" />
      <trkpt lat="46.0710809" lon="11.1064921" />
      <trkpt lat="46.0710837" lon="11.1065577" />
      <trkpt lat="46.0710883" lon="11.1066279" />
      <trkpt lat="46.0710817" lon="11.1067605" />
      <trkpt lat="46.0710658" lon="11.1069633" />
      <trkpt lat="46.0710615" lon="11.1071404" />
      <trkpt lat="46.0710690" lon="11.1072037" />
      <trkpt lat="46.0710770" lon="11.1072479" />
      <trkpt lat="46.0710934" lon="11.1072680" />
      <trkpt lat="46.0711111" lon="11.1072710" />
      <trkpt lat="46.0711289" lon="11.1072599" />
      <trkpt lat="46.0711537" lon="11.1072441" />
      <trkpt lat="46.0711960" lon="11.1072143" />
      <trkpt lat="46.0713099" lon="11.1071258" />
      <trkpt lat="46.0713812" lon="11.1070307" />
      <trkpt lat="46.0714814" lon="11.1068834" />
      <trkpt lat="46.0715860" lon="11.1067126" />
      <trkpt lat="46.0716749" lon="11.1066140" />
      <trkpt lat="46.0718550" lon="11.1064816" />
      <trkpt lat="46.0720068" lon="11.1064030" />
      <trkpt lat="46.0721134" lon="11.1063618" />
      <trkpt lat="46.0721887" lon="11.1063259" />
      <trkpt lat="46.0722320" lon="11.1062946" />
      <trkpt lat="46.0722893" lon="11.1062431" />
      <trkpt lat="46.0724810" lon="11.1060040" />
      <trkpt lat="46.0726814" lon="11.1057606" />
      <trkpt lat="46.0727759" lon="11.1056658" />
      <trkpt lat="46.0728648" lon="11.1056031" />
      <trkpt lat="46.0729591" lon="11.1055567" />
      <trkpt lat="46.0730665" lon="11.1055186" />
      <trkpt lat="46.0731436" lon="11.1055008" />
      <trkpt lat="46.0731631" lon="11.1054990" />
      <trkpt lat="46.0731860" lon="11.1055039" />
      <trkpt lat="46.0732021" lon="11.1055067" />
      <trkpt lat="46.0732163" lon="11.1055082" />
      <trkpt lat="46.0733551" lon="11.1055019" />
      <trkpt lat="46.0733756" lon="11.1055039" />
      <trkpt lat="46.0734030" lon="11.1055081" />
      <trkpt lat="46.0733780" lon="11.1055867" />
      <trkpt lat="46.0733083" lon="11.1058057" />
      <trkpt lat="46.0732529" lon="11.1059914" />
      <trkpt lat="46.0732200" lon="11.1060497" />
      <trkpt lat="46.0731749" lon="11.1061013" />
      <trkpt lat="46.0730228" lon="11.1062328" />
      <trkpt lat="46.0729383" lon="11.1063107" />
      <trkpt lat="46.0728539" lon="11.1063993" />
      <trkpt lat="46.0728000" lon="11.1064839" />
      <trkpt lat="46.0727777" lon="11.1065370" />
      <trkpt lat="46.0727592" lon="11.1065954" />
      <trkpt lat="46.0727248" lon="11.1067023" />
      <trkpt lat="46.0727016" lon="11.1068147" />
      <trkpt lat="46.0726664" lon="11.1070611" />
      <trkpt lat="46.0726430" lon="11.1071846" />
      <trkpt lat="46.0726278" lon="11.1072317" />
      <trkpt lat="46.0726076" lon="11.1072787" />
      <trkpt lat="46.0725875" lon="11.1073177" />
      <trkpt lat="46.0725572" lon="11.1073568" />
      <trkpt lat="46.0721237" lon="11.1078214" />
      <trkpt lat="46.0718427" lon="11.1081567" />
      <trkpt lat="46.0716956" lon="11.1083682" />
      <trkpt lat="46.0714759" lon="11.1087687" />
      <trkpt lat="46.0714398" lon="11.1088371" />
      <trkpt lat="46.0714666" lon="11.1088675" />
      <trkpt lat="46.0714769" lon="11.1088722" />
      <trkpt lat="46.0714866" lon="11.1088735" />
      <trkpt lat="46.0714969" lon="11.1088729" />
      <trkpt lat="46.0715053" lon="11.1088715" />
      <trkpt lat="46.0715138" lon="11.1088658" />
      <trkpt lat="46.0715082" lon="11.1088884" />
      <trkpt lat="46.0715077" lon="11.1089084" />
      <trkpt lat="46.0715140" lon="11.1089238" />
      <trkpt lat="46.0715232" lon="11.1089325" />
      <trkpt lat="46.0715420" lon="11.1089433" />
      <trkpt lat="46.0715781" lon="11.1089572" />
      <trkpt lat="46.0719234" lon="11.1087240" />
      <trkpt lat="46.0719534" lon="11.1087121" />
      <trkpt lat="46.0720357" lon="11.1086793" />
      <trkpt lat="46.0721295" lon="11.1086345" />
      <trkpt lat="46.0721832" lon="11.1085918" />
      <trkpt lat="46.0722070" lon="11.1085728" />
      <trkpt lat="46.0722305" lon="11.1085482" />
      <trkpt lat="46.0722827" lon="11.1084936" />
      <trkpt lat="46.0723827" lon="11.1083766" />
      <trkpt lat="46.0724764" lon="11.1082474" />
      <trkpt lat="46.0724974" lon="11.1082185" />
      <trkpt lat="46.0725437" lon="11.1081547" />
      <trkpt lat="46.0726665" lon="11.1079740" />
      <trkpt lat="46.0726972" lon="11.1079194" />
      <trkpt lat="46.0727342" lon="11.1078492" />
      <trkpt lat="46.0728674" lon="11.1075960" />
      <trkpt lat="46.0728850" lon="11.1075829" />
      <trkpt lat="46.0729323" lon="11.1075476" />
      <trkpt lat="46.0730084" lon="11.1075045" />
      <trkpt lat="46.0732338" lon="11.1073935" />
      <trkpt lat="46.0734077" lon="11.1073276" />
      <trkpt lat="46.0735984" lon="11.1072671" />
      <trkpt lat="46.0738991" lon="11.1071802" />
      <trkpt lat="46.0741158" lon="11.1072007" />
      <trkpt lat="46.0741882" lon="11.1072052" />
      <trkpt lat="46.0741901" lon="11.1071702" />
      <trkpt lat="46.0741943" lon="11.1071561" />
      <trkpt lat="46.0742004" lon="11.1071507" />
      <trkpt lat="46.0742129" lon="11.1071474" />
      <trkpt lat="46.0743013" lon="11.1071333" />
      <trkpt lat="46.0743278" lon="11.1071286" />
      <trkpt lat="46.0743446" lon="11.1071259" />
      <trkpt lat="46.0743604" lon="11.1071252" />
      <trkpt lat="46.0743748" lon="11.1071252" />
      <trkpt lat="46.0743911" lon="11.1071286" />
      <trkpt lat="46.0744050" lon="11.1071320" />
      <trkpt lat="46.0744213" lon="11.1071407" />
      <trkpt lat="46.0744432" lon="11.1071574" />
      <trkpt lat="46.0744683" lon="11.1071816" />
      <trkpt lat="46.0744942" lon="11.1072158" />
      <trkpt lat="46.0746169" lon="11.1074458" />
      <trkpt lat="46.0746520" lon="11.1074333" />
      <trkpt lat="46.0747157" lon="11.1075790" />
      <trkpt lat="46.0748210" lon="11.1078489" />
      <trkpt lat="46.0748603" lon="11.1079893" />
      <trkpt lat="46.0748846" lon="11.1081081" />
      <trkpt lat="46.0749085" lon="11.1080598" />
      <trkpt lat="46.0749382" lon="11.1080270" />
      <trkpt lat="46.0749772" lon="11.1080094" />
      <trkpt lat="46.0750141" lon="11.1080090" />
      <trkpt lat="46.0751208" lon="11.1078842" />
      <trkpt lat="46.0752098" lon="11.1077728" />
      <trkpt lat="46.0752358" lon="11.1077233" />
      <trkpt lat="46.0752667" lon="11.1077605" />
      <trkpt lat="46.0752422" lon="11.1078244" />
      <trkpt lat="46.0754014" lon="11.1078394" />
      <trkpt lat="46.0754010" lon="11.1078515" />
      <trkpt lat="46.0754034" lon="11.1078631" />
      <trkpt lat="46.0754083" lon="11.1078729" />
      <trkpt lat="46.0754151" lon="11.1078801" />
      <trkpt lat="46.0754233" lon="11.1078837" />
      <trkpt lat="46.0754044" lon="11.1081966" />
      <trkpt lat="46.0754002" lon="11.1082665" />
      <trkpt lat="46.0755915" lon="11.1082840" />
      <trkpt lat="46.0755919" lon="11.1083175" />
      <trkpt lat="46.0755923" lon="11.1084073" />
      <trkpt lat="46.0755924" lon="11.1084454" />
      <trkpt lat="46.0755488" lon="11.1084435" />
      <trkpt lat="46.0755472" lon="11.1086090" />
      <trkpt lat="46.0755435" lon="11.1088402" />
      <trkpt lat="46.0755409" lon="11.1090352" />
      <trkpt lat="46.0755460" lon="11.1092295" />
      <trkpt lat="46.0755512" lon="11.1094277" />
      <trkpt lat="46.0755565" lon="11.1096322" />
      <trkpt lat="46.0755613" lon="11.1098166" />
      <trkpt lat="46.0755645" lon="11.1099396" />
      <trkpt lat="46.0755301" lon="11.1099736" />
      <trkpt lat="46.0753384" lon="11.1101631" />
      <trkpt lat="46.0752772" lon="11.1100536" />
      <trkpt lat="46.0752456" lon="11.1099897" />
      <trkpt lat="46.0751811" lon="11.1097800" />
      <trkpt lat="46.0751466" lon="11.1096704" />
      <trkpt lat="46.0750678" lon="11.1097455" />
      <trkpt lat="46.0750351" lon="11.1097998" />
      <trkpt lat="46.0750098" lon="11.1098648" />
      <trkpt lat="46.0749977" lon="11.1099065" />
      <trkpt lat="46.0749874" lon="11.1099670" />
      <trkpt lat="46.0749725" lon="11.1101647" />
      <trkpt lat="46.0749675" lon="11.1102344" />
      <trkpt lat="46.0749568" lon="11.1102786" />
      <trkpt lat="46.0749208" lon="11.1103402" />
      <trkpt lat="46.0749184" lon="11.1106646" />
      <trkpt lat="46.0749211" lon="11.1107384" />
      <trkpt lat="46.0749286" lon="11.1109429" />
      <trkpt lat="46.0749321" lon="11.1109999" />
      <trkpt lat="46.0749410" lon="11.1111442" />
      <trkpt lat="46.0749587" lon="11.1113894" />
      <trkpt lat="46.0749443" lon="11.1114020" />
      <trkpt lat="46.0749307" lon="11.1114222" />
      <trkpt lat="46.0749205" lon="11.1114510" />
      <trkpt lat="46.0749170" lon="11.1114829" />
      <trkpt lat="46.0749193" lon="11.1115082" />
      <trkpt lat="46.0749250" lon="11.1115297" />
      <trkpt lat="46.0748708" lon="11.1116491" />
      <trkpt lat="46.0749295" lon="11.1117293" />
      <trkpt lat="46.0749172" lon="11.1117461" />
      <trkpt lat="46.0748911" lon="11.1117864" />
      <trkpt lat="46.0748632" lon="11.1118588" />
      <trkpt lat="46.0748332" lon="11.1119514" />
      <trkpt lat="46.0748096" lon="11.1120926" />
      <trkpt lat="46.0747928" lon="11.1122425" />
      <trkpt lat="46.0747885" lon="11.1122830" />
      <trkpt lat="46.0747480" lon="11.1126639" />
      <trkpt lat="46.0746725" lon="11.1131282" />
      <trkpt lat="46.0747480" lon="11.1126639" />
      <trkpt lat="46.0747885" lon="11.1122830" />
      <trkpt lat="46.0747928" lon="11.1122425" />
      <trkpt lat="46.0748096" lon="11.1120926" />
      <trkpt lat="46.0748332" lon="11.1119514" />
      <trkpt lat="46.0748632" lon="11.1118588" />
      <trkpt lat="46.0748911" lon="11.1117864" />
      <trkpt lat="46.0749172" lon="11.1117461" />
      <trkpt lat="46.0749295" lon="11.1117293" />
      <trkpt lat="46.0748708" lon="11.1116491" />
      <trkpt lat="46.0749250" lon="11.1115297" />
      <trkpt lat="46.0749193" lon="11.1115082" />
      <trkpt lat="46.0749170" lon="11.1114829" />
      <trkpt lat="46.0749205" lon="11.1114510" />
      <trkpt lat="46.0749307" lon="11.1114222" />
      <trkpt lat="46.0749443" lon="11.1114020" />
      <trkpt lat="46.0749587" lon="11.1113894" />
      <trkpt lat="46.0749410" lon="11.1111442" />
      <trkpt lat="46.0749321" lon="11.1109999" />
      <trkpt lat="46.0749286" lon="11.1109429" />
      <trkpt lat="46.0749211" lon="11.1107384" />
      <trkpt lat="46.0749184" lon="11.1106646" />
      <trkpt lat="46.0749208" lon="11.1103402" />
      <trkpt lat="46.0749568" lon="11.1102786" />
      <trkpt lat="46.0749675" lon="11.1102344" />
      <trkpt lat="46.0749725" lon="11.1101647" />
      <trkpt lat="46.0749874" lon="11.1099670" />
      <trkpt lat="46.0749977" lon="11.1099065" />
      <trkpt lat="46.0750098" lon="11.1098648" />
      <trkpt lat="46.0750351" lon="11.1097998" />
      <trkpt lat="46.0750678" lon="11.1097455" />
      <trkpt lat="46.0751466" lon="11.1096704" />
      <trkpt lat="46.0751811" lon="11.1097800" />
      <trkpt lat="46.0752456" lon="11.1099897" />
      <trkpt lat="46.0752772" lon="11.1100536" />
      <trkpt lat="46.0753384" lon="11.1101631" />
      <trkpt lat="46.0755301" lon="11.1099736" />
      <trkpt lat="46.0755645" lon="11.1099396" />
      <trkpt lat="46.0755613" lon="11.1098166" />
      <trkpt lat="46.0755565" lon="11.1096322" />
      <trkpt lat="46.0755512" lon="11.1094277" />
      <trkpt lat="46.0755460" lon="11.1092295" />
      <trkpt lat="46.0755409" lon="11.1090352" />
      <trkpt lat="46.0755435" lon="11.1088402" />
      <trkpt lat="46.0755472" lon="11.1086090" />
      <trkpt lat="46.0755488" lon="11.1084435" />
      <trkpt lat="46.0755924" lon="11.1084454" />
      <trkpt lat="46.0755923" lon="11.1084073" />
      <trkpt lat="46.0755919" lon="11.1083175" />
      <trkpt lat="46.0755915" lon="11.1082840" />
      <trkpt lat="46.0754002" lon="11.1082665" />
      <trkpt lat="46.0754044" lon="11.1081966" />
      <trkpt lat="46.0754233" lon="11.1078837" />
      <trkpt lat="46.0754151" lon="11.1078801" />
      <trkpt lat="46.0754083" lon="11.1078729" />
      <trkpt lat="46.0754034" lon="11.1078631" />
      <trkpt lat="46.0754010" lon="11.1078515" />
      <trkpt lat="46.0754014" lon="11.1078394" />
      <trkpt lat="46.0752422" lon="11.1078244" />
      <trkpt lat="46.0752667" lon="11.1077605" />
      <trkpt lat="46.0752358" lon="11.1077233" />
      <trkpt lat="46.0752098" lon="11.1077728" />
      <trkpt lat="46.0751208" lon="11.1078842" />
      <trkpt lat="46.0750141" lon="11.1080090" />
      <trkpt lat="46.0749772" lon="11.1080094" />
      <trkpt lat="46.0749382" lon="11.1080270" />
      <trkpt lat="46.0749085" lon="11.1080598" />
      <trkpt lat="46.0748846" lon="11.1081081" />
      <trkpt lat="46.0748603" lon="11.1079893" />
      <trkpt lat="46.0748210" lon="11.1078489" />
      <trkpt lat="46.0747157" lon="11.1075790" />
      <trkpt lat="46.0746520" lon="11.1074333" />
      <trkpt lat="46.0746169" lon="11.1074458" />
      <trkpt lat="46.0744942" lon="11.1072158" />
      <trkpt lat="46.0744683" lon="11.1071816" />
      <trkpt lat="46.0744432" lon="11.1071574" />
      <trkpt lat="46.0744213" lon="11.1071407" />
      <trkpt lat="46.0744050" lon="11.1071320" />
      <trkpt lat="46.0743911" lon="11.1071286" />
      <trkpt lat="46.0743748" lon="11.1071252" />
      <trkpt lat="46.0743604" lon="11.1071252" />
      <trkpt lat="46.0743446" lon="11.1071259" />
      <trkpt lat="46.0743278" lon="11.1071286" />
      <trkpt lat="46.0743013" lon="11.1071333" />
      <trkpt lat="46.0742129" lon="11.1071474" />
      <trkpt lat="46.0742004" lon="11.1071507" />
      <trkpt lat="46.0741943" lon="11.1071561" />
      <trkpt lat="46.0741901" lon="11.1071702" />
      <trkpt lat="46.0741882" lon="11.1072052" />
      <trkpt lat="46.0741158" lon="11.1072007" />
      <trkpt lat="46.0738991" lon="11.1071802" />
      <trkpt lat="46.0735984" lon="11.1072671" />
      <trkpt lat="46.0734077" lon="11.1073276" />
      <trkpt lat="46.0732338" lon="11.1073935" />
      <trkpt lat="46.0730084" lon="11.1075045" />
      <trkpt lat="46.0729323" lon="11.1075476" />
      <trkpt lat="46.0728850" lon="11.1075829" />
      <trkpt lat="46.0728674" lon="11.1075960" />
      <trkpt lat="46.0727342" lon="11.1078492" />
      <trkpt lat="46.0726972" lon="11.1079194" />
      <trkpt lat="46.0726665" lon="11.1079740" />
      <trkpt lat="46.0725437" lon="11.1081547" />
      <trkpt lat="46.0724974" lon="11.1082185" />
      <trkpt lat="46.0724764" lon="11.1082474" />
      <trkpt lat="46.0723827" lon="11.1083766" />
      <trkpt lat="46.0722827" lon="11.1084936" />
      <trkpt lat="46.0722305" lon="11.1085482" />
      <trkpt lat="46.0722070" lon="11.1085728" />
      <trkpt lat="46.0721832" lon="11.1085918" />
      <trkpt lat="46.0721295" lon="11.1086345" />
      <trkpt lat="46.0720357" lon="11.1086793" />
      <trkpt lat="46.0719534" lon="11.1087121" />
      <trkpt lat="46.0719234" lon="11.1087240" />
      <trkpt lat="46.0715781" lon="11.1089572" />
      <trkpt lat="46.0715420" lon="11.1089433" />
      <trkpt lat="46.0715232" lon="11.1089325" />
      <trkpt lat="46.0715140" lon="11.1089238" />
      <trkpt lat="46.0715077" lon="11.1089084" />
      <trkpt lat="46.0715082" lon="11.1088884" />
      <trkpt lat="46.0715138" lon="11.1088658" />
      <trkpt lat="46.0715053" lon="11.1088715" />
      <trkpt lat="46.0714969" lon="11.1088729" />
      <trkpt lat="46.0714866" lon="11.1088735" />
      <trkpt lat="46.0714769" lon="11.1088722" />
      <trkpt lat="46.0714666" lon="11.1088675" />
      <trkpt lat="46.0714398" lon="11.1088371" />
      <trkpt lat="46.0713762" lon="11.1089573" />
      <trkpt lat="46.0710922" lon="11.1094943" />
      <trkpt lat="46.0710705" lon="11.1094582" />
      <trkpt lat="46.0710196" lon="11.1095462" />
      <trkpt lat="46.0709205" lon="11.1097366" />
      <trkpt lat="46.0708693" lon="11.1098647" />
      <trkpt lat="46.0708554" lon="11.1099003" />
      <trkpt lat="46.0708316" lon="11.1099613" />
      <trkpt lat="46.0707497" lon="11.1101838" />
      <trkpt lat="46.0707018" lon="11.1103180" />
      <trkpt lat="46.0706665" lon="11.1104467" />
      <trkpt lat="46.0706453" lon="11.1105284" />
      <trkpt lat="46.0706014" lon="11.1107079" />
      <trkpt lat="46.0705938" lon="11.1107384" />
      <trkpt lat="46.0705787" lon="11.1108167" />
      <trkpt lat="46.0705413" lon="11.1111003" />
      <trkpt lat="46.0705361" lon="11.1111626" />
      <trkpt lat="46.0705257" lon="11.1113296" />
      <trkpt lat="46.0705187" lon="11.1114760" />
      <trkpt lat="46.0705136" lon="11.1116151" />
      <trkpt lat="46.0705106" lon="11.1117214" />
      <trkpt lat="46.0704958" lon="11.1117395" />
      <trkpt lat="46.0705047" lon="11.1117917" />
      <trkpt lat="46.0705169" lon="11.1118466" />
      <trkpt lat="46.0705047" lon="11.1117917" />
      <trkpt lat="46.0704958" lon="11.1117395" />
      <trkpt lat="46.0705106" lon="11.1117214" />
      <trkpt lat="46.0705136" lon="11.1116151" />
      <trkpt lat="46.0705187" lon="11.1114760" />
      <trkpt lat="46.0705257" lon="11.1113296" />
      <trkpt lat="46.0705361" lon="11.1111626" />
      <trkpt lat="46.0705413" lon="11.1111003" />
      <trkpt lat="46.0705787" lon="11.1108167" />
      <trkpt lat="46.0705938" lon="11.1107384" />
      <trkpt lat="46.0706014" lon="11.1107079" />
      <trkpt lat="46.0706453" lon="11.1105284" />
      <trkpt lat="46.0706665" lon="11.1104467" />
      <trkpt lat="46.0707018" lon="11.1103180" />
      <trkpt lat="46.0707497" lon="11.1101838" />
      <trkpt lat="46.0708316" lon="11.1099613" />
      <trkpt lat="46.0708554" lon="11.1099003" />
      <trkpt lat="46.0708693" lon="11.1098647" />
      <trkpt lat="46.0709205" lon="11.1097366" />
      <trkpt lat="46.0710196" lon="11.1095462" />
      <trkpt lat="46.0710705" lon="11.1094582" />
      <trkpt lat="46.0710922" lon="11.1094943" />
      <trkpt lat="46.0713762" lon="11.1089573" />
      <trkpt lat="46.0714398" lon="11.1088371" />
      <trkpt lat="46.0714666" lon="11.1088675" />
      <trkpt lat="46.0714769" lon="11.1088722" />
      <trkpt lat="46.0714866" lon="11.1088735" />
      <trkpt lat="46.0714969" lon="11.1088729" />
      <trkpt lat="46.0715053" lon="11.1088715" />
      <trkpt lat="46.0715138" lon="11.1088658" />
      <trkpt lat="46.0715082" lon="11.1088884" />
      <trkpt lat="46.0715077" lon="11.1089084" />
      <trkpt lat="46.0715140" lon="11.1089238" />
      <trkpt lat="46.0715232" lon="11.1089325" />
      <trkpt lat="46.0715420" lon="11.1089433" />
      <trkpt lat="46.0715781" lon="11.1089572" />
      <trkpt lat="46.0719234" lon="11.1087240" />
      <trkpt lat="46.0719534" lon="11.1087121" />
      <trkpt lat="46.0720357" lon="11.1086793" />
      <trkpt lat="46.0721295" lon="11.1086345" />
      <trkpt lat="46.0721832" lon="11.1085918" />
      <trkpt lat="46.0722070" lon="11.1085728" />
      <trkpt lat="46.0722305" lon="11.1085482" />
      <trkpt lat="46.0722827" lon="11.1084936" />
      <trkpt lat="46.0723827" lon="11.1083766" />
      <trkpt lat="46.0724764" lon="11.1082474" />
      <trkpt lat="46.0724974" lon="11.1082185" />
      <trkpt lat="46.0725437" lon="11.1081547" />
      <trkpt lat="46.0726665" lon="11.1079740" />
      <trkpt lat="46.0726972" lon="11.1079194" />
      <trkpt lat="46.0727342" lon="11.1078492" />
      <trkpt lat="46.0726972" lon="11.1079194" />
      <trkpt lat="46.0726665" lon="11.1079740" />
      <trkpt lat="46.0725437" lon="11.1081547" />
      <trkpt lat="46.0724974" lon="11.1082185" />
      <trkpt lat="46.0724764" lon="11.1082474" />
      <trkpt lat="46.0723827" lon="11.1083766" />
      <trkpt lat="46.0722827" lon="11.1084936" />
      <trkpt lat="46.0722305" lon="11.1085482" />
      <trkpt lat="46.0722070" lon="11.1085728" />
      <trkpt lat="46.0721832" lon="11.1085918" />
      <trkpt lat="46.0721295" lon="11.1086345" />
      <trkpt lat="46.0720357" lon="11.1086793" />
      <trkpt lat="46.0719534" lon="11.1087121" />
      <trkpt lat="46.0719234" lon="11.1087240" />
      <trkpt lat="46.0715781" lon="11.1089572" />
      <trkpt lat="46.0715420" lon="11.1089433" />
      <trkpt lat="46.0715232" lon="11.1089325" />
      <trkpt lat="46.0715140" lon="11.1089238" />
      <trkpt lat="46.0715077" lon="11.1089084" />
      <trkpt lat="46.0715082" lon="11.1088884" />
      <trkpt lat="46.0715138" lon="11.1088658" />
      <trkpt lat="46.0715053" lon="11.1088715" />
      <trkpt lat="46.0714969" lon="11.1088729" />
      <trkpt lat="46.0714866" lon="11.1088735" />
      <trkpt lat="46.0714769" lon="11.1088722" />
      <trkpt lat="46.0714666" lon="11.1088675" />
      <trkpt lat="46.0714398" lon="11.1088371" />
      <trkpt lat="46.0714759" lon="11.1087687" />
      <trkpt lat="46.0716956" lon="11.1083682" />
      <trkpt lat="46.0718427" lon="11.1081567" />
      <trkpt lat="46.0721237" lon="11.1078214" />
      <trkpt lat="46.0725572" lon="11.1073568" />
      <trkpt lat="46.0725875" lon="11.1073177" />
      <trkpt lat="46.0726076" lon="11.1072787" />
      <trkpt lat="46.0726278" lon="11.1072317" />
      <trkpt lat="46.0726430" lon="11.1071846" />
      <trkpt lat="46.0726664" lon="11.1070611" />
      <trkpt lat="46.0727016" lon="11.1068147" />
      <trkpt lat="46.0727248" lon="11.1067023" />
      <trkpt lat="46.0727592" lon="11.1065954" />
      <trkpt lat="46.0727777" lon="11.1065370" />
      <trkpt lat="46.0728000" lon="11.1064839" />
      <trkpt lat="46.0728539" lon="11.1063993" />
      <trkpt lat="46.0729383" lon="11.1063107" />
      <trkpt lat="46.0730228" lon="11.1062328" />
      <trkpt lat="46.0731749" lon="11.1061013" />
      <trkpt lat="46.0732200" lon="11.1060497" />
      <trkpt lat="46.0732529" lon="11.1059914" />
      <trkpt lat="46.0733083" lon="11.1058057" />
      <trkpt lat="46.0733780" lon="11.1055867" />
      <trkpt lat="46.0733546" lon="11.1055749" />
      <trkpt lat="46.0733173" lon="11.1055729" />
      <trkpt lat="46.0732897" lon="11.1055779" />
      <trkpt lat="46.0732700" lon="11.1055829" />
      <trkpt lat="46.0732582" lon="11.1055860" />
      <trkpt lat="46.0732475" lon="11.1055948" />
      <trkpt lat="46.0732016" lon="11.1056510" />
      <trkpt lat="46.0731883" lon="11.1056751" />
      <trkpt lat="46.0731798" lon="11.1056924" />
      <trkpt lat="46.0731736" lon="11.1057055" />
      <trkpt lat="46.0731662" lon="11.1057190" />
      <trkpt lat="46.0731562" lon="11.1057281" />
      <trkpt lat="46.0730114" lon="11.1057895" />
      <trkpt lat="46.0730011" lon="11.1057973" />
      <trkpt lat="46.0729925" lon="11.1058067" />
      <trkpt lat="46.0729880" lon="11.1058165" />
      <trkpt lat="46.0729852" lon="11.1058253" />
      <trkpt lat="46.0729843" lon="11.1058347" />
      <trkpt lat="46.0729853" lon="11.1058462" />
      <trkpt lat="46.0730147" lon="11.1060053" />
      <trkpt lat="46.0730138" lon="11.1060302" />
      <trkpt lat="46.0730079" lon="11.1060518" />
      <trkpt lat="46.0729984" lon="11.1060699" />
      <trkpt lat="46.0729870" lon="11.1060840" />
      <trkpt lat="46.0729673" lon="11.1061017" />
      <trkpt lat="46.0728710" lon="11.1061878" />
      <trkpt lat="46.0726588" lon="11.1064327" />
      <trkpt lat="46.0724889" lon="11.1066444" />
      <trkpt lat="46.0724705" lon="11.1066936" />
      <trkpt lat="46.0724569" lon="11.1067669" />
      <trkpt lat="46.0724508" lon="11.1068510" />
      <trkpt lat="46.0724488" lon="11.1069223" />
      <trkpt lat="46.0724490" lon="11.1069671" />
      <trkpt lat="46.0724103" lon="11.1069758" />
      <trkpt lat="46.0722525" lon="11.1070114" />
      <trkpt lat="46.0721716" lon="11.1071334" />
      <trkpt lat="46.0721567" lon="11.1071388" />
      <trkpt lat="46.0721316" lon="11.1071280" />
      <trkpt lat="46.0721567" lon="11.1071388" />
      <trkpt lat="46.0721716" lon="11.1071334" />
      <trkpt lat="46.0722525" lon="11.1070114" />
      <trkpt lat="46.0724103" lon="11.1069758" />
      <trkpt lat="46.0724490" lon="11.1069671" />
      <trkpt lat="46.0724488" lon="11.1069223" />
      <trkpt lat="46.0724508" lon="11.1068510" />
      <trkpt lat="46.0724569" lon="11.1067669" />
      <trkpt lat="46.0724705" lon="11.1066936" />
      <trkpt lat="46.0724889" lon="11.1066444" />
      <trkpt lat="46.0726588" lon="11.1064327" />
      <trkpt lat="46.0728710" lon="11.1061878" />
      <trkpt lat="46.0729673" lon="11.1061017" />
      <trkpt lat="46.0729870" lon="11.1060840" />
      <trkpt lat="46.0729984" lon="11.1060699" />
      <trkpt lat="46.0730079" lon="11.1060518" />
      <trkpt lat="46.0730138" lon="11.1060302" />
      <trkpt lat="46.0730147" lon="11.1060053" />
      <trkpt lat="46.0729853" lon="11.1058462" />
      <trkpt lat="46.0729843" lon="11.1058347" />
      <trkpt lat="46.0729852" lon="11.1058253" />
      <trkpt lat="46.0729880" lon="11.1058165" />
      <trkpt lat="46.0729925" lon="11.1058067" />
      <trkpt lat="46.0730011" lon="11.1057973" />
      <trkpt lat="46.0730114" lon="11.1057895" />
      <trkpt lat="46.0731562" lon="11.1057281" />
      <trkpt lat="46.0731662" lon="11.1057190" />
      <trkpt lat="46.0731736" lon="11.1057055" />
      <trkpt lat="46.0731798" lon="11.1056924" />
      <trkpt lat="46.0731883" lon="11.1056751" />
      <trkpt lat="46.0732016" lon="11.1056510" />
      <trkpt lat="46.0732475" lon="11.1055948" />
      <trkpt lat="46.0732582" lon="11.1055860" />
      <trkpt lat="46.0732700" lon="11.1055829" />
      <trkpt lat="46.0732897" lon="11.1055779" />
      <trkpt lat="46.0733173" lon="11.1055729" />
      <trkpt lat="46.0733546" lon="11.1055749" />
      <trkpt lat="46.0733780" lon="11.1055867" />
      <trkpt lat="46.0734030" lon="11.1055081" />
      <trkpt lat="46.0733756" lon="11.1055039" />
      <trkpt lat="46.0733551" lon="11.1055019" />
      <trkpt lat="46.0732163" lon="11.1055082" />
      <trkpt lat="46.0732021" lon="11.1055067" />
      <trkpt lat="46.0731860" lon="11.1055039" />
      <trkpt lat="46.0731631" lon="11.1054990" />
      <trkpt lat="46.0731436" lon="11.1055008" />
      <trkpt lat="46.0730665" lon="11.1055186" />
      <trkpt lat="46.0729591" lon="11.1055567" />
      <trkpt lat="46.0728648" lon="11.1056031" />
      <trkpt lat="46.0727759" lon="11.1056658" />
      <trkpt lat="46.0726814" lon="11.1057606" />
      <trkpt lat="46.0724810" lon="11.1060040" />
      <trkpt lat="46.0722893" lon="11.1062431" />
      <trkpt lat="46.0722320" lon="11.1062946" />
      <trkpt lat="46.0721887" lon="11.1063259" />
      <trkpt lat="46.0721134" lon="11.1063618" />
      <trkpt lat="46.0720068" lon="11.1064030" />
      <trkpt lat="46.0718550" lon="11.1064816" />
      <trkpt lat="46.0716749" lon="11.1066140" />
      <trkpt lat="46.0715860" lon="11.1067126" />
      <trkpt lat="46.0714814" lon="11.1068834" />
      <trkpt lat="46.0713812" lon="11.1070307" />
      <trkpt lat="46.0713099" lon="11.1071258" />
      <trkpt lat="46.0711960" lon="11.1072143" />
      <trkpt lat="46.0711537" lon="11.1072441" />
      <trkpt lat="46.0711289" lon="11.1072599" />
      <trkpt lat="46.0711111" lon="11.1072710" />
      <trkpt lat="46.0710934" lon="11.1072680" />
      <trkpt lat="46.0710770" lon="11.1072479" />
      <trkpt lat="46.0710690" lon="11.1072037" />
      <trkpt lat="46.0710615" lon="11.1071404" />
      <trkpt lat="46.0710658" lon="11.1069633" />
      <trkpt lat="46.0710817" lon="11.1067605" />
      <trkpt lat="46.0710883" lon="11.1066279" />
      <trkpt lat="46.0710837" lon="11.1065577" />
      <trkpt lat="46.0710809" lon="11.1064921" />
      <trkpt lat="46.0710684" lon="11.1064607" />
      <trkpt lat="46.0710494" lon="11.1064437" />
      <trkpt lat="46.0710283" lon="11.1064457" />
      <trkpt lat="46.0710111" lon="11.1064552" />
      <trkpt lat="46.0709871" lon="11.1064903" />
      <trkpt lat="46.0710111" lon="11.1064552" />
      <trkpt lat="46.0710283" lon="11.1064457" />
      <trkpt lat="46.0710494" lon="11.1064437" />
      <trkpt lat="46.0710684" lon="11.1064607" />
      <trkpt lat="46.0710809" lon="11.1064921" />
      <trkpt lat="46.0710837" lon="11.1065577" />
      <trkpt lat="46.0710883" lon="11.1066279" />
      <trkpt lat="46.0710817" lon="11.1067605" />
      <trkpt lat="46.0710658" lon="11.1069633" />
      <trkpt lat="46.0710615" lon="11.1071404" />
      <trkpt lat="46.0710690" lon="11.1072037" />
      <trkpt lat="46.0710770" lon="11.1072479" />
      <trkpt lat="46.0710934" lon="11.1072680" />
      <trkpt lat="46.0711111" lon="11.1072710" />
      <trkpt lat="46.0711289" lon="11.1072599" />
      <trkpt lat="46.0711537" lon="11.1072441" />
      <trkpt lat="46.0711960" lon="11.1072143" />
      <trkpt lat="46.0713099" lon="11.1071258" />
      <trkpt lat="46.0713812" lon="11.1070307" />
      <trkpt lat="46.0714814" lon="11.1068834" />
      <trkpt lat="46.0715860" lon="11.1067126" />
      <trkpt lat="46.0716749" lon="11.1066140" />
      <trkpt lat="46.0718550" lon="11.1064816" />
      <trkpt lat="46.0720068" lon="11.1064030" />
      <trkpt lat="46.0721134" lon="11.1063618" />
      <trkpt lat="46.0721887" lon="11.1063259" />
      <trkpt lat="46.0722320" lon="11.1062946" />
      <trkpt lat="46.0722893" lon="11.1062431" />
      <trkpt lat="46.0724810" lon="11.1060040" />
      <trkpt lat="46.0726814" lon="11.1057606" />
      <trkpt lat="46.0727759" lon="11.1056658" />
      <trkpt lat="46.0728648" lon="11.1056031" />
      <trkpt lat="46.0729591" lon="11.1055567" />
      <trkpt lat="46.0730665" lon="11.1055186" />
      <trkpt lat="46.0731436" lon="11.1055008" />
      <trkpt lat="46.0731631" lon="11.1054990" />
      <trkpt lat="46.0731860" lon="11.1055039" />
      <trkpt lat="46.0732021" lon="11.1055067" />
      <trkpt lat="46.0732163" lon="11.1055082" />
      <trkpt lat="46.0733551" lon="11.1055019" />
      <trkpt lat="46.0733756" lon="11.1055039" />
      <trkpt lat="46.0734030" lon="11.1055081" />
      <trkpt lat="46.0733780" lon="11.1055867" />
      <trkpt lat="46.0733083" lon="11.1058057" />
      <trkpt lat="46.0732529" lon="11.1059914" />
      <trkpt lat="46.0732200" lon="11.1060497" />
      <trkpt lat="46.0731749" lon="11.1061013" />
      <trkpt lat="46.0730228" lon="11.1062328" />
      <trkpt lat="46.0729383" lon="11.1063107" />
      <trkpt lat="46.0728539" lon="11.1063993" />
      <trkpt lat="46.0728000" lon="11.1064839" />
      <trkpt lat="46.0727777" lon="11.1065370" />
      <trkpt lat="46.0727592" lon="11.1065954" />
      <trkpt lat="46.0727248" lon="11.1067023" />
      <trkpt lat="46.0727016" lon="11.1068147" />
      <trkpt lat="46.0726664" lon="11.1070611" />
      <trkpt lat="46.0726430" lon="11.1071846" />
      <trkpt lat="46.0726278" lon="11.1072317" />
      <trkpt lat="46.0726076" lon="11.1072787" />
      <trkpt lat="46.0725875" lon="11.1073177" />
      <trkpt lat="46.0725572" lon="11.1073568" />
      <trkpt lat="46.0721237" lon="11.1078214" />
      <trkpt lat="46.0718427" lon="11.1081567" />
      <trkpt lat="46.0716956" lon="11.1083682" />
      <trkpt lat="46.0714759" lon="11.1087687" />
      <trkpt lat="46.0714398" lon="11.1088371" />
      <trkpt lat="46.0713762" lon="11.1089573" />
      <trkpt lat="46.0710922" lon="11.1094943" />
      <trkpt lat="46.0710705" lon="11.1094582" />
      <trkpt lat="46.0710196" lon="11.1095462" />
      <trkpt lat="46.0709205" lon="11.1097366" />
      <trkpt lat="46.0708693" lon="11.1098647" />
      <trkpt lat="46.0708554" lon="11.1099003" />
      <trkpt lat="46.0708316" lon="11.1099613" />
      <trkpt lat="46.0707497" lon="11.1101838" />
      <trkpt lat="46.0707018" lon="11.1103180" />
      <trkpt lat="46.0706665" lon="11.1104467" />
      <trkpt lat="46.0706453" lon="11.1105284" />
      <trkpt lat="46.0706014" lon="11.1107079" />
      <trkpt lat="46.0705938" lon="11.1107384" />
      <trkpt lat="46.0705787" lon="11.1108167" />
      <trkpt lat="46.0705413" lon="11.1111003" />
      <trkpt lat="46.0705361" lon="11.1111626" />
      <trkpt lat="46.0705257" lon="11.1113296" />
      <trkpt lat="46.0705187" lon="11.1114760" />
      <trkpt lat="46.0705136" lon="11.1116151" />
      <trkpt lat="46.0705106" lon="11.1117214" />
      <trkpt lat="46.0704958" lon="11.1117395" />
      <trkpt lat="46.0705047" lon="11.1117917" />
      <trkpt lat="46.0705169" lon="11.1118466" />
      <trkpt lat="46.0704794" lon="11.1118659" />
      <trkpt lat="46.0702743" lon="11.1119716" />
      <trkpt lat="46.0700745" lon="11.1120853" />
      <trkpt lat="46.0700153" lon="11.1121170" />
      <trkpt lat="46.0699575" lon="11.1121507" />
      <trkpt lat="46.0698340" lon="11.1122175" />
      <trkpt lat="46.0695621" lon="11.1123584" />
      <trkpt lat="46.0695200" lon="11.1123774" />
      <trkpt lat="46.0694892" lon="11.1123979" />
      <trkpt lat="46.0694766" lon="11.1124185" />
      <trkpt lat="46.0694749" lon="11.1124507" />
      <trkpt lat="46.0694819" lon="11.1124795" />
      <trkpt lat="46.0698039" lon="11.1131995" />
      <trkpt lat="46.0698237" lon="11.1132449" />
      <trkpt lat="46.0698001" lon="11.1132688" />
      <trkpt lat="46.0697929" lon="11.1132763" />
      <trkpt lat="46.0696877" lon="11.1133875" />
      <trkpt lat="46.0696727" lon="11.1134020" />
      <trkpt lat="46.0696193" lon="11.1134541" />
      <trkpt lat="46.0696727" lon="11.1134020" />
      <trkpt lat="46.0696877" lon="11.1133875" />
      <trkpt lat="46.0697929" lon="11.1132763" />
      <trkpt lat="46.0698001" lon="11.1132688" />
      <trkpt lat="46.0698841" lon="11.1134535" />
      <trkpt lat="46.0698903" lon="11.1134740" />
      <trkpt lat="46.0698938" lon="11.1134943" />
      <trkpt lat="46.0698966" lon="11.1135082" />
      <trkpt lat="46.0699470" lon="11.1136398" />
      <trkpt lat="46.0700069" lon="11.1137728" />
      <trkpt lat="46.0700424" lon="11.1137402" />
      <trkpt lat="46.0700647" lon="11.1137245" />
      <trkpt lat="46.0702578" lon="11.1136080" />
      <trkpt lat="46.0703578" lon="11.1135531" />
      <trkpt lat="46.0703913" lon="11.1135338" />
      <trkpt lat="46.0704501" lon="11.1135005" />
      <trkpt lat="46.0704730" lon="11.1134880" />
      <trkpt lat="46.0704990" lon="11.1134751" />
      <trkpt lat="46.0705357" lon="11.1136218" />
      <trkpt lat="46.0705448" lon="11.1136624" />
      <trkpt lat="46.0705564" lon="11.1137069" />
      <trkpt lat="46.0705185" lon="11.1137821" />
      <trkpt lat="46.0704819" lon="11.1138341" />
      <trkpt lat="46.0704346" lon="11.1138697" />
      <trkpt lat="46.0703864" lon="11.1139142" />
      <trkpt lat="46.0702602" lon="11.1139812" />
      <trkpt lat="46.0702044" lon="11.1139869" />
      <trkpt lat="46.0702044" lon="11.1140479" />
      <trkpt lat="46.0702038" lon="11.1140736" />
      <trkpt lat="46.0701933" lon="11.1141300" />
      <trkpt lat="46.0701826" lon="11.1141474" />
      <trkpt lat="46.0701713" lon="11.1142018" />
      <trkpt lat="46.0701963" lon="11.1142414" />
      <trkpt lat="46.0702122" lon="11.1142749" />
      <trkpt lat="46.0702262" lon="11.1143187" />
      <trkpt lat="46.0702350" lon="11.1143612" />
      <trkpt lat="46.0702508" lon="11.1144356" />
      <trkpt lat="46.0702894" lon="11.1144548" />
      <trkpt lat="46.0703300" lon="11.1144739" />
      <trkpt lat="46.0703420" lon="11.1144768" />
      <trkpt lat="46.0703535" lon="11.1144784" />
      <trkpt lat="46.0703770" lon="11.1144800" />
      <trkpt lat="46.0704564" lon="11.1145311" />
      <trkpt lat="46.0705116" lon="11.1145755" />
      <trkpt lat="46.0705372" lon="11.1145196" />
      <trkpt lat="46.0705662" lon="11.1144787" />
      <trkpt lat="46.0705843" lon="11.1145160" />
      <trkpt lat="46.0706094" lon="11.1145490" />
      <trkpt lat="46.0708319" lon="11.1147234" />
      <trkpt lat="46.0708171" lon="11.1147747" />
      <trkpt lat="46.0708045" lon="11.1148160" />
      <trkpt lat="46.0708009" lon="11.1148281" />
      <trkpt lat="46.0707959" lon="11.1148434" />
      <trkpt lat="46.0708185" lon="11.1148581" />
      <trkpt lat="46.0709446" lon="11.1149414" />
      <trkpt lat="46.0711622" lon="11.1150542" />
      <trkpt lat="46.0711800" lon="11.1150634" />
      <trkpt lat="46.0712489" lon="11.1150973" />
      <trkpt lat="46.0714713" lon="11.1152069" />
      <trkpt lat="46.0714751" lon="11.1151881" />
      <trkpt lat="46.0714778" lon="11.1151767" />
      <trkpt lat="46.0715462" lon="11.1151968" />
      <trkpt lat="46.0716701" lon="11.1152371" />
      <trkpt lat="46.0718589" lon="11.1153122" />
      <trkpt lat="46.0720789" lon="11.1153994" />
      <trkpt lat="46.0720916" lon="11.1153124" />
      <trkpt lat="46.0721020" lon="11.1152353" />
      <trkpt lat="46.0722640" lon="11.1152825" />
      <trkpt lat="46.0723217" lon="11.1152993" />
      <trkpt lat="46.0723840" lon="11.1153175" />
      <trkpt lat="46.0724494" lon="11.1153366" />
      <trkpt lat="46.0725567" lon="11.1153664" />
      <trkpt lat="46.0726244" lon="11.1153832" />
      <trkpt lat="46.0728072" lon="11.1154284" />
      <trkpt lat="46.0731233" lon="11.1154741" />
      <trkpt lat="46.0733679" lon="11.1155099" />
      <trkpt lat="46.0733887" lon="11.1155375" />
      <trkpt lat="46.0735619" lon="11.1155469" />
      <trkpt lat="46.0733887" lon="11.1155375" />
      <trkpt lat="46.0733679" lon="11.1155099" />
      <trkpt lat="46.0731233" lon="11.1154741" />
      <trkpt lat="46.0728072" lon="11.1154284" />
      <trkpt lat="46.0726244" lon="11.1153832" />
      <trkpt lat="46.0725567" lon="11.1153664" />
      <trkpt lat="46.0724494" lon="11.1153366" />
      <trkpt lat="46.0723840" lon="11.1153175" />
      <trkpt lat="46.0723217" lon="11.1152993" />
      <trkpt lat="46.0722640" lon="11.1152825" />
      <trkpt lat="46.0721020" lon="11.1152353" />
      <trkpt lat="46.0720916" lon="11.1153124" />
      <trkpt lat="46.0720789" lon="11.1153994" />
      <trkpt lat="46.0718589" lon="11.1153122" />
      <trkpt lat="46.0716701" lon="11.1152371" />
      <trkpt lat="46.0715462" lon="11.1151968" />
      <trkpt lat="46.0714778" lon="11.1151767" />
      <trkpt lat="46.0714751" lon="11.1151881" />
      <trkpt lat="46.0714713" lon="11.1152069" />
      <trkpt lat="46.0712489" lon="11.1150973" />
      <trkpt lat="46.0711800" lon="11.1150634" />
      <trkpt lat="46.0711622" lon="11.1150542" />
      <trkpt lat="46.0709446" lon="11.1149414" />
      <trkpt lat="46.0708185" lon="11.1148581" />
      <trkpt lat="46.0707959" lon="11.1148434" />
      <trkpt lat="46.0708009" lon="11.1148281" />
      <trkpt lat="46.0708045" lon="11.1148160" />
      <trkpt lat="46.0708171" lon="11.1147747" />
      <trkpt lat="46.0708319" lon="11.1147234" />
      <trkpt lat="46.0706094" lon="11.1145490" />
      <trkpt lat="46.0705843" lon="11.1145160" />
      <trkpt lat="46.0705662" lon="11.1144787" />
      <trkpt lat="46.0705372" lon="11.1145196" />
      <trkpt lat="46.0705116" lon="11.1145755" />
      <trkpt lat="46.0704564" lon="11.1145311" />
      <trkpt lat="46.0703770" lon="11.1144800" />
      <trkpt lat="46.0703535" lon="11.1144784" />
      <trkpt lat="46.0703420" lon="11.1144768" />
      <trkpt lat="46.0703300" lon="11.1144739" />
      <trkpt lat="46.0702894" lon="11.1144548" />
      <trkpt lat="46.0702508" lon="11.1144356" />
      <trkpt lat="46.0702350" lon="11.1143612" />
      <trkpt lat="46.0702262" lon="11.1143187" />
      <trkpt lat="46.0702122" lon="11.1142749" />
      <trkpt lat="46.0701963" lon="11.1142414" />
      <trkpt lat="46.0701713" lon="11.1142018" />
      <trkpt lat="46.0701555" lon="11.1141871" />
      <trkpt lat="46.0701270" lon="11.1141662" />
      <trkpt lat="46.0701061" lon="11.1141508" />
      <trkpt lat="46.0700735" lon="11.1141344" />
      <trkpt lat="46.0699724" lon="11.1140894" />
      <trkpt lat="46.0699342" lon="11.1141162" />
      <trkpt lat="46.0692827" lon="11.1138365" />
      <trkpt lat="46.0692891" lon="11.1138032" />
      <trkpt lat="46.0693007" lon="11.1137442" />
      <trkpt lat="46.0693165" lon="11.1136571" />
      <trkpt lat="46.0693007" lon="11.1137442" />
      <trkpt lat="46.0692891" lon="11.1138032" />
      <trkpt lat="46.0692827" lon="11.1138365" />
      <trkpt lat="46.0699342" lon="11.1141162" />
      <trkpt lat="46.0699724" lon="11.1140894" />
      <trkpt lat="46.0700735" lon="11.1141344" />
      <trkpt lat="46.0701061" lon="11.1141508" />
      <trkpt lat="46.0701270" lon="11.1141662" />
      <trkpt lat="46.0701555" lon="11.1141871" />
      <trkpt lat="46.0701713" lon="11.1142018" />
      <trkpt lat="46.0701963" lon="11.1142414" />
      <trkpt lat="46.0702122" lon="11.1142749" />
      <trkpt lat="46.0702262" lon="11.1143187" />
      <trkpt lat="46.0702350" lon="11.1143612" />
      <trkpt lat="46.0702508" lon="11.1144356" />
      <trkpt lat="46.0702467" lon="11.1144529" />
      <trkpt lat="46.0699151" lon="11.1156990" />
      <trkpt lat="46.0698998" lon="11.1157127" />
      <trkpt lat="46.0698507" lon="11.1157710" />
      <trkpt lat="46.0697948" lon="11.1158159" />
      <trkpt lat="46.0697290" lon="11.1158495" />
      <trkpt lat="46.0696957" lon="11.1158516" />
      <trkpt lat="46.0696409" lon="11.1158489" />
      <trkpt lat="46.0696120" lon="11.1158421" />
      <trkpt lat="46.0695555" lon="11.1157924" />
      <trkpt lat="46.0694630" lon="11.1156868" />
      <trkpt lat="46.0694379" lon="11.1156582" />
      <trkpt lat="46.0693862" lon="11.1155966" />
      <trkpt lat="46.0693025" lon="11.1155178" />
      <trkpt lat="46.0692873" lon="11.1154626" />
      <trkpt lat="46.0693025" lon="11.1155178" />
      <trkpt lat="46.0693862" lon="11.1155966" />
      <trkpt lat="46.0694379" lon="11.1156582" />
      <trkpt lat="46.0694630" lon="11.1156868" />
      <trkpt lat="46.0695555" lon="11.1157924" />
      <trkpt lat="46.0696120" lon="11.1158421" />
      <trkpt lat="46.0696409" lon="11.1158489" />
      <trkpt lat="46.0696957" lon="11.1158516" />
      <trkpt lat="46.0697290" lon="11.1158495" />
      <trkpt lat="46.0697948" lon="11.1158159" />
      <trkpt lat="46.0698507" lon="11.1157710" />
      <trkpt lat="46.0698998" lon="11.1157127" />
      <trkpt lat="46.0699441" lon="11.1157384" />
      <trkpt lat="46.0699948" lon="11.1157680" />
      <trkpt lat="46.0700117" lon="11.1157886" />
      <trkpt lat="46.0700662" lon="11.1158228" />
      <trkpt lat="46.0703724" lon="11.1159815" />
      <trkpt lat="46.0708611" lon="11.1162327" />
      <trkpt lat="46.0712454" lon="11.1164070" />
      <trkpt lat="46.0713598" lon="11.1164541" />
      <trkpt lat="46.0713418" lon="11.1165274" />
      <trkpt lat="46.0713277" lon="11.1165796" />
      <trkpt lat="46.0712817" lon="11.1167688" />
      <trkpt lat="46.0712955" lon="11.1168323" />
      <trkpt lat="46.0712609" lon="11.1168561" />
      <trkpt lat="46.0713046" lon="11.1170127" />
      <trkpt lat="46.0713418" lon="11.1171366" />
      <trkpt lat="46.0713616" lon="11.1171855" />
      <trkpt lat="46.0713804" lon="11.1172189" />
      <trkpt lat="46.0713984" lon="11.1172344" />
      <trkpt lat="46.0713754" lon="11.1173445" />
      <trkpt lat="46.0714676" lon="11.1173874" />
      <trkpt lat="46.0717695" lon="11.1175280" />
      <trkpt lat="46.0720787" lon="11.1176720" />
      <trkpt lat="46.0724077" lon="11.1178252" />
      <trkpt lat="46.0726696" lon="11.1179464" />
      <trkpt lat="46.0732498" lon="11.1182117" />
      <trkpt lat="46.0731721" lon="11.1185466" />
      <trkpt lat="46.0732056" lon="11.1186238" />
      <trkpt lat="46.0731635" lon="11.1187945" />
      <trkpt lat="46.0731564" lon="11.1188234" />
      <trkpt lat="46.0731243" lon="11.1189296" />
      <trkpt lat="46.0727849" lon="11.1199833" />
      <trkpt lat="46.0727608" lon="11.1200597" />
      <trkpt lat="46.0727515" lon="11.1200914" />
      <trkpt lat="46.0727683" lon="11.1201030" />
      <trkpt lat="46.0727657" lon="11.1201115" />
      <trkpt lat="46.0727559" lon="11.1201431" />
      <trkpt lat="46.0727304" lon="11.1202207" />
      <trkpt lat="46.0727160" lon="11.1202722" />
      <trkpt lat="46.0726005" lon="11.1201976" />
      <trkpt lat="46.0725046" lon="11.1202564" />
      <trkpt lat="46.0724821" lon="11.1202702" />
      <trkpt lat="46.0724334" lon="11.1203870" />
      <trkpt lat="46.0723585" lon="11.1206252" />
      <trkpt lat="46.0723438" lon="11.1206163" />
      <trkpt lat="46.0723300" lon="11.1206079" />
      <trkpt lat="46.0722957" lon="11.1205871" />
      <trkpt lat="46.0722575" lon="11.1205638" />
      <trkpt lat="46.0721965" lon="11.1207390" />
      <trkpt lat="46.0721142" lon="11.1207172" />
      <trkpt lat="46.0720912" lon="11.1207605" />
      <trkpt lat="46.0720594" lon="11.1207901" />
      <trkpt lat="46.0720225" lon="11.1208024" />
      <trkpt lat="46.0719922" lon="11.1207988" />
      <trkpt lat="46.0719637" lon="11.1207834" />
      <trkpt lat="46.0717629" lon="11.1209214" />
      <trkpt lat="46.0717270" lon="11.1208985" />
      <trkpt lat="46.0716533" lon="11.1211213" />
      <trkpt lat="46.0716174" lon="11.1210984" />
      <trkpt lat="46.0715831" lon="11.1210789" />
      <trkpt lat="46.0714778" lon="11.1210315" />
      <trkpt lat="46.0714484" lon="11.1210274" />
      <trkpt lat="46.0714280" lon="11.1210421" />
      <trkpt lat="46.0714182" lon="11.1210689" />
      <trkpt lat="46.0714094" lon="11.1210971" />
      <trkpt lat="46.0714042" lon="11.1211368" />
      <trkpt lat="46.0709933" lon="11.1212422" />
      <trkpt lat="46.0709093" lon="11.1212701" />
      <trkpt lat="46.0708739" lon="11.1212929" />
      <trkpt lat="46.0708428" lon="11.1213207" />
      <trkpt lat="46.0706077" lon="11.1213808" />
      <trkpt lat="46.0705431" lon="11.1214010" />
      <trkpt lat="46.0703902" lon="11.1214490" />
      <trkpt lat="46.0703665" lon="11.1214519" />
      <trkpt lat="46.0703515" lon="11.1214390" />
      <trkpt lat="46.0703324" lon="11.1214444" />
      <trkpt lat="46.0702645" lon="11.1214627" />
      <trkpt lat="46.0702164" lon="11.1214756" />
      <trkpt lat="46.0702108" lon="11.1214249" />
      <trkpt lat="46.0701289" lon="11.1206585" />
      <trkpt lat="46.0700585" lon="11.1200224" />
      <trkpt lat="46.0700337" lon="11.1198021" />
      <trkpt lat="46.0700053" lon="11.1197976" />
      <trkpt lat="46.0700021" lon="11.1197557" />
      <trkpt lat="46.0699981" lon="11.1197027" />
      <trkpt lat="46.0699049" lon="11.1197056" />
      <trkpt lat="46.0695787" lon="11.1198028" />
      <trkpt lat="46.0695493" lon="11.1198090" />
      <trkpt lat="46.0695220" lon="11.1198116" />
      <trkpt lat="46.0694763" lon="11.1198434" />
      <trkpt lat="46.0693982" lon="11.1198734" />
      <trkpt lat="46.0692352" lon="11.1199271" />
      <trkpt lat="46.0691667" lon="11.1199367" />
      <trkpt lat="46.0691086" lon="11.1199380" />
      <trkpt lat="46.0690484" lon="11.1199429" />
      <trkpt lat="46.0689900" lon="11.1199487" />
      <trkpt lat="46.0688928" lon="11.1199633" />
      <trkpt lat="46.0688785" lon="11.1199652" />
      <trkpt lat="46.0688503" lon="11.1199666" />
      <trkpt lat="46.0688097" lon="11.1199685" />
      <trkpt lat="46.0687784" lon="11.1199700" />
      <trkpt lat="46.0687688" lon="11.1199699" />
      <trkpt lat="46.0687055" lon="11.1199855" />
      <trkpt lat="46.0686285" lon="11.1199921" />
      <trkpt lat="46.0685273" lon="11.1200042" />
      <trkpt lat="46.0685313" lon="11.1200706" />
      <trkpt lat="46.0686910" lon="11.1200385" />
      <trkpt lat="46.0686922" lon="11.1200685" />
      <trkpt lat="46.0686941" lon="11.1200894" />
      <trkpt lat="46.0686963" lon="11.1201124" />
      <trkpt lat="46.0687020" lon="11.1201725" />
      <trkpt lat="46.0687388" lon="11.1203760" />
      <trkpt lat="46.0687499" lon="11.1204587" />
      <trkpt lat="46.0687388" lon="11.1203760" />
      <trkpt lat="46.0687020" lon="11.1201725" />
      <trkpt lat="46.0686963" lon="11.1201124" />
      <trkpt lat="46.0686941" lon="11.1200894" />
      <trkpt lat="46.0686922" lon="11.1200685" />
      <trkpt lat="46.0686910" lon="11.1200385" />
      <trkpt lat="46.0685313" lon="11.1200706" />
      <trkpt lat="46.0685273" lon="11.1200042" />
      <trkpt lat="46.0684776" lon="11.1200039" />
      <trkpt lat="46.0684504" lon="11.1200865" />
      <trkpt lat="46.0683846" lon="11.1201435" />
      <trkpt lat="46.0682945" lon="11.1202664" />
      <trkpt lat="46.0681669" lon="11.1204445" />
      <trkpt lat="46.0681018" lon="11.1205393" />
      <trkpt lat="46.0679032" lon="11.1207116" />
      <trkpt lat="46.0678457" lon="11.1207672" />
      <trkpt lat="46.0678148" lon="11.1207864" />
      <trkpt lat="46.0677393" lon="11.1208327" />
      <trkpt lat="46.0676386" lon="11.1208917" />
      <trkpt lat="46.0675759" lon="11.1209222" />
      <trkpt lat="46.0674358" lon="11.1209903" />
      <trkpt lat="46.0673165" lon="11.1210193" />
      <trkpt lat="46.0670745" lon="11.1210291" />
      <trkpt lat="46.0670730" lon="11.1209842" />
      <trkpt lat="46.0670637" lon="11.1207156" />
      <trkpt lat="46.0670289" lon="11.1205458" />
      <trkpt lat="46.0668249" lon="11.1206182" />
      <trkpt lat="46.0668711" lon="11.1210492" />
    </trkseg>
  </trk>
</gpx>
