<?xml version="1.0" encoding="UTF-8"?>
<gpx xmlns="http://www.topografix.com/GPX/1/1" version="1.1" creator="ShapeRoute route-engine">
  <metadata>
    <name>cat 15 km · 2026-09-24</name>
    <author>
      <name>ShapeRoute route-engine</name>
    </author>
    <copyright author="OpenStreetMap contributors">
      <license>https://opendatacommons.org/licenses/odbl/1-0/</license>
    </copyright>
    <link href="https://www.openstreetmap.org/copyright">
      <text>© OpenStreetMap contributors</text>
    </link>
    <time>2026-09-24T06:29:37Z</time>
  </metadata>
  <trk>
    <name>cat 15 km · 2026-09-24</name>
    <trkseg>
      <trkpt lat="46.0145657" lon="11.2985826" />
      <trkpt lat="46.0146356" lon="11.2986752" />
      <trkpt lat="46.0146840" lon="11.2986430" />
      <trkpt lat="46.0147200" lon="11.2986038" />
      <trkpt lat="46.0147775" lon="11.2986185" />
      <trkpt lat="46.0144647" lon="11.2992432" />
      <trkpt lat="46.0143419" lon="11.2994850" />
      <trkpt lat="46.0143116" lon="11.2995475" />
      <trkpt lat="46.0139448" lon="11.3002023" />
      <trkpt lat="46.0136191" lon="11.3007836" />
      <trkpt lat="46.0134381" lon="11.3011068" />
      <trkpt lat="46.0131872" lon="11.3015350" />
      <trkpt lat="46.0130588" lon="11.3019822" />
      <trkpt lat="46.0135551" lon="11.3022875" />
      <trkpt lat="46.0137742" lon="11.3024673" />
      <trkpt lat="46.0139875" lon="11.3026424" />
      <trkpt lat="46.0144299" lon="11.3030043" />
      <trkpt lat="46.0146225" lon="11.3032314" />
      <trkpt lat="46.0146751" lon="11.3033359" />
      <trkpt lat="46.0146867" lon="11.3034741" />
      <trkpt lat="46.0147613" lon="11.3037166" />
      <trkpt lat="46.0148071" lon="11.3039585" />
      <trkpt lat="46.0148233" lon="11.3039722" />
      <trkpt lat="46.0149907" lon="11.3040148" />
      <trkpt lat="46.0151560" lon="11.3041575" />
      <trkpt lat="46.0152046" lon="11.3041889" />
      <trkpt lat="46.0152792" lon="11.3042107" />
      <trkpt lat="46.0153095" lon="11.3042188" />
      <trkpt lat="46.0154524" lon="11.3042572" />
      <trkpt lat="46.0156100" lon="11.3043753" />
      <trkpt lat="46.0157278" lon="11.3045000" />
      <trkpt lat="46.0158599" lon="11.3046138" />
      <trkpt lat="46.0158816" lon="11.3050492" />
      <trkpt lat="46.0158840" lon="11.3050997" />
      <trkpt lat="46.0159255" lon="11.3059359" />
      <trkpt lat="46.0159769" lon="11.3059862" />
      <trkpt lat="46.0162817" lon="11.3062193" />
      <trkpt lat="46.0168513" lon="11.3065339" />
      <trkpt lat="46.0176425" lon="11.3072598" />
      <trkpt lat="46.0179405" lon="11.3075602" />
      <trkpt lat="46.0181975" lon="11.3077936" />
      <trkpt lat="46.0184676" lon="11.3079679" />
      <trkpt lat="46.0187638" lon="11.3081261" />
      <trkpt lat="46.0190404" lon="11.3082629" />
      <trkpt lat="46.0191046" lon="11.3082992" />
      <trkpt lat="46.0191540" lon="11.3082965" />
      <trkpt lat="46.0192033" lon="11.3082817" />
      <trkpt lat="46.0192713" lon="11.3082334" />
      <trkpt lat="46.0194557" lon="11.3080578" />
      <trkpt lat="46.0195991" lon="11.3078901" />
      <trkpt lat="46.0196653" lon="11.3078526" />
      <trkpt lat="46.0197332" lon="11.3078512" />
      <trkpt lat="46.0197882" lon="11.3078982" />
      <trkpt lat="46.0198320" lon="11.3079800" />
      <trkpt lat="46.0198487" lon="11.3080966" />
      <trkpt lat="46.0198487" lon="11.3084695" />
      <trkpt lat="46.0198552" lon="11.3086036" />
      <trkpt lat="46.0198860" lon="11.3087323" />
      <trkpt lat="46.0199269" lon="11.3087967" />
      <trkpt lat="46.0199707" lon="11.3088410" />
      <trkpt lat="46.0200968" lon="11.3091400" />
      <trkpt lat="46.0202747" lon="11.3093533" />
      <trkpt lat="46.0203273" lon="11.3093942" />
      <trkpt lat="46.0201010" lon="11.3097061" />
      <trkpt lat="46.0197692" lon="11.3097273" />
      <trkpt lat="46.0193342" lon="11.3097769" />
      <trkpt lat="46.0190294" lon="11.3098795" />
      <trkpt lat="46.0184470" lon="11.3101733" />
      <trkpt lat="46.0181054" lon="11.3103184" />
      <trkpt lat="46.0177686" lon="11.3104068" />
      <trkpt lat="46.0172968" lon="11.3104422" />
      <trkpt lat="46.0170510" lon="11.3103325" />
      <trkpt lat="46.0169035" lon="11.3101910" />
      <trkpt lat="46.0168531" lon="11.3101777" />
      <trkpt lat="46.0164436" lon="11.3101138" />
      <trkpt lat="46.0161098" lon="11.3099253" />
      <trkpt lat="46.0158237" lon="11.3097536" />
      <trkpt lat="46.0155435" lon="11.3096935" />
      <trkpt lat="46.0151755" lon="11.3095997" />
      <trkpt lat="46.0150426" lon="11.3094836" />
      <trkpt lat="46.0149739" lon="11.3093695" />
      <trkpt lat="46.0149467" lon="11.3092691" />
      <trkpt lat="46.0149346" lon="11.3091044" />
      <trkpt lat="46.0149375" lon="11.3089053" />
      <trkpt lat="46.0149682" lon="11.3086612" />
      <trkpt lat="46.0149475" lon="11.3085481" />
      <trkpt lat="46.0148886" lon="11.3084980" />
      <trkpt lat="46.0147663" lon="11.3085009" />
      <trkpt lat="46.0145486" lon="11.3085446" />
      <trkpt lat="46.0143280" lon="11.3085730" />
      <trkpt lat="46.0141429" lon="11.3085671" />
      <trkpt lat="46.0137875" lon="11.3085719" />
      <trkpt lat="46.0137052" lon="11.3085868" />
      <trkpt lat="46.0136430" lon="11.3086202" />
      <trkpt lat="46.0136139" lon="11.3086583" />
      <trkpt lat="46.0135936" lon="11.3086788" />
      <trkpt lat="46.0135640" lon="11.3086957" />
      <trkpt lat="46.0135413" lon="11.3086948" />
      <trkpt lat="46.0135225" lon="11.3086854" />
      <trkpt lat="46.0134812" lon="11.3086513" />
      <trkpt lat="46.0134568" lon="11.3086278" />
      <trkpt lat="46.0134044" lon="11.3085949" />
      <trkpt lat="46.0133450" lon="11.3085849" />
      <trkpt lat="46.0132950" lon="11.3086265" />
      <trkpt lat="46.0132379" lon="11.3086679" />
      <trkpt lat="46.0131735" lon="11.3087524" />
      <trkpt lat="46.0131139" lon="11.3088596" />
      <trkpt lat="46.0130617" lon="11.3091225" />
      <trkpt lat="46.0130319" lon="11.3092083" />
      <trkpt lat="46.0129761" lon="11.3092566" />
      <trkpt lat="46.0128792" lon="11.3092834" />
      <trkpt lat="46.0124877" lon="11.3093217" />
      <trkpt lat="46.0123477" lon="11.3093205" />
      <trkpt lat="46.0121885" lon="11.3093191" />
      <trkpt lat="46.0121068" lon="11.3093195" />
      <trkpt lat="46.0120910" lon="11.3093193" />
      <trkpt lat="46.0119086" lon="11.3093218" />
      <trkpt lat="46.0117912" lon="11.3093198" />
      <trkpt lat="46.0117285" lon="11.3093139" />
      <trkpt lat="46.0115957" lon="11.3092885" />
      <trkpt lat="46.0113540" lon="11.3092369" />
      <trkpt lat="46.0112065" lon="11.3092161" />
      <trkpt lat="46.0110982" lon="11.3092079" />
      <trkpt lat="46.0110743" lon="11.3092062" />
      <trkpt lat="46.0105969" lon="11.3092274" />
      <trkpt lat="46.0104685" lon="11.3092444" />
      <trkpt lat="46.0103494" lon="11.3092761" />
      <trkpt lat="46.0098931" lon="11.3094071" />
      <trkpt lat="46.0098305" lon="11.3094158" />
      <trkpt lat="46.0097471" lon="11.3093905" />
      <trkpt lat="46.0096743" lon="11.3093517" />
      <trkpt lat="46.0096191" lon="11.3093162" />
      <trkpt lat="46.0095602" lon="11.3092690" />
      <trkpt lat="46.0095413" lon="11.3092533" />
      <trkpt lat="46.0095093" lon="11.3092309" />
      <trkpt lat="46.0094848" lon="11.3092210" />
      <trkpt lat="46.0094485" lon="11.3092101" />
      <trkpt lat="46.0094113" lon="11.3092100" />
      <trkpt lat="46.0093756" lon="11.3092212" />
      <trkpt lat="46.0093417" lon="11.3092364" />
      <trkpt lat="46.0093089" lon="11.3092664" />
      <trkpt lat="46.0092747" lon="11.3093032" />
      <trkpt lat="46.0092055" lon="11.3093792" />
      <trkpt lat="46.0091892" lon="11.3093536" />
      <trkpt lat="46.0091689" lon="11.3093351" />
      <trkpt lat="46.0091459" lon="11.3093250" />
      <trkpt lat="46.0091198" lon="11.3093242" />
      <trkpt lat="46.0090947" lon="11.3093342" />
      <trkpt lat="46.0090726" lon="11.3093539" />
      <trkpt lat="46.0090559" lon="11.3093807" />
      <trkpt lat="46.0090448" lon="11.3094131" />
      <trkpt lat="46.0090404" lon="11.3094486" />
      <trkpt lat="46.0090073" lon="11.3095385" />
      <trkpt lat="46.0089760" lon="11.3097174" />
      <trkpt lat="46.0088822" lon="11.3102538" />
      <trkpt lat="46.0088334" lon="11.3106461" />
      <trkpt lat="46.0088061" lon="11.3110390" />
      <trkpt lat="46.0087766" lon="11.3113086" />
      <trkpt lat="46.0087291" lon="11.3115741" />
      <trkpt lat="46.0086543" lon="11.3119920" />
      <trkpt lat="46.0085576" lon="11.3123055" />
      <trkpt lat="46.0084740" lon="11.3124796" />
      <trkpt lat="46.0083970" lon="11.3125461" />
      <trkpt lat="46.0083716" lon="11.3123548" />
      <trkpt lat="46.0083373" lon="11.3120961" />
      <trkpt lat="46.0081889" lon="11.3110227" />
      <trkpt lat="46.0081771" lon="11.3109370" />
      <trkpt lat="46.0080908" lon="11.3103122" />
      <trkpt lat="46.0080561" lon="11.3099425" />
      <trkpt lat="46.0080447" lon="11.3098215" />
      <trkpt lat="46.0078804" lon="11.3100389" />
      <trkpt lat="46.0076535" lon="11.3103595" />
      <trkpt lat="46.0075404" lon="11.3105696" />
      <trkpt lat="46.0074939" lon="11.3106559" />
      <trkpt lat="46.0074477" lon="11.3107708" />
      <trkpt lat="46.0073188" lon="11.3110197" />
      <trkpt lat="46.0071166" lon="11.3113219" />
      <trkpt lat="46.0070002" lon="11.3113771" />
      <trkpt lat="46.0067022" lon="11.3116689" />
      <trkpt lat="46.0065472" lon="11.3118406" />
      <trkpt lat="46.0064100" lon="11.3119264" />
      <trkpt lat="46.0061855" lon="11.3120538" />
      <trkpt lat="46.0061075" lon="11.3121017" />
      <trkpt lat="46.0058494" lon="11.3121548" />
      <trkpt lat="46.0057229" lon="11.3121785" />
      <trkpt lat="46.0055791" lon="11.3121928" />
      <trkpt lat="46.0052593" lon="11.3121900" />
      <trkpt lat="46.0051050" lon="11.3122164" />
      <trkpt lat="46.0050318" lon="11.3122477" />
      <trkpt lat="46.0047918" lon="11.3123922" />
      <trkpt lat="46.0046631" lon="11.3124960" />
      <trkpt lat="46.0045655" lon="11.3126182" />
      <trkpt lat="46.0044733" lon="11.3127509" />
      <trkpt lat="46.0044076" lon="11.3129112" />
      <trkpt lat="46.0043911" lon="11.3130321" />
      <trkpt lat="46.0044057" lon="11.3132226" />
      <trkpt lat="46.0044048" lon="11.3133789" />
      <trkpt lat="46.0043857" lon="11.3134749" />
      <trkpt lat="46.0043492" lon="11.3135406" />
      <trkpt lat="46.0042619" lon="11.3135953" />
      <trkpt lat="46.0040966" lon="11.3125681" />
      <trkpt lat="46.0039837" lon="11.3116396" />
      <trkpt lat="46.0039085" lon="11.3107334" />
      <trkpt lat="46.0038608" lon="11.3098715" />
      <trkpt lat="46.0038448" lon="11.3092298" />
      <trkpt lat="46.0037179" lon="11.3093491" />
      <trkpt lat="46.0035694" lon="11.3094837" />
      <trkpt lat="46.0033659" lon="11.3095630" />
      <trkpt lat="46.0031247" lon="11.3095780" />
      <trkpt lat="46.0029398" lon="11.3095750" />
      <trkpt lat="46.0027195" lon="11.3095939" />
      <trkpt lat="46.0025096" lon="11.3095835" />
      <trkpt lat="46.0024870" lon="11.3095672" />
      <trkpt lat="46.0023308" lon="11.3095327" />
      <trkpt lat="46.0023020" lon="11.3095370" />
      <trkpt lat="46.0022121" lon="11.3095586" />
      <trkpt lat="46.0021384" lon="11.3096200" />
      <trkpt lat="46.0019730" lon="11.3098498" />
      <trkpt lat="46.0018608" lon="11.3098991" />
      <trkpt lat="46.0018336" lon="11.3099003" />
      <trkpt lat="46.0018185" lon="11.3098750" />
      <trkpt lat="46.0017994" lon="11.3098560" />
      <trkpt lat="46.0017776" lon="11.3098446" />
      <trkpt lat="46.0017510" lon="11.3098420" />
      <trkpt lat="46.0017251" lon="11.3098506" />
      <trkpt lat="46.0017020" lon="11.3098698" />
      <trkpt lat="46.0016838" lon="11.3098978" />
      <trkpt lat="46.0016732" lon="11.3099275" />
      <trkpt lat="46.0016682" lon="11.3099601" />
      <trkpt lat="46.0016692" lon="11.3099935" />
      <trkpt lat="46.0016332" lon="11.3101531" />
      <trkpt lat="46.0015821" lon="11.3102928" />
      <trkpt lat="46.0015439" lon="11.3104514" />
      <trkpt lat="46.0015184" lon="11.3104875" />
      <trkpt lat="46.0013803" lon="11.3106827" />
      <trkpt lat="46.0010217" lon="11.3112045" />
      <trkpt lat="46.0008837" lon="11.3114122" />
      <trkpt lat="46.0005346" lon="11.3120139" />
      <trkpt lat="46.0003800" lon="11.3123160" />
      <trkpt lat="46.0003033" lon="11.3124623" />
      <trkpt lat="46.0002559" lon="11.3125435" />
      <trkpt lat="46.0001608" lon="11.3127726" />
      <trkpt lat="46.0000723" lon="11.3130579" />
      <trkpt lat="46.0000083" lon="11.3133229" />
      <trkpt lat="45.9999609" lon="11.3135460" />
      <trkpt lat="45.9998991" lon="11.3141877" />
      <trkpt lat="45.9998610" lon="11.3143888" />
      <trkpt lat="45.9998282" lon="11.3144833" />
      <trkpt lat="45.9997649" lon="11.3146024" />
      <trkpt lat="45.9996842" lon="11.3146954" />
      <trkpt lat="45.9996058" lon="11.3147709" />
      <trkpt lat="45.9994920" lon="11.3148602" />
      <trkpt lat="45.9993502" lon="11.3149265" />
      <trkpt lat="45.9992184" lon="11.3149794" />
      <trkpt lat="45.9991471" lon="11.3148909" />
      <trkpt lat="45.9990518" lon="11.3147213" />
      <trkpt lat="45.9989248" lon="11.3144958" />
      <trkpt lat="45.9987314" lon="11.3142385" />
      <trkpt lat="45.9984929" lon="11.3138201" />
      <trkpt lat="45.9983587" lon="11.3134982" />
      <trkpt lat="45.9982830" lon="11.3133395" />
      <trkpt lat="45.9981015" lon="11.3130815" />
      <trkpt lat="45.9978731" lon="11.3128658" />
      <trkpt lat="45.9976620" lon="11.3126010" />
      <trkpt lat="45.9974101" lon="11.3123017" />
      <trkpt lat="45.9972725" lon="11.3121447" />
      <trkpt lat="45.9971960" lon="11.3119854" />
      <trkpt lat="45.9970842" lon="11.3115241" />
      <trkpt lat="45.9969053" lon="11.3109769" />
      <trkpt lat="45.9968569" lon="11.3106873" />
      <trkpt lat="45.9968513" lon="11.3104941" />
      <trkpt lat="45.9968516" lon="11.3103620" />
      <trkpt lat="45.9968308" lon="11.3101615" />
      <trkpt lat="45.9967488" lon="11.3099416" />
      <trkpt lat="45.9967190" lon="11.3096358" />
      <trkpt lat="45.9967206" lon="11.3095956" />
      <trkpt lat="45.9967227" lon="11.3095446" />
      <trkpt lat="45.9967212" lon="11.3095344" />
      <trkpt lat="45.9967937" lon="11.3094972" />
      <trkpt lat="45.9970268" lon="11.3094177" />
      <trkpt lat="45.9971738" lon="11.3093624" />
      <trkpt lat="45.9973118" lon="11.3093396" />
      <trkpt lat="45.9974961" lon="11.3093266" />
      <trkpt lat="45.9976493" lon="11.3093011" />
      <trkpt lat="45.9977441" lon="11.3092827" />
      <trkpt lat="45.9978411" lon="11.3092598" />
      <trkpt lat="45.9979112" lon="11.3092110" />
      <trkpt lat="45.9980182" lon="11.3090635" />
      <trkpt lat="45.9980640" lon="11.3089951" />
      <trkpt lat="45.9980153" lon="11.3087810" />
      <trkpt lat="45.9980006" lon="11.3081728" />
      <trkpt lat="45.9979083" lon="11.3075241" />
      <trkpt lat="45.9979167" lon="11.3066712" />
      <trkpt lat="45.9978241" lon="11.3053134" />
      <trkpt lat="45.9977103" lon="11.3039531" />
      <trkpt lat="45.9975526" lon="11.3013092" />
      <trkpt lat="45.9974997" lon="11.3010240" />
      <trkpt lat="45.9974725" lon="11.3009082" />
      <trkpt lat="45.9973749" lon="11.3008692" />
      <trkpt lat="45.9971997" lon="11.3008543" />
      <trkpt lat="45.9970619" lon="11.3008382" />
      <trkpt lat="45.9969799" lon="11.3007980" />
      <trkpt lat="45.9968736" lon="11.3007320" />
      <trkpt lat="45.9969803" lon="11.3003320" />
      <trkpt lat="45.9970697" lon="11.2999513" />
      <trkpt lat="45.9971174" lon="11.2996595" />
      <trkpt lat="45.9971739" lon="11.2987203" />
      <trkpt lat="45.9972091" lon="11.2985696" />
      <trkpt lat="45.9972485" lon="11.2984579" />
      <trkpt lat="45.9973301" lon="11.2983702" />
      <trkpt lat="45.9974036" lon="11.2983205" />
      <trkpt lat="45.9976182" lon="11.2982776" />
      <trkpt lat="45.9989034" lon="11.2981519" />
      <trkpt lat="45.9990286" lon="11.2981390" />
      <trkpt lat="45.9988596" lon="11.2980275" />
      <trkpt lat="45.9988679" lon="11.2979795" />
      <trkpt lat="45.9988689" lon="11.2979588" />
      <trkpt lat="45.9988547" lon="11.2978333" />
      <trkpt lat="45.9987959" lon="11.2975969" />
      <trkpt lat="45.9987628" lon="11.2974500" />
      <trkpt lat="45.9986324" lon="11.2972451" />
      <trkpt lat="45.9982815" lon="11.2969586" />
      <trkpt lat="45.9982110" lon="11.2968886" />
      <trkpt lat="45.9981365" lon="11.2967957" />
      <trkpt lat="45.9976119" lon="11.2958918" />
      <trkpt lat="45.9974915" lon="11.2957400" />
      <trkpt lat="45.9973104" lon="11.2956919" />
      <trkpt lat="45.9970501" lon="11.2956678" />
      <trkpt lat="45.9962643" lon="11.2956730" />
      <trkpt lat="45.9952325" lon="11.2956610" />
      <trkpt lat="45.9946700" lon="11.2956592" />
      <trkpt lat="45.9942413" lon="11.2956283" />
      <trkpt lat="45.9940502" lon="11.2955475" />
      <trkpt lat="45.9935218" lon="11.2952783" />
      <trkpt lat="45.9931823" lon="11.2950279" />
      <trkpt lat="45.9930334" lon="11.2949031" />
      <trkpt lat="45.9929073" lon="11.2947570" />
      <trkpt lat="45.9929166" lon="11.2947164" />
      <trkpt lat="45.9929236" lon="11.2946372" />
      <trkpt lat="45.9930818" lon="11.2942083" />
      <trkpt lat="45.9931779" lon="11.2939336" />
      <trkpt lat="45.9932375" lon="11.2938974" />
      <trkpt lat="45.9932851" lon="11.2939242" />
      <trkpt lat="45.9933709" lon="11.2939953" />
      <trkpt lat="45.9934309" lon="11.2940527" />
      <trkpt lat="45.9934933" lon="11.2940272" />
      <trkpt lat="45.9935548" lon="11.2939340" />
      <trkpt lat="45.9936152" lon="11.2938366" />
      <trkpt lat="45.9936582" lon="11.2937579" />
      <trkpt lat="45.9937015" lon="11.2936223" />
      <trkpt lat="45.9937114" lon="11.2934888" />
      <trkpt lat="45.9937367" lon="11.2934670" />
      <trkpt lat="45.9937873" lon="11.2934768" />
      <trkpt lat="45.9939890" lon="11.2936114" />
      <trkpt lat="45.9941083" lon="11.2936396" />
      <trkpt lat="45.9949128" lon="11.2937593" />
      <trkpt lat="45.9950815" lon="11.2938282" />
      <trkpt lat="45.9952145" lon="11.2939222" />
      <trkpt lat="45.9952940" lon="11.2939703" />
      <trkpt lat="45.9953135" lon="11.2939689" />
      <trkpt lat="45.9953397" lon="11.2939402" />
      <trkpt lat="45.9953572" lon="11.2938604" />
      <trkpt lat="45.9953575" lon="11.2937531" />
      <trkpt lat="45.9953183" lon="11.2935719" />
      <trkpt lat="45.9953099" lon="11.2934250" />
      <trkpt lat="45.9953491" lon="11.2931327" />
      <trkpt lat="45.9953871" lon="11.2930404" />
      <trkpt lat="45.9956507" lon="11.2927208" />
      <trkpt lat="45.9958027" lon="11.2923585" />
      <trkpt lat="45.9959927" lon="11.2920141" />
      <trkpt lat="45.9961419" lon="11.2915593" />
      <trkpt lat="45.9962906" lon="11.2912570" />
      <trkpt lat="45.9963498" lon="11.2911678" />
      <trkpt lat="45.9964082" lon="11.2909091" />
      <trkpt lat="45.9964557" lon="11.2906630" />
      <trkpt lat="45.9964759" lon="11.2903998" />
      <trkpt lat="45.9965816" lon="11.2901264" />
      <trkpt lat="45.9968510" lon="11.2895792" />
      <trkpt lat="45.9964790" lon="11.2891629" />
      <trkpt lat="45.9963145" lon="11.2889464" />
      <trkpt lat="45.9962388" lon="11.2887832" />
      <trkpt lat="45.9965279" lon="11.2882294" />
      <trkpt lat="45.9965742" lon="11.2879430" />
      <trkpt lat="45.9966540" lon="11.2878075" />
      <trkpt lat="45.9979732" lon="11.2865469" />
      <trkpt lat="45.9981008" lon="11.2863982" />
      <trkpt lat="45.9986043" lon="11.2857091" />
      <trkpt lat="45.9992456" lon="11.2848314" />
      <trkpt lat="46.0001817" lon="11.2835085" />
      <trkpt lat="46.0002960" lon="11.2836802" />
      <trkpt lat="46.0006674" lon="11.2841903" />
      <trkpt lat="46.0007950" lon="11.2843593" />
      <trkpt lat="46.0009183" lon="11.2844790" />
      <trkpt lat="46.0010480" lon="11.2845808" />
      <trkpt lat="46.0010805" lon="11.2846397" />
      <trkpt lat="46.0011813" lon="11.2850156" />
      <trkpt lat="46.0013503" lon="11.2855552" />
      <trkpt lat="46.0015560" lon="11.2859879" />
      <trkpt lat="46.0018041" lon="11.2864195" />
      <trkpt lat="46.0019063" lon="11.2865574" />
      <trkpt lat="46.0019344" lon="11.2866027" />
      <trkpt lat="46.0019258" lon="11.2866748" />
      <trkpt lat="46.0019016" lon="11.2867465" />
      <trkpt lat="46.0017242" lon="11.2871815" />
      <trkpt lat="46.0016506" lon="11.2877883" />
      <trkpt lat="46.0015713" lon="11.2882233" />
      <trkpt lat="46.0011603" lon="11.2900668" />
      <trkpt lat="46.0012681" lon="11.2901163" />
      <trkpt lat="46.0014696" lon="11.2902074" />
      <trkpt lat="46.0016485" lon="11.2902246" />
      <trkpt lat="46.0017916" lon="11.2902589" />
      <trkpt lat="46.0018810" lon="11.2903018" />
      <trkpt lat="46.0020122" lon="11.2904220" />
      <trkpt lat="46.0021284" lon="11.2905551" />
      <trkpt lat="46.0021815" lon="11.2905977" />
      <trkpt lat="46.0022375" lon="11.2906018" />
      <trkpt lat="46.0023376" lon="11.2905707" />
      <trkpt lat="46.0024584" lon="11.2905436" />
      <trkpt lat="46.0025698" lon="11.2905404" />
      <trkpt lat="46.0026927" lon="11.2905357" />
      <trkpt lat="46.0026612" lon="11.2900427" />
      <trkpt lat="46.0025272" lon="11.2877438" />
      <trkpt lat="46.0024494" lon="11.2865472" />
      <trkpt lat="46.0024454" lon="11.2865168" />
      <trkpt lat="46.0024793" lon="11.2864324" />
      <trkpt lat="46.0025077" lon="11.2863738" />
      <trkpt lat="46.0025338" lon="11.2863258" />
      <trkpt lat="46.0025631" lon="11.2862891" />
      <trkpt lat="46.0025911" lon="11.2862631" />
      <trkpt lat="46.0026208" lon="11.2862507" />
      <trkpt lat="46.0026839" lon="11.2862547" />
      <trkpt lat="46.0027533" lon="11.2862724" />
      <trkpt lat="46.0027886" lon="11.2863086" />
      <trkpt lat="46.0028144" lon="11.2863524" />
      <trkpt lat="46.0028408" lon="11.2864729" />
      <trkpt lat="46.0028512" lon="11.2865966" />
      <trkpt lat="46.0029205" lon="11.2865508" />
      <trkpt lat="46.0029724" lon="11.2864804" />
      <trkpt lat="46.0030287" lon="11.2863759" />
      <trkpt lat="46.0034787" lon="11.2857578" />
      <trkpt lat="46.0039481" lon="11.2856247" />
      <trkpt lat="46.0044030" lon="11.2854571" />
      <trkpt lat="46.0045091" lon="11.2854610" />
      <trkpt lat="46.0047775" lon="11.2854555" />
      <trkpt lat="46.0049591" lon="11.2854546" />
      <trkpt lat="46.0050567" lon="11.2853509" />
      <trkpt lat="46.0052009" lon="11.2852077" />
      <trkpt lat="46.0057821" lon="11.2849801" />
      <trkpt lat="46.0059721" lon="11.2849308" />
      <trkpt lat="46.0060089" lon="11.2849039" />
      <trkpt lat="46.0060572" lon="11.2848616" />
      <trkpt lat="46.0061534" lon="11.2846442" />
      <trkpt lat="46.0062116" lon="11.2846233" />
      <trkpt lat="46.0075205" lon="11.2857000" />
      <trkpt lat="46.0070534" lon="11.2869185" />
      <trkpt lat="46.0069793" lon="11.2871160" />
      <trkpt lat="46.0065317" lon="11.2882075" />
      <trkpt lat="46.0058293" lon="11.2899363" />
      <trkpt lat="46.0060181" lon="11.2900874" />
      <trkpt lat="46.0061755" lon="11.2902346" />
      <trkpt lat="46.0063692" lon="11.2903953" />
      <trkpt lat="46.0065443" lon="11.2904935" />
      <trkpt lat="46.0066517" lon="11.2905954" />
      <trkpt lat="46.0066948" lon="11.2906504" />
      <trkpt lat="46.0067109" lon="11.2906711" />
      <trkpt lat="46.0084543" lon="11.2877742" />
      <trkpt lat="46.0085013" lon="11.2876968" />
      <trkpt lat="46.0085887" lon="11.2877427" />
      <trkpt lat="46.0086383" lon="11.2877703" />
      <trkpt lat="46.0086680" lon="11.2877792" />
      <trkpt lat="46.0086914" lon="11.2878024" />
      <trkpt lat="46.0087744" lon="11.2878722" />
      <trkpt lat="46.0088116" lon="11.2879678" />
      <trkpt lat="46.0088342" lon="11.2881141" />
      <trkpt lat="46.0088389" lon="11.2883637" />
      <trkpt lat="46.0090416" lon="11.2889431" />
      <trkpt lat="46.0093958" lon="11.2899229" />
      <trkpt lat="46.0093986" lon="11.2899309" />
      <trkpt lat="46.0096387" lon="11.2897784" />
      <trkpt lat="46.0096776" lon="11.2897837" />
      <trkpt lat="46.0096962" lon="11.2897827" />
      <trkpt lat="46.0097102" lon="11.2897827" />
      <trkpt lat="46.0097235" lon="11.2897894" />
      <trkpt lat="46.0097334" lon="11.2898114" />
      <trkpt lat="46.0097531" lon="11.2899109" />
      <trkpt lat="46.0097829" lon="11.2898964" />
      <trkpt lat="46.0099107" lon="11.2898286" />
      <trkpt lat="46.0101365" lon="11.2897062" />
      <trkpt lat="46.0102610" lon="11.2896391" />
      <trkpt lat="46.0103119" lon="11.2895981" />
      <trkpt lat="46.0103313" lon="11.2895635" />
      <trkpt lat="46.0103406" lon="11.2895290" />
      <trkpt lat="46.0103400" lon="11.2894066" />
      <trkpt lat="46.0103878" lon="11.2894056" />
      <trkpt lat="46.0104484" lon="11.2894042" />
      <trkpt lat="46.0104490" lon="11.2895231" />
      <trkpt lat="46.0104601" lon="11.2895497" />
      <trkpt lat="46.0104819" lon="11.2895643" />
      <trkpt lat="46.0105075" lon="11.2895672" />
      <trkpt lat="46.0105457" lon="11.2895609" />
      <trkpt lat="46.0116967" lon="11.2893124" />
      <trkpt lat="46.0119076" lon="11.2892653" />
      <trkpt lat="46.0119694" lon="11.2892404" />
      <trkpt lat="46.0120120" lon="11.2892244" />
      <trkpt lat="46.0120429" lon="11.2892117" />
      <trkpt lat="46.0121666" lon="11.2891716" />
      <trkpt lat="46.0122996" lon="11.2890980" />
      <trkpt lat="46.0124195" lon="11.2889946" />
      <trkpt lat="46.0131366" lon="11.2882740" />
      <trkpt lat="46.0134155" lon="11.2880490" />
      <trkpt lat="46.0137165" lon="11.2878713" />
      <trkpt lat="46.0140681" lon="11.2877265" />
      <trkpt lat="46.0147944" lon="11.2874299" />
      <trkpt lat="46.0147504" lon="11.2874863" />
      <trkpt lat="46.0147094" lon="11.2875316" />
      <trkpt lat="46.0146996" lon="11.2875551" />
      <trkpt lat="46.0147636" lon="11.2875556" />
      <trkpt lat="46.0148466" lon="11.2876110" />
      <trkpt lat="46.0148943" lon="11.2876625" />
      <trkpt lat="46.0149560" lon="11.2877517" />
      <trkpt lat="46.0149811" lon="11.2879274" />
      <trkpt lat="46.0150482" lon="11.2883976" />
      <trkpt lat="46.0151360" lon="11.2890235" />
      <trkpt lat="46.0152206" lon="11.2898066" />
      <trkpt lat="46.0152390" lon="11.2900743" />
      <trkpt lat="46.0152330" lon="11.2904001" />
      <trkpt lat="46.0151664" lon="11.2907564" />
      <trkpt lat="46.0151412" lon="11.2908676" />
      <trkpt lat="46.0150067" lon="11.2914292" />
      <trkpt lat="46.0150015" lon="11.2916181" />
      <trkpt lat="46.0149905" lon="11.2917922" />
      <trkpt lat="46.0150076" lon="11.2919050" />
      <trkpt lat="46.0150509" lon="11.2920681" />
      <trkpt lat="46.0151925" lon="11.2923573" />
      <trkpt lat="46.0152555" lon="11.2924861" />
      <trkpt lat="46.0153284" lon="11.2926093" />
      <trkpt lat="46.0154225" lon="11.2927684" />
      <trkpt lat="46.0154946" lon="11.2928902" />
      <trkpt lat="46.0156203" lon="11.2931027" />
      <trkpt lat="46.0158371" lon="11.2934691" />
      <trkpt lat="46.0157817" lon="11.2935851" />
      <trkpt lat="46.0156633" lon="11.2937085" />
      <trkpt lat="46.0154496" lon="11.2939212" />
      <trkpt lat="46.0154776" lon="11.2940381" />
      <trkpt lat="46.0154632" lon="11.2942013" />
      <trkpt lat="46.0154342" lon="11.2944115" />
      <trkpt lat="46.0155379" lon="11.2943323" />
      <trkpt lat="46.0156549" lon="11.2942128" />
      <trkpt lat="46.0157556" lon="11.2940659" />
      <trkpt lat="46.0158657" lon="11.2938677" />
      <trkpt lat="46.0160048" lon="11.2935632" />
      <trkpt lat="46.0161232" lon="11.2932305" />
      <trkpt lat="46.0162389" lon="11.2930351" />
      <trkpt lat="46.0163212" lon="11.2929241" />
      <trkpt lat="46.0163937" lon="11.2928688" />
      <trkpt lat="46.0164642" lon="11.2928393" />
      <trkpt lat="46.0165045" lon="11.2928074" />
      <trkpt lat="46.0165230" lon="11.2927928" />
      <trkpt lat="46.0165614" lon="11.2927485" />
      <trkpt lat="46.0165943" lon="11.2926445" />
      <trkpt lat="46.0166270" lon="11.2925817" />
      <trkpt lat="46.0166311" lon="11.2925627" />
      <trkpt lat="46.0166368" lon="11.2924727" />
      <trkpt lat="46.0166295" lon="11.2921484" />
      <trkpt lat="46.0166496" lon="11.2916436" />
      <trkpt lat="46.0167088" lon="11.2913240" />
      <trkpt lat="46.0168501" lon="11.2910206" />
      <trkpt lat="46.0172765" lon="11.2903975" />
      <trkpt lat="46.0176322" lon="11.2898739" />
      <trkpt lat="46.0177777" lon="11.2897505" />
      <trkpt lat="46.0176900" lon="11.2895863" />
      <trkpt lat="46.0176034" lon="11.2895277" />
      <trkpt lat="46.0174823" lon="11.2894875" />
      <trkpt lat="46.0173398" lon="11.2893576" />
      <trkpt lat="46.0172130" lon="11.2892058" />
      <trkpt lat="46.0170992" lon="11.2892004" />
      <trkpt lat="46.0169007" lon="11.2891715" />
      <trkpt lat="46.0167643" lon="11.2891452" />
      <trkpt lat="46.0165970" lon="11.2891168" />
      <trkpt lat="46.0165080" lon="11.2890948" />
      <trkpt lat="46.0164533" lon="11.2890454" />
      <trkpt lat="46.0164331" lon="11.2889333" />
      <trkpt lat="46.0164235" lon="11.2888024" />
      <trkpt lat="46.0164331" lon="11.2887026" />
      <trkpt lat="46.0164927" lon="11.2883765" />
      <trkpt lat="46.0165702" lon="11.2880589" />
      <trkpt lat="46.0166050" lon="11.2879278" />
      <trkpt lat="46.0166315" lon="11.2878223" />
      <trkpt lat="46.0166720" lon="11.2878245" />
      <trkpt lat="46.0167013" lon="11.2878787" />
      <trkpt lat="46.0167192" lon="11.2880589" />
      <trkpt lat="46.0167652" lon="11.2881491" />
      <trkpt lat="46.0168102" lon="11.2881657" />
      <trkpt lat="46.0168434" lon="11.2881289" />
      <trkpt lat="46.0168933" lon="11.2880200" />
      <trkpt lat="46.0169692" lon="11.2877028" />
      <trkpt lat="46.0170257" lon="11.2874683" />
      <trkpt lat="46.0170513" lon="11.2872429" />
      <trkpt lat="46.0170586" lon="11.2871654" />
      <trkpt lat="46.0172253" lon="11.2872881" />
      <trkpt lat="46.0173314" lon="11.2873819" />
      <trkpt lat="46.0173668" lon="11.2874785" />
      <trkpt lat="46.0173966" lon="11.2875992" />
      <trkpt lat="46.0174246" lon="11.2876260" />
      <trkpt lat="46.0174748" lon="11.2876180" />
      <trkpt lat="46.0175717" lon="11.2875321" />
      <trkpt lat="46.0177263" lon="11.2873498" />
      <trkpt lat="46.0177673" lon="11.2873283" />
      <trkpt lat="46.0177729" lon="11.2875536" />
      <trkpt lat="46.0177710" lon="11.2876582" />
      <trkpt lat="46.0177896" lon="11.2877199" />
      <trkpt lat="46.0178287" lon="11.2877467" />
      <trkpt lat="46.0178883" lon="11.2877333" />
      <trkpt lat="46.0179480" lon="11.2877306" />
      <trkpt lat="46.0179889" lon="11.2877682" />
      <trkpt lat="46.0180020" lon="11.2878326" />
      <trkpt lat="46.0179982" lon="11.2879211" />
      <trkpt lat="46.0179647" lon="11.2879854" />
      <trkpt lat="46.0179684" lon="11.2880404" />
      <trkpt lat="46.0179778" lon="11.2881397" />
      <trkpt lat="46.0179889" lon="11.2882563" />
      <trkpt lat="46.0179852" lon="11.2883556" />
      <trkpt lat="46.0179843" lon="11.2884669" />
      <trkpt lat="46.0179899" lon="11.2885366" />
      <trkpt lat="46.0179759" lon="11.2885983" />
      <trkpt lat="46.0179442" lon="11.2886453" />
      <trkpt lat="46.0179433" lon="11.2886734" />
      <trkpt lat="46.0179563" lon="11.2887016" />
      <trkpt lat="46.0179889" lon="11.2887231" />
      <trkpt lat="46.0179945" lon="11.2887512" />
      <trkpt lat="46.0179498" lon="11.2888089" />
      <trkpt lat="46.0179088" lon="11.2888464" />
      <trkpt lat="46.0178707" lon="11.2888907" />
      <trkpt lat="46.0178558" lon="11.2889229" />
      <trkpt lat="46.0178660" lon="11.2889390" />
      <trkpt lat="46.0179079" lon="11.2889564" />
      <trkpt lat="46.0179582" lon="11.2889457" />
      <trkpt lat="46.0179992" lon="11.2889269" />
      <trkpt lat="46.0180206" lon="11.2889323" />
      <trkpt lat="46.0180197" lon="11.2889631" />
      <trkpt lat="46.0179750" lon="11.2889993" />
      <trkpt lat="46.0179154" lon="11.2890543" />
      <trkpt lat="46.0178744" lon="11.2890945" />
      <trkpt lat="46.0178539" lon="11.2891294" />
      <trkpt lat="46.0178651" lon="11.2891468" />
      <trkpt lat="46.0179088" lon="11.2891790" />
      <trkpt lat="46.0179759" lon="11.2892179" />
      <trkpt lat="46.0180206" lon="11.2892300" />
      <trkpt lat="46.0180625" lon="11.2891965" />
      <trkpt lat="46.0180970" lon="11.2891240" />
      <trkpt lat="46.0181473" lon="11.2890744" />
      <trkpt lat="46.0181910" lon="11.2890744" />
      <trkpt lat="46.0182124" lon="11.2891187" />
      <trkpt lat="46.0182003" lon="11.2891871" />
      <trkpt lat="46.0181584" lon="11.2894177" />
      <trkpt lat="46.0181389" lon="11.2895961" />
      <trkpt lat="46.0181454" lon="11.2897007" />
      <trkpt lat="46.0181736" lon="11.2897240" />
      <trkpt lat="46.0181915" lon="11.2895524" />
      <trkpt lat="46.0183881" lon="11.2888743" />
      <trkpt lat="46.0186087" lon="11.2875868" />
      <trkpt lat="46.0186223" lon="11.2874793" />
      <trkpt lat="46.0186087" lon="11.2875868" />
      <trkpt lat="46.0183881" lon="11.2888743" />
      <trkpt lat="46.0181915" lon="11.2895524" />
      <trkpt lat="46.0181736" lon="11.2897240" />
      <trkpt lat="46.0181945" lon="11.2898624" />
      <trkpt lat="46.0181041" lon="11.2897191" />
      <trkpt lat="46.0179645" lon="11.2897034" />
      <trkpt lat="46.0178227" lon="11.2897334" />
      <trkpt lat="46.0177777" lon="11.2897505" />
      <trkpt lat="46.0174881" lon="11.2896904" />
      <trkpt lat="46.0170552" lon="11.2895908" />
      <trkpt lat="46.0164919" lon="11.2897922" />
      <trkpt lat="46.0162142" lon="11.2901068" />
      <trkpt lat="46.0162966" lon="11.2901490" />
      <trkpt lat="46.0161893" lon="11.2903520" />
      <trkpt lat="46.0162044" lon="11.2903661" />
      <trkpt lat="46.0162771" lon="11.2902692" />
      <trkpt lat="46.0162945" lon="11.2902724" />
      <trkpt lat="46.0163021" lon="11.2903052" />
      <trkpt lat="46.0162977" lon="11.2903723" />
      <trkpt lat="46.0160735" lon="11.2909423" />
      <trkpt lat="46.0162324" lon="11.2914020" />
      <trkpt lat="46.0165196" lon="11.2922861" />
      <trkpt lat="46.0165943" lon="11.2926445" />
      <trkpt lat="46.0162577" lon="11.2928722" />
      <trkpt lat="46.0162218" lon="11.2929072" />
      <trkpt lat="46.0161773" lon="11.2929628" />
      <trkpt lat="46.0161232" lon="11.2932305" />
      <trkpt lat="46.0160048" lon="11.2935632" />
      <trkpt lat="46.0158657" lon="11.2938677" />
      <trkpt lat="46.0157556" lon="11.2940659" />
      <trkpt lat="46.0156549" lon="11.2942128" />
      <trkpt lat="46.0155379" lon="11.2943323" />
      <trkpt lat="46.0154342" lon="11.2944115" />
      <trkpt lat="46.0154028" lon="11.2944370" />
      <trkpt lat="46.0152268" lon="11.2945032" />
      <trkpt lat="46.0149698" lon="11.2945964" />
      <trkpt lat="46.0147204" lon="11.2946646" />
      <trkpt lat="46.0138117" lon="11.2949132" />
      <trkpt lat="46.0137702" lon="11.2951992" />
      <trkpt lat="46.0137425" lon="11.2954170" />
      <trkpt lat="46.0137250" lon="11.2955075" />
      <trkpt lat="46.0136604" lon="11.2958422" />
      <trkpt lat="46.0135406" lon="11.2962138" />
      <trkpt lat="46.0134018" lon="11.2964807" />
      <trkpt lat="46.0132630" lon="11.2966621" />
      <trkpt lat="46.0131567" lon="11.2969032" />
      <trkpt lat="46.0131796" lon="11.2972693" />
      <trkpt lat="46.0132414" lon="11.2974829" />
      <trkpt lat="46.0131919" lon="11.2975460" />
      <trkpt lat="46.0132320" lon="11.2976177" />
      <trkpt lat="46.0133454" lon="11.2977970" />
      <trkpt lat="46.0134865" lon="11.2979792" />
      <trkpt lat="46.0136470" lon="11.2981837" />
      <trkpt lat="46.0139231" lon="11.2985434" />
      <trkpt lat="46.0141584" lon="11.2988474" />
      <trkpt lat="46.0141849" lon="11.2988817" />
      <trkpt lat="46.0142859" lon="11.2987840" />
      <trkpt lat="46.0145020" lon="11.2986284" />
      <trkpt lat="46.0145657" lon="11.2985826" />
    </trkseg>
  </trk>
</gpx>
