<?xml version="1.0" encoding="UTF-8"?>
<gpx xmlns="http://www.topografix.com/GPX/1/1" version="1.1" creator="ShapeRoute route-engine">
  <metadata>
    <name>heart 5 km · 2026-09-22</name>
    <author>
      <name>ShapeRoute route-engine</name>
    </author>
    <time>2026-09-22T22:35:49Z</time>
  </metadata>
  <trk>
    <name>heart 5 km · 2026-09-22</name>
    <trkseg>
      <trkpt lat="46.0543700" lon="11.4492227" />
      <trkpt lat="46.0544091" lon="11.4494516" />
      <trkpt lat="46.0544525" lon="11.4497065" />
      <trkpt lat="46.0544650" lon="11.4497801" />
      <trkpt lat="46.0545043" lon="11.4500072" />
      <trkpt lat="46.0545135" lon="11.4500603" />
      <trkpt lat="46.0545778" lon="11.4504325" />
      <trkpt lat="46.0546686" lon="11.4509574" />
      <trkpt lat="46.0546770" lon="11.4510062" />
      <trkpt lat="46.0547228" lon="11.4512834" />
      <trkpt lat="46.0547289" lon="11.4513206" />
      <trkpt lat="46.0548383" lon="11.4519824" />
      <trkpt lat="46.0548724" lon="11.4522392" />
      <trkpt lat="46.0548718" lon="11.4523434" />
      <trkpt lat="46.0547889" lon="11.4524265" />
      <trkpt lat="46.0546691" lon="11.4524289" />
      <trkpt lat="46.0544000" lon="11.4524523" />
      <trkpt lat="46.0543067" lon="11.4524653" />
      <trkpt lat="46.0542463" lon="11.4524754" />
      <trkpt lat="46.0542313" lon="11.4524775" />
      <trkpt lat="46.0541921" lon="11.4524876" />
      <trkpt lat="46.0540071" lon="11.4525399" />
      <trkpt lat="46.0538085" lon="11.4525921" />
      <trkpt lat="46.0537929" lon="11.4525971" />
      <trkpt lat="46.0537302" lon="11.4525984" />
      <trkpt lat="46.0537137" lon="11.4525988" />
      <trkpt lat="46.0536963" lon="11.4525983" />
      <trkpt lat="46.0536316" lon="11.4525898" />
      <trkpt lat="46.0535871" lon="11.4525488" />
      <trkpt lat="46.0535601" lon="11.4524922" />
      <trkpt lat="46.0535395" lon="11.4524093" />
      <trkpt lat="46.0534331" lon="11.4519044" />
      <trkpt lat="46.0533846" lon="11.4516360" />
      <trkpt lat="46.0532811" lon="11.4510637" />
      <trkpt lat="46.0532192" lon="11.4507212" />
      <trkpt lat="46.0531473" lon="11.4503496" />
      <trkpt lat="46.0531073" lon="11.4503606" />
      <trkpt lat="46.0530582" lon="11.4503786" />
      <trkpt lat="46.0530227" lon="11.4503933" />
      <trkpt lat="46.0529910" lon="11.4504205" />
      <trkpt lat="46.0529652" lon="11.4504585" />
      <trkpt lat="46.0528299" lon="11.4507231" />
      <trkpt lat="46.0528213" lon="11.4507384" />
      <trkpt lat="46.0527916" lon="11.4508180" />
      <trkpt lat="46.0527835" lon="11.4508465" />
      <trkpt lat="46.0527729" lon="11.4509012" />
      <trkpt lat="46.0527700" lon="11.4509745" />
      <trkpt lat="46.0527747" lon="11.4510696" />
      <trkpt lat="46.0527969" lon="11.4511286" />
      <trkpt lat="46.0528053" lon="11.4511946" />
      <trkpt lat="46.0527990" lon="11.4512611" />
      <trkpt lat="46.0528096" lon="11.4513603" />
      <trkpt lat="46.0528267" lon="11.4514725" />
      <trkpt lat="46.0528656" lon="11.4516928" />
      <trkpt lat="46.0528751" lon="11.4517258" />
      <trkpt lat="46.0529638" lon="11.4521035" />
      <trkpt lat="46.0530537" lon="11.4520653" />
      <trkpt lat="46.0530666" lon="11.4520598" />
      <trkpt lat="46.0531148" lon="11.4520394" />
      <trkpt lat="46.0532613" lon="11.4519773" />
      <trkpt lat="46.0534331" lon="11.4519044" />
      <trkpt lat="46.0533846" lon="11.4516360" />
      <trkpt lat="46.0532811" lon="11.4510637" />
      <trkpt lat="46.0532192" lon="11.4507212" />
      <trkpt lat="46.0531473" lon="11.4503496" />
      <trkpt lat="46.0529821" lon="11.4493773" />
      <trkpt lat="46.0527936" lon="11.4484098" />
      <trkpt lat="46.0523539" lon="11.4459728" />
      <trkpt lat="46.0518851" lon="11.4435254" />
      <trkpt lat="46.0512256" lon="11.4399863" />
      <trkpt lat="46.0510712" lon="11.4391735" />
      <trkpt lat="46.0507676" lon="11.4392753" />
      <trkpt lat="46.0503318" lon="11.4394306" />
      <trkpt lat="46.0502742" lon="11.4394696" />
      <trkpt lat="46.0501545" lon="11.4395301" />
      <trkpt lat="46.0500702" lon="11.4395796" />
      <trkpt lat="46.0500178" lon="11.4396104" />
      <trkpt lat="46.0503678" lon="11.4410296" />
      <trkpt lat="46.0507642" lon="11.4427495" />
      <trkpt lat="46.0512603" lon="11.4449154" />
      <trkpt lat="46.0513246" lon="11.4451961" />
      <trkpt lat="46.0518207" lon="11.4473623" />
      <trkpt lat="46.0523380" lon="11.4494300" />
      <trkpt lat="46.0524380" lon="11.4498473" />
      <trkpt lat="46.0524757" lon="11.4500219" />
      <trkpt lat="46.0525056" lon="11.4501959" />
      <trkpt lat="46.0525275" lon="11.4503536" />
      <trkpt lat="46.0525396" lon="11.4504824" />
      <trkpt lat="46.0525429" lon="11.4505313" />
      <trkpt lat="46.0525956" lon="11.4506598" />
      <trkpt lat="46.0526320" lon="11.4507111" />
      <trkpt lat="46.0526863" lon="11.4507417" />
      <trkpt lat="46.0527423" lon="11.4507472" />
      <trkpt lat="46.0528128" lon="11.4507450" />
      <trkpt lat="46.0528213" lon="11.4507384" />
      <trkpt lat="46.0528299" lon="11.4507231" />
      <trkpt lat="46.0529652" lon="11.4504585" />
      <trkpt lat="46.0529910" lon="11.4504205" />
      <trkpt lat="46.0530227" lon="11.4503933" />
      <trkpt lat="46.0530582" lon="11.4503786" />
      <trkpt lat="46.0531073" lon="11.4503606" />
      <trkpt lat="46.0531473" lon="11.4503496" />
      <trkpt lat="46.0532192" lon="11.4507212" />
      <trkpt lat="46.0532811" lon="11.4510637" />
      <trkpt lat="46.0533846" lon="11.4516360" />
      <trkpt lat="46.0534331" lon="11.4519044" />
      <trkpt lat="46.0535395" lon="11.4524093" />
      <trkpt lat="46.0535601" lon="11.4524922" />
      <trkpt lat="46.0535871" lon="11.4525488" />
      <trkpt lat="46.0536316" lon="11.4525898" />
      <trkpt lat="46.0536963" lon="11.4525983" />
      <trkpt lat="46.0537137" lon="11.4525988" />
      <trkpt lat="46.0537302" lon="11.4525984" />
      <trkpt lat="46.0537929" lon="11.4525971" />
      <trkpt lat="46.0538085" lon="11.4525921" />
      <trkpt lat="46.0540071" lon="11.4525399" />
      <trkpt lat="46.0541921" lon="11.4524876" />
      <trkpt lat="46.0542313" lon="11.4524775" />
      <trkpt lat="46.0542463" lon="11.4524754" />
      <trkpt lat="46.0543067" lon="11.4524653" />
      <trkpt lat="46.0544000" lon="11.4524523" />
      <trkpt lat="46.0546691" lon="11.4524289" />
      <trkpt lat="46.0547889" lon="11.4524265" />
      <trkpt lat="46.0548718" lon="11.4523434" />
      <trkpt lat="46.0548724" lon="11.4522392" />
      <trkpt lat="46.0548383" lon="11.4519824" />
      <trkpt lat="46.0547289" lon="11.4513206" />
      <trkpt lat="46.0547228" lon="11.4512834" />
      <trkpt lat="46.0546770" lon="11.4510062" />
      <trkpt lat="46.0546686" lon="11.4509574" />
      <trkpt lat="46.0545778" lon="11.4504325" />
      <trkpt lat="46.0545135" lon="11.4500603" />
      <trkpt lat="46.0545043" lon="11.4500072" />
      <trkpt lat="46.0544650" lon="11.4497801" />
      <trkpt lat="46.0544525" lon="11.4497065" />
      <trkpt lat="46.0544091" lon="11.4494516" />
      <trkpt lat="46.0543700" lon="11.4492227" />
      <trkpt lat="46.0542825" lon="11.4487092" />
      <trkpt lat="46.0542768" lon="11.4486759" />
      <trkpt lat="46.0542330" lon="11.4483994" />
      <trkpt lat="46.0541711" lon="11.4480081" />
      <trkpt lat="46.0541263" lon="11.4477248" />
      <trkpt lat="46.0540594" lon="11.4473024" />
      <trkpt lat="46.0539771" lon="11.4468137" />
      <trkpt lat="46.0539501" lon="11.4466534" />
      <trkpt lat="46.0538612" lon="11.4461805" />
      <trkpt lat="46.0538435" lon="11.4460863" />
      <trkpt lat="46.0538222" lon="11.4459727" />
      <trkpt lat="46.0538086" lon="11.4457036" />
      <trkpt lat="46.0538382" lon="11.4449855" />
      <trkpt lat="46.0538405" lon="11.4449307" />
      <trkpt lat="46.0538064" lon="11.4446615" />
      <trkpt lat="46.0536982" lon="11.4442591" />
      <trkpt lat="46.0536225" lon="11.4440047" />
      <trkpt lat="46.0534486" lon="11.4434202" />
      <trkpt lat="46.0533154" lon="11.4429724" />
      <trkpt lat="46.0531196" lon="11.4421994" />
      <trkpt lat="46.0530967" lon="11.4420557" />
      <trkpt lat="46.0531041" lon="11.4419862" />
      <trkpt lat="46.0531536" lon="11.4418551" />
      <trkpt lat="46.0532147" lon="11.4416933" />
      <trkpt lat="46.0533481" lon="11.4413401" />
      <trkpt lat="46.0534757" lon="11.4410022" />
      <trkpt lat="46.0538437" lon="11.4408986" />
      <trkpt lat="46.0557573" lon="11.4403601" />
      <trkpt lat="46.0561233" lon="11.4402952" />
      <trkpt lat="46.0562503" lon="11.4402904" />
      <trkpt lat="46.0562761" lon="11.4402746" />
      <trkpt lat="46.0562640" lon="11.4404150" />
      <trkpt lat="46.0562173" lon="11.4413151" />
      <trkpt lat="46.0562165" lon="11.4424916" />
      <trkpt lat="46.0561773" lon="11.4429611" />
      <trkpt lat="46.0561764" lon="11.4430576" />
      <trkpt lat="46.0561779" lon="11.4433956" />
      <trkpt lat="46.0562042" lon="11.4437922" />
      <trkpt lat="46.0562221" lon="11.4438915" />
      <trkpt lat="46.0562686" lon="11.4441487" />
      <trkpt lat="46.0563589" lon="11.4444374" />
      <trkpt lat="46.0563955" lon="11.4445773" />
      <trkpt lat="46.0564254" lon="11.4445159" />
      <trkpt lat="46.0564506" lon="11.4444358" />
      <trkpt lat="46.0564620" lon="11.4443303" />
      <trkpt lat="46.0564405" lon="11.4442394" />
      <trkpt lat="46.0563824" lon="11.4440520" />
      <trkpt lat="46.0562953" lon="11.4438519" />
      <trkpt lat="46.0562802" lon="11.4438701" />
      <trkpt lat="46.0562587" lon="11.4438792" />
      <trkpt lat="46.0562221" lon="11.4438915" />
      <trkpt lat="46.0562042" lon="11.4437922" />
      <trkpt lat="46.0561779" lon="11.4433956" />
      <trkpt lat="46.0561764" lon="11.4430576" />
      <trkpt lat="46.0561773" lon="11.4429611" />
      <trkpt lat="46.0562165" lon="11.4424916" />
      <trkpt lat="46.0562173" lon="11.4413151" />
      <trkpt lat="46.0562640" lon="11.4404150" />
      <trkpt lat="46.0562761" lon="11.4402746" />
      <trkpt lat="46.0562503" lon="11.4402904" />
      <trkpt lat="46.0561233" lon="11.4402952" />
      <trkpt lat="46.0557573" lon="11.4403601" />
      <trkpt lat="46.0538437" lon="11.4408986" />
      <trkpt lat="46.0534757" lon="11.4410022" />
      <trkpt lat="46.0533481" lon="11.4413401" />
      <trkpt lat="46.0532147" lon="11.4416933" />
      <trkpt lat="46.0531536" lon="11.4418551" />
      <trkpt lat="46.0531041" lon="11.4419862" />
      <trkpt lat="46.0530967" lon="11.4420557" />
      <trkpt lat="46.0531196" lon="11.4421994" />
      <trkpt lat="46.0533154" lon="11.4429724" />
      <trkpt lat="46.0534486" lon="11.4434202" />
      <trkpt lat="46.0536225" lon="11.4440047" />
      <trkpt lat="46.0536982" lon="11.4442591" />
      <trkpt lat="46.0538064" lon="11.4446615" />
      <trkpt lat="46.0538405" lon="11.4449307" />
      <trkpt lat="46.0538382" lon="11.4449855" />
      <trkpt lat="46.0538086" lon="11.4457036" />
      <trkpt lat="46.0538222" lon="11.4459727" />
      <trkpt lat="46.0538435" lon="11.4460863" />
      <trkpt lat="46.0538612" lon="11.4461805" />
      <trkpt lat="46.0539501" lon="11.4466534" />
      <trkpt lat="46.0539771" lon="11.4468137" />
      <trkpt lat="46.0540594" lon="11.4473024" />
      <trkpt lat="46.0541263" lon="11.4477248" />
      <trkpt lat="46.0541711" lon="11.4480081" />
      <trkpt lat="46.0542330" lon="11.4483994" />
      <trkpt lat="46.0542768" lon="11.4486759" />
      <trkpt lat="46.0542825" lon="11.4487092" />
      <trkpt lat="46.0543700" lon="11.4492227" />
    </trkseg>
  </trk>
</gpx>
