<?xml version="1.0" encoding="UTF-8"?>
<gpx xmlns="http://www.topografix.com/GPX/1/1" version="1.1" creator="ShapeRoute route-engine">
  <metadata>
    <name>bird 15 km · 2026-09-25</name>
    <author>
      <name>ShapeRoute route-engine</name>
    </author>
    <copyright author="OpenStreetMap contributors">
      <license>https://opendatacommons.org/licenses/odbl/1-0/</license>
    </copyright>
    <link href="https://www.openstreetmap.org/copyright">
      <text>© OpenStreetMap contributors</text>
    </link>
    <time>2026-09-25T12:01:56Z</time>
  </metadata>
  <trk>
    <name>bird 15 km · 2026-09-25</name>
    <trkseg>
      <trkpt lat="46.0123552" lon="11.2985082" />
      <trkpt lat="46.0122424" lon="11.2983394" />
      <trkpt lat="46.0122499" lon="11.2982214" />
      <trkpt lat="46.0122052" lon="11.2981248" />
      <trkpt lat="46.0120860" lon="11.2982428" />
      <trkpt lat="46.0118824" lon="11.2985225" />
      <trkpt lat="46.0115130" lon="11.2989377" />
      <trkpt lat="46.0114073" lon="11.2988065" />
      <trkpt lat="46.0113012" lon="11.2986379" />
      <trkpt lat="46.0111941" lon="11.2984770" />
      <trkpt lat="46.0115587" lon="11.2979934" />
      <trkpt lat="46.0115764" lon="11.2979707" />
      <trkpt lat="46.0116123" lon="11.2977853" />
      <trkpt lat="46.0112181" lon="11.2971112" />
      <trkpt lat="46.0111443" lon="11.2971898" />
      <trkpt lat="46.0109630" lon="11.2974406" />
      <trkpt lat="46.0107801" lon="11.2977017" />
      <trkpt lat="46.0106159" lon="11.2979879" />
      <trkpt lat="46.0105560" lon="11.2981004" />
      <trkpt lat="46.0104499" lon="11.2983154" />
      <trkpt lat="46.0103691" lon="11.2984793" />
      <trkpt lat="46.0102995" lon="11.2985799" />
      <trkpt lat="46.0102920" lon="11.2985647" />
      <trkpt lat="46.0102681" lon="11.2985392" />
      <trkpt lat="46.0102399" lon="11.2985256" />
      <trkpt lat="46.0102101" lon="11.2985252" />
      <trkpt lat="46.0101817" lon="11.2985380" />
      <trkpt lat="46.0101575" lon="11.2985629" />
      <trkpt lat="46.0100762" lon="11.2985089" />
      <trkpt lat="46.0100365" lon="11.2984927" />
      <trkpt lat="46.0099647" lon="11.2984635" />
      <trkpt lat="46.0099589" lon="11.2984611" />
      <trkpt lat="46.0098825" lon="11.2984367" />
      <trkpt lat="46.0096438" lon="11.2983759" />
      <trkpt lat="46.0095394" lon="11.2983507" />
      <trkpt lat="46.0094346" lon="11.2983049" />
      <trkpt lat="46.0092880" lon="11.2981822" />
      <trkpt lat="46.0092317" lon="11.2981169" />
      <trkpt lat="46.0091656" lon="11.2980281" />
      <trkpt lat="46.0091039" lon="11.2979094" />
      <trkpt lat="46.0090480" lon="11.2977699" />
      <trkpt lat="46.0089850" lon="11.2975267" />
      <trkpt lat="46.0088589" lon="11.2970393" />
      <trkpt lat="46.0087115" lon="11.2964700" />
      <trkpt lat="46.0086007" lon="11.2960421" />
      <trkpt lat="46.0085345" lon="11.2957863" />
      <trkpt lat="46.0085087" lon="11.2956866" />
      <trkpt lat="46.0084033" lon="11.2952909" />
      <trkpt lat="46.0083832" lon="11.2952157" />
      <trkpt lat="46.0082944" lon="11.2949620" />
      <trkpt lat="46.0082324" lon="11.2947849" />
      <trkpt lat="46.0079673" lon="11.2940833" />
      <trkpt lat="46.0078100" lon="11.2937086" />
      <trkpt lat="46.0075917" lon="11.2932997" />
      <trkpt lat="46.0075779" lon="11.2932774" />
      <trkpt lat="46.0075285" lon="11.2931979" />
      <trkpt lat="46.0074960" lon="11.2932546" />
      <trkpt lat="46.0074320" lon="11.2931812" />
      <trkpt lat="46.0073492" lon="11.2931457" />
      <trkpt lat="46.0067516" lon="11.2939729" />
      <trkpt lat="46.0066847" lon="11.2940783" />
      <trkpt lat="46.0067697" lon="11.2942843" />
      <trkpt lat="46.0068413" lon="11.2945418" />
      <trkpt lat="46.0069026" lon="11.2948136" />
      <trkpt lat="46.0069250" lon="11.2950282" />
      <trkpt lat="46.0069287" lon="11.2951462" />
      <trkpt lat="46.0069250" lon="11.2950282" />
      <trkpt lat="46.0069026" lon="11.2948136" />
      <trkpt lat="46.0068413" lon="11.2945418" />
      <trkpt lat="46.0067697" lon="11.2942843" />
      <trkpt lat="46.0066847" lon="11.2940783" />
      <trkpt lat="46.0067516" lon="11.2939729" />
      <trkpt lat="46.0073492" lon="11.2931457" />
      <trkpt lat="46.0073728" lon="11.2930947" />
      <trkpt lat="46.0074144" lon="11.2931202" />
      <trkpt lat="46.0074595" lon="11.2931252" />
      <trkpt lat="46.0075033" lon="11.2931094" />
      <trkpt lat="46.0075365" lon="11.2930804" />
      <trkpt lat="46.0075628" lon="11.2930394" />
      <trkpt lat="46.0075804" lon="11.2929896" />
      <trkpt lat="46.0076801" lon="11.2930443" />
      <trkpt lat="46.0078961" lon="11.2931425" />
      <trkpt lat="46.0081086" lon="11.2932391" />
      <trkpt lat="46.0082721" lon="11.2933149" />
      <trkpt lat="46.0084383" lon="11.2934159" />
      <trkpt lat="46.0086200" lon="11.2935258" />
      <trkpt lat="46.0086759" lon="11.2935596" />
      <trkpt lat="46.0088694" lon="11.2936467" />
      <trkpt lat="46.0089680" lon="11.2936565" />
      <trkpt lat="46.0090661" lon="11.2936744" />
      <trkpt lat="46.0098088" lon="11.2938097" />
      <trkpt lat="46.0102700" lon="11.2938982" />
      <trkpt lat="46.0104720" lon="11.2939495" />
      <trkpt lat="46.0106885" lon="11.2940373" />
      <trkpt lat="46.0107151" lon="11.2940549" />
      <trkpt lat="46.0107529" lon="11.2940801" />
      <trkpt lat="46.0108907" lon="11.2941611" />
      <trkpt lat="46.0111727" lon="11.2943826" />
      <trkpt lat="46.0112310" lon="11.2944284" />
      <trkpt lat="46.0116754" lon="11.2952125" />
      <trkpt lat="46.0117011" lon="11.2951731" />
      <trkpt lat="46.0117049" lon="11.2951673" />
      <trkpt lat="46.0117646" lon="11.2950807" />
      <trkpt lat="46.0118000" lon="11.2950276" />
      <trkpt lat="46.0117646" lon="11.2949525" />
      <trkpt lat="46.0116660" lon="11.2947435" />
      <trkpt lat="46.0115468" lon="11.2945461" />
      <trkpt lat="46.0115051" lon="11.2944431" />
      <trkpt lat="46.0114753" lon="11.2942715" />
      <trkpt lat="46.0115349" lon="11.2938251" />
      <trkpt lat="46.0115528" lon="11.2936792" />
      <trkpt lat="46.0115647" lon="11.2930441" />
      <trkpt lat="46.0115994" lon="11.2925910" />
      <trkpt lat="46.0116482" lon="11.2919540" />
      <trkpt lat="46.0117435" lon="11.2911472" />
      <trkpt lat="46.0118615" lon="11.2905121" />
      <trkpt lat="46.0119071" lon="11.2901018" />
      <trkpt lat="46.0119333" lon="11.2898959" />
      <trkpt lat="46.0119559" lon="11.2897268" />
      <trkpt lat="46.0119891" lon="11.2895508" />
      <trkpt lat="46.0120090" lon="11.2894359" />
      <trkpt lat="46.0120118" lon="11.2893791" />
      <trkpt lat="46.0120193" lon="11.2893392" />
      <trkpt lat="46.0120153" lon="11.2892938" />
      <trkpt lat="46.0120120" lon="11.2892244" />
      <trkpt lat="46.0119694" lon="11.2892404" />
      <trkpt lat="46.0119076" lon="11.2892653" />
      <trkpt lat="46.0116967" lon="11.2893124" />
      <trkpt lat="46.0105457" lon="11.2895609" />
      <trkpt lat="46.0105075" lon="11.2895672" />
      <trkpt lat="46.0104819" lon="11.2895643" />
      <trkpt lat="46.0104601" lon="11.2895497" />
      <trkpt lat="46.0104490" lon="11.2895231" />
      <trkpt lat="46.0104484" lon="11.2894042" />
      <trkpt lat="46.0103878" lon="11.2894056" />
      <trkpt lat="46.0103400" lon="11.2894066" />
      <trkpt lat="46.0103406" lon="11.2895290" />
      <trkpt lat="46.0103313" lon="11.2895635" />
      <trkpt lat="46.0103119" lon="11.2895981" />
      <trkpt lat="46.0102610" lon="11.2896391" />
      <trkpt lat="46.0101365" lon="11.2897062" />
      <trkpt lat="46.0099107" lon="11.2898286" />
      <trkpt lat="46.0097829" lon="11.2898964" />
      <trkpt lat="46.0097531" lon="11.2899109" />
      <trkpt lat="46.0096914" lon="11.2899409" />
      <trkpt lat="46.0094460" lon="11.2900661" />
      <trkpt lat="46.0093986" lon="11.2899309" />
      <trkpt lat="46.0093958" lon="11.2899229" />
      <trkpt lat="46.0090416" lon="11.2889431" />
      <trkpt lat="46.0088389" lon="11.2883637" />
      <trkpt lat="46.0088342" lon="11.2881141" />
      <trkpt lat="46.0088116" lon="11.2879678" />
      <trkpt lat="46.0087744" lon="11.2878722" />
      <trkpt lat="46.0086914" lon="11.2878024" />
      <trkpt lat="46.0086680" lon="11.2877792" />
      <trkpt lat="46.0086383" lon="11.2877703" />
      <trkpt lat="46.0085887" lon="11.2877427" />
      <trkpt lat="46.0085013" lon="11.2876968" />
      <trkpt lat="46.0084543" lon="11.2877742" />
      <trkpt lat="46.0067109" lon="11.2906711" />
      <trkpt lat="46.0066948" lon="11.2906504" />
      <trkpt lat="46.0066517" lon="11.2905954" />
      <trkpt lat="46.0065443" lon="11.2904935" />
      <trkpt lat="46.0063692" lon="11.2903953" />
      <trkpt lat="46.0061755" lon="11.2902346" />
      <trkpt lat="46.0060181" lon="11.2900874" />
      <trkpt lat="46.0058293" lon="11.2899363" />
      <trkpt lat="46.0057476" lon="11.2899830" />
      <trkpt lat="46.0057102" lon="11.2903954" />
      <trkpt lat="46.0056833" lon="11.2907267" />
      <trkpt lat="46.0056710" lon="11.2908528" />
      <trkpt lat="46.0056664" lon="11.2908929" />
      <trkpt lat="46.0056287" lon="11.2909373" />
      <trkpt lat="46.0053990" lon="11.2906638" />
      <trkpt lat="46.0051229" lon="11.2903376" />
      <trkpt lat="46.0047858" lon="11.2899393" />
      <trkpt lat="46.0045284" lon="11.2896353" />
      <trkpt lat="46.0041342" lon="11.2891696" />
      <trkpt lat="46.0041204" lon="11.2891534" />
      <trkpt lat="46.0040061" lon="11.2890183" />
      <trkpt lat="46.0039244" lon="11.2889256" />
      <trkpt lat="46.0039147" lon="11.2889133" />
      <trkpt lat="46.0039589" lon="11.2888223" />
      <trkpt lat="46.0040149" lon="11.2887105" />
      <trkpt lat="46.0040586" lon="11.2887284" />
      <trkpt lat="46.0042093" lon="11.2889147" />
      <trkpt lat="46.0042296" lon="11.2889397" />
      <trkpt lat="46.0042596" lon="11.2888915" />
      <trkpt lat="46.0044612" lon="11.2885519" />
      <trkpt lat="46.0043784" lon="11.2884364" />
      <trkpt lat="46.0044746" lon="11.2882791" />
      <trkpt lat="46.0050958" lon="11.2873389" />
      <trkpt lat="46.0052029" lon="11.2871711" />
      <trkpt lat="46.0050760" lon="11.2868197" />
      <trkpt lat="46.0049979" lon="11.2863394" />
      <trkpt lat="46.0050192" lon="11.2859102" />
      <trkpt lat="46.0049934" lon="11.2856460" />
      <trkpt lat="46.0049591" lon="11.2854546" />
      <trkpt lat="46.0050567" lon="11.2853509" />
      <trkpt lat="46.0052009" lon="11.2852077" />
      <trkpt lat="46.0057821" lon="11.2849801" />
      <trkpt lat="46.0059721" lon="11.2849308" />
      <trkpt lat="46.0060089" lon="11.2849039" />
      <trkpt lat="46.0060791" lon="11.2845651" />
      <trkpt lat="46.0061883" lon="11.2841360" />
      <trkpt lat="46.0062306" lon="11.2838999" />
      <trkpt lat="46.0062551" lon="11.2836161" />
      <trkpt lat="46.0062737" lon="11.2833720" />
      <trkpt lat="46.0062849" lon="11.2831011" />
      <trkpt lat="46.0062905" lon="11.2828007" />
      <trkpt lat="46.0062878" lon="11.2825911" />
      <trkpt lat="46.0062965" lon="11.2823360" />
      <trkpt lat="46.0063325" lon="11.2822117" />
      <trkpt lat="46.0063865" lon="11.2820400" />
      <trkpt lat="46.0064173" lon="11.2822292" />
      <trkpt lat="46.0064120" lon="11.2823573" />
      <trkpt lat="46.0065193" lon="11.2825268" />
      <trkpt lat="46.0065272" lon="11.2826662" />
      <trkpt lat="46.0064670" lon="11.2827717" />
      <trkpt lat="46.0065612" lon="11.2831597" />
      <trkpt lat="46.0065376" lon="11.2834046" />
      <trkpt lat="46.0063440" lon="11.2835741" />
      <trkpt lat="46.0063466" lon="11.2834950" />
      <trkpt lat="46.0062551" lon="11.2836161" />
      <trkpt lat="46.0062306" lon="11.2838999" />
      <trkpt lat="46.0061883" lon="11.2841360" />
      <trkpt lat="46.0060791" lon="11.2845651" />
      <trkpt lat="46.0060089" lon="11.2849039" />
      <trkpt lat="46.0059721" lon="11.2849308" />
      <trkpt lat="46.0062180" lon="11.2838113" />
      <trkpt lat="46.0062572" lon="11.2830732" />
      <trkpt lat="46.0062530" lon="11.2826210" />
      <trkpt lat="46.0062378" lon="11.2823980" />
      <trkpt lat="46.0061273" lon="11.2824079" />
      <trkpt lat="46.0060352" lon="11.2824938" />
      <trkpt lat="46.0059011" lon="11.2827835" />
      <trkpt lat="46.0058188" lon="11.2831220" />
      <trkpt lat="46.0057968" lon="11.2832126" />
      <trkpt lat="46.0057642" lon="11.2832787" />
      <trkpt lat="46.0057297" lon="11.2833092" />
      <trkpt lat="46.0056403" lon="11.2837383" />
      <trkpt lat="46.0056030" lon="11.2838993" />
      <trkpt lat="46.0055583" lon="11.2839315" />
      <trkpt lat="46.0055230" lon="11.2838559" />
      <trkpt lat="46.0055176" lon="11.2837513" />
      <trkpt lat="46.0054906" lon="11.2832967" />
      <trkpt lat="46.0054763" lon="11.2831482" />
      <trkpt lat="46.0054316" lon="11.2827084" />
      <trkpt lat="46.0053839" lon="11.2826550" />
      <trkpt lat="46.0053337" lon="11.2825619" />
      <trkpt lat="46.0053304" lon="11.2824696" />
      <trkpt lat="46.0054936" lon="11.2816637" />
      <trkpt lat="46.0058320" lon="11.2802823" />
      <trkpt lat="46.0059825" lon="11.2794733" />
      <trkpt lat="46.0061626" lon="11.2788646" />
      <trkpt lat="46.0062817" lon="11.2784164" />
      <trkpt lat="46.0062819" lon="11.2781809" />
      <trkpt lat="46.0061945" lon="11.2780580" />
      <trkpt lat="46.0061649" lon="11.2780867" />
      <trkpt lat="46.0061139" lon="11.2781491" />
      <trkpt lat="46.0060129" lon="11.2785885" />
      <trkpt lat="46.0058788" lon="11.2788460" />
      <trkpt lat="46.0056999" lon="11.2794361" />
      <trkpt lat="46.0055732" lon="11.2796936" />
      <trkpt lat="46.0053496" lon="11.2800691" />
      <trkpt lat="46.0052155" lon="11.2805090" />
      <trkpt lat="46.0050590" lon="11.2812600" />
      <trkpt lat="46.0049994" lon="11.2815711" />
      <trkpt lat="46.0048449" lon="11.2818736" />
      <trkpt lat="46.0047833" lon="11.2821076" />
      <trkpt lat="46.0046640" lon="11.2823221" />
      <trkpt lat="46.0045374" lon="11.2825367" />
      <trkpt lat="46.0044628" lon="11.2828049" />
      <trkpt lat="46.0045075" lon="11.2828693" />
      <trkpt lat="46.0045970" lon="11.2828693" />
      <trkpt lat="46.0047460" lon="11.2826333" />
      <trkpt lat="46.0048429" lon="11.2824723" />
      <trkpt lat="46.0049770" lon="11.2822363" />
      <trkpt lat="46.0050516" lon="11.2821076" />
      <trkpt lat="46.0050963" lon="11.2821183" />
      <trkpt lat="46.0051112" lon="11.2822041" />
      <trkpt lat="46.0050590" lon="11.2823114" />
      <trkpt lat="46.0050292" lon="11.2825367" />
      <trkpt lat="46.0050292" lon="11.2828478" />
      <trkpt lat="46.0050665" lon="11.2830517" />
      <trkpt lat="46.0051261" lon="11.2830839" />
      <trkpt lat="46.0051627" lon="11.2831360" />
      <trkpt lat="46.0051692" lon="11.2833117" />
      <trkpt lat="46.0052042" lon="11.2834311" />
      <trkpt lat="46.0052209" lon="11.2837422" />
      <trkpt lat="46.0051408" lon="11.2839702" />
      <trkpt lat="46.0050142" lon="11.2840855" />
      <trkpt lat="46.0049545" lon="11.2842143" />
      <trkpt lat="46.0047310" lon="11.2841124" />
      <trkpt lat="46.0044850" lon="11.2843296" />
      <trkpt lat="46.0044944" lon="11.2844047" />
      <trkpt lat="46.0044198" lon="11.2844128" />
      <trkpt lat="46.0042838" lon="11.2845254" />
      <trkpt lat="46.0040742" lon="11.2846005" />
      <trkpt lat="46.0040183" lon="11.2847306" />
      <trkpt lat="46.0039820" lon="11.2847816" />
      <trkpt lat="46.0039028" lon="11.2847776" />
      <trkpt lat="46.0037733" lon="11.2847802" />
      <trkpt lat="46.0035013" lon="11.2848406" />
      <trkpt lat="46.0033905" lon="11.2848822" />
      <trkpt lat="46.0033011" lon="11.2849653" />
      <trkpt lat="46.0032638" lon="11.2850538" />
      <trkpt lat="46.0032321" lon="11.2850417" />
      <trkpt lat="46.0030151" lon="11.2849640" />
      <trkpt lat="46.0030057" lon="11.2849908" />
      <trkpt lat="46.0030989" lon="11.2850713" />
      <trkpt lat="46.0032498" lon="11.2851034" />
      <trkpt lat="46.0032899" lon="11.2851396" />
      <trkpt lat="46.0033663" lon="11.2850458" />
      <trkpt lat="46.0034827" lon="11.2850350" />
      <trkpt lat="46.0035619" lon="11.2850458" />
      <trkpt lat="46.0035572" lon="11.2850887" />
      <trkpt lat="46.0034995" lon="11.2851504" />
      <trkpt lat="46.0034007" lon="11.2851785" />
      <trkpt lat="46.0033066" lon="11.2854213" />
      <trkpt lat="46.0032941" lon="11.2855889" />
      <trkpt lat="46.0033743" lon="11.2856782" />
      <trkpt lat="46.0034020" lon="11.2856932" />
      <trkpt lat="46.0034787" lon="11.2857578" />
      <trkpt lat="46.0030287" lon="11.2863759" />
      <trkpt lat="46.0029724" lon="11.2864804" />
      <trkpt lat="46.0029205" lon="11.2865508" />
      <trkpt lat="46.0028512" lon="11.2865966" />
      <trkpt lat="46.0028408" lon="11.2864729" />
      <trkpt lat="46.0028144" lon="11.2863524" />
      <trkpt lat="46.0027886" lon="11.2863086" />
      <trkpt lat="46.0027533" lon="11.2862724" />
      <trkpt lat="46.0026163" lon="11.2861758" />
      <trkpt lat="46.0025188" lon="11.2860773" />
      <trkpt lat="46.0025171" lon="11.2860748" />
      <trkpt lat="46.0024765" lon="11.2860162" />
      <trkpt lat="46.0024545" lon="11.2859589" />
      <trkpt lat="46.0024274" lon="11.2858452" />
      <trkpt lat="46.0024161" lon="11.2857447" />
      <trkpt lat="46.0024186" lon="11.2855622" />
      <trkpt lat="46.0024362" lon="11.2851892" />
      <trkpt lat="46.0024054" lon="11.2853395" />
      <trkpt lat="46.0023628" lon="11.2854497" />
      <trkpt lat="46.0023224" lon="11.2855105" />
      <trkpt lat="46.0022517" lon="11.2855678" />
      <trkpt lat="46.0021693" lon="11.2855566" />
      <trkpt lat="46.0021107" lon="11.2855113" />
      <trkpt lat="46.0020805" lon="11.2854898" />
      <trkpt lat="46.0017983" lon="11.2852731" />
      <trkpt lat="46.0016092" lon="11.2850496" />
      <trkpt lat="46.0014857" lon="11.2848666" />
      <trkpt lat="46.0012961" lon="11.2846210" />
      <trkpt lat="46.0011936" lon="11.2844980" />
      <trkpt lat="46.0010067" lon="11.2843028" />
      <trkpt lat="46.0006016" lon="11.2838996" />
      <trkpt lat="46.0003284" lon="11.2835117" />
      <trkpt lat="46.0002538" lon="11.2833887" />
      <trkpt lat="45.9998946" lon="11.2826533" />
      <trkpt lat="45.9994845" lon="11.2817793" />
      <trkpt lat="45.9998643" lon="11.2810420" />
      <trkpt lat="45.9999791" lon="11.2807880" />
      <trkpt lat="46.0002741" lon="11.2801357" />
      <trkpt lat="46.0005915" lon="11.2794810" />
      <trkpt lat="46.0009571" lon="11.2787955" />
      <trkpt lat="46.0011567" lon="11.2784526" />
      <trkpt lat="46.0012485" lon="11.2783469" />
      <trkpt lat="46.0012886" lon="11.2783328" />
      <trkpt lat="46.0013506" lon="11.2784661" />
      <trkpt lat="46.0015127" lon="11.2790135" />
      <trkpt lat="46.0017308" lon="11.2794697" />
      <trkpt lat="46.0017645" lon="11.2792269" />
      <trkpt lat="46.0019776" lon="11.2783747" />
      <trkpt lat="46.0018659" lon="11.2784739" />
      <trkpt lat="46.0015379" lon="11.2783880" />
      <trkpt lat="46.0013343" lon="11.2783376" />
      <trkpt lat="46.0012886" lon="11.2783328" />
      <trkpt lat="46.0012485" lon="11.2783469" />
      <trkpt lat="46.0011567" lon="11.2784526" />
      <trkpt lat="46.0009571" lon="11.2787955" />
      <trkpt lat="46.0005915" lon="11.2794810" />
      <trkpt lat="46.0002741" lon="11.2801357" />
      <trkpt lat="45.9999791" lon="11.2807880" />
      <trkpt lat="45.9998643" lon="11.2810420" />
      <trkpt lat="45.9994845" lon="11.2817793" />
      <trkpt lat="45.9998946" lon="11.2826533" />
      <trkpt lat="45.9999503" lon="11.2828479" />
      <trkpt lat="45.9999854" lon="11.2830300" />
      <trkpt lat="46.0001076" lon="11.2832762" />
      <trkpt lat="46.0001646" lon="11.2834157" />
      <trkpt lat="46.0001817" lon="11.2835085" />
      <trkpt lat="46.0002444" lon="11.2835519" />
      <trkpt lat="46.0003130" lon="11.2836381" />
      <trkpt lat="46.0005761" lon="11.2839605" />
      <trkpt lat="46.0008578" lon="11.2842943" />
      <trkpt lat="46.0010399" lon="11.2844282" />
      <trkpt lat="46.0012008" lon="11.2845737" />
      <trkpt lat="46.0013125" lon="11.2846957" />
      <trkpt lat="46.0014026" lon="11.2848292" />
      <trkpt lat="46.0015699" lon="11.2850882" />
      <trkpt lat="46.0016579" lon="11.2852919" />
      <trkpt lat="46.0018123" lon="11.2857369" />
      <trkpt lat="46.0019758" lon="11.2861403" />
      <trkpt lat="46.0020326" lon="11.2862374" />
      <trkpt lat="46.0021167" lon="11.2863883" />
      <trkpt lat="46.0023626" lon="11.2867956" />
      <trkpt lat="46.0024200" lon="11.2868856" />
      <trkpt lat="46.0025278" lon="11.2870547" />
      <trkpt lat="46.0025923" lon="11.2871559" />
      <trkpt lat="46.0026517" lon="11.2872577" />
      <trkpt lat="46.0026820" lon="11.2871995" />
      <trkpt lat="46.0026915" lon="11.2871509" />
      <trkpt lat="46.0027433" lon="11.2870145" />
      <trkpt lat="46.0028101" lon="11.2869222" />
      <trkpt lat="46.0028664" lon="11.2868840" />
      <trkpt lat="46.0028512" lon="11.2865966" />
      <trkpt lat="46.0028408" lon="11.2864729" />
      <trkpt lat="46.0028144" lon="11.2863524" />
      <trkpt lat="46.0027886" lon="11.2863086" />
      <trkpt lat="46.0027533" lon="11.2862724" />
      <trkpt lat="46.0026839" lon="11.2862547" />
      <trkpt lat="46.0026208" lon="11.2862507" />
      <trkpt lat="46.0025911" lon="11.2862631" />
      <trkpt lat="46.0025631" lon="11.2862891" />
      <trkpt lat="46.0025338" lon="11.2863258" />
      <trkpt lat="46.0025077" lon="11.2863738" />
      <trkpt lat="46.0024793" lon="11.2864324" />
      <trkpt lat="46.0024454" lon="11.2865168" />
      <trkpt lat="46.0024494" lon="11.2865472" />
      <trkpt lat="46.0025272" lon="11.2877438" />
      <trkpt lat="46.0026612" lon="11.2900427" />
      <trkpt lat="46.0026927" lon="11.2905357" />
      <trkpt lat="46.0025698" lon="11.2905404" />
      <trkpt lat="46.0024584" lon="11.2905436" />
      <trkpt lat="46.0023376" lon="11.2905707" />
      <trkpt lat="46.0022375" lon="11.2906018" />
      <trkpt lat="46.0021815" lon="11.2905977" />
      <trkpt lat="46.0021284" lon="11.2905551" />
      <trkpt lat="46.0020122" lon="11.2904220" />
      <trkpt lat="46.0018810" lon="11.2903018" />
      <trkpt lat="46.0017916" lon="11.2902589" />
      <trkpt lat="46.0016485" lon="11.2902246" />
      <trkpt lat="46.0014696" lon="11.2902074" />
      <trkpt lat="46.0012681" lon="11.2901163" />
      <trkpt lat="46.0012191" lon="11.2903203" />
      <trkpt lat="46.0011824" lon="11.2905292" />
      <trkpt lat="46.0012023" lon="11.2906923" />
      <trkpt lat="46.0012528" lon="11.2909122" />
      <trkpt lat="46.0015900" lon="11.2925134" />
      <trkpt lat="46.0016274" lon="11.2927862" />
      <trkpt lat="46.0016483" lon="11.2935385" />
      <trkpt lat="46.0016118" lon="11.2939992" />
      <trkpt lat="46.0016119" lon="11.2946434" />
      <trkpt lat="46.0017415" lon="11.2956094" />
      <trkpt lat="46.0019766" lon="11.2962260" />
      <trkpt lat="46.0023110" lon="11.2969239" />
      <trkpt lat="46.0022912" lon="11.2969370" />
      <trkpt lat="46.0021594" lon="11.2970500" />
      <trkpt lat="46.0021340" lon="11.2970697" />
      <trkpt lat="46.0021835" lon="11.2971978" />
      <trkpt lat="46.0022153" lon="11.2973432" />
      <trkpt lat="46.0022107" lon="11.2975201" />
      <trkpt lat="46.0021375" lon="11.2979777" />
      <trkpt lat="46.0021192" lon="11.2981525" />
      <trkpt lat="46.0021645" lon="11.2983059" />
      <trkpt lat="46.0022649" lon="11.2985541" />
      <trkpt lat="46.0023596" lon="11.2987631" />
      <trkpt lat="46.0024878" lon="11.2990538" />
      <trkpt lat="46.0025323" lon="11.2992139" />
      <trkpt lat="46.0025320" lon="11.2993243" />
      <trkpt lat="46.0024897" lon="11.2993804" />
      <trkpt lat="46.0021829" lon="11.2992950" />
      <trkpt lat="46.0021638" lon="11.2993121" />
      <trkpt lat="46.0021564" lon="11.2993399" />
      <trkpt lat="46.0021509" lon="11.2993686" />
      <trkpt lat="46.0023812" lon="11.2994341" />
      <trkpt lat="46.0026077" lon="11.2995343" />
      <trkpt lat="46.0027514" lon="11.2995743" />
      <trkpt lat="46.0027777" lon="11.2995822" />
      <trkpt lat="46.0028535" lon="11.2996748" />
      <trkpt lat="46.0029291" lon="11.2997920" />
      <trkpt lat="46.0029547" lon="11.2998372" />
      <trkpt lat="46.0029765" lon="11.2998932" />
      <trkpt lat="46.0029886" lon="11.2999384" />
      <trkpt lat="46.0029949" lon="11.2999621" />
      <trkpt lat="46.0030015" lon="11.3000399" />
      <trkpt lat="46.0030024" lon="11.3001284" />
      <trkpt lat="46.0030015" lon="11.3001995" />
      <trkpt lat="46.0029987" lon="11.3002813" />
      <trkpt lat="46.0030005" lon="11.3003584" />
      <trkpt lat="46.0030027" lon="11.3004305" />
      <trkpt lat="46.0030164" lon="11.3004992" />
      <trkpt lat="46.0030464" lon="11.3005706" />
      <trkpt lat="46.0030834" lon="11.3006186" />
      <trkpt lat="46.0031799" lon="11.3006919" />
      <trkpt lat="46.0032959" lon="11.3007514" />
      <trkpt lat="46.0034708" lon="11.3007999" />
      <trkpt lat="46.0035778" lon="11.3008712" />
      <trkpt lat="46.0036722" lon="11.3009297" />
      <trkpt lat="46.0037676" lon="11.3010327" />
      <trkpt lat="46.0038511" lon="11.3011872" />
      <trkpt lat="46.0039308" lon="11.3013760" />
      <trkpt lat="46.0039675" lon="11.3015677" />
      <trkpt lat="46.0039741" lon="11.3021259" />
      <trkpt lat="46.0040048" lon="11.3031704" />
      <trkpt lat="46.0039901" lon="11.3036123" />
      <trkpt lat="46.0039364" lon="11.3052022" />
      <trkpt lat="46.0034271" lon="11.3053307" />
      <trkpt lat="46.0031049" lon="11.3053543" />
      <trkpt lat="46.0030124" lon="11.3053495" />
      <trkpt lat="46.0028066" lon="11.3070843" />
      <trkpt lat="46.0025096" lon="11.3095835" />
      <trkpt lat="46.0024846" lon="11.3097717" />
      <trkpt lat="46.0024541" lon="11.3100390" />
      <trkpt lat="46.0024243" lon="11.3106066" />
      <trkpt lat="46.0024087" lon="11.3111519" />
      <trkpt lat="46.0024128" lon="11.3115394" />
      <trkpt lat="46.0024973" lon="11.3124922" />
      <trkpt lat="46.0025097" lon="11.3127173" />
      <trkpt lat="46.0025928" lon="11.3129411" />
      <trkpt lat="46.0026170" lon="11.3129238" />
      <trkpt lat="46.0026803" lon="11.3128825" />
      <trkpt lat="46.0028289" lon="11.3128639" />
      <trkpt lat="46.0028856" lon="11.3128644" />
      <trkpt lat="46.0029708" lon="11.3129107" />
      <trkpt lat="46.0030608" lon="11.3129879" />
      <trkpt lat="46.0031462" lon="11.3130941" />
      <trkpt lat="46.0033192" lon="11.3132714" />
      <trkpt lat="46.0034804" lon="11.3133638" />
      <trkpt lat="46.0037357" lon="11.3134778" />
      <trkpt lat="46.0039602" lon="11.3135800" />
      <trkpt lat="46.0041110" lon="11.3136194" />
      <trkpt lat="46.0042062" lon="11.3136159" />
      <trkpt lat="46.0042619" lon="11.3135953" />
      <trkpt lat="46.0043492" lon="11.3135406" />
      <trkpt lat="46.0043857" lon="11.3134749" />
      <trkpt lat="46.0044048" lon="11.3133789" />
      <trkpt lat="46.0044057" lon="11.3132226" />
      <trkpt lat="46.0043911" lon="11.3130321" />
      <trkpt lat="46.0044076" lon="11.3129112" />
      <trkpt lat="46.0044733" lon="11.3127509" />
      <trkpt lat="46.0045655" lon="11.3126182" />
      <trkpt lat="46.0046631" lon="11.3124960" />
      <trkpt lat="46.0047918" lon="11.3123922" />
      <trkpt lat="46.0050318" lon="11.3122477" />
      <trkpt lat="46.0051050" lon="11.3122164" />
      <trkpt lat="46.0052593" lon="11.3121900" />
      <trkpt lat="46.0055791" lon="11.3121928" />
      <trkpt lat="46.0057229" lon="11.3121785" />
      <trkpt lat="46.0058494" lon="11.3121548" />
      <trkpt lat="46.0061075" lon="11.3121017" />
      <trkpt lat="46.0061855" lon="11.3120538" />
      <trkpt lat="46.0064100" lon="11.3119264" />
      <trkpt lat="46.0065472" lon="11.3118406" />
      <trkpt lat="46.0067022" lon="11.3116689" />
      <trkpt lat="46.0070002" lon="11.3113771" />
      <trkpt lat="46.0071166" lon="11.3113219" />
      <trkpt lat="46.0073188" lon="11.3110197" />
      <trkpt lat="46.0074477" lon="11.3107708" />
      <trkpt lat="46.0074939" lon="11.3106559" />
      <trkpt lat="46.0075404" lon="11.3105696" />
      <trkpt lat="46.0076535" lon="11.3103595" />
      <trkpt lat="46.0078804" lon="11.3100389" />
      <trkpt lat="46.0080447" lon="11.3098215" />
      <trkpt lat="46.0080458" lon="11.3096974" />
      <trkpt lat="46.0080464" lon="11.3096269" />
      <trkpt lat="46.0080468" lon="11.3095756" />
      <trkpt lat="46.0082414" lon="11.3073453" />
      <trkpt lat="46.0083271" lon="11.3064780" />
      <trkpt lat="46.0082661" lon="11.3064320" />
      <trkpt lat="46.0079350" lon="11.3063275" />
      <trkpt lat="46.0076858" lon="11.3062259" />
      <trkpt lat="46.0073430" lon="11.3061002" />
      <trkpt lat="46.0070873" lon="11.3060015" />
      <trkpt lat="46.0066605" lon="11.3058280" />
      <trkpt lat="46.0070873" lon="11.3060015" />
      <trkpt lat="46.0073430" lon="11.3061002" />
      <trkpt lat="46.0074884" lon="11.3052053" />
      <trkpt lat="46.0077349" lon="11.3052484" />
      <trkpt lat="46.0077830" lon="11.3052568" />
      <trkpt lat="46.0084263" lon="11.3053692" />
      <trkpt lat="46.0085463" lon="11.3053902" />
      <trkpt lat="46.0090647" lon="11.3054807" />
      <trkpt lat="46.0091651" lon="11.3053743" />
      <trkpt lat="46.0092062" lon="11.3053093" />
      <trkpt lat="46.0092857" lon="11.3051897" />
      <trkpt lat="46.0094566" lon="11.3050861" />
      <trkpt lat="46.0095401" lon="11.3049402" />
      <trkpt lat="46.0096533" lon="11.3047943" />
      <trkpt lat="46.0097487" lon="11.3046398" />
      <trkpt lat="46.0098799" lon="11.3045025" />
      <trkpt lat="46.0099759" lon="11.3044174" />
      <trkpt lat="46.0100810" lon="11.3043519" />
      <trkpt lat="46.0101375" lon="11.3042450" />
      <trkpt lat="46.0101583" lon="11.3042096" />
      <trkpt lat="46.0105931" lon="11.3034706" />
      <trkpt lat="46.0106617" lon="11.3033547" />
      <trkpt lat="46.0107514" lon="11.3031831" />
      <trkpt lat="46.0110293" lon="11.3033696" />
      <trkpt lat="46.0110488" lon="11.3033779" />
      <trkpt lat="46.0112763" lon="11.3034178" />
      <trkpt lat="46.0113727" lon="11.3034152" />
      <trkpt lat="46.0115685" lon="11.3033874" />
      <trkpt lat="46.0116328" lon="11.3033272" />
      <trkpt lat="46.0117136" lon="11.3032249" />
      <trkpt lat="46.0117371" lon="11.3032074" />
      <trkpt lat="46.0118052" lon="11.3032175" />
      <trkpt lat="46.0119735" lon="11.3032791" />
      <trkpt lat="46.0119908" lon="11.3032882" />
      <trkpt lat="46.0120087" lon="11.3032976" />
      <trkpt lat="46.0120643" lon="11.3033270" />
      <trkpt lat="46.0122138" lon="11.3034024" />
      <trkpt lat="46.0123698" lon="11.3034913" />
      <trkpt lat="46.0124641" lon="11.3035155" />
      <trkpt lat="46.0125647" lon="11.3035184" />
      <trkpt lat="46.0127143" lon="11.3035197" />
      <trkpt lat="46.0127603" lon="11.3035217" />
      <trkpt lat="46.0127785" lon="11.3033938" />
      <trkpt lat="46.0128080" lon="11.3031323" />
      <trkpt lat="46.0128501" lon="11.3028052" />
      <trkpt lat="46.0129158" lon="11.3025677" />
      <trkpt lat="46.0130588" lon="11.3019822" />
      <trkpt lat="46.0131872" lon="11.3015350" />
      <trkpt lat="46.0134381" lon="11.3011068" />
      <trkpt lat="46.0136191" lon="11.3007836" />
      <trkpt lat="46.0139448" lon="11.3002023" />
      <trkpt lat="46.0137990" lon="11.3002881" />
      <trkpt lat="46.0137103" lon="11.3003368" />
      <trkpt lat="46.0136300" lon="11.3003277" />
      <trkpt lat="46.0135307" lon="11.3002820" />
      <trkpt lat="46.0133640" lon="11.3000599" />
      <trkpt lat="46.0131631" lon="11.2997923" />
      <trkpt lat="46.0130152" lon="11.2995155" />
      <trkpt lat="46.0129920" lon="11.2994181" />
      <trkpt lat="46.0131011" lon="11.2992585" />
      <trkpt lat="46.0129549" lon="11.2989829" />
      <trkpt lat="46.0128564" lon="11.2988935" />
      <trkpt lat="46.0127193" lon="11.2987950" />
      <trkpt lat="46.0127099" lon="11.2988315" />
      <trkpt lat="46.0123552" lon="11.2985082" />
    </trkseg>
  </trk>
</gpx>
