<?xml version="1.0" encoding="UTF-8"?>
<gpx xmlns="http://www.topografix.com/GPX/1/1" version="1.1" creator="ShapeRoute route-engine">
  <metadata>
    <name>sun 5 km · 2026-10-05</name>
    <author>
      <name>ShapeRoute route-engine</name>
    </author>
    <copyright author="OpenStreetMap contributors">
      <license>https://opendatacommons.org/licenses/odbl/1-0/</license>
    </copyright>
    <link href="https://www.openstreetmap.org/copyright">
      <text>© OpenStreetMap contributors</text>
    </link>
    <time>2026-10-05T11:12:45Z</time>
  </metadata>
  <trk>
    <name>sun 5 km · 2026-10-05</name>
    <trkseg>
      <trkpt lat="46.0123552" lon="11.2985082" />
      <trkpt lat="46.0125364" lon="11.2982718" />
      <trkpt lat="46.0127682" lon="11.2980215" />
      <trkpt lat="46.0128013" lon="11.2980024" />
      <trkpt lat="46.0128770" lon="11.2979586" />
      <trkpt lat="46.0129712" lon="11.2978899" />
      <trkpt lat="46.0130468" lon="11.2977714" />
      <trkpt lat="46.0131199" lon="11.2976603" />
      <trkpt lat="46.0131919" lon="11.2975460" />
      <trkpt lat="46.0131199" lon="11.2976603" />
      <trkpt lat="46.0130468" lon="11.2977714" />
      <trkpt lat="46.0129712" lon="11.2978899" />
      <trkpt lat="46.0128770" lon="11.2979586" />
      <trkpt lat="46.0128013" lon="11.2980024" />
      <trkpt lat="46.0127682" lon="11.2980215" />
      <trkpt lat="46.0125364" lon="11.2982718" />
      <trkpt lat="46.0123552" lon="11.2985082" />
      <trkpt lat="46.0127099" lon="11.2988315" />
      <trkpt lat="46.0126048" lon="11.2991203" />
      <trkpt lat="46.0124654" lon="11.2994100" />
      <trkpt lat="46.0123257" lon="11.2996448" />
      <trkpt lat="46.0124897" lon="11.2998568" />
      <trkpt lat="46.0123257" lon="11.2996448" />
      <trkpt lat="46.0124654" lon="11.2994100" />
      <trkpt lat="46.0126048" lon="11.2991203" />
      <trkpt lat="46.0127099" lon="11.2988315" />
      <trkpt lat="46.0127193" lon="11.2987950" />
      <trkpt lat="46.0128564" lon="11.2988935" />
      <trkpt lat="46.0129549" lon="11.2989829" />
      <trkpt lat="46.0131011" lon="11.2992585" />
      <trkpt lat="46.0129920" lon="11.2994181" />
      <trkpt lat="46.0130152" lon="11.2995155" />
      <trkpt lat="46.0131631" lon="11.2997923" />
      <trkpt lat="46.0133640" lon="11.3000599" />
      <trkpt lat="46.0135307" lon="11.3002820" />
      <trkpt lat="46.0133640" lon="11.3000599" />
      <trkpt lat="46.0131631" lon="11.2997923" />
      <trkpt lat="46.0130152" lon="11.2995155" />
      <trkpt lat="46.0129920" lon="11.2994181" />
      <trkpt lat="46.0131011" lon="11.2992585" />
      <trkpt lat="46.0129549" lon="11.2989829" />
      <trkpt lat="46.0128564" lon="11.2988935" />
      <trkpt lat="46.0127193" lon="11.2987950" />
      <trkpt lat="46.0127099" lon="11.2988315" />
      <trkpt lat="46.0126048" lon="11.2991203" />
      <trkpt lat="46.0124654" lon="11.2994100" />
      <trkpt lat="46.0123257" lon="11.2996448" />
      <trkpt lat="46.0124897" lon="11.2998568" />
      <trkpt lat="46.0123170" lon="11.3001389" />
      <trkpt lat="46.0122204" lon="11.3002805" />
      <trkpt lat="46.0121758" lon="11.3003503" />
      <trkpt lat="46.0119953" lon="11.3005993" />
      <trkpt lat="46.0119565" lon="11.3006223" />
      <trkpt lat="46.0118615" lon="11.3007597" />
      <trkpt lat="46.0118149" lon="11.3008633" />
      <trkpt lat="46.0118055" lon="11.3008842" />
      <trkpt lat="46.0118496" lon="11.3009037" />
      <trkpt lat="46.0119443" lon="11.3009640" />
      <trkpt lat="46.0120169" lon="11.3010306" />
      <trkpt lat="46.0119307" lon="11.3010390" />
      <trkpt lat="46.0119028" lon="11.3010497" />
      <trkpt lat="46.0118747" lon="11.3010806" />
      <trkpt lat="46.0118598" lon="11.3011056" />
      <trkpt lat="46.0118514" lon="11.3011197" />
      <trkpt lat="46.0118276" lon="11.3011804" />
      <trkpt lat="46.0117545" lon="11.3018306" />
      <trkpt lat="46.0117582" lon="11.3019265" />
      <trkpt lat="46.0117608" lon="11.3019922" />
      <trkpt lat="46.0117907" lon="11.3020555" />
      <trkpt lat="46.0118576" lon="11.3021269" />
      <trkpt lat="46.0119217" lon="11.3021360" />
      <trkpt lat="46.0120540" lon="11.3021616" />
      <trkpt lat="46.0120773" lon="11.3023760" />
      <trkpt lat="46.0121247" lon="11.3029547" />
      <trkpt lat="46.0121321" lon="11.3030905" />
      <trkpt lat="46.0121247" lon="11.3029547" />
      <trkpt lat="46.0120773" lon="11.3023760" />
      <trkpt lat="46.0120540" lon="11.3021616" />
      <trkpt lat="46.0119217" lon="11.3021360" />
      <trkpt lat="46.0118576" lon="11.3021269" />
      <trkpt lat="46.0117907" lon="11.3020555" />
      <trkpt lat="46.0117608" lon="11.3019922" />
      <trkpt lat="46.0117582" lon="11.3019265" />
      <trkpt lat="46.0117545" lon="11.3018306" />
      <trkpt lat="46.0115591" lon="11.3016887" />
      <trkpt lat="46.0115298" lon="11.3016640" />
      <trkpt lat="46.0115558" lon="11.3014758" />
      <trkpt lat="46.0115621" lon="11.3014064" />
      <trkpt lat="46.0115644" lon="11.3012354" />
      <trkpt lat="46.0115646" lon="11.3012218" />
      <trkpt lat="46.0115553" lon="11.3012171" />
      <trkpt lat="46.0115344" lon="11.3012095" />
      <trkpt lat="46.0115210" lon="11.3012072" />
      <trkpt lat="46.0114687" lon="11.3012092" />
      <trkpt lat="46.0113099" lon="11.3012318" />
      <trkpt lat="46.0111720" lon="11.3012657" />
      <trkpt lat="46.0111190" lon="11.3012644" />
      <trkpt lat="46.0110801" lon="11.3012839" />
      <trkpt lat="46.0108546" lon="11.3015794" />
      <trkpt lat="46.0107801" lon="11.3016796" />
      <trkpt lat="46.0107475" lon="11.3017254" />
      <trkpt lat="46.0104112" lon="11.3014153" />
      <trkpt lat="46.0102794" lon="11.3017012" />
      <trkpt lat="46.0102036" lon="11.3019969" />
      <trkpt lat="46.0101573" lon="11.3021876" />
      <trkpt lat="46.0101211" lon="11.3023020" />
      <trkpt lat="46.0100790" lon="11.3023999" />
      <trkpt lat="46.0099961" lon="11.3025243" />
      <trkpt lat="46.0099138" lon="11.3026079" />
      <trkpt lat="46.0099654" lon="11.3027323" />
      <trkpt lat="46.0100029" lon="11.3029118" />
      <trkpt lat="46.0100490" lon="11.3031043" />
      <trkpt lat="46.0100840" lon="11.3031553" />
      <trkpt lat="46.0101244" lon="11.3031866" />
      <trkpt lat="46.0103653" lon="11.3033064" />
      <trkpt lat="46.0104574" lon="11.3033467" />
      <trkpt lat="46.0105931" lon="11.3034706" />
      <trkpt lat="46.0104574" lon="11.3033467" />
      <trkpt lat="46.0103653" lon="11.3033064" />
      <trkpt lat="46.0101244" lon="11.3031866" />
      <trkpt lat="46.0100840" lon="11.3031553" />
      <trkpt lat="46.0100490" lon="11.3031043" />
      <trkpt lat="46.0100029" lon="11.3029118" />
      <trkpt lat="46.0099654" lon="11.3027323" />
      <trkpt lat="46.0099138" lon="11.3026079" />
      <trkpt lat="46.0099961" lon="11.3025243" />
      <trkpt lat="46.0100790" lon="11.3023999" />
      <trkpt lat="46.0101211" lon="11.3023020" />
      <trkpt lat="46.0101573" lon="11.3021876" />
      <trkpt lat="46.0102036" lon="11.3019969" />
      <trkpt lat="46.0102794" lon="11.3017012" />
      <trkpt lat="46.0104112" lon="11.3014153" />
      <trkpt lat="46.0107475" lon="11.3017254" />
      <trkpt lat="46.0104112" lon="11.3014153" />
      <trkpt lat="46.0101640" lon="11.3010780" />
      <trkpt lat="46.0100785" lon="11.3009629" />
      <trkpt lat="46.0100554" lon="11.3009318" />
      <trkpt lat="46.0099866" lon="11.3008330" />
      <trkpt lat="46.0099449" lon="11.3007687" />
      <trkpt lat="46.0099204" lon="11.3007309" />
      <trkpt lat="46.0099081" lon="11.3007120" />
      <trkpt lat="46.0097259" lon="11.3004099" />
      <trkpt lat="46.0096170" lon="11.3003095" />
      <trkpt lat="46.0095258" lon="11.3002254" />
      <trkpt lat="46.0092017" lon="11.3008885" />
      <trkpt lat="46.0090159" lon="11.3013822" />
      <trkpt lat="46.0088555" lon="11.3018813" />
      <trkpt lat="46.0087682" lon="11.3022782" />
      <trkpt lat="46.0087503" lon="11.3023826" />
      <trkpt lat="46.0085220" lon="11.3022333" />
      <trkpt lat="46.0082414" lon="11.3021044" />
      <trkpt lat="46.0085220" lon="11.3022333" />
      <trkpt lat="46.0087503" lon="11.3023826" />
      <trkpt lat="46.0087682" lon="11.3022782" />
      <trkpt lat="46.0088555" lon="11.3018813" />
      <trkpt lat="46.0090159" lon="11.3013822" />
      <trkpt lat="46.0092017" lon="11.3008885" />
      <trkpt lat="46.0095258" lon="11.3002254" />
      <trkpt lat="46.0096170" lon="11.3003095" />
      <trkpt lat="46.0097259" lon="11.3004099" />
      <trkpt lat="46.0096170" lon="11.3003095" />
      <trkpt lat="46.0095258" lon="11.3002254" />
      <trkpt lat="46.0092735" lon="11.3000264" />
      <trkpt lat="46.0096193" lon="11.2990766" />
      <trkpt lat="46.0093803" lon="11.2989948" />
      <trkpt lat="46.0091675" lon="11.2989813" />
      <trkpt lat="46.0090929" lon="11.2989837" />
      <trkpt lat="46.0090193" lon="11.2990345" />
      <trkpt lat="46.0088932" lon="11.2991920" />
      <trkpt lat="46.0087057" lon="11.2995460" />
      <trkpt lat="46.0086613" lon="11.2996130" />
      <trkpt lat="46.0083716" lon="11.2994631" />
      <trkpt lat="46.0082736" lon="11.2994124" />
      <trkpt lat="46.0083716" lon="11.2994631" />
      <trkpt lat="46.0086613" lon="11.2996130" />
      <trkpt lat="46.0087057" lon="11.2995460" />
      <trkpt lat="46.0088932" lon="11.2991920" />
      <trkpt lat="46.0090193" lon="11.2990345" />
      <trkpt lat="46.0090929" lon="11.2989837" />
      <trkpt lat="46.0091675" lon="11.2989813" />
      <trkpt lat="46.0093803" lon="11.2989948" />
      <trkpt lat="46.0096193" lon="11.2990766" />
      <trkpt lat="46.0100209" lon="11.2991942" />
      <trkpt lat="46.0100425" lon="11.2991474" />
      <trkpt lat="46.0100063" lon="11.2990362" />
      <trkpt lat="46.0099504" lon="11.2988854" />
      <trkpt lat="46.0099798" lon="11.2987761" />
      <trkpt lat="46.0100089" lon="11.2986673" />
      <trkpt lat="46.0100667" lon="11.2986271" />
      <trkpt lat="46.0100762" lon="11.2985089" />
      <trkpt lat="46.0101575" lon="11.2985629" />
      <trkpt lat="46.0101817" lon="11.2985380" />
      <trkpt lat="46.0102101" lon="11.2985252" />
      <trkpt lat="46.0102399" lon="11.2985256" />
      <trkpt lat="46.0102681" lon="11.2985392" />
      <trkpt lat="46.0102920" lon="11.2985647" />
      <trkpt lat="46.0102995" lon="11.2985799" />
      <trkpt lat="46.0103691" lon="11.2984793" />
      <trkpt lat="46.0104499" lon="11.2983154" />
      <trkpt lat="46.0105560" lon="11.2981004" />
      <trkpt lat="46.0106159" lon="11.2979879" />
      <trkpt lat="46.0105560" lon="11.2981004" />
      <trkpt lat="46.0104499" lon="11.2983154" />
      <trkpt lat="46.0103691" lon="11.2984793" />
      <trkpt lat="46.0102995" lon="11.2985799" />
      <trkpt lat="46.0102920" lon="11.2985647" />
      <trkpt lat="46.0102681" lon="11.2985392" />
      <trkpt lat="46.0102399" lon="11.2985256" />
      <trkpt lat="46.0102101" lon="11.2985252" />
      <trkpt lat="46.0102411" lon="11.2984343" />
      <trkpt lat="46.0102422" lon="11.2983790" />
      <trkpt lat="46.0101955" lon="11.2983987" />
      <trkpt lat="46.0101622" lon="11.2983686" />
      <trkpt lat="46.0101204" lon="11.2982296" />
      <trkpt lat="46.0100973" lon="11.2981290" />
      <trkpt lat="46.0100622" lon="11.2980408" />
      <trkpt lat="46.0099901" lon="11.2978608" />
      <trkpt lat="46.0096919" lon="11.2974025" />
      <trkpt lat="46.0095239" lon="11.2971002" />
      <trkpt lat="46.0093778" lon="11.2968502" />
      <trkpt lat="46.0092428" lon="11.2965144" />
      <trkpt lat="46.0093666" lon="11.2962829" />
      <trkpt lat="46.0093990" lon="11.2962716" />
      <trkpt lat="46.0096697" lon="11.2965853" />
      <trkpt lat="46.0093990" lon="11.2962716" />
      <trkpt lat="46.0093666" lon="11.2962829" />
      <trkpt lat="46.0092428" lon="11.2965144" />
      <trkpt lat="46.0093778" lon="11.2968502" />
      <trkpt lat="46.0095239" lon="11.2971002" />
      <trkpt lat="46.0096919" lon="11.2974025" />
      <trkpt lat="46.0099901" lon="11.2978608" />
      <trkpt lat="46.0100622" lon="11.2980408" />
      <trkpt lat="46.0100973" lon="11.2981290" />
      <trkpt lat="46.0101204" lon="11.2982296" />
      <trkpt lat="46.0101622" lon="11.2983686" />
      <trkpt lat="46.0101955" lon="11.2983987" />
      <trkpt lat="46.0102422" lon="11.2983790" />
      <trkpt lat="46.0102411" lon="11.2984343" />
      <trkpt lat="46.0102101" lon="11.2985252" />
      <trkpt lat="46.0102399" lon="11.2985256" />
      <trkpt lat="46.0102681" lon="11.2985392" />
      <trkpt lat="46.0102920" lon="11.2985647" />
      <trkpt lat="46.0102995" lon="11.2985799" />
      <trkpt lat="46.0103691" lon="11.2984793" />
      <trkpt lat="46.0104499" lon="11.2983154" />
      <trkpt lat="46.0105560" lon="11.2981004" />
      <trkpt lat="46.0106159" lon="11.2979879" />
      <trkpt lat="46.0107801" lon="11.2977017" />
      <trkpt lat="46.0109630" lon="11.2974406" />
      <trkpt lat="46.0111443" lon="11.2971898" />
      <trkpt lat="46.0112181" lon="11.2971112" />
      <trkpt lat="46.0116123" lon="11.2977853" />
      <trkpt lat="46.0112181" lon="11.2971112" />
      <trkpt lat="46.0112568" lon="11.2970649" />
      <trkpt lat="46.0111781" lon="11.2968399" />
      <trkpt lat="46.0112072" lon="11.2965500" />
      <trkpt lat="46.0113169" lon="11.2960001" />
      <trkpt lat="46.0114367" lon="11.2956134" />
      <trkpt lat="46.0115150" lon="11.2954806" />
      <trkpt lat="46.0114367" lon="11.2956134" />
      <trkpt lat="46.0113169" lon="11.2960001" />
      <trkpt lat="46.0112072" lon="11.2965500" />
      <trkpt lat="46.0111781" lon="11.2968399" />
      <trkpt lat="46.0112568" lon="11.2970649" />
      <trkpt lat="46.0112181" lon="11.2971112" />
      <trkpt lat="46.0116123" lon="11.2977853" />
      <trkpt lat="46.0115764" lon="11.2979707" />
      <trkpt lat="46.0115587" lon="11.2979934" />
      <trkpt lat="46.0116728" lon="11.2981556" />
      <trkpt lat="46.0118028" lon="11.2983483" />
      <trkpt lat="46.0118824" lon="11.2985225" />
      <trkpt lat="46.0120860" lon="11.2982428" />
      <trkpt lat="46.0122052" lon="11.2981248" />
      <trkpt lat="46.0122499" lon="11.2982214" />
      <trkpt lat="46.0122424" lon="11.2983394" />
      <trkpt lat="46.0123552" lon="11.2985082" />
    </trkseg>
  </trk>
</gpx>
