<?xml version="1.0" encoding="UTF-8"?>
<gpx xmlns="http://www.topografix.com/GPX/1/1" version="1.1" creator="ShapeRoute route-engine">
  <metadata>
    <name>ghost 10 km · 2026-10-03</name>
    <author>
      <name>ShapeRoute route-engine</name>
    </author>
    <copyright author="OpenStreetMap contributors">
      <license>https://opendatacommons.org/licenses/odbl/1-0/</license>
    </copyright>
    <link href="https://www.openstreetmap.org/copyright">
      <text>© OpenStreetMap contributors</text>
    </link>
    <time>2026-10-03T20:06:30Z</time>
  </metadata>
  <wpt lat="45.4620294" lon="9.1899261">
    <name>Pause</name>
  </wpt>
  <wpt lat="45.4610838" lon="9.1933578">
    <name>Resume</name>
  </wpt>
  <wpt lat="45.4610838" lon="9.1933578">
    <name>Pause</name>
  </wpt>
  <wpt lat="45.4606306" lon="9.2001959">
    <name>Resume</name>
  </wpt>
  <trk>
    <name>ghost 10 km · 2026-10-03</name>
    <trkseg>
      <trkpt lat="45.4620294" lon="9.1899261" />
      <trkpt lat="45.4620277" lon="9.1902253" />
      <trkpt lat="45.4620304" lon="9.1902546" />
      <trkpt lat="45.4620543" lon="9.1902751" />
      <trkpt lat="45.4622878" lon="9.1902681" />
      <trkpt lat="45.4624253" lon="9.1902656" />
      <trkpt lat="45.4625824" lon="9.1902560" />
      <trkpt lat="45.4626563" lon="9.1902528" />
      <trkpt lat="45.4626563" lon="9.1903273" />
      <trkpt lat="45.4626562" lon="9.1903478" />
      <trkpt lat="45.4626564" lon="9.1903613" />
      <trkpt lat="45.4626739" lon="9.1903608" />
      <trkpt lat="45.4627072" lon="9.1903611" />
      <trkpt lat="45.4627535" lon="9.1903615" />
      <trkpt lat="45.4627651" lon="9.1903616" />
      <trkpt lat="45.4627677" lon="9.1901082" />
      <trkpt lat="45.4627727" lon="9.1901079" />
      <trkpt lat="45.4627987" lon="9.1901081" />
      <trkpt lat="45.4632407" lon="9.1901151" />
      <trkpt lat="45.4632737" lon="9.1901156" />
      <trkpt lat="45.4635610" lon="9.1901107" />
      <trkpt lat="45.4635770" lon="9.1901104" />
      <trkpt lat="45.4635767" lon="9.1901213" />
      <trkpt lat="45.4635766" lon="9.1901391" />
      <trkpt lat="45.4635759" lon="9.1902779" />
      <trkpt lat="45.4635823" lon="9.1904952" />
      <trkpt lat="45.4636431" lon="9.1904942" />
      <trkpt lat="45.4636294" lon="9.1913797" />
      <trkpt lat="45.4636517" lon="9.1915334" />
      <trkpt lat="45.4636512" lon="9.1920723" />
      <trkpt lat="45.4636519" lon="9.1921174" />
      <trkpt lat="45.4636995" lon="9.1921135" />
      <trkpt lat="45.4637018" lon="9.1926368" />
      <trkpt lat="45.4637264" lon="9.1927530" />
      <trkpt lat="45.4638518" lon="9.1927544" />
      <trkpt lat="45.4645357" lon="9.1927628" />
      <trkpt lat="45.4646721" lon="9.1927654" />
      <trkpt lat="45.4647161" lon="9.1929137" />
      <trkpt lat="45.4648346" lon="9.1933799" />
      <trkpt lat="45.4648401" lon="9.1934008" />
      <trkpt lat="45.4648615" lon="9.1934817" />
      <trkpt lat="45.4650079" lon="9.1940222" />
      <trkpt lat="45.4650350" lon="9.1941188" />
      <trkpt lat="45.4651569" lon="9.1945855" />
      <trkpt lat="45.4652417" lon="9.1945736" />
      <trkpt lat="45.4652558" lon="9.1945679" />
      <trkpt lat="45.4652619" lon="9.1945904" />
      <trkpt lat="45.4653869" lon="9.1950504" />
      <trkpt lat="45.4653938" lon="9.1950756" />
      <trkpt lat="45.4653971" lon="9.1950875" />
      <trkpt lat="45.4654498" lon="9.1952771" />
      <trkpt lat="45.4654753" lon="9.1953702" />
      <trkpt lat="45.4655506" lon="9.1956422" />
      <trkpt lat="45.4655735" lon="9.1957261" />
      <trkpt lat="45.4655778" lon="9.1957399" />
      <trkpt lat="45.4655816" lon="9.1957520" />
      <trkpt lat="45.4655963" lon="9.1957993" />
      <trkpt lat="45.4656137" lon="9.1958520" />
      <trkpt lat="45.4656156" lon="9.1958570" />
      <trkpt lat="45.4656261" lon="9.1958855" />
      <trkpt lat="45.4656532" lon="9.1959587" />
      <trkpt lat="45.4657775" lon="9.1962998" />
      <trkpt lat="45.4657879" lon="9.1963252" />
      <trkpt lat="45.4658468" lon="9.1964763" />
      <trkpt lat="45.4659192" lon="9.1966617" />
      <trkpt lat="45.4659230" lon="9.1966683" />
      <trkpt lat="45.4659561" lon="9.1967546" />
      <trkpt lat="45.4660601" lon="9.1970153" />
      <trkpt lat="45.4660689" lon="9.1970354" />
      <trkpt lat="45.4660796" lon="9.1970535" />
      <trkpt lat="45.4660908" lon="9.1970673" />
      <trkpt lat="45.4661050" lon="9.1970826" />
      <trkpt lat="45.4661229" lon="9.1970971" />
      <trkpt lat="45.4661351" lon="9.1971037" />
      <trkpt lat="45.4661404" lon="9.1971241" />
      <trkpt lat="45.4661485" lon="9.1971557" />
      <trkpt lat="45.4661565" lon="9.1971866" />
      <trkpt lat="45.4661694" lon="9.1971874" />
      <trkpt lat="45.4661691" lon="9.1972280" />
      <trkpt lat="45.4661887" lon="9.1972385" />
      <trkpt lat="45.4662469" lon="9.1972428" />
      <trkpt lat="45.4662561" lon="9.1972435" />
      <trkpt lat="45.4662770" lon="9.1972452" />
      <trkpt lat="45.4665043" lon="9.1972639" />
      <trkpt lat="45.4665018" lon="9.1973077" />
      <trkpt lat="45.4664876" lon="9.1975515" />
      <trkpt lat="45.4664724" lon="9.1978047" />
      <trkpt lat="45.4663035" lon="9.1977866" />
      <trkpt lat="45.4662606" lon="9.1978259" />
      <trkpt lat="45.4662367" lon="9.1978402" />
      <trkpt lat="45.4662205" lon="9.1978499" />
      <trkpt lat="45.4662041" lon="9.1978490" />
      <trkpt lat="45.4661476" lon="9.1978467" />
      <trkpt lat="45.4661369" lon="9.1978461" />
      <trkpt lat="45.4661361" lon="9.1978725" />
      <trkpt lat="45.4661347" lon="9.1978982" />
      <trkpt lat="45.4661330" lon="9.1979253" />
      <trkpt lat="45.4659702" lon="9.1979080" />
      <trkpt lat="45.4659690" lon="9.1979493" />
      <trkpt lat="45.4659454" lon="9.1985473" />
      <trkpt lat="45.4659433" lon="9.1985900" />
      <trkpt lat="45.4659418" lon="9.1986493" />
      <trkpt lat="45.4659169" lon="9.1991893" />
      <trkpt lat="45.4659138" lon="9.1992108" />
      <trkpt lat="45.4659121" lon="9.1992421" />
      <trkpt lat="45.4659093" lon="9.1992913" />
      <trkpt lat="45.4659074" lon="9.1993256" />
      <trkpt lat="45.4659051" lon="9.1993679" />
      <trkpt lat="45.4658847" lon="9.1993983" />
      <trkpt lat="45.4658657" lon="9.2001187" />
      <trkpt lat="45.4658670" lon="9.2001258" />
      <trkpt lat="45.4658684" lon="9.2001341" />
      <trkpt lat="45.4658686" lon="9.2001443" />
      <trkpt lat="45.4658689" lon="9.2001506" />
      <trkpt lat="45.4658645" lon="9.2003771" />
      <trkpt lat="45.4658808" lon="9.2003933" />
      <trkpt lat="45.4658848" lon="9.2004309" />
      <trkpt lat="45.4658911" lon="9.2004906" />
      <trkpt lat="45.4658979" lon="9.2005538" />
      <trkpt lat="45.4658986" lon="9.2005660" />
      <trkpt lat="45.4658881" lon="9.2006128" />
      <trkpt lat="45.4658721" lon="9.2006064" />
      <trkpt lat="45.4657987" lon="9.2005998" />
      <trkpt lat="45.4658462" lon="9.2009433" />
      <trkpt lat="45.4658588" lon="9.2010160" />
      <trkpt lat="45.4660159" lon="9.2018167" />
      <trkpt lat="45.4659429" lon="9.2018543" />
      <trkpt lat="45.4659043" lon="9.2018707" />
      <trkpt lat="45.4657432" lon="9.2019473" />
      <trkpt lat="45.4656942" lon="9.2019709" />
      <trkpt lat="45.4657156" lon="9.2020914" />
      <trkpt lat="45.4657221" lon="9.2021366" />
      <trkpt lat="45.4657400" lon="9.2022616" />
      <trkpt lat="45.4657546" lon="9.2023881" />
      <trkpt lat="45.4657749" lon="9.2024998" />
      <trkpt lat="45.4658102" lon="9.2026947" />
      <trkpt lat="45.4658182" lon="9.2027241" />
      <trkpt lat="45.4656078" lon="9.2028055" />
      <trkpt lat="45.4652019" lon="9.2029556" />
      <trkpt lat="45.4651797" lon="9.2029262" />
      <trkpt lat="45.4651704" lon="9.2029249" />
      <trkpt lat="45.4651445" lon="9.2029209" />
      <trkpt lat="45.4651184" lon="9.2029153" />
      <trkpt lat="45.4651159" lon="9.2029142" />
      <trkpt lat="45.4651018" lon="9.2029303" />
      <trkpt lat="45.4651039" lon="9.2029450" />
      <trkpt lat="45.4651121" lon="9.2030046" />
      <trkpt lat="45.4649925" lon="9.2030293" />
      <trkpt lat="45.4644098" lon="9.2031596" />
      <trkpt lat="45.4643812" lon="9.2031661" />
      <trkpt lat="45.4643852" lon="9.2032050" />
      <trkpt lat="45.4643861" lon="9.2032133" />
      <trkpt lat="45.4643669" lon="9.2032173" />
      <trkpt lat="45.4643379" lon="9.2032236" />
      <trkpt lat="45.4639875" lon="9.2033056" />
      <trkpt lat="45.4639620" lon="9.2033119" />
      <trkpt lat="45.4636080" lon="9.2034043" />
      <trkpt lat="45.4635996" lon="9.2034384" />
      <trkpt lat="45.4635834" lon="9.2034415" />
      <trkpt lat="45.4635636" lon="9.2034441" />
      <trkpt lat="45.4635527" lon="9.2034440" />
      <trkpt lat="45.4635389" lon="9.2034511" />
      <trkpt lat="45.4635454" lon="9.2035428" />
      <trkpt lat="45.4635298" lon="9.2035707" />
      <trkpt lat="45.4635300" lon="9.2035932" />
      <trkpt lat="45.4635349" lon="9.2036563" />
      <trkpt lat="45.4635360" lon="9.2036774" />
      <trkpt lat="45.4635401" lon="9.2037206" />
      <trkpt lat="45.4635649" lon="9.2037436" />
      <trkpt lat="45.4636320" lon="9.2044146" />
      <trkpt lat="45.4636328" lon="9.2044328" />
      <trkpt lat="45.4636340" lon="9.2044611" />
      <trkpt lat="45.4636360" lon="9.2045068" />
      <trkpt lat="45.4636354" lon="9.2045161" />
      <trkpt lat="45.4632266" lon="9.2045155" />
      <trkpt lat="45.4630774" lon="9.2045135" />
      <trkpt lat="45.4630596" lon="9.2045234" />
      <trkpt lat="45.4630770" lon="9.2049141" />
      <trkpt lat="45.4630877" lon="9.2051335" />
      <trkpt lat="45.4630672" lon="9.2051507" />
      <trkpt lat="45.4630540" lon="9.2051551" />
      <trkpt lat="45.4630378" lon="9.2051565" />
      <trkpt lat="45.4630123" lon="9.2051588" />
      <trkpt lat="45.4629817" lon="9.2052082" />
      <trkpt lat="45.4623923" lon="9.2052974" />
      <trkpt lat="45.4623956" lon="9.2045340" />
      <trkpt lat="45.4623947" lon="9.2045130" />
      <trkpt lat="45.4623952" lon="9.2044965" />
      <trkpt lat="45.4623945" lon="9.2044485" />
      <trkpt lat="45.4623938" lon="9.2044395" />
      <trkpt lat="45.4623934" lon="9.2043318" />
      <trkpt lat="45.4623789" lon="9.2043315" />
      <trkpt lat="45.4623533" lon="9.2043308" />
      <trkpt lat="45.4623470" lon="9.2043303" />
      <trkpt lat="45.4623256" lon="9.2043295" />
      <trkpt lat="45.4623109" lon="9.2043289" />
      <trkpt lat="45.4622956" lon="9.2043285" />
      <trkpt lat="45.4622836" lon="9.2043281" />
      <trkpt lat="45.4622666" lon="9.2043272" />
      <trkpt lat="45.4622476" lon="9.2043265" />
      <trkpt lat="45.4622454" lon="9.2043264" />
      <trkpt lat="45.4622208" lon="9.2043255" />
      <trkpt lat="45.4622029" lon="9.2043248" />
      <trkpt lat="45.4621911" lon="9.2048160" />
      <trkpt lat="45.4621627" lon="9.2048097" />
      <trkpt lat="45.4620529" lon="9.2047873" />
      <trkpt lat="45.4618059" lon="9.2047448" />
      <trkpt lat="45.4617514" lon="9.2047371" />
      <trkpt lat="45.4617129" lon="9.2047276" />
      <trkpt lat="45.4616683" lon="9.2047023" />
      <trkpt lat="45.4615031" lon="9.2053146" />
      <trkpt lat="45.4614716" lon="9.2052963" />
      <trkpt lat="45.4611533" lon="9.2064745" />
      <trkpt lat="45.4610342" lon="9.2064776" />
      <trkpt lat="45.4605364" lon="9.2052180" />
      <trkpt lat="45.4605347" lon="9.2052232" />
      <trkpt lat="45.4605082" lon="9.2053030" />
      <trkpt lat="45.4604523" lon="9.2052092" />
      <trkpt lat="45.4604293" lon="9.2051079" />
      <trkpt lat="45.4604067" lon="9.2050220" />
      <trkpt lat="45.4603772" lon="9.2049508" />
      <trkpt lat="45.4603431" lon="9.2049915" />
      <trkpt lat="45.4603278" lon="9.2049942" />
      <trkpt lat="45.4603455" lon="9.2051179" />
      <trkpt lat="45.4603390" lon="9.2051342" />
      <trkpt lat="45.4603025" lon="9.2051386" />
      <trkpt lat="45.4602741" lon="9.2051420" />
      <trkpt lat="45.4602506" lon="9.2051449" />
      <trkpt lat="45.4600264" lon="9.2051725" />
      <trkpt lat="45.4600172" lon="9.2050570" />
      <trkpt lat="45.4598767" lon="9.2050758" />
      <trkpt lat="45.4598531" lon="9.2050423" />
      <trkpt lat="45.4598362" lon="9.2048465" />
      <trkpt lat="45.4597530" lon="9.2048567" />
      <trkpt lat="45.4596725" lon="9.2048666" />
      <trkpt lat="45.4596801" lon="9.2050704" />
      <trkpt lat="45.4596631" lon="9.2051026" />
      <trkpt lat="45.4595230" lon="9.2051201" />
      <trkpt lat="45.4595312" lon="9.2052399" />
      <trkpt lat="45.4595399" lon="9.2053655" />
      <trkpt lat="45.4596782" lon="9.2053494" />
      <trkpt lat="45.4597008" lon="9.2053682" />
      <trkpt lat="45.4597167" lon="9.2055733" />
      <trkpt lat="45.4597989" lon="9.2055624" />
      <trkpt lat="45.4598879" lon="9.2055506" />
      <trkpt lat="45.4598795" lon="9.2053574" />
      <trkpt lat="45.4598964" lon="9.2053226" />
      <trkpt lat="45.4600285" lon="9.2053037" />
      <trkpt lat="45.4600264" lon="9.2051725" />
      <trkpt lat="45.4602506" lon="9.2051449" />
      <trkpt lat="45.4602741" lon="9.2051420" />
      <trkpt lat="45.4603025" lon="9.2051386" />
      <trkpt lat="45.4603390" lon="9.2051342" />
      <trkpt lat="45.4603455" lon="9.2051179" />
      <trkpt lat="45.4603523" lon="9.2052371" />
      <trkpt lat="45.4603324" lon="9.2053737" />
      <trkpt lat="45.4602680" lon="9.2055586" />
      <trkpt lat="45.4601959" lon="9.2057458" />
      <trkpt lat="45.4600267" lon="9.2062352" />
      <trkpt lat="45.4599590" lon="9.2062650" />
      <trkpt lat="45.4599499" lon="9.2062904" />
      <trkpt lat="45.4599288" lon="9.2063486" />
      <trkpt lat="45.4598519" lon="9.2062963" />
      <trkpt lat="45.4596316" lon="9.2061074" />
      <trkpt lat="45.4589214" lon="9.2054983" />
      <trkpt lat="45.4588725" lon="9.2056286" />
      <trkpt lat="45.4583295" lon="9.2051916" />
      <trkpt lat="45.4581456" lon="9.2050436" />
      <trkpt lat="45.4581197" lon="9.2050261" />
      <trkpt lat="45.4580669" lon="9.2049924" />
      <trkpt lat="45.4579729" lon="9.2049358" />
      <trkpt lat="45.4579670" lon="9.2049583" />
      <trkpt lat="45.4579519" lon="9.2050160" />
      <trkpt lat="45.4579424" lon="9.2050520" />
      <trkpt lat="45.4578285" lon="9.2054861" />
      <trkpt lat="45.4578227" lon="9.2055079" />
      <trkpt lat="45.4578150" lon="9.2055038" />
      <trkpt lat="45.4577936" lon="9.2054924" />
      <trkpt lat="45.4577878" lon="9.2055120" />
      <trkpt lat="45.4577820" lon="9.2055182" />
      <trkpt lat="45.4577751" lon="9.2055211" />
      <trkpt lat="45.4577679" lon="9.2055192" />
      <trkpt lat="45.4577583" lon="9.2055144" />
      <trkpt lat="45.4565434" lon="9.2048713" />
      <trkpt lat="45.4552201" lon="9.2041474" />
      <trkpt lat="45.4551952" lon="9.2041338" />
      <trkpt lat="45.4551804" lon="9.2041257" />
      <trkpt lat="45.4551043" lon="9.2040807" />
      <trkpt lat="45.4550919" lon="9.2040778" />
      <trkpt lat="45.4550833" lon="9.2040732" />
      <trkpt lat="45.4543755" lon="9.2036904" />
      <trkpt lat="45.4543667" lon="9.2036538" />
      <trkpt lat="45.4543595" lon="9.2036496" />
      <trkpt lat="45.4543407" lon="9.2036387" />
      <trkpt lat="45.4543172" lon="9.2036250" />
      <trkpt lat="45.4543080" lon="9.2036197" />
      <trkpt lat="45.4542893" lon="9.2036301" />
      <trkpt lat="45.4541475" lon="9.2035452" />
      <trkpt lat="45.4539344" lon="9.2034238" />
      <trkpt lat="45.4538831" lon="9.2033946" />
      <trkpt lat="45.4537186" lon="9.2032985" />
      <trkpt lat="45.4537025" lon="9.2032897" />
      <trkpt lat="45.4536853" lon="9.2032979" />
      <trkpt lat="45.4527181" lon="9.2027711" />
      <trkpt lat="45.4527157" lon="9.2027353" />
      <trkpt lat="45.4527074" lon="9.2027305" />
      <trkpt lat="45.4526859" lon="9.2027179" />
      <trkpt lat="45.4526604" lon="9.2027031" />
      <trkpt lat="45.4526485" lon="9.2026962" />
      <trkpt lat="45.4526267" lon="9.2027132" />
      <trkpt lat="45.4522955" lon="9.2025285" />
      <trkpt lat="45.4522818" lon="9.2024513" />
      <trkpt lat="45.4522646" lon="9.2024454" />
      <trkpt lat="45.4522186" lon="9.2024297" />
      <trkpt lat="45.4521543" lon="9.2024077" />
      <trkpt lat="45.4521056" lon="9.2023911" />
      <trkpt lat="45.4520962" lon="9.2023879" />
      <trkpt lat="45.4520474" lon="9.2023712" />
      <trkpt lat="45.4520455" lon="9.2023706" />
      <trkpt lat="45.4520365" lon="9.2023674" />
      <trkpt lat="45.4520335" lon="9.2023662" />
      <trkpt lat="45.4519675" lon="9.2023439" />
      <trkpt lat="45.4519473" lon="9.2023370" />
      <trkpt lat="45.4518884" lon="9.2023872" />
      <trkpt lat="45.4512852" lon="9.2022621" />
      <trkpt lat="45.4512041" lon="9.2022350" />
      <trkpt lat="45.4511818" lon="9.2022215" />
      <trkpt lat="45.4511244" lon="9.2021438" />
      <trkpt lat="45.4511133" lon="9.2021516" />
      <trkpt lat="45.4510796" lon="9.2021879" />
      <trkpt lat="45.4510716" lon="9.2021954" />
      <trkpt lat="45.4510579" lon="9.2022082" />
      <trkpt lat="45.4510062" lon="9.2022535" />
      <trkpt lat="45.4509962" lon="9.2022656" />
      <trkpt lat="45.4509940" lon="9.2023594" />
      <trkpt lat="45.4502366" lon="9.2024369" />
      <trkpt lat="45.4509940" lon="9.2023594" />
      <trkpt lat="45.4509962" lon="9.2022656" />
      <trkpt lat="45.4510062" lon="9.2022535" />
      <trkpt lat="45.4510579" lon="9.2022082" />
      <trkpt lat="45.4510716" lon="9.2021954" />
      <trkpt lat="45.4510796" lon="9.2021879" />
      <trkpt lat="45.4511133" lon="9.2021516" />
      <trkpt lat="45.4511244" lon="9.2021438" />
      <trkpt lat="45.4510883" lon="9.2020646" />
      <trkpt lat="45.4510212" lon="9.2017433" />
      <trkpt lat="45.4509951" lon="9.2014356" />
      <trkpt lat="45.4509961" lon="9.2011086" />
      <trkpt lat="45.4510112" lon="9.2010710" />
      <trkpt lat="45.4510115" lon="9.2010496" />
      <trkpt lat="45.4510119" lon="9.2010130" />
      <trkpt lat="45.4510123" lon="9.2009831" />
      <trkpt lat="45.4510114" lon="9.2009660" />
      <trkpt lat="45.4509921" lon="9.2009224" />
      <trkpt lat="45.4509926" lon="9.2006332" />
      <trkpt lat="45.4509927" lon="9.2006025" />
      <trkpt lat="45.4509931" lon="9.2004175" />
      <trkpt lat="45.4509952" lon="9.1994203" />
      <trkpt lat="45.4510042" lon="9.1994197" />
      <trkpt lat="45.4510043" lon="9.1994150" />
      <trkpt lat="45.4510048" lon="9.1993863" />
      <trkpt lat="45.4510053" lon="9.1993608" />
      <trkpt lat="45.4510053" lon="9.1993566" />
      <trkpt lat="45.4510042" lon="9.1993084" />
      <trkpt lat="45.4509828" lon="9.1993080" />
      <trkpt lat="45.4509465" lon="9.1993073" />
      <trkpt lat="45.4509337" lon="9.1993071" />
      <trkpt lat="45.4509211" lon="9.1993068" />
      <trkpt lat="45.4508822" lon="9.1993061" />
      <trkpt lat="45.4508655" lon="9.1993058" />
      <trkpt lat="45.4508253" lon="9.1992488" />
      <trkpt lat="45.4508296" lon="9.1992213" />
      <trkpt lat="45.4508386" lon="9.1991631" />
      <trkpt lat="45.4508483" lon="9.1991001" />
      <trkpt lat="45.4508506" lon="9.1990857" />
      <trkpt lat="45.4508678" lon="9.1990683" />
      <trkpt lat="45.4508708" lon="9.1989567" />
      <trkpt lat="45.4508677" lon="9.1969474" />
      <trkpt lat="45.4508612" lon="9.1969312" />
      <trkpt lat="45.4508523" lon="9.1969202" />
      <trkpt lat="45.4508437" lon="9.1969164" />
      <trkpt lat="45.4505926" lon="9.1969806" />
      <trkpt lat="45.4505104" lon="9.1970016" />
      <trkpt lat="45.4494303" lon="9.1972937" />
      <trkpt lat="45.4494293" lon="9.1972832" />
      <trkpt lat="45.4494265" lon="9.1972548" />
      <trkpt lat="45.4494248" lon="9.1972373" />
      <trkpt lat="45.4494231" lon="9.1972195" />
      <trkpt lat="45.4494204" lon="9.1971900" />
      <trkpt lat="45.4494198" lon="9.1971827" />
      <trkpt lat="45.4505005" lon="9.1968927" />
      <trkpt lat="45.4506367" lon="9.1968524" />
      <trkpt lat="45.4507180" lon="9.1967994" />
      <trkpt lat="45.4507296" lon="9.1967918" />
      <trkpt lat="45.4507566" lon="9.1967742" />
      <trkpt lat="45.4507863" lon="9.1967549" />
      <trkpt lat="45.4507965" lon="9.1967482" />
      <trkpt lat="45.4508156" lon="9.1967271" />
      <trkpt lat="45.4508296" lon="9.1967058" />
      <trkpt lat="45.4508419" lon="9.1966808" />
      <trkpt lat="45.4508528" lon="9.1966546" />
      <trkpt lat="45.4508620" lon="9.1966277" />
      <trkpt lat="45.4508686" lon="9.1966004" />
      <trkpt lat="45.4508828" lon="9.1966011" />
      <trkpt lat="45.4509058" lon="9.1966022" />
      <trkpt lat="45.4509219" lon="9.1966029" />
      <trkpt lat="45.4509245" lon="9.1966030" />
      <trkpt lat="45.4509352" lon="9.1966034" />
      <trkpt lat="45.4509383" lon="9.1966036" />
      <trkpt lat="45.4509497" lon="9.1966042" />
      <trkpt lat="45.4509578" lon="9.1966045" />
      <trkpt lat="45.4510140" lon="9.1966071" />
      <trkpt lat="45.4510219" lon="9.1966075" />
      <trkpt lat="45.4510285" lon="9.1966362" />
      <trkpt lat="45.4510403" lon="9.1966609" />
      <trkpt lat="45.4510541" lon="9.1966706" />
      <trkpt lat="45.4511509" lon="9.1966475" />
      <trkpt lat="45.4512118" lon="9.1966341" />
      <trkpt lat="45.4515035" lon="9.1965475" />
      <trkpt lat="45.4515636" lon="9.1965080" />
      <trkpt lat="45.4517940" lon="9.1964470" />
      <trkpt lat="45.4517923" lon="9.1964220" />
      <trkpt lat="45.4518338" lon="9.1964195" />
      <trkpt lat="45.4518665" lon="9.1964157" />
      <trkpt lat="45.4519665" lon="9.1964041" />
      <trkpt lat="45.4520002" lon="9.1964001" />
      <trkpt lat="45.4520234" lon="9.1963974" />
      <trkpt lat="45.4520523" lon="9.1963941" />
      <trkpt lat="45.4521162" lon="9.1963856" />
      <trkpt lat="45.4521494" lon="9.1963839" />
      <trkpt lat="45.4521612" lon="9.1964050" />
      <trkpt lat="45.4521612" lon="9.1964206" />
      <trkpt lat="45.4521697" lon="9.1964962" />
      <trkpt lat="45.4521707" lon="9.1965121" />
      <trkpt lat="45.4521729" lon="9.1965327" />
      <trkpt lat="45.4521748" lon="9.1965536" />
      <trkpt lat="45.4521778" lon="9.1965826" />
      <trkpt lat="45.4521524" lon="9.1966021" />
      <trkpt lat="45.4521276" lon="9.1966072" />
      <trkpt lat="45.4520583" lon="9.1966213" />
      <trkpt lat="45.4520352" lon="9.1966259" />
      <trkpt lat="45.4520047" lon="9.1966322" />
      <trkpt lat="45.4519705" lon="9.1966398" />
      <trkpt lat="45.4519183" lon="9.1966497" />
      <trkpt lat="45.4518963" lon="9.1966542" />
      <trkpt lat="45.4518197" lon="9.1966600" />
      <trkpt lat="45.4518184" lon="9.1966495" />
      <trkpt lat="45.4518148" lon="9.1966192" />
      <trkpt lat="45.4518123" lon="9.1965990" />
      <trkpt lat="45.4518107" lon="9.1965857" />
      <trkpt lat="45.4518095" lon="9.1965753" />
      <trkpt lat="45.4517967" lon="9.1964695" />
      <trkpt lat="45.4517940" lon="9.1964470" />
      <trkpt lat="45.4517923" lon="9.1964220" />
      <trkpt lat="45.4517905" lon="9.1954501" />
      <trkpt lat="45.4517857" lon="9.1951705" />
      <trkpt lat="45.4517718" lon="9.1941642" />
      <trkpt lat="45.4517764" lon="9.1941408" />
      <trkpt lat="45.4517747" lon="9.1941071" />
      <trkpt lat="45.4511519" lon="9.1941560" />
      <trkpt lat="45.4510300" lon="9.1941686" />
      <trkpt lat="45.4510267" lon="9.1941329" />
      <trkpt lat="45.4510256" lon="9.1940168" />
      <trkpt lat="45.4510240" lon="9.1939754" />
      <trkpt lat="45.4509509" lon="9.1939815" />
      <trkpt lat="45.4509319" lon="9.1939831" />
      <trkpt lat="45.4508789" lon="9.1938964" />
      <trkpt lat="45.4508611" lon="9.1938970" />
      <trkpt lat="45.4508486" lon="9.1938975" />
      <trkpt lat="45.4508580" lon="9.1932429" />
      <trkpt lat="45.4508579" lon="9.1932292" />
      <trkpt lat="45.4508576" lon="9.1931634" />
      <trkpt lat="45.4508634" lon="9.1931634" />
      <trkpt lat="45.4509259" lon="9.1931634" />
      <trkpt lat="45.4509368" lon="9.1931636" />
      <trkpt lat="45.4509332" lon="9.1937678" />
      <trkpt lat="45.4509315" lon="9.1938945" />
      <trkpt lat="45.4509506" lon="9.1938938" />
      <trkpt lat="45.4510070" lon="9.1938918" />
      <trkpt lat="45.4510301" lon="9.1938910" />
      <trkpt lat="45.4510186" lon="9.1927267" />
      <trkpt lat="45.4510186" lon="9.1926774" />
      <trkpt lat="45.4510186" lon="9.1926527" />
      <trkpt lat="45.4517369" lon="9.1926462" />
      <trkpt lat="45.4517529" lon="9.1926444" />
      <trkpt lat="45.4517720" lon="9.1926458" />
      <trkpt lat="45.4517779" lon="9.1917023" />
      <trkpt lat="45.4517798" lon="9.1914052" />
      <trkpt lat="45.4517947" lon="9.1913678" />
      <trkpt lat="45.4517630" lon="9.1910495" />
      <trkpt lat="45.4517764" lon="9.1910464" />
      <trkpt lat="45.4518116" lon="9.1910381" />
      <trkpt lat="45.4518517" lon="9.1910286" />
      <trkpt lat="45.4519995" lon="9.1911233" />
      <trkpt lat="45.4520294" lon="9.1911302" />
      <trkpt lat="45.4520666" lon="9.1911389" />
      <trkpt lat="45.4520745" lon="9.1911408" />
      <trkpt lat="45.4520819" lon="9.1911425" />
      <trkpt lat="45.4521131" lon="9.1911498" />
      <trkpt lat="45.4521247" lon="9.1911525" />
      <trkpt lat="45.4521348" lon="9.1911549" />
      <trkpt lat="45.4521645" lon="9.1911051" />
      <trkpt lat="45.4528411" lon="9.1913774" />
      <trkpt lat="45.4528450" lon="9.1913568" />
      <trkpt lat="45.4528599" lon="9.1912887" />
      <trkpt lat="45.4528719" lon="9.1912386" />
      <trkpt lat="45.4528770" lon="9.1912173" />
      <trkpt lat="45.4530340" lon="9.1910691" />
      <trkpt lat="45.4531190" lon="9.1897792" />
      <trkpt lat="45.4531043" lon="9.1897515" />
      <trkpt lat="45.4521551" lon="9.1896189" />
      <trkpt lat="45.4521549" lon="9.1896054" />
      <trkpt lat="45.4521548" lon="9.1895747" />
      <trkpt lat="45.4521538" lon="9.1895389" />
      <trkpt lat="45.4521536" lon="9.1895272" />
      <trkpt lat="45.4521479" lon="9.1894961" />
      <trkpt lat="45.4522221" lon="9.1887083" />
      <trkpt lat="45.4522173" lon="9.1887073" />
      <trkpt lat="45.4522042" lon="9.1887046" />
      <trkpt lat="45.4521851" lon="9.1887007" />
      <trkpt lat="45.4521649" lon="9.1886966" />
      <trkpt lat="45.4521226" lon="9.1886880" />
      <trkpt lat="45.4520940" lon="9.1886821" />
      <trkpt lat="45.4520888" lon="9.1886810" />
      <trkpt lat="45.4520307" lon="9.1886692" />
      <trkpt lat="45.4520027" lon="9.1886635" />
      <trkpt lat="45.4519975" lon="9.1886624" />
      <trkpt lat="45.4519717" lon="9.1886571" />
      <trkpt lat="45.4519289" lon="9.1886484" />
      <trkpt lat="45.4519044" lon="9.1886434" />
      <trkpt lat="45.4520711" lon="9.1876601" />
      <trkpt lat="45.4521819" lon="9.1871074" />
      <trkpt lat="45.4521728" lon="9.1870854" />
      <trkpt lat="45.4520880" lon="9.1870483" />
      <trkpt lat="45.4518674" lon="9.1869519" />
      <trkpt lat="45.4518703" lon="9.1869386" />
      <trkpt lat="45.4518795" lon="9.1868975" />
      <trkpt lat="45.4518950" lon="9.1868273" />
      <trkpt lat="45.4519020" lon="9.1867957" />
      <trkpt lat="45.4519369" lon="9.1867991" />
      <trkpt lat="45.4519474" lon="9.1868001" />
      <trkpt lat="45.4519648" lon="9.1868018" />
      <trkpt lat="45.4519808" lon="9.1868033" />
      <trkpt lat="45.4520808" lon="9.1868573" />
      <trkpt lat="45.4522164" lon="9.1868855" />
      <trkpt lat="45.4522499" lon="9.1868946" />
      <trkpt lat="45.4522821" lon="9.1869011" />
      <trkpt lat="45.4523101" lon="9.1869067" />
      <trkpt lat="45.4523207" lon="9.1869089" />
      <trkpt lat="45.4523718" lon="9.1869192" />
      <trkpt lat="45.4524180" lon="9.1869286" />
      <trkpt lat="45.4524288" lon="9.1869308" />
      <trkpt lat="45.4524569" lon="9.1869364" />
      <trkpt lat="45.4524716" lon="9.1869394" />
      <trkpt lat="45.4524803" lon="9.1869418" />
      <trkpt lat="45.4525207" lon="9.1868892" />
      <trkpt lat="45.4525239" lon="9.1868568" />
      <trkpt lat="45.4525256" lon="9.1868389" />
      <trkpt lat="45.4525277" lon="9.1868178" />
      <trkpt lat="45.4525298" lon="9.1867964" />
      <trkpt lat="45.4525359" lon="9.1867340" />
      <trkpt lat="45.4525372" lon="9.1867211" />
      <trkpt lat="45.4532836" lon="9.1868321" />
      <trkpt lat="45.4532913" lon="9.1868212" />
      <trkpt lat="45.4533062" lon="9.1868243" />
      <trkpt lat="45.4533318" lon="9.1868296" />
      <trkpt lat="45.4533524" lon="9.1868317" />
      <trkpt lat="45.4533632" lon="9.1868324" />
      <trkpt lat="45.4534024" lon="9.1868938" />
      <trkpt lat="45.4539332" lon="9.1869665" />
      <trkpt lat="45.4540568" lon="9.1869860" />
      <trkpt lat="45.4540719" lon="9.1869877" />
      <trkpt lat="45.4542240" lon="9.1870039" />
      <trkpt lat="45.4544096" lon="9.1870237" />
      <trkpt lat="45.4544292" lon="9.1870117" />
      <trkpt lat="45.4544410" lon="9.1870129" />
      <trkpt lat="45.4544676" lon="9.1870157" />
      <trkpt lat="45.4545087" lon="9.1870199" />
      <trkpt lat="45.4545218" lon="9.1870226" />
      <trkpt lat="45.4546061" lon="9.1870398" />
      <trkpt lat="45.4546133" lon="9.1870413" />
      <trkpt lat="45.4546221" lon="9.1870431" />
      <trkpt lat="45.4546999" lon="9.1870577" />
      <trkpt lat="45.4547091" lon="9.1870597" />
      <trkpt lat="45.4547369" lon="9.1870655" />
      <trkpt lat="45.4547692" lon="9.1870727" />
      <trkpt lat="45.4548018" lon="9.1870778" />
      <trkpt lat="45.4548201" lon="9.1871010" />
      <trkpt lat="45.4551502" lon="9.1871724" />
      <trkpt lat="45.4551634" lon="9.1871486" />
      <trkpt lat="45.4551679" lon="9.1871496" />
      <trkpt lat="45.4552146" lon="9.1871594" />
      <trkpt lat="45.4552607" lon="9.1871692" />
      <trkpt lat="45.4552717" lon="9.1871715" />
      <trkpt lat="45.4552874" lon="9.1871966" />
      <trkpt lat="45.4553031" lon="9.1872062" />
      <trkpt lat="45.4559756" lon="9.1873281" />
      <trkpt lat="45.4559934" lon="9.1873163" />
      <trkpt lat="45.4560022" lon="9.1873184" />
      <trkpt lat="45.4560405" lon="9.1873279" />
      <trkpt lat="45.4560673" lon="9.1873343" />
      <trkpt lat="45.4560969" lon="9.1873415" />
      <trkpt lat="45.4561026" lon="9.1873429" />
      <trkpt lat="45.4561411" lon="9.1873659" />
      <trkpt lat="45.4562399" lon="9.1873841" />
      <trkpt lat="45.4563171" lon="9.1874051" />
      <trkpt lat="45.4563249" lon="9.1873978" />
      <trkpt lat="45.4563335" lon="9.1873984" />
      <trkpt lat="45.4563539" lon="9.1873999" />
      <trkpt lat="45.4563564" lon="9.1874444" />
      <trkpt lat="45.4563598" lon="9.1874668" />
      <trkpt lat="45.4565441" lon="9.1874818" />
      <trkpt lat="45.4567282" lon="9.1874965" />
      <trkpt lat="45.4570010" lon="9.1875184" />
      <trkpt lat="45.4572195" lon="9.1875363" />
      <trkpt lat="45.4572193" lon="9.1875579" />
      <trkpt lat="45.4572183" lon="9.1875819" />
      <trkpt lat="45.4573146" lon="9.1875907" />
      <trkpt lat="45.4573373" lon="9.1876375" />
      <trkpt lat="45.4573392" lon="9.1876688" />
      <trkpt lat="45.4573450" lon="9.1876715" />
      <trkpt lat="45.4573835" lon="9.1876892" />
      <trkpt lat="45.4574277" lon="9.1877104" />
      <trkpt lat="45.4574358" lon="9.1877127" />
      <trkpt lat="45.4574542" lon="9.1877136" />
      <trkpt lat="45.4575318" lon="9.1877159" />
      <trkpt lat="45.4576251" lon="9.1877173" />
      <trkpt lat="45.4576411" lon="9.1877175" />
      <trkpt lat="45.4581229" lon="9.1877392" />
      <trkpt lat="45.4581917" lon="9.1877669" />
      <trkpt lat="45.4582355" lon="9.1877892" />
      <trkpt lat="45.4582467" lon="9.1877902" />
      <trkpt lat="45.4582834" lon="9.1877938" />
      <trkpt lat="45.4583523" lon="9.1878005" />
      <trkpt lat="45.4583681" lon="9.1878020" />
      <trkpt lat="45.4586930" lon="9.1878819" />
      <trkpt lat="45.4592457" lon="9.1880343" />
      <trkpt lat="45.4592541" lon="9.1880384" />
      <trkpt lat="45.4592780" lon="9.1880502" />
      <trkpt lat="45.4593065" lon="9.1880806" />
      <trkpt lat="45.4594775" lon="9.1883084" />
      <trkpt lat="45.4600096" lon="9.1890577" />
      <trkpt lat="45.4600397" lon="9.1891010" />
      <trkpt lat="45.4600401" lon="9.1891209" />
      <trkpt lat="45.4599621" lon="9.1892569" />
      <trkpt lat="45.4599195" lon="9.1893314" />
      <trkpt lat="45.4597529" lon="9.1896220" />
      <trkpt lat="45.4597582" lon="9.1896287" />
      <trkpt lat="45.4598113" lon="9.1896947" />
      <trkpt lat="45.4598463" lon="9.1897396" />
      <trkpt lat="45.4598584" lon="9.1897469" />
      <trkpt lat="45.4603112" lon="9.1889246" />
      <trkpt lat="45.4603181" lon="9.1889156" />
      <trkpt lat="45.4603247" lon="9.1889070" />
      <trkpt lat="45.4603324" lon="9.1888971" />
      <trkpt lat="45.4603373" lon="9.1888883" />
      <trkpt lat="45.4603506" lon="9.1889054" />
      <trkpt lat="45.4607611" lon="9.1894326" />
      <trkpt lat="45.4608726" lon="9.1893877" />
      <trkpt lat="45.4608659" lon="9.1894069" />
      <trkpt lat="45.4608383" lon="9.1895555" />
      <trkpt lat="45.4608163" lon="9.1896776" />
      <trkpt lat="45.4608124" lon="9.1896910" />
      <trkpt lat="45.4608169" lon="9.1897151" />
      <trkpt lat="45.4608289" lon="9.1897240" />
      <trkpt lat="45.4608561" lon="9.1897332" />
      <trkpt lat="45.4608920" lon="9.1897454" />
      <trkpt lat="45.4609075" lon="9.1897506" />
      <trkpt lat="45.4609258" lon="9.1897566" />
      <trkpt lat="45.4609398" lon="9.1897615" />
      <trkpt lat="45.4609520" lon="9.1897660" />
      <trkpt lat="45.4609688" lon="9.1897713" />
      <trkpt lat="45.4609762" lon="9.1897738" />
      <trkpt lat="45.4609906" lon="9.1897787" />
      <trkpt lat="45.4610101" lon="9.1897853" />
      <trkpt lat="45.4610386" lon="9.1897949" />
      <trkpt lat="45.4610462" lon="9.1897975" />
      <trkpt lat="45.4610583" lon="9.1898178" />
      <trkpt lat="45.4613719" lon="9.1902243" />
      <trkpt lat="45.4615734" lon="9.1904713" />
      <trkpt lat="45.4616263" lon="9.1905359" />
      <trkpt lat="45.4616326" lon="9.1905439" />
      <trkpt lat="45.4616452" lon="9.1905597" />
      <trkpt lat="45.4616779" lon="9.1905572" />
      <trkpt lat="45.4619325" lon="9.1902404" />
      <trkpt lat="45.4619373" lon="9.1902476" />
      <trkpt lat="45.4619771" lon="9.1903078" />
      <trkpt lat="45.4620112" lon="9.1902756" />
      <trkpt lat="45.4620304" lon="9.1902546" />
      <trkpt lat="45.4620277" lon="9.1902253" />
      <trkpt lat="45.4620294" lon="9.1899261" />
      <trkpt lat="45.4620277" lon="9.1902253" />
      <trkpt lat="45.4620304" lon="9.1902546" />
      <trkpt lat="45.4620112" lon="9.1902756" />
      <trkpt lat="45.4619771" lon="9.1903078" />
      <trkpt lat="45.4619318" lon="9.1903664" />
      <trkpt lat="45.4617278" lon="9.1906300" />
      <trkpt lat="45.4616802" lon="9.1906911" />
      <trkpt lat="45.4616285" lon="9.1907599" />
      <trkpt lat="45.4615855" lon="9.1907008" />
      <trkpt lat="45.4615738" lon="9.1906846" />
      <trkpt lat="45.4611657" lon="9.1912163" />
      <trkpt lat="45.4610959" lon="9.1913107" />
      <trkpt lat="45.4610836" lon="9.1913187" />
      <trkpt lat="45.4610552" lon="9.1912899" />
      <trkpt lat="45.4610497" lon="9.1912998" />
      <trkpt lat="45.4610235" lon="9.1913499" />
      <trkpt lat="45.4610070" lon="9.1913769" />
      <trkpt lat="45.4609922" lon="9.1913975" />
      <trkpt lat="45.4609853" lon="9.1914072" />
      <trkpt lat="45.4609741" lon="9.1914225" />
      <trkpt lat="45.4609629" lon="9.1914381" />
      <trkpt lat="45.4609530" lon="9.1914519" />
      <trkpt lat="45.4609383" lon="9.1914722" />
      <trkpt lat="45.4609138" lon="9.1915063" />
      <trkpt lat="45.4608880" lon="9.1915422" />
      <trkpt lat="45.4608761" lon="9.1915587" />
      <trkpt lat="45.4609452" lon="9.1916338" />
      <trkpt lat="45.4609325" lon="9.1916561" />
      <trkpt lat="45.4608366" lon="9.1918072" />
      <trkpt lat="45.4605164" lon="9.1930436" />
      <trkpt lat="45.4605349" lon="9.1930802" />
      <trkpt lat="45.4610217" lon="9.1932474" />
      <trkpt lat="45.4610996" lon="9.1932725" />
      <trkpt lat="45.4610932" lon="9.1933085" />
      <trkpt lat="45.4610838" lon="9.1933578" />
      <trkpt lat="45.4612166" lon="9.1933988" />
      <trkpt lat="45.4614324" lon="9.1934465" />
      <trkpt lat="45.4614555" lon="9.1934512" />
      <trkpt lat="45.4618296" lon="9.1935274" />
      <trkpt lat="45.4618604" lon="9.1935337" />
      <trkpt lat="45.4618609" lon="9.1935286" />
      <trkpt lat="45.4618634" lon="9.1935030" />
      <trkpt lat="45.4618668" lon="9.1934682" />
      <trkpt lat="45.4618688" lon="9.1934483" />
      <trkpt lat="45.4620361" lon="9.1932890" />
      <trkpt lat="45.4620514" lon="9.1933144" />
      <trkpt lat="45.4620729" lon="9.1933502" />
      <trkpt lat="45.4620895" lon="9.1933779" />
      <trkpt lat="45.4621036" lon="9.1934014" />
      <trkpt lat="45.4622467" lon="9.1936735" />
      <trkpt lat="45.4623222" lon="9.1937929" />
      <trkpt lat="45.4623476" lon="9.1938372" />
      <trkpt lat="45.4624435" lon="9.1941361" />
      <trkpt lat="45.4624584" lon="9.1941658" />
      <trkpt lat="45.4624732" lon="9.1941953" />
      <trkpt lat="45.4624904" lon="9.1942286" />
      <trkpt lat="45.4624954" lon="9.1942382" />
      <trkpt lat="45.4623776" lon="9.1943568" />
      <trkpt lat="45.4623738" lon="9.1943884" />
      <trkpt lat="45.4624755" lon="9.1946086" />
      <trkpt lat="45.4624780" lon="9.1948997" />
      <trkpt lat="45.4624820" lon="9.1950767" />
      <trkpt lat="45.4623722" lon="9.1950738" />
      <trkpt lat="45.4623715" lon="9.1950994" />
      <trkpt lat="45.4623722" lon="9.1951570" />
      <trkpt lat="45.4623796" lon="9.1953633" />
      <trkpt lat="45.4621891" lon="9.1953784" />
      <trkpt lat="45.4621783" lon="9.1951262" />
      <trkpt lat="45.4621788" lon="9.1950796" />
      <trkpt lat="45.4620642" lon="9.1950114" />
      <trkpt lat="45.4619224" lon="9.1949879" />
      <trkpt lat="45.4618658" lon="9.1949796" />
      <trkpt lat="45.4618502" lon="9.1950213" />
      <trkpt lat="45.4618010" lon="9.1951317" />
      <trkpt lat="45.4617001" lon="9.1953736" />
      <trkpt lat="45.4615690" lon="9.1955584" />
      <trkpt lat="45.4615237" lon="9.1955888" />
      <trkpt lat="45.4614814" lon="9.1955955" />
      <trkpt lat="45.4614235" lon="9.1956391" />
      <trkpt lat="45.4613601" lon="9.1956287" />
      <trkpt lat="45.4613608" lon="9.1956416" />
      <trkpt lat="45.4613576" lon="9.1956637" />
      <trkpt lat="45.4613456" lon="9.1956856" />
      <trkpt lat="45.4611009" lon="9.1959758" />
      <trkpt lat="45.4608010" lon="9.1963368" />
      <trkpt lat="45.4607844" lon="9.1963347" />
      <trkpt lat="45.4603384" lon="9.1959217" />
      <trkpt lat="45.4599570" lon="9.1955685" />
      <trkpt lat="45.4598143" lon="9.1954363" />
      <trkpt lat="45.4598222" lon="9.1954150" />
      <trkpt lat="45.4598226" lon="9.1954140" />
      <trkpt lat="45.4599804" lon="9.1950637" />
      <trkpt lat="45.4599261" lon="9.1950123" />
      <trkpt lat="45.4599512" lon="9.1949607" />
      <trkpt lat="45.4599908" lon="9.1948739" />
      <trkpt lat="45.4598544" lon="9.1947462" />
      <trkpt lat="45.4598336" lon="9.1945795" />
      <trkpt lat="45.4599272" lon="9.1943788" />
      <trkpt lat="45.4600196" lon="9.1941810" />
      <trkpt lat="45.4601167" lon="9.1941296" />
      <trkpt lat="45.4602651" lon="9.1942645" />
      <trkpt lat="45.4602986" lon="9.1941903" />
      <trkpt lat="45.4603197" lon="9.1941416" />
      <trkpt lat="45.4603865" lon="9.1939871" />
      <trkpt lat="45.4603964" lon="9.1939653" />
      <trkpt lat="45.4610472" lon="9.1945683" />
      <trkpt lat="45.4611251" lon="9.1946431" />
      <trkpt lat="45.4611295" lon="9.1946472" />
      <trkpt lat="45.4611614" lon="9.1945881" />
      <trkpt lat="45.4611752" lon="9.1945626" />
      <trkpt lat="45.4612283" lon="9.1946159" />
      <trkpt lat="45.4614141" lon="9.1947316" />
      <trkpt lat="45.4615690" lon="9.1948109" />
      <trkpt lat="45.4616129" lon="9.1948274" />
      <trkpt lat="45.4618124" lon="9.1949397" />
      <trkpt lat="45.4618267" lon="9.1948968" />
      <trkpt lat="45.4618293" lon="9.1948889" />
      <trkpt lat="45.4618883" lon="9.1949199" />
      <trkpt lat="45.4619072" lon="9.1949200" />
      <trkpt lat="45.4619207" lon="9.1948811" />
      <trkpt lat="45.4620850" lon="9.1945305" />
      <trkpt lat="45.4621288" lon="9.1944618" />
      <trkpt lat="45.4624435" lon="9.1941361" />
      <trkpt lat="45.4624660" lon="9.1941156" />
      <trkpt lat="45.4624918" lon="9.1940922" />
      <trkpt lat="45.4625116" lon="9.1940741" />
      <trkpt lat="45.4625248" lon="9.1940621" />
      <trkpt lat="45.4625378" lon="9.1940502" />
      <trkpt lat="45.4625407" lon="9.1940476" />
      <trkpt lat="45.4625485" lon="9.1940405" />
      <trkpt lat="45.4625557" lon="9.1940340" />
      <trkpt lat="45.4625418" lon="9.1940033" />
      <trkpt lat="45.4625369" lon="9.1939937" />
      <trkpt lat="45.4624462" lon="9.1938153" />
      <trkpt lat="45.4624005" lon="9.1937188" />
      <trkpt lat="45.4623871" lon="9.1937314" />
      <trkpt lat="45.4623766" lon="9.1937414" />
      <trkpt lat="45.4623716" lon="9.1937461" />
      <trkpt lat="45.4623597" lon="9.1937574" />
      <trkpt lat="45.4623475" lon="9.1937689" />
      <trkpt lat="45.4623318" lon="9.1937838" />
      <trkpt lat="45.4623222" lon="9.1937929" />
      <trkpt lat="45.4622467" lon="9.1936735" />
      <trkpt lat="45.4621036" lon="9.1934014" />
      <trkpt lat="45.4620895" lon="9.1933779" />
      <trkpt lat="45.4620729" lon="9.1933502" />
      <trkpt lat="45.4620514" lon="9.1933144" />
      <trkpt lat="45.4620361" lon="9.1932890" />
      <trkpt lat="45.4618688" lon="9.1934483" />
      <trkpt lat="45.4618383" lon="9.1934446" />
      <trkpt lat="45.4614573" lon="9.1933875" />
      <trkpt lat="45.4610996" lon="9.1932725" />
      <trkpt lat="45.4610932" lon="9.1933085" />
      <trkpt lat="45.4610838" lon="9.1933578" />
      <trkpt lat="45.4610932" lon="9.1933085" />
      <trkpt lat="45.4610996" lon="9.1932725" />
      <trkpt lat="45.4614573" lon="9.1933875" />
      <trkpt lat="45.4618383" lon="9.1934446" />
      <trkpt lat="45.4618688" lon="9.1934483" />
      <trkpt lat="45.4620361" lon="9.1932890" />
      <trkpt lat="45.4620514" lon="9.1933144" />
      <trkpt lat="45.4620729" lon="9.1933502" />
      <trkpt lat="45.4620895" lon="9.1933779" />
      <trkpt lat="45.4621036" lon="9.1934014" />
      <trkpt lat="45.4622467" lon="9.1936735" />
      <trkpt lat="45.4623222" lon="9.1937929" />
      <trkpt lat="45.4623476" lon="9.1938372" />
      <trkpt lat="45.4624435" lon="9.1941361" />
      <trkpt lat="45.4621288" lon="9.1944618" />
      <trkpt lat="45.4620850" lon="9.1945305" />
      <trkpt lat="45.4619207" lon="9.1948811" />
      <trkpt lat="45.4619072" lon="9.1949200" />
      <trkpt lat="45.4618883" lon="9.1949199" />
      <trkpt lat="45.4618293" lon="9.1948889" />
      <trkpt lat="45.4618267" lon="9.1948968" />
      <trkpt lat="45.4618124" lon="9.1949397" />
      <trkpt lat="45.4618017" lon="9.1949720" />
      <trkpt lat="45.4618004" lon="9.1949760" />
      <trkpt lat="45.4617996" lon="9.1949936" />
      <trkpt lat="45.4617255" lon="9.1952110" />
      <trkpt lat="45.4616910" lon="9.1953031" />
      <trkpt lat="45.4615889" lon="9.1954801" />
      <trkpt lat="45.4615612" lon="9.1955059" />
      <trkpt lat="45.4614410" lon="9.1955664" />
      <trkpt lat="45.4614237" lon="9.1955636" />
      <trkpt lat="45.4613913" lon="9.1955788" />
      <trkpt lat="45.4614235" lon="9.1956391" />
      <trkpt lat="45.4613120" lon="9.1957900" />
      <trkpt lat="45.4609241" lon="9.1962669" />
      <trkpt lat="45.4608649" lon="9.1963960" />
      <trkpt lat="45.4608505" lon="9.1964320" />
      <trkpt lat="45.4608739" lon="9.1965558" />
      <trkpt lat="45.4609010" lon="9.1966951" />
      <trkpt lat="45.4609172" lon="9.1984309" />
      <trkpt lat="45.4609175" lon="9.1985015" />
      <trkpt lat="45.4609200" lon="9.1985826" />
      <trkpt lat="45.4609509" lon="9.1993684" />
      <trkpt lat="45.4609534" lon="9.1995509" />
      <trkpt lat="45.4609555" lon="9.1995955" />
      <trkpt lat="45.4609326" lon="9.1999616" />
      <trkpt lat="45.4609151" lon="9.2000666" />
      <trkpt lat="45.4608773" lon="9.2002477" />
      <trkpt lat="45.4608583" lon="9.2002437" />
      <trkpt lat="45.4608194" lon="9.2002355" />
      <trkpt lat="45.4606306" lon="9.2001959" />
      <trkpt lat="45.4608194" lon="9.2002355" />
      <trkpt lat="45.4608583" lon="9.2002437" />
      <trkpt lat="45.4608773" lon="9.2002477" />
      <trkpt lat="45.4609251" lon="9.2002558" />
      <trkpt lat="45.4611718" lon="9.2003038" />
      <trkpt lat="45.4617702" lon="9.2004178" />
      <trkpt lat="45.4621785" lon="9.2004988" />
      <trkpt lat="45.4621765" lon="9.2005265" />
      <trkpt lat="45.4621744" lon="9.2005560" />
      <trkpt lat="45.4621873" lon="9.2008131" />
      <trkpt lat="45.4622111" lon="9.2008139" />
      <trkpt lat="45.4622503" lon="9.2008155" />
      <trkpt lat="45.4622498" lon="9.2009873" />
      <trkpt lat="45.4622429" lon="9.2019143" />
      <trkpt lat="45.4622405" lon="9.2022368" />
      <trkpt lat="45.4621718" lon="9.2022368" />
      <trkpt lat="45.4621103" lon="9.2022375" />
      <trkpt lat="45.4608978" lon="9.2024354" />
      <trkpt lat="45.4601237" lon="9.2025840" />
      <trkpt lat="45.4601221" lon="9.2025615" />
      <trkpt lat="45.4601194" lon="9.2025248" />
      <trkpt lat="45.4600667" lon="9.2016949" />
      <trkpt lat="45.4600187" lon="9.2013717" />
      <trkpt lat="45.4599992" lon="9.2013495" />
      <trkpt lat="45.4599919" lon="9.2013521" />
      <trkpt lat="45.4599603" lon="9.2013631" />
      <trkpt lat="45.4599408" lon="9.2011647" />
      <trkpt lat="45.4598904" lon="9.2006580" />
      <trkpt lat="45.4599204" lon="9.2006517" />
      <trkpt lat="45.4599295" lon="9.2006498" />
      <trkpt lat="45.4599133" lon="9.2002317" />
      <trkpt lat="45.4599118" lon="9.2001632" />
      <trkpt lat="45.4599099" lon="9.2000757" />
      <trkpt lat="45.4600803" lon="9.2000953" />
      <trkpt lat="45.4606306" lon="9.2001959" />
    </trkseg>
  </trk>
</gpx>
