<?xml version="1.0" encoding="UTF-8"?>
<gpx xmlns="http://www.topografix.com/GPX/1/1" version="1.1" creator="ShapeRoute route-engine">
  <metadata>
    <name>UVA 15 km trento block</name>
    <author>
      <name>ShapeRoute route-engine</name>
    </author>
    <copyright author="OpenStreetMap contributors">
      <license>https://opendatacommons.org/licenses/odbl/1-0/</license>
    </copyright>
    <link href="https://www.openstreetmap.org/copyright">
      <text>© OpenStreetMap contributors</text>
    </link>
    <time>2026-10-02T11:11:03Z</time>
  </metadata>
  <trk>
    <name>UVA 15 km trento block</name>
    <trkseg>
      <trkpt lat="46.0626157" lon="11.1324476" />
      <trkpt lat="46.0625831" lon="11.1323963" />
      <trkpt lat="46.0625729" lon="11.1324110" />
      <trkpt lat="46.0624260" lon="11.1326255" />
      <trkpt lat="46.0624164" lon="11.1326354" />
      <trkpt lat="46.0624294" lon="11.1326552" />
      <trkpt lat="46.0624117" lon="11.1326803" />
      <trkpt lat="46.0623896" lon="11.1327116" />
      <trkpt lat="46.0623792" lon="11.1327271" />
      <trkpt lat="46.0620378" lon="11.1332189" />
      <trkpt lat="46.0620137" lon="11.1332531" />
      <trkpt lat="46.0620109" lon="11.1332676" />
      <trkpt lat="46.0620137" lon="11.1332845" />
      <trkpt lat="46.0622405" lon="11.1336130" />
      <trkpt lat="46.0622160" lon="11.1336476" />
      <trkpt lat="46.0622679" lon="11.1337218" />
      <trkpt lat="46.0622441" lon="11.1337562" />
      <trkpt lat="46.0623913" lon="11.1339683" />
      <trkpt lat="46.0626984" lon="11.1344106" />
      <trkpt lat="46.0627026" lon="11.1344228" />
      <trkpt lat="46.0627322" lon="11.1344744" />
      <trkpt lat="46.0627621" lon="11.1345177" />
      <trkpt lat="46.0629316" lon="11.1347486" />
      <trkpt lat="46.0629520" lon="11.1347179" />
      <trkpt lat="46.0629823" lon="11.1347616" />
      <trkpt lat="46.0631653" lon="11.1350261" />
      <trkpt lat="46.0631931" lon="11.1350282" />
      <trkpt lat="46.0632217" lon="11.1350092" />
      <trkpt lat="46.0635831" lon="11.1344688" />
      <trkpt lat="46.0635996" lon="11.1344920" />
      <trkpt lat="46.0636104" lon="11.1345006" />
      <trkpt lat="46.0640869" lon="11.1351979" />
      <trkpt lat="46.0641053" lon="11.1352279" />
      <trkpt lat="46.0642302" lon="11.1354115" />
      <trkpt lat="46.0643031" lon="11.1355235" />
      <trkpt lat="46.0643430" lon="11.1355222" />
      <trkpt lat="46.0643913" lon="11.1355207" />
      <trkpt lat="46.0647329" lon="11.1360399" />
      <trkpt lat="46.0647416" lon="11.1360277" />
      <trkpt lat="46.0649073" lon="11.1357966" />
      <trkpt lat="46.0649227" lon="11.1357751" />
      <trkpt lat="46.0649292" lon="11.1357846" />
      <trkpt lat="46.0649644" lon="11.1357256" />
      <trkpt lat="46.0651249" lon="11.1354976" />
      <trkpt lat="46.0651491" lon="11.1354441" />
      <trkpt lat="46.0651792" lon="11.1354971" />
      <trkpt lat="46.0652385" lon="11.1356027" />
      <trkpt lat="46.0653233" lon="11.1356535" />
      <trkpt lat="46.0654566" lon="11.1357405" />
      <trkpt lat="46.0655347" lon="11.1357705" />
      <trkpt lat="46.0657114" lon="11.1358023" />
      <trkpt lat="46.0659518" lon="11.1360367" />
      <trkpt lat="46.0662916" lon="11.1362363" />
      <trkpt lat="46.0663071" lon="11.1362447" />
      <trkpt lat="46.0663281" lon="11.1362580" />
      <trkpt lat="46.0663628" lon="11.1362939" />
      <trkpt lat="46.0664010" lon="11.1363412" />
      <trkpt lat="46.0665063" lon="11.1363960" />
      <trkpt lat="46.0665158" lon="11.1363369" />
      <trkpt lat="46.0665786" lon="11.1363592" />
      <trkpt lat="46.0666597" lon="11.1363567" />
      <trkpt lat="46.0668339" lon="11.1363302" />
      <trkpt lat="46.0673964" lon="11.1362654" />
      <trkpt lat="46.0677502" lon="11.1362150" />
      <trkpt lat="46.0679711" lon="11.1362164" />
      <trkpt lat="46.0681022" lon="11.1362353" />
      <trkpt lat="46.0681256" lon="11.1362399" />
      <trkpt lat="46.0683294" lon="11.1362797" />
      <trkpt lat="46.0685712" lon="11.1363270" />
      <trkpt lat="46.0686635" lon="11.1363451" />
      <trkpt lat="46.0686997" lon="11.1364151" />
      <trkpt lat="46.0684162" lon="11.1363579" />
      <trkpt lat="46.0680726" lon="11.1362854" />
      <trkpt lat="46.0677746" lon="11.1362708" />
      <trkpt lat="46.0675936" lon="11.1362919" />
      <trkpt lat="46.0673738" lon="11.1363210" />
      <trkpt lat="46.0671181" lon="11.1363540" />
      <trkpt lat="46.0668108" lon="11.1363923" />
      <trkpt lat="46.0666455" lon="11.1364138" />
      <trkpt lat="46.0665726" lon="11.1364180" />
      <trkpt lat="46.0665063" lon="11.1363960" />
      <trkpt lat="46.0665158" lon="11.1363369" />
      <trkpt lat="46.0664309" lon="11.1362988" />
      <trkpt lat="46.0663878" lon="11.1362547" />
      <trkpt lat="46.0663426" lon="11.1361849" />
      <trkpt lat="46.0663281" lon="11.1362580" />
      <trkpt lat="46.0663071" lon="11.1362447" />
      <trkpt lat="46.0662916" lon="11.1362363" />
      <trkpt lat="46.0659518" lon="11.1360367" />
      <trkpt lat="46.0657114" lon="11.1358023" />
      <trkpt lat="46.0657128" lon="11.1358240" />
      <trkpt lat="46.0657467" lon="11.1358838" />
      <trkpt lat="46.0657572" lon="11.1359521" />
      <trkpt lat="46.0658664" lon="11.1360698" />
      <trkpt lat="46.0659041" lon="11.1361217" />
      <trkpt lat="46.0660516" lon="11.1363747" />
      <trkpt lat="46.0661586" lon="11.1365284" />
      <trkpt lat="46.0662155" lon="11.1365977" />
      <trkpt lat="46.0663092" lon="11.1366570" />
      <trkpt lat="46.0663618" lon="11.1366839" />
      <trkpt lat="46.0664807" lon="11.1367333" />
      <trkpt lat="46.0665653" lon="11.1367554" />
      <trkpt lat="46.0666011" lon="11.1367615" />
      <trkpt lat="46.0666097" lon="11.1367658" />
      <trkpt lat="46.0667427" lon="11.1369357" />
      <trkpt lat="46.0668043" lon="11.1369847" />
      <trkpt lat="46.0668630" lon="11.1370144" />
      <trkpt lat="46.0668957" lon="11.1370294" />
      <trkpt lat="46.0669119" lon="11.1370406" />
      <trkpt lat="46.0669485" lon="11.1370766" />
      <trkpt lat="46.0669565" lon="11.1373186" />
      <trkpt lat="46.0667909" lon="11.1377035" />
      <trkpt lat="46.0667605" lon="11.1377435" />
      <trkpt lat="46.0667569" lon="11.1377711" />
      <trkpt lat="46.0667579" lon="11.1377948" />
      <trkpt lat="46.0667629" lon="11.1378286" />
      <trkpt lat="46.0667790" lon="11.1378516" />
      <trkpt lat="46.0668019" lon="11.1378600" />
      <trkpt lat="46.0668245" lon="11.1378579" />
      <trkpt lat="46.0669617" lon="11.1377731" />
      <trkpt lat="46.0670657" lon="11.1376903" />
      <trkpt lat="46.0671663" lon="11.1375921" />
      <trkpt lat="46.0671660" lon="11.1376322" />
      <trkpt lat="46.0671903" lon="11.1376082" />
      <trkpt lat="46.0672260" lon="11.1375704" />
      <trkpt lat="46.0672417" lon="11.1375601" />
      <trkpt lat="46.0672583" lon="11.1375544" />
      <trkpt lat="46.0672729" lon="11.1375606" />
      <trkpt lat="46.0672839" lon="11.1375703" />
      <trkpt lat="46.0674043" lon="11.1377294" />
      <trkpt lat="46.0674480" lon="11.1377871" />
      <trkpt lat="46.0674599" lon="11.1378120" />
      <trkpt lat="46.0674668" lon="11.1378283" />
      <trkpt lat="46.0674652" lon="11.1378492" />
      <trkpt lat="46.0674531" lon="11.1378712" />
      <trkpt lat="46.0673516" lon="11.1378834" />
      <trkpt lat="46.0673215" lon="11.1378986" />
      <trkpt lat="46.0673044" lon="11.1379228" />
      <trkpt lat="46.0672811" lon="11.1379453" />
      <trkpt lat="46.0672673" lon="11.1379769" />
      <trkpt lat="46.0672428" lon="11.1381262" />
      <trkpt lat="46.0672139" lon="11.1384187" />
      <trkpt lat="46.0672018" lon="11.1388340" />
      <trkpt lat="46.0672485" lon="11.1389416" />
      <trkpt lat="46.0672539" lon="11.1389531" />
      <trkpt lat="46.0671918" lon="11.1390935" />
      <trkpt lat="46.0671556" lon="11.1391835" />
      <trkpt lat="46.0671415" lon="11.1392509" />
      <trkpt lat="46.0671392" lon="11.1392674" />
      <trkpt lat="46.0671856" lon="11.1392856" />
      <trkpt lat="46.0672342" lon="11.1393047" />
      <trkpt lat="46.0672267" lon="11.1393427" />
      <trkpt lat="46.0672216" lon="11.1395758" />
      <trkpt lat="46.0671904" lon="11.1398173" />
      <trkpt lat="46.0671543" lon="11.1399549" />
      <trkpt lat="46.0671351" lon="11.1400933" />
      <trkpt lat="46.0671225" lon="11.1401527" />
      <trkpt lat="46.0670885" lon="11.1402487" />
      <trkpt lat="46.0670138" lon="11.1403635" />
      <trkpt lat="46.0669939" lon="11.1404220" />
      <trkpt lat="46.0669525" lon="11.1404574" />
      <trkpt lat="46.0668831" lon="11.1404736" />
      <trkpt lat="46.0668168" lon="11.1404914" />
      <trkpt lat="46.0667662" lon="11.1404986" />
      <trkpt lat="46.0666887" lon="11.1404974" />
      <trkpt lat="46.0665034" lon="11.1404842" />
      <trkpt lat="46.0664318" lon="11.1404857" />
      <trkpt lat="46.0663794" lon="11.1404936" />
      <trkpt lat="46.0662319" lon="11.1405325" />
      <trkpt lat="46.0661054" lon="11.1405686" />
      <trkpt lat="46.0660949" lon="11.1405165" />
      <trkpt lat="46.0659632" lon="11.1405373" />
      <trkpt lat="46.0654167" lon="11.1406029" />
      <trkpt lat="46.0653293" lon="11.1406239" />
      <trkpt lat="46.0652736" lon="11.1406627" />
      <trkpt lat="46.0652271" lon="11.1407155" />
      <trkpt lat="46.0651878" lon="11.1407796" />
      <trkpt lat="46.0651478" lon="11.1408897" />
      <trkpt lat="46.0650959" lon="11.1411753" />
      <trkpt lat="46.0650618" lon="11.1411617" />
      <trkpt lat="46.0650524" lon="11.1411580" />
      <trkpt lat="46.0649791" lon="11.1411218" />
      <trkpt lat="46.0647590" lon="11.1408660" />
      <trkpt lat="46.0645244" lon="11.1404727" />
      <trkpt lat="46.0643090" lon="11.1402133" />
      <trkpt lat="46.0642570" lon="11.1401823" />
      <trkpt lat="46.0641905" lon="11.1401798" />
      <trkpt lat="46.0641547" lon="11.1402237" />
      <trkpt lat="46.0640902" lon="11.1402857" />
      <trkpt lat="46.0640032" lon="11.1404231" />
      <trkpt lat="46.0639271" lon="11.1405716" />
      <trkpt lat="46.0638470" lon="11.1406369" />
      <trkpt lat="46.0637605" lon="11.1406839" />
      <trkpt lat="46.0636776" lon="11.1406812" />
      <trkpt lat="46.0637605" lon="11.1406839" />
      <trkpt lat="46.0638470" lon="11.1406369" />
      <trkpt lat="46.0639271" lon="11.1405716" />
      <trkpt lat="46.0640032" lon="11.1404231" />
      <trkpt lat="46.0640902" lon="11.1402857" />
      <trkpt lat="46.0641547" lon="11.1402237" />
      <trkpt lat="46.0641905" lon="11.1401798" />
      <trkpt lat="46.0642570" lon="11.1401823" />
      <trkpt lat="46.0643090" lon="11.1402133" />
      <trkpt lat="46.0645244" lon="11.1404727" />
      <trkpt lat="46.0647590" lon="11.1408660" />
      <trkpt lat="46.0649791" lon="11.1411218" />
      <trkpt lat="46.0650524" lon="11.1411580" />
      <trkpt lat="46.0650618" lon="11.1411617" />
      <trkpt lat="46.0650524" lon="11.1411580" />
      <trkpt lat="46.0649791" lon="11.1411218" />
      <trkpt lat="46.0647590" lon="11.1408660" />
      <trkpt lat="46.0645244" lon="11.1404727" />
      <trkpt lat="46.0643090" lon="11.1402133" />
      <trkpt lat="46.0642570" lon="11.1401823" />
      <trkpt lat="46.0642929" lon="11.1400910" />
      <trkpt lat="46.0644162" lon="11.1399464" />
      <trkpt lat="46.0644945" lon="11.1397256" />
      <trkpt lat="46.0644880" lon="11.1394936" />
      <trkpt lat="46.0646173" lon="11.1395669" />
      <trkpt lat="46.0646273" lon="11.1389956" />
      <trkpt lat="46.0646312" lon="11.1387717" />
      <trkpt lat="46.0646412" lon="11.1381976" />
      <trkpt lat="46.0647679" lon="11.1382004" />
      <trkpt lat="46.0649079" lon="11.1382576" />
      <trkpt lat="46.0650432" lon="11.1383625" />
      <trkpt lat="46.0651723" lon="11.1384323" />
      <trkpt lat="46.0652670" lon="11.1385947" />
      <trkpt lat="46.0653871" lon="11.1389783" />
      <trkpt lat="46.0660191" lon="11.1390155" />
      <trkpt lat="46.0660903" lon="11.1390197" />
      <trkpt lat="46.0667294" lon="11.1390573" />
      <trkpt lat="46.0668825" lon="11.1390605" />
      <trkpt lat="46.0670358" lon="11.1390638" />
      <trkpt lat="46.0670461" lon="11.1390656" />
      <trkpt lat="46.0670504" lon="11.1389100" />
      <trkpt lat="46.0670564" lon="11.1388956" />
      <trkpt lat="46.0670679" lon="11.1388899" />
      <trkpt lat="46.0671999" lon="11.1388958" />
      <trkpt lat="46.0672029" lon="11.1389612" />
      <trkpt lat="46.0672167" lon="11.1389683" />
      <trkpt lat="46.0672485" lon="11.1389416" />
      <trkpt lat="46.0672018" lon="11.1388340" />
      <trkpt lat="46.0672139" lon="11.1384187" />
      <trkpt lat="46.0672428" lon="11.1381262" />
      <trkpt lat="46.0672673" lon="11.1379769" />
      <trkpt lat="46.0672811" lon="11.1379453" />
      <trkpt lat="46.0673044" lon="11.1379228" />
      <trkpt lat="46.0673334" lon="11.1379089" />
      <trkpt lat="46.0674600" lon="11.1378857" />
      <trkpt lat="46.0674755" lon="11.1378670" />
      <trkpt lat="46.0674839" lon="11.1378480" />
      <trkpt lat="46.0674844" lon="11.1378302" />
      <trkpt lat="46.0674781" lon="11.1378045" />
      <trkpt lat="46.0674645" lon="11.1377797" />
      <trkpt lat="46.0674334" lon="11.1377372" />
      <trkpt lat="46.0672873" lon="11.1375379" />
      <trkpt lat="46.0672737" lon="11.1375247" />
      <trkpt lat="46.0672612" lon="11.1375183" />
      <trkpt lat="46.0672487" lon="11.1375201" />
      <trkpt lat="46.0672370" lon="11.1375263" />
      <trkpt lat="46.0671988" lon="11.1375605" />
      <trkpt lat="46.0671663" lon="11.1375921" />
      <trkpt lat="46.0671660" lon="11.1376322" />
      <trkpt lat="46.0670802" lon="11.1377169" />
      <trkpt lat="46.0669672" lon="11.1378062" />
      <trkpt lat="46.0668210" lon="11.1379077" />
      <trkpt lat="46.0667853" lon="11.1379095" />
      <trkpt lat="46.0667497" lon="11.1378942" />
      <trkpt lat="46.0667303" lon="11.1378635" />
      <trkpt lat="46.0667252" lon="11.1378211" />
      <trkpt lat="46.0667252" lon="11.1377652" />
      <trkpt lat="46.0667396" lon="11.1377101" />
      <trkpt lat="46.0667622" lon="11.1376849" />
      <trkpt lat="46.0667928" lon="11.1376497" />
      <trkpt lat="46.0669366" lon="11.1373238" />
      <trkpt lat="46.0669392" lon="11.1372900" />
      <trkpt lat="46.0669262" lon="11.1371301" />
      <trkpt lat="46.0669119" lon="11.1370406" />
      <trkpt lat="46.0668957" lon="11.1370294" />
      <trkpt lat="46.0668630" lon="11.1370144" />
      <trkpt lat="46.0668043" lon="11.1369847" />
      <trkpt lat="46.0667427" lon="11.1369357" />
      <trkpt lat="46.0666097" lon="11.1367658" />
      <trkpt lat="46.0666011" lon="11.1367615" />
      <trkpt lat="46.0665653" lon="11.1367554" />
      <trkpt lat="46.0664807" lon="11.1367333" />
      <trkpt lat="46.0663618" lon="11.1366839" />
      <trkpt lat="46.0663092" lon="11.1366570" />
      <trkpt lat="46.0662155" lon="11.1365977" />
      <trkpt lat="46.0661586" lon="11.1365284" />
      <trkpt lat="46.0660516" lon="11.1363747" />
      <trkpt lat="46.0659041" lon="11.1361217" />
      <trkpt lat="46.0658664" lon="11.1360698" />
      <trkpt lat="46.0657572" lon="11.1359521" />
      <trkpt lat="46.0657268" lon="11.1359380" />
      <trkpt lat="46.0656340" lon="11.1359161" />
      <trkpt lat="46.0655964" lon="11.1359023" />
      <trkpt lat="46.0654938" lon="11.1358506" />
      <trkpt lat="46.0654131" lon="11.1357890" />
      <trkpt lat="46.0653527" lon="11.1357398" />
      <trkpt lat="46.0652385" lon="11.1356027" />
      <trkpt lat="46.0651792" lon="11.1354971" />
      <trkpt lat="46.0651491" lon="11.1354441" />
      <trkpt lat="46.0651249" lon="11.1354976" />
      <trkpt lat="46.0649644" lon="11.1357256" />
      <trkpt lat="46.0649292" lon="11.1357846" />
      <trkpt lat="46.0649227" lon="11.1357751" />
      <trkpt lat="46.0649073" lon="11.1357966" />
      <trkpt lat="46.0647416" lon="11.1360277" />
      <trkpt lat="46.0647329" lon="11.1360399" />
      <trkpt lat="46.0643913" lon="11.1355207" />
      <trkpt lat="46.0643430" lon="11.1355222" />
      <trkpt lat="46.0643031" lon="11.1355235" />
      <trkpt lat="46.0642302" lon="11.1354115" />
      <trkpt lat="46.0641053" lon="11.1352279" />
      <trkpt lat="46.0640869" lon="11.1351979" />
      <trkpt lat="46.0636104" lon="11.1345006" />
      <trkpt lat="46.0635996" lon="11.1344920" />
      <trkpt lat="46.0635831" lon="11.1344688" />
      <trkpt lat="46.0632217" lon="11.1350092" />
      <trkpt lat="46.0631931" lon="11.1350282" />
      <trkpt lat="46.0631653" lon="11.1350261" />
      <trkpt lat="46.0629823" lon="11.1347616" />
      <trkpt lat="46.0629520" lon="11.1347179" />
      <trkpt lat="46.0629316" lon="11.1347486" />
      <trkpt lat="46.0627621" lon="11.1345177" />
      <trkpt lat="46.0627322" lon="11.1344744" />
      <trkpt lat="46.0627026" lon="11.1344228" />
      <trkpt lat="46.0626984" lon="11.1344106" />
      <trkpt lat="46.0623913" lon="11.1339683" />
      <trkpt lat="46.0622441" lon="11.1337562" />
      <trkpt lat="46.0622679" lon="11.1337218" />
      <trkpt lat="46.0622160" lon="11.1336476" />
      <trkpt lat="46.0622405" lon="11.1336130" />
      <trkpt lat="46.0620137" lon="11.1332845" />
      <trkpt lat="46.0620109" lon="11.1332676" />
      <trkpt lat="46.0620137" lon="11.1332531" />
      <trkpt lat="46.0620378" lon="11.1332189" />
      <trkpt lat="46.0623792" lon="11.1327271" />
      <trkpt lat="46.0623896" lon="11.1327116" />
      <trkpt lat="46.0624117" lon="11.1326803" />
      <trkpt lat="46.0624294" lon="11.1326552" />
      <trkpt lat="46.0624164" lon="11.1326354" />
      <trkpt lat="46.0624260" lon="11.1326255" />
      <trkpt lat="46.0625729" lon="11.1324110" />
      <trkpt lat="46.0625831" lon="11.1323963" />
      <trkpt lat="46.0625490" lon="11.1323468" />
      <trkpt lat="46.0625891" lon="11.1322896" />
      <trkpt lat="46.0625848" lon="11.1322829" />
      <trkpt lat="46.0625700" lon="11.1322529" />
      <trkpt lat="46.0625631" lon="11.1322175" />
      <trkpt lat="46.0625628" lon="11.1322040" />
      <trkpt lat="46.0625651" lon="11.1321808" />
      <trkpt lat="46.0625757" lon="11.1321473" />
      <trkpt lat="46.0625936" lon="11.1321210" />
      <trkpt lat="46.0626166" lon="11.1321051" />
      <trkpt lat="46.0626420" lon="11.1321016" />
      <trkpt lat="46.0626471" lon="11.1321025" />
      <trkpt lat="46.0626449" lon="11.1320628" />
      <trkpt lat="46.0626509" lon="11.1319813" />
      <trkpt lat="46.0626699" lon="11.1318863" />
      <trkpt lat="46.0626382" lon="11.1318565" />
      <trkpt lat="46.0626426" lon="11.1318358" />
      <trkpt lat="46.0626498" lon="11.1318026" />
      <trkpt lat="46.0628345" lon="11.1309414" />
      <trkpt lat="46.0626514" lon="11.1306581" />
      <trkpt lat="46.0626054" lon="11.1305882" />
      <trkpt lat="46.0621955" lon="11.1299818" />
      <trkpt lat="46.0618113" lon="11.1293928" />
      <trkpt lat="46.0618467" lon="11.1293461" />
      <trkpt lat="46.0617407" lon="11.1291851" />
      <trkpt lat="46.0617865" lon="11.1291111" />
      <trkpt lat="46.0618136" lon="11.1290575" />
      <trkpt lat="46.0618751" lon="11.1289637" />
      <trkpt lat="46.0620828" lon="11.1286578" />
      <trkpt lat="46.0622669" lon="11.1283922" />
      <trkpt lat="46.0622527" lon="11.1283717" />
      <trkpt lat="46.0622315" lon="11.1283417" />
      <trkpt lat="46.0622724" lon="11.1282722" />
      <trkpt lat="46.0622197" lon="11.1282033" />
      <trkpt lat="46.0621012" lon="11.1280138" />
      <trkpt lat="46.0620589" lon="11.1279242" />
      <trkpt lat="46.0620219" lon="11.1278179" />
      <trkpt lat="46.0619901" lon="11.1276877" />
      <trkpt lat="46.0619717" lon="11.1275611" />
      <trkpt lat="46.0619655" lon="11.1275182" />
      <trkpt lat="46.0619626" lon="11.1274877" />
      <trkpt lat="46.0619304" lon="11.1274885" />
      <trkpt lat="46.0619248" lon="11.1274887" />
      <trkpt lat="46.0619172" lon="11.1274050" />
      <trkpt lat="46.0618779" lon="11.1271296" />
      <trkpt lat="46.0618062" lon="11.1268721" />
      <trkpt lat="46.0618383" lon="11.1268290" />
      <trkpt lat="46.0618146" lon="11.1267563" />
      <trkpt lat="46.0618098" lon="11.1267415" />
      <trkpt lat="46.0618009" lon="11.1267141" />
      <trkpt lat="46.0618237" lon="11.1266934" />
      <trkpt lat="46.0617542" lon="11.1265112" />
      <trkpt lat="46.0617495" lon="11.1264930" />
      <trkpt lat="46.0617500" lon="11.1264687" />
      <trkpt lat="46.0617632" lon="11.1264475" />
      <trkpt lat="46.0617942" lon="11.1264179" />
      <trkpt lat="46.0622554" lon="11.1259733" />
      <trkpt lat="46.0623026" lon="11.1259092" />
      <trkpt lat="46.0622871" lon="11.1258701" />
      <trkpt lat="46.0622666" lon="11.1258210" />
      <trkpt lat="46.0622829" lon="11.1257975" />
      <trkpt lat="46.0622923" lon="11.1257732" />
      <trkpt lat="46.0622971" lon="11.1257512" />
      <trkpt lat="46.0622980" lon="11.1257316" />
      <trkpt lat="46.0622931" lon="11.1257084" />
      <trkpt lat="46.0621728" lon="11.1253451" />
      <trkpt lat="46.0619675" lon="11.1246202" />
      <trkpt lat="46.0618785" lon="11.1243081" />
      <trkpt lat="46.0618570" lon="11.1242836" />
      <trkpt lat="46.0618353" lon="11.1242356" />
      <trkpt lat="46.0618152" lon="11.1241912" />
      <trkpt lat="46.0618952" lon="11.1241546" />
      <trkpt lat="46.0619549" lon="11.1241273" />
      <trkpt lat="46.0619488" lon="11.1240793" />
      <trkpt lat="46.0620044" lon="11.1240464" />
      <trkpt lat="46.0621371" lon="11.1240100" />
      <trkpt lat="46.0621322" lon="11.1239552" />
      <trkpt lat="46.0621276" lon="11.1239028" />
      <trkpt lat="46.0621196" lon="11.1238157" />
      <trkpt lat="46.0625659" lon="11.1237170" />
      <trkpt lat="46.0625912" lon="11.1237114" />
      <trkpt lat="46.0626627" lon="11.1236956" />
      <trkpt lat="46.0626879" lon="11.1236900" />
      <trkpt lat="46.0632487" lon="11.1235607" />
      <trkpt lat="46.0632753" lon="11.1235553" />
      <trkpt lat="46.0632716" lon="11.1235258" />
      <trkpt lat="46.0632434" lon="11.1233313" />
      <trkpt lat="46.0631926" lon="11.1231619" />
      <trkpt lat="46.0631418" lon="11.1226600" />
      <trkpt lat="46.0630987" lon="11.1226025" />
      <trkpt lat="46.0626247" lon="11.1226496" />
      <trkpt lat="46.0630987" lon="11.1226025" />
      <trkpt lat="46.0630900" lon="11.1222821" />
      <trkpt lat="46.0630769" lon="11.1218013" />
      <trkpt lat="46.0630750" lon="11.1216781" />
      <trkpt lat="46.0630008" lon="11.1216637" />
      <trkpt lat="46.0627849" lon="11.1216219" />
      <trkpt lat="46.0627290" lon="11.1216188" />
      <trkpt lat="46.0624505" lon="11.1216299" />
      <trkpt lat="46.0624410" lon="11.1216302" />
      <trkpt lat="46.0621711" lon="11.1216454" />
      <trkpt lat="46.0621300" lon="11.1216464" />
      <trkpt lat="46.0621261" lon="11.1215832" />
      <trkpt lat="46.0621128" lon="11.1215839" />
      <trkpt lat="46.0620860" lon="11.1215857" />
      <trkpt lat="46.0615823" lon="11.1216393" />
      <trkpt lat="46.0614434" lon="11.1216616" />
      <trkpt lat="46.0614419" lon="11.1216311" />
      <trkpt lat="46.0614345" lon="11.1214648" />
      <trkpt lat="46.0614333" lon="11.1214411" />
      <trkpt lat="46.0614097" lon="11.1209777" />
      <trkpt lat="46.0614088" lon="11.1209608" />
      <trkpt lat="46.0613606" lon="11.1201497" />
      <trkpt lat="46.0613483" lon="11.1199306" />
      <trkpt lat="46.0613217" lon="11.1194579" />
      <trkpt lat="46.0613196" lon="11.1194199" />
      <trkpt lat="46.0613122" lon="11.1192892" />
      <trkpt lat="46.0613030" lon="11.1191248" />
      <trkpt lat="46.0612990" lon="11.1190543" />
      <trkpt lat="46.0613694" lon="11.1190543" />
      <trkpt lat="46.0615069" lon="11.1190521" />
      <trkpt lat="46.0616406" lon="11.1190502" />
      <trkpt lat="46.0616509" lon="11.1190508" />
      <trkpt lat="46.0616935" lon="11.1190533" />
      <trkpt lat="46.0619071" lon="11.1190949" />
      <trkpt lat="46.0622174" lon="11.1191455" />
      <trkpt lat="46.0623035" lon="11.1191514" />
      <trkpt lat="46.0623681" lon="11.1191475" />
      <trkpt lat="46.0624147" lon="11.1191413" />
      <trkpt lat="46.0624700" lon="11.1191342" />
      <trkpt lat="46.0624680" lon="11.1190822" />
      <trkpt lat="46.0624647" lon="11.1189964" />
      <trkpt lat="46.0629586" lon="11.1189469" />
      <trkpt lat="46.0630534" lon="11.1189607" />
      <trkpt lat="46.0630759" lon="11.1189645" />
      <trkpt lat="46.0630969" lon="11.1189680" />
      <trkpt lat="46.0631943" lon="11.1190122" />
      <trkpt lat="46.0632779" lon="11.1190730" />
      <trkpt lat="46.0632984" lon="11.1190880" />
      <trkpt lat="46.0633241" lon="11.1191069" />
      <trkpt lat="46.0632975" lon="11.1188274" />
      <trkpt lat="46.0635312" lon="11.1187812" />
      <trkpt lat="46.0635304" lon="11.1187710" />
      <trkpt lat="46.0634638" lon="11.1179318" />
      <trkpt lat="46.0633950" lon="11.1170509" />
      <trkpt lat="46.0634299" lon="11.1169932" />
      <trkpt lat="46.0635353" lon="11.1168949" />
      <trkpt lat="46.0641805" lon="11.1167941" />
      <trkpt lat="46.0644674" lon="11.1167469" />
      <trkpt lat="46.0645052" lon="11.1167422" />
      <trkpt lat="46.0645336" lon="11.1167401" />
      <trkpt lat="46.0645821" lon="11.1167575" />
      <trkpt lat="46.0648460" lon="11.1166995" />
      <trkpt lat="46.0649438" lon="11.1166932" />
      <trkpt lat="46.0650448" lon="11.1167071" />
      <trkpt lat="46.0651046" lon="11.1172245" />
      <trkpt lat="46.0651532" lon="11.1172758" />
      <trkpt lat="46.0651934" lon="11.1177089" />
      <trkpt lat="46.0652397" lon="11.1176989" />
      <trkpt lat="46.0656754" lon="11.1176028" />
      <trkpt lat="46.0661061" lon="11.1175142" />
      <trkpt lat="46.0664518" lon="11.1174437" />
      <trkpt lat="46.0661061" lon="11.1175142" />
      <trkpt lat="46.0656754" lon="11.1176028" />
      <trkpt lat="46.0652397" lon="11.1176989" />
      <trkpt lat="46.0651934" lon="11.1177089" />
      <trkpt lat="46.0651532" lon="11.1172758" />
      <trkpt lat="46.0651046" lon="11.1172245" />
      <trkpt lat="46.0650448" lon="11.1167071" />
      <trkpt lat="46.0649438" lon="11.1166932" />
      <trkpt lat="46.0648460" lon="11.1166995" />
      <trkpt lat="46.0645821" lon="11.1167575" />
      <trkpt lat="46.0645336" lon="11.1167401" />
      <trkpt lat="46.0645052" lon="11.1167422" />
      <trkpt lat="46.0644674" lon="11.1167469" />
      <trkpt lat="46.0641805" lon="11.1167941" />
      <trkpt lat="46.0635353" lon="11.1168949" />
      <trkpt lat="46.0634299" lon="11.1169932" />
      <trkpt lat="46.0633950" lon="11.1170509" />
      <trkpt lat="46.0634638" lon="11.1179318" />
      <trkpt lat="46.0635304" lon="11.1187710" />
      <trkpt lat="46.0635312" lon="11.1187812" />
      <trkpt lat="46.0632975" lon="11.1188274" />
      <trkpt lat="46.0633241" lon="11.1191069" />
      <trkpt lat="46.0632984" lon="11.1190880" />
      <trkpt lat="46.0632779" lon="11.1190730" />
      <trkpt lat="46.0631943" lon="11.1190122" />
      <trkpt lat="46.0630969" lon="11.1189680" />
      <trkpt lat="46.0630759" lon="11.1189645" />
      <trkpt lat="46.0630534" lon="11.1189607" />
      <trkpt lat="46.0629586" lon="11.1189469" />
      <trkpt lat="46.0624647" lon="11.1189964" />
      <trkpt lat="46.0624680" lon="11.1190822" />
      <trkpt lat="46.0624700" lon="11.1191342" />
      <trkpt lat="46.0624147" lon="11.1191413" />
      <trkpt lat="46.0623681" lon="11.1191475" />
      <trkpt lat="46.0623035" lon="11.1191514" />
      <trkpt lat="46.0622174" lon="11.1191455" />
      <trkpt lat="46.0619071" lon="11.1190949" />
      <trkpt lat="46.0616935" lon="11.1190533" />
      <trkpt lat="46.0616509" lon="11.1190508" />
      <trkpt lat="46.0616406" lon="11.1190502" />
      <trkpt lat="46.0615069" lon="11.1190521" />
      <trkpt lat="46.0613694" lon="11.1190543" />
      <trkpt lat="46.0612990" lon="11.1190543" />
      <trkpt lat="46.0613030" lon="11.1191248" />
      <trkpt lat="46.0613122" lon="11.1192892" />
      <trkpt lat="46.0613196" lon="11.1194199" />
      <trkpt lat="46.0613217" lon="11.1194579" />
      <trkpt lat="46.0613483" lon="11.1199306" />
      <trkpt lat="46.0613606" lon="11.1201497" />
      <trkpt lat="46.0614088" lon="11.1209608" />
      <trkpt lat="46.0614097" lon="11.1209777" />
      <trkpt lat="46.0614333" lon="11.1214411" />
      <trkpt lat="46.0614345" lon="11.1214648" />
      <trkpt lat="46.0614419" lon="11.1216311" />
      <trkpt lat="46.0614434" lon="11.1216616" />
      <trkpt lat="46.0615823" lon="11.1216393" />
      <trkpt lat="46.0620860" lon="11.1215857" />
      <trkpt lat="46.0621128" lon="11.1215839" />
      <trkpt lat="46.0621261" lon="11.1215832" />
      <trkpt lat="46.0621300" lon="11.1216464" />
      <trkpt lat="46.0621711" lon="11.1216454" />
      <trkpt lat="46.0624410" lon="11.1216302" />
      <trkpt lat="46.0624505" lon="11.1216299" />
      <trkpt lat="46.0627290" lon="11.1216188" />
      <trkpt lat="46.0627849" lon="11.1216219" />
      <trkpt lat="46.0630008" lon="11.1216637" />
      <trkpt lat="46.0630750" lon="11.1216781" />
      <trkpt lat="46.0630769" lon="11.1218013" />
      <trkpt lat="46.0630900" lon="11.1222821" />
      <trkpt lat="46.0630987" lon="11.1226025" />
      <trkpt lat="46.0631418" lon="11.1226600" />
      <trkpt lat="46.0631926" lon="11.1231619" />
      <trkpt lat="46.0632434" lon="11.1233313" />
      <trkpt lat="46.0632716" lon="11.1235258" />
      <trkpt lat="46.0632753" lon="11.1235553" />
      <trkpt lat="46.0633083" lon="11.1235472" />
      <trkpt lat="46.0633491" lon="11.1235396" />
      <trkpt lat="46.0633813" lon="11.1235336" />
      <trkpt lat="46.0634689" lon="11.1235186" />
      <trkpt lat="46.0636508" lon="11.1234843" />
      <trkpt lat="46.0638424" lon="11.1234467" />
      <trkpt lat="46.0638742" lon="11.1234404" />
      <trkpt lat="46.0639387" lon="11.1233923" />
      <trkpt lat="46.0642256" lon="11.1233062" />
      <trkpt lat="46.0643963" lon="11.1232760" />
      <trkpt lat="46.0645542" lon="11.1232607" />
      <trkpt lat="46.0645944" lon="11.1232574" />
      <trkpt lat="46.0647165" lon="11.1232431" />
      <trkpt lat="46.0647179" lon="11.1232609" />
      <trkpt lat="46.0648091" lon="11.1232416" />
      <trkpt lat="46.0648437" lon="11.1232342" />
      <trkpt lat="46.0648757" lon="11.1232274" />
      <trkpt lat="46.0649144" lon="11.1232038" />
      <trkpt lat="46.0649340" lon="11.1231560" />
      <trkpt lat="46.0650668" lon="11.1231370" />
      <trkpt lat="46.0651035" lon="11.1231638" />
      <trkpt lat="46.0651514" lon="11.1231779" />
      <trkpt lat="46.0651994" lon="11.1231586" />
      <trkpt lat="46.0652342" lon="11.1231340" />
      <trkpt lat="46.0653655" lon="11.1230951" />
      <trkpt lat="46.0654001" lon="11.1231014" />
      <trkpt lat="46.0655279" lon="11.1230558" />
      <trkpt lat="46.0657344" lon="11.1229534" />
      <trkpt lat="46.0660796" lon="11.1227720" />
      <trkpt lat="46.0662400" lon="11.1226907" />
      <trkpt lat="46.0662774" lon="11.1225941" />
      <trkpt lat="46.0663306" lon="11.1225479" />
      <trkpt lat="46.0663604" lon="11.1225220" />
      <trkpt lat="46.0665144" lon="11.1224055" />
      <trkpt lat="46.0663604" lon="11.1225220" />
      <trkpt lat="46.0663306" lon="11.1225479" />
      <trkpt lat="46.0662774" lon="11.1225941" />
      <trkpt lat="46.0662400" lon="11.1226907" />
      <trkpt lat="46.0660796" lon="11.1227720" />
      <trkpt lat="46.0657344" lon="11.1229534" />
      <trkpt lat="46.0655279" lon="11.1230558" />
      <trkpt lat="46.0654001" lon="11.1231014" />
      <trkpt lat="46.0653655" lon="11.1230951" />
      <trkpt lat="46.0652342" lon="11.1231340" />
      <trkpt lat="46.0651994" lon="11.1231586" />
      <trkpt lat="46.0651514" lon="11.1231779" />
      <trkpt lat="46.0651035" lon="11.1231638" />
      <trkpt lat="46.0650668" lon="11.1231370" />
      <trkpt lat="46.0649340" lon="11.1231560" />
      <trkpt lat="46.0649144" lon="11.1232038" />
      <trkpt lat="46.0648757" lon="11.1232274" />
      <trkpt lat="46.0648437" lon="11.1232342" />
      <trkpt lat="46.0648091" lon="11.1232416" />
      <trkpt lat="46.0647179" lon="11.1232609" />
      <trkpt lat="46.0647165" lon="11.1232431" />
      <trkpt lat="46.0645944" lon="11.1232574" />
      <trkpt lat="46.0645542" lon="11.1232607" />
      <trkpt lat="46.0643963" lon="11.1232760" />
      <trkpt lat="46.0642256" lon="11.1233062" />
      <trkpt lat="46.0639387" lon="11.1233923" />
      <trkpt lat="46.0638742" lon="11.1234404" />
      <trkpt lat="46.0638424" lon="11.1234467" />
      <trkpt lat="46.0636508" lon="11.1234843" />
      <trkpt lat="46.0634689" lon="11.1235186" />
      <trkpt lat="46.0633813" lon="11.1235336" />
      <trkpt lat="46.0633491" lon="11.1235396" />
      <trkpt lat="46.0633083" lon="11.1235472" />
      <trkpt lat="46.0632753" lon="11.1235553" />
      <trkpt lat="46.0632716" lon="11.1235258" />
      <trkpt lat="46.0632434" lon="11.1233313" />
      <trkpt lat="46.0631926" lon="11.1231619" />
      <trkpt lat="46.0631418" lon="11.1226600" />
      <trkpt lat="46.0630987" lon="11.1226025" />
      <trkpt lat="46.0626247" lon="11.1226496" />
      <trkpt lat="46.0630987" lon="11.1226025" />
      <trkpt lat="46.0631418" lon="11.1226600" />
      <trkpt lat="46.0631926" lon="11.1231619" />
      <trkpt lat="46.0632434" lon="11.1233313" />
      <trkpt lat="46.0632716" lon="11.1235258" />
      <trkpt lat="46.0632753" lon="11.1235553" />
      <trkpt lat="46.0632487" lon="11.1235607" />
      <trkpt lat="46.0626879" lon="11.1236900" />
      <trkpt lat="46.0626627" lon="11.1236956" />
      <trkpt lat="46.0625912" lon="11.1237114" />
      <trkpt lat="46.0625659" lon="11.1237170" />
      <trkpt lat="46.0621196" lon="11.1238157" />
      <trkpt lat="46.0621276" lon="11.1239028" />
      <trkpt lat="46.0621322" lon="11.1239552" />
      <trkpt lat="46.0621371" lon="11.1240100" />
      <trkpt lat="46.0620044" lon="11.1240464" />
      <trkpt lat="46.0619488" lon="11.1240793" />
      <trkpt lat="46.0619549" lon="11.1241273" />
      <trkpt lat="46.0618952" lon="11.1241546" />
      <trkpt lat="46.0618152" lon="11.1241912" />
      <trkpt lat="46.0618353" lon="11.1242356" />
      <trkpt lat="46.0618570" lon="11.1242836" />
      <trkpt lat="46.0618785" lon="11.1243081" />
      <trkpt lat="46.0619675" lon="11.1246202" />
      <trkpt lat="46.0621728" lon="11.1253451" />
      <trkpt lat="46.0622931" lon="11.1257084" />
      <trkpt lat="46.0622980" lon="11.1257316" />
      <trkpt lat="46.0622971" lon="11.1257512" />
      <trkpt lat="46.0622923" lon="11.1257732" />
      <trkpt lat="46.0622829" lon="11.1257975" />
      <trkpt lat="46.0622666" lon="11.1258210" />
      <trkpt lat="46.0622871" lon="11.1258701" />
      <trkpt lat="46.0623026" lon="11.1259092" />
      <trkpt lat="46.0622554" lon="11.1259733" />
      <trkpt lat="46.0617942" lon="11.1264179" />
      <trkpt lat="46.0617632" lon="11.1264475" />
      <trkpt lat="46.0617500" lon="11.1264687" />
      <trkpt lat="46.0617495" lon="11.1264930" />
      <trkpt lat="46.0617542" lon="11.1265112" />
      <trkpt lat="46.0618237" lon="11.1266934" />
      <trkpt lat="46.0618009" lon="11.1267141" />
      <trkpt lat="46.0618098" lon="11.1267415" />
      <trkpt lat="46.0618146" lon="11.1267563" />
      <trkpt lat="46.0618383" lon="11.1268290" />
      <trkpt lat="46.0618062" lon="11.1268721" />
      <trkpt lat="46.0618779" lon="11.1271296" />
      <trkpt lat="46.0619172" lon="11.1274050" />
      <trkpt lat="46.0619248" lon="11.1274887" />
      <trkpt lat="46.0619304" lon="11.1274885" />
      <trkpt lat="46.0619626" lon="11.1274877" />
      <trkpt lat="46.0619655" lon="11.1275182" />
      <trkpt lat="46.0619717" lon="11.1275611" />
      <trkpt lat="46.0619901" lon="11.1276877" />
      <trkpt lat="46.0620219" lon="11.1278179" />
      <trkpt lat="46.0620589" lon="11.1279242" />
      <trkpt lat="46.0621012" lon="11.1280138" />
      <trkpt lat="46.0622197" lon="11.1282033" />
      <trkpt lat="46.0622724" lon="11.1282722" />
      <trkpt lat="46.0622315" lon="11.1283417" />
      <trkpt lat="46.0622527" lon="11.1283717" />
      <trkpt lat="46.0622669" lon="11.1283922" />
      <trkpt lat="46.0622832" lon="11.1283746" />
      <trkpt lat="46.0623076" lon="11.1283411" />
      <trkpt lat="46.0624524" lon="11.1285572" />
      <trkpt lat="46.0623076" lon="11.1283411" />
      <trkpt lat="46.0623285" lon="11.1283074" />
      <trkpt lat="46.0624776" lon="11.1280998" />
      <trkpt lat="46.0626158" lon="11.1278848" />
      <trkpt lat="46.0626840" lon="11.1278065" />
      <trkpt lat="46.0627643" lon="11.1277171" />
      <trkpt lat="46.0628305" lon="11.1276484" />
      <trkpt lat="46.0628982" lon="11.1275786" />
      <trkpt lat="46.0629580" lon="11.1275212" />
      <trkpt lat="46.0629757" lon="11.1274870" />
      <trkpt lat="46.0630095" lon="11.1274609" />
      <trkpt lat="46.0630302" lon="11.1274548" />
      <trkpt lat="46.0630826" lon="11.1274160" />
      <trkpt lat="46.0631147" lon="11.1273922" />
      <trkpt lat="46.0631350" lon="11.1273812" />
      <trkpt lat="46.0631828" lon="11.1273634" />
      <trkpt lat="46.0632162" lon="11.1273455" />
      <trkpt lat="46.0632440" lon="11.1273260" />
      <trkpt lat="46.0632780" lon="11.1273019" />
      <trkpt lat="46.0633086" lon="11.1273001" />
      <trkpt lat="46.0633401" lon="11.1273160" />
      <trkpt lat="46.0633472" lon="11.1272918" />
      <trkpt lat="46.0633619" lon="11.1272414" />
      <trkpt lat="46.0633767" lon="11.1271905" />
      <trkpt lat="46.0633842" lon="11.1271649" />
      <trkpt lat="46.0638484" lon="11.1274271" />
      <trkpt lat="46.0638498" lon="11.1273627" />
      <trkpt lat="46.0638621" lon="11.1269919" />
      <trkpt lat="46.0638924" lon="11.1260067" />
      <trkpt lat="46.0639138" lon="11.1254909" />
      <trkpt lat="46.0646134" lon="11.1257510" />
      <trkpt lat="46.0646625" lon="11.1257693" />
      <trkpt lat="46.0647192" lon="11.1257905" />
      <trkpt lat="46.0648337" lon="11.1251071" />
      <trkpt lat="46.0648757" lon="11.1251200" />
      <trkpt lat="46.0649106" lon="11.1249108" />
      <trkpt lat="46.0649462" lon="11.1246980" />
      <trkpt lat="46.0653241" lon="11.1248073" />
      <trkpt lat="46.0653182" lon="11.1248697" />
      <trkpt lat="46.0653773" lon="11.1248850" />
      <trkpt lat="46.0654415" lon="11.1249032" />
      <trkpt lat="46.0655194" lon="11.1248566" />
      <trkpt lat="46.0655564" lon="11.1249045" />
      <trkpt lat="46.0655880" lon="11.1249246" />
      <trkpt lat="46.0656223" lon="11.1249238" />
      <trkpt lat="46.0657065" lon="11.1254149" />
      <trkpt lat="46.0657986" lon="11.1255218" />
      <trkpt lat="46.0659888" lon="11.1256911" />
      <trkpt lat="46.0660046" lon="11.1256384" />
      <trkpt lat="46.0661835" lon="11.1257896" />
      <trkpt lat="46.0662258" lon="11.1258198" />
      <trkpt lat="46.0665218" lon="11.1260084" />
      <trkpt lat="46.0665128" lon="11.1257710" />
      <trkpt lat="46.0667623" lon="11.1259229" />
      <trkpt lat="46.0665128" lon="11.1257710" />
      <trkpt lat="46.0665218" lon="11.1260084" />
      <trkpt lat="46.0662258" lon="11.1258198" />
      <trkpt lat="46.0661835" lon="11.1257896" />
      <trkpt lat="46.0660046" lon="11.1256384" />
      <trkpt lat="46.0659888" lon="11.1256911" />
      <trkpt lat="46.0657986" lon="11.1255218" />
      <trkpt lat="46.0657065" lon="11.1254149" />
      <trkpt lat="46.0656223" lon="11.1249238" />
      <trkpt lat="46.0655880" lon="11.1249246" />
      <trkpt lat="46.0655564" lon="11.1249045" />
      <trkpt lat="46.0655194" lon="11.1248566" />
      <trkpt lat="46.0654415" lon="11.1249032" />
      <trkpt lat="46.0653773" lon="11.1248850" />
      <trkpt lat="46.0653182" lon="11.1248697" />
      <trkpt lat="46.0653241" lon="11.1248073" />
      <trkpt lat="46.0649462" lon="11.1246980" />
      <trkpt lat="46.0649106" lon="11.1249108" />
      <trkpt lat="46.0648757" lon="11.1251200" />
      <trkpt lat="46.0648337" lon="11.1251071" />
      <trkpt lat="46.0647192" lon="11.1257905" />
      <trkpt lat="46.0646625" lon="11.1257693" />
      <trkpt lat="46.0646134" lon="11.1257510" />
      <trkpt lat="46.0639138" lon="11.1254909" />
      <trkpt lat="46.0638924" lon="11.1260067" />
      <trkpt lat="46.0638621" lon="11.1269919" />
      <trkpt lat="46.0638498" lon="11.1273627" />
      <trkpt lat="46.0638484" lon="11.1274271" />
      <trkpt lat="46.0633842" lon="11.1271649" />
      <trkpt lat="46.0633767" lon="11.1271905" />
      <trkpt lat="46.0633619" lon="11.1272414" />
      <trkpt lat="46.0633472" lon="11.1272918" />
      <trkpt lat="46.0633401" lon="11.1273160" />
      <trkpt lat="46.0633086" lon="11.1273001" />
      <trkpt lat="46.0632780" lon="11.1273019" />
      <trkpt lat="46.0632440" lon="11.1273260" />
      <trkpt lat="46.0632162" lon="11.1273455" />
      <trkpt lat="46.0631828" lon="11.1273634" />
      <trkpt lat="46.0631350" lon="11.1273812" />
      <trkpt lat="46.0631147" lon="11.1273922" />
      <trkpt lat="46.0630826" lon="11.1274160" />
      <trkpt lat="46.0630302" lon="11.1274548" />
      <trkpt lat="46.0630095" lon="11.1274609" />
      <trkpt lat="46.0629757" lon="11.1274870" />
      <trkpt lat="46.0629580" lon="11.1275212" />
      <trkpt lat="46.0628982" lon="11.1275786" />
      <trkpt lat="46.0628305" lon="11.1276484" />
      <trkpt lat="46.0627643" lon="11.1277171" />
      <trkpt lat="46.0626840" lon="11.1278065" />
      <trkpt lat="46.0626158" lon="11.1278848" />
      <trkpt lat="46.0624776" lon="11.1280998" />
      <trkpt lat="46.0623285" lon="11.1283074" />
      <trkpt lat="46.0623076" lon="11.1283411" />
      <trkpt lat="46.0624524" lon="11.1285572" />
      <trkpt lat="46.0623076" lon="11.1283411" />
      <trkpt lat="46.0622832" lon="11.1283746" />
      <trkpt lat="46.0622669" lon="11.1283922" />
      <trkpt lat="46.0620828" lon="11.1286578" />
      <trkpt lat="46.0618751" lon="11.1289637" />
      <trkpt lat="46.0618136" lon="11.1290575" />
      <trkpt lat="46.0617865" lon="11.1291111" />
      <trkpt lat="46.0617407" lon="11.1291851" />
      <trkpt lat="46.0618467" lon="11.1293461" />
      <trkpt lat="46.0618113" lon="11.1293928" />
      <trkpt lat="46.0621955" lon="11.1299818" />
      <trkpt lat="46.0626054" lon="11.1305882" />
      <trkpt lat="46.0626514" lon="11.1306581" />
      <trkpt lat="46.0628345" lon="11.1309414" />
      <trkpt lat="46.0628666" lon="11.1309134" />
      <trkpt lat="46.0628961" lon="11.1309224" />
      <trkpt lat="46.0629175" lon="11.1307925" />
      <trkpt lat="46.0630206" lon="11.1307328" />
      <trkpt lat="46.0632391" lon="11.1308112" />
      <trkpt lat="46.0636034" lon="11.1309419" />
      <trkpt lat="46.0637262" lon="11.1309860" />
      <trkpt lat="46.0638130" lon="11.1310138" />
      <trkpt lat="46.0638479" lon="11.1310841" />
      <trkpt lat="46.0638587" lon="11.1311565" />
      <trkpt lat="46.0638530" lon="11.1312157" />
      <trkpt lat="46.0638292" lon="11.1312810" />
      <trkpt lat="46.0638505" lon="11.1312711" />
      <trkpt lat="46.0638498" lon="11.1313759" />
      <trkpt lat="46.0638865" lon="11.1313666" />
      <trkpt lat="46.0638968" lon="11.1312969" />
      <trkpt lat="46.0641949" lon="11.1312336" />
      <trkpt lat="46.0642238" lon="11.1312484" />
      <trkpt lat="46.0642254" lon="11.1313154" />
      <trkpt lat="46.0642683" lon="11.1313173" />
      <trkpt lat="46.0642601" lon="11.1317087" />
      <trkpt lat="46.0642595" lon="11.1317455" />
      <trkpt lat="46.0643034" lon="11.1317448" />
      <trkpt lat="46.0643031" lon="11.1317682" />
      <trkpt lat="46.0643019" lon="11.1318000" />
      <trkpt lat="46.0642915" lon="11.1320885" />
      <trkpt lat="46.0642896" lon="11.1321568" />
      <trkpt lat="46.0643000" lon="11.1321568" />
      <trkpt lat="46.0646441" lon="11.1322844" />
      <trkpt lat="46.0646888" lon="11.1323018" />
      <trkpt lat="46.0646529" lon="11.1325214" />
      <trkpt lat="46.0646484" lon="11.1327890" />
      <trkpt lat="46.0646537" lon="11.1328874" />
      <trkpt lat="46.0648218" lon="11.1329401" />
      <trkpt lat="46.0648328" lon="11.1329765" />
      <trkpt lat="46.0648525" lon="11.1329831" />
      <trkpt lat="46.0648605" lon="11.1329244" />
      <trkpt lat="46.0648765" lon="11.1329292" />
      <trkpt lat="46.0648891" lon="11.1329638" />
      <trkpt lat="46.0650257" lon="11.1330043" />
      <trkpt lat="46.0650723" lon="11.1326963" />
      <trkpt lat="46.0650883" lon="11.1325540" />
      <trkpt lat="46.0651460" lon="11.1323122" />
      <trkpt lat="46.0651576" lon="11.1322635" />
      <trkpt lat="46.0652426" lon="11.1320148" />
      <trkpt lat="46.0652484" lon="11.1319978" />
      <trkpt lat="46.0653207" lon="11.1317899" />
      <trkpt lat="46.0653454" lon="11.1318147" />
      <trkpt lat="46.0653630" lon="11.1318281" />
      <trkpt lat="46.0656630" lon="11.1320862" />
      <trkpt lat="46.0656410" lon="11.1321380" />
      <trkpt lat="46.0656790" lon="11.1321776" />
      <trkpt lat="46.0657065" lon="11.1322009" />
      <trkpt lat="46.0657298" lon="11.1322207" />
      <trkpt lat="46.0655801" lon="11.1326072" />
      <trkpt lat="46.0654450" lon="11.1329561" />
      <trkpt lat="46.0654039" lon="11.1330664" />
      <trkpt lat="46.0653306" lon="11.1332858" />
      <trkpt lat="46.0653070" lon="11.1333588" />
      <trkpt lat="46.0652801" lon="11.1334660" />
      <trkpt lat="46.0652354" lon="11.1336929" />
      <trkpt lat="46.0652243" lon="11.1337433" />
      <trkpt lat="46.0651984" lon="11.1340365" />
      <trkpt lat="46.0651966" lon="11.1340777" />
      <trkpt lat="46.0651899" lon="11.1342266" />
      <trkpt lat="46.0651779" lon="11.1346935" />
      <trkpt lat="46.0651793" lon="11.1349244" />
      <trkpt lat="46.0651805" lon="11.1351790" />
      <trkpt lat="46.0651878" lon="11.1353888" />
      <trkpt lat="46.0651993" lon="11.1354464" />
      <trkpt lat="46.0652294" lon="11.1353876" />
      <trkpt lat="46.0652257" lon="11.1353185" />
      <trkpt lat="46.0652307" lon="11.1351489" />
      <trkpt lat="46.0652582" lon="11.1349182" />
      <trkpt lat="46.0652528" lon="11.1348082" />
      <trkpt lat="46.0652515" lon="11.1347479" />
      <trkpt lat="46.0652661" lon="11.1347473" />
      <trkpt lat="46.0653027" lon="11.1347458" />
      <trkpt lat="46.0653116" lon="11.1347093" />
      <trkpt lat="46.0653728" lon="11.1345987" />
      <trkpt lat="46.0654969" lon="11.1344635" />
      <trkpt lat="46.0656665" lon="11.1342993" />
      <trkpt lat="46.0657486" lon="11.1341604" />
      <trkpt lat="46.0657571" lon="11.1340079" />
      <trkpt lat="46.0657813" lon="11.1338316" />
      <trkpt lat="46.0658182" lon="11.1337106" />
      <trkpt lat="46.0659064" lon="11.1335917" />
      <trkpt lat="46.0659961" lon="11.1335364" />
      <trkpt lat="46.0661184" lon="11.1334666" />
      <trkpt lat="46.0662051" lon="11.1334131" />
      <trkpt lat="46.0662619" lon="11.1333280" />
      <trkpt lat="46.0663238" lon="11.1332178" />
      <trkpt lat="46.0663697" lon="11.1330520" />
      <trkpt lat="46.0663806" lon="11.1329312" />
      <trkpt lat="46.0663643" lon="11.1327481" />
      <trkpt lat="46.0664177" lon="11.1327423" />
      <trkpt lat="46.0664657" lon="11.1327371" />
      <trkpt lat="46.0664829" lon="11.1327440" />
      <trkpt lat="46.0665852" lon="11.1327426" />
      <trkpt lat="46.0666226" lon="11.1327424" />
      <trkpt lat="46.0666480" lon="11.1327144" />
      <trkpt lat="46.0666584" lon="11.1327204" />
      <trkpt lat="46.0667270" lon="11.1326946" />
      <trkpt lat="46.0669880" lon="11.1325133" />
      <trkpt lat="46.0672379" lon="11.1323607" />
      <trkpt lat="46.0672805" lon="11.1323548" />
      <trkpt lat="46.0672983" lon="11.1323679" />
      <trkpt lat="46.0673167" lon="11.1323873" />
      <trkpt lat="46.0673138" lon="11.1324293" />
      <trkpt lat="46.0673167" lon="11.1323873" />
      <trkpt lat="46.0672983" lon="11.1323679" />
      <trkpt lat="46.0672805" lon="11.1323548" />
      <trkpt lat="46.0672379" lon="11.1323607" />
      <trkpt lat="46.0669880" lon="11.1325133" />
      <trkpt lat="46.0667270" lon="11.1326946" />
      <trkpt lat="46.0666584" lon="11.1327204" />
      <trkpt lat="46.0666480" lon="11.1327144" />
      <trkpt lat="46.0666226" lon="11.1327424" />
      <trkpt lat="46.0665852" lon="11.1327426" />
      <trkpt lat="46.0664829" lon="11.1327440" />
      <trkpt lat="46.0664657" lon="11.1327371" />
      <trkpt lat="46.0664177" lon="11.1327423" />
      <trkpt lat="46.0663643" lon="11.1327481" />
      <trkpt lat="46.0663806" lon="11.1329312" />
      <trkpt lat="46.0663697" lon="11.1330520" />
      <trkpt lat="46.0663238" lon="11.1332178" />
      <trkpt lat="46.0662619" lon="11.1333280" />
      <trkpt lat="46.0662051" lon="11.1334131" />
      <trkpt lat="46.0661184" lon="11.1334666" />
      <trkpt lat="46.0659961" lon="11.1335364" />
      <trkpt lat="46.0659064" lon="11.1335917" />
      <trkpt lat="46.0658182" lon="11.1337106" />
      <trkpt lat="46.0657813" lon="11.1338316" />
      <trkpt lat="46.0657571" lon="11.1340079" />
      <trkpt lat="46.0657486" lon="11.1341604" />
      <trkpt lat="46.0656665" lon="11.1342993" />
      <trkpt lat="46.0654969" lon="11.1344635" />
      <trkpt lat="46.0653728" lon="11.1345987" />
      <trkpt lat="46.0653116" lon="11.1347093" />
      <trkpt lat="46.0653027" lon="11.1347458" />
      <trkpt lat="46.0652661" lon="11.1347473" />
      <trkpt lat="46.0652515" lon="11.1347479" />
      <trkpt lat="46.0652528" lon="11.1348082" />
      <trkpt lat="46.0652582" lon="11.1349182" />
      <trkpt lat="46.0652307" lon="11.1351489" />
      <trkpt lat="46.0652257" lon="11.1353185" />
      <trkpt lat="46.0652294" lon="11.1353876" />
      <trkpt lat="46.0651993" lon="11.1354464" />
      <trkpt lat="46.0651878" lon="11.1353888" />
      <trkpt lat="46.0651805" lon="11.1351790" />
      <trkpt lat="46.0651793" lon="11.1349244" />
      <trkpt lat="46.0651779" lon="11.1346935" />
      <trkpt lat="46.0651899" lon="11.1342266" />
      <trkpt lat="46.0651966" lon="11.1340777" />
      <trkpt lat="46.0651984" lon="11.1340365" />
      <trkpt lat="46.0652243" lon="11.1337433" />
      <trkpt lat="46.0651955" lon="11.1337356" />
      <trkpt lat="46.0651583" lon="11.1337257" />
      <trkpt lat="46.0651066" lon="11.1337119" />
      <trkpt lat="46.0650944" lon="11.1337150" />
      <trkpt lat="46.0649989" lon="11.1337148" />
      <trkpt lat="46.0649854" lon="11.1334981" />
      <trkpt lat="46.0649877" lon="11.1332559" />
      <trkpt lat="46.0650257" lon="11.1330043" />
      <trkpt lat="46.0648891" lon="11.1329638" />
      <trkpt lat="46.0648765" lon="11.1329292" />
      <trkpt lat="46.0648605" lon="11.1329244" />
      <trkpt lat="46.0648525" lon="11.1329831" />
      <trkpt lat="46.0648328" lon="11.1329765" />
      <trkpt lat="46.0648218" lon="11.1329401" />
      <trkpt lat="46.0646537" lon="11.1328874" />
      <trkpt lat="46.0646484" lon="11.1327890" />
      <trkpt lat="46.0646529" lon="11.1325214" />
      <trkpt lat="46.0646888" lon="11.1323018" />
      <trkpt lat="46.0646441" lon="11.1322844" />
      <trkpt lat="46.0643000" lon="11.1321568" />
      <trkpt lat="46.0642896" lon="11.1321568" />
      <trkpt lat="46.0642915" lon="11.1320885" />
      <trkpt lat="46.0643019" lon="11.1318000" />
      <trkpt lat="46.0643031" lon="11.1317682" />
      <trkpt lat="46.0643034" lon="11.1317448" />
      <trkpt lat="46.0642595" lon="11.1317455" />
      <trkpt lat="46.0642601" lon="11.1317087" />
      <trkpt lat="46.0642683" lon="11.1313173" />
      <trkpt lat="46.0642254" lon="11.1313154" />
      <trkpt lat="46.0642238" lon="11.1312484" />
      <trkpt lat="46.0641949" lon="11.1312336" />
      <trkpt lat="46.0638968" lon="11.1312969" />
      <trkpt lat="46.0638865" lon="11.1313666" />
      <trkpt lat="46.0638498" lon="11.1313759" />
      <trkpt lat="46.0638505" lon="11.1312711" />
      <trkpt lat="46.0638292" lon="11.1312810" />
      <trkpt lat="46.0638530" lon="11.1312157" />
      <trkpt lat="46.0638587" lon="11.1311565" />
      <trkpt lat="46.0638479" lon="11.1310841" />
      <trkpt lat="46.0638130" lon="11.1310138" />
      <trkpt lat="46.0637262" lon="11.1309860" />
      <trkpt lat="46.0636034" lon="11.1309419" />
      <trkpt lat="46.0632391" lon="11.1308112" />
      <trkpt lat="46.0630206" lon="11.1307328" />
      <trkpt lat="46.0629175" lon="11.1307925" />
      <trkpt lat="46.0628961" lon="11.1309224" />
      <trkpt lat="46.0628666" lon="11.1309134" />
      <trkpt lat="46.0628345" lon="11.1309414" />
      <trkpt lat="46.0626514" lon="11.1306581" />
      <trkpt lat="46.0626054" lon="11.1305882" />
      <trkpt lat="46.0621955" lon="11.1299818" />
      <trkpt lat="46.0626054" lon="11.1305882" />
      <trkpt lat="46.0626514" lon="11.1306581" />
      <trkpt lat="46.0628345" lon="11.1309414" />
      <trkpt lat="46.0626498" lon="11.1318026" />
      <trkpt lat="46.0626426" lon="11.1318358" />
      <trkpt lat="46.0626382" lon="11.1318565" />
      <trkpt lat="46.0626699" lon="11.1318863" />
      <trkpt lat="46.0626509" lon="11.1319813" />
      <trkpt lat="46.0626449" lon="11.1320628" />
      <trkpt lat="46.0626471" lon="11.1321025" />
      <trkpt lat="46.0626420" lon="11.1321016" />
      <trkpt lat="46.0626166" lon="11.1321051" />
      <trkpt lat="46.0625936" lon="11.1321210" />
      <trkpt lat="46.0625757" lon="11.1321473" />
      <trkpt lat="46.0625651" lon="11.1321808" />
      <trkpt lat="46.0625628" lon="11.1322040" />
      <trkpt lat="46.0625631" lon="11.1322175" />
      <trkpt lat="46.0625700" lon="11.1322529" />
      <trkpt lat="46.0625848" lon="11.1322829" />
      <trkpt lat="46.0625891" lon="11.1322896" />
      <trkpt lat="46.0625490" lon="11.1323468" />
      <trkpt lat="46.0625831" lon="11.1323963" />
      <trkpt lat="46.0626157" lon="11.1324476" />
    </trkseg>
  </trk>
</gpx>
