<?xml version="1.0" encoding="UTF-8"?>
<gpx xmlns="http://www.topografix.com/GPX/1/1" version="1.1" creator="ShapeRoute route-engine">
  <metadata>
    <name>heart 5 km · 2026-09-22</name>
    <author>
      <name>ShapeRoute route-engine</name>
    </author>
    <time>2026-09-22T18:56:32Z</time>
  </metadata>
  <trk>
    <name>heart 5 km · 2026-09-22</name>
    <trkseg>
      <trkpt lat="46.0122000" lon="11.2986000" />
      <trkpt lat="46.0128827" lon="11.2988287" />
      <trkpt lat="46.0135147" lon="11.2992701" />
      <trkpt lat="46.0140790" lon="11.2998723" />
      <trkpt lat="46.0145553" lon="11.3006156" />
      <trkpt lat="46.0149211" lon="11.3014788" />
      <trkpt lat="46.0151566" lon="11.3024313" />
      <trkpt lat="46.0152494" lon="11.3034335" />
      <trkpt lat="46.0151977" lon="11.3044419" />
      <trkpt lat="46.0150085" lon="11.3054158" />
      <trkpt lat="46.0146939" lon="11.3063201" />
      <trkpt lat="46.0142678" lon="11.3071241" />
      <trkpt lat="46.0137444" lon="11.3077985" />
      <trkpt lat="46.0131399" lon="11.3083131" />
      <trkpt lat="46.0124750" lon="11.3086380" />
      <trkpt lat="46.0117774" lon="11.3087519" />
      <trkpt lat="46.0110785" lon="11.3086526" />
      <trkpt lat="46.0104055" lon="11.3083625" />
      <trkpt lat="46.0097737" lon="11.3079191" />
      <trkpt lat="46.0091867" lon="11.3073619" />
      <trkpt lat="46.0086405" lon="11.3067241" />
      <trkpt lat="46.0081279" lon="11.3060307" />
      <trkpt lat="46.0076408" lon="11.3053000" />
      <trkpt lat="46.0071712" lon="11.3045458" />
      <trkpt lat="46.0067118" lon="11.3037788" />
      <trkpt lat="46.0062555" lon="11.3030079" />
      <trkpt lat="46.0057955" lon="11.3022417" />
      <trkpt lat="46.0053247" lon="11.3014891" />
      <trkpt lat="46.0048358" lon="11.3007609" />
      <trkpt lat="46.0043206" lon="11.3000715" />
      <trkpt lat="46.0037693" lon="11.2994430" />
      <trkpt lat="46.0031697" lon="11.2989152" />
      <trkpt lat="46.0025055" lon="11.2986000" />
      <trkpt lat="46.0031697" lon="11.2982848" />
      <trkpt lat="46.0037693" lon="11.2977570" />
      <trkpt lat="46.0043206" lon="11.2971285" />
      <trkpt lat="46.0048358" lon="11.2964391" />
      <trkpt lat="46.0053247" lon="11.2957109" />
      <trkpt lat="46.0057955" lon="11.2949583" />
      <trkpt lat="46.0062555" lon="11.2941921" />
      <trkpt lat="46.0067118" lon="11.2934212" />
      <trkpt lat="46.0071712" lon="11.2926542" />
      <trkpt lat="46.0076408" lon="11.2919000" />
      <trkpt lat="46.0081279" lon="11.2911693" />
      <trkpt lat="46.0086405" lon="11.2904759" />
      <trkpt lat="46.0091867" lon="11.2898381" />
      <trkpt lat="46.0097737" lon="11.2892809" />
      <trkpt lat="46.0104055" lon="11.2888375" />
      <trkpt lat="46.0110785" lon="11.2885474" />
      <trkpt lat="46.0117774" lon="11.2884481" />
      <trkpt lat="46.0124750" lon="11.2885620" />
      <trkpt lat="46.0131399" lon="11.2888869" />
      <trkpt lat="46.0137444" lon="11.2894015" />
      <trkpt lat="46.0142678" lon="11.2900759" />
      <trkpt lat="46.0146939" lon="11.2908799" />
      <trkpt lat="46.0150085" lon="11.2917842" />
      <trkpt lat="46.0151977" lon="11.2927581" />
      <trkpt lat="46.0152494" lon="11.2937665" />
      <trkpt lat="46.0151566" lon="11.2947687" />
      <trkpt lat="46.0149211" lon="11.2957212" />
      <trkpt lat="46.0145553" lon="11.2965844" />
      <trkpt lat="46.0140790" lon="11.2973277" />
      <trkpt lat="46.0135147" lon="11.2979299" />
      <trkpt lat="46.0128827" lon="11.2983713" />
      <trkpt lat="46.0122000" lon="11.2986000" />
    </trkseg>
  </trk>
</gpx>
