<?xml version="1.0" encoding="UTF-8"?>
<gpx xmlns="http://www.topografix.com/GPX/1/1" version="1.1" creator="ShapeRoute route-engine">
  <metadata>
    <name>ghost 10 km · 2026-10-03</name>
    <author>
      <name>ShapeRoute route-engine</name>
    </author>
    <copyright author="OpenStreetMap contributors">
      <license>https://opendatacommons.org/licenses/odbl/1-0/</license>
    </copyright>
    <link href="https://www.openstreetmap.org/copyright">
      <text>© OpenStreetMap contributors</text>
    </link>
    <time>2026-10-03T20:06:11Z</time>
  </metadata>
  <wpt lat="46.0145657" lon="11.2985826">
    <name>Pause</name>
  </wpt>
  <wpt lat="46.0136830" lon="11.3013712">
    <name>Resume</name>
  </wpt>
  <wpt lat="46.0136830" lon="11.3013712">
    <name>Pause</name>
  </wpt>
  <wpt lat="46.0127931" lon="11.3047943">
    <name>Resume</name>
  </wpt>
  <trk>
    <name>ghost 10 km · 2026-10-03</name>
    <trkseg>
      <trkpt lat="46.0145657" lon="11.2985826" />
      <trkpt lat="46.0146356" lon="11.2986752" />
      <trkpt lat="46.0146840" lon="11.2986430" />
      <trkpt lat="46.0147200" lon="11.2986038" />
      <trkpt lat="46.0147775" lon="11.2986185" />
      <trkpt lat="46.0144647" lon="11.2992432" />
      <trkpt lat="46.0145138" lon="11.2993285" />
      <trkpt lat="46.0145811" lon="11.2994220" />
      <trkpt lat="46.0146771" lon="11.2995241" />
      <trkpt lat="46.0147999" lon="11.2995516" />
      <trkpt lat="46.0149522" lon="11.2994952" />
      <trkpt lat="46.0151116" lon="11.2994017" />
      <trkpt lat="46.0152529" lon="11.2994057" />
      <trkpt lat="46.0153721" lon="11.2994057" />
      <trkpt lat="46.0155092" lon="11.2994658" />
      <trkpt lat="46.0156523" lon="11.2995860" />
      <trkpt lat="46.0157648" lon="11.2997010" />
      <trkpt lat="46.0160338" lon="11.2998263" />
      <trkpt lat="46.0162066" lon="11.2999207" />
      <trkpt lat="46.0163497" lon="11.3000924" />
      <trkpt lat="46.0165426" lon="11.3003874" />
      <trkpt lat="46.0166596" lon="11.3005644" />
      <trkpt lat="46.0167475" lon="11.3007453" />
      <trkpt lat="46.0167848" lon="11.3008219" />
      <trkpt lat="46.0168507" lon="11.3010289" />
      <trkpt lat="46.0168864" lon="11.3012349" />
      <trkpt lat="46.0168268" lon="11.3013808" />
      <trkpt lat="46.0168036" lon="11.3014512" />
      <trkpt lat="46.0167136" lon="11.3017241" />
      <trkpt lat="46.0166736" lon="11.3019590" />
      <trkpt lat="46.0166319" lon="11.3021868" />
      <trkpt lat="46.0166719" lon="11.3023249" />
      <trkpt lat="46.0167927" lon="11.3026196" />
      <trkpt lat="46.0170292" lon="11.3030996" />
      <trkpt lat="46.0169338" lon="11.3032080" />
      <trkpt lat="46.0168363" lon="11.3033181" />
      <trkpt lat="46.0167352" lon="11.3033805" />
      <trkpt lat="46.0167054" lon="11.3034663" />
      <trkpt lat="46.0165981" lon="11.3035436" />
      <trkpt lat="46.0164968" lon="11.3036036" />
      <trkpt lat="46.0164478" lon="11.3036153" />
      <trkpt lat="46.0163277" lon="11.3035821" />
      <trkpt lat="46.0162763" lon="11.3033833" />
      <trkpt lat="46.0159521" lon="11.3039994" />
      <trkpt lat="46.0158616" lon="11.3043088" />
      <trkpt lat="46.0158599" lon="11.3046138" />
      <trkpt lat="46.0158816" lon="11.3050492" />
      <trkpt lat="46.0158840" lon="11.3050997" />
      <trkpt lat="46.0159255" lon="11.3059359" />
      <trkpt lat="46.0157910" lon="11.3057765" />
      <trkpt lat="46.0155139" lon="11.3054905" />
      <trkpt lat="46.0152822" lon="11.3052221" />
      <trkpt lat="46.0151701" lon="11.3059497" />
      <trkpt lat="46.0151054" lon="11.3064354" />
      <trkpt lat="46.0150883" lon="11.3065385" />
      <trkpt lat="46.0150461" lon="11.3067929" />
      <trkpt lat="46.0150210" lon="11.3076074" />
      <trkpt lat="46.0149475" lon="11.3085481" />
      <trkpt lat="46.0148886" lon="11.3084980" />
      <trkpt lat="46.0147663" lon="11.3085009" />
      <trkpt lat="46.0145486" lon="11.3085446" />
      <trkpt lat="46.0143280" lon="11.3085730" />
      <trkpt lat="46.0141429" lon="11.3085671" />
      <trkpt lat="46.0137875" lon="11.3085719" />
      <trkpt lat="46.0137052" lon="11.3085868" />
      <trkpt lat="46.0136430" lon="11.3086202" />
      <trkpt lat="46.0136139" lon="11.3086583" />
      <trkpt lat="46.0135936" lon="11.3086788" />
      <trkpt lat="46.0135640" lon="11.3086957" />
      <trkpt lat="46.0135413" lon="11.3086948" />
      <trkpt lat="46.0135225" lon="11.3086854" />
      <trkpt lat="46.0134812" lon="11.3086513" />
      <trkpt lat="46.0134568" lon="11.3086278" />
      <trkpt lat="46.0134044" lon="11.3085949" />
      <trkpt lat="46.0133450" lon="11.3085849" />
      <trkpt lat="46.0132950" lon="11.3086265" />
      <trkpt lat="46.0132379" lon="11.3086679" />
      <trkpt lat="46.0131735" lon="11.3087524" />
      <trkpt lat="46.0131139" lon="11.3088596" />
      <trkpt lat="46.0130617" lon="11.3091225" />
      <trkpt lat="46.0130319" lon="11.3092083" />
      <trkpt lat="46.0129761" lon="11.3092566" />
      <trkpt lat="46.0128792" lon="11.3092834" />
      <trkpt lat="46.0124877" lon="11.3093217" />
      <trkpt lat="46.0125018" lon="11.3092123" />
      <trkpt lat="46.0125287" lon="11.3087845" />
      <trkpt lat="46.0126690" lon="11.3068184" />
      <trkpt lat="46.0126749" lon="11.3067415" />
      <trkpt lat="46.0127983" lon="11.3050318" />
      <trkpt lat="46.0127990" lon="11.3049468" />
      <trkpt lat="46.0127931" lon="11.3047943" />
      <trkpt lat="46.0127644" lon="11.3045046" />
      <trkpt lat="46.0127044" lon="11.3040536" />
      <trkpt lat="46.0126021" lon="11.3041601" />
      <trkpt lat="46.0123670" lon="11.3045484" />
      <trkpt lat="46.0122985" lon="11.3046550" />
      <trkpt lat="46.0122399" lon="11.3047086" />
      <trkpt lat="46.0122150" lon="11.3047684" />
      <trkpt lat="46.0121789" lon="11.3048653" />
      <trkpt lat="46.0121525" lon="11.3052186" />
      <trkpt lat="46.0121464" lon="11.3052965" />
      <trkpt lat="46.0121364" lon="11.3054437" />
      <trkpt lat="46.0120210" lon="11.3054505" />
      <trkpt lat="46.0119182" lon="11.3054963" />
      <trkpt lat="46.0118815" lon="11.3055227" />
      <trkpt lat="46.0118513" lon="11.3055427" />
      <trkpt lat="46.0118148" lon="11.3055680" />
      <trkpt lat="46.0117528" lon="11.3056460" />
      <trkpt lat="46.0115438" lon="11.3059589" />
      <trkpt lat="46.0114084" lon="11.3061038" />
      <trkpt lat="46.0113311" lon="11.3061571" />
      <trkpt lat="46.0112066" lon="11.3074709" />
      <trkpt lat="46.0113098" lon="11.3073616" />
      <trkpt lat="46.0113694" lon="11.3073073" />
      <trkpt lat="46.0114219" lon="11.3072770" />
      <trkpt lat="46.0114745" lon="11.3072748" />
      <trkpt lat="46.0115345" lon="11.3072898" />
      <trkpt lat="46.0115811" lon="11.3073261" />
      <trkpt lat="46.0116557" lon="11.3073958" />
      <trkpt lat="46.0117047" lon="11.3074784" />
      <trkpt lat="46.0117942" lon="11.3076753" />
      <trkpt lat="46.0119271" lon="11.3078131" />
      <trkpt lat="46.0120110" lon="11.3079183" />
      <trkpt lat="46.0121088" lon="11.3080148" />
      <trkpt lat="46.0122542" lon="11.3081624" />
      <trkpt lat="46.0123433" lon="11.3083077" />
      <trkpt lat="46.0123997" lon="11.3084274" />
      <trkpt lat="46.0124366" lon="11.3085145" />
      <trkpt lat="46.0124484" lon="11.3085583" />
      <trkpt lat="46.0124512" lon="11.3086002" />
      <trkpt lat="46.0124374" lon="11.3088474" />
      <trkpt lat="46.0124284" lon="11.3088704" />
      <trkpt lat="46.0123965" lon="11.3090037" />
      <trkpt lat="46.0123356" lon="11.3091251" />
      <trkpt lat="46.0122688" lon="11.3092009" />
      <trkpt lat="46.0122012" lon="11.3092270" />
      <trkpt lat="46.0120034" lon="11.3092128" />
      <trkpt lat="46.0117768" lon="11.3091977" />
      <trkpt lat="46.0115740" lon="11.3091767" />
      <trkpt lat="46.0110779" lon="11.3091249" />
      <trkpt lat="46.0111104" lon="11.3086507" />
      <trkpt lat="46.0111435" lon="11.3082456" />
      <trkpt lat="46.0112066" lon="11.3074709" />
      <trkpt lat="46.0111166" lon="11.3075756" />
      <trkpt lat="46.0110422" lon="11.3076673" />
      <trkpt lat="46.0109644" lon="11.3077709" />
      <trkpt lat="46.0109208" lon="11.3078354" />
      <trkpt lat="46.0108513" lon="11.3079084" />
      <trkpt lat="46.0107806" lon="11.3079584" />
      <trkpt lat="46.0106989" lon="11.3079891" />
      <trkpt lat="46.0106233" lon="11.3079786" />
      <trkpt lat="46.0104900" lon="11.3079707" />
      <trkpt lat="46.0104234" lon="11.3079874" />
      <trkpt lat="46.0105301" lon="11.3068092" />
      <trkpt lat="46.0105697" lon="11.3068093" />
      <trkpt lat="46.0106037" lon="11.3067951" />
      <trkpt lat="46.0108677" lon="11.3066271" />
      <trkpt lat="46.0110816" lon="11.3064492" />
      <trkpt lat="46.0111409" lon="11.3063598" />
      <trkpt lat="46.0112022" lon="11.3062769" />
      <trkpt lat="46.0113311" lon="11.3061571" />
      <trkpt lat="46.0113750" lon="11.3055987" />
      <trkpt lat="46.0114258" lon="11.3056108" />
      <trkpt lat="46.0114849" lon="11.3055945" />
      <trkpt lat="46.0115371" lon="11.3055262" />
      <trkpt lat="46.0115684" lon="11.3054490" />
      <trkpt lat="46.0116508" lon="11.3052644" />
      <trkpt lat="46.0117020" lon="11.3051613" />
      <trkpt lat="46.0118147" lon="11.3049397" />
      <trkpt lat="46.0118767" lon="11.3048065" />
      <trkpt lat="46.0119477" lon="11.3046725" />
      <trkpt lat="46.0119919" lon="11.3046366" />
      <trkpt lat="46.0120540" lon="11.3046312" />
      <trkpt lat="46.0121026" lon="11.3046545" />
      <trkpt lat="46.0121644" lon="11.3047010" />
      <trkpt lat="46.0122399" lon="11.3047086" />
      <trkpt lat="46.0122985" lon="11.3046550" />
      <trkpt lat="46.0123670" lon="11.3045484" />
      <trkpt lat="46.0126021" lon="11.3041601" />
      <trkpt lat="46.0127044" lon="11.3040536" />
      <trkpt lat="46.0127644" lon="11.3045046" />
      <trkpt lat="46.0127931" lon="11.3047943" />
      <trkpt lat="46.0127990" lon="11.3049468" />
      <trkpt lat="46.0130363" lon="11.3051489" />
      <trkpt lat="46.0134104" lon="11.3053479" />
      <trkpt lat="46.0136046" lon="11.3054330" />
      <trkpt lat="46.0136996" lon="11.3055082" />
      <trkpt lat="46.0138253" lon="11.3056538" />
      <trkpt lat="46.0137384" lon="11.3060950" />
      <trkpt lat="46.0135289" lon="11.3071749" />
      <trkpt lat="46.0134803" lon="11.3073438" />
      <trkpt lat="46.0133970" lon="11.3074903" />
      <trkpt lat="46.0133741" lon="11.3075777" />
      <trkpt lat="46.0133257" lon="11.3084986" />
      <trkpt lat="46.0133450" lon="11.3085849" />
      <trkpt lat="46.0132950" lon="11.3086265" />
      <trkpt lat="46.0132379" lon="11.3086679" />
      <trkpt lat="46.0131735" lon="11.3087524" />
      <trkpt lat="46.0131139" lon="11.3088596" />
      <trkpt lat="46.0130617" lon="11.3091225" />
      <trkpt lat="46.0130319" lon="11.3092083" />
      <trkpt lat="46.0129761" lon="11.3092566" />
      <trkpt lat="46.0128792" lon="11.3092834" />
      <trkpt lat="46.0124877" lon="11.3093217" />
      <trkpt lat="46.0123477" lon="11.3093205" />
      <trkpt lat="46.0121885" lon="11.3093191" />
      <trkpt lat="46.0121068" lon="11.3093195" />
      <trkpt lat="46.0120910" lon="11.3093193" />
      <trkpt lat="46.0119086" lon="11.3093218" />
      <trkpt lat="46.0117912" lon="11.3093198" />
      <trkpt lat="46.0117285" lon="11.3093139" />
      <trkpt lat="46.0115957" lon="11.3092885" />
      <trkpt lat="46.0113540" lon="11.3092369" />
      <trkpt lat="46.0112065" lon="11.3092161" />
      <trkpt lat="46.0110982" lon="11.3092079" />
      <trkpt lat="46.0110743" lon="11.3092062" />
      <trkpt lat="46.0105969" lon="11.3092274" />
      <trkpt lat="46.0104685" lon="11.3092444" />
      <trkpt lat="46.0103494" lon="11.3092761" />
      <trkpt lat="46.0098931" lon="11.3094071" />
      <trkpt lat="46.0098305" lon="11.3094158" />
      <trkpt lat="46.0097471" lon="11.3093905" />
      <trkpt lat="46.0096743" lon="11.3093517" />
      <trkpt lat="46.0096191" lon="11.3093162" />
      <trkpt lat="46.0095602" lon="11.3092690" />
      <trkpt lat="46.0095413" lon="11.3092533" />
      <trkpt lat="46.0095093" lon="11.3092309" />
      <trkpt lat="46.0094848" lon="11.3092210" />
      <trkpt lat="46.0094485" lon="11.3092101" />
      <trkpt lat="46.0094113" lon="11.3092100" />
      <trkpt lat="46.0093756" lon="11.3092212" />
      <trkpt lat="46.0093417" lon="11.3092364" />
      <trkpt lat="46.0093089" lon="11.3092664" />
      <trkpt lat="46.0092747" lon="11.3093032" />
      <trkpt lat="46.0092055" lon="11.3093792" />
      <trkpt lat="46.0091892" lon="11.3093536" />
      <trkpt lat="46.0091689" lon="11.3093351" />
      <trkpt lat="46.0091459" lon="11.3093250" />
      <trkpt lat="46.0091171" lon="11.3092661" />
      <trkpt lat="46.0090980" lon="11.3091977" />
      <trkpt lat="46.0090933" lon="11.3091186" />
      <trkpt lat="46.0090992" lon="11.3090419" />
      <trkpt lat="46.0091126" lon="11.3089637" />
      <trkpt lat="46.0092508" lon="11.3080413" />
      <trkpt lat="46.0093622" lon="11.3075134" />
      <trkpt lat="46.0094781" lon="11.3069639" />
      <trkpt lat="46.0095166" lon="11.3067814" />
      <trkpt lat="46.0095240" lon="11.3067264" />
      <trkpt lat="46.0096641" lon="11.3056852" />
      <trkpt lat="46.0096786" lon="11.3055774" />
      <trkpt lat="46.0091470" lon="11.3054937" />
      <trkpt lat="46.0090647" lon="11.3054807" />
      <trkpt lat="46.0090526" lon="11.3056160" />
      <trkpt lat="46.0090411" lon="11.3057455" />
      <trkpt lat="46.0089895" lon="11.3063234" />
      <trkpt lat="46.0089556" lon="11.3067025" />
      <trkpt lat="46.0089532" lon="11.3067296" />
      <trkpt lat="46.0089061" lon="11.3067107" />
      <trkpt lat="46.0083271" lon="11.3064780" />
      <trkpt lat="46.0082661" lon="11.3064320" />
      <trkpt lat="46.0079350" lon="11.3063275" />
      <trkpt lat="46.0076858" lon="11.3062259" />
      <trkpt lat="46.0073430" lon="11.3061002" />
      <trkpt lat="46.0070873" lon="11.3060015" />
      <trkpt lat="46.0066605" lon="11.3058280" />
      <trkpt lat="46.0070873" lon="11.3060015" />
      <trkpt lat="46.0073430" lon="11.3061002" />
      <trkpt lat="46.0074884" lon="11.3052053" />
      <trkpt lat="46.0071910" lon="11.3051534" />
      <trkpt lat="46.0067208" lon="11.3050712" />
      <trkpt lat="46.0066114" lon="11.3050095" />
      <trkpt lat="46.0065420" lon="11.3049351" />
      <trkpt lat="46.0065217" lon="11.3049002" />
      <trkpt lat="46.0064899" lon="11.3047936" />
      <trkpt lat="46.0063629" lon="11.3043361" />
      <trkpt lat="46.0063415" lon="11.3042747" />
      <trkpt lat="46.0063045" lon="11.3040481" />
      <trkpt lat="46.0062972" lon="11.3038449" />
      <trkpt lat="46.0063762" lon="11.3035226" />
      <trkpt lat="46.0063797" lon="11.3035108" />
      <trkpt lat="46.0064759" lon="11.3031605" />
      <trkpt lat="46.0065081" lon="11.3030335" />
      <trkpt lat="46.0066162" lon="11.3026200" />
      <trkpt lat="46.0067126" lon="11.3022732" />
      <trkpt lat="46.0067834" lon="11.3020980" />
      <trkpt lat="46.0068944" lon="11.3018899" />
      <trkpt lat="46.0070144" lon="11.3017272" />
      <trkpt lat="46.0070569" lon="11.3016486" />
      <trkpt lat="46.0070691" lon="11.3016533" />
      <trkpt lat="46.0070798" lon="11.3016539" />
      <trkpt lat="46.0070904" lon="11.3016516" />
      <trkpt lat="46.0071023" lon="11.3016451" />
      <trkpt lat="46.0071150" lon="11.3016624" />
      <trkpt lat="46.0072167" lon="11.3017336" />
      <trkpt lat="46.0076510" lon="11.3019296" />
      <trkpt lat="46.0080991" lon="11.3020391" />
      <trkpt lat="46.0082414" lon="11.3021044" />
      <trkpt lat="46.0081767" lon="11.3025377" />
      <trkpt lat="46.0081767" lon="11.3026320" />
      <trkpt lat="46.0080992" lon="11.3030209" />
      <trkpt lat="46.0081767" lon="11.3026320" />
      <trkpt lat="46.0081767" lon="11.3025377" />
      <trkpt lat="46.0082414" lon="11.3021044" />
      <trkpt lat="46.0080991" lon="11.3020391" />
      <trkpt lat="46.0076510" lon="11.3019296" />
      <trkpt lat="46.0072167" lon="11.3017336" />
      <trkpt lat="46.0071150" lon="11.3016624" />
      <trkpt lat="46.0071023" lon="11.3016451" />
      <trkpt lat="46.0071096" lon="11.3016384" />
      <trkpt lat="46.0071175" lon="11.3016280" />
      <trkpt lat="46.0071238" lon="11.3016156" />
      <trkpt lat="46.0071283" lon="11.3016017" />
      <trkpt lat="46.0071309" lon="11.3015867" />
      <trkpt lat="46.0071314" lon="11.3015713" />
      <trkpt lat="46.0071298" lon="11.3015561" />
      <trkpt lat="46.0071261" lon="11.3015416" />
      <trkpt lat="46.0071206" lon="11.3015285" />
      <trkpt lat="46.0071148" lon="11.3015190" />
      <trkpt lat="46.0071381" lon="11.3014736" />
      <trkpt lat="46.0072785" lon="11.3013637" />
      <trkpt lat="46.0072714" lon="11.3013247" />
      <trkpt lat="46.0072696" lon="11.3012629" />
      <trkpt lat="46.0072714" lon="11.3013247" />
      <trkpt lat="46.0072785" lon="11.3013637" />
      <trkpt lat="46.0072923" lon="11.3013556" />
      <trkpt lat="46.0077161" lon="11.3011122" />
      <trkpt lat="46.0078777" lon="11.3010371" />
      <trkpt lat="46.0080566" lon="11.3009546" />
      <trkpt lat="46.0080591" lon="11.3009543" />
      <trkpt lat="46.0081156" lon="11.3009486" />
      <trkpt lat="46.0081833" lon="11.3007954" />
      <trkpt lat="46.0083690" lon="11.3003535" />
      <trkpt lat="46.0085907" lon="11.2997702" />
      <trkpt lat="46.0086613" lon="11.2996130" />
      <trkpt lat="46.0083716" lon="11.2994631" />
      <trkpt lat="46.0087983" lon="11.2984184" />
      <trkpt lat="46.0086230" lon="11.2982644" />
      <trkpt lat="46.0089354" lon="11.2976279" />
      <trkpt lat="46.0089850" lon="11.2975267" />
      <trkpt lat="46.0088589" lon="11.2970393" />
      <trkpt lat="46.0087115" lon="11.2964700" />
      <trkpt lat="46.0086007" lon="11.2960421" />
      <trkpt lat="46.0085345" lon="11.2957863" />
      <trkpt lat="46.0085087" lon="11.2956866" />
      <trkpt lat="46.0086317" lon="11.2956996" />
      <trkpt lat="46.0087211" lon="11.2957519" />
      <trkpt lat="46.0088004" lon="11.2958202" />
      <trkpt lat="46.0088595" lon="11.2958710" />
      <trkpt lat="46.0089937" lon="11.2960212" />
      <trkpt lat="46.0091216" lon="11.2962500" />
      <trkpt lat="46.0092321" lon="11.2964879" />
      <trkpt lat="46.0092428" lon="11.2965144" />
      <trkpt lat="46.0093666" lon="11.2962829" />
      <trkpt lat="46.0093990" lon="11.2962716" />
      <trkpt lat="46.0096697" lon="11.2965853" />
      <trkpt lat="46.0099288" lon="11.2962024" />
      <trkpt lat="46.0099884" lon="11.2961112" />
      <trkpt lat="46.0100583" lon="11.2960911" />
      <trkpt lat="46.0101356" lon="11.2961689" />
      <trkpt lat="46.0102281" lon="11.2962543" />
      <trkpt lat="46.0103349" lon="11.2963016" />
      <trkpt lat="46.0103862" lon="11.2963030" />
      <trkpt lat="46.0104569" lon="11.2962426" />
      <trkpt lat="46.0106659" lon="11.2959174" />
      <trkpt lat="46.0107266" lon="11.2959983" />
      <trkpt lat="46.0107605" lon="11.2960435" />
      <trkpt lat="46.0109276" lon="11.2962659" />
      <trkpt lat="46.0110369" lon="11.2964115" />
      <trkpt lat="46.0111280" lon="11.2964899" />
      <trkpt lat="46.0112072" lon="11.2965500" />
      <trkpt lat="46.0111781" lon="11.2968399" />
      <trkpt lat="46.0112568" lon="11.2970649" />
      <trkpt lat="46.0112181" lon="11.2971112" />
      <trkpt lat="46.0116123" lon="11.2977853" />
      <trkpt lat="46.0116484" lon="11.2977478" />
      <trkpt lat="46.0117244" lon="11.2976832" />
      <trkpt lat="46.0119304" lon="11.2974983" />
      <trkpt lat="46.0120196" lon="11.2974579" />
      <trkpt lat="46.0121759" lon="11.2976221" />
      <trkpt lat="46.0124616" lon="11.2972508" />
      <trkpt lat="46.0124890" lon="11.2972019" />
      <trkpt lat="46.0124894" lon="11.2971477" />
      <trkpt lat="46.0124188" lon="11.2970045" />
      <trkpt lat="46.0124205" lon="11.2970021" />
      <trkpt lat="46.0124454" lon="11.2969828" />
      <trkpt lat="46.0124966" lon="11.2970878" />
      <trkpt lat="46.0125635" lon="11.2970267" />
      <trkpt lat="46.0127363" lon="11.2973759" />
      <trkpt lat="46.0129449" lon="11.2977945" />
      <trkpt lat="46.0129712" lon="11.2978899" />
      <trkpt lat="46.0130468" lon="11.2977714" />
      <trkpt lat="46.0131199" lon="11.2976603" />
      <trkpt lat="46.0131919" lon="11.2975460" />
      <trkpt lat="46.0132320" lon="11.2976177" />
      <trkpt lat="46.0133454" lon="11.2977970" />
      <trkpt lat="46.0134865" lon="11.2979792" />
      <trkpt lat="46.0136470" lon="11.2981837" />
      <trkpt lat="46.0139231" lon="11.2985434" />
      <trkpt lat="46.0141584" lon="11.2988474" />
      <trkpt lat="46.0141849" lon="11.2988817" />
      <trkpt lat="46.0142859" lon="11.2987840" />
      <trkpt lat="46.0145020" lon="11.2986284" />
      <trkpt lat="46.0145657" lon="11.2985826" />
      <trkpt lat="46.0146356" lon="11.2986752" />
      <trkpt lat="46.0146840" lon="11.2986430" />
      <trkpt lat="46.0147200" lon="11.2986038" />
      <trkpt lat="46.0147775" lon="11.2986185" />
      <trkpt lat="46.0144647" lon="11.2992432" />
      <trkpt lat="46.0143419" lon="11.2994850" />
      <trkpt lat="46.0143116" lon="11.2995475" />
      <trkpt lat="46.0139448" lon="11.3002023" />
      <trkpt lat="46.0136191" lon="11.3007836" />
      <trkpt lat="46.0134381" lon="11.3011068" />
      <trkpt lat="46.0136830" lon="11.3013712" />
      <trkpt lat="46.0134381" lon="11.3011068" />
      <trkpt lat="46.0131872" lon="11.3015350" />
      <trkpt lat="46.0130588" lon="11.3019822" />
      <trkpt lat="46.0135551" lon="11.3022875" />
      <trkpt lat="46.0137742" lon="11.3024673" />
      <trkpt lat="46.0138376" lon="11.3023130" />
      <trkpt lat="46.0138939" lon="11.3021951" />
      <trkpt lat="46.0139681" lon="11.3020406" />
      <trkpt lat="46.0140314" lon="11.3019974" />
      <trkpt lat="46.0140706" lon="11.3019085" />
      <trkpt lat="46.0141122" lon="11.3018024" />
      <trkpt lat="46.0141198" lon="11.3017526" />
      <trkpt lat="46.0141122" lon="11.3018024" />
      <trkpt lat="46.0140706" lon="11.3019085" />
      <trkpt lat="46.0140314" lon="11.3019974" />
      <trkpt lat="46.0139681" lon="11.3020406" />
      <trkpt lat="46.0138939" lon="11.3021951" />
      <trkpt lat="46.0138376" lon="11.3023130" />
      <trkpt lat="46.0137742" lon="11.3024673" />
      <trkpt lat="46.0139875" lon="11.3026424" />
      <trkpt lat="46.0144299" lon="11.3030043" />
      <trkpt lat="46.0145015" lon="11.3029207" />
      <trkpt lat="46.0147713" lon="11.3026193" />
      <trkpt lat="46.0149131" lon="11.3023368" />
      <trkpt lat="46.0147713" lon="11.3026193" />
      <trkpt lat="46.0145015" lon="11.3029207" />
      <trkpt lat="46.0144299" lon="11.3030043" />
      <trkpt lat="46.0139875" lon="11.3026424" />
      <trkpt lat="46.0137742" lon="11.3024673" />
      <trkpt lat="46.0135551" lon="11.3022875" />
      <trkpt lat="46.0130588" lon="11.3019822" />
      <trkpt lat="46.0129158" lon="11.3025677" />
      <trkpt lat="46.0130588" lon="11.3019822" />
      <trkpt lat="46.0131872" lon="11.3015350" />
      <trkpt lat="46.0134381" lon="11.3011068" />
      <trkpt lat="46.0136830" lon="11.3013712" />
      <trkpt lat="46.0134381" lon="11.3011068" />
      <trkpt lat="46.0131872" lon="11.3015350" />
      <trkpt lat="46.0130588" lon="11.3019822" />
      <trkpt lat="46.0129158" lon="11.3025677" />
      <trkpt lat="46.0128501" lon="11.3028052" />
      <trkpt lat="46.0128080" lon="11.3031323" />
      <trkpt lat="46.0127785" lon="11.3033938" />
      <trkpt lat="46.0127603" lon="11.3035217" />
      <trkpt lat="46.0127396" lon="11.3036685" />
      <trkpt lat="46.0127044" lon="11.3040536" />
      <trkpt lat="46.0127644" lon="11.3045046" />
      <trkpt lat="46.0127931" lon="11.3047943" />
      <trkpt lat="46.0127990" lon="11.3049468" />
      <trkpt lat="46.0130363" lon="11.3051489" />
      <trkpt lat="46.0134104" lon="11.3053479" />
      <trkpt lat="46.0136046" lon="11.3054330" />
      <trkpt lat="46.0136996" lon="11.3055082" />
      <trkpt lat="46.0138253" lon="11.3056538" />
      <trkpt lat="46.0136996" lon="11.3055082" />
      <trkpt lat="46.0136046" lon="11.3054330" />
      <trkpt lat="46.0134910" lon="11.3057761" />
      <trkpt lat="46.0134383" lon="11.3059821" />
      <trkpt lat="46.0134453" lon="11.3061454" />
      <trkpt lat="46.0134383" lon="11.3059821" />
      <trkpt lat="46.0134910" lon="11.3057761" />
      <trkpt lat="46.0136046" lon="11.3054330" />
      <trkpt lat="46.0134104" lon="11.3053479" />
      <trkpt lat="46.0130363" lon="11.3051489" />
      <trkpt lat="46.0127990" lon="11.3049468" />
      <trkpt lat="46.0127983" lon="11.3050318" />
      <trkpt lat="46.0126749" lon="11.3067415" />
      <trkpt lat="46.0126690" lon="11.3068184" />
      <trkpt lat="46.0126749" lon="11.3067415" />
      <trkpt lat="46.0127983" lon="11.3050318" />
      <trkpt lat="46.0127990" lon="11.3049468" />
      <trkpt lat="46.0127931" lon="11.3047943" />
      <trkpt lat="46.0127644" lon="11.3045046" />
      <trkpt lat="46.0127044" lon="11.3040536" />
      <trkpt lat="46.0126021" lon="11.3041601" />
      <trkpt lat="46.0123670" lon="11.3045484" />
      <trkpt lat="46.0122985" lon="11.3046550" />
      <trkpt lat="46.0122399" lon="11.3047086" />
      <trkpt lat="46.0122150" lon="11.3047684" />
      <trkpt lat="46.0121789" lon="11.3048653" />
      <trkpt lat="46.0121525" lon="11.3052186" />
      <trkpt lat="46.0121464" lon="11.3052965" />
      <trkpt lat="46.0121364" lon="11.3054437" />
      <trkpt lat="46.0121464" lon="11.3052965" />
      <trkpt lat="46.0121525" lon="11.3052186" />
      <trkpt lat="46.0121789" lon="11.3048653" />
      <trkpt lat="46.0122150" lon="11.3047684" />
      <trkpt lat="46.0122399" lon="11.3047086" />
      <trkpt lat="46.0122985" lon="11.3046550" />
      <trkpt lat="46.0123670" lon="11.3045484" />
      <trkpt lat="46.0126021" lon="11.3041601" />
      <trkpt lat="46.0127044" lon="11.3040536" />
      <trkpt lat="46.0127644" lon="11.3045046" />
      <trkpt lat="46.0127931" lon="11.3047943" />
    </trkseg>
  </trk>
</gpx>
