<?xml version="1.0" encoding="UTF-8"?>
<gpx xmlns="http://www.topografix.com/GPX/1/1" version="1.1" creator="ShapeRoute route-engine">
  <metadata>
    <name>ghost 10 km · 2026-10-03</name>
    <author>
      <name>ShapeRoute route-engine</name>
    </author>
    <copyright author="OpenStreetMap contributors">
      <license>https://opendatacommons.org/licenses/odbl/1-0/</license>
    </copyright>
    <link href="https://www.openstreetmap.org/copyright">
      <text>© OpenStreetMap contributors</text>
    </link>
    <time>2026-10-03T19:59:47Z</time>
  </metadata>
  <trk>
    <name>ghost 10 km · 2026-10-03</name>
    <trkseg>
      <trkpt lat="46.0668711" lon="11.1210492" />
      <trkpt lat="46.0669975" lon="11.1210365" />
      <trkpt lat="46.0670408" lon="11.1210278" />
      <trkpt lat="46.0670542" lon="11.1211241" />
      <trkpt lat="46.0673001" lon="11.1213049" />
      <trkpt lat="46.0675238" lon="11.1212683" />
      <trkpt lat="46.0676530" lon="11.1212477" />
      <trkpt lat="46.0675238" lon="11.1212683" />
      <trkpt lat="46.0673001" lon="11.1213049" />
      <trkpt lat="46.0670542" lon="11.1211241" />
      <trkpt lat="46.0670408" lon="11.1210278" />
      <trkpt lat="46.0669975" lon="11.1210365" />
      <trkpt lat="46.0668711" lon="11.1210492" />
      <trkpt lat="46.0667705" lon="11.1210629" />
      <trkpt lat="46.0667526" lon="11.1210542" />
      <trkpt lat="46.0667024" lon="11.1213629" />
      <trkpt lat="46.0666701" lon="11.1215352" />
      <trkpt lat="46.0666789" lon="11.1217092" />
      <trkpt lat="46.0667274" lon="11.1218448" />
      <trkpt lat="46.0667304" lon="11.1218751" />
      <trkpt lat="46.0667210" lon="11.1219626" />
      <trkpt lat="46.0667229" lon="11.1219913" />
      <trkpt lat="46.0667249" lon="11.1220591" />
      <trkpt lat="46.0667287" lon="11.1221612" />
      <trkpt lat="46.0667350" lon="11.1222603" />
      <trkpt lat="46.0667357" lon="11.1222747" />
      <trkpt lat="46.0667414" lon="11.1223091" />
      <trkpt lat="46.0667532" lon="11.1223909" />
      <trkpt lat="46.0667715" lon="11.1225101" />
      <trkpt lat="46.0667729" lon="11.1225194" />
      <trkpt lat="46.0667810" lon="11.1225726" />
      <trkpt lat="46.0668548" lon="11.1230552" />
      <trkpt lat="46.0668872" lon="11.1232848" />
      <trkpt lat="46.0668905" lon="11.1233334" />
      <trkpt lat="46.0668986" lon="11.1233290" />
      <trkpt lat="46.0669188" lon="11.1233181" />
      <trkpt lat="46.0669662" lon="11.1237185" />
      <trkpt lat="46.0670098" lon="11.1237070" />
      <trkpt lat="46.0670190" lon="11.1237046" />
      <trkpt lat="46.0671462" lon="11.1236709" />
      <trkpt lat="46.0671493" lon="11.1237041" />
      <trkpt lat="46.0670231" lon="11.1237366" />
      <trkpt lat="46.0670143" lon="11.1237397" />
      <trkpt lat="46.0670164" lon="11.1237560" />
      <trkpt lat="46.0670680" lon="11.1241626" />
      <trkpt lat="46.0671006" lon="11.1241540" />
      <trkpt lat="46.0671042" lon="11.1241841" />
      <trkpt lat="46.0671085" lon="11.1242194" />
      <trkpt lat="46.0673448" lon="11.1241473" />
      <trkpt lat="46.0673613" lon="11.1241477" />
      <trkpt lat="46.0673764" lon="11.1241480" />
      <trkpt lat="46.0676957" lon="11.1240624" />
      <trkpt lat="46.0676580" lon="11.1242806" />
      <trkpt lat="46.0676640" lon="11.1246106" />
      <trkpt lat="46.0676595" lon="11.1246244" />
      <trkpt lat="46.0678409" lon="11.1247037" />
      <trkpt lat="46.0681132" lon="11.1247351" />
      <trkpt lat="46.0681095" lon="11.1247764" />
      <trkpt lat="46.0680840" lon="11.1248247" />
      <trkpt lat="46.0680511" lon="11.1248988" />
      <trkpt lat="46.0680805" lon="11.1249265" />
      <trkpt lat="46.0680877" lon="11.1250115" />
      <trkpt lat="46.0680418" lon="11.1251576" />
      <trkpt lat="46.0679896" lon="11.1253124" />
      <trkpt lat="46.0678834" lon="11.1255508" />
      <trkpt lat="46.0678068" lon="11.1257228" />
      <trkpt lat="46.0674893" lon="11.1264071" />
      <trkpt lat="46.0674093" lon="11.1263325" />
      <trkpt lat="46.0673540" lon="11.1263081" />
      <trkpt lat="46.0672814" lon="11.1262921" />
      <trkpt lat="46.0672654" lon="11.1262921" />
      <trkpt lat="46.0672169" lon="11.1256572" />
      <trkpt lat="46.0671955" lon="11.1255186" />
      <trkpt lat="46.0671801" lon="11.1253736" />
      <trkpt lat="46.0671686" lon="11.1253767" />
      <trkpt lat="46.0671402" lon="11.1251507" />
      <trkpt lat="46.0671376" lon="11.1251295" />
      <trkpt lat="46.0670974" lon="11.1251287" />
      <trkpt lat="46.0670603" lon="11.1251142" />
      <trkpt lat="46.0669555" lon="11.1249664" />
      <trkpt lat="46.0667974" lon="11.1247227" />
      <trkpt lat="46.0666876" lon="11.1245789" />
      <trkpt lat="46.0668743" lon="11.1245189" />
      <trkpt lat="46.0669100" lon="11.1245074" />
      <trkpt lat="46.0670180" lon="11.1244727" />
      <trkpt lat="46.0670340" lon="11.1244675" />
      <trkpt lat="46.0670305" lon="11.1244447" />
      <trkpt lat="46.0670012" lon="11.1242659" />
      <trkpt lat="46.0669974" lon="11.1242205" />
      <trkpt lat="46.0670336" lon="11.1242105" />
      <trkpt lat="46.0670242" lon="11.1241418" />
      <trkpt lat="46.0669731" lon="11.1237689" />
      <trkpt lat="46.0669662" lon="11.1237185" />
      <trkpt lat="46.0670098" lon="11.1237070" />
      <trkpt lat="46.0670190" lon="11.1237046" />
      <trkpt lat="46.0671462" lon="11.1236709" />
      <trkpt lat="46.0672770" lon="11.1236362" />
      <trkpt lat="46.0672766" lon="11.1236046" />
      <trkpt lat="46.0672843" lon="11.1236027" />
      <trkpt lat="46.0672949" lon="11.1236000" />
      <trkpt lat="46.0672847" lon="11.1233272" />
      <trkpt lat="46.0672821" lon="11.1232581" />
      <trkpt lat="46.0672873" lon="11.1232576" />
      <trkpt lat="46.0673011" lon="11.1232564" />
      <trkpt lat="46.0673146" lon="11.1232553" />
      <trkpt lat="46.0673183" lon="11.1232550" />
      <trkpt lat="46.0673009" lon="11.1228132" />
      <trkpt lat="46.0672848" lon="11.1224971" />
      <trkpt lat="46.0672768" lon="11.1221813" />
      <trkpt lat="46.0675515" lon="11.1221490" />
      <trkpt lat="46.0676373" lon="11.1221417" />
      <trkpt lat="46.0677419" lon="11.1221328" />
      <trkpt lat="46.0676373" lon="11.1221417" />
      <trkpt lat="46.0675515" lon="11.1221490" />
      <trkpt lat="46.0672768" lon="11.1221813" />
      <trkpt lat="46.0672848" lon="11.1224971" />
      <trkpt lat="46.0673009" lon="11.1228132" />
      <trkpt lat="46.0673183" lon="11.1232550" />
      <trkpt lat="46.0673371" lon="11.1232534" />
      <trkpt lat="46.0674008" lon="11.1232483" />
      <trkpt lat="46.0674156" lon="11.1232472" />
      <trkpt lat="46.0676659" lon="11.1232331" />
      <trkpt lat="46.0677631" lon="11.1232283" />
      <trkpt lat="46.0678077" lon="11.1232267" />
      <trkpt lat="46.0678084" lon="11.1230699" />
      <trkpt lat="46.0678154" lon="11.1230007" />
      <trkpt lat="46.0679498" lon="11.1229741" />
      <trkpt lat="46.0681832" lon="11.1229244" />
      <trkpt lat="46.0682031" lon="11.1229202" />
      <trkpt lat="46.0681489" lon="11.1225470" />
      <trkpt lat="46.0685802" lon="11.1225918" />
      <trkpt lat="46.0688087" lon="11.1225689" />
      <trkpt lat="46.0690210" lon="11.1225351" />
      <trkpt lat="46.0693306" lon="11.1224874" />
      <trkpt lat="46.0695838" lon="11.1225012" />
      <trkpt lat="46.0698051" lon="11.1225938" />
      <trkpt lat="46.0698439" lon="11.1229482" />
      <trkpt lat="46.0698562" lon="11.1231818" />
      <trkpt lat="46.0698524" lon="11.1233763" />
      <trkpt lat="46.0698608" lon="11.1238246" />
      <trkpt lat="46.0698412" lon="11.1238252" />
      <trkpt lat="46.0697152" lon="11.1238288" />
      <trkpt lat="46.0695700" lon="11.1238352" />
      <trkpt lat="46.0695561" lon="11.1238358" />
      <trkpt lat="46.0693045" lon="11.1238408" />
      <trkpt lat="46.0692101" lon="11.1238436" />
      <trkpt lat="46.0692091" lon="11.1236989" />
      <trkpt lat="46.0691367" lon="11.1237035" />
      <trkpt lat="46.0690806" lon="11.1237071" />
      <trkpt lat="46.0690525" lon="11.1237112" />
      <trkpt lat="46.0688864" lon="11.1237325" />
      <trkpt lat="46.0682805" lon="11.1238337" />
      <trkpt lat="46.0682827" lon="11.1238602" />
      <trkpt lat="46.0682835" lon="11.1238873" />
      <trkpt lat="46.0683250" lon="11.1239053" />
      <trkpt lat="46.0683541" lon="11.1239478" />
      <trkpt lat="46.0683766" lon="11.1242292" />
      <trkpt lat="46.0683684" lon="11.1245203" />
      <trkpt lat="46.0683518" lon="11.1247826" />
      <trkpt lat="46.0683737" lon="11.1247791" />
      <trkpt lat="46.0684074" lon="11.1247738" />
      <trkpt lat="46.0686416" lon="11.1247367" />
      <trkpt lat="46.0689190" lon="11.1246745" />
      <trkpt lat="46.0690475" lon="11.1246554" />
      <trkpt lat="46.0691707" lon="11.1246269" />
      <trkpt lat="46.0691965" lon="11.1246012" />
      <trkpt lat="46.0692481" lon="11.1245332" />
      <trkpt lat="46.0694052" lon="11.1245238" />
      <trkpt lat="46.0695598" lon="11.1244935" />
      <trkpt lat="46.0700381" lon="11.1244249" />
      <trkpt lat="46.0700639" lon="11.1244390" />
      <trkpt lat="46.0700749" lon="11.1244576" />
      <trkpt lat="46.0700921" lon="11.1245372" />
      <trkpt lat="46.0701056" lon="11.1246991" />
      <trkpt lat="46.0701090" lon="11.1248579" />
      <trkpt lat="46.0701202" lon="11.1250443" />
      <trkpt lat="46.0701360" lon="11.1251878" />
      <trkpt lat="46.0701636" lon="11.1253748" />
      <trkpt lat="46.0701757" lon="11.1254398" />
      <trkpt lat="46.0701951" lon="11.1255251" />
      <trkpt lat="46.0703104" lon="11.1258937" />
      <trkpt lat="46.0703744" lon="11.1261142" />
      <trkpt lat="46.0704496" lon="11.1264614" />
      <trkpt lat="46.0704611" lon="11.1265307" />
      <trkpt lat="46.0704804" lon="11.1266564" />
      <trkpt lat="46.0705083" lon="11.1266443" />
      <trkpt lat="46.0705378" lon="11.1266280" />
      <trkpt lat="46.0705253" lon="11.1265592" />
      <trkpt lat="46.0704854" lon="11.1263179" />
      <trkpt lat="46.0704310" lon="11.1260912" />
      <trkpt lat="46.0704251" lon="11.1260668" />
      <trkpt lat="46.0706554" lon="11.1259825" />
      <trkpt lat="46.0708260" lon="11.1259603" />
      <trkpt lat="46.0708465" lon="11.1259592" />
      <trkpt lat="46.0708679" lon="11.1259562" />
      <trkpt lat="46.0709448" lon="11.1264026" />
      <trkpt lat="46.0709514" lon="11.1264411" />
      <trkpt lat="46.0709658" lon="11.1265217" />
      <trkpt lat="46.0709703" lon="11.1265422" />
      <trkpt lat="46.0709427" lon="11.1265551" />
      <trkpt lat="46.0705687" lon="11.1266685" />
      <trkpt lat="46.0705967" lon="11.1267698" />
      <trkpt lat="46.0706168" lon="11.1268395" />
      <trkpt lat="46.0706463" lon="11.1269426" />
      <trkpt lat="46.0706575" lon="11.1269811" />
      <trkpt lat="46.0707283" lon="11.1269408" />
      <trkpt lat="46.0707397" lon="11.1269815" />
      <trkpt lat="46.0707473" lon="11.1270088" />
      <trkpt lat="46.0708008" lon="11.1272006" />
      <trkpt lat="46.0708310" lon="11.1273090" />
      <trkpt lat="46.0708551" lon="11.1273949" />
      <trkpt lat="46.0707200" lon="11.1274690" />
      <trkpt lat="46.0705564" lon="11.1275589" />
      <trkpt lat="46.0705506" lon="11.1275580" />
      <trkpt lat="46.0705344" lon="11.1275585" />
      <trkpt lat="46.0700829" lon="11.1274439" />
      <trkpt lat="46.0700838" lon="11.1273345" />
      <trkpt lat="46.0701338" lon="11.1272889" />
      <trkpt lat="46.0701441" lon="11.1272813" />
      <trkpt lat="46.0701335" lon="11.1272571" />
      <trkpt lat="46.0701274" lon="11.1272407" />
      <trkpt lat="46.0700069" lon="11.1273936" />
      <trkpt lat="46.0699719" lon="11.1274335" />
      <trkpt lat="46.0699578" lon="11.1274338" />
      <trkpt lat="46.0699232" lon="11.1274344" />
      <trkpt lat="46.0699231" lon="11.1274466" />
      <trkpt lat="46.0699231" lon="11.1274554" />
      <trkpt lat="46.0699221" lon="11.1275173" />
      <trkpt lat="46.0699209" lon="11.1275983" />
      <trkpt lat="46.0699206" lon="11.1276259" />
      <trkpt lat="46.0699262" lon="11.1276890" />
      <trkpt lat="46.0699314" lon="11.1277523" />
      <trkpt lat="46.0699398" lon="11.1278053" />
      <trkpt lat="46.0699595" lon="11.1278391" />
      <trkpt lat="46.0699423" lon="11.1279639" />
      <trkpt lat="46.0699935" lon="11.1279812" />
      <trkpt lat="46.0700492" lon="11.1279925" />
      <trkpt lat="46.0700467" lon="11.1280819" />
      <trkpt lat="46.0700540" lon="11.1281059" />
      <trkpt lat="46.0700926" lon="11.1282337" />
      <trkpt lat="46.0701544" lon="11.1284147" />
      <trkpt lat="46.0701982" lon="11.1285050" />
      <trkpt lat="46.0702715" lon="11.1286032" />
      <trkpt lat="46.0703584" lon="11.1285810" />
      <trkpt lat="46.0704962" lon="11.1290391" />
      <trkpt lat="46.0706184" lon="11.1294365" />
      <trkpt lat="46.0706309" lon="11.1294774" />
      <trkpt lat="46.0706390" lon="11.1295035" />
      <trkpt lat="46.0706641" lon="11.1295856" />
      <trkpt lat="46.0707053" lon="11.1296377" />
      <trkpt lat="46.0713248" lon="11.1303620" />
      <trkpt lat="46.0713448" lon="11.1303846" />
      <trkpt lat="46.0715655" lon="11.1306134" />
      <trkpt lat="46.0714554" lon="11.1306923" />
      <trkpt lat="46.0713914" lon="11.1307395" />
      <trkpt lat="46.0710716" lon="11.1309562" />
      <trkpt lat="46.0704851" lon="11.1313149" />
      <trkpt lat="46.0699389" lon="11.1315107" />
      <trkpt lat="46.0699373" lon="11.1312290" />
      <trkpt lat="46.0699265" lon="11.1311006" />
      <trkpt lat="46.0699131" lon="11.1310501" />
      <trkpt lat="46.0698741" lon="11.1310057" />
      <trkpt lat="46.0697492" lon="11.1309664" />
      <trkpt lat="46.0696951" lon="11.1309460" />
      <trkpt lat="46.0696442" lon="11.1308806" />
      <trkpt lat="46.0695958" lon="11.1307982" />
      <trkpt lat="46.0695872" lon="11.1307844" />
      <trkpt lat="46.0695768" lon="11.1307677" />
      <trkpt lat="46.0695602" lon="11.1307409" />
      <trkpt lat="46.0695333" lon="11.1306929" />
      <trkpt lat="46.0694735" lon="11.1305691" />
      <trkpt lat="46.0694647" lon="11.1305620" />
      <trkpt lat="46.0694521" lon="11.1305519" />
      <trkpt lat="46.0694048" lon="11.1305328" />
      <trkpt lat="46.0692162" lon="11.1305197" />
      <trkpt lat="46.0691380" lon="11.1305057" />
      <trkpt lat="46.0689787" lon="11.1304282" />
      <trkpt lat="46.0688754" lon="11.1303507" />
      <trkpt lat="46.0688370" lon="11.1303213" />
      <trkpt lat="46.0686387" lon="11.1301774" />
      <trkpt lat="46.0685374" lon="11.1301279" />
      <trkpt lat="46.0683367" lon="11.1300526" />
      <trkpt lat="46.0682755" lon="11.1300116" />
      <trkpt lat="46.0682354" lon="11.1299454" />
      <trkpt lat="46.0682000" lon="11.1298692" />
      <trkpt lat="46.0681476" lon="11.1299694" />
      <trkpt lat="46.0681217" lon="11.1300830" />
      <trkpt lat="46.0680592" lon="11.1303525" />
      <trkpt lat="46.0680228" lon="11.1306852" />
      <trkpt lat="46.0680182" lon="11.1307638" />
      <trkpt lat="46.0680034" lon="11.1308440" />
      <trkpt lat="46.0679772" lon="11.1309209" />
      <trkpt lat="46.0679520" lon="11.1309920" />
      <trkpt lat="46.0678830" lon="11.1311669" />
      <trkpt lat="46.0679660" lon="11.1314044" />
      <trkpt lat="46.0679883" lon="11.1314393" />
      <trkpt lat="46.0680656" lon="11.1315179" />
      <trkpt lat="46.0680966" lon="11.1315533" />
      <trkpt lat="46.0681255" lon="11.1315863" />
      <trkpt lat="46.0681894" lon="11.1316591" />
      <trkpt lat="46.0683358" lon="11.1317598" />
      <trkpt lat="46.0685203" lon="11.1318954" />
      <trkpt lat="46.0685321" lon="11.1319109" />
      <trkpt lat="46.0686823" lon="11.1321086" />
      <trkpt lat="46.0687477" lon="11.1321876" />
      <trkpt lat="46.0686958" lon="11.1322530" />
      <trkpt lat="46.0682366" lon="11.1326973" />
      <trkpt lat="46.0686958" lon="11.1322530" />
      <trkpt lat="46.0687477" lon="11.1321876" />
      <trkpt lat="46.0686823" lon="11.1321086" />
      <trkpt lat="46.0685321" lon="11.1319109" />
      <trkpt lat="46.0685203" lon="11.1318954" />
      <trkpt lat="46.0683358" lon="11.1317598" />
      <trkpt lat="46.0681894" lon="11.1316591" />
      <trkpt lat="46.0681255" lon="11.1315863" />
      <trkpt lat="46.0680966" lon="11.1315533" />
      <trkpt lat="46.0680656" lon="11.1315179" />
      <trkpt lat="46.0679883" lon="11.1314393" />
      <trkpt lat="46.0679660" lon="11.1314044" />
      <trkpt lat="46.0678830" lon="11.1311669" />
      <trkpt lat="46.0679520" lon="11.1309920" />
      <trkpt lat="46.0679772" lon="11.1309209" />
      <trkpt lat="46.0680034" lon="11.1308440" />
      <trkpt lat="46.0680182" lon="11.1307638" />
      <trkpt lat="46.0680228" lon="11.1306852" />
      <trkpt lat="46.0680592" lon="11.1303525" />
      <trkpt lat="46.0681217" lon="11.1300830" />
      <trkpt lat="46.0681476" lon="11.1299694" />
      <trkpt lat="46.0682000" lon="11.1298692" />
      <trkpt lat="46.0682152" lon="11.1298106" />
      <trkpt lat="46.0682635" lon="11.1296235" />
      <trkpt lat="46.0683048" lon="11.1295341" />
      <trkpt lat="46.0683669" lon="11.1294680" />
      <trkpt lat="46.0684046" lon="11.1294416" />
      <trkpt lat="46.0683501" lon="11.1293914" />
      <trkpt lat="46.0683302" lon="11.1294010" />
      <trkpt lat="46.0683123" lon="11.1294097" />
      <trkpt lat="46.0682925" lon="11.1293320" />
      <trkpt lat="46.0682679" lon="11.1293437" />
      <trkpt lat="46.0682805" lon="11.1293978" />
      <trkpt lat="46.0682864" lon="11.1294242" />
      <trkpt lat="46.0683023" lon="11.1294154" />
      <trkpt lat="46.0682952" lon="11.1293883" />
      <trkpt lat="46.0682492" lon="11.1291994" />
      <trkpt lat="46.0682011" lon="11.1290129" />
      <trkpt lat="46.0681793" lon="11.1290225" />
      <trkpt lat="46.0682030" lon="11.1291172" />
      <trkpt lat="46.0682264" lon="11.1292093" />
      <trkpt lat="46.0682327" lon="11.1292333" />
      <trkpt lat="46.0680149" lon="11.1293389" />
      <trkpt lat="46.0679083" lon="11.1294018" />
      <trkpt lat="46.0677778" lon="11.1295168" />
      <trkpt lat="46.0676633" lon="11.1296383" />
      <trkpt lat="46.0676905" lon="11.1296887" />
      <trkpt lat="46.0676316" lon="11.1297529" />
      <trkpt lat="46.0671709" lon="11.1304027" />
      <trkpt lat="46.0670662" lon="11.1305822" />
      <trkpt lat="46.0669499" lon="11.1308480" />
      <trkpt lat="46.0669291" lon="11.1308955" />
      <trkpt lat="46.0668870" lon="11.1308644" />
      <trkpt lat="46.0669014" lon="11.1308307" />
      <trkpt lat="46.0670063" lon="11.1305799" />
      <trkpt lat="46.0670726" lon="11.1304665" />
      <trkpt lat="46.0671833" lon="11.1302975" />
      <trkpt lat="46.0674516" lon="11.1299333" />
      <trkpt lat="46.0674371" lon="11.1299081" />
      <trkpt lat="46.0675257" lon="11.1297774" />
      <trkpt lat="46.0676328" lon="11.1294750" />
      <trkpt lat="46.0676974" lon="11.1292563" />
      <trkpt lat="46.0677760" lon="11.1290764" />
      <trkpt lat="46.0679327" lon="11.1290117" />
      <trkpt lat="46.0681926" lon="11.1289843" />
      <trkpt lat="46.0682176" lon="11.1289792" />
      <trkpt lat="46.0682434" lon="11.1291010" />
      <trkpt lat="46.0682844" lon="11.1292584" />
      <trkpt lat="46.0682281" lon="11.1292878" />
      <trkpt lat="46.0681974" lon="11.1293038" />
      <trkpt lat="46.0679193" lon="11.1294608" />
      <trkpt lat="46.0677627" lon="11.1296102" />
      <trkpt lat="46.0676905" lon="11.1296887" />
      <trkpt lat="46.0676633" lon="11.1296383" />
      <trkpt lat="46.0677778" lon="11.1295168" />
      <trkpt lat="46.0679083" lon="11.1294018" />
      <trkpt lat="46.0680149" lon="11.1293389" />
      <trkpt lat="46.0682327" lon="11.1292333" />
      <trkpt lat="46.0682264" lon="11.1292093" />
      <trkpt lat="46.0682030" lon="11.1291172" />
      <trkpt lat="46.0681793" lon="11.1290225" />
      <trkpt lat="46.0682011" lon="11.1290129" />
      <trkpt lat="46.0682492" lon="11.1291994" />
      <trkpt lat="46.0682952" lon="11.1293883" />
      <trkpt lat="46.0683023" lon="11.1294154" />
      <trkpt lat="46.0682864" lon="11.1294242" />
      <trkpt lat="46.0682805" lon="11.1293978" />
      <trkpt lat="46.0682679" lon="11.1293437" />
      <trkpt lat="46.0682925" lon="11.1293320" />
      <trkpt lat="46.0683123" lon="11.1294097" />
      <trkpt lat="46.0683302" lon="11.1294010" />
      <trkpt lat="46.0683501" lon="11.1293914" />
      <trkpt lat="46.0684046" lon="11.1294416" />
      <trkpt lat="46.0683669" lon="11.1294680" />
      <trkpt lat="46.0683048" lon="11.1295341" />
      <trkpt lat="46.0682635" lon="11.1296235" />
      <trkpt lat="46.0682152" lon="11.1298106" />
      <trkpt lat="46.0682000" lon="11.1298692" />
      <trkpt lat="46.0681476" lon="11.1299694" />
      <trkpt lat="46.0681217" lon="11.1300830" />
      <trkpt lat="46.0680592" lon="11.1303525" />
      <trkpt lat="46.0680228" lon="11.1306852" />
      <trkpt lat="46.0680182" lon="11.1307638" />
      <trkpt lat="46.0680034" lon="11.1308440" />
      <trkpt lat="46.0679772" lon="11.1309209" />
      <trkpt lat="46.0679520" lon="11.1309920" />
      <trkpt lat="46.0678830" lon="11.1311669" />
      <trkpt lat="46.0679660" lon="11.1314044" />
      <trkpt lat="46.0679883" lon="11.1314393" />
      <trkpt lat="46.0680656" lon="11.1315179" />
      <trkpt lat="46.0680966" lon="11.1315533" />
      <trkpt lat="46.0680690" lon="11.1316114" />
      <trkpt lat="46.0680698" lon="11.1316569" />
      <trkpt lat="46.0680670" lon="11.1317231" />
      <trkpt lat="46.0680359" lon="11.1318319" />
      <trkpt lat="46.0679580" lon="11.1319736" />
      <trkpt lat="46.0678925" lon="11.1321048" />
      <trkpt lat="46.0679580" lon="11.1319736" />
      <trkpt lat="46.0680359" lon="11.1318319" />
      <trkpt lat="46.0680670" lon="11.1317231" />
      <trkpt lat="46.0680698" lon="11.1316569" />
      <trkpt lat="46.0680690" lon="11.1316114" />
      <trkpt lat="46.0680966" lon="11.1315533" />
      <trkpt lat="46.0680656" lon="11.1315179" />
      <trkpt lat="46.0679883" lon="11.1314393" />
      <trkpt lat="46.0679660" lon="11.1314044" />
      <trkpt lat="46.0678830" lon="11.1311669" />
      <trkpt lat="46.0679520" lon="11.1309920" />
      <trkpt lat="46.0679772" lon="11.1309209" />
      <trkpt lat="46.0680034" lon="11.1308440" />
      <trkpt lat="46.0680182" lon="11.1307638" />
      <trkpt lat="46.0680228" lon="11.1306852" />
      <trkpt lat="46.0680592" lon="11.1303525" />
      <trkpt lat="46.0681217" lon="11.1300830" />
      <trkpt lat="46.0681476" lon="11.1299694" />
      <trkpt lat="46.0682000" lon="11.1298692" />
      <trkpt lat="46.0682152" lon="11.1298106" />
      <trkpt lat="46.0682635" lon="11.1296235" />
      <trkpt lat="46.0683048" lon="11.1295341" />
      <trkpt lat="46.0683669" lon="11.1294680" />
      <trkpt lat="46.0684046" lon="11.1294416" />
      <trkpt lat="46.0683501" lon="11.1293914" />
      <trkpt lat="46.0683302" lon="11.1294010" />
      <trkpt lat="46.0683123" lon="11.1294097" />
      <trkpt lat="46.0682925" lon="11.1293320" />
      <trkpt lat="46.0682679" lon="11.1293437" />
      <trkpt lat="46.0682805" lon="11.1293978" />
      <trkpt lat="46.0682864" lon="11.1294242" />
      <trkpt lat="46.0683023" lon="11.1294154" />
      <trkpt lat="46.0682952" lon="11.1293883" />
      <trkpt lat="46.0682492" lon="11.1291994" />
      <trkpt lat="46.0682011" lon="11.1290129" />
      <trkpt lat="46.0681926" lon="11.1289843" />
      <trkpt lat="46.0681550" lon="11.1288650" />
      <trkpt lat="46.0680624" lon="11.1287669" />
      <trkpt lat="46.0679736" lon="11.1286626" />
      <trkpt lat="46.0678157" lon="11.1284547" />
      <trkpt lat="46.0677852" lon="11.1284430" />
      <trkpt lat="46.0677410" lon="11.1284260" />
      <trkpt lat="46.0675698" lon="11.1282843" />
      <trkpt lat="46.0674041" lon="11.1281471" />
      <trkpt lat="46.0673689" lon="11.1281179" />
      <trkpt lat="46.0672919" lon="11.1280548" />
      <trkpt lat="46.0673063" lon="11.1279940" />
      <trkpt lat="46.0672549" lon="11.1279761" />
      <trkpt lat="46.0672226" lon="11.1279648" />
      <trkpt lat="46.0671397" lon="11.1279343" />
      <trkpt lat="46.0670060" lon="11.1286876" />
      <trkpt lat="46.0669053" lon="11.1290700" />
      <trkpt lat="46.0668956" lon="11.1290931" />
      <trkpt lat="46.0668863" lon="11.1291066" />
      <trkpt lat="46.0668740" lon="11.1291156" />
      <trkpt lat="46.0668618" lon="11.1291195" />
      <trkpt lat="46.0668494" lon="11.1291127" />
      <trkpt lat="46.0668274" lon="11.1291887" />
      <trkpt lat="46.0668188" lon="11.1292183" />
      <trkpt lat="46.0668142" lon="11.1292747" />
      <trkpt lat="46.0667026" lon="11.1295738" />
      <trkpt lat="46.0663226" lon="11.1304402" />
      <trkpt lat="46.0661815" lon="11.1307770" />
      <trkpt lat="46.0658152" lon="11.1316514" />
      <trkpt lat="46.0657693" lon="11.1317700" />
      <trkpt lat="46.0657424" lon="11.1317973" />
      <trkpt lat="46.0656979" lon="11.1318257" />
      <trkpt lat="46.0656331" lon="11.1318309" />
      <trkpt lat="46.0655413" lon="11.1317994" />
      <trkpt lat="46.0654394" lon="11.1317291" />
      <trkpt lat="46.0654036" lon="11.1316992" />
      <trkpt lat="46.0653809" lon="11.1317698" />
      <trkpt lat="46.0653630" lon="11.1318281" />
      <trkpt lat="46.0653454" lon="11.1318147" />
      <trkpt lat="46.0653207" lon="11.1317899" />
      <trkpt lat="46.0652484" lon="11.1319978" />
      <trkpt lat="46.0652426" lon="11.1320148" />
      <trkpt lat="46.0651576" lon="11.1322635" />
      <trkpt lat="46.0651460" lon="11.1323122" />
      <trkpt lat="46.0650883" lon="11.1325540" />
      <trkpt lat="46.0650723" lon="11.1326963" />
      <trkpt lat="46.0650257" lon="11.1330043" />
      <trkpt lat="46.0648891" lon="11.1329638" />
      <trkpt lat="46.0648765" lon="11.1329292" />
      <trkpt lat="46.0648605" lon="11.1329244" />
      <trkpt lat="46.0648525" lon="11.1329831" />
      <trkpt lat="46.0648328" lon="11.1329765" />
      <trkpt lat="46.0648218" lon="11.1329401" />
      <trkpt lat="46.0646537" lon="11.1328874" />
      <trkpt lat="46.0646484" lon="11.1327890" />
      <trkpt lat="46.0646529" lon="11.1325214" />
      <trkpt lat="46.0646888" lon="11.1323018" />
      <trkpt lat="46.0646441" lon="11.1322844" />
      <trkpt lat="46.0643000" lon="11.1321568" />
      <trkpt lat="46.0642896" lon="11.1321568" />
      <trkpt lat="46.0642915" lon="11.1320885" />
      <trkpt lat="46.0642535" lon="11.1320869" />
      <trkpt lat="46.0642474" lon="11.1324358" />
      <trkpt lat="46.0642098" lon="11.1324359" />
      <trkpt lat="46.0638901" lon="11.1324306" />
      <trkpt lat="46.0638382" lon="11.1324298" />
      <trkpt lat="46.0638626" lon="11.1320031" />
      <trkpt lat="46.0638484" lon="11.1320139" />
      <trkpt lat="46.0637975" lon="11.1320525" />
      <trkpt lat="46.0634693" lon="11.1323461" />
      <trkpt lat="46.0634218" lon="11.1323743" />
      <trkpt lat="46.0633844" lon="11.1324021" />
      <trkpt lat="46.0632685" lon="11.1321426" />
      <trkpt lat="46.0631892" lon="11.1319648" />
      <trkpt lat="46.0631528" lon="11.1318831" />
      <trkpt lat="46.0631450" lon="11.1318657" />
      <trkpt lat="46.0628146" lon="11.1322203" />
      <trkpt lat="46.0628044" lon="11.1321806" />
      <trkpt lat="46.0627418" lon="11.1322277" />
      <trkpt lat="46.0627050" lon="11.1322446" />
      <trkpt lat="46.0626969" lon="11.1322672" />
      <trkpt lat="46.0626880" lon="11.1322823" />
      <trkpt lat="46.0626791" lon="11.1322935" />
      <trkpt lat="46.0626560" lon="11.1323093" />
      <trkpt lat="46.0626306" lon="11.1323129" />
      <trkpt lat="46.0626059" lon="11.1323037" />
      <trkpt lat="46.0625891" lon="11.1322896" />
      <trkpt lat="46.0625490" lon="11.1323468" />
      <trkpt lat="46.0625165" lon="11.1323004" />
      <trkpt lat="46.0625078" lon="11.1323125" />
      <trkpt lat="46.0623568" lon="11.1325238" />
      <trkpt lat="46.0623486" lon="11.1325230" />
      <trkpt lat="46.0623369" lon="11.1325221" />
      <trkpt lat="46.0623207" lon="11.1325455" />
      <trkpt lat="46.0623038" lon="11.1325700" />
      <trkpt lat="46.0622892" lon="11.1325924" />
      <trkpt lat="46.0622779" lon="11.1326093" />
      <trkpt lat="46.0620370" lon="11.1329306" />
      <trkpt lat="46.0619413" lon="11.1330774" />
      <trkpt lat="46.0619197" lon="11.1331056" />
      <trkpt lat="46.0619105" lon="11.1331109" />
      <trkpt lat="46.0619025" lon="11.1331091" />
      <trkpt lat="46.0618887" lon="11.1330891" />
      <trkpt lat="46.0618559" lon="11.1331433" />
      <trkpt lat="46.0618338" lon="11.1331799" />
      <trkpt lat="46.0618220" lon="11.1332185" />
      <trkpt lat="46.0617618" lon="11.1333124" />
      <trkpt lat="46.0617203" lon="11.1333696" />
      <trkpt lat="46.0616669" lon="11.1334107" />
      <trkpt lat="46.0616551" lon="11.1334143" />
      <trkpt lat="46.0616024" lon="11.1334304" />
      <trkpt lat="46.0615391" lon="11.1334429" />
      <trkpt lat="46.0614811" lon="11.1334468" />
      <trkpt lat="46.0614382" lon="11.1334496" />
      <trkpt lat="46.0613695" lon="11.1334442" />
      <trkpt lat="46.0611801" lon="11.1334178" />
      <trkpt lat="46.0608870" lon="11.1333828" />
      <trkpt lat="46.0608645" lon="11.1333786" />
      <trkpt lat="46.0608359" lon="11.1333736" />
      <trkpt lat="46.0608053" lon="11.1333708" />
      <trkpt lat="46.0607970" lon="11.1333795" />
      <trkpt lat="46.0603378" lon="11.1333032" />
      <trkpt lat="46.0603285" lon="11.1332906" />
      <trkpt lat="46.0603242" lon="11.1332779" />
      <trkpt lat="46.0602862" lon="11.1332752" />
      <trkpt lat="46.0603079" lon="11.1329413" />
      <trkpt lat="46.0603279" lon="11.1328680" />
      <trkpt lat="46.0604809" lon="11.1324287" />
      <trkpt lat="46.0606553" lon="11.1319283" />
      <trkpt lat="46.0606349" lon="11.1319142" />
      <trkpt lat="46.0606405" lon="11.1318958" />
      <trkpt lat="46.0606363" lon="11.1318824" />
      <trkpt lat="46.0606224" lon="11.1318733" />
      <trkpt lat="46.0603275" lon="11.1317123" />
      <trkpt lat="46.0602481" lon="11.1316639" />
      <trkpt lat="46.0602213" lon="11.1316475" />
      <trkpt lat="46.0602364" lon="11.1315926" />
      <trkpt lat="46.0601331" lon="11.1315313" />
      <trkpt lat="46.0600367" lon="11.1314940" />
      <trkpt lat="46.0600453" lon="11.1314608" />
      <trkpt lat="46.0595696" lon="11.1311937" />
      <trkpt lat="46.0595575" lon="11.1312424" />
      <trkpt lat="46.0594679" lon="11.1311943" />
      <trkpt lat="46.0595974" lon="11.1307501" />
      <trkpt lat="46.0594679" lon="11.1311943" />
      <trkpt lat="46.0595575" lon="11.1312424" />
      <trkpt lat="46.0597878" lon="11.1313660" />
      <trkpt lat="46.0600367" lon="11.1314940" />
      <trkpt lat="46.0600453" lon="11.1314608" />
      <trkpt lat="46.0600595" lon="11.1314688" />
      <trkpt lat="46.0600942" lon="11.1314765" />
      <trkpt lat="46.0601245" lon="11.1314746" />
      <trkpt lat="46.0601450" lon="11.1314586" />
      <trkpt lat="46.0601987" lon="11.1313692" />
      <trkpt lat="46.0603583" lon="11.1310981" />
      <trkpt lat="46.0603359" lon="11.1309980" />
      <trkpt lat="46.0604237" lon="11.1308510" />
      <trkpt lat="46.0604801" lon="11.1308653" />
      <trkpt lat="46.0604891" lon="11.1308528" />
      <trkpt lat="46.0605019" lon="11.1308268" />
      <trkpt lat="46.0605040" lon="11.1307915" />
      <trkpt lat="46.0604963" lon="11.1307678" />
      <trkpt lat="46.0604925" lon="11.1307614" />
      <trkpt lat="46.0605170" lon="11.1307247" />
      <trkpt lat="46.0605437" lon="11.1306851" />
      <trkpt lat="46.0605566" lon="11.1306941" />
      <trkpt lat="46.0605734" lon="11.1307038" />
      <trkpt lat="46.0605895" lon="11.1306992" />
      <trkpt lat="46.0606077" lon="11.1306817" />
      <trkpt lat="46.0607406" lon="11.1304583" />
      <trkpt lat="46.0608210" lon="11.1303287" />
      <trkpt lat="46.0608358" lon="11.1303007" />
      <trkpt lat="46.0609734" lon="11.1300990" />
      <trkpt lat="46.0609838" lon="11.1300849" />
      <trkpt lat="46.0609606" lon="11.1300524" />
      <trkpt lat="46.0609856" lon="11.1300168" />
      <trkpt lat="46.0610009" lon="11.1299950" />
      <trkpt lat="46.0609740" lon="11.1299560" />
      <trkpt lat="46.0606803" lon="11.1295211" />
      <trkpt lat="46.0604501" lon="11.1291803" />
      <trkpt lat="46.0602997" lon="11.1289644" />
      <trkpt lat="46.0602269" lon="11.1288582" />
      <trkpt lat="46.0602599" lon="11.1288096" />
      <trkpt lat="46.0602364" lon="11.1287757" />
      <trkpt lat="46.0599055" lon="11.1282987" />
      <trkpt lat="46.0599133" lon="11.1282635" />
      <trkpt lat="46.0603073" lon="11.1278602" />
      <trkpt lat="46.0605869" lon="11.1275984" />
      <trkpt lat="46.0606028" lon="11.1275829" />
      <trkpt lat="46.0606141" lon="11.1275764" />
      <trkpt lat="46.0606250" lon="11.1275754" />
      <trkpt lat="46.0606420" lon="11.1275852" />
      <trkpt lat="46.0606654" lon="11.1276290" />
      <trkpt lat="46.0607787" lon="11.1278523" />
      <trkpt lat="46.0607998" lon="11.1278896" />
      <trkpt lat="46.0608338" lon="11.1278450" />
      <trkpt lat="46.0607035" lon="11.1275885" />
      <trkpt lat="46.0606403" lon="11.1274586" />
      <trkpt lat="46.0605991" lon="11.1273680" />
      <trkpt lat="46.0605746" lon="11.1273141" />
      <trkpt lat="46.0605334" lon="11.1273545" />
      <trkpt lat="46.0605133" lon="11.1273340" />
      <trkpt lat="46.0604236" lon="11.1271579" />
      <trkpt lat="46.0602683" lon="11.1268529" />
      <trkpt lat="46.0599350" lon="11.1261987" />
      <trkpt lat="46.0599707" lon="11.1261632" />
      <trkpt lat="46.0600076" lon="11.1261239" />
      <trkpt lat="46.0599690" lon="11.1260502" />
      <trkpt lat="46.0599826" lon="11.1260290" />
      <trkpt lat="46.0599888" lon="11.1260047" />
      <trkpt lat="46.0599954" lon="11.1259916" />
      <trkpt lat="46.0603448" lon="11.1256153" />
      <trkpt lat="46.0605366" lon="11.1254107" />
      <trkpt lat="46.0609062" lon="11.1250349" />
      <trkpt lat="46.0609367" lon="11.1250039" />
      <trkpt lat="46.0609457" lon="11.1249998" />
      <trkpt lat="46.0609558" lon="11.1249953" />
      <trkpt lat="46.0609884" lon="11.1249637" />
      <trkpt lat="46.0610258" lon="11.1249281" />
      <trkpt lat="46.0610327" lon="11.1249060" />
      <trkpt lat="46.0610867" lon="11.1248491" />
      <trkpt lat="46.0610477" lon="11.1247577" />
      <trkpt lat="46.0609940" lon="11.1246318" />
      <trkpt lat="46.0609648" lon="11.1246601" />
      <trkpt lat="46.0609544" lon="11.1246578" />
      <trkpt lat="46.0609461" lon="11.1246480" />
      <trkpt lat="46.0609351" lon="11.1246532" />
      <trkpt lat="46.0609066" lon="11.1246665" />
      <trkpt lat="46.0608744" lon="11.1245307" />
      <trkpt lat="46.0607447" lon="11.1239274" />
      <trkpt lat="46.0606862" lon="11.1236503" />
      <trkpt lat="46.0606392" lon="11.1234094" />
      <trkpt lat="46.0605971" lon="11.1234256" />
      <trkpt lat="46.0604823" lon="11.1228476" />
      <trkpt lat="46.0601569" lon="11.1229832" />
      <trkpt lat="46.0601477" lon="11.1229380" />
      <trkpt lat="46.0604744" lon="11.1228050" />
      <trkpt lat="46.0604627" lon="11.1227451" />
      <trkpt lat="46.0604038" lon="11.1224458" />
      <trkpt lat="46.0603949" lon="11.1224245" />
      <trkpt lat="46.0603860" lon="11.1224033" />
      <trkpt lat="46.0603291" lon="11.1221215" />
      <trkpt lat="46.0603234" lon="11.1220950" />
      <trkpt lat="46.0603176" lon="11.1220861" />
      <trkpt lat="46.0603094" lon="11.1220824" />
      <trkpt lat="46.0602974" lon="11.1220879" />
      <trkpt lat="46.0601530" lon="11.1221538" />
      <trkpt lat="46.0595676" lon="11.1223862" />
      <trkpt lat="46.0595564" lon="11.1223304" />
      <trkpt lat="46.0600435" lon="11.1221392" />
      <trkpt lat="46.0601709" lon="11.1220652" />
      <trkpt lat="46.0602974" lon="11.1220154" />
      <trkpt lat="46.0603626" lon="11.1219916" />
      <trkpt lat="46.0604187" lon="11.1219731" />
      <trkpt lat="46.0607096" lon="11.1218637" />
      <trkpt lat="46.0607979" lon="11.1218270" />
      <trkpt lat="46.0608533" lon="11.1218096" />
      <trkpt lat="46.0609143" lon="11.1217977" />
      <trkpt lat="46.0610024" lon="11.1217844" />
      <trkpt lat="46.0611718" lon="11.1217622" />
      <trkpt lat="46.0614464" lon="11.1217229" />
      <trkpt lat="46.0615861" lon="11.1217028" />
      <trkpt lat="46.0618911" lon="11.1216643" />
      <trkpt lat="46.0620871" lon="11.1216487" />
      <trkpt lat="46.0621300" lon="11.1216464" />
      <trkpt lat="46.0621711" lon="11.1216454" />
      <trkpt lat="46.0624410" lon="11.1216302" />
      <trkpt lat="46.0624505" lon="11.1216299" />
      <trkpt lat="46.0627290" lon="11.1216188" />
      <trkpt lat="46.0627849" lon="11.1216219" />
      <trkpt lat="46.0630008" lon="11.1216637" />
      <trkpt lat="46.0630750" lon="11.1216781" />
      <trkpt lat="46.0631413" lon="11.1216906" />
      <trkpt lat="46.0631477" lon="11.1216227" />
      <trkpt lat="46.0632278" lon="11.1216364" />
      <trkpt lat="46.0633050" lon="11.1216496" />
      <trkpt lat="46.0633774" lon="11.1216566" />
      <trkpt lat="46.0634195" lon="11.1216577" />
      <trkpt lat="46.0634593" lon="11.1216575" />
      <trkpt lat="46.0635139" lon="11.1216504" />
      <trkpt lat="46.0635818" lon="11.1216364" />
      <trkpt lat="46.0636714" lon="11.1216187" />
      <trkpt lat="46.0636896" lon="11.1216097" />
      <trkpt lat="46.0637031" lon="11.1215969" />
      <trkpt lat="46.0637331" lon="11.1215594" />
      <trkpt lat="46.0637567" lon="11.1215259" />
      <trkpt lat="46.0637706" lon="11.1215245" />
      <trkpt lat="46.0642511" lon="11.1214755" />
      <trkpt lat="46.0645414" lon="11.1214142" />
      <trkpt lat="46.0646116" lon="11.1214124" />
      <trkpt lat="46.0646301" lon="11.1214120" />
      <trkpt lat="46.0646996" lon="11.1214103" />
      <trkpt lat="46.0647112" lon="11.1213564" />
      <trkpt lat="46.0647492" lon="11.1213838" />
      <trkpt lat="46.0647781" lon="11.1214005" />
      <trkpt lat="46.0648869" lon="11.1212041" />
      <trkpt lat="46.0654209" lon="11.1212172" />
      <trkpt lat="46.0654688" lon="11.1212196" />
      <trkpt lat="46.0655300" lon="11.1212233" />
      <trkpt lat="46.0655507" lon="11.1211539" />
      <trkpt lat="46.0657149" lon="11.1211459" />
      <trkpt lat="46.0661065" lon="11.1211467" />
      <trkpt lat="46.0661586" lon="11.1211285" />
      <trkpt lat="46.0664061" lon="11.1210506" />
      <trkpt lat="46.0665614" lon="11.1210220" />
      <trkpt lat="46.0666115" lon="11.1210169" />
      <trkpt lat="46.0666602" lon="11.1210169" />
      <trkpt lat="46.0667526" lon="11.1210542" />
      <trkpt lat="46.0667705" lon="11.1210629" />
      <trkpt lat="46.0668711" lon="11.1210492" />
    </trkseg>
  </trk>
</gpx>
