<?xml version="1.0" encoding="UTF-8"?>
<gpx xmlns="http://www.topografix.com/GPX/1/1" version="1.1" creator="ShapeRoute route-engine">
  <metadata>
    <name>moon 10 km · 2026-09-24</name>
    <author>
      <name>ShapeRoute route-engine</name>
    </author>
    <copyright author="OpenStreetMap contributors">
      <license>https://opendatacommons.org/licenses/odbl/1-0/</license>
    </copyright>
    <link href="https://www.openstreetmap.org/copyright">
      <text>© OpenStreetMap contributors</text>
    </link>
    <time>2026-09-24T04:59:18Z</time>
  </metadata>
  <trk>
    <name>moon 10 km · 2026-09-24</name>
    <trkseg>
      <trkpt lat="46.0123552" lon="11.2985082" />
      <trkpt lat="46.0122424" lon="11.2983394" />
      <trkpt lat="46.0122499" lon="11.2982214" />
      <trkpt lat="46.0122052" lon="11.2981248" />
      <trkpt lat="46.0120860" lon="11.2982428" />
      <trkpt lat="46.0118824" lon="11.2985225" />
      <trkpt lat="46.0115130" lon="11.2989377" />
      <trkpt lat="46.0117397" lon="11.2992656" />
      <trkpt lat="46.0118373" lon="11.2994164" />
      <trkpt lat="46.0118498" lon="11.2994411" />
      <trkpt lat="46.0116723" lon="11.2996863" />
      <trkpt lat="46.0112962" lon="11.3002246" />
      <trkpt lat="46.0112603" lon="11.3002166" />
      <trkpt lat="46.0111699" lon="11.3001210" />
      <trkpt lat="46.0111478" lon="11.3000732" />
      <trkpt lat="46.0110641" lon="11.3001073" />
      <trkpt lat="46.0109687" lon="11.3002118" />
      <trkpt lat="46.0108341" lon="11.3004232" />
      <trkpt lat="46.0107851" lon="11.3005647" />
      <trkpt lat="46.0107365" lon="11.3005564" />
      <trkpt lat="46.0106190" lon="11.3004795" />
      <trkpt lat="46.0104683" lon="11.3003600" />
      <trkpt lat="46.0103305" lon="11.3002544" />
      <trkpt lat="46.0100554" lon="11.3009318" />
      <trkpt lat="46.0099866" lon="11.3008330" />
      <trkpt lat="46.0099449" lon="11.3007687" />
      <trkpt lat="46.0099204" lon="11.3007309" />
      <trkpt lat="46.0099081" lon="11.3007120" />
      <trkpt lat="46.0097259" lon="11.3004099" />
      <trkpt lat="46.0096170" lon="11.3003095" />
      <trkpt lat="46.0095258" lon="11.3002254" />
      <trkpt lat="46.0092735" lon="11.3000264" />
      <trkpt lat="46.0089993" lon="11.2998204" />
      <trkpt lat="46.0088160" lon="11.3002149" />
      <trkpt lat="46.0086540" lon="11.3006161" />
      <trkpt lat="46.0085514" lon="11.3008740" />
      <trkpt lat="46.0085132" lon="11.3009526" />
      <trkpt lat="46.0084804" lon="11.3009856" />
      <trkpt lat="46.0084291" lon="11.3009951" />
      <trkpt lat="46.0083362" lon="11.3009589" />
      <trkpt lat="46.0082347" lon="11.3009432" />
      <trkpt lat="46.0081156" lon="11.3009486" />
      <trkpt lat="46.0080981" lon="11.3009575" />
      <trkpt lat="46.0080384" lon="11.3009880" />
      <trkpt lat="46.0078069" lon="11.3010941" />
      <trkpt lat="46.0072818" lon="11.3013815" />
      <trkpt lat="46.0071272" lon="11.3015076" />
      <trkpt lat="46.0071213" lon="11.3015131" />
      <trkpt lat="46.0071148" lon="11.3015190" />
      <trkpt lat="46.0071206" lon="11.3015285" />
      <trkpt lat="46.0071261" lon="11.3015416" />
      <trkpt lat="46.0071298" lon="11.3015561" />
      <trkpt lat="46.0071314" lon="11.3015713" />
      <trkpt lat="46.0071309" lon="11.3015867" />
      <trkpt lat="46.0071283" lon="11.3016017" />
      <trkpt lat="46.0071238" lon="11.3016156" />
      <trkpt lat="46.0071175" lon="11.3016280" />
      <trkpt lat="46.0071096" lon="11.3016384" />
      <trkpt lat="46.0071023" lon="11.3016451" />
      <trkpt lat="46.0070904" lon="11.3016516" />
      <trkpt lat="46.0070798" lon="11.3016539" />
      <trkpt lat="46.0070691" lon="11.3016533" />
      <trkpt lat="46.0070569" lon="11.3016486" />
      <trkpt lat="46.0070144" lon="11.3017272" />
      <trkpt lat="46.0068944" lon="11.3018899" />
      <trkpt lat="46.0067834" lon="11.3020980" />
      <trkpt lat="46.0067126" lon="11.3022732" />
      <trkpt lat="46.0066162" lon="11.3026200" />
      <trkpt lat="46.0065081" lon="11.3030335" />
      <trkpt lat="46.0064759" lon="11.3031605" />
      <trkpt lat="46.0063797" lon="11.3035108" />
      <trkpt lat="46.0063762" lon="11.3035226" />
      <trkpt lat="46.0062972" lon="11.3038449" />
      <trkpt lat="46.0062066" lon="11.3041748" />
      <trkpt lat="46.0061854" lon="11.3042582" />
      <trkpt lat="46.0061697" lon="11.3043730" />
      <trkpt lat="46.0061198" lon="11.3047827" />
      <trkpt lat="46.0060983" lon="11.3049590" />
      <trkpt lat="46.0060451" lon="11.3053913" />
      <trkpt lat="46.0060391" lon="11.3055819" />
      <trkpt lat="46.0060439" lon="11.3056937" />
      <trkpt lat="46.0060831" lon="11.3059050" />
      <trkpt lat="46.0060319" lon="11.3062139" />
      <trkpt lat="46.0059868" lon="11.3066405" />
      <trkpt lat="46.0059288" lon="11.3071873" />
      <trkpt lat="46.0058804" lon="11.3075429" />
      <trkpt lat="46.0058203" lon="11.3077677" />
      <trkpt lat="46.0057341" lon="11.3079688" />
      <trkpt lat="46.0056023" lon="11.3081476" />
      <trkpt lat="46.0054187" lon="11.3083960" />
      <trkpt lat="46.0052770" lon="11.3084969" />
      <trkpt lat="46.0052570" lon="11.3085037" />
      <trkpt lat="46.0051424" lon="11.3085430" />
      <trkpt lat="46.0049840" lon="11.3085627" />
      <trkpt lat="46.0047705" lon="11.3085896" />
      <trkpt lat="46.0045028" lon="11.3086190" />
      <trkpt lat="46.0044071" lon="11.3086441" />
      <trkpt lat="46.0043032" lon="11.3086805" />
      <trkpt lat="46.0040299" lon="11.3089548" />
      <trkpt lat="46.0039405" lon="11.3090423" />
      <trkpt lat="46.0038448" lon="11.3092298" />
      <trkpt lat="46.0038608" lon="11.3098715" />
      <trkpt lat="46.0039085" lon="11.3107334" />
      <trkpt lat="46.0039837" lon="11.3116396" />
      <trkpt lat="46.0040966" lon="11.3125681" />
      <trkpt lat="46.0042619" lon="11.3135953" />
      <trkpt lat="46.0044583" lon="11.3146205" />
      <trkpt lat="46.0047362" lon="11.3156749" />
      <trkpt lat="46.0050943" lon="11.3168809" />
      <trkpt lat="46.0054410" lon="11.3178407" />
      <trkpt lat="46.0058403" lon="11.3187870" />
      <trkpt lat="46.0062519" lon="11.3197397" />
      <trkpt lat="46.0064955" lon="11.3202924" />
      <trkpt lat="46.0067133" lon="11.3207820" />
      <trkpt lat="46.0067757" lon="11.3209222" />
      <trkpt lat="46.0069132" lon="11.3212313" />
      <trkpt lat="46.0068733" lon="11.3211688" />
      <trkpt lat="46.0068440" lon="11.3211458" />
      <trkpt lat="46.0068041" lon="11.3211394" />
      <trkpt lat="46.0067705" lon="11.3211535" />
      <trkpt lat="46.0067279" lon="11.3211892" />
      <trkpt lat="46.0063897" lon="11.3216605" />
      <trkpt lat="46.0061036" lon="11.3220750" />
      <trkpt lat="46.0059277" lon="11.3223902" />
      <trkpt lat="46.0057556" lon="11.3227120" />
      <trkpt lat="46.0058122" lon="11.3225417" />
      <trkpt lat="46.0060084" lon="11.3219615" />
      <trkpt lat="46.0061841" lon="11.3216120" />
      <trkpt lat="46.0065988" lon="11.3210383" />
      <trkpt lat="46.0071585" lon="11.3203162" />
      <trkpt lat="46.0075206" lon="11.3198137" />
      <trkpt lat="46.0076393" lon="11.3195457" />
      <trkpt lat="46.0077091" lon="11.3193328" />
      <trkpt lat="46.0078035" lon="11.3189629" />
      <trkpt lat="46.0078471" lon="11.3190383" />
      <trkpt lat="46.0078576" lon="11.3190566" />
      <trkpt lat="46.0079043" lon="11.3191195" />
      <trkpt lat="46.0079378" lon="11.3191646" />
      <trkpt lat="46.0080687" lon="11.3194383" />
      <trkpt lat="46.0080781" lon="11.3194579" />
      <trkpt lat="46.0081174" lon="11.3195353" />
      <trkpt lat="46.0085159" lon="11.3203203" />
      <trkpt lat="46.0090371" lon="11.3212706" />
      <trkpt lat="46.0085159" lon="11.3203203" />
      <trkpt lat="46.0081174" lon="11.3195353" />
      <trkpt lat="46.0080781" lon="11.3194579" />
      <trkpt lat="46.0080687" lon="11.3194383" />
      <trkpt lat="46.0079378" lon="11.3191646" />
      <trkpt lat="46.0079043" lon="11.3191195" />
      <trkpt lat="46.0078576" lon="11.3190566" />
      <trkpt lat="46.0078471" lon="11.3190383" />
      <trkpt lat="46.0078035" lon="11.3189629" />
      <trkpt lat="46.0078333" lon="11.3182906" />
      <trkpt lat="46.0078157" lon="11.3163702" />
      <trkpt lat="46.0078223" lon="11.3160792" />
      <trkpt lat="46.0078423" lon="11.3158250" />
      <trkpt lat="46.0079104" lon="11.3154873" />
      <trkpt lat="46.0079599" lon="11.3153141" />
      <trkpt lat="46.0080880" lon="11.3148279" />
      <trkpt lat="46.0081500" lon="11.3145927" />
      <trkpt lat="46.0081630" lon="11.3145431" />
      <trkpt lat="46.0082517" lon="11.3142061" />
      <trkpt lat="46.0082799" lon="11.3139922" />
      <trkpt lat="46.0082821" lon="11.3138482" />
      <trkpt lat="46.0082886" lon="11.3134761" />
      <trkpt lat="46.0083021" lon="11.3133615" />
      <trkpt lat="46.0083129" lon="11.3132688" />
      <trkpt lat="46.0083758" lon="11.3130382" />
      <trkpt lat="46.0084349" lon="11.3128150" />
      <trkpt lat="46.0084138" lon="11.3126652" />
      <trkpt lat="46.0083970" lon="11.3125461" />
      <trkpt lat="46.0084740" lon="11.3124796" />
      <trkpt lat="46.0085576" lon="11.3123055" />
      <trkpt lat="46.0086543" lon="11.3119920" />
      <trkpt lat="46.0087291" lon="11.3115741" />
      <trkpt lat="46.0087766" lon="11.3113086" />
      <trkpt lat="46.0088061" lon="11.3110390" />
      <trkpt lat="46.0088334" lon="11.3106461" />
      <trkpt lat="46.0088822" lon="11.3102538" />
      <trkpt lat="46.0089760" lon="11.3097174" />
      <trkpt lat="46.0090073" lon="11.3095385" />
      <trkpt lat="46.0090404" lon="11.3094486" />
      <trkpt lat="46.0090448" lon="11.3094131" />
      <trkpt lat="46.0090559" lon="11.3093807" />
      <trkpt lat="46.0090726" lon="11.3093539" />
      <trkpt lat="46.0090947" lon="11.3093342" />
      <trkpt lat="46.0091198" lon="11.3093242" />
      <trkpt lat="46.0091459" lon="11.3093250" />
      <trkpt lat="46.0091689" lon="11.3093351" />
      <trkpt lat="46.0091892" lon="11.3093536" />
      <trkpt lat="46.0092055" lon="11.3093792" />
      <trkpt lat="46.0092747" lon="11.3093032" />
      <trkpt lat="46.0093089" lon="11.3092664" />
      <trkpt lat="46.0093417" lon="11.3092364" />
      <trkpt lat="46.0093756" lon="11.3092212" />
      <trkpt lat="46.0094113" lon="11.3092100" />
      <trkpt lat="46.0094485" lon="11.3092101" />
      <trkpt lat="46.0094848" lon="11.3092210" />
      <trkpt lat="46.0095093" lon="11.3092309" />
      <trkpt lat="46.0095413" lon="11.3092533" />
      <trkpt lat="46.0095602" lon="11.3092690" />
      <trkpt lat="46.0096191" lon="11.3093162" />
      <trkpt lat="46.0096743" lon="11.3093517" />
      <trkpt lat="46.0097471" lon="11.3093905" />
      <trkpt lat="46.0098305" lon="11.3094158" />
      <trkpt lat="46.0098931" lon="11.3094071" />
      <trkpt lat="46.0103494" lon="11.3092761" />
      <trkpt lat="46.0104685" lon="11.3092444" />
      <trkpt lat="46.0105969" lon="11.3092274" />
      <trkpt lat="46.0110743" lon="11.3092062" />
      <trkpt lat="46.0110982" lon="11.3092079" />
      <trkpt lat="46.0112065" lon="11.3092161" />
      <trkpt lat="46.0113540" lon="11.3092369" />
      <trkpt lat="46.0115957" lon="11.3092885" />
      <trkpt lat="46.0117285" lon="11.3093139" />
      <trkpt lat="46.0117912" lon="11.3093198" />
      <trkpt lat="46.0119086" lon="11.3093218" />
      <trkpt lat="46.0120910" lon="11.3093193" />
      <trkpt lat="46.0121068" lon="11.3093195" />
      <trkpt lat="46.0121885" lon="11.3093191" />
      <trkpt lat="46.0123477" lon="11.3093205" />
      <trkpt lat="46.0124877" lon="11.3093217" />
      <trkpt lat="46.0125018" lon="11.3092123" />
      <trkpt lat="46.0125287" lon="11.3087845" />
      <trkpt lat="46.0126690" lon="11.3068184" />
      <trkpt lat="46.0126749" lon="11.3067415" />
      <trkpt lat="46.0127983" lon="11.3050318" />
      <trkpt lat="46.0127990" lon="11.3049468" />
      <trkpt lat="46.0130363" lon="11.3051489" />
      <trkpt lat="46.0134104" lon="11.3053479" />
      <trkpt lat="46.0136046" lon="11.3054330" />
      <trkpt lat="46.0136996" lon="11.3055082" />
      <trkpt lat="46.0139211" lon="11.3044210" />
      <trkpt lat="46.0139686" lon="11.3042444" />
      <trkpt lat="46.0141446" lon="11.3036802" />
      <trkpt lat="46.0143095" lon="11.3038059" />
      <trkpt lat="46.0144313" lon="11.3038947" />
      <trkpt lat="46.0144747" lon="11.3039626" />
      <trkpt lat="46.0146628" lon="11.3041178" />
      <trkpt lat="46.0147318" lon="11.3041906" />
      <trkpt lat="46.0148201" lon="11.3043045" />
      <trkpt lat="46.0148422" lon="11.3043504" />
      <trkpt lat="46.0150062" lon="11.3046932" />
      <trkpt lat="46.0151013" lon="11.3048752" />
      <trkpt lat="46.0151850" lon="11.3050411" />
      <trkpt lat="46.0152822" lon="11.3052221" />
      <trkpt lat="46.0155139" lon="11.3054905" />
      <trkpt lat="46.0157910" lon="11.3057765" />
      <trkpt lat="46.0159255" lon="11.3059359" />
      <trkpt lat="46.0159769" lon="11.3059862" />
      <trkpt lat="46.0162817" lon="11.3062193" />
      <trkpt lat="46.0168513" lon="11.3065339" />
      <trkpt lat="46.0176425" lon="11.3072598" />
      <trkpt lat="46.0179405" lon="11.3075602" />
      <trkpt lat="46.0181975" lon="11.3077936" />
      <trkpt lat="46.0184676" lon="11.3079679" />
      <trkpt lat="46.0187638" lon="11.3081261" />
      <trkpt lat="46.0190404" lon="11.3082629" />
      <trkpt lat="46.0191046" lon="11.3082992" />
      <trkpt lat="46.0191540" lon="11.3082965" />
      <trkpt lat="46.0192033" lon="11.3082817" />
      <trkpt lat="46.0192713" lon="11.3082334" />
      <trkpt lat="46.0194557" lon="11.3080578" />
      <trkpt lat="46.0195991" lon="11.3078901" />
      <trkpt lat="46.0196653" lon="11.3078526" />
      <trkpt lat="46.0197332" lon="11.3078512" />
      <trkpt lat="46.0197882" lon="11.3078982" />
      <trkpt lat="46.0198320" lon="11.3079800" />
      <trkpt lat="46.0198487" lon="11.3080966" />
      <trkpt lat="46.0198487" lon="11.3084695" />
      <trkpt lat="46.0198552" lon="11.3086036" />
      <trkpt lat="46.0198860" lon="11.3087323" />
      <trkpt lat="46.0199269" lon="11.3087967" />
      <trkpt lat="46.0199707" lon="11.3088410" />
      <trkpt lat="46.0200968" lon="11.3091400" />
      <trkpt lat="46.0202747" lon="11.3093533" />
      <trkpt lat="46.0203273" lon="11.3093942" />
      <trkpt lat="46.0217308" lon="11.3103122" />
      <trkpt lat="46.0217494" lon="11.3104114" />
      <trkpt lat="46.0217736" lon="11.3104805" />
      <trkpt lat="46.0218321" lon="11.3104724" />
      <trkpt lat="46.0221690" lon="11.3104234" />
      <trkpt lat="46.0224298" lon="11.3103655" />
      <trkpt lat="46.0226471" lon="11.3102652" />
      <trkpt lat="46.0227645" lon="11.3101754" />
      <trkpt lat="46.0228678" lon="11.3100412" />
      <trkpt lat="46.0229437" lon="11.3099076" />
      <trkpt lat="46.0229965" lon="11.3097289" />
      <trkpt lat="46.0229839" lon="11.3095497" />
      <trkpt lat="46.0229340" lon="11.3094575" />
      <trkpt lat="46.0227695" lon="11.3091599" />
      <trkpt lat="46.0226388" lon="11.3088677" />
      <trkpt lat="46.0225944" lon="11.3086939" />
      <trkpt lat="46.0225781" lon="11.3083747" />
      <trkpt lat="46.0225911" lon="11.3081384" />
      <trkpt lat="46.0225920" lon="11.3078804" />
      <trkpt lat="46.0225559" lon="11.3076516" />
      <trkpt lat="46.0224273" lon="11.3072775" />
      <trkpt lat="46.0222956" lon="11.3069165" />
      <trkpt lat="46.0220987" lon="11.3066305" />
      <trkpt lat="46.0217465" lon="11.3063612" />
      <trkpt lat="46.0215438" lon="11.3061877" />
      <trkpt lat="46.0213464" lon="11.3060161" />
      <trkpt lat="46.0210739" lon="11.3058154" />
      <trkpt lat="46.0209539" lon="11.3057653" />
      <trkpt lat="46.0208332" lon="11.3056805" />
      <trkpt lat="46.0208238" lon="11.3055445" />
      <trkpt lat="46.0208461" lon="11.3054708" />
      <trkpt lat="46.0208803" lon="11.3054417" />
      <trkpt lat="46.0209529" lon="11.3054032" />
      <trkpt lat="46.0210247" lon="11.3053840" />
      <trkpt lat="46.0211518" lon="11.3053285" />
      <trkpt lat="46.0213213" lon="11.3053093" />
      <trkpt lat="46.0217135" lon="11.3051985" />
      <trkpt lat="46.0218065" lon="11.3051605" />
      <trkpt lat="46.0219505" lon="11.3050087" />
      <trkpt lat="46.0219935" lon="11.3048956" />
      <trkpt lat="46.0220328" lon="11.3047921" />
      <trkpt lat="46.0220685" lon="11.3045769" />
      <trkpt lat="46.0220751" lon="11.3043851" />
      <trkpt lat="46.0220070" lon="11.3040124" />
      <trkpt lat="46.0217066" lon="11.3022514" />
      <trkpt lat="46.0216358" lon="11.3020024" />
      <trkpt lat="46.0214040" lon="11.3016335" />
      <trkpt lat="46.0212689" lon="11.3013563" />
      <trkpt lat="46.0212335" lon="11.3011765" />
      <trkpt lat="46.0212279" lon="11.3010424" />
      <trkpt lat="46.0212589" lon="11.3006941" />
      <trkpt lat="46.0211171" lon="11.3007253" />
      <trkpt lat="46.0209503" lon="11.3010138" />
      <trkpt lat="46.0209176" lon="11.3010762" />
      <trkpt lat="46.0208976" lon="11.3011399" />
      <trkpt lat="46.0209042" lon="11.3012260" />
      <trkpt lat="46.0209196" lon="11.3013163" />
      <trkpt lat="46.0209755" lon="11.3013780" />
      <trkpt lat="46.0210543" lon="11.3013930" />
      <trkpt lat="46.0211088" lon="11.3014813" />
      <trkpt lat="46.0211538" lon="11.3016688" />
      <trkpt lat="46.0212354" lon="11.3017666" />
      <trkpt lat="46.0213061" lon="11.3019276" />
      <trkpt lat="46.0213583" lon="11.3020831" />
      <trkpt lat="46.0213918" lon="11.3024184" />
      <trkpt lat="46.0214160" lon="11.3029093" />
      <trkpt lat="46.0214198" lon="11.3035154" />
      <trkpt lat="46.0214645" lon="11.3038453" />
      <trkpt lat="46.0214384" lon="11.3041565" />
      <trkpt lat="46.0214477" lon="11.3043818" />
      <trkpt lat="46.0214421" lon="11.3045213" />
      <trkpt lat="46.0214104" lon="11.3046312" />
      <trkpt lat="46.0213415" lon="11.3047224" />
      <trkpt lat="46.0212540" lon="11.3047868" />
      <trkpt lat="46.0211124" lon="11.3048297" />
      <trkpt lat="46.0209150" lon="11.3048270" />
      <trkpt lat="46.0206524" lon="11.3048270" />
      <trkpt lat="46.0204739" lon="11.3049117" />
      <trkpt lat="46.0203188" lon="11.3049647" />
      <trkpt lat="46.0201097" lon="11.3051109" />
      <trkpt lat="46.0198366" lon="11.3052160" />
      <trkpt lat="46.0196448" lon="11.3052240" />
      <trkpt lat="46.0193784" lon="11.3052428" />
      <trkpt lat="46.0191177" lon="11.3053125" />
      <trkpt lat="46.0188252" lon="11.3055512" />
      <trkpt lat="46.0186967" lon="11.3058463" />
      <trkpt lat="46.0186502" lon="11.3059348" />
      <trkpt lat="46.0185738" lon="11.3059992" />
      <trkpt lat="46.0184881" lon="11.3060099" />
      <trkpt lat="46.0183559" lon="11.3060340" />
      <trkpt lat="46.0179815" lon="11.3060313" />
      <trkpt lat="46.0178213" lon="11.3060850" />
      <trkpt lat="46.0177038" lon="11.3061079" />
      <trkpt lat="46.0175943" lon="11.3060763" />
      <trkpt lat="46.0174605" lon="11.3059445" />
      <trkpt lat="46.0171816" lon="11.3054649" />
      <trkpt lat="46.0170498" lon="11.3051086" />
      <trkpt lat="46.0169994" lon="11.3049075" />
      <trkpt lat="46.0169713" lon="11.3047150" />
      <trkpt lat="46.0168768" lon="11.3041644" />
      <trkpt lat="46.0167292" lon="11.3036036" />
      <trkpt lat="46.0167054" lon="11.3034663" />
      <trkpt lat="46.0167352" lon="11.3033805" />
      <trkpt lat="46.0168363" lon="11.3033181" />
      <trkpt lat="46.0169338" lon="11.3032080" />
      <trkpt lat="46.0170292" lon="11.3030996" />
      <trkpt lat="46.0167927" lon="11.3026196" />
      <trkpt lat="46.0169441" lon="11.3021369" />
      <trkpt lat="46.0170359" lon="11.3017269" />
      <trkpt lat="46.0170520" lon="11.3015792" />
      <trkpt lat="46.0170461" lon="11.3009812" />
      <trkpt lat="46.0169422" lon="11.3011398" />
      <trkpt lat="46.0168864" lon="11.3012349" />
      <trkpt lat="46.0168507" lon="11.3010289" />
      <trkpt lat="46.0167848" lon="11.3008219" />
      <trkpt lat="46.0167475" lon="11.3007453" />
      <trkpt lat="46.0166596" lon="11.3005644" />
      <trkpt lat="46.0165426" lon="11.3003874" />
      <trkpt lat="46.0163497" lon="11.3000924" />
      <trkpt lat="46.0162066" lon="11.2999207" />
      <trkpt lat="46.0160338" lon="11.2998263" />
      <trkpt lat="46.0157648" lon="11.2997010" />
      <trkpt lat="46.0156523" lon="11.2995860" />
      <trkpt lat="46.0155092" lon="11.2994658" />
      <trkpt lat="46.0153721" lon="11.2994057" />
      <trkpt lat="46.0152529" lon="11.2994057" />
      <trkpt lat="46.0151116" lon="11.2994017" />
      <trkpt lat="46.0149522" lon="11.2994952" />
      <trkpt lat="46.0147999" lon="11.2995516" />
      <trkpt lat="46.0146771" lon="11.2995241" />
      <trkpt lat="46.0145811" lon="11.2994220" />
      <trkpt lat="46.0145138" lon="11.2993285" />
      <trkpt lat="46.0144647" lon="11.2992432" />
      <trkpt lat="46.0141849" lon="11.2988817" />
      <trkpt lat="46.0141584" lon="11.2988474" />
      <trkpt lat="46.0139231" lon="11.2985434" />
      <trkpt lat="46.0136470" lon="11.2981837" />
      <trkpt lat="46.0134865" lon="11.2979792" />
      <trkpt lat="46.0133454" lon="11.2977970" />
      <trkpt lat="46.0132320" lon="11.2976177" />
      <trkpt lat="46.0131919" lon="11.2975460" />
      <trkpt lat="46.0131199" lon="11.2976603" />
      <trkpt lat="46.0130468" lon="11.2977714" />
      <trkpt lat="46.0129712" lon="11.2978899" />
      <trkpt lat="46.0128770" lon="11.2979586" />
      <trkpt lat="46.0128013" lon="11.2980024" />
      <trkpt lat="46.0127682" lon="11.2980215" />
      <trkpt lat="46.0125364" lon="11.2982718" />
      <trkpt lat="46.0123552" lon="11.2985082" />
    </trkseg>
  </trk>
</gpx>
