<?xml version="1.0" encoding="UTF-8"?>
<gpx xmlns="http://www.topografix.com/GPX/1/1" version="1.1" creator="ShapeRoute route-engine">
  <metadata>
    <name>fish 15 km · 2026-09-24</name>
    <author>
      <name>ShapeRoute route-engine</name>
    </author>
    <copyright author="OpenStreetMap contributors">
      <license>https://opendatacommons.org/licenses/odbl/1-0/</license>
    </copyright>
    <link href="https://www.openstreetmap.org/copyright">
      <text>© OpenStreetMap contributors</text>
    </link>
    <time>2026-09-24T04:59:13Z</time>
  </metadata>
  <trk>
    <name>fish 15 km · 2026-09-24</name>
    <trkseg>
      <trkpt lat="46.0123552" lon="11.2985082" />
      <trkpt lat="46.0122424" lon="11.2983394" />
      <trkpt lat="46.0122499" lon="11.2982214" />
      <trkpt lat="46.0122052" lon="11.2981248" />
      <trkpt lat="46.0120860" lon="11.2982428" />
      <trkpt lat="46.0118824" lon="11.2985225" />
      <trkpt lat="46.0118028" lon="11.2983483" />
      <trkpt lat="46.0116728" lon="11.2981556" />
      <trkpt lat="46.0115587" lon="11.2979934" />
      <trkpt lat="46.0115764" lon="11.2979707" />
      <trkpt lat="46.0116123" lon="11.2977853" />
      <trkpt lat="46.0112181" lon="11.2971112" />
      <trkpt lat="46.0112568" lon="11.2970649" />
      <trkpt lat="46.0111781" lon="11.2968399" />
      <trkpt lat="46.0112072" lon="11.2965500" />
      <trkpt lat="46.0111280" lon="11.2964899" />
      <trkpt lat="46.0110369" lon="11.2964115" />
      <trkpt lat="46.0109276" lon="11.2962659" />
      <trkpt lat="46.0107605" lon="11.2960435" />
      <trkpt lat="46.0107266" lon="11.2959983" />
      <trkpt lat="46.0106659" lon="11.2959174" />
      <trkpt lat="46.0105204" lon="11.2957234" />
      <trkpt lat="46.0105090" lon="11.2957082" />
      <trkpt lat="46.0103318" lon="11.2954721" />
      <trkpt lat="46.0102901" lon="11.2954163" />
      <trkpt lat="46.0102519" lon="11.2953652" />
      <trkpt lat="46.0101526" lon="11.2952325" />
      <trkpt lat="46.0099498" lon="11.2949615" />
      <trkpt lat="46.0099173" lon="11.2949136" />
      <trkpt lat="46.0098606" lon="11.2948293" />
      <trkpt lat="46.0096077" lon="11.2944514" />
      <trkpt lat="46.0095860" lon="11.2944225" />
      <trkpt lat="46.0093406" lon="11.2941340" />
      <trkpt lat="46.0091637" lon="11.2939748" />
      <trkpt lat="46.0091364" lon="11.2939444" />
      <trkpt lat="46.0090031" lon="11.2937964" />
      <trkpt lat="46.0089737" lon="11.2937248" />
      <trkpt lat="46.0089680" lon="11.2936565" />
      <trkpt lat="46.0088694" lon="11.2936467" />
      <trkpt lat="46.0086759" lon="11.2935596" />
      <trkpt lat="46.0086200" lon="11.2935258" />
      <trkpt lat="46.0084383" lon="11.2934159" />
      <trkpt lat="46.0082721" lon="11.2933149" />
      <trkpt lat="46.0081086" lon="11.2932391" />
      <trkpt lat="46.0078961" lon="11.2931425" />
      <trkpt lat="46.0076801" lon="11.2930443" />
      <trkpt lat="46.0077066" lon="11.2930044" />
      <trkpt lat="46.0076399" lon="11.2929275" />
      <trkpt lat="46.0076071" lon="11.2927878" />
      <trkpt lat="46.0076061" lon="11.2927072" />
      <trkpt lat="46.0075835" lon="11.2926538" />
      <trkpt lat="46.0075579" lon="11.2925933" />
      <trkpt lat="46.0081916" lon="11.2916187" />
      <trkpt lat="46.0083873" lon="11.2913545" />
      <trkpt lat="46.0085966" lon="11.2910754" />
      <trkpt lat="46.0089896" lon="11.2905536" />
      <trkpt lat="46.0091629" lon="11.2903090" />
      <trkpt lat="46.0093036" lon="11.2901538" />
      <trkpt lat="46.0094460" lon="11.2900661" />
      <trkpt lat="46.0093986" lon="11.2899309" />
      <trkpt lat="46.0093958" lon="11.2899229" />
      <trkpt lat="46.0090416" lon="11.2889431" />
      <trkpt lat="46.0088389" lon="11.2883637" />
      <trkpt lat="46.0088342" lon="11.2881141" />
      <trkpt lat="46.0088116" lon="11.2879678" />
      <trkpt lat="46.0087744" lon="11.2878722" />
      <trkpt lat="46.0086914" lon="11.2878024" />
      <trkpt lat="46.0086680" lon="11.2877792" />
      <trkpt lat="46.0086383" lon="11.2877703" />
      <trkpt lat="46.0085887" lon="11.2877427" />
      <trkpt lat="46.0085013" lon="11.2876968" />
      <trkpt lat="46.0084543" lon="11.2877742" />
      <trkpt lat="46.0067109" lon="11.2906711" />
      <trkpt lat="46.0066948" lon="11.2906504" />
      <trkpt lat="46.0066517" lon="11.2905954" />
      <trkpt lat="46.0065443" lon="11.2904935" />
      <trkpt lat="46.0063692" lon="11.2903953" />
      <trkpt lat="46.0061755" lon="11.2902346" />
      <trkpt lat="46.0060181" lon="11.2900874" />
      <trkpt lat="46.0058293" lon="11.2899363" />
      <trkpt lat="46.0065317" lon="11.2882075" />
      <trkpt lat="46.0069793" lon="11.2871160" />
      <trkpt lat="46.0070534" lon="11.2869185" />
      <trkpt lat="46.0075205" lon="11.2857000" />
      <trkpt lat="46.0077175" lon="11.2852761" />
      <trkpt lat="46.0077833" lon="11.2851152" />
      <trkpt lat="46.0081335" lon="11.2842582" />
      <trkpt lat="46.0077833" lon="11.2851152" />
      <trkpt lat="46.0077175" lon="11.2852761" />
      <trkpt lat="46.0075205" lon="11.2857000" />
      <trkpt lat="46.0070534" lon="11.2869185" />
      <trkpt lat="46.0069437" lon="11.2868243" />
      <trkpt lat="46.0068558" lon="11.2868669" />
      <trkpt lat="46.0067950" lon="11.2869753" />
      <trkpt lat="46.0059371" lon="11.2863030" />
      <trkpt lat="46.0059309" lon="11.2865236" />
      <trkpt lat="46.0059011" lon="11.2870574" />
      <trkpt lat="46.0058788" lon="11.2875697" />
      <trkpt lat="46.0058639" lon="11.2881115" />
      <trkpt lat="46.0058229" lon="11.2891334" />
      <trkpt lat="46.0058080" lon="11.2894231" />
      <trkpt lat="46.0057931" lon="11.2897772" />
      <trkpt lat="46.0057875" lon="11.2898952" />
      <trkpt lat="46.0057476" lon="11.2899830" />
      <trkpt lat="46.0057102" lon="11.2903954" />
      <trkpt lat="46.0056833" lon="11.2907267" />
      <trkpt lat="46.0056710" lon="11.2908528" />
      <trkpt lat="46.0056664" lon="11.2908929" />
      <trkpt lat="46.0056287" lon="11.2909373" />
      <trkpt lat="46.0053990" lon="11.2906638" />
      <trkpt lat="46.0051229" lon="11.2903376" />
      <trkpt lat="46.0047858" lon="11.2899393" />
      <trkpt lat="46.0045284" lon="11.2896353" />
      <trkpt lat="46.0041342" lon="11.2891696" />
      <trkpt lat="46.0041204" lon="11.2891534" />
      <trkpt lat="46.0040061" lon="11.2890183" />
      <trkpt lat="46.0039244" lon="11.2889256" />
      <trkpt lat="46.0039147" lon="11.2889133" />
      <trkpt lat="46.0037008" lon="11.2886425" />
      <trkpt lat="46.0029517" lon="11.2876559" />
      <trkpt lat="46.0029229" lon="11.2875548" />
      <trkpt lat="46.0029062" lon="11.2874267" />
      <trkpt lat="46.0028868" lon="11.2871405" />
      <trkpt lat="46.0028664" lon="11.2868840" />
      <trkpt lat="46.0028512" lon="11.2865966" />
      <trkpt lat="46.0028408" lon="11.2864729" />
      <trkpt lat="46.0028144" lon="11.2863524" />
      <trkpt lat="46.0027886" lon="11.2863086" />
      <trkpt lat="46.0027533" lon="11.2862724" />
      <trkpt lat="46.0026839" lon="11.2862547" />
      <trkpt lat="46.0026208" lon="11.2862507" />
      <trkpt lat="46.0025911" lon="11.2862631" />
      <trkpt lat="46.0025631" lon="11.2862891" />
      <trkpt lat="46.0025338" lon="11.2863258" />
      <trkpt lat="46.0025077" lon="11.2863738" />
      <trkpt lat="46.0024793" lon="11.2864324" />
      <trkpt lat="46.0024454" lon="11.2865168" />
      <trkpt lat="46.0024494" lon="11.2865472" />
      <trkpt lat="46.0025272" lon="11.2877438" />
      <trkpt lat="46.0026612" lon="11.2900427" />
      <trkpt lat="46.0026927" lon="11.2905357" />
      <trkpt lat="46.0025698" lon="11.2905404" />
      <trkpt lat="46.0024584" lon="11.2905436" />
      <trkpt lat="46.0023376" lon="11.2905707" />
      <trkpt lat="46.0022375" lon="11.2906018" />
      <trkpt lat="46.0021815" lon="11.2905977" />
      <trkpt lat="46.0021284" lon="11.2905551" />
      <trkpt lat="46.0020122" lon="11.2904220" />
      <trkpt lat="46.0018810" lon="11.2903018" />
      <trkpt lat="46.0017916" lon="11.2902589" />
      <trkpt lat="46.0016485" lon="11.2902246" />
      <trkpt lat="46.0014696" lon="11.2902074" />
      <trkpt lat="46.0012681" lon="11.2901163" />
      <trkpt lat="46.0012191" lon="11.2903203" />
      <trkpt lat="46.0011824" lon="11.2905292" />
      <trkpt lat="46.0012023" lon="11.2906923" />
      <trkpt lat="46.0012528" lon="11.2909122" />
      <trkpt lat="46.0015900" lon="11.2925134" />
      <trkpt lat="46.0016274" lon="11.2927862" />
      <trkpt lat="46.0016483" lon="11.2935385" />
      <trkpt lat="46.0016118" lon="11.2939992" />
      <trkpt lat="46.0016119" lon="11.2946434" />
      <trkpt lat="46.0017415" lon="11.2956094" />
      <trkpt lat="46.0019766" lon="11.2962260" />
      <trkpt lat="46.0023110" lon="11.2969239" />
      <trkpt lat="46.0022912" lon="11.2969370" />
      <trkpt lat="46.0021594" lon="11.2970500" />
      <trkpt lat="46.0021340" lon="11.2970697" />
      <trkpt lat="46.0015371" lon="11.2959046" />
      <trkpt lat="46.0011297" lon="11.2956088" />
      <trkpt lat="46.0010116" lon="11.2953646" />
      <trkpt lat="46.0008125" lon="11.2951735" />
      <trkpt lat="46.0004117" lon="11.2951387" />
      <trkpt lat="46.0002262" lon="11.2950937" />
      <trkpt lat="45.9998795" lon="11.2949029" />
      <trkpt lat="45.9996391" lon="11.2948734" />
      <trkpt lat="45.9994267" lon="11.2948841" />
      <trkpt lat="45.9990820" lon="11.2949163" />
      <trkpt lat="45.9989069" lon="11.2949082" />
      <trkpt lat="45.9987616" lon="11.2948331" />
      <trkpt lat="45.9985361" lon="11.2947822" />
      <trkpt lat="45.9982752" lon="11.2947312" />
      <trkpt lat="45.9980833" lon="11.2947312" />
      <trkpt lat="45.9978523" lon="11.2947768" />
      <trkpt lat="45.9976399" lon="11.2947768" />
      <trkpt lat="45.9972926" lon="11.2948137" />
      <trkpt lat="45.9971916" lon="11.2948696" />
      <trkpt lat="45.9971495" lon="11.2949344" />
      <trkpt lat="45.9971287" lon="11.2950713" />
      <trkpt lat="45.9971304" lon="11.2953376" />
      <trkpt lat="45.9970764" lon="11.2954796" />
      <trkpt lat="45.9971917" lon="11.2955143" />
      <trkpt lat="45.9973736" lon="11.2956290" />
      <trkpt lat="45.9974915" lon="11.2957400" />
      <trkpt lat="45.9973104" lon="11.2956919" />
      <trkpt lat="45.9970501" lon="11.2956678" />
      <trkpt lat="45.9962643" lon="11.2956730" />
      <trkpt lat="45.9952325" lon="11.2956610" />
      <trkpt lat="45.9946700" lon="11.2956592" />
      <trkpt lat="45.9942413" lon="11.2956283" />
      <trkpt lat="45.9940502" lon="11.2955475" />
      <trkpt lat="45.9935218" lon="11.2952783" />
      <trkpt lat="45.9931823" lon="11.2950279" />
      <trkpt lat="45.9930334" lon="11.2949031" />
      <trkpt lat="45.9929073" lon="11.2947570" />
      <trkpt lat="45.9929166" lon="11.2947164" />
      <trkpt lat="45.9929236" lon="11.2946372" />
      <trkpt lat="45.9930818" lon="11.2942083" />
      <trkpt lat="45.9931779" lon="11.2939336" />
      <trkpt lat="45.9932375" lon="11.2938974" />
      <trkpt lat="45.9932851" lon="11.2939242" />
      <trkpt lat="45.9933709" lon="11.2939953" />
      <trkpt lat="45.9934309" lon="11.2940527" />
      <trkpt lat="45.9934933" lon="11.2940272" />
      <trkpt lat="45.9935548" lon="11.2939340" />
      <trkpt lat="45.9936152" lon="11.2938366" />
      <trkpt lat="45.9936582" lon="11.2937579" />
      <trkpt lat="45.9937015" lon="11.2936223" />
      <trkpt lat="45.9937114" lon="11.2934888" />
      <trkpt lat="45.9937367" lon="11.2934670" />
      <trkpt lat="45.9937873" lon="11.2934768" />
      <trkpt lat="45.9939890" lon="11.2936114" />
      <trkpt lat="45.9941083" lon="11.2936396" />
      <trkpt lat="45.9949128" lon="11.2937593" />
      <trkpt lat="45.9950815" lon="11.2938282" />
      <trkpt lat="45.9952145" lon="11.2939222" />
      <trkpt lat="45.9952940" lon="11.2939703" />
      <trkpt lat="45.9953135" lon="11.2939689" />
      <trkpt lat="45.9953397" lon="11.2939402" />
      <trkpt lat="45.9953572" lon="11.2938604" />
      <trkpt lat="45.9953575" lon="11.2937531" />
      <trkpt lat="45.9951169" lon="11.2935904" />
      <trkpt lat="45.9947459" lon="11.2934652" />
      <trkpt lat="45.9941226" lon="11.2934068" />
      <trkpt lat="45.9935807" lon="11.2931881" />
      <trkpt lat="45.9936679" lon="11.2933429" />
      <trkpt lat="45.9936962" lon="11.2934134" />
      <trkpt lat="45.9937114" lon="11.2934888" />
      <trkpt lat="45.9937015" lon="11.2936223" />
      <trkpt lat="45.9936582" lon="11.2937579" />
      <trkpt lat="45.9936152" lon="11.2938366" />
      <trkpt lat="45.9935548" lon="11.2939340" />
      <trkpt lat="45.9934933" lon="11.2940272" />
      <trkpt lat="45.9934309" lon="11.2940527" />
      <trkpt lat="45.9933709" lon="11.2939953" />
      <trkpt lat="45.9932851" lon="11.2939242" />
      <trkpt lat="45.9932375" lon="11.2938974" />
      <trkpt lat="45.9931779" lon="11.2939336" />
      <trkpt lat="45.9930818" lon="11.2942083" />
      <trkpt lat="45.9929236" lon="11.2946372" />
      <trkpt lat="45.9929166" lon="11.2947164" />
      <trkpt lat="45.9929073" lon="11.2947570" />
      <trkpt lat="45.9930334" lon="11.2949031" />
      <trkpt lat="45.9931823" lon="11.2950279" />
      <trkpt lat="45.9935218" lon="11.2952783" />
      <trkpt lat="45.9940502" lon="11.2955475" />
      <trkpt lat="45.9942413" lon="11.2956283" />
      <trkpt lat="45.9946700" lon="11.2956592" />
      <trkpt lat="45.9952325" lon="11.2956610" />
      <trkpt lat="45.9962643" lon="11.2956730" />
      <trkpt lat="45.9970501" lon="11.2956678" />
      <trkpt lat="45.9973104" lon="11.2956919" />
      <trkpt lat="45.9974915" lon="11.2957400" />
      <trkpt lat="45.9976119" lon="11.2958918" />
      <trkpt lat="45.9981365" lon="11.2967957" />
      <trkpt lat="45.9982110" lon="11.2968886" />
      <trkpt lat="45.9982815" lon="11.2969586" />
      <trkpt lat="45.9986324" lon="11.2972451" />
      <trkpt lat="45.9987628" lon="11.2974500" />
      <trkpt lat="45.9987959" lon="11.2975969" />
      <trkpt lat="45.9988547" lon="11.2978333" />
      <trkpt lat="45.9988689" lon="11.2979588" />
      <trkpt lat="45.9988679" lon="11.2979795" />
      <trkpt lat="45.9988596" lon="11.2980275" />
      <trkpt lat="45.9990286" lon="11.2981390" />
      <trkpt lat="45.9992472" lon="11.2982715" />
      <trkpt lat="45.9994357" lon="11.2983901" />
      <trkpt lat="46.0001826" lon="11.2987838" />
      <trkpt lat="46.0005099" lon="11.2989507" />
      <trkpt lat="46.0009837" lon="11.2991231" />
      <trkpt lat="46.0016049" lon="11.2992657" />
      <trkpt lat="46.0018577" lon="11.2993329" />
      <trkpt lat="46.0019072" lon="11.2993405" />
      <trkpt lat="46.0019763" lon="11.2993525" />
      <trkpt lat="46.0021197" lon="11.2994331" />
      <trkpt lat="46.0021393" lon="11.2994443" />
      <trkpt lat="46.0023753" lon="11.2995028" />
      <trkpt lat="46.0026077" lon="11.2995343" />
      <trkpt lat="46.0027514" lon="11.2995743" />
      <trkpt lat="46.0027777" lon="11.2995822" />
      <trkpt lat="46.0028535" lon="11.2996748" />
      <trkpt lat="46.0029291" lon="11.2997920" />
      <trkpt lat="46.0029547" lon="11.2998372" />
      <trkpt lat="46.0029765" lon="11.2998932" />
      <trkpt lat="46.0029886" lon="11.2999384" />
      <trkpt lat="46.0029949" lon="11.2999621" />
      <trkpt lat="46.0030015" lon="11.3000399" />
      <trkpt lat="46.0030024" lon="11.3001284" />
      <trkpt lat="46.0030015" lon="11.3001995" />
      <trkpt lat="46.0029987" lon="11.3002813" />
      <trkpt lat="46.0030005" lon="11.3003584" />
      <trkpt lat="46.0030027" lon="11.3004305" />
      <trkpt lat="46.0030164" lon="11.3004992" />
      <trkpt lat="46.0030464" lon="11.3005706" />
      <trkpt lat="46.0030834" lon="11.3006186" />
      <trkpt lat="46.0031799" lon="11.3006919" />
      <trkpt lat="46.0032959" lon="11.3007514" />
      <trkpt lat="46.0034708" lon="11.3007999" />
      <trkpt lat="46.0035778" lon="11.3008712" />
      <trkpt lat="46.0036722" lon="11.3009297" />
      <trkpt lat="46.0037676" lon="11.3010327" />
      <trkpt lat="46.0038511" lon="11.3011872" />
      <trkpt lat="46.0039308" lon="11.3013760" />
      <trkpt lat="46.0039675" lon="11.3015677" />
      <trkpt lat="46.0039741" lon="11.3021259" />
      <trkpt lat="46.0040048" lon="11.3031704" />
      <trkpt lat="46.0039901" lon="11.3036123" />
      <trkpt lat="46.0039364" lon="11.3052022" />
      <trkpt lat="46.0034271" lon="11.3053307" />
      <trkpt lat="46.0031049" lon="11.3053543" />
      <trkpt lat="46.0030124" lon="11.3053495" />
      <trkpt lat="46.0028066" lon="11.3070843" />
      <trkpt lat="46.0025096" lon="11.3095835" />
      <trkpt lat="46.0024846" lon="11.3097717" />
      <trkpt lat="46.0024541" lon="11.3100390" />
      <trkpt lat="46.0024243" lon="11.3106066" />
      <trkpt lat="46.0024087" lon="11.3111519" />
      <trkpt lat="46.0024128" lon="11.3115394" />
      <trkpt lat="46.0024973" lon="11.3124922" />
      <trkpt lat="46.0025097" lon="11.3127173" />
      <trkpt lat="46.0025928" lon="11.3129411" />
      <trkpt lat="46.0025918" lon="11.3130155" />
      <trkpt lat="46.0025562" lon="11.3131181" />
      <trkpt lat="46.0025954" lon="11.3135576" />
      <trkpt lat="46.0026822" lon="11.3144227" />
      <trkpt lat="46.0028884" lon="11.3157229" />
      <trkpt lat="46.0030006" lon="11.3162935" />
      <trkpt lat="46.0034279" lon="11.3179711" />
      <trkpt lat="46.0038689" lon="11.3194092" />
      <trkpt lat="46.0041515" lon="11.3202567" />
      <trkpt lat="46.0045717" lon="11.3213243" />
      <trkpt lat="46.0054056" lon="11.3230876" />
      <trkpt lat="46.0055561" lon="11.3233126" />
      <trkpt lat="46.0057556" lon="11.3227120" />
      <trkpt lat="46.0059277" lon="11.3223902" />
      <trkpt lat="46.0061036" lon="11.3220750" />
      <trkpt lat="46.0063897" lon="11.3216605" />
      <trkpt lat="46.0067279" lon="11.3211892" />
      <trkpt lat="46.0067705" lon="11.3211535" />
      <trkpt lat="46.0068041" lon="11.3211394" />
      <trkpt lat="46.0068440" lon="11.3211458" />
      <trkpt lat="46.0068733" lon="11.3211688" />
      <trkpt lat="46.0069132" lon="11.3212313" />
      <trkpt lat="46.0070973" lon="11.3216452" />
      <trkpt lat="46.0073422" lon="11.3221997" />
      <trkpt lat="46.0078186" lon="11.3231682" />
      <trkpt lat="46.0081245" lon="11.3237033" />
      <trkpt lat="46.0084703" lon="11.3241944" />
      <trkpt lat="46.0088156" lon="11.3246438" />
      <trkpt lat="46.0092541" lon="11.3251325" />
      <trkpt lat="46.0093892" lon="11.3252779" />
      <trkpt lat="46.0096816" lon="11.3255434" />
      <trkpt lat="46.0105259" lon="11.3261898" />
      <trkpt lat="46.0108163" lon="11.3264309" />
      <trkpt lat="46.0110018" lon="11.3264832" />
      <trkpt lat="46.0113986" lon="11.3267863" />
      <trkpt lat="46.0117134" lon="11.3271350" />
      <trkpt lat="46.0118382" lon="11.3272583" />
      <trkpt lat="46.0119276" lon="11.3272803" />
      <trkpt lat="46.0120171" lon="11.3272476" />
      <trkpt lat="46.0122043" lon="11.3270592" />
      <trkpt lat="46.0122713" lon="11.3269836" />
      <trkpt lat="46.0124142" lon="11.3268299" />
      <trkpt lat="46.0126497" lon="11.3264843" />
      <trkpt lat="46.0127241" lon="11.3262396" />
      <trkpt lat="46.0127523" lon="11.3261751" />
      <trkpt lat="46.0128413" lon="11.3256174" />
      <trkpt lat="46.0129516" lon="11.3250884" />
      <trkpt lat="46.0130377" lon="11.3249082" />
      <trkpt lat="46.0130237" lon="11.3248736" />
      <trkpt lat="46.0130856" lon="11.3246512" />
      <trkpt lat="46.0130737" lon="11.3245139" />
      <trkpt lat="46.0131790" lon="11.3245651" />
      <trkpt lat="46.0134995" lon="11.3247689" />
      <trkpt lat="46.0136428" lon="11.3248941" />
      <trkpt lat="46.0137432" lon="11.3249228" />
      <trkpt lat="46.0138635" lon="11.3252922" />
      <trkpt lat="46.0141036" lon="11.3257279" />
      <trkpt lat="46.0147374" lon="11.3266192" />
      <trkpt lat="46.0149341" lon="11.3269625" />
      <trkpt lat="46.0150772" lon="11.3273058" />
      <trkpt lat="46.0151602" lon="11.3275944" />
      <trkpt lat="46.0152021" lon="11.3278342" />
      <trkpt lat="46.0153148" lon="11.3279787" />
      <trkpt lat="46.0154756" lon="11.3281890" />
      <trkpt lat="46.0161026" lon="11.3290799" />
      <trkpt lat="46.0162533" lon="11.3293324" />
      <trkpt lat="46.0163304" lon="11.3295348" />
      <trkpt lat="46.0164286" lon="11.3299115" />
      <trkpt lat="46.0164787" lon="11.3298676" />
      <trkpt lat="46.0164847" lon="11.3296787" />
      <trkpt lat="46.0164310" lon="11.3293526" />
      <trkpt lat="46.0163714" lon="11.3289749" />
      <trkpt lat="46.0162880" lon="11.3286230" />
      <trkpt lat="46.0162164" lon="11.3283569" />
      <trkpt lat="46.0161389" lon="11.3279793" />
      <trkpt lat="46.0161032" lon="11.3276274" />
      <trkpt lat="46.0160913" lon="11.3270609" />
      <trkpt lat="46.0160317" lon="11.3266403" />
      <trkpt lat="46.0160138" lon="11.3262455" />
      <trkpt lat="46.0160317" lon="11.3257305" />
      <trkpt lat="46.0160078" lon="11.3253529" />
      <trkpt lat="46.0159184" lon="11.3250525" />
      <trkpt lat="46.0156383" lon="11.3243143" />
      <trkpt lat="46.0155488" lon="11.3240568" />
      <trkpt lat="46.0155020" lon="11.3238957" />
      <trkpt lat="46.0154773" lon="11.3237307" />
      <trkpt lat="46.0154975" lon="11.3235201" />
      <trkpt lat="46.0155264" lon="11.3233302" />
      <trkpt lat="46.0156226" lon="11.3229334" />
      <trkpt lat="46.0157138" lon="11.3224930" />
      <trkpt lat="46.0157209" lon="11.3224568" />
      <trkpt lat="46.0157358" lon="11.3223326" />
      <trkpt lat="46.0156881" lon="11.3219721" />
      <trkpt lat="46.0155127" lon="11.3216971" />
      <trkpt lat="46.0154062" lon="11.3213945" />
      <trkpt lat="46.0151483" lon="11.3205057" />
      <trkpt lat="46.0150449" lon="11.3202342" />
      <trkpt lat="46.0150041" lon="11.3201302" />
      <trkpt lat="46.0149529" lon="11.3199383" />
      <trkpt lat="46.0149397" lon="11.3198691" />
      <trkpt lat="46.0149368" lon="11.3197682" />
      <trkpt lat="46.0149785" lon="11.3195323" />
      <trkpt lat="46.0150185" lon="11.3193978" />
      <trkpt lat="46.0150448" lon="11.3193094" />
      <trkpt lat="46.0150848" lon="11.3191480" />
      <trkpt lat="46.0150886" lon="11.3189017" />
      <trkpt lat="46.0151147" lon="11.3187626" />
      <trkpt lat="46.0151792" lon="11.3187892" />
      <trkpt lat="46.0152866" lon="11.3188260" />
      <trkpt lat="46.0154459" lon="11.3188875" />
      <trkpt lat="46.0155171" lon="11.3188941" />
      <trkpt lat="46.0156389" lon="11.3188604" />
      <trkpt lat="46.0157778" lon="11.3187207" />
      <trkpt lat="46.0159311" lon="11.3185272" />
      <trkpt lat="46.0160618" lon="11.3184724" />
      <trkpt lat="46.0161518" lon="11.3184717" />
      <trkpt lat="46.0162022" lon="11.3184336" />
      <trkpt lat="46.0163440" lon="11.3185154" />
      <trkpt lat="46.0164214" lon="11.3185412" />
      <trkpt lat="46.0164989" lon="11.3185755" />
      <trkpt lat="46.0165526" lon="11.3185669" />
      <trkpt lat="46.0166360" lon="11.3185154" />
      <trkpt lat="46.0166837" lon="11.3184124" />
      <trkpt lat="46.0167195" lon="11.3183695" />
      <trkpt lat="46.0167731" lon="11.3183438" />
      <trkpt lat="46.0168685" lon="11.3183953" />
      <trkpt lat="46.0169221" lon="11.3184296" />
      <trkpt lat="46.0169900" lon="11.3184159" />
      <trkpt lat="46.0170597" lon="11.3183680" />
      <trkpt lat="46.0171319" lon="11.3182924" />
      <trkpt lat="46.0171903" lon="11.3181928" />
      <trkpt lat="46.0172481" lon="11.3180525" />
      <trkpt lat="46.0173344" lon="11.3180002" />
      <trkpt lat="46.0174246" lon="11.3180440" />
      <trkpt lat="46.0175686" lon="11.3182289" />
      <trkpt lat="46.0176842" lon="11.3182575" />
      <trkpt lat="46.0177382" lon="11.3181743" />
      <trkpt lat="46.0178188" lon="11.3179996" />
      <trkpt lat="46.0178811" lon="11.3178904" />
      <trkpt lat="46.0180704" lon="11.3178273" />
      <trkpt lat="46.0182722" lon="11.3178273" />
      <trkpt lat="46.0183479" lon="11.3179409" />
      <trkpt lat="46.0182848" lon="11.3181553" />
      <trkpt lat="46.0182470" lon="11.3183194" />
      <trkpt lat="46.0181713" lon="11.3184581" />
      <trkpt lat="46.0179947" lon="11.3186852" />
      <trkpt lat="46.0179316" lon="11.3190006" />
      <trkpt lat="46.0178811" lon="11.3192151" />
      <trkpt lat="46.0178704" lon="11.3194721" />
      <trkpt lat="46.0179284" lon="11.3194655" />
      <trkpt lat="46.0179299" lon="11.3194236" />
      <trkpt lat="46.0180355" lon="11.3194049" />
      <trkpt lat="46.0180936" lon="11.3195723" />
      <trkpt lat="46.0181403" lon="11.3195701" />
      <trkpt lat="46.0182175" lon="11.3194577" />
      <trkpt lat="46.0182565" lon="11.3194379" />
      <trkpt lat="46.0183995" lon="11.3194599" />
      <trkpt lat="46.0185594" lon="11.3195437" />
      <trkpt lat="46.0186252" lon="11.3195646" />
      <trkpt lat="46.0187675" lon="11.3195205" />
      <trkpt lat="46.0188669" lon="11.3195205" />
      <trkpt lat="46.0190137" lon="11.3195040" />
      <trkpt lat="46.0190765" lon="11.3194677" />
      <trkpt lat="46.0191889" lon="11.3194225" />
      <trkpt lat="46.0193839" lon="11.3194027" />
      <trkpt lat="46.0194413" lon="11.3193729" />
      <trkpt lat="46.0196711" lon="11.3192662" />
      <trkpt lat="46.0199363" lon="11.3191673" />
      <trkpt lat="46.0202057" lon="11.3190839" />
      <trkpt lat="46.0205504" lon="11.3190858" />
      <trkpt lat="46.0206796" lon="11.3190509" />
      <trkpt lat="46.0210809" lon="11.3189055" />
      <trkpt lat="46.0211859" lon="11.3188880" />
      <trkpt lat="46.0211971" lon="11.3188729" />
      <trkpt lat="46.0212762" lon="11.3187659" />
      <trkpt lat="46.0213058" lon="11.3187135" />
      <trkpt lat="46.0213009" lon="11.3186784" />
      <trkpt lat="46.0212963" lon="11.3186456" />
      <trkpt lat="46.0212384" lon="11.3184963" />
      <trkpt lat="46.0212317" lon="11.3182733" />
      <trkpt lat="46.0212411" lon="11.3180697" />
      <trkpt lat="46.0211846" lon="11.3178312" />
      <trkpt lat="46.0209651" lon="11.3171157" />
      <trkpt lat="46.0207453" lon="11.3165936" />
      <trkpt lat="46.0206177" lon="11.3160661" />
      <trkpt lat="46.0205683" lon="11.3156512" />
      <trkpt lat="46.0205494" lon="11.3155664" />
      <trkpt lat="46.0205171" lon="11.3154850" />
      <trkpt lat="46.0205023" lon="11.3153841" />
      <trkpt lat="46.0205212" lon="11.3153124" />
      <trkpt lat="46.0205252" lon="11.3152930" />
      <trkpt lat="46.0205851" lon="11.3152687" />
      <trkpt lat="46.0205006" lon="11.3151509" />
      <trkpt lat="46.0204242" lon="11.3149510" />
      <trkpt lat="46.0203339" lon="11.3148223" />
      <trkpt lat="46.0202026" lon="11.3147230" />
      <trkpt lat="46.0201104" lon="11.3145675" />
      <trkpt lat="46.0200583" lon="11.3144387" />
      <trkpt lat="46.0200396" lon="11.3141477" />
      <trkpt lat="46.0200402" lon="11.3138763" />
      <trkpt lat="46.0200406" lon="11.3137159" />
      <trkpt lat="46.0200378" lon="11.3135335" />
      <trkpt lat="46.0200434" lon="11.3134021" />
      <trkpt lat="46.0200904" lon="11.3131522" />
      <trkpt lat="46.0202277" lon="11.3126336" />
      <trkpt lat="46.0203209" lon="11.3123935" />
      <trkpt lat="46.0204326" lon="11.3122554" />
      <trkpt lat="46.0205695" lon="11.3121454" />
      <trkpt lat="46.0207753" lon="11.3119389" />
      <trkpt lat="46.0208554" lon="11.3117605" />
      <trkpt lat="46.0209867" lon="11.3115540" />
      <trkpt lat="46.0210854" lon="11.3114762" />
      <trkpt lat="46.0213006" lon="11.3114065" />
      <trkpt lat="46.0214812" lon="11.3113368" />
      <trkpt lat="46.0216698" lon="11.3112317" />
      <trkpt lat="46.0218248" lon="11.3110900" />
      <trkpt lat="46.0219748" lon="11.3109384" />
      <trkpt lat="46.0220167" lon="11.3108734" />
      <trkpt lat="46.0220386" lon="11.3107829" />
      <trkpt lat="46.0220193" lon="11.3106946" />
      <trkpt lat="46.0218761" lon="11.3105710" />
      <trkpt lat="46.0218321" lon="11.3104724" />
      <trkpt lat="46.0217736" lon="11.3104805" />
      <trkpt lat="46.0217494" lon="11.3104114" />
      <trkpt lat="46.0217308" lon="11.3103122" />
      <trkpt lat="46.0203273" lon="11.3093942" />
      <trkpt lat="46.0201010" lon="11.3097061" />
      <trkpt lat="46.0197692" lon="11.3097273" />
      <trkpt lat="46.0193342" lon="11.3097769" />
      <trkpt lat="46.0190294" lon="11.3098795" />
      <trkpt lat="46.0184470" lon="11.3101733" />
      <trkpt lat="46.0181054" lon="11.3103184" />
      <trkpt lat="46.0177686" lon="11.3104068" />
      <trkpt lat="46.0172968" lon="11.3104422" />
      <trkpt lat="46.0170510" lon="11.3103325" />
      <trkpt lat="46.0169035" lon="11.3101910" />
      <trkpt lat="46.0168531" lon="11.3101777" />
      <trkpt lat="46.0167447" lon="11.3099256" />
      <trkpt lat="46.0166100" lon="11.3096126" />
      <trkpt lat="46.0161589" lon="11.3085639" />
      <trkpt lat="46.0160623" lon="11.3082000" />
      <trkpt lat="46.0160195" lon="11.3078855" />
      <trkpt lat="46.0159825" lon="11.3070263" />
      <trkpt lat="46.0159255" lon="11.3059359" />
      <trkpt lat="46.0157910" lon="11.3057765" />
      <trkpt lat="46.0155139" lon="11.3054905" />
      <trkpt lat="46.0152822" lon="11.3052221" />
      <trkpt lat="46.0151850" lon="11.3050411" />
      <trkpt lat="46.0151013" lon="11.3048752" />
      <trkpt lat="46.0150062" lon="11.3046932" />
      <trkpt lat="46.0148422" lon="11.3043504" />
      <trkpt lat="46.0148201" lon="11.3043045" />
      <trkpt lat="46.0148214" lon="11.3042111" />
      <trkpt lat="46.0148233" lon="11.3039722" />
      <trkpt lat="46.0148071" lon="11.3039585" />
      <trkpt lat="46.0147613" lon="11.3037166" />
      <trkpt lat="46.0146867" lon="11.3034741" />
      <trkpt lat="46.0146751" lon="11.3033359" />
      <trkpt lat="46.0146225" lon="11.3032314" />
      <trkpt lat="46.0144299" lon="11.3030043" />
      <trkpt lat="46.0139875" lon="11.3026424" />
      <trkpt lat="46.0137742" lon="11.3024673" />
      <trkpt lat="46.0135551" lon="11.3022875" />
      <trkpt lat="46.0130588" lon="11.3019822" />
      <trkpt lat="46.0126992" lon="11.3017516" />
      <trkpt lat="46.0124475" lon="11.3015655" />
      <trkpt lat="46.0122740" lon="11.3014141" />
      <trkpt lat="46.0122465" lon="11.3013586" />
      <trkpt lat="46.0121159" lon="11.3011788" />
      <trkpt lat="46.0120772" lon="11.3011040" />
      <trkpt lat="46.0120169" lon="11.3010306" />
      <trkpt lat="46.0119443" lon="11.3009640" />
      <trkpt lat="46.0118496" lon="11.3009037" />
      <trkpt lat="46.0118055" lon="11.3008842" />
      <trkpt lat="46.0118149" lon="11.3008633" />
      <trkpt lat="46.0118615" lon="11.3007597" />
      <trkpt lat="46.0119565" lon="11.3006223" />
      <trkpt lat="46.0119953" lon="11.3005993" />
      <trkpt lat="46.0121758" lon="11.3003503" />
      <trkpt lat="46.0122204" lon="11.3002805" />
      <trkpt lat="46.0123170" lon="11.3001389" />
      <trkpt lat="46.0124897" lon="11.2998568" />
      <trkpt lat="46.0123257" lon="11.2996448" />
      <trkpt lat="46.0124654" lon="11.2994100" />
      <trkpt lat="46.0126048" lon="11.2991203" />
      <trkpt lat="46.0127099" lon="11.2988315" />
      <trkpt lat="46.0123552" lon="11.2985082" />
    </trkseg>
  </trk>
</gpx>
