<?xml version="1.0" encoding="UTF-8"?>
<gpx xmlns="http://www.topografix.com/GPX/1/1" version="1.1" creator="ShapeRoute route-engine">
  <metadata>
    <name>house 10 km · 2026-09-23</name>
    <author>
      <name>ShapeRoute route-engine</name>
    </author>
    <copyright author="OpenStreetMap contributors">
      <license>https://opendatacommons.org/licenses/odbl/1-0/</license>
    </copyright>
    <link href="https://www.openstreetmap.org/copyright">
      <text>© OpenStreetMap contributors</text>
    </link>
    <time>2026-09-23T23:10:25Z</time>
  </metadata>
  <trk>
    <name>house 10 km · 2026-09-23</name>
    <trkseg>
      <trkpt lat="46.0123552" lon="11.2985082" />
      <trkpt lat="46.0122721" lon="11.2986350" />
      <trkpt lat="46.0121122" lon="11.2989819" />
      <trkpt lat="46.0119829" lon="11.2992330" />
      <trkpt lat="46.0118498" lon="11.2994411" />
      <trkpt lat="46.0116723" lon="11.2996863" />
      <trkpt lat="46.0112962" lon="11.3002246" />
      <trkpt lat="46.0113555" lon="11.3004664" />
      <trkpt lat="46.0113758" lon="11.3005772" />
      <trkpt lat="46.0113854" lon="11.3006619" />
      <trkpt lat="46.0112862" lon="11.3006678" />
      <trkpt lat="46.0110267" lon="11.3005965" />
      <trkpt lat="46.0108718" lon="11.3005844" />
      <trkpt lat="46.0107851" lon="11.3005647" />
      <trkpt lat="46.0105854" lon="11.3010306" />
      <trkpt lat="46.0104258" lon="11.3013585" />
      <trkpt lat="46.0104112" lon="11.3014153" />
      <trkpt lat="46.0107475" lon="11.3017254" />
      <trkpt lat="46.0107913" lon="11.3017827" />
      <trkpt lat="46.0108336" lon="11.3018503" />
      <trkpt lat="46.0108944" lon="11.3019404" />
      <trkpt lat="46.0111689" lon="11.3023573" />
      <trkpt lat="46.0111961" lon="11.3024347" />
      <trkpt lat="46.0113093" lon="11.3025375" />
      <trkpt lat="46.0115724" lon="11.3026949" />
      <trkpt lat="46.0117195" lon="11.3027829" />
      <trkpt lat="46.0118040" lon="11.3028461" />
      <trkpt lat="46.0120175" lon="11.3030194" />
      <trkpt lat="46.0120576" lon="11.3030517" />
      <trkpt lat="46.0119735" lon="11.3032791" />
      <trkpt lat="46.0118052" lon="11.3032175" />
      <trkpt lat="46.0117371" lon="11.3032074" />
      <trkpt lat="46.0117136" lon="11.3032249" />
      <trkpt lat="46.0116328" lon="11.3033272" />
      <trkpt lat="46.0115685" lon="11.3033874" />
      <trkpt lat="46.0113727" lon="11.3034152" />
      <trkpt lat="46.0112763" lon="11.3034178" />
      <trkpt lat="46.0110488" lon="11.3033779" />
      <trkpt lat="46.0110293" lon="11.3033696" />
      <trkpt lat="46.0107514" lon="11.3031831" />
      <trkpt lat="46.0106617" lon="11.3033547" />
      <trkpt lat="46.0105931" lon="11.3034706" />
      <trkpt lat="46.0101583" lon="11.3042096" />
      <trkpt lat="46.0101375" lon="11.3042450" />
      <trkpt lat="46.0100810" lon="11.3043519" />
      <trkpt lat="46.0099759" lon="11.3044174" />
      <trkpt lat="46.0098799" lon="11.3045025" />
      <trkpt lat="46.0097487" lon="11.3046398" />
      <trkpt lat="46.0096533" lon="11.3047943" />
      <trkpt lat="46.0095401" lon="11.3049402" />
      <trkpt lat="46.0094566" lon="11.3050861" />
      <trkpt lat="46.0092857" lon="11.3051897" />
      <trkpt lat="46.0092062" lon="11.3053093" />
      <trkpt lat="46.0091651" lon="11.3053743" />
      <trkpt lat="46.0090647" lon="11.3054807" />
      <trkpt lat="46.0090526" lon="11.3056160" />
      <trkpt lat="46.0090411" lon="11.3057455" />
      <trkpt lat="46.0089895" lon="11.3063234" />
      <trkpt lat="46.0089556" lon="11.3067025" />
      <trkpt lat="46.0089532" lon="11.3067296" />
      <trkpt lat="46.0088896" lon="11.3073866" />
      <trkpt lat="46.0082414" lon="11.3073453" />
      <trkpt lat="46.0083271" lon="11.3064780" />
      <trkpt lat="46.0084093" lon="11.3055594" />
      <trkpt lat="46.0084263" lon="11.3053692" />
      <trkpt lat="46.0077830" lon="11.3052568" />
      <trkpt lat="46.0077349" lon="11.3052484" />
      <trkpt lat="46.0074884" lon="11.3052053" />
      <trkpt lat="46.0071910" lon="11.3051534" />
      <trkpt lat="46.0067208" lon="11.3050712" />
      <trkpt lat="46.0065975" lon="11.3050846" />
      <trkpt lat="46.0065466" lon="11.3051152" />
      <trkpt lat="46.0065026" lon="11.3051581" />
      <trkpt lat="46.0063120" lon="11.3055513" />
      <trkpt lat="46.0062429" lon="11.3056829" />
      <trkpt lat="46.0062213" lon="11.3057159" />
      <trkpt lat="46.0061578" lon="11.3057958" />
      <trkpt lat="46.0060831" lon="11.3059050" />
      <trkpt lat="46.0060319" lon="11.3062139" />
      <trkpt lat="46.0059868" lon="11.3066405" />
      <trkpt lat="46.0059288" lon="11.3071873" />
      <trkpt lat="46.0058804" lon="11.3075429" />
      <trkpt lat="46.0058203" lon="11.3077677" />
      <trkpt lat="46.0057341" lon="11.3079688" />
      <trkpt lat="46.0056023" lon="11.3081476" />
      <trkpt lat="46.0054187" lon="11.3083960" />
      <trkpt lat="46.0052770" lon="11.3084969" />
      <trkpt lat="46.0052570" lon="11.3085037" />
      <trkpt lat="46.0051424" lon="11.3085430" />
      <trkpt lat="46.0049840" lon="11.3085627" />
      <trkpt lat="46.0047705" lon="11.3085896" />
      <trkpt lat="46.0045028" lon="11.3086190" />
      <trkpt lat="46.0044071" lon="11.3086441" />
      <trkpt lat="46.0043032" lon="11.3086805" />
      <trkpt lat="46.0040299" lon="11.3089548" />
      <trkpt lat="46.0039405" lon="11.3090423" />
      <trkpt lat="46.0038448" lon="11.3092298" />
      <trkpt lat="46.0037179" lon="11.3093491" />
      <trkpt lat="46.0035694" lon="11.3094837" />
      <trkpt lat="46.0033659" lon="11.3095630" />
      <trkpt lat="46.0031247" lon="11.3095780" />
      <trkpt lat="46.0029398" lon="11.3095750" />
      <trkpt lat="46.0027195" lon="11.3095939" />
      <trkpt lat="46.0025096" lon="11.3095835" />
      <trkpt lat="46.0024870" lon="11.3095672" />
      <trkpt lat="46.0023308" lon="11.3095327" />
      <trkpt lat="46.0023020" lon="11.3095370" />
      <trkpt lat="46.0022121" lon="11.3095586" />
      <trkpt lat="46.0021384" lon="11.3096200" />
      <trkpt lat="46.0019730" lon="11.3098498" />
      <trkpt lat="46.0018608" lon="11.3098991" />
      <trkpt lat="46.0018336" lon="11.3099003" />
      <trkpt lat="46.0018185" lon="11.3098750" />
      <trkpt lat="46.0017994" lon="11.3098560" />
      <trkpt lat="46.0017776" lon="11.3098446" />
      <trkpt lat="46.0017519" lon="11.3097802" />
      <trkpt lat="46.0017411" lon="11.3094748" />
      <trkpt lat="46.0017285" lon="11.3093528" />
      <trkpt lat="46.0016625" lon="11.3087124" />
      <trkpt lat="46.0015104" lon="11.3076472" />
      <trkpt lat="46.0015160" lon="11.3071268" />
      <trkpt lat="46.0015358" lon="11.3067243" />
      <trkpt lat="46.0016177" lon="11.3060250" />
      <trkpt lat="46.0017646" lon="11.3050777" />
      <trkpt lat="46.0020120" lon="11.3034844" />
      <trkpt lat="46.0021225" lon="11.3027614" />
      <trkpt lat="46.0021537" lon="11.3024155" />
      <trkpt lat="46.0021537" lon="11.3021701" />
      <trkpt lat="46.0021537" lon="11.3021288" />
      <trkpt lat="46.0021381" lon="11.3018818" />
      <trkpt lat="46.0021346" lon="11.3018260" />
      <trkpt lat="46.0020804" lon="11.3014355" />
      <trkpt lat="46.0019711" lon="11.3004712" />
      <trkpt lat="46.0019326" lon="11.3000307" />
      <trkpt lat="46.0019080" lon="11.2998024" />
      <trkpt lat="46.0018794" lon="11.2996114" />
      <trkpt lat="46.0018489" lon="11.2995145" />
      <trkpt lat="46.0018180" lon="11.2994575" />
      <trkpt lat="46.0017654" lon="11.2993979" />
      <trkpt lat="46.0017141" lon="11.2993551" />
      <trkpt lat="46.0016049" lon="11.2992657" />
      <trkpt lat="46.0009837" lon="11.2991231" />
      <trkpt lat="46.0006666" lon="11.3010610" />
      <trkpt lat="46.0006344" lon="11.3013261" />
      <trkpt lat="46.0006453" lon="11.3015673" />
      <trkpt lat="46.0006417" lon="11.3017927" />
      <trkpt lat="46.0006380" lon="11.3021151" />
      <trkpt lat="46.0006777" lon="11.3031339" />
      <trkpt lat="46.0006314" lon="11.3036676" />
      <trkpt lat="46.0004736" lon="11.3055187" />
      <trkpt lat="46.0003254" lon="11.3063295" />
      <trkpt lat="46.0000441" lon="11.3078330" />
      <trkpt lat="46.0003254" lon="11.3063295" />
      <trkpt lat="46.0004736" lon="11.3055187" />
      <trkpt lat="46.0006314" lon="11.3036676" />
      <trkpt lat="46.0006777" lon="11.3031339" />
      <trkpt lat="46.0006380" lon="11.3021151" />
      <trkpt lat="46.0006417" lon="11.3017927" />
      <trkpt lat="46.0006453" lon="11.3015673" />
      <trkpt lat="46.0006344" lon="11.3013261" />
      <trkpt lat="46.0006666" lon="11.3010610" />
      <trkpt lat="46.0009837" lon="11.2991231" />
      <trkpt lat="46.0016049" lon="11.2992657" />
      <trkpt lat="46.0018577" lon="11.2993329" />
      <trkpt lat="46.0019072" lon="11.2993405" />
      <trkpt lat="46.0019345" lon="11.2994400" />
      <trkpt lat="46.0019392" lon="11.2996180" />
      <trkpt lat="46.0019378" lon="11.2997431" />
      <trkpt lat="46.0019831" lon="11.2997374" />
      <trkpt lat="46.0020227" lon="11.2997260" />
      <trkpt lat="46.0020492" lon="11.2997108" />
      <trkpt lat="46.0020776" lon="11.2996822" />
      <trkpt lat="46.0021099" lon="11.2996366" />
      <trkpt lat="46.0021410" lon="11.2995654" />
      <trkpt lat="46.0021323" lon="11.2995440" />
      <trkpt lat="46.0021358" lon="11.2994669" />
      <trkpt lat="46.0021393" lon="11.2994443" />
      <trkpt lat="46.0023753" lon="11.2995028" />
      <trkpt lat="46.0026077" lon="11.2995343" />
      <trkpt lat="46.0027514" lon="11.2995743" />
      <trkpt lat="46.0027777" lon="11.2995822" />
      <trkpt lat="46.0028535" lon="11.2996748" />
      <trkpt lat="46.0029291" lon="11.2997920" />
      <trkpt lat="46.0029547" lon="11.2998372" />
      <trkpt lat="46.0029765" lon="11.2998932" />
      <trkpt lat="46.0029886" lon="11.2999384" />
      <trkpt lat="46.0029949" lon="11.2999621" />
      <trkpt lat="46.0030015" lon="11.3000399" />
      <trkpt lat="46.0030024" lon="11.3001284" />
      <trkpt lat="46.0030015" lon="11.3001995" />
      <trkpt lat="46.0029987" lon="11.3002813" />
      <trkpt lat="46.0030005" lon="11.3003584" />
      <trkpt lat="46.0030027" lon="11.3004305" />
      <trkpt lat="46.0030164" lon="11.3004992" />
      <trkpt lat="46.0030464" lon="11.3005706" />
      <trkpt lat="46.0030834" lon="11.3006186" />
      <trkpt lat="46.0031799" lon="11.3006919" />
      <trkpt lat="46.0032959" lon="11.3007514" />
      <trkpt lat="46.0034708" lon="11.3007999" />
      <trkpt lat="46.0036324" lon="11.3007808" />
      <trkpt lat="46.0037494" lon="11.3007078" />
      <trkpt lat="46.0038169" lon="11.3006131" />
      <trkpt lat="46.0038563" lon="11.3005271" />
      <trkpt lat="46.0038972" lon="11.3003766" />
      <trkpt lat="46.0039040" lon="11.3002185" />
      <trkpt lat="46.0039003" lon="11.3001144" />
      <trkpt lat="46.0038945" lon="11.2999540" />
      <trkpt lat="46.0038906" lon="11.2998388" />
      <trkpt lat="46.0038738" lon="11.2993923" />
      <trkpt lat="46.0039282" lon="11.2998663" />
      <trkpt lat="46.0039591" lon="11.3001292" />
      <trkpt lat="46.0040074" lon="11.3005814" />
      <trkpt lat="46.0040270" lon="11.3006842" />
      <trkpt lat="46.0040538" lon="11.3008252" />
      <trkpt lat="46.0041023" lon="11.3009486" />
      <trkpt lat="46.0041787" lon="11.3010425" />
      <trkpt lat="46.0042811" lon="11.3010908" />
      <trkpt lat="46.0043937" lon="11.3010913" />
      <trkpt lat="46.0044919" lon="11.3010619" />
      <trkpt lat="46.0045470" lon="11.3010045" />
      <trkpt lat="46.0046009" lon="11.3009327" />
      <trkpt lat="46.0046194" lon="11.3008544" />
      <trkpt lat="46.0046365" lon="11.3007683" />
      <trkpt lat="46.0046451" lon="11.3006846" />
      <trkpt lat="46.0046444" lon="11.3006314" />
      <trkpt lat="46.0046405" lon="11.3005715" />
      <trkpt lat="46.0046351" lon="11.3005453" />
      <trkpt lat="46.0046279" lon="11.3005097" />
      <trkpt lat="46.0046074" lon="11.3004355" />
      <trkpt lat="46.0045738" lon="11.3003642" />
      <trkpt lat="46.0045473" lon="11.3003290" />
      <trkpt lat="46.0045130" lon="11.3002856" />
      <trkpt lat="46.0044779" lon="11.3002409" />
      <trkpt lat="46.0044373" lon="11.3001995" />
      <trkpt lat="46.0044133" lon="11.3001835" />
      <trkpt lat="46.0043817" lon="11.3001611" />
      <trkpt lat="46.0043630" lon="11.3001540" />
      <trkpt lat="46.0033929" lon="11.2997673" />
      <trkpt lat="46.0033806" lon="11.2997636" />
      <trkpt lat="46.0031085" lon="11.2996817" />
      <trkpt lat="46.0027777" lon="11.2995822" />
      <trkpt lat="46.0027865" lon="11.2994957" />
      <trkpt lat="46.0027199" lon="11.2994735" />
      <trkpt lat="46.0025824" lon="11.2994331" />
      <trkpt lat="46.0024897" lon="11.2993804" />
      <trkpt lat="46.0021829" lon="11.2992950" />
      <trkpt lat="46.0021638" lon="11.2993121" />
      <trkpt lat="46.0021564" lon="11.2993399" />
      <trkpt lat="46.0021509" lon="11.2993686" />
      <trkpt lat="46.0019763" lon="11.2993525" />
      <trkpt lat="46.0019072" lon="11.2993405" />
      <trkpt lat="46.0018577" lon="11.2993329" />
      <trkpt lat="46.0016049" lon="11.2992657" />
      <trkpt lat="46.0009837" lon="11.2991231" />
      <trkpt lat="46.0005099" lon="11.2989507" />
      <trkpt lat="46.0001826" lon="11.2987838" />
      <trkpt lat="45.9994357" lon="11.2983901" />
      <trkpt lat="45.9992472" lon="11.2982715" />
      <trkpt lat="45.9990286" lon="11.2981390" />
      <trkpt lat="45.9988596" lon="11.2980275" />
      <trkpt lat="45.9988679" lon="11.2979795" />
      <trkpt lat="45.9988689" lon="11.2979588" />
      <trkpt lat="45.9988547" lon="11.2978333" />
      <trkpt lat="45.9987959" lon="11.2975969" />
      <trkpt lat="45.9987628" lon="11.2974500" />
      <trkpt lat="45.9986324" lon="11.2972451" />
      <trkpt lat="45.9982815" lon="11.2969586" />
      <trkpt lat="45.9982110" lon="11.2968886" />
      <trkpt lat="45.9981365" lon="11.2967957" />
      <trkpt lat="45.9976119" lon="11.2958918" />
      <trkpt lat="45.9974915" lon="11.2957400" />
      <trkpt lat="45.9973736" lon="11.2956290" />
      <trkpt lat="45.9971917" lon="11.2955143" />
      <trkpt lat="45.9970764" lon="11.2954796" />
      <trkpt lat="45.9971304" lon="11.2953376" />
      <trkpt lat="45.9971287" lon="11.2950713" />
      <trkpt lat="45.9971495" lon="11.2949344" />
      <trkpt lat="45.9971916" lon="11.2948696" />
      <trkpt lat="45.9972926" lon="11.2948137" />
      <trkpt lat="45.9976399" lon="11.2947768" />
      <trkpt lat="45.9978523" lon="11.2947768" />
      <trkpt lat="45.9980833" lon="11.2947312" />
      <trkpt lat="45.9982752" lon="11.2947312" />
      <trkpt lat="45.9985361" lon="11.2947822" />
      <trkpt lat="45.9987616" lon="11.2948331" />
      <trkpt lat="45.9989069" lon="11.2949082" />
      <trkpt lat="45.9990820" lon="11.2949163" />
      <trkpt lat="45.9994267" lon="11.2948841" />
      <trkpt lat="45.9996391" lon="11.2948734" />
      <trkpt lat="45.9998795" lon="11.2949029" />
      <trkpt lat="46.0002262" lon="11.2950937" />
      <trkpt lat="46.0004117" lon="11.2951387" />
      <trkpt lat="46.0008125" lon="11.2951735" />
      <trkpt lat="46.0010116" lon="11.2953646" />
      <trkpt lat="46.0011297" lon="11.2956088" />
      <trkpt lat="46.0015371" lon="11.2959046" />
      <trkpt lat="46.0021340" lon="11.2970697" />
      <trkpt lat="46.0021594" lon="11.2970500" />
      <trkpt lat="46.0022912" lon="11.2969370" />
      <trkpt lat="46.0023110" lon="11.2969239" />
      <trkpt lat="46.0019766" lon="11.2962260" />
      <trkpt lat="46.0017415" lon="11.2956094" />
      <trkpt lat="46.0016119" lon="11.2946434" />
      <trkpt lat="46.0016118" lon="11.2939992" />
      <trkpt lat="46.0016483" lon="11.2935385" />
      <trkpt lat="46.0016274" lon="11.2927862" />
      <trkpt lat="46.0015900" lon="11.2925134" />
      <trkpt lat="46.0012528" lon="11.2909122" />
      <trkpt lat="46.0012023" lon="11.2906923" />
      <trkpt lat="46.0011824" lon="11.2905292" />
      <trkpt lat="46.0012191" lon="11.2903203" />
      <trkpt lat="46.0012681" lon="11.2901163" />
      <trkpt lat="46.0014696" lon="11.2902074" />
      <trkpt lat="46.0016485" lon="11.2902246" />
      <trkpt lat="46.0017916" lon="11.2902589" />
      <trkpt lat="46.0018810" lon="11.2903018" />
      <trkpt lat="46.0020122" lon="11.2904220" />
      <trkpt lat="46.0021284" lon="11.2905551" />
      <trkpt lat="46.0021815" lon="11.2905977" />
      <trkpt lat="46.0022375" lon="11.2906018" />
      <trkpt lat="46.0023376" lon="11.2905707" />
      <trkpt lat="46.0024584" lon="11.2905436" />
      <trkpt lat="46.0025698" lon="11.2905404" />
      <trkpt lat="46.0026927" lon="11.2905357" />
      <trkpt lat="46.0026612" lon="11.2900427" />
      <trkpt lat="46.0025272" lon="11.2877438" />
      <trkpt lat="46.0024494" lon="11.2865472" />
      <trkpt lat="46.0024454" lon="11.2865168" />
      <trkpt lat="46.0024793" lon="11.2864324" />
      <trkpt lat="46.0025077" lon="11.2863738" />
      <trkpt lat="46.0025338" lon="11.2863258" />
      <trkpt lat="46.0025631" lon="11.2862891" />
      <trkpt lat="46.0025911" lon="11.2862631" />
      <trkpt lat="46.0026208" lon="11.2862507" />
      <trkpt lat="46.0026839" lon="11.2862547" />
      <trkpt lat="46.0027533" lon="11.2862724" />
      <trkpt lat="46.0027886" lon="11.2863086" />
      <trkpt lat="46.0028144" lon="11.2863524" />
      <trkpt lat="46.0028408" lon="11.2864729" />
      <trkpt lat="46.0028512" lon="11.2865966" />
      <trkpt lat="46.0028664" lon="11.2868840" />
      <trkpt lat="46.0028868" lon="11.2871405" />
      <trkpt lat="46.0029062" lon="11.2874267" />
      <trkpt lat="46.0029229" lon="11.2875548" />
      <trkpt lat="46.0029517" lon="11.2876559" />
      <trkpt lat="46.0037008" lon="11.2886425" />
      <trkpt lat="46.0039147" lon="11.2889133" />
      <trkpt lat="46.0039033" lon="11.2889618" />
      <trkpt lat="46.0041001" lon="11.2891904" />
      <trkpt lat="46.0041104" lon="11.2892023" />
      <trkpt lat="46.0041242" lon="11.2892177" />
      <trkpt lat="46.0041416" lon="11.2892381" />
      <trkpt lat="46.0044496" lon="11.2896010" />
      <trkpt lat="46.0044946" lon="11.2896551" />
      <trkpt lat="46.0045184" lon="11.2896836" />
      <trkpt lat="46.0045573" lon="11.2897303" />
      <trkpt lat="46.0047523" lon="11.2899657" />
      <trkpt lat="46.0047737" lon="11.2899911" />
      <trkpt lat="46.0047929" lon="11.2900151" />
      <trkpt lat="46.0050862" lon="11.2903681" />
      <trkpt lat="46.0051065" lon="11.2903925" />
      <trkpt lat="46.0051264" lon="11.2904165" />
      <trkpt lat="46.0053607" lon="11.2906989" />
      <trkpt lat="46.0053797" lon="11.2907218" />
      <trkpt lat="46.0054014" lon="11.2907480" />
      <trkpt lat="46.0055938" lon="11.2909798" />
      <trkpt lat="46.0056137" lon="11.2910038" />
      <trkpt lat="46.0056345" lon="11.2910289" />
      <trkpt lat="46.0059617" lon="11.2914159" />
      <trkpt lat="46.0059831" lon="11.2914413" />
      <trkpt lat="46.0060023" lon="11.2914652" />
      <trkpt lat="46.0060721" lon="11.2915522" />
      <trkpt lat="46.0061136" lon="11.2916040" />
      <trkpt lat="46.0061187" lon="11.2916103" />
      <trkpt lat="46.0061265" lon="11.2916198" />
      <trkpt lat="46.0063120" lon="11.2918505" />
      <trkpt lat="46.0067496" lon="11.2923820" />
      <trkpt lat="46.0070436" lon="11.2927249" />
      <trkpt lat="46.0071569" lon="11.2928501" />
      <trkpt lat="46.0072143" lon="11.2929119" />
      <trkpt lat="46.0072582" lon="11.2929831" />
      <trkpt lat="46.0073492" lon="11.2931457" />
      <trkpt lat="46.0073728" lon="11.2930947" />
      <trkpt lat="46.0074144" lon="11.2931202" />
      <trkpt lat="46.0074595" lon="11.2931252" />
      <trkpt lat="46.0075033" lon="11.2931094" />
      <trkpt lat="46.0075365" lon="11.2930804" />
      <trkpt lat="46.0075628" lon="11.2930394" />
      <trkpt lat="46.0075804" lon="11.2929896" />
      <trkpt lat="46.0076801" lon="11.2930443" />
      <trkpt lat="46.0078961" lon="11.2931425" />
      <trkpt lat="46.0081086" lon="11.2932391" />
      <trkpt lat="46.0082721" lon="11.2933149" />
      <trkpt lat="46.0084383" lon="11.2934159" />
      <trkpt lat="46.0086200" lon="11.2935258" />
      <trkpt lat="46.0086759" lon="11.2935596" />
      <trkpt lat="46.0088694" lon="11.2936467" />
      <trkpt lat="46.0089680" lon="11.2936565" />
      <trkpt lat="46.0089737" lon="11.2937248" />
      <trkpt lat="46.0090031" lon="11.2937964" />
      <trkpt lat="46.0091364" lon="11.2939444" />
      <trkpt lat="46.0091637" lon="11.2939748" />
      <trkpt lat="46.0093406" lon="11.2941340" />
      <trkpt lat="46.0095860" lon="11.2944225" />
      <trkpt lat="46.0096077" lon="11.2944514" />
      <trkpt lat="46.0098606" lon="11.2948293" />
      <trkpt lat="46.0099173" lon="11.2949136" />
      <trkpt lat="46.0099498" lon="11.2949615" />
      <trkpt lat="46.0101526" lon="11.2952325" />
      <trkpt lat="46.0102519" lon="11.2953652" />
      <trkpt lat="46.0102901" lon="11.2954163" />
      <trkpt lat="46.0103318" lon="11.2954721" />
      <trkpt lat="46.0105090" lon="11.2957082" />
      <trkpt lat="46.0105204" lon="11.2957234" />
      <trkpt lat="46.0106659" lon="11.2959174" />
      <trkpt lat="46.0107266" lon="11.2959983" />
      <trkpt lat="46.0107605" lon="11.2960435" />
      <trkpt lat="46.0109276" lon="11.2962659" />
      <trkpt lat="46.0110369" lon="11.2964115" />
      <trkpt lat="46.0111280" lon="11.2964899" />
      <trkpt lat="46.0112072" lon="11.2965500" />
      <trkpt lat="46.0111781" lon="11.2968399" />
      <trkpt lat="46.0112568" lon="11.2970649" />
      <trkpt lat="46.0112181" lon="11.2971112" />
      <trkpt lat="46.0116123" lon="11.2977853" />
      <trkpt lat="46.0115764" lon="11.2979707" />
      <trkpt lat="46.0115587" lon="11.2979934" />
      <trkpt lat="46.0116728" lon="11.2981556" />
      <trkpt lat="46.0118028" lon="11.2983483" />
      <trkpt lat="46.0118824" lon="11.2985225" />
      <trkpt lat="46.0120860" lon="11.2982428" />
      <trkpt lat="46.0122052" lon="11.2981248" />
      <trkpt lat="46.0122499" lon="11.2982214" />
      <trkpt lat="46.0122424" lon="11.2983394" />
      <trkpt lat="46.0123552" lon="11.2985082" />
    </trkseg>
  </trk>
</gpx>
